"icao","site","observed_utc","observed_local","flight_category","temp_c","dewpoint_c","wind_dir_deg","wind_kts","gust_kts","vis_sm","altimeter_hpa","raw_text","fetched_at_utc","fetched_at_local"
"CYAT","Attawapisket Arpt, ON, CA",2025-09-09 15:37:00,2025-09-09 11:37:00,"VFR",14,11,NA,5,NA,9,1011.6,"SPECI CYAT 091537Z AUTO VRB05KT 9SM FEW050 OVC081 14/11 A2987 RMK SLP118",2025-09-09 15:51:24.585027,2025-09-09 11:51:24.585072
"CYEG","Edmonton Intl Arpt, AB, CA",2025-09-09 15:32:00,2025-09-09 11:32:00,"VFR",16,11,160,4,NA,8,1011.9,"SPECI CYEG 091532Z 16004KT 8SM SKC 16/11 A2988 RMK FU SLP125 DENSITY ALT 3100FT",2025-09-09 15:51:24.59605,2025-09-09 11:51:24.596092
"CYQG","Windsor Intl, ON, CA",2025-09-09 15:00:00,2025-09-09 11:00:00,"VFR",21,11,230,8,NA,9,1024.5,"METAR CYQG 091500Z AUTO 23008KT 180V250 9SM CLR 21/11 A3025 RMK SLP247 DENSITY ALT 1100FT",2025-09-09 15:51:24.602644,2025-09-09 11:51:24.602686
"CYQQ","Comox(MIL), BC, CA",2025-09-09 15:00:00,2025-09-09 11:00:00,"VFR",15,12,300,6,NA,20,1015.3,"METAR CYQQ 091500Z 30006KT 20SM FEW020 FEW240 15/12 A2998 RMK SC1CI1 DENSITY ALT 221FT SLP153",2025-09-09 15:51:24.609082,2025-09-09 11:51:24.609127
"CYWG","Winnipeg Intl Arpt, MB, CA",2025-09-09 15:00:00,2025-09-09 11:00:00,"VFR",18,15,NA,2,NA,12,1014.6,"METAR CYWG 091500Z VRB02KT 12SM SKC 18/15 A2996 RMK SLP151 DENSITY ALT 1300FT",2025-09-09 15:51:24.615529,2025-09-09 11:51:24.615573
"CYYJ","Victoria Intl, BC, CA",2025-09-09 15:00:00,2025-09-09 11:00:00,"VFR",16,14,0,0,NA,30,1014.6,"METAR CYYJ 091500Z 00000KT 30SM FEW020 BKN044 16/14 A2996 RMK SC1SC7 SC TR SLP147",2025-09-09 15:51:24.621948,2025-09-09 11:51:24.62199
"CYYZ","Toronto/Pearson Intl, ON, CA",2025-09-09 15:00:00,2025-09-09 11:00:00,"VFR",18,11,140,5,NA,15,1026.2,"METAR CYYZ 091500Z 14005KT 090V170 15SM SKC 18/11 A3030 RMK SLP265",2025-09-09 15:51:24.628381,2025-09-09 11:51:24.628426
"CYQR","Regina Intl Arpt, SK, CA",2025-09-09 15:00:00,2025-09-09 11:00:00,"VFR",18,9,10,4,NA,12,1016.3,"METAR CYQR 091500Z 01004KT 320V030 12SM SKC 18/09 A3001 RMK HZ SLP167 DENSITY ALT 2700FT",2025-09-09 15:51:24.634755,2025-09-09 11:51:24.634797
"CYLW","Kelowna Arpt, BC, CA",2025-09-09 15:00:00,2025-09-09 11:00:00,"VFR",14,11,60,2,NA,9,1013.3,"METAR CYLW 091500Z AUTO 06002KT 9SM CLR 14/11 A2992 RMK SLP133 DENSITY ALT 1700FT",2025-09-09 15:51:24.641132,2025-09-09 11:51:24.641176
"CYBR","Brandon Arpt, MB, CA",2025-09-09 15:00:00,2025-09-09 11:00:00,"VFR",17,14,70,7,NA,15,1015.3,"METAR CYBR 091500Z 07007KT 15SM FEW250 17/14 A2998 RMK CI2 SLP159 DENSITY ALT 1900FT",2025-09-09 15:51:24.649884,2025-09-09 11:51:24.649926
"CYER","Ft Severn Arpt, ON, CA",2025-09-09 15:00:00,2025-09-09 11:00:00,"MVFR",7,7,30,8,NA,9,1015.3,"METAR CYER 091500Z AUTO 03008KT 9SM BKN013 OVC022 07/07 A2998 RMK SLP156",2025-09-09 15:51:24.656368,2025-09-09 11:51:24.656412
"CYGK","Kingston Arpt, ON, CA",2025-09-09 15:00:00,2025-09-09 11:00:00,"VFR",18,11,170,11,NA,15,1028.2,"METAR CYGK 091500Z 17011KT 15SM FEW018 BKN240 18/11 A3036 RMK CU2CS4 SLP285",2025-09-09 15:51:24.662917,2025-09-09 11:51:24.662961
"CYQA","Muskoka Arpt, ON, CA",2025-09-09 15:00:00,2025-09-09 11:00:00,"VFR",17,9,170,10,15,9,1026.2,"METAR CYQA 091500Z AUTO 17010G15KT 150V210 9SM CLR 17/09 A3030 RMK SLP268",2025-09-09 15:51:24.669373,2025-09-09 11:51:24.669415
"CYSB","Sudbury Arpt, ON, CA",2025-09-09 15:00:00,2025-09-09 11:00:00,"VFR",16,11,200,15,22,20,1023.5,"METAR CYSB 091500Z 20015G22KT 20SM FEW050 BKN079 BKN180 16/11 A3022 RMK CF2AC4CI1 SLP240",2025-09-09 15:51:24.675748,2025-09-09 11:51:24.67579
"CYYB","North Bay/Garland Arpt, ON, CA",2025-09-09 15:00:00,2025-09-09 11:00:00,"VFR",15,9,200,7,NA,30,1025.1,"METAR CYYB 091500Z 20007KT 30SM FEW025 FEW100 BKN280 15/09 A3027 RMK CF1AC1CI5 CF TR SLP259",2025-09-09 15:51:24.682248,2025-09-09 11:51:24.682294
"CYYG","Charlottetown Arpt, PE, CA",2025-09-09 15:00:00,2025-09-09 11:00:00,"VFR",20,6,NA,4,NA,15,1028.9,"METAR CYYG 091500Z VRB04KT 15SM SCT062 BKN260 20/06 A3038 RMK SC3CI2 SLP289",2025-09-09 15:51:24.688841,2025-09-09 11:51:24.688884
"CYAM","Sault Ste Marie Arpt, ON, CA",2025-09-09 15:00:00,2025-09-09 11:00:00,"VFR",17,12,210,5,NA,20,1019.4,"METAR CYAM 091500Z 21005KT 150V240 20SM FEW018 SCT110 BKN150 OVC250 17/12 A3010 RMK CU1AC2AS3CS2 SLP198 DENSITY ALT 900FT",2025-09-09 15:51:24.6955,2025-09-09 11:51:24.695544
"CYHU","Montreal/St Hubert, QC, CA",2025-09-09 15:00:00,2025-09-09 11:00:00,"VFR",17,10,180,5,NA,9,1028.5,"METAR CYHU 091500Z AUTO 18005KT 120V240 9SM CLR 17/10 A3037 RMK SLP286",2025-09-09 15:51:24.702014,2025-09-09 11:51:24.702057
"CYHZ","Halifax/Stanfield Intl, NS, CA",2025-09-09 15:00:00,2025-09-09 11:00:00,"VFR",19,8,60,6,NA,15,1028.9,"METAR CYHZ 091500Z 06006KT 010V110 15SM FEW040 BKN250 19/08 A3038 RMK CU2CS4 CI ASOCTD SLP292",2025-09-09 15:51:24.710743,2025-09-09 11:51:24.710785
"CYOW","Ottawa/Cartier Intl, ON, CA",2025-09-09 15:00:00,2025-09-09 11:00:00,"VFR",15,9,170,3,NA,15,1028.2,"METAR CYOW 091500Z 17003KT 130V270 15SM FEW250 15/09 A3036 RMK CI1 CI TR SLP285",2025-09-09 15:51:24.717426,2025-09-09 11:51:24.717472
"CYPL","Pickle Lake Arpt, ON, CA",2025-09-09 15:00:00,2025-09-09 11:00:00,"VFR",15,11,10,3,NA,9,1014.6,"METAR CYPL 091500Z AUTO 01003KT 330V070 9SM CLR 15/11 A2996 RMK SLP155 DENSITY ALT 1600FT",2025-09-09 15:51:24.724044,2025-09-09 11:51:24.72409
"CYQM","Moncton Intl, NB, CA",2025-09-09 15:00:00,2025-09-09 11:00:00,"VFR",18,6,NA,2,NA,15,1028.9,"METAR CYQM 091500Z VRB02KT 15SM FEW045 FEW240 18/06 A3038 RMK CU1CI1 CU TR SLP292",2025-09-09 15:51:24.730604,2025-09-09 11:51:24.730647
"CYUL","Montreal/Trudeau Intl, QC, CA",2025-09-09 15:00:00,2025-09-09 11:00:00,"VFR",17,9,200,4,NA,30,1028.5,"METAR CYUL 091500Z 20004KT 150V230 30SM FEW250 17/09 A3037 RMK CI2 SLP287",2025-09-09 15:51:24.737047,2025-09-09 11:51:24.737091
"CYUY","Rouyn/Noranda Arpt, QC, CA",2025-09-09 15:00:00,2025-09-09 11:00:00,"VFR",11,9,190,10,NA,15,1022.4,"METAR CYUY 091500Z 19010KT 15SM -RA BKN052 11/09 A3019 RMK SC7 SLP232",2025-09-09 15:51:24.743565,2025-09-09 11:51:24.743608
"CYVR","Vancouver Intl, BC, CA",2025-09-09 15:00:00,2025-09-09 11:00:00,"VFR",17,16,NA,2,NA,NA,1014.3,"METAR CYVR 091500Z VRB02KT 10SM FEW010 FEW015 BKN045 BKN110 17/16 A2995 RMK SC1SC1SC5AC1 AC TR HZ SLP145 DENSITY ALT 300FT",2025-09-09 15:51:24.750109,2025-09-09 11:51:24.750154
"CYYC","Calgary Intl, AB, CA",2025-09-09 15:00:00,2025-09-09 11:00:00,"VFR",14,9,NA,2,NA,15,1014.6,"METAR CYYC 091500Z VRB02KT 15SM SKC 14/09 A2996 RMK SLP145 DENSITY ALT 4300FT",2025-09-09 15:51:24.756767,2025-09-09 11:51:24.756811
"CYZV","Sept-Îles Arpt, QC, CA",2025-09-09 15:00:00,2025-09-09 11:00:00,"VFR",12,4,180,5,NA,30,1027.9,"METAR CYZV 091500Z 18005KT 30SM FEW045 FEW180 BKN260 12/04 A3035 RMK CU1AC1CI4 WIND EST SLP281",2025-09-09 15:51:24.765953,2025-09-09 11:51:24.765996
"CYVV","Wiarton Arpt, ON, CA",2025-09-09 15:00:00,2025-09-09 11:00:00,"VFR",17,11,180,11,NA,15,1025.1,"METAR CYVV 091500Z 18011KT 15SM OVC250 17/11 A3027 RMK CI8 SLP256",2025-09-09 15:51:24.772505,2025-09-09 11:51:24.772547
"CYXE","Saskatoon/Diefenbaker Intl, SK, CA",2025-09-09 15:00:00,2025-09-09 11:00:00,"VFR",14,11,60,4,NA,12,1015.3,"METAR CYXE 091500Z 06004KT 12SM FEW120 14/11 A2998 RMK AC1 AC TR FU SLP162 DENSITY ALT 1900FT",2025-09-09 15:51:24.779094,2025-09-09 11:51:24.779136
"CYXS","Prince George Arpt, BC, CA",2025-09-09 15:00:00,2025-09-09 11:00:00,"MVFR",8,8,200,2,NA,5,1013.6,"METAR CYXS 091500Z AUTO 20002KT 5SM BR CLR 08/08 A2993 RMK SLP148",2025-09-09 15:51:24.785589,2025-09-09 11:51:24.785632
"CYXT","Terrace Arpt, BC, CA",2025-09-09 15:00:00,2025-09-09 11:00:00,"VFR",13,11,290,3,NA,20,1016.3,"METAR CYXT 091500Z 29003KT 20SM FEW020 BKN040 BKN210 13/11 A3001 RMK SC1SC6CI1 CI TR SLP169",2025-09-09 15:51:24.792031,2025-09-09 11:51:24.792075
"CYQF","Red Deer Rgnl, AB, CA",2025-09-09 15:00:00,2025-09-09 11:00:00,"MVFR",11,8,180,4,NA,4,1013.6,"METAR CYQF 091500Z AUTO 18004KT 4SM BR CLR 11/08 A2993 RMK SLP147 DENSITY ALT 3200FT",2025-09-09 15:51:24.798542,2025-09-09 11:51:24.798586
"CYQT","Thunder Bay Intl, ON, CA",2025-09-09 15:00:00,2025-09-09 11:00:00,"MVFR",15,14,NA,2,NA,8,1014,"METAR CYQT 091500Z VRB02KT 8SM SCT005 BKN013 OVC023 15/14 A2994 RMK SF3SC2SC3 BR SLP145",2025-09-09 15:51:24.805048,2025-09-09 11:51:24.805091
"CYRJ","Roberval Arpt, QC, CA",2025-09-09 15:00:00,2025-09-09 11:00:00,"VFR",16,8,240,11,NA,40,1026.2,"METAR CYRJ 091500Z 24011KT 180V270 40SM FEW060 SCT090 BKN240 16/08 A3030 RMK SC1AC2CI2 SLP269",2025-09-09 15:51:24.811472,2025-09-09 11:51:24.811516
"CYTS","Timmins/Power Arpt, ON, CA",2025-09-09 15:00:00,2025-09-09 11:00:00,"MVFR",12,11,200,10,16,3,1018,"METAR CYTS 091500Z 20010G16KT 3SM -RA BR SCT010 OVC018 12/11 A3006 RMK SF3NS5 SLP190",2025-09-09 15:51:24.817866,2025-09-09 11:51:24.817909
"CYVO","Val D'Or Arpt, QC, CA",2025-09-09 15:00:00,2025-09-09 11:00:00,"VFR",13,6,180,10,20,15,1023.5,"METAR CYVO 091500Z 18010G20KT 15SM BKN085 BKN130 BKN160 13/06 A3022 RMK AC5AC1AC2 SLP247",2025-09-09 15:51:24.826729,2025-09-09 11:51:24.826772
"CYMM","Fort McMurray Arpt, AB, CA",2025-09-09 15:00:00,2025-09-09 11:00:00,"MVFR",12,9,100,7,NA,5,1011.3,"METAR CYMM 091500Z AUTO 10007KT 5SM HZ CLR 12/09 A2986 RMK SLP125",2025-09-09 15:51:24.833419,2025-09-09 11:51:24.833462
"CYMO","Moosonee Arpt, ON, CA",2025-09-09 15:00:00,2025-09-09 11:00:00,"MVFR",13,11,200,11,NA,9,1014.6,"METAR CYMO 091500Z AUTO 20011KT 9SM BKN013 OVC037 13/11 A2996 RMK SLP146",2025-09-09 15:51:24.839965,2025-09-09 11:51:24.84001
"CYBC","Baie Comeau Arpt, QC, CA",2025-09-09 15:00:00,2025-09-09 11:00:00,"VFR",13,7,220,8,NA,9,1028.2,"METAR CYBC 091500Z AUTO 22008KT 9SM CLR 13/07 A3036 RMK SLP283",2025-09-09 15:51:24.846587,2025-09-09 11:51:24.846632
"CYQB","Quebec/Lesage Intl, QC, CA",2025-09-09 15:00:00,2025-09-09 11:00:00,"VFR",16,7,130,3,NA,30,1029.2,"METAR CYQB 091500Z 13003KT 30SM FEW050 FEW100 FEW250 16/07 A3039 RMK SC1AC1CI2 SC TR AC TR SLP297",2025-09-09 15:51:24.853084,2025-09-09 11:51:24.853127
"CYPR","Prince Rupert Arpt, BC, CA",2025-09-09 15:00:00,2025-09-09 11:00:00,NA,12,12,NA,2,NA,NA,1017.7,"METAR CYPR 091500Z AUTO VRB02KT OVC002 12/12 A3005 RMK WX MISG VIS MISG SLP178",2025-09-09 15:51:26.016941,2025-09-09 11:51:26.016986
"CYQQ","Comox(MIL), BC, CA",2025-09-09 15:00:00,2025-09-09 11:00:00,"VFR",15,12,300,6,NA,20,1015.3,"METAR CYQQ 091500Z 30006KT 20SM FEW020 FEW240 15/12 A2998 RMK SC1CI1 DENSITY ALT 221FT SLP153",2025-09-09 15:51:26.025838,2025-09-09 11:51:26.025881
"CYQX","Gander Intl Arpt, NL, CA",2025-09-09 15:00:00,2025-09-09 11:00:00,"VFR",16,6,240,13,18,20,1024.5,"METAR CYQX 091500Z 24013G18KT 20SM FEW040 OVC210 16/06 A3025 RMK CF1CC7 SLP249",2025-09-09 15:51:26.032422,2025-09-09 11:51:26.032464
"CYBK","Baker Lake Arpt, NU, CA",2025-09-09 15:00:00,2025-09-09 11:00:00,"MVFR",5,1,350,3,NA,20,1016.7,"METAR CYBK 091500Z 35003KT 300V010 20SM BKN018 05/01 A3002 RMK SC6 SLP169",2025-09-09 15:51:26.038955,2025-09-09 11:51:26.039
"CYQH","Watson Lake Arpt, YT, CA",2025-09-09 15:00:00,2025-09-09 11:00:00,"VFR",7,3,30,2,NA,30,1011.9,"METAR CYQH 091500Z 03002KT 30SM BKN060 BKN120 07/03 A2988 RMK CU5AC2 SLP135",2025-09-09 15:51:26.045559,2025-09-09 11:51:26.045601
"CYQU","Grande Prairie Arpt, AB, CA",2025-09-09 15:00:00,2025-09-09 11:00:00,"MVFR",14,9,240,9,NA,4,1010.2,"METAR CYQU 091500Z 24009KT 4SM FU FEW150 14/09 A2983 RMK AC1 AC TR SLP109 DENSITY ALT 2800FT",2025-09-09 15:51:26.052048,2025-09-09 11:51:26.052092
"CYRT","Rankin Inlet Arpt, NU, CA",2025-09-09 15:00:00,2025-09-09 11:00:00,"MVFR",6,4,50,9,NA,15,1015,"METAR CYRT 091500Z 05009KT 15SM FEW004 BKN015 BKN030 06/04 A2997 RMK SC2CU3SC1 SH DST SW-W SLP153",2025-09-09 15:51:26.058555,2025-09-09 11:51:26.058599
"CYHM","Hamilton/Munro Intl, ON, CA",2025-09-09 15:00:00,2025-09-09 11:00:00,"VFR",19,12,130,3,NA,15,1026.2,"METAR CYHM 091500Z 13003KT 100V180 15SM SKC 19/12 A3030 RMK SLP265 DENSITY ALT 1000FT",2025-09-09 15:51:26.065005,2025-09-09 11:51:26.065048
"CYQK","Kenora Arpt, ON, CA",2025-09-09 15:00:00,2025-09-09 11:00:00,"VFR",17,12,0,0,NA,20,1015.7,"METAR CYQK 091500Z 00000KT 20SM FEW240 17/12 A2999 RMK CI1 SLP161 DENSITY ALT 1900FT",2025-09-09 15:51:26.071509,2025-09-09 11:51:26.071551
"CYMH","Mary's Harbor Arpt, NL, CA",2025-09-09 15:00:00,2025-09-09 11:00:00,"VFR",14,5,330,9,18,9,1020.4,"METAR CYMH 091500Z AUTO 33009G18KT 280V340 9SM CLR 14/05 A3013 RMK SLP205",2025-09-09 15:51:26.08022,2025-09-09 11:51:26.080268
"CYDP","Nain Arpt, NL, CA",2025-09-09 15:00:00,2025-09-09 11:00:00,"VFR",12,3,290,13,18,15,1016.3,"METAR CYDP 091500Z 29013G18KT 15SM SCT048 SCT060 12/03 A3001 RMK SC3CF1 CF TR SLP164",2025-09-09 15:51:26.086716,2025-09-09 11:51:26.08676
"CYAM","Sault Ste Marie Arpt, ON, CA",2025-09-09 15:00:00,2025-09-09 11:00:00,"VFR",17,12,210,5,NA,20,1019.4,"METAR CYAM 091500Z 21005KT 150V240 20SM FEW018 SCT110 BKN150 OVC250 17/12 A3010 RMK CU1AC2AS3CS2 SLP198 DENSITY ALT 900FT",2025-09-09 15:51:26.093369,2025-09-09 11:51:26.093414
"CYBG","Bagotville(MIL), QC, CA",2025-09-09 15:00:00,2025-09-09 11:00:00,"VFR",14,9,90,6,NA,25,1027.9,"METAR CYBG 091500Z 09006KT 25SM FEW021 BKN240 14/09 A3035 RMK CU1CI6 DENSITY ALT 130FT CIG PDMTLY TRANSPARENT SLP283",2025-09-09 15:51:26.100066,2025-09-09 11:51:26.100109
"CYFC","Fredericton Intl, NB, CA",2025-09-09 15:00:00,2025-09-09 11:00:00,"VFR",17,9,210,3,NA,9,1029.5,"METAR CYFC 091500Z AUTO 21003KT 130V230 9SM CLR 17/09 A3040 RMK SLP299",2025-09-09 15:51:26.106567,2025-09-09 11:51:26.10661
"CYQY","Sydney Arpt, NS, CA",2025-09-09 15:00:00,2025-09-09 11:00:00,"VFR",20,10,30,6,NA,15,1028.2,"METAR CYQY 091500Z 03006KT 340V070 15SM FEW040 BKN240 20/10 A3036 RMK CU2CI3 SLP283",2025-09-09 15:51:26.113078,2025-09-09 11:51:26.113122
"CYRB","Resolute Bay Arpt, NU, CA",2025-09-09 15:00:00,2025-09-09 11:00:00,"LIFR",-2,-2,290,4,NA,0.63,1012.3,"METAR CYRB 091500Z 29004KT 5/8SM R35/3000VP6000FT/U BR OVC002 M02/M02 A2989 RMK FG2ST6 SLP132",2025-09-09 15:51:26.119548,2025-09-09 11:51:26.119591
"CYUY","Rouyn/Noranda Arpt, QC, CA",2025-09-09 15:00:00,2025-09-09 11:00:00,"VFR",11,9,190,10,NA,15,1022.4,"METAR CYUY 091500Z 19010KT 15SM -RA BKN052 11/09 A3019 RMK SC7 SLP232",2025-09-09 15:51:26.12596,2025-09-09 11:51:26.126004
"CYXU","London Intl, ON, CA",2025-09-09 15:00:00,2025-09-09 11:00:00,"VFR",20,11,170,6,NA,15,1025.5,"METAR CYXU 091500Z 17006KT 15SM FEW240 20/11 A3028 RMK CI2 SLP258 DENSITY ALT 1300FT",2025-09-09 15:51:26.132483,2025-09-09 11:51:26.132527
"CYXX","Abbotsford Intl, BC, CA",2025-09-09 15:00:00,2025-09-09 11:00:00,"LIFR",15,15,110,3,NA,4,1014.6,"METAR CYXX 091500Z 11003KT 4SM BR BKN004 OVC014 15/15 A2996 RMK ST7SC1 VIS SW 2 VIS HYR E SLP146",2025-09-09 15:51:26.151394,2025-09-09 11:51:26.151437
"CYXY","Whitehorse Arpt, YT, CA",2025-09-09 15:00:00,2025-09-09 11:00:00,"VFR",4,2,0,0,NA,40,1012.3,"METAR CYXY 091500Z 00000KT 40SM FEW060 FEW140 04/02 A2989 RMK SC1AC1 AC TR SLP146",2025-09-09 15:51:26.157949,2025-09-09 11:51:26.157992
"CYZF","Yellowknife Arpt, NT, CA",2025-09-09 15:00:00,2025-09-09 11:00:00,"VFR",11,8,120,11,NA,15,1006.9,"METAR CYZF 091500Z 12011KT 15SM FEW020 FEW110 SCT180 11/08 A2973 RMK SC1AC2AC1 SC TR SLP078",2025-09-09 15:51:26.164564,2025-09-09 11:51:26.164612
"CYYT","St Johns Intl, NL, CA",2025-09-09 15:00:00,2025-09-09 11:00:00,"VFR",16,9,270,12,NA,15,1025.5,"METAR CYYT 091500Z CCA 27012KT 15SM SCT100 BKN130 OVC220 16/09 A3028 RMK AC3AC3CI2 SLP258",2025-09-09 15:51:26.17102,2025-09-09 11:51:26.171062
"CYWL","Williams Lake Rgnl, BC, CA",2025-09-09 15:00:00,2025-09-09 11:00:00,"IFR",11,11,NA,2,NA,1,1015.3,"METAR CYWL 091500Z VRB02KT 1SM FU SCT059 SCT100 11/11 A2998 RMK FU3SC1AC1 AC TR SLP156 DENSITY ALT 3300FT",2025-09-09 15:51:26.177571,2025-09-09 11:51:26.177615
"CYXS","Prince George Arpt, BC, CA",2025-09-09 15:00:00,2025-09-09 11:00:00,"MVFR",8,8,200,2,NA,5,1013.6,"METAR CYXS 091500Z AUTO 20002KT 5SM BR CLR 08/08 A2993 RMK SLP148",2025-09-09 15:51:26.184001,2025-09-09 11:51:26.184044
"CYZP","Sandspit Arpt, BC, CA",2025-09-09 15:00:00,2025-09-09 11:00:00,"MVFR",15,10,300,11,16,9,1018.7,"METAR CYZP 091500Z AUTO 30011G16KT 9SM BKN026 15/10 A3008 RMK SLP188",2025-09-09 15:51:26.190523,2025-09-09 11:51:26.190566
"CYQT","Thunder Bay Intl, ON, CA",2025-09-09 15:00:00,2025-09-09 11:00:00,"MVFR",15,14,NA,2,NA,8,1014,"METAR CYQT 091500Z VRB02KT 8SM SCT005 BKN013 OVC023 15/14 A2994 RMK SF3SC2SC3 BR SLP145",2025-09-09 15:51:26.197072,2025-09-09 11:51:26.197116
"CYHD","Dryden Rgnl, ON, CA",2025-09-09 15:00:00,2025-09-09 11:00:00,"VFR",14,11,NA,2,NA,9,1015.3,"METAR CYHD 091500Z AUTO VRB02KT 9SM CLR 14/11 A2998 RMK SLP163",2025-09-09 15:51:26.206093,2025-09-09 11:51:26.206136
"CYOD","Cold Lake (Mil), AB, CA",2025-09-09 15:00:00,2025-09-09 11:00:00,"VFR",14,11,120,7,NA,8,1013.6,"METAR CYOD 091500Z 12007KT 8SM FEW080 FEW250 14/11 A2993 RMK AC1CI1 DENSITY ALT 2258FT FU SLP143",2025-09-09 15:51:26.212469,2025-09-09 11:51:26.212511
"CYAZ","Tofino Arpt, BC, CA",2025-09-09 15:00:00,2025-09-09 11:00:00,"LIFR",13,13,310,3,NA,0.25,1015,"METAR CYAZ 091500Z 31003KT 1/4SM FG VV002 13/13 A2997 RMK FG8 SLP151",2025-09-09 15:51:26.218979,2025-09-09 11:51:26.219022
"CYBL","Campbell River Arpt, BC, CA",2025-09-09 15:00:00,2025-09-09 11:00:00,"MVFR",12,12,280,2,NA,15,1015.7,"METAR CYBL 091500Z 28002KT 15SM FEW004 BKN018 12/12 A2999 RMK SF1SC7 SF TR SLP157",2025-09-09 15:51:26.225488,2025-09-09 11:51:26.225532
"CYCD","Nanaimo Arpt, BC, CA",2025-09-09 15:00:00,2025-09-09 11:00:00,"VFR",16,13,NA,2,NA,20,1014.6,"METAR CYCD 091500Z VRB02KT 20SM BKN045 16/13 A2996 RMK SC7 SLP149",2025-09-09 15:51:26.231995,2025-09-09 11:51:26.232039
"CYCO","Coppermine/Kugluktuk Arpt, NU, CA",2025-09-09 15:00:00,2025-09-09 11:00:00,"MVFR",6,5,230,2,NA,5,1008.5,"METAR CYCO 091500Z 23002KT 5SM FU BKN035 06/05 A2978 RMK FU5 SLP087",2025-09-09 15:51:26.238501,2025-09-09 11:51:26.238544
"CYDF","Deer Lake Arpt, NL, CA",2025-09-09 15:00:00,2025-09-09 11:00:00,"VFR",18,5,240,14,19,15,1025.1,"METAR CYDF 091500Z 24014G19KT 220V280 15SM FEW050 SCT250 18/05 A3027 RMK CU2CI1 SLP254",2025-09-09 15:51:26.244907,2025-09-09 11:51:26.244951
"CYKF","Waterloo Intl, ON, CA",2025-09-09 15:00:00,2025-09-09 11:00:00,"VFR",19,10,150,7,NA,9,1025.8,"METAR CYKF 091500Z AUTO 15007KT 110V180 9SM CLR 19/10 A3029 RMK SLP263 DENSITY ALT 1300FT",2025-09-09 15:51:26.251351,2025-09-09 11:51:26.251396
"CYTZ","Toronto/Bishop Arpt, ON, CA",2025-09-09 15:00:00,2025-09-09 11:00:00,"VFR",17,13,80,6,NA,9,1026.5,"METAR CYTZ 091500Z AUTO 08006KT 9SM CLR 17/13 A3031 RMK SLP266",2025-09-09 15:51:26.257769,2025-09-09 11:51:26.257815
"CYTR","Trenton(MIL), ON, CA",2025-09-09 15:00:00,2025-09-09 11:00:00,"VFR",19,13,140,3,NA,15,1027.5,"METAR CYTR 091500Z 14003KT 15SM FEW024 SCT250 19/13 A3034 RMK CF1CI3 DENSITY ALT 487FT SLP276",2025-09-09 15:51:26.266806,2025-09-09 11:51:26.26685
"CYFB","Iqaluit Arpt, NU, CA",2025-09-09 15:00:00,2025-09-09 11:00:00,"MVFR",7,3,320,16,21,30,1009.9,"METAR CYFB 091500Z 32016G21KT 30SM OVC015 07/03 A2982 RMK SC8 SLP103",2025-09-09 15:51:26.273539,2025-09-09 11:51:26.273582
"CYMT","Chibougamau Arpt, QC, CA",2025-09-09 15:45:00,2025-09-09 11:45:00,"VFR",13,9,180,14,NA,9,1023.1,"SPECI CYMT 091545Z AUTO 18014KT 9SM SCT047 BKN066 OVC084 13/09 A3021 RMK SLP243",2025-09-09 15:51:27.436405,2025-09-09 11:51:27.43645
"KRIC","Richmond Intl, VA, US",2025-09-09 15:44:00,2025-09-09 11:44:00,"VFR",21.7,13.9,30,11,20,NA,1024.1,"SPECI KRIC 091544Z 03011G20KT 10SM BKN031 BKN250 22/14 A3024 RMK AO2 T02170139",2025-09-09 15:51:27.442952,2025-09-09 11:51:27.442995
"CYGL","La Grande Riviere Arpt, QC, CA",2025-09-09 15:31:00,2025-09-09 11:31:00,"VFR",11,11,200,7,NA,15,1014,"SPECI CYGL 091531Z 20007KT 15SM -DZ SCT012 OVC051 11/11 A2994 RMK SC4SC4 SLP151",2025-09-09 15:51:27.449318,2025-09-09 11:51:27.449363
"CYKJ","Key Lake Arpt, SK, CA",2025-09-09 15:00:00,2025-09-09 11:00:00,"VFR",10,8,140,5,NA,9,1016,"METAR CYKJ 091500Z AUTO 14005KT 9SM CLR 10/08 A3000 RMK SLP180",2025-09-09 15:51:27.455724,2025-09-09 11:51:27.455765
"CYLK","Lutselke Arpt, NT, CA",2025-09-09 15:00:00,2025-09-09 11:00:00,"VFR",11,7,90,5,NA,25,1010.2,"METAR CYLK 091500Z 09005KT 050V140 25SM SCT120 BKN140 BKN240 11/07 A2983 RMK AC3AC2CI1 FU SLP112",2025-09-09 15:51:27.464508,2025-09-09 11:51:27.464551
"CYPC","Paulatuk Arpt, NT, CA",2025-09-09 15:00:00,2025-09-09 11:00:00,"VFR",5,4,0,0,NA,15,1005.8,"METAR CYPC 091500Z 00000KT 15SM SCT180 BKN210 05/04 A2970 RMK AC3CS3 SLP061",2025-09-09 15:51:27.470894,2025-09-09 11:51:27.470939
"CYTE","Cape Dorset Arpt, NU, CA",2025-09-09 15:00:00,2025-09-09 11:00:00,"VFR",6,3,270,3,NA,15,1011.9,"METAR CYTE 091500Z 27003KT 15SM FEW024 SCT043 06/03 A2988 RMK CU1SC3 SLP124",2025-09-09 15:51:27.477351,2025-09-09 11:51:27.477395
"CYXP","Pangnirtung Arpt, NU, CA",2025-09-09 15:00:00,2025-09-09 11:00:00,"VFR",7,1,240,13,NA,15,1003.8,"METAR CYXP 091500Z 24013KT 15SM FEW030 07/01 A2964 RMK CF2 SLP040",2025-09-09 15:51:27.483737,2025-09-09 11:51:27.48378
"CYCK","Chatham/Kent Arpt, ON, CA",2025-09-09 15:00:00,2025-09-09 11:00:00,"VFR",21,11,180,11,NA,9,1024.8,"METAR CYCK 091500Z AUTO 18011KT 9SM CLR 21/11 A3026 RMK SLP249 DENSITY ALT 1100FT",2025-09-09 15:51:27.490085,2025-09-09 11:51:27.490128
"CYBC","Baie Comeau Arpt, QC, CA",2025-09-09 15:00:00,2025-09-09 11:00:00,"VFR",13,7,220,8,NA,9,1028.2,"METAR CYBC 091500Z AUTO 22008KT 9SM CLR 13/07 A3036 RMK SLP283",2025-09-09 15:51:27.496464,2025-09-09 11:51:27.496507
"CYFB","Iqaluit Arpt, NU, CA",2025-09-09 15:00:00,2025-09-09 11:00:00,"MVFR",7,3,320,16,21,30,1009.9,"METAR CYFB 091500Z 32016G21KT 30SM OVC015 07/03 A2982 RMK SC8 SLP103",2025-09-09 15:51:27.502812,2025-09-09 11:51:27.502855
"CYQB","Quebec/Lesage Intl, QC, CA",2025-09-09 15:00:00,2025-09-09 11:00:00,"VFR",16,7,130,3,NA,30,1029.2,"METAR CYQB 091500Z 13003KT 30SM FEW050 FEW100 FEW250 16/07 A3039 RMK SC1AC1CI2 SC TR AC TR SLP297",2025-09-09 15:51:27.5092,2025-09-09 11:51:27.509272
"CYCO","Coppermine/Kugluktuk Arpt, NU, CA",2025-09-09 15:00:00,2025-09-09 11:00:00,"MVFR",6,5,230,2,NA,5,1008.5,"METAR CYCO 091500Z 23002KT 5SM FU BKN035 06/05 A2978 RMK FU5 SLP087",2025-09-09 15:51:27.517885,2025-09-09 11:51:27.517941
"CYDQ","Dawson Creek Arpt, BC, CA",2025-09-09 15:00:00,2025-09-09 11:00:00,"VFR",18,6,120,5,NA,9,1008.9,"METAR CYDQ 091500Z AUTO 12005KT 100V170 9SM CLR 18/06 A2979 RMK SLP091 DENSITY ALT 3100FT",2025-09-09 15:51:27.524299,2025-09-09 11:51:27.524343
"CYVQ","Norman Wells Arpt, NT, CA",2025-09-09 15:00:00,2025-09-09 11:00:00,"MVFR",13,13,300,4,NA,6,1004.1,"METAR CYVQ 091500Z 30004KT 270V020 6SM -SHRA FEW004 BKN024 BKN037 OVC050 13/13 A2965 RMK ST1SC4SC2SC1 /R10/ VIS NE 2 CVCTV CLD EMBD SLP045",2025-09-09 15:51:27.530731,2025-09-09 11:51:27.530776
"CYRJ","Roberval Arpt, QC, CA",2025-09-09 15:00:00,2025-09-09 11:00:00,"VFR",16,8,240,11,NA,40,1026.2,"METAR CYRJ 091500Z 24011KT 180V270 40SM FEW060 SCT090 BKN240 16/08 A3030 RMK SC1AC2CI2 SLP269",2025-09-09 15:51:27.537127,2025-09-09 11:51:27.537169
"CYVC","La Ronge Arpt, SK, CA",2025-09-09 15:00:00,2025-09-09 11:00:00,"VFR",14,11,100,5,NA,15,1016.7,"METAR CYVC 091500Z 10005KT 060V150 15SM FEW200 14/11 A3002 RMK CI1 SLP175",2025-09-09 15:51:27.543527,2025-09-09 11:51:27.54357
"CYVO","Val D'Or Arpt, QC, CA",2025-09-09 15:00:00,2025-09-09 11:00:00,"VFR",13,6,180,10,20,15,1023.5,"METAR CYVO 091500Z 18010G20KT 15SM BKN085 BKN130 BKN160 13/06 A3022 RMK AC5AC1AC2 SLP247",2025-09-09 15:51:27.549912,2025-09-09 11:51:27.549955
"CYGV","Havre St Pierre Arpt, QC, CA",2025-09-09 15:00:00,2025-09-09 11:00:00,"VFR",13,3,260,14,20,9,1026.8,"METAR CYGV 091500Z AUTO 26014G20KT 9SM CLR 13/03 A3032 RMK SLP271",2025-09-09 15:51:27.556286,2025-09-09 11:51:27.556329
"CYHA","Quaqtaq Arpt, QC, CA",2025-09-09 15:00:00,2025-09-09 11:00:00,"VFR",7,3,290,6,NA,15,1013.3,"METAR CYHA 091500Z 29006KT 15SM FEW038 FEW070 07/03 A2992 RMK SC1AC1 SC TR SLP135",2025-09-09 15:51:27.562616,2025-09-09 11:51:27.562659
"KHPN","White Plains/Westchester Cnty, NY, US",2025-09-09 14:56:00,2025-09-09 10:56:00,"VFR",20,9.4,70,5,NA,NA,1027.9,"METAR KHPN 091456Z 07005KT 10SM CLR 20/09 A3035 RMK AO2 SLP274 T02000094 53005",2025-09-09 15:51:27.569076,2025-09-09 11:51:27.569122
"KBOS","Boston/Logan Intl, MA, US",2025-09-09 14:54:00,2025-09-09 10:54:00,"VFR",19.4,13.3,60,9,NA,NA,1029.2,"METAR KBOS 091454Z 06009KT 10SM FEW030 FEW250 19/13 A3039 RMK AO2 SLP290 T01940133 53002",2025-09-09 15:51:27.577899,2025-09-09 11:51:27.577941
"KBUF","Buffalo-Niagara Intl, NY, US",2025-09-09 14:54:00,2025-09-09 10:54:00,"VFR",19.4,8.3,200,7,NA,NA,1026.8,"METAR KBUF 091454Z 20007KT 10SM CLR 19/08 A3032 RMK AO2 SLP267 FU ALF T01940083 53003 $",2025-09-09 15:51:27.584388,2025-09-09 11:51:27.584434
"KBWI","Baltimore-Washington Intl, MD, US",2025-09-09 14:54:00,2025-09-09 10:54:00,"VFR",21.1,11.1,70,12,21,NA,1025.8,"METAR KBWI 091454Z 07012G21KT 10SM FEW036 SCT250 21/11 A3029 RMK AO2 SLP257 T02110111 53002",2025-09-09 15:51:27.590868,2025-09-09 11:51:27.590912
"KPHL","Philadelphia Intl, PA, US",2025-09-09 14:54:00,2025-09-09 10:54:00,"VFR",22.2,12.8,70,13,20,NA,1026.5,"METAR KPHL 091454Z 07013G20KT 10SM BKN037 BKN270 BKN350 22/13 A3031 RMK AO2 SLP262 T02220128 53004 $",2025-09-09 15:51:27.597357,2025-09-09 11:51:27.5974
"KROC","Rochester Intl Arpt, NY, US",2025-09-09 14:54:00,2025-09-09 10:54:00,"VFR",17.8,10,190,4,NA,NA,1027.5,"METAR KROC 091454Z 19004KT 10SM FEW220 18/10 A3034 RMK AO2 SLP278 T01780100 50002 $",2025-09-09 15:51:27.603915,2025-09-09 11:51:27.60396
"KSYR","Syracuse/Hancock Intl, NY, US",2025-09-09 14:54:00,2025-09-09 10:54:00,"VFR",17.2,10,0,0,NA,NA,1028.5,"METAR KSYR 091454Z 00000KT 10SM FEW020 FEW200 SCT250 17/10 A3037 RMK AO2 SLP280 T01720100",2025-09-09 15:51:27.610425,2025-09-09 11:51:27.610469
"KIAD","Washington/Dulles Intl, VA, US",2025-09-09 14:52:00,2025-09-09 10:52:00,"VFR",21.7,10.6,10,7,NA,NA,1026.2,"METAR KIAD 091452Z 01007KT 10SM FEW200 22/11 A3030 RMK AO2 SLP257 T02170106 58001",2025-09-09 15:51:27.616855,2025-09-09 11:51:27.616899
"KDCA","Washington/Reagan-National Arpt, VA, US",2025-09-09 14:52:00,2025-09-09 10:52:00,"VFR",21.7,12.2,70,13,19,NA,1025.8,"METAR KDCA 091452Z 07013G19KT 10SM SCT035 SCT250 22/12 A3029 RMK AO2 SLP256 T02170122 53001",2025-09-09 15:51:27.623392,2025-09-09 11:51:27.623448
"KALB","Albany Intl, NY, US",2025-09-09 14:51:00,2025-09-09 10:51:00,"VFR",16.7,10,350,3,NA,NA,1028.9,"METAR KALB 091451Z 35003KT 10SM FEW029 SCT250 17/10 A3038 RMK AO2 SLP289 T01670100 50002",2025-09-09 15:51:27.632102,2025-09-09 11:51:27.632147
"KBDL","Hartford/Bradley Intl, CT, US",2025-09-09 14:51:00,2025-09-09 10:51:00,"VFR",18.3,11.1,30,6,NA,NA,1028.5,"METAR KBDL 091451Z 03006KT 10SM FEW030 FEW250 18/11 A3037 RMK AO2 SLP285 T01830111 50000",2025-09-09 15:51:27.638541,2025-09-09 11:51:27.638587
"KPVD","Providence/Green Mem, RI, US",2025-09-09 14:51:00,2025-09-09 10:51:00,"VFR",19.4,12.2,70,11,NA,NA,1028.5,"METAR KPVD 091451Z 07011KT 10SM FEW030 FEW250 19/12 A3037 RMK AO2 SLP284 T01940122 58002",2025-09-09 15:51:27.64517,2025-09-09 11:51:27.645233
"KBED","Bedford/Hanscom Fld, MA, US",2025-09-09 14:51:00,2025-09-09 10:51:00,"VFR",19.4,10.6,110,4,NA,NA,1028.9,"METAR KBED 091451Z COR 11004KT 10SM SCT030 19/11 A3038 RMK AO2 SLP299 T01940106 58001",2025-09-09 15:51:27.651644,2025-09-09 11:51:27.651687
"KPIT","Pittsburgh Intl, PA, US",2025-09-09 14:51:00,2025-09-09 10:51:00,"VFR",18.9,7.2,120,5,NA,NA,1026.2,"METAR KPIT 091451Z 12005KT 10SM FEW250 19/07 A3030 RMK AO2 SLP267 T01890072 52003 $",2025-09-09 15:51:27.658082,2025-09-09 11:51:27.658127
"KLGA","New York/La Guardia Arpt, NY, US",2025-09-09 14:51:00,2025-09-09 10:51:00,"VFR",19.4,10,40,15,NA,NA,1027.2,"METAR KLGA 091451Z 04015KT 10SM FEW030 SCT250 19/10 A3033 RMK AO2 SLP272 T01940100 53004",2025-09-09 15:51:27.664604,2025-09-09 11:51:27.664649
"KEWR","Newark Intl, NJ, US",2025-09-09 14:51:00,2025-09-09 10:51:00,"VFR",21.1,7.8,70,10,18,NA,1027.2,"METAR KEWR 091451Z 07010G18KT 10SM SCT038 SCT250 21/08 A3033 RMK AO2 SLP271 T02110078 53002 $",2025-09-09 15:51:27.671085,2025-09-09 11:51:27.67113
"KORF","Norfolk Intl, VA, US",2025-09-09 14:51:00,2025-09-09 10:51:00,"MVFR",22.2,17.8,40,19,25,NA,1021.8,"METAR KORF 091451Z 04019G25KT 10SM BKN019 OVC027 22/18 A3017 RMK AO2 PK WND 04026/1435 SLP215 T02220178 53002",2025-09-09 15:51:27.677571,2025-09-09 11:51:27.677617
"KJFK","New York/JF Kennedy Intl, NY, US",2025-09-09 14:51:00,2025-09-09 10:51:00,"VFR",21.1,8.3,70,13,NA,NA,1027.5,"METAR KJFK 091451Z 07013KT 10SM SCT027 BKN250 21/08 A3034 RMK AO2 SLP272 T02110083 53004",2025-09-09 15:51:27.684066,2025-09-09 11:51:27.684112
"KFLL","Ft Lauderdale-Hollywood Intl, FL, US",2025-09-09 15:47:00,2025-09-09 11:47:00,"VFR",30,24,0,0,NA,NA,1014.6,"SPECI KFLL 091547Z 00000KT 10SM TS SCT025CB BKN080 BKN250 30/24 A2996 RMK AO2 TSB47 OCNL LTGICCG SW-NW TS SW-NW MOV NE TCU NE-E",2025-09-09 15:51:29.174443,2025-09-09 11:51:29.174488
"KEYW","Key West Intl, FL, US",2025-09-09 15:42:00,2025-09-09 11:42:00,"VFR",30.6,26.1,210,9,NA,NA,1014.6,"SPECI KEYW 091542Z 21009KT 10SM FEW002 SCT027 31/26 A2996 RMK AO2 T03060261",2025-09-09 15:51:29.180943,2025-09-09 11:51:29.180986
"KFSD","Sioux Falls/Foss Fld, SD, US",2025-09-09 15:41:00,2025-09-09 11:41:00,"IFR",17.2,16.1,180,4,NA,NA,1015.3,"SPECI KFSD 091541Z 18004KT 10SM OVC007 17/16 A2998 RMK AO2 RAB18E36 TSE40 P0003 T01720161",2025-09-09 15:51:29.187518,2025-09-09 11:51:29.187563
"KMIA","Miami Intl, FL, US",2025-09-09 15:41:00,2025-09-09 11:41:00,"VFR",30.6,25,NA,4,NA,NA,1014.6,"SPECI KMIA 091541Z VRB04KT 10SM SCT024CB BKN250 31/25 A2996 RMK AO2 CB VC E-SE AND DSNT ALQDS MOV NE T03060250 $",2025-09-09 15:51:29.194062,2025-09-09 11:51:29.194107
"KJAX","Jacksonville Intl, FL, US",2025-09-09 15:40:00,2025-09-09 11:40:00,"MVFR",25,22.2,20,12,NA,NA,1017.4,"SPECI KJAX 091540Z 02012KT 10SM -RA FEW008 BKN014 OVC110 25/22 A3004 RMK AO2 RAB40 P0000 T02500222 $",2025-09-09 15:51:29.200555,2025-09-09 11:51:29.200598
"KMEM","Memphis Intl, TN, US",2025-09-09 15:28:00,2025-09-09 11:28:00,"MVFR",26.1,17.8,210,11,NA,NA,1019.7,"SPECI KMEM 091528Z 21011KT 10SM BKN026 BKN033 26/18 A3011 RMK AO2 T02610178 $",2025-09-09 15:51:29.207056,2025-09-09 11:51:29.207105
"KSDF","Louisville Intl, KY, US",2025-09-09 14:56:00,2025-09-09 10:56:00,"VFR",18.9,9.4,0,0,NA,NA,1022.8,"METAR KSDF 091456Z 00000KT 10SM SCT350 19/09 A3020 RMK AO2 SLP225 T01890094 51001",2025-09-09 15:51:29.216113,2025-09-09 11:51:29.216157
"KDAY","Dayton/Cox Intl, OH, US",2025-09-09 14:56:00,2025-09-09 10:56:00,"VFR",20,6.1,130,4,NA,NA,1024.5,"METAR KDAY 091456Z 13004KT 10SM FEW250 20/06 A3025 RMK AO2 SLP239 T02000061 53001",2025-09-09 15:51:29.222704,2025-09-09 11:51:29.222749
"KCHS","Charleston Intl, SC, US",2025-09-09 14:56:00,2025-09-09 10:56:00,"VFR",23.3,14.4,10,15,22,NA,1020.1,"METAR KCHS 091456Z 01015G22KT 10SM FEW150 SCT200 23/14 A3012 RMK AO2 SLP197 T02330144 51006",2025-09-09 15:51:29.229285,2025-09-09 11:51:29.229331
"KDSM","Des Moines Intl, IA, US",2025-09-09 14:54:00,2025-09-09 10:54:00,"VFR",16.1,8.9,180,8,NA,NA,1017.4,"METAR KDSM 091454Z 18008KT 10SM FEW070 SCT100 BKN190 OVC250 16/09 A3004 RMK AO2 SLP170 T01610089 56005",2025-09-09 15:51:29.235878,2025-09-09 11:51:29.235922
"KLNK","Lincoln Arpt, NE, US",2025-09-09 14:54:00,2025-09-09 10:54:00,"VFR",20.6,16.1,190,7,NA,NA,1016,"METAR KLNK 091454Z 19007KT 10SM FEW020 21/16 A3000 RMK AO2 SLP151 T02060161 53003",2025-09-09 15:51:29.242364,2025-09-09 11:51:29.242409
"KGSO","Greensboro Intl, NC, US",2025-09-09 14:54:00,2025-09-09 10:54:00,"VFR",19.4,8.9,20,7,20,NA,1024.5,"METAR KGSO 091454Z 02007G20KT 360V060 10SM FEW040 FEW250 19/09 A3025 RMK AO2 SLP239 T01940089 50001",2025-09-09 15:51:29.248865,2025-09-09 11:51:29.248908
"KFWA","Fort Wayne Intl, IN, US",2025-09-09 14:54:00,2025-09-09 10:54:00,"VFR",19.4,9.4,160,7,NA,NA,1024.1,"METAR KFWA 091454Z 16007KT 10SM SCT250 19/09 A3024 RMK AO2 SLP240 T01940094 52002",2025-09-09 15:51:29.255365,2025-09-09 11:51:29.255414
"KSBN","South Bend Rgnl, IN, US",2025-09-09 14:54:00,2025-09-09 10:54:00,"VFR",19.4,8.9,200,5,NA,NA,1023.5,"METAR KSBN 091454Z 20005KT 10SM CLR 19/09 A3022 RMK AO2 SLP235 T01940089 50001",2025-09-09 15:51:29.261872,2025-09-09 11:51:29.261917
"KIND","Indianapolis Intl, IN, US",2025-09-09 14:54:00,2025-09-09 10:54:00,"VFR",20,8.9,170,5,NA,NA,1023.1,"METAR KIND 091454Z 17005KT 10SM BKN250 20/09 A3021 RMK AO2 SLP228 T02000089 53001",2025-09-09 15:51:29.271068,2025-09-09 11:51:29.27111
"KLIT","Little Rock/Clinton Natl, AR, US",2025-09-09 14:53:00,2025-09-09 10:53:00,"VFR",20,11.7,0,0,NA,NA,1019.7,"METAR KLIT 091453Z 00000KT 10SM SCT160 20/12 A3011 RMK AO2 SLP196 T02000117 51006",2025-09-09 15:51:29.277606,2025-09-09 11:51:29.277651
"KMCI","Kansas City Intl, MO, US",2025-09-09 14:53:00,2025-09-09 10:53:00,"VFR",15.6,13.9,180,9,NA,6,1018.4,"METAR KMCI 091453Z 18009KT 6SM -RA BR BKN110 16/14 A3007 RMK AO2 RAB1357 SLP176 P0006 60008 T01560139 51007 $",2025-09-09 15:51:29.284139,2025-09-09 11:51:29.284183
"KPBI","Palm Beach Intl, FL, US",2025-09-09 14:53:00,2025-09-09 10:53:00,"VFR",29.4,23.9,300,3,NA,NA,1015,"METAR KPBI 091453Z 30003KT 10SM SCT034 SCT150 BKN250 29/24 A2997 RMK AO2 SLP149 CB DSNT SE-S T02940239 52013 $",2025-09-09 15:51:29.29071,2025-09-09 11:51:29.290755
"KBNA","Nashville Intl, TN, US",2025-09-09 14:53:00,2025-09-09 10:53:00,"VFR",21.1,12.8,190,6,NA,NA,1022.4,"METAR KBNA 091453Z 19006KT 10SM SCT060 BKN070 BKN250 21/13 A3019 RMK AO2 SLP218 T02110128 52005 $",2025-09-09 15:51:29.297141,2025-09-09 11:51:29.297189
"KGRR","Grand Rapids Intl, MI, US",2025-09-09 14:53:00,2025-09-09 10:53:00,"VFR",17.8,9.4,200,5,NA,NA,1023.5,"METAR KGRR 091453Z 20005KT 10SM SCT250 18/09 A3022 RMK AO2 SLP235 T01780094 53001 $",2025-09-09 15:51:29.303658,2025-09-09 11:51:29.303704
"KHSV","Huntsville Intl, AL, US",2025-09-09 14:53:00,2025-09-09 10:53:00,"VFR",22.8,12.8,130,10,NA,NA,1022.1,"METAR KHSV 091453Z 13010KT 10SM FEW043 FEW060 23/13 A3018 RMK AO2 SLP212 T02280128 53005 $",2025-09-09 15:51:29.310107,2025-09-09 11:51:29.31015
"KMDW","Chicago/Midway Intl, IL, US",2025-09-09 14:53:00,2025-09-09 10:53:00,"VFR",19.4,5.6,210,8,NA,NA,1022.1,"METAR KMDW 091453Z 21008KT 10SM BKN250 19/06 A3018 RMK AO2 SLP216 T01940056 50000 $",2025-09-09 15:51:29.316584,2025-09-09 11:51:29.316629
"KMSP","Minneapolis-St Paul Intl, MN, US",2025-09-09 14:53:00,2025-09-09 10:53:00,"MVFR",18.9,12.8,200,7,NA,NA,1014.6,"METAR KMSP 091453Z 20007KT 10SM OVC029 19/13 A2996 RMK AO2 SLP144 T01890128 53003",2025-09-09 15:51:29.325484,2025-09-09 11:51:29.325529
"KSAV","Savannah Intl, GA, US",2025-09-09 14:53:00,2025-09-09 10:53:00,"VFR",23.9,15.6,20,13,17,NA,1019.7,"METAR KSAV 091453Z 02013G17KT 10SM FEW060 FEW250 24/16 A3011 RMK AO2 SLP196 T02390156 53011",2025-09-09 15:51:29.331993,2025-09-09 11:51:29.332038
"KMYR","Myrtle Beach Intl, SC, US",2025-09-09 14:53:00,2025-09-09 10:53:00,"VFR",21.1,14.4,10,9,14,NA,1020.7,"METAR KMYR 091453Z 01009G14KT 10SM CLR 21/14 A3014 RMK AO2 SLP204 T02110144 53004 $",2025-09-09 15:51:29.338696,2025-09-09 11:51:29.338745
"KDTW","Detroit/Metro Wayne Cnty, MI, US",2025-09-09 14:53:00,2025-09-09 10:53:00,"VFR",20,9.4,190,7,NA,NA,1024.8,"METAR KDTW 091453Z 19007KT 10SM SCT250 20/09 A3026 RMK AO2 SLP245 T02000094 50000 $",2025-09-09 15:51:29.34552,2025-09-09 11:51:29.345567
"KBHM","Birmingham Intl, AL, US",2025-09-09 14:53:00,2025-09-09 10:53:00,"VFR",23.3,11.1,110,9,18,NA,1022.1,"METAR KBHM 091453Z 11009G18KT 10SM FEW050 23/11 A3018 RMK AO2 SLP213 T02330111 51006",2025-09-09 15:51:29.352035,2025-09-09 11:51:29.352081
"KMCO","Orlando Intl, FL, US",2025-09-09 14:53:00,2025-09-09 10:53:00,"VFR",27.8,22.8,70,5,NA,NA,1015,"METAR KMCO 091453Z 07005KT 10SM FEW030 FEW070 BKN160 BKN250 28/23 A2997 RMK AO2 SLP148 TCU DSNT NE T02780228 51010 $",2025-09-09 15:51:29.358751,2025-09-09 11:51:29.358795
"KTPA","Tampa Intl Arpt, FL, US",2025-09-09 14:53:00,2025-09-09 10:53:00,"MVFR",26.7,24.4,30,4,NA,NA,1015,"METAR KTPA 091453Z 03004KT 10SM BKN010 27/24 A2997 RMK AO2 RAB09E27 SLP149 P0000 60000 T02670244 53013 $",2025-09-09 15:51:29.365571,2025-09-09 11:51:29.365616
"KRSW","Ft Myers/SW Florida Intl, FL, US",2025-09-09 14:53:00,2025-09-09 10:53:00,"VFR",27.8,25.6,100,6,NA,NA,1014.6,"METAR KRSW 091453Z 10006KT 10SM BKN047 BKN065 OVC075 28/26 A2996 RMK AO1 SLP143 T02780256 51014",2025-09-09 15:51:29.372304,2025-09-09 11:51:29.37235
"KOMA","Omaha/Eppley Fld, NE, US",2025-09-09 14:52:00,2025-09-09 10:52:00,"VFR",20,15,180,12,NA,NA,1016,"METAR KOMA 091452Z 18012KT 10SM SCT042 SCT085 20/15 A3000 RMK AO2 SLP154 T02000150 50004",2025-09-09 15:51:29.379042,2025-09-09 11:51:29.379089
"KMLI","Moline/Quad City Intl, IL, US",2025-09-09 14:52:00,2025-09-09 10:52:00,"VFR",18.3,9.4,NA,4,NA,NA,1020.4,"METAR KMLI 091452Z VRB04KT 10SM CLR 18/09 A3013 RMK AO2 SLP204 T01830094 53002",2025-09-09 15:51:29.388598,2025-09-09 11:51:29.388644
"KCLT","Charlotte/Douglas Intl, NC, US",2025-09-09 14:52:00,2025-09-09 10:52:00,"VFR",20.6,11.1,50,11,NA,NA,1024.5,"METAR KCLT 091452Z 05011KT 10SM FEW040 FEW250 21/11 A3025 RMK SLP255 T02060111 $",2025-09-09 15:51:29.395408,2025-09-09 11:51:29.395454
"KATL","Atlanta/Hartsfield-Jackson Intl, GA, US",2025-09-09 14:52:00,2025-09-09 10:52:00,"VFR",22.2,10,90,15,NA,NA,1023.1,"METAR KATL 091452Z 09015KT 10SM FEW060 FEW200 FEW250 22/10 A3021 RMK SLP223 T02220100 51005",2025-09-09 15:51:29.402145,2025-09-09 11:51:29.40219
"KCVG","Cincinnati Intl, KY, US",2025-09-09 14:52:00,2025-09-09 10:52:00,"VFR",19.4,8.3,130,4,NA,NA,1023.5,"METAR KCVG 091452Z 13004KT 10SM FEW250 19/08 A3022 RMK AO2 SLP228 T01940083 53002",2025-09-09 15:51:29.408749,2025-09-09 11:51:29.408795
"KRDU","Raleigh-Durham Intl, NC, US",2025-09-09 14:51:00,2025-09-09 10:51:00,"VFR",20,10.6,20,13,21,NA,1023.5,"METAR KRDU 091451Z 02013G21KT 10SM FEW040 SCT250 20/11 A3022 RMK AO2 SLP231 T02000106 51001",2025-09-09 15:51:29.415344,2025-09-09 11:51:29.415389
"KCLE","Cleveland/Hopkins Intl, OH, US",2025-09-09 14:51:00,2025-09-09 10:51:00,"VFR",20,7.8,170,7,NA,NA,1024.8,"METAR KCLE 091451Z 17007KT 10SM FEW250 20/08 A3026 RMK AO2 SLP259 T02000078 56002",2025-09-09 15:51:29.421864,2025-09-09 11:51:29.421909
"KSTL","St Louis/Lambert Intl, MO, US",2025-09-09 14:51:00,2025-09-09 10:51:00,"VFR",21.1,8.9,160,5,NA,NA,1021.1,"METAR KSTL 091451Z 16005KT 10SM SCT140 BKN230 21/09 A3015 RMK AO2 SLP205 T02110089 55000",2025-09-09 15:51:29.428361,2025-09-09 11:51:29.428407
"KCMH","Columbus/Glenn Intl, OH, US",2025-09-09 14:51:00,2025-09-09 10:51:00,"VFR",18.9,7.2,160,4,NA,NA,1024.5,"METAR KCMH 091451Z 16004KT 10SM FEW250 19/07 A3025 RMK AO2 SLP241 T01890072 55001",2025-09-09 15:51:29.435051,2025-09-09 11:51:29.435096
"KORD","Chicago/O'Hare Intl, IL, US",2025-09-09 14:51:00,2025-09-09 10:51:00,"VFR",18.9,5,200,8,NA,NA,1022.1,"METAR KORD 091451Z 20008KT 10SM BKN250 19/05 A3018 RMK AO2 SLP217 T01890050 55000",2025-09-09 15:51:29.444284,2025-09-09 11:51:29.444328
"KBRO","Brownsville Intl, TX, US",2025-09-09 15:23:00,2025-09-09 11:23:00,"VFR",30,25,320,7,NA,NA,1014.3,"SPECI KBRO 091523Z 32007KT 10SM FEW016 SCT026 SCT038 30/25 A2995 RMK AO2 T03000250",2025-09-09 15:51:30.644884,2025-09-09 11:51:30.644928
"KBZN","Bozeman/Gallatin Fld, MT, US",2025-09-09 14:56:00,2025-09-09 10:56:00,"VFR",11.1,5.6,0,0,NA,NA,1018,"METAR KBZN 091456Z 00000KT 10SM CLR 11/06 A3006 RMK AO2 SLP154 T01110056 53004",2025-09-09 15:51:30.651514,2025-09-09 11:51:30.651557
"KLRD","Laredo Intl, TX, US",2025-09-09 14:56:00,2025-09-09 10:56:00,"VFR",27.2,21.7,100,6,NA,NA,1016.7,"METAR KLRD 091456Z 10006KT 10SM CLR 27/22 A3002 RMK AO2 SLP161 T02720217 51010 $",2025-09-09 15:51:30.657928,2025-09-09 11:51:30.65797
"KEGE","Eagle Cnty Rgnl, CO, US",2025-09-09 14:56:00,2025-09-09 10:56:00,"VFR",11.1,2.8,0,0,NA,NA,1025.8,"METAR KEGE 091456Z 00000KT 10SM CLR 11/03 A3029 RMK AO2 SLP196 60000 T01110028 51003 $",2025-09-09 15:51:30.664295,2025-09-09 11:51:30.664339
"KEUG","Eugene/Mahlon Sweet Fld, OR, US",2025-09-09 14:54:00,2025-09-09 10:54:00,"VFR",16.7,13.9,190,6,NA,NA,1014.3,"METAR KEUG 091454Z 19006KT 10SM BKN047 BKN065 OVC100 17/14 A2995 RMK AO2 SLP139 T01670139 53001",2025-09-09 15:51:30.670776,2025-09-09 11:51:30.67082
"KCOS","Colorado Spring Arpt, CO, US",2025-09-09 14:54:00,2025-09-09 10:54:00,"VFR",21.7,4.4,0,0,NA,NA,1022.8,"METAR KCOS 091454Z 00000KT 10SM SCT100 SCT250 22/04 A3020 RMK AO2 SLP140 T02170044 50002 $",2025-09-09 15:51:30.679787,2025-09-09 11:51:30.679831
"KSLC","Salt Lake City Intl, UT, US",2025-09-09 14:54:00,2025-09-09 10:54:00,"VFR",25,7.2,130,9,NA,NA,1014.3,"METAR KSLC 091454Z 13009KT 10SM FEW120 SCT190 BKN230 25/07 A2995 RMK AO2 SLP088 ACSL DSNT SE T02500072 58001 $",2025-09-09 15:51:30.686285,2025-09-09 11:51:30.686331
"KIAH","Houston/Bush Intl, TX, US",2025-09-09 14:53:00,2025-09-09 10:53:00,"VFR",24.4,14.4,70,6,NA,NA,1017.4,"METAR KIAH 091453Z 07006KT 10SM CLR 24/14 A3004 RMK AO2 SLP172 T02440144 51008",2025-09-09 15:51:30.692931,2025-09-09 11:51:30.692977
"KTUL","Tulsa Intl Arpt, OK, US",2025-09-09 14:53:00,2025-09-09 10:53:00,"VFR",22.2,11.1,180,11,NA,NA,1018.7,"METAR KTUL 091453Z 18011KT 10SM SCT090 SCT160 22/11 A3008 RMK AO2 SLP179 T02220111 58001",2025-09-09 15:51:30.699424,2025-09-09 11:51:30.699468
"KLAW","Lawton-Fort Sill Rgnl, OK, US",2025-09-09 14:53:00,2025-09-09 10:53:00,"VFR",22.8,11.7,170,8,NA,NA,1018,"METAR KLAW 091453Z 17008KT 10SM CLR 23/12 A3006 RMK AO2 SLP170 T02280117 50004",2025-09-09 15:51:30.705834,2025-09-09 11:51:30.705877
"KMFE","McAllen/Miller Intl, TX, US",2025-09-09 14:53:00,2025-09-09 10:53:00,"VFR",28.9,23.3,30,6,NA,NA,1015.3,"METAR KMFE 091453Z 03006KT 10SM SCT024 SCT031 BKN042 29/23 A2998 RMK AO2 SLP150 T02890233 53010 $",2025-09-09 15:51:30.712382,2025-09-09 11:51:30.712427
"KICT","Wichita/Eisenhower Arpt, KS, US",2025-09-09 14:53:00,2025-09-09 10:53:00,"VFR",20.6,12.8,200,16,23,NA,1016,"METAR KICT 091453Z 20016G23KT 10SM SCT190 SCT250 21/13 A3000 RMK AO2 SLP149 T02060128 55007 $",2025-09-09 15:51:30.718881,2025-09-09 11:51:30.718928
"KBOI","Boise Arpt, ID, US",2025-09-09 14:53:00,2025-09-09 10:53:00,"VFR",17.8,3.9,0,0,NA,NA,1012.6,"METAR KBOI 091453Z AUTO 00000KT 10SM CLR 18/04 A2990 RMK AO2 SLP100 T01780039 51019",2025-09-09 15:51:30.72538,2025-09-09 11:51:30.725425
"KDEN","Denver Intl, CO, US",2025-09-09 14:53:00,2025-09-09 10:53:00,"VFR",21.1,5,240,8,NA,NA,1019.7,"METAR KDEN 091453Z 24008KT 10SM FEW100 FEW150 SCT220 21/05 A3011 RMK AO2 SLP124 T02110050 51006",2025-09-09 15:51:30.734136,2025-09-09 11:51:30.734183
"KPDX","Portland Intl, OR, US",2025-09-09 14:53:00,2025-09-09 10:53:00,"VFR",17.8,12.8,320,5,NA,NA,1014,"METAR KPDX 091453Z 32005KT 10SM BKN110 BKN250 18/13 A2994 RMK AO2 SLP136 T01780128 51004",2025-09-09 15:51:30.740578,2025-09-09 11:51:30.74063
"KMSO","Missoula Intl, MT, US",2025-09-09 14:53:00,2025-09-09 10:53:00,"VFR",11.7,7.8,0,0,NA,NA,1015.7,"METAR KMSO 091453Z 00000KT 10SM CLR 12/08 A2999 RMK AO2 SLP145 T01170078 50007",2025-09-09 15:51:30.747231,2025-09-09 11:51:30.74728
"KLBB","Lubbock Intl Arpt, TX, US",2025-09-09 14:53:00,2025-09-09 10:53:00,"VFR",23.3,18.3,210,12,NA,NA,1019,"METAR KLBB 091453Z 21012KT 10SM SCT012 SCT090 23/18 A3009 RMK AO2 SLP138 T02330183 51004",2025-09-09 15:51:30.753721,2025-09-09 11:51:30.753766
"KBFI","Seattle/Boeing Fld, WA, US",2025-09-09 14:53:00,2025-09-09 10:53:00,"VFR",16.1,12.8,300,3,NA,NA,1014.3,"METAR KBFI 091453Z 30003KT 10SM BKN046 16/13 A2995 RMK AO2 SLP141 T01610128 50003",2025-09-09 15:51:30.760183,2025-09-09 11:51:30.760252
"KAUS","Austin/Bergstrom Intl, TX, US",2025-09-09 14:53:00,2025-09-09 10:53:00,"VFR",23.9,13.9,NA,3,NA,NA,1017.7,"METAR KAUS 091453Z VRB03KT 10SM CLR 24/14 A3005 RMK AO2 SLP169 T02390139 51007",2025-09-09 15:51:30.766732,2025-09-09 11:51:30.766778
"KGEG","Spokane Intl, WA, US",2025-09-09 14:53:00,2025-09-09 10:53:00,"VFR",17.2,11.1,300,8,NA,NA,1013.6,"METAR KGEG 091453Z 30008KT 10SM FEW085 FEW120 FEW300 17/11 A2993 RMK AO2 SLP119 OCNL LTGCGICCC DSNT N-NE CB DSNT N-NE MOV N SHRA DSNT N-NE 60002 T01720111 53005 $",2025-09-09 15:51:30.773175,2025-09-09 11:51:30.773236
"KHLN","Helena Rgnl, MT, US",2025-09-09 14:53:00,2025-09-09 10:53:00,"VFR",11.7,6.7,10,3,NA,NA,1017,"METAR KHLN 091453Z 01003KT 10SM CLR 12/07 A3003 RMK AO2 SLP165 T01170067 53003",2025-09-09 15:51:30.779644,2025-09-09 11:51:30.77969
"KSEA","Seattle-Tacoma Intl, WA, US",2025-09-09 14:53:00,2025-09-09 10:53:00,"VFR",15.6,12.2,10,6,NA,NA,1014.6,"METAR KSEA 091453Z 01006KT 10SM BKN041 BKN100 BKN250 16/12 A2996 RMK AO2 SLP149 T01560122 50004 $",2025-09-09 15:51:30.786193,2025-09-09 11:51:30.786282
"KMFR","Medford/Rogue Valley Intl, OR, US",2025-09-09 14:53:00,2025-09-09 10:53:00,"MVFR",16.1,14.4,0,0,NA,NA,1014.3,"METAR KMFR 091453Z 00000KT 10SM BKN011 BKN019 OVC080 16/14 A2995 RMK AO2 RAE1359 SLP136 P0000 60000 T01610144 58001 $",2025-09-09 15:51:30.795192,2025-09-09 11:51:30.795258
"KHOU","Houston/Hobby Arpt, TX, US",2025-09-09 14:53:00,2025-09-09 10:53:00,"VFR",26.1,15,80,8,NA,NA,1016.7,"METAR KHOU 091453Z 08008KT 10SM CLR 26/15 A3002 RMK AO2 SLP171 T02610150 51008",2025-09-09 15:51:30.801753,2025-09-09 11:51:30.8018
"KGJT","Grand Junction Rgnl, CO, US",2025-09-09 14:53:00,2025-09-09 10:53:00,"VFR",22.2,5.6,100,10,NA,NA,1019,"METAR KGJT 091453Z 10010KT 10SM FEW110 22/06 A3009 RMK AO2 SLP119 T02220056 51004",2025-09-09 15:51:30.808329,2025-09-09 11:51:30.808375
"KDAL","Dallas/Love Fld, TX, US",2025-09-09 14:53:00,2025-09-09 10:53:00,"VFR",22.8,12.2,140,6,NA,NA,1019,"METAR KDAL 091453Z 14006KT 10SM FEW170 FEW250 23/12 A3009 RMK AO2 SLP183 T02280122 51012",2025-09-09 15:51:30.814793,2025-09-09 11:51:30.814836
"KDFW","Dallas-Ft Worth Intl, TX, US",2025-09-09 14:53:00,2025-09-09 10:53:00,"VFR",22.8,11.7,160,7,NA,NA,1018.7,"METAR KDFW 091453Z 16007KT 10SM CLR 23/12 A3008 RMK AO2 SLP178 T02280117 51013 $",2025-09-09 15:51:30.82134,2025-09-09 11:51:30.821384
"KGTF","Great Falls Intl, MT, US",2025-09-09 14:53:00,2025-09-09 10:53:00,"VFR",15.6,5.6,220,4,NA,NA,1016,"METAR KGTF 091453Z 22004KT 10SM CLR 16/06 A3000 RMK AO2 SLP144 T01560056 53002 $",2025-09-09 15:51:30.827782,2025-09-09 11:51:30.827826
"KBIL","Billings/Logan Intl, MT, US",2025-09-09 14:53:00,2025-09-09 10:53:00,"VFR",13.9,6.1,210,6,NA,NA,1017,"METAR KBIL 091453Z 21006KT 10SM SCT240 14/06 A3003 RMK AO2 SLP147 T01390061 50003",2025-09-09 15:51:30.834247,2025-09-09 11:51:30.834295
"KPUB","Pueblo Mem Arpt, CO, US",2025-09-09 14:53:00,2025-09-09 10:53:00,NA,19.4,6.7,270,8,NA,NA,1019.4,"METAR KPUB 091453Z 27008KT CLR 19/07 A3010 RMK AO2 SLP135 T01940067 50005 RVRNO $",2025-09-09 15:51:30.840747,2025-09-09 11:51:30.840792
"KIDA","Idaho Falls Rgnl, ID, US",2025-09-09 14:53:00,2025-09-09 10:53:00,"VFR",15,7.2,40,6,NA,NA,1016.7,"METAR KIDA 091453Z 04006KT 10SM CLR 15/07 A3002 RMK AO2 SLP138 T01500072 50002",2025-09-09 15:51:30.849745,2025-09-09 11:51:30.849789
"KASE","Aspen/Pitkin Cnty, CO, US",2025-09-09 14:53:00,2025-09-09 10:53:00,"VFR",15,2.8,360,6,NA,NA,1026.2,"METAR KASE 091453Z 36006KT 10SM SCT085 15/03 A3030 RMK AO2 SLP147 T01500028 50001",2025-09-09 15:51:30.856353,2025-09-09 11:51:30.856399
"KAFW","Fort Worth/Alliance Arpt, TX, US",2025-09-09 14:53:00,2025-09-09 10:53:00,"VFR",23.3,12.2,150,9,NA,NA,1018.7,"METAR KAFW 091453Z 15009KT 10SM CLR 23/12 A3008 RMK AO2 SLP175 T02330122 51010 $",2025-09-09 15:51:30.862979,2025-09-09 11:51:30.863025
"KAMA","Amarillo Intl Arpt, TX, US",2025-09-09 14:53:00,2025-09-09 10:53:00,"VFR",22.8,16.1,240,11,NA,NA,1019.4,"METAR KAMA 091453Z 24011KT 10SM CLR 23/16 A3010 RMK AO2 SLP140 60000 T02280161 50009",2025-09-09 15:51:30.869509,2025-09-09 11:51:30.869554
"KOKC","Oklahoma City/Will Rogers Intl, OK, US",2025-09-09 14:52:00,2025-09-09 10:52:00,"VFR",21.7,11.1,180,14,NA,NA,1018.4,"METAR KOKC 091452Z 18014KT 10SM BKN090 22/11 A3007 RMK AO2 SLP172 T02170111 53004",2025-09-09 15:51:30.875962,2025-09-09 11:51:30.876005
"KHRL","Harlingen/Valley Intl, TX, US",2025-09-09 14:52:00,2025-09-09 10:52:00,"VFR",29.4,24.4,20,8,NA,NA,1014.3,"METAR KHRL 091452Z 02008KT 10SM FEW026 SCT065 BKN080 29/24 A2995 RMK AO2 SLP142 T02940244 53009 $",2025-09-09 15:51:30.882502,2025-09-09 11:51:30.882547
"KABI","Abilene Rgnl, TX, US",2025-09-09 14:52:00,2025-09-09 10:52:00,"VFR",24.4,14.4,200,10,NA,NA,1018.4,"METAR KABI 091452Z 20010KT 10SM CLR 24/14 A3007 RMK AO2 SLP160 T02440144 50006",2025-09-09 15:51:30.888986,2025-09-09 11:51:30.88903
"KELP","El Paso Intl, TX, US",2025-09-09 14:51:00,2025-09-09 10:51:00,"VFR",25.6,13.3,150,8,NA,NA,1018.7,"METAR KELP 091451Z 15008KT 10SM SCT110 26/13 A3008 RMK AO2 SLP108 T02560133 51007",2025-09-09 15:51:30.895579,2025-09-09 11:51:30.89563
"KSAT","San Antonio Intl, TX, US",2025-09-09 14:51:00,2025-09-09 10:51:00,"VFR",23.9,16.1,110,5,NA,NA,1018,"METAR KSAT 091451Z 11005KT 10SM FEW250 24/16 A3006 RMK AO2 SLP160 T02390161 51007",2025-09-09 15:51:30.90476,2025-09-09 11:51:30.904804
"KACT","Waco Rgnl, TX, US",2025-09-09 14:51:00,2025-09-09 10:51:00,"VFR",22.2,15,0,0,NA,NA,1018.7,"METAR KACT 091451Z 00000KT 10SM CLR 22/15 A3008 RMK AO2 SLP181 T02220150 51018",2025-09-09 15:51:30.911252,2025-09-09 11:51:30.911302
"KBUR","Burbank/Bob Hope Arpt, CA, US",2025-09-09 15:28:00,2025-09-09 11:28:00,"MVFR",18.9,15.6,180,5,NA,NA,1015,"SPECI KBUR 091528Z 18005KT 10SM OVC011 19/16 A2997 RMK AO2 T01890156",2025-09-09 15:51:32.023677,2025-09-09 11:51:32.023723
"KOAK","Oakland Intl, CA, US",2025-09-09 15:21:00,2025-09-09 11:21:00,"VFR",18.9,16.7,200,6,NA,NA,1014.6,"SPECI KOAK 091521Z 20006KT 10SM FEW020 SCT038 BKN250 19/17 A2996 RMK AO2 RAE02 P0000 T01890167",2025-09-09 15:51:32.030339,2025-09-09 11:51:32.030383
"KSFO","San Francisco Intl, CA, US",2025-09-09 15:10:00,2025-09-09 11:10:00,"VFR",18.9,17.2,150,4,NA,NA,1014.3,"SPECI KSFO 091510Z 15004KT 10SM FEW006 SCT013 BKN035 19/17 A2995 RMK AO2 T01890172 $",2025-09-09 15:51:32.03688,2025-09-09 11:51:32.036925
"KSTS","Santa Rosa/Schulz Arpt, CA, US",2025-09-09 15:09:00,2025-09-09 11:09:00,"IFR",17.2,16.7,150,5,NA,2,1014,"SPECI KSTS 091509Z 15005KT 2SM -RA BR BKN008 OVC010 17/17 A2994 RMK AO2 P0003 T01720167",2025-09-09 15:51:32.043376,2025-09-09 11:51:32.043419
"KLGB","Long Beach Arpt, CA, US",2025-09-09 15:01:00,2025-09-09 11:01:00,"MVFR",20,17.2,160,4,NA,NA,1014,"SPECI KLGB 091501Z 16004KT 10SM BKN018 20/17 A2994 RMK AO2 T02000172",2025-09-09 15:51:32.049989,2025-09-09 11:51:32.050033
"KRNO","Reno/Tahoe Intl, NV, US",2025-09-09 14:55:00,2025-09-09 10:55:00,"VFR",14.4,4.4,170,3,NA,NA,1017,"METAR KRNO 091455Z 17003KT 10SM FEW075 BKN130 BKN200 14/04 A3003 RMK AO2 SLP126 T01440044 58003",2025-09-09 15:51:32.059547,2025-09-09 11:51:32.059592
"PHOG","Kahului Arpt, HI, US",2025-09-09 14:54:00,2025-09-09 10:54:00,"VFR",24.4,21.7,40,5,NA,NA,1014.6,"METAR PHOG 091454Z AUTO 04005KT 10SM CLR 24/22 A2996 RMK AO2 SLP150 T02440217 55001 TSNO",2025-09-09 15:51:32.066154,2025-09-09 11:51:32.066216
"KSAF","Santa Fe Cnty Muni, NM, US",2025-09-09 14:53:00,2025-09-09 10:53:00,"VFR",17.2,5,350,7,NA,NA,1024.1,"METAR KSAF 091453Z 35007KT 10SM CLR 17/05 A3024 RMK AO2 SLP147 T01720050 51008",2025-09-09 15:51:32.072802,2025-09-09 11:51:32.072852
"KSNA","Santa Ana/Wayne Arpt, CA, US",2025-09-09 14:53:00,2025-09-09 10:53:00,"MVFR",20.6,16.1,110,6,NA,NA,1014,"METAR KSNA 091453Z 11006KT 10SM OVC019 21/16 A2994 RMK AO2 SLP139 T02060161 51006",2025-09-09 15:51:32.079386,2025-09-09 11:51:32.07943
"PHNL","Honolulu Intl, HI, US",2025-09-09 14:53:00,2025-09-09 10:53:00,"VFR",25.6,22.2,60,6,NA,NA,1014.6,"METAR PHNL 091453Z 06006KT 10SM FEW025 FEW040 SCT065 26/22 A2996 RMK AO2 SLP146 60001 T02560222 55006",2025-09-09 15:51:32.085846,2025-09-09 11:51:32.085894
"KTUS","Tucson Intl Arpt, AZ, US",2025-09-09 14:53:00,2025-09-09 10:53:00,"VFR",27.8,16.7,160,3,NA,NA,1016,"METAR KTUS 091453Z 16003KT 10SM CLR 28/17 A3000 RMK AO2 SLP105 T02780167 51009",2025-09-09 15:51:32.0924,2025-09-09 11:51:32.092444
"KPSP","Palm Springs Intl, CA, US",2025-09-09 14:53:00,2025-09-09 10:53:00,"VFR",26.1,8.3,0,0,NA,NA,1010.2,"METAR KPSP 091453Z 00000KT 10SM CLR 26/08 A2983 RMK AO2 SLP098 T02610083 53008",2025-09-09 15:51:32.098824,2025-09-09 11:51:32.098867
"KSJC","San Jose Intl Arpt, CA, US",2025-09-09 14:53:00,2025-09-09 10:53:00,"VFR",19.4,15.6,130,5,NA,NA,1014.3,"METAR KSJC 091453Z 13005KT 10SM FEW010 SCT025 SCT035 19/16 A2995 RMK AO2 SLP141 TCU DSNT SE T01940156 55001",2025-09-09 15:51:32.105271,2025-09-09 11:51:32.105316
"KSBA","Santa Barbara Muni, CA, US",2025-09-09 14:53:00,2025-09-09 10:53:00,"VFR",19.4,16.7,110,4,NA,NA,1013.3,"METAR KSBA 091453Z 11004KT 10SM CLR 19/17 A2992 RMK AO2 SLP133 T01940167 53008 $",2025-09-09 15:51:32.114004,2025-09-09 11:51:32.114048
"KLAX","Los Angeles Intl, CA, US",2025-09-09 14:53:00,2025-09-09 10:53:00,"MVFR",20,17.2,110,3,NA,NA,1014,"METAR KLAX 091453Z 11003KT 10SM SCT009 BKN016 20/17 A2994 RMK AO2 SLP137 T02000172 53008 $",2025-09-09 15:51:32.120434,2025-09-09 11:51:32.120478
"KONT","Ontario Intl, CA, US",2025-09-09 14:53:00,2025-09-09 10:53:00,"VFR",17.2,14.4,260,5,NA,NA,1014.6,"METAR KONT 091453Z 26005KT 10SM FEW010 17/14 A2996 RMK AO2 SLP134 T01720144 53008 $",2025-09-09 15:51:32.126996,2025-09-09 11:51:32.12704
"KABQ","Albuquerque Intl, NM, US",2025-09-09 14:52:00,2025-09-09 10:52:00,"VFR",20.6,7.8,NA,3,NA,NA,1022.4,"METAR KABQ 091452Z VRB03KT 10SM BKN120 21/08 A3019 RMK AO2 SLP143 T02060078 51013 $",2025-09-09 15:51:32.133579,2025-09-09 11:51:32.13363
"KSMO","Santa Monica Muni, CA, US",2025-09-09 14:51:00,2025-09-09 10:51:00,"MVFR",20,16.7,0,0,NA,NA,1014.3,"METAR KSMO 091451Z 00000KT 10SM OVC014 20/17 A2995 RMK AO2 SLP139 T02000167 53008",2025-09-09 15:51:32.14007,2025-09-09 11:51:32.140114
"KSAN","San Diego Intl Arpt, CA, US",2025-09-09 14:51:00,2025-09-09 10:51:00,"MVFR",20.6,15.6,240,3,NA,NA,1015.3,"METAR KSAN 091451Z 24003KT 10SM BKN019 21/16 A2998 RMK AO2 SLP152 T02060156 53009",2025-09-09 15:51:32.146584,2025-09-09 11:51:32.146629
"KPHX","Phoenix/Sky Harbor Intl, AZ, US",2025-09-09 14:51:00,2025-09-09 10:51:00,"VFR",31.7,15,100,4,NA,NA,1010.6,"METAR KPHX 091451Z 10004KT 10SM FEW100 32/15 A2984 RMK AO2 SLP082 T03170150 53010",2025-09-09 15:51:32.15302,2025-09-09 11:51:32.153063
"CYQF","Red Deer Rgnl, AB, CA",2025-09-09 16:02:00,2025-09-09 12:02:00,"VFR",15,9,220,4,NA,6,1013.6,"SPECI CYQF 091602Z AUTO 22004KT 6SM HZ CLR 15/09 A2993 RMK SLP143 DENSITY ALT 3700FT",2025-09-09 16:05:56.183334,2025-09-09 12:05:56.183382
"CYMO","Moosonee Arpt, ON, CA",2025-09-09 15:53:00,2025-09-09 11:53:00,"IFR",13,12,190,8,NA,9,1014.3,"SPECI CYMO 091553Z AUTO 19008KT 9SM OVC009 13/12 A2995 RMK SLP145",2025-09-09 16:05:56.193911,2025-09-09 12:05:56.193955
"CYAT","Attawapisket Arpt, ON, CA",2025-09-09 15:37:00,2025-09-09 11:37:00,"VFR",14,11,NA,5,NA,9,1011.6,"SPECI CYAT 091537Z AUTO VRB05KT 9SM FEW050 OVC081 14/11 A2987 RMK SLP118",2025-09-09 16:05:56.20053,2025-09-09 12:05:56.200574
"CYEG","Edmonton Intl Arpt, AB, CA",2025-09-09 15:32:00,2025-09-09 11:32:00,"VFR",16,11,160,4,NA,8,1011.9,"SPECI CYEG 091532Z 16004KT 8SM SKC 16/11 A2988 RMK FU SLP125 DENSITY ALT 3100FT",2025-09-09 16:05:56.206956,2025-09-09 12:05:56.206999
"CYWG","Winnipeg Intl Arpt, MB, CA",2025-09-09 15:00:00,2025-09-09 11:00:00,"VFR",18,15,NA,2,NA,12,1014.6,"METAR CYWG 091500Z VRB02KT 12SM SKC 18/15 A2996 RMK SLP151 DENSITY ALT 1300FT",2025-09-09 16:05:56.213357,2025-09-09 12:05:56.213402
"CYYJ","Victoria Intl, BC, CA",2025-09-09 15:00:00,2025-09-09 11:00:00,"VFR",16,14,0,0,NA,30,1014.6,"METAR CYYJ 091500Z 00000KT 30SM FEW020 BKN044 16/14 A2996 RMK SC1SC7 SC TR SLP147",2025-09-09 16:05:56.219715,2025-09-09 12:05:56.219769
"CYYZ","Toronto/Pearson Intl, ON, CA",2025-09-09 15:00:00,2025-09-09 11:00:00,"VFR",18,11,140,5,NA,15,1026.2,"METAR CYYZ 091500Z 14005KT 090V170 15SM SKC 18/11 A3030 RMK SLP265",2025-09-09 16:05:56.226075,2025-09-09 12:05:56.226118
"CYQR","Regina Intl Arpt, SK, CA",2025-09-09 15:00:00,2025-09-09 11:00:00,"VFR",18,9,10,4,NA,12,1016.3,"METAR CYQR 091500Z 01004KT 320V030 12SM SKC 18/09 A3001 RMK HZ SLP167 DENSITY ALT 2700FT",2025-09-09 16:05:56.232342,2025-09-09 12:05:56.232385
"CYLW","Kelowna Arpt, BC, CA",2025-09-09 15:00:00,2025-09-09 11:00:00,"VFR",14,11,60,2,NA,9,1013.3,"METAR CYLW 091500Z AUTO 06002KT 9SM CLR 14/11 A2992 RMK SLP133 DENSITY ALT 1700FT",2025-09-09 16:05:56.238902,2025-09-09 12:05:56.238945
"CYBR","Brandon Arpt, MB, CA",2025-09-09 15:00:00,2025-09-09 11:00:00,"VFR",17,14,70,7,NA,15,1015.3,"METAR CYBR 091500Z 07007KT 15SM FEW250 17/14 A2998 RMK CI2 SLP159 DENSITY ALT 1900FT",2025-09-09 16:05:56.24753,2025-09-09 12:05:56.247573
"CYER","Ft Severn Arpt, ON, CA",2025-09-09 15:00:00,2025-09-09 11:00:00,"MVFR",7,7,30,8,NA,9,1015.3,"METAR CYER 091500Z AUTO 03008KT 9SM BKN013 OVC022 07/07 A2998 RMK SLP156",2025-09-09 16:05:56.253909,2025-09-09 12:05:56.253953
"CYGK","Kingston Arpt, ON, CA",2025-09-09 15:00:00,2025-09-09 11:00:00,"VFR",18,11,170,11,NA,15,1028.2,"METAR CYGK 091500Z 17011KT 15SM FEW018 BKN240 18/11 A3036 RMK CU2CS4 SLP285",2025-09-09 16:05:56.260243,2025-09-09 12:05:56.260287
"CYQA","Muskoka Arpt, ON, CA",2025-09-09 15:00:00,2025-09-09 11:00:00,"VFR",17,9,170,10,15,9,1026.2,"METAR CYQA 091500Z AUTO 17010G15KT 150V210 9SM CLR 17/09 A3030 RMK SLP268",2025-09-09 16:05:56.266486,2025-09-09 12:05:56.266527
"CYSB","Sudbury Arpt, ON, CA",2025-09-09 15:00:00,2025-09-09 11:00:00,"VFR",16,11,200,15,22,20,1023.5,"METAR CYSB 091500Z 20015G22KT 20SM FEW050 BKN079 BKN180 16/11 A3022 RMK CF2AC4CI1 SLP240",2025-09-09 16:05:56.272754,2025-09-09 12:05:56.272801
"CYYB","North Bay/Garland Arpt, ON, CA",2025-09-09 15:00:00,2025-09-09 11:00:00,"VFR",15,9,200,7,NA,30,1025.1,"METAR CYYB 091500Z 20007KT 30SM FEW025 FEW100 BKN280 15/09 A3027 RMK CF1AC1CI5 CF TR SLP259",2025-09-09 16:05:56.27909,2025-09-09 12:05:56.279134
"CYYG","Charlottetown Arpt, PE, CA",2025-09-09 15:00:00,2025-09-09 11:00:00,"VFR",20,6,NA,4,NA,15,1028.9,"METAR CYYG 091500Z VRB04KT 15SM SCT062 BKN260 20/06 A3038 RMK SC3CI2 SLP289",2025-09-09 16:05:56.285435,2025-09-09 12:05:56.285479
"CYAM","Sault Ste Marie Arpt, ON, CA",2025-09-09 15:00:00,2025-09-09 11:00:00,"VFR",17,12,210,5,NA,20,1019.4,"METAR CYAM 091500Z 21005KT 150V240 20SM FEW018 SCT110 BKN150 OVC250 17/12 A3010 RMK CU1AC2AS3CS2 SLP198 DENSITY ALT 900FT",2025-09-09 16:05:56.291762,2025-09-09 12:05:56.291804
"CYHU","Montreal/St Hubert, QC, CA",2025-09-09 15:00:00,2025-09-09 11:00:00,"VFR",17,10,180,5,NA,9,1028.5,"METAR CYHU 091500Z AUTO 18005KT 120V240 9SM CLR 17/10 A3037 RMK SLP286",2025-09-09 16:05:56.297982,2025-09-09 12:05:56.298024
"CYQQ","Comox(MIL), BC, CA",2025-09-09 15:00:00,2025-09-09 11:00:00,"VFR",15,12,300,6,NA,20,1015.3,"METAR CYQQ 091500Z 30006KT 20SM FEW020 FEW240 15/12 A2998 RMK SC1CI1 DENSITY ALT 221FT SLP153",2025-09-09 16:05:56.30637,2025-09-09 12:05:56.306413
"CYHZ","Halifax/Stanfield Intl, NS, CA",2025-09-09 15:00:00,2025-09-09 11:00:00,"VFR",19,8,60,6,NA,15,1028.9,"METAR CYHZ 091500Z 06006KT 010V110 15SM FEW040 BKN250 19/08 A3038 RMK CU2CS4 CI ASOCTD SLP292",2025-09-09 16:05:56.312779,2025-09-09 12:05:56.312824
"CYOW","Ottawa/Cartier Intl, ON, CA",2025-09-09 15:00:00,2025-09-09 11:00:00,"VFR",15,9,170,3,NA,15,1028.2,"METAR CYOW 091500Z 17003KT 130V270 15SM FEW250 15/09 A3036 RMK CI1 CI TR SLP285",2025-09-09 16:05:56.319129,2025-09-09 12:05:56.319172
"CYPL","Pickle Lake Arpt, ON, CA",2025-09-09 15:00:00,2025-09-09 11:00:00,"VFR",15,11,10,3,NA,9,1014.6,"METAR CYPL 091500Z AUTO 01003KT 330V070 9SM CLR 15/11 A2996 RMK SLP155 DENSITY ALT 1600FT",2025-09-09 16:05:56.325375,2025-09-09 12:05:56.325422
"CYQM","Moncton Intl, NB, CA",2025-09-09 15:00:00,2025-09-09 11:00:00,"VFR",18,6,NA,2,NA,15,1028.9,"METAR CYQM 091500Z VRB02KT 15SM FEW045 FEW240 18/06 A3038 RMK CU1CI1 CU TR SLP292",2025-09-09 16:05:56.331697,2025-09-09 12:05:56.331741
"CYUL","Montreal/Trudeau Intl, QC, CA",2025-09-09 15:00:00,2025-09-09 11:00:00,"VFR",17,9,200,4,NA,30,1028.5,"METAR CYUL 091500Z 20004KT 150V230 30SM FEW250 17/09 A3037 RMK CI2 SLP287",2025-09-09 16:05:56.337949,2025-09-09 12:05:56.337991
"CYUY","Rouyn/Noranda Arpt, QC, CA",2025-09-09 15:00:00,2025-09-09 11:00:00,"VFR",11,9,190,10,NA,15,1022.4,"METAR CYUY 091500Z 19010KT 15SM -RA BKN052 11/09 A3019 RMK SC7 SLP232",2025-09-09 16:05:56.344168,2025-09-09 12:05:56.344211
"CYVR","Vancouver Intl, BC, CA",2025-09-09 15:00:00,2025-09-09 11:00:00,"VFR",17,16,NA,2,NA,NA,1014.3,"METAR CYVR 091500Z VRB02KT 10SM FEW010 FEW015 BKN045 BKN110 17/16 A2995 RMK SC1SC1SC5AC1 AC TR HZ SLP145 DENSITY ALT 300FT",2025-09-09 16:05:56.350624,2025-09-09 12:05:56.350669
"CYYC","Calgary Intl, AB, CA",2025-09-09 15:00:00,2025-09-09 11:00:00,"VFR",14,9,NA,2,NA,15,1014.6,"METAR CYYC 091500Z VRB02KT 15SM SKC 14/09 A2996 RMK SLP145 DENSITY ALT 4300FT",2025-09-09 16:05:56.358957,2025-09-09 12:05:56.359001
"CYZV","Sept-Îles Arpt, QC, CA",2025-09-09 15:00:00,2025-09-09 11:00:00,"VFR",12,4,180,5,NA,30,1027.9,"METAR CYZV 091500Z 18005KT 30SM FEW045 FEW180 BKN260 12/04 A3035 RMK CU1AC1CI4 WIND EST SLP281",2025-09-09 16:05:56.365294,2025-09-09 12:05:56.365335
"CYQG","Windsor Intl, ON, CA",2025-09-09 15:00:00,2025-09-09 11:00:00,"VFR",21,11,230,8,NA,9,1024.5,"METAR CYQG 091500Z AUTO 23008KT 180V250 9SM CLR 21/11 A3025 RMK SLP247 DENSITY ALT 1100FT",2025-09-09 16:05:56.371619,2025-09-09 12:05:56.371665
"CYVV","Wiarton Arpt, ON, CA",2025-09-09 15:00:00,2025-09-09 11:00:00,"VFR",17,11,180,11,NA,15,1025.1,"METAR CYVV 091500Z 18011KT 15SM OVC250 17/11 A3027 RMK CI8 SLP256",2025-09-09 16:05:56.377929,2025-09-09 12:05:56.377971
"CYXE","Saskatoon/Diefenbaker Intl, SK, CA",2025-09-09 15:00:00,2025-09-09 11:00:00,"VFR",14,11,60,4,NA,12,1015.3,"METAR CYXE 091500Z 06004KT 12SM FEW120 14/11 A2998 RMK AC1 AC TR FU SLP162 DENSITY ALT 1900FT",2025-09-09 16:05:56.384132,2025-09-09 12:05:56.384178
"CYXS","Prince George Arpt, BC, CA",2025-09-09 15:00:00,2025-09-09 11:00:00,"MVFR",8,8,200,2,NA,5,1013.6,"METAR CYXS 091500Z AUTO 20002KT 5SM BR CLR 08/08 A2993 RMK SLP148",2025-09-09 16:05:56.390313,2025-09-09 12:05:56.390355
"CYXT","Terrace Arpt, BC, CA",2025-09-09 15:00:00,2025-09-09 11:00:00,"VFR",13,11,290,3,NA,20,1016.3,"METAR CYXT 091500Z 29003KT 20SM FEW020 BKN040 BKN210 13/11 A3001 RMK SC1SC6CI1 CI TR SLP169",2025-09-09 16:05:56.396508,2025-09-09 12:05:56.396563
"CYQT","Thunder Bay Intl, ON, CA",2025-09-09 15:00:00,2025-09-09 11:00:00,"MVFR",15,14,NA,2,NA,8,1014,"METAR CYQT 091500Z VRB02KT 8SM SCT005 BKN013 OVC023 15/14 A2994 RMK SF3SC2SC3 BR SLP145",2025-09-09 16:05:56.402814,2025-09-09 12:05:56.402857
"CYRJ","Roberval Arpt, QC, CA",2025-09-09 15:00:00,2025-09-09 11:00:00,"VFR",16,8,240,11,NA,40,1026.2,"METAR CYRJ 091500Z 24011KT 180V270 40SM FEW060 SCT090 BKN240 16/08 A3030 RMK SC1AC2CI2 SLP269",2025-09-09 16:05:56.409003,2025-09-09 12:05:56.409045
"CYTS","Timmins/Power Arpt, ON, CA",2025-09-09 15:00:00,2025-09-09 11:00:00,"MVFR",12,11,200,10,16,3,1018,"METAR CYTS 091500Z 20010G16KT 3SM -RA BR SCT010 OVC018 12/11 A3006 RMK SF3NS5 SLP190",2025-09-09 16:05:56.41715,2025-09-09 12:05:56.417193
"CYVO","Val D'Or Arpt, QC, CA",2025-09-09 15:00:00,2025-09-09 11:00:00,"VFR",13,6,180,10,20,15,1023.5,"METAR CYVO 091500Z 18010G20KT 15SM BKN085 BKN130 BKN160 13/06 A3022 RMK AC5AC1AC2 SLP247",2025-09-09 16:05:56.423466,2025-09-09 12:05:56.42351
"CYMM","Fort McMurray Arpt, AB, CA",2025-09-09 15:00:00,2025-09-09 11:00:00,"MVFR",12,9,100,7,NA,5,1011.3,"METAR CYMM 091500Z AUTO 10007KT 5SM HZ CLR 12/09 A2986 RMK SLP125",2025-09-09 16:05:56.42971,2025-09-09 12:05:56.429752
"CYBC","Baie Comeau Arpt, QC, CA",2025-09-09 15:00:00,2025-09-09 11:00:00,"VFR",13,7,220,8,NA,9,1028.2,"METAR CYBC 091500Z AUTO 22008KT 9SM CLR 13/07 A3036 RMK SLP283",2025-09-09 16:05:56.435872,2025-09-09 12:05:56.435914
"CYQB","Quebec/Lesage Intl, QC, CA",2025-09-09 15:00:00,2025-09-09 11:00:00,"VFR",16,7,130,3,NA,30,1029.2,"METAR CYQB 091500Z 13003KT 30SM FEW050 FEW100 FEW250 16/07 A3039 RMK SC1AC1CI2 SC TR AC TR SLP297",2025-09-09 16:05:56.442117,2025-09-09 12:05:56.442159
"CYXX","Abbotsford Intl, BC, CA",2025-09-09 15:51:00,2025-09-09 11:51:00,"LIFR",16,16,NA,2,NA,2.5,1014.3,"SPECI CYXX 091551Z VRB02KT 2 1/2SM BR OVC004 16/16 A2995 RMK ST8 SLP145 DENSITY ALT 400FT",2025-09-09 16:05:57.786845,2025-09-09 12:05:57.786892
"CYRB","Resolute Bay Arpt, NU, CA",2025-09-09 15:51:00,2025-09-09 11:51:00,"LIFR",-2,-2,300,4,NA,0.5,1012.3,"SPECI CYRB 091551Z 30004KT 1/2SM R35/2200V3000FT/N FZFG OVC002 M02/M02 A2989 RMK FG6ST2 SLP131",2025-09-09 16:05:57.795461,2025-09-09 12:05:57.795504
"CYQX","Gander Intl Arpt, NL, CA",2025-09-09 15:00:00,2025-09-09 11:00:00,"VFR",16,6,240,13,18,20,1024.5,"METAR CYQX 091500Z 24013G18KT 20SM FEW040 OVC210 16/06 A3025 RMK CF1CC7 SLP249",2025-09-09 16:05:57.801983,2025-09-09 12:05:57.802029
"CYBK","Baker Lake Arpt, NU, CA",2025-09-09 15:00:00,2025-09-09 11:00:00,"MVFR",5,1,350,3,NA,20,1016.7,"METAR CYBK 091500Z 35003KT 300V010 20SM BKN018 05/01 A3002 RMK SC6 SLP169",2025-09-09 16:05:57.808363,2025-09-09 12:05:57.808406
"CYQH","Watson Lake Arpt, YT, CA",2025-09-09 15:00:00,2025-09-09 11:00:00,"VFR",7,3,30,2,NA,30,1011.9,"METAR CYQH 091500Z 03002KT 30SM BKN060 BKN120 07/03 A2988 RMK CU5AC2 SLP135",2025-09-09 16:05:57.814711,2025-09-09 12:05:57.814755
"CYQU","Grande Prairie Arpt, AB, CA",2025-09-09 15:00:00,2025-09-09 11:00:00,"MVFR",14,9,240,9,NA,4,1010.2,"METAR CYQU 091500Z 24009KT 4SM FU FEW150 14/09 A2983 RMK AC1 AC TR SLP109 DENSITY ALT 2800FT",2025-09-09 16:05:57.821049,2025-09-09 12:05:57.82109
"CYRT","Rankin Inlet Arpt, NU, CA",2025-09-09 15:00:00,2025-09-09 11:00:00,"MVFR",6,4,50,9,NA,15,1015,"METAR CYRT 091500Z 05009KT 15SM FEW004 BKN015 BKN030 06/04 A2997 RMK SC2CU3SC1 SH DST SW-W SLP153",2025-09-09 16:05:57.827379,2025-09-09 12:05:57.827421
"CYHM","Hamilton/Munro Intl, ON, CA",2025-09-09 15:00:00,2025-09-09 11:00:00,"VFR",19,12,130,3,NA,15,1026.2,"METAR CYHM 091500Z 13003KT 100V180 15SM SKC 19/12 A3030 RMK SLP265 DENSITY ALT 1000FT",2025-09-09 16:05:57.833689,2025-09-09 12:05:57.833732
"CYQK","Kenora Arpt, ON, CA",2025-09-09 15:00:00,2025-09-09 11:00:00,"VFR",17,12,0,0,NA,20,1015.7,"METAR CYQK 091500Z 00000KT 20SM FEW240 17/12 A2999 RMK CI1 SLP161 DENSITY ALT 1900FT",2025-09-09 16:05:57.840028,2025-09-09 12:05:57.840071
"CYMH","Mary's Harbor Arpt, NL, CA",2025-09-09 15:00:00,2025-09-09 11:00:00,"VFR",14,5,330,9,18,9,1020.4,"METAR CYMH 091500Z AUTO 33009G18KT 280V340 9SM CLR 14/05 A3013 RMK SLP205",2025-09-09 16:05:57.848289,2025-09-09 12:05:57.848332
"CYDP","Nain Arpt, NL, CA",2025-09-09 15:00:00,2025-09-09 11:00:00,"VFR",12,3,290,13,18,15,1016.3,"METAR CYDP 091500Z 29013G18KT 15SM SCT048 SCT060 12/03 A3001 RMK SC3CF1 CF TR SLP164",2025-09-09 16:05:57.854635,2025-09-09 12:05:57.854679
"CYAM","Sault Ste Marie Arpt, ON, CA",2025-09-09 15:00:00,2025-09-09 11:00:00,"VFR",17,12,210,5,NA,20,1019.4,"METAR CYAM 091500Z 21005KT 150V240 20SM FEW018 SCT110 BKN150 OVC250 17/12 A3010 RMK CU1AC2AS3CS2 SLP198 DENSITY ALT 900FT",2025-09-09 16:05:57.860981,2025-09-09 12:05:57.861025
"CYBG","Bagotville(MIL), QC, CA",2025-09-09 15:00:00,2025-09-09 11:00:00,"VFR",14,9,90,6,NA,25,1027.9,"METAR CYBG 091500Z 09006KT 25SM FEW021 BKN240 14/09 A3035 RMK CU1CI6 DENSITY ALT 130FT CIG PDMTLY TRANSPARENT SLP283",2025-09-09 16:05:57.867284,2025-09-09 12:05:57.867326
"CYFC","Fredericton Intl, NB, CA",2025-09-09 15:00:00,2025-09-09 11:00:00,"VFR",17,9,210,3,NA,9,1029.5,"METAR CYFC 091500Z AUTO 21003KT 130V230 9SM CLR 17/09 A3040 RMK SLP299",2025-09-09 16:05:57.87355,2025-09-09 12:05:57.873611
"CYQY","Sydney Arpt, NS, CA",2025-09-09 15:00:00,2025-09-09 11:00:00,"VFR",20,10,30,6,NA,15,1028.2,"METAR CYQY 091500Z 03006KT 340V070 15SM FEW040 BKN240 20/10 A3036 RMK CU2CI3 SLP283",2025-09-09 16:05:57.87997,2025-09-09 12:05:57.880013
"CYUY","Rouyn/Noranda Arpt, QC, CA",2025-09-09 15:00:00,2025-09-09 11:00:00,"VFR",11,9,190,10,NA,15,1022.4,"METAR CYUY 091500Z 19010KT 15SM -RA BKN052 11/09 A3019 RMK SC7 SLP232",2025-09-09 16:05:57.886235,2025-09-09 12:05:57.886277
"CYXU","London Intl, ON, CA",2025-09-09 15:00:00,2025-09-09 11:00:00,"VFR",20,11,170,6,NA,15,1025.5,"METAR CYXU 091500Z 17006KT 15SM FEW240 20/11 A3028 RMK CI2 SLP258 DENSITY ALT 1300FT",2025-09-09 16:05:57.892532,2025-09-09 12:05:57.892575
"CYXY","Whitehorse Arpt, YT, CA",2025-09-09 15:00:00,2025-09-09 11:00:00,"VFR",4,2,0,0,NA,40,1012.3,"METAR CYXY 091500Z 00000KT 40SM FEW060 FEW140 04/02 A2989 RMK SC1AC1 AC TR SLP146",2025-09-09 16:05:57.898842,2025-09-09 12:05:57.898886
"CYZF","Yellowknife Arpt, NT, CA",2025-09-09 15:00:00,2025-09-09 11:00:00,"VFR",11,8,120,11,NA,15,1006.9,"METAR CYZF 091500Z 12011KT 15SM FEW020 FEW110 SCT180 11/08 A2973 RMK SC1AC2AC1 SC TR SLP078",2025-09-09 16:05:57.915697,2025-09-09 12:05:57.91574
"CYYT","St Johns Intl, NL, CA",2025-09-09 15:00:00,2025-09-09 11:00:00,"VFR",16,9,270,12,NA,15,1025.5,"METAR CYYT 091500Z CCA 27012KT 15SM SCT100 BKN130 OVC220 16/09 A3028 RMK AC3AC3CI2 SLP258",2025-09-09 16:05:57.922067,2025-09-09 12:05:57.922113
"CYWL","Williams Lake Rgnl, BC, CA",2025-09-09 15:00:00,2025-09-09 11:00:00,"IFR",11,11,NA,2,NA,1,1015.3,"METAR CYWL 091500Z VRB02KT 1SM FU SCT059 SCT100 11/11 A2998 RMK FU3SC1AC1 AC TR SLP156 DENSITY ALT 3300FT",2025-09-09 16:05:57.928551,2025-09-09 12:05:57.928615
"CYXS","Prince George Arpt, BC, CA",2025-09-09 15:00:00,2025-09-09 11:00:00,"MVFR",8,8,200,2,NA,5,1013.6,"METAR CYXS 091500Z AUTO 20002KT 5SM BR CLR 08/08 A2993 RMK SLP148",2025-09-09 16:05:57.934877,2025-09-09 12:05:57.93492
"CYZP","Sandspit Arpt, BC, CA",2025-09-09 15:00:00,2025-09-09 11:00:00,"MVFR",15,10,300,11,16,9,1018.7,"METAR CYZP 091500Z AUTO 30011G16KT 9SM BKN026 15/10 A3008 RMK SLP188",2025-09-09 16:05:57.941286,2025-09-09 12:05:57.941328
"CYQT","Thunder Bay Intl, ON, CA",2025-09-09 15:00:00,2025-09-09 11:00:00,"MVFR",15,14,NA,2,NA,8,1014,"METAR CYQT 091500Z VRB02KT 8SM SCT005 BKN013 OVC023 15/14 A2994 RMK SF3SC2SC3 BR SLP145",2025-09-09 16:05:57.94772,2025-09-09 12:05:57.947764
"CYHD","Dryden Rgnl, ON, CA",2025-09-09 15:00:00,2025-09-09 11:00:00,"VFR",14,11,NA,2,NA,9,1015.3,"METAR CYHD 091500Z AUTO VRB02KT 9SM CLR 14/11 A2998 RMK SLP163",2025-09-09 16:05:57.954097,2025-09-09 12:05:57.95414
"CYOD","Cold Lake (Mil), AB, CA",2025-09-09 15:00:00,2025-09-09 11:00:00,"VFR",14,11,120,7,NA,8,1013.6,"METAR CYOD 091500Z 12007KT 8SM FEW080 FEW250 14/11 A2993 RMK AC1CI1 DENSITY ALT 2258FT FU SLP143",2025-09-09 16:05:57.960439,2025-09-09 12:05:57.960482
"CYAZ","Tofino Arpt, BC, CA",2025-09-09 15:00:00,2025-09-09 11:00:00,"LIFR",13,13,310,3,NA,0.25,1015,"METAR CYAZ 091500Z 31003KT 1/4SM FG VV002 13/13 A2997 RMK FG8 SLP151",2025-09-09 16:05:57.969054,2025-09-09 12:05:57.969095
"CYBL","Campbell River Arpt, BC, CA",2025-09-09 15:00:00,2025-09-09 11:00:00,"MVFR",12,12,280,2,NA,15,1015.7,"METAR CYBL 091500Z 28002KT 15SM FEW004 BKN018 12/12 A2999 RMK SF1SC7 SF TR SLP157",2025-09-09 16:05:57.975304,2025-09-09 12:05:57.975345
"CYCD","Nanaimo Arpt, BC, CA",2025-09-09 15:00:00,2025-09-09 11:00:00,"VFR",16,13,NA,2,NA,20,1014.6,"METAR CYCD 091500Z VRB02KT 20SM BKN045 16/13 A2996 RMK SC7 SLP149",2025-09-09 16:05:57.981819,2025-09-09 12:05:57.981863
"CYCO","Coppermine/Kugluktuk Arpt, NU, CA",2025-09-09 15:00:00,2025-09-09 11:00:00,"MVFR",6,5,230,2,NA,5,1008.5,"METAR CYCO 091500Z 23002KT 5SM FU BKN035 06/05 A2978 RMK FU5 SLP087",2025-09-09 16:05:57.9881,2025-09-09 12:05:57.988143
"CYDF","Deer Lake Arpt, NL, CA",2025-09-09 15:00:00,2025-09-09 11:00:00,"VFR",18,5,240,14,19,15,1025.1,"METAR CYDF 091500Z 24014G19KT 220V280 15SM FEW050 SCT250 18/05 A3027 RMK CU2CI1 SLP254",2025-09-09 16:05:57.994355,2025-09-09 12:05:57.994398
"CYKF","Waterloo Intl, ON, CA",2025-09-09 15:00:00,2025-09-09 11:00:00,"VFR",19,10,150,7,NA,9,1025.8,"METAR CYKF 091500Z AUTO 15007KT 110V180 9SM CLR 19/10 A3029 RMK SLP263 DENSITY ALT 1300FT",2025-09-09 16:05:58.000635,2025-09-09 12:05:58.000679
"CYTZ","Toronto/Bishop Arpt, ON, CA",2025-09-09 15:00:00,2025-09-09 11:00:00,"VFR",17,13,80,6,NA,9,1026.5,"METAR CYTZ 091500Z AUTO 08006KT 9SM CLR 17/13 A3031 RMK SLP266",2025-09-09 16:05:58.006957,2025-09-09 12:05:58.007
"CYTR","Trenton(MIL), ON, CA",2025-09-09 15:00:00,2025-09-09 11:00:00,"VFR",19,13,140,3,NA,15,1027.5,"METAR CYTR 091500Z 14003KT 15SM FEW024 SCT250 19/13 A3034 RMK CF1CI3 DENSITY ALT 487FT SLP276",2025-09-09 16:05:58.013258,2025-09-09 12:05:58.013303
"CYPR","Prince Rupert Arpt, BC, CA",2025-09-09 15:00:00,2025-09-09 11:00:00,NA,12,12,NA,2,NA,NA,1017.7,"METAR CYPR 091500Z AUTO VRB02KT OVC002 12/12 A3005 RMK WX MISG VIS MISG SLP178",2025-09-09 16:05:58.019658,2025-09-09 12:05:58.019703
"CYFB","Iqaluit Arpt, NU, CA",2025-09-09 15:00:00,2025-09-09 11:00:00,"MVFR",7,3,320,16,21,30,1009.9,"METAR CYFB 091500Z 32016G21KT 30SM OVC015 07/03 A2982 RMK SC8 SLP103",2025-09-09 16:05:58.028144,2025-09-09 12:05:58.028186
"CYQQ","Comox(MIL), BC, CA",2025-09-09 15:00:00,2025-09-09 11:00:00,"VFR",15,12,300,6,NA,20,1015.3,"METAR CYQQ 091500Z 30006KT 20SM FEW020 FEW240 15/12 A2998 RMK SC1CI1 DENSITY ALT 221FT SLP153",2025-09-09 16:05:58.034462,2025-09-09 12:05:58.034506
"KHPN","White Plains/Westchester Cnty, NY, US",2025-09-09 15:56:00,2025-09-09 11:56:00,"VFR",21.1,4.4,80,12,17,NA,1027.5,"METAR KHPN 091556Z 08012G17KT 10SM FEW040 21/04 A3034 RMK AO2 SLP272 T02110044",2025-09-09 16:06:00.230428,2025-09-09 12:06:00.230472
"KRIC","Richmond Intl, VA, US",2025-09-09 15:54:00,2025-09-09 11:54:00,"VFR",21.7,13.9,50,11,19,NA,1024.1,"METAR KRIC 091554Z 05011G19KT 10SM OVC033 22/14 A3024 RMK AO2 SLP242 T02170139",2025-09-09 16:06:00.237024,2025-09-09 12:06:00.237067
"KSYR","Syracuse/Hancock Intl, NY, US",2025-09-09 15:54:00,2025-09-09 11:54:00,"VFR",20,10.6,0,0,NA,NA,1027.9,"METAR KSYR 091554Z 00000KT 10SM FEW030 SCT250 20/11 A3035 RMK AO2 SLP275 T02000106",2025-09-09 16:06:00.243804,2025-09-09 12:06:00.243847
"KBOS","Boston/Logan Intl, MA, US",2025-09-09 15:54:00,2025-09-09 11:54:00,"VFR",20,11.7,70,8,NA,NA,1029.2,"METAR KBOS 091554Z 07008KT 10SM FEW030 FEW250 20/12 A3039 RMK AO2 SLP291 T02000117",2025-09-09 16:06:00.250236,2025-09-09 12:06:00.25028
"KBUF","Buffalo-Niagara Intl, NY, US",2025-09-09 15:54:00,2025-09-09 11:54:00,"VFR",21.1,7.2,170,4,NA,NA,1026.2,"METAR KBUF 091554Z 17004KT 10SM FEW055 21/07 A3030 RMK AO2 SLP262 FU ALF T02110072 $",2025-09-09 16:06:00.259058,2025-09-09 12:06:00.2591
"KBWI","Baltimore-Washington Intl, MD, US",2025-09-09 15:54:00,2025-09-09 11:54:00,"VFR",22.2,10.6,80,15,NA,NA,1025.8,"METAR KBWI 091554Z 08015KT 10SM SCT041 SCT250 22/11 A3029 RMK AO2 SLP256 T02220106",2025-09-09 16:06:00.265485,2025-09-09 12:06:00.265528
"KPHL","Philadelphia Intl, PA, US",2025-09-09 15:54:00,2025-09-09 11:54:00,"VFR",22.8,12.8,70,9,19,NA,1026.2,"METAR KPHL 091554Z 07009G19KT 10SM BKN038 BKN250 BKN330 23/13 A3030 RMK AO2 SLP261 T02280128 $",2025-09-09 16:06:00.271991,2025-09-09 12:06:00.272036
"KROC","Rochester Intl Arpt, NY, US",2025-09-09 15:54:00,2025-09-09 11:54:00,"VFR",20.6,8.9,240,5,NA,NA,1026.8,"METAR KROC 091554Z 24005KT 10SM FEW028 FEW240 21/09 A3032 RMK AO2 SLP271 T02060089 $",2025-09-09 16:06:00.278473,2025-09-09 12:06:00.278516
"KDCA","Washington/Reagan-National Arpt, VA, US",2025-09-09 15:52:00,2025-09-09 11:52:00,"VFR",22.2,11.1,60,13,NA,NA,1025.5,"METAR KDCA 091552Z 06013KT 10SM FEW040 SCT250 22/11 A3028 RMK AO2 SLP251 T02220111",2025-09-09 16:06:00.284893,2025-09-09 12:06:00.284937
"KIAD","Washington/Dulles Intl, VA, US",2025-09-09 15:52:00,2025-09-09 11:52:00,"VFR",22.8,10,110,8,NA,NA,1025.8,"METAR KIAD 091552Z 11008KT 10SM FEW035 SCT250 23/10 A3029 RMK AO2 SLP255 T02280100",2025-09-09 16:06:00.291286,2025-09-09 12:06:00.29133
"KALB","Albany Intl, NY, US",2025-09-09 15:51:00,2025-09-09 11:51:00,"VFR",18.9,9.4,0,0,NA,NA,1028.5,"METAR KALB 091551Z 00000KT 10SM FEW037 SCT250 19/09 A3037 RMK AO2 SLP284 T01890094",2025-09-09 16:06:00.297673,2025-09-09 12:06:00.297719
"KLGA","New York/La Guardia Arpt, NY, US",2025-09-09 15:51:00,2025-09-09 11:51:00,"VFR",20.6,10,50,13,NA,NA,1027.2,"METAR KLGA 091551Z 05013KT 10SM FEW028 SCT250 21/10 A3033 RMK AO2 SLP269 T02060100",2025-09-09 16:06:00.30406,2025-09-09 12:06:00.304104
"KORF","Norfolk Intl, VA, US",2025-09-09 15:51:00,2025-09-09 11:51:00,"MVFR",22.8,18.3,40,18,NA,NA,1021.8,"METAR KORF 091551Z 04018KT 10SM FEW017 BKN024 OVC031 23/18 A3017 RMK AO2 PK WND 04028/1519 SLP214 T02280183",2025-09-09 16:06:00.312884,2025-09-09 12:06:00.312928
"KPVD","Providence/Green Mem, RI, US",2025-09-09 15:51:00,2025-09-09 11:51:00,"VFR",21.1,10.6,50,11,17,NA,1028.5,"METAR KPVD 091551Z 05011G17KT 10SM FEW033 FEW250 21/11 A3037 RMK AO2 SLP285 T02110106",2025-09-09 16:06:00.319204,2025-09-09 12:06:00.319249
"KBED","Bedford/Hanscom Fld, MA, US",2025-09-09 15:51:00,2025-09-09 11:51:00,"VFR",21.7,7.8,130,11,17,NA,1028.5,"METAR KBED 091551Z 13011G17KT 10SM SCT040 22/08 A3037 RMK AO2 SLP298 T02170078 $",2025-09-09 16:06:00.325635,2025-09-09 12:06:00.325679
"KEWR","Newark Intl, NJ, US",2025-09-09 15:51:00,2025-09-09 11:51:00,"VFR",21.7,10,80,5,15,NA,1027.2,"METAR KEWR 091551Z 08005G15KT 10SM SCT040 SCT250 22/10 A3033 RMK AO2 SLP269 T02170100 $",2025-09-09 16:06:00.331934,2025-09-09 12:06:00.331977
"KBDL","Hartford/Bradley Intl, CT, US",2025-09-09 15:51:00,2025-09-09 11:51:00,"VFR",20.6,10.6,0,0,NA,NA,1028.5,"METAR KBDL 091551Z 00000KT 10SM FEW037 FEW250 21/11 A3037 RMK AO2 SLP284 T02060106",2025-09-09 16:06:00.338191,2025-09-09 12:06:00.338235
"KJFK","New York/JF Kennedy Intl, NY, US",2025-09-09 15:51:00,2025-09-09 11:51:00,"VFR",21.7,8.3,60,11,NA,NA,1027.2,"METAR KJFK 091551Z 06011KT 10SM FEW028 FEW032 BKN250 22/08 A3033 RMK AO2 SLP270 T02170083",2025-09-09 16:06:00.344528,2025-09-09 12:06:00.344571
"KPIT","Pittsburgh Intl, PA, US",2025-09-09 15:51:00,2025-09-09 11:51:00,"VFR",20.6,6.1,NA,5,NA,NA,1025.8,"METAR KPIT 091551Z VRB05KT 10SM FEW040 FEW250 21/06 A3029 RMK AO2 SLP262 T02060061 $",2025-09-09 16:06:00.350935,2025-09-09 12:06:00.350979
"CYMT","Chibougamau Arpt, QC, CA",2025-09-09 15:45:00,2025-09-09 11:45:00,"VFR",13,9,180,14,NA,9,1023.1,"SPECI CYMT 091545Z AUTO 18014KT 9SM SCT047 BKN066 OVC084 13/09 A3021 RMK SLP243",2025-09-09 16:06:00.357257,2025-09-09 12:06:00.357303
"CYGL","La Grande Riviere Arpt, QC, CA",2025-09-09 15:31:00,2025-09-09 11:31:00,"VFR",11,11,200,7,NA,15,1014,"SPECI CYGL 091531Z 20007KT 15SM -DZ SCT012 OVC051 11/11 A2994 RMK SC4SC4 SLP151",2025-09-09 16:06:00.363611,2025-09-09 12:06:00.363657
"CYVO","Val D'Or Arpt, QC, CA",2025-09-09 15:00:00,2025-09-09 11:00:00,"VFR",13,6,180,10,20,15,1023.5,"METAR CYVO 091500Z 18010G20KT 15SM BKN085 BKN130 BKN160 13/06 A3022 RMK AC5AC1AC2 SLP247",2025-09-09 16:06:00.372089,2025-09-09 12:06:00.37213
"CYGV","Havre St Pierre Arpt, QC, CA",2025-09-09 15:00:00,2025-09-09 11:00:00,"VFR",13,3,260,14,20,9,1026.8,"METAR CYGV 091500Z AUTO 26014G20KT 9SM CLR 13/03 A3032 RMK SLP271",2025-09-09 16:06:00.378705,2025-09-09 12:06:00.378752
"CYHA","Quaqtaq Arpt, QC, CA",2025-09-09 15:00:00,2025-09-09 11:00:00,"VFR",7,3,290,6,NA,15,1013.3,"METAR CYHA 091500Z 29006KT 15SM FEW038 FEW070 07/03 A2992 RMK SC1AC1 SC TR SLP135",2025-09-09 16:06:00.385152,2025-09-09 12:06:00.385194
"CYBC","Baie Comeau Arpt, QC, CA",2025-09-09 15:00:00,2025-09-09 11:00:00,"VFR",13,7,220,8,NA,9,1028.2,"METAR CYBC 091500Z AUTO 22008KT 9SM CLR 13/07 A3036 RMK SLP283",2025-09-09 16:06:00.391377,2025-09-09 12:06:00.39142
"CYCO","Coppermine/Kugluktuk Arpt, NU, CA",2025-09-09 15:00:00,2025-09-09 11:00:00,"MVFR",6,5,230,2,NA,5,1008.5,"METAR CYCO 091500Z 23002KT 5SM FU BKN035 06/05 A2978 RMK FU5 SLP087",2025-09-09 16:06:00.397658,2025-09-09 12:06:00.397702
"CYLK","Lutselke Arpt, NT, CA",2025-09-09 15:00:00,2025-09-09 11:00:00,"VFR",11,7,90,5,NA,25,1010.2,"METAR CYLK 091500Z 09005KT 050V140 25SM SCT120 BKN140 BKN240 11/07 A2983 RMK AC3AC2CI1 FU SLP112",2025-09-09 16:06:00.403919,2025-09-09 12:06:00.403963
"CYFB","Iqaluit Arpt, NU, CA",2025-09-09 15:00:00,2025-09-09 11:00:00,"MVFR",7,3,320,16,21,30,1009.9,"METAR CYFB 091500Z 32016G21KT 30SM OVC015 07/03 A2982 RMK SC8 SLP103",2025-09-09 16:06:00.410144,2025-09-09 12:06:00.410185
"CYKJ","Key Lake Arpt, SK, CA",2025-09-09 15:00:00,2025-09-09 11:00:00,"VFR",10,8,140,5,NA,9,1016,"METAR CYKJ 091500Z AUTO 14005KT 9SM CLR 10/08 A3000 RMK SLP180",2025-09-09 16:06:00.416446,2025-09-09 12:06:00.416489
"CYPC","Paulatuk Arpt, NT, CA",2025-09-09 15:00:00,2025-09-09 11:00:00,"VFR",5,4,0,0,NA,15,1005.8,"METAR CYPC 091500Z 00000KT 15SM SCT180 BKN210 05/04 A2970 RMK AC3CS3 SLP061",2025-09-09 16:06:00.42492,2025-09-09 12:06:00.424963
"CYQB","Quebec/Lesage Intl, QC, CA",2025-09-09 15:00:00,2025-09-09 11:00:00,"VFR",16,7,130,3,NA,30,1029.2,"METAR CYQB 091500Z 13003KT 30SM FEW050 FEW100 FEW250 16/07 A3039 RMK SC1AC1CI2 SC TR AC TR SLP297",2025-09-09 16:06:00.431166,2025-09-09 12:06:00.431207
"CYXP","Pangnirtung Arpt, NU, CA",2025-09-09 15:00:00,2025-09-09 11:00:00,"VFR",7,1,240,13,NA,15,1003.8,"METAR CYXP 091500Z 24013KT 15SM FEW030 07/01 A2964 RMK CF2 SLP040",2025-09-09 16:06:00.437476,2025-09-09 12:06:00.437518
"CYCK","Chatham/Kent Arpt, ON, CA",2025-09-09 15:00:00,2025-09-09 11:00:00,"VFR",21,11,180,11,NA,9,1024.8,"METAR CYCK 091500Z AUTO 18011KT 9SM CLR 21/11 A3026 RMK SLP249 DENSITY ALT 1100FT",2025-09-09 16:06:00.443821,2025-09-09 12:06:00.443863
"CYTE","Cape Dorset Arpt, NU, CA",2025-09-09 15:00:00,2025-09-09 11:00:00,"VFR",6,3,270,3,NA,15,1011.9,"METAR CYTE 091500Z 27003KT 15SM FEW024 SCT043 06/03 A2988 RMK CU1SC3 SLP124",2025-09-09 16:06:00.449977,2025-09-09 12:06:00.45002
"CYDQ","Dawson Creek Arpt, BC, CA",2025-09-09 15:00:00,2025-09-09 11:00:00,"VFR",18,6,120,5,NA,9,1008.9,"METAR CYDQ 091500Z AUTO 12005KT 100V170 9SM CLR 18/06 A2979 RMK SLP091 DENSITY ALT 3100FT",2025-09-09 16:06:00.456233,2025-09-09 12:06:00.456276
"CYRJ","Roberval Arpt, QC, CA",2025-09-09 15:00:00,2025-09-09 11:00:00,"VFR",16,8,240,11,NA,40,1026.2,"METAR CYRJ 091500Z 24011KT 180V270 40SM FEW060 SCT090 BKN240 16/08 A3030 RMK SC1AC2CI2 SLP269",2025-09-09 16:06:00.462421,2025-09-09 12:06:00.462464
"CYVQ","Norman Wells Arpt, NT, CA",2025-09-09 15:00:00,2025-09-09 11:00:00,"MVFR",13,13,300,4,NA,6,1004.1,"METAR CYVQ 091500Z 30004KT 270V020 6SM -SHRA FEW004 BKN024 BKN037 OVC050 13/13 A2965 RMK ST1SC4SC2SC1 /R10/ VIS NE 2 CVCTV CLD EMBD SLP045",2025-09-09 16:06:00.468755,2025-09-09 12:06:00.468802
"CYVC","La Ronge Arpt, SK, CA",2025-09-09 15:00:00,2025-09-09 11:00:00,"VFR",14,11,100,5,NA,15,1016.7,"METAR CYVC 091500Z 10005KT 060V150 15SM FEW200 14/11 A3002 RMK CI1 SLP175",2025-09-09 16:06:00.47504,2025-09-09 12:06:00.475082
"KCHS","Charleston Intl, SC, US",2025-09-09 15:56:00,2025-09-09 11:56:00,"VFR",23.9,13.3,30,13,NA,NA,1020.1,"METAR KCHS 091556Z 03013KT 10SM SCT180 BKN250 24/13 A3012 RMK AO2 SLP200 T02390133",2025-09-09 16:06:01.879031,2025-09-09 12:06:01.879077
"KFSD","Sioux Falls/Foss Fld, SD, US",2025-09-09 15:56:00,2025-09-09 11:56:00,"IFR",17.2,15.6,170,3,NA,NA,1016,"METAR KFSD 091556Z 17003KT 10SM OVC009 17/16 A3000 RMK AO2 RAB18E36 TSE40 SLP154 P0003 T01720156",2025-09-09 16:06:01.885601,2025-09-09 12:06:01.885649
"KSDF","Louisville Intl, KY, US",2025-09-09 15:56:00,2025-09-09 11:56:00,"VFR",22.2,9.4,0,0,NA,NA,1022.8,"METAR KSDF 091556Z 00000KT 10SM FEW350 22/09 A3020 RMK AO2 SLP222 T02220094",2025-09-09 16:06:01.892031,2025-09-09 12:06:01.892076
"KDAY","Dayton/Cox Intl, OH, US",2025-09-09 15:56:00,2025-09-09 11:56:00,"VFR",21.7,5,100,3,NA,NA,1024.1,"METAR KDAY 091556Z 10003KT 10SM FEW250 22/05 A3024 RMK AO2 SLP236 T02170050",2025-09-09 16:06:01.898495,2025-09-09 12:06:01.898539
"KMEM","Memphis Intl, TN, US",2025-09-09 15:54:00,2025-09-09 11:54:00,"VFR",26.7,17.8,170,10,NA,NA,1019.7,"METAR KMEM 091554Z 17010KT 10SM SCT028 27/18 A3011 RMK AO2 SLP190 T02670178 $",2025-09-09 16:06:01.90493,2025-09-09 12:06:01.904977
"KGSO","Greensboro Intl, NC, US",2025-09-09 15:54:00,2025-09-09 11:54:00,"VFR",20.6,7.2,60,14,20,NA,1024.1,"METAR KGSO 091554Z 06014G20KT 10SM FEW060 FEW250 21/07 A3024 RMK AO2 SLP235 T02060072",2025-09-09 16:06:01.911359,2025-09-09 12:06:01.913835
"KFWA","Fort Wayne Intl, IN, US",2025-09-09 15:54:00,2025-09-09 11:54:00,"VFR",22.2,8.3,200,9,NA,NA,1023.8,"METAR KFWA 091554Z 20009KT 10SM SCT250 22/08 A3023 RMK AO2 SLP237 T02220083",2025-09-09 16:06:01.920347,2025-09-09 12:06:01.92039
"KLNK","Lincoln Arpt, NE, US",2025-09-09 15:54:00,2025-09-09 11:54:00,"VFR",21.7,15.6,210,10,NA,NA,1016.3,"METAR KLNK 091554Z 21010KT 10SM BKN034 OVC050 22/16 A3001 RMK AO2 SLP156 T02170156",2025-09-09 16:06:01.926828,2025-09-09 12:06:01.926873
"KIND","Indianapolis Intl, IN, US",2025-09-09 15:54:00,2025-09-09 11:54:00,"VFR",22.2,7.8,170,7,NA,NA,1023.1,"METAR KIND 091554Z 17007KT 10SM BKN250 22/08 A3021 RMK AO2 SLP226 T02220078",2025-09-09 16:06:01.933169,2025-09-09 12:06:01.933212
"KSBN","South Bend Rgnl, IN, US",2025-09-09 15:54:00,2025-09-09 11:54:00,"VFR",21.1,8.9,210,6,NA,NA,1023.5,"METAR KSBN 091554Z 21006KT 10SM CLR 21/09 A3022 RMK AO2 SLP232 T02110089",2025-09-09 16:06:01.939418,2025-09-09 12:06:01.93946
"KDSM","Des Moines Intl, IA, US",2025-09-09 15:54:00,2025-09-09 11:54:00,"VFR",17.2,9.4,190,6,NA,NA,1018,"METAR KDSM 091554Z 19006KT 10SM FEW070 FEW110 SCT190 OVC210 17/09 A3006 RMK AO2 SLP175 T01720094",2025-09-09 16:06:01.945746,2025-09-09 12:06:01.94579
"KMDW","Chicago/Midway Intl, IL, US",2025-09-09 15:53:00,2025-09-09 11:53:00,"VFR",21.1,5.6,210,7,NA,NA,1022.4,"METAR KMDW 091553Z 21007KT 10SM BKN250 21/06 A3019 RMK AO2 SLP216 T02110056 $",2025-09-09 16:06:01.952136,2025-09-09 12:06:01.95218
"KRSW","Ft Myers/SW Florida Intl, FL, US",2025-09-09 15:53:00,2025-09-09 11:53:00,"VFR",29.4,25.6,100,6,NA,NA,1014.6,"METAR KRSW 091553Z 10006KT 10SM FEW012 29/26 A2996 RMK AO1 SLP142 T02940256",2025-09-09 16:06:01.958457,2025-09-09 12:06:01.958503
"KMYR","Myrtle Beach Intl, SC, US",2025-09-09 15:53:00,2025-09-09 11:53:00,"VFR",22.2,15.6,360,13,NA,NA,1020.7,"METAR KMYR 091553Z 36013KT 10SM CLR 22/16 A3014 RMK AO2 SLP204 T02220156 $",2025-09-09 16:06:01.965078,2025-09-09 12:06:01.965123
"KSAV","Savannah Intl, GA, US",2025-09-09 15:53:00,2025-09-09 11:53:00,"VFR",25.6,15,40,11,19,NA,1019.7,"METAR KSAV 091553Z 04011G19KT 10SM SCT250 26/15 A3011 RMK AO2 SLP197 T02560150",2025-09-09 16:06:01.974354,2025-09-09 12:06:01.974397
"KTPA","Tampa Intl Arpt, FL, US",2025-09-09 15:53:00,2025-09-09 11:53:00,"VFR",27.8,24.4,NA,4,NA,NA,1014.6,"METAR KTPA 091553Z VRB04KT 10SM FEW010 SCT035 BKN110 28/24 A2996 RMK AO2 SLP146 OCNL LTGIC DSNT SW CB DSNT SW T02780244 $",2025-09-09 16:06:01.981089,2025-09-09 12:06:01.981135
"KPBI","Palm Beach Intl, FL, US",2025-09-09 15:53:00,2025-09-09 11:53:00,"VFR",30.6,23.9,NA,3,NA,NA,1015,"METAR KPBI 091553Z VRB03KT 10SM SCT030 BKN250 31/24 A2997 RMK AO2 SLP147 CB DSNT E-SE S SW T03060239 $",2025-09-09 16:06:01.987706,2025-09-09 12:06:01.987751
"KDTW","Detroit/Metro Wayne Cnty, MI, US",2025-09-09 15:53:00,2025-09-09 11:53:00,"VFR",21.7,7.2,190,7,NA,NA,1024.5,"METAR KDTW 091553Z 19007KT 10SM SCT250 22/07 A3025 RMK AO2 SLP243 T02170072 $",2025-09-09 16:06:01.994132,2025-09-09 12:06:01.994178
"KMCI","Kansas City Intl, MO, US",2025-09-09 15:53:00,2025-09-09 11:53:00,"VFR",15.6,14.4,190,13,NA,NA,1017.4,"METAR KMCI 091553Z 19013KT 10SM -RA FEW036 BKN047 OVC090 16/14 A3004 RMK AO2 SLP169 P0005 T01560144 $",2025-09-09 16:06:02.000558,2025-09-09 12:06:02.000622
"KMSP","Minneapolis-St Paul Intl, MN, US",2025-09-09 15:53:00,2025-09-09 11:53:00,"MVFR",19.4,13.3,230,11,17,NA,1015.3,"METAR KMSP 091553Z 23011G17KT 10SM OVC029 19/13 A2998 RMK AO2 SLP148 T01940133",2025-09-09 16:06:02.007051,2025-09-09 12:06:02.007095
"KMCO","Orlando Intl, FL, US",2025-09-09 15:53:00,2025-09-09 11:53:00,"VFR",28.9,23.3,NA,3,NA,NA,1015,"METAR KMCO 091553Z VRB03KT 10SM FEW020 BKN160 BKN250 29/23 A2997 RMK AO2 SLP149 T02890233 $",2025-09-09 16:06:02.013505,2025-09-09 12:06:02.01355
"KMIA","Miami Intl, FL, US",2025-09-09 15:53:00,2025-09-09 11:53:00,"VFR",31.1,24.4,150,4,NA,NA,1014.3,"METAR KMIA 091553Z 15004KT 10SM SCT025CB BKN250 31/24 A2995 RMK AO2 LTG DSNT N SLP143 CB VC NE AND DSNT ALQDS MOV NE T03110244 $",2025-09-09 16:06:02.019966,2025-09-09 12:06:02.020011
"KFLL","Ft Lauderdale-Hollywood Intl, FL, US",2025-09-09 15:53:00,2025-09-09 11:53:00,"VFR",29.4,23.9,280,13,18,NA,1014.6,"METAR KFLL 091553Z 28013G18KT 10SM TS SCT025CB BKN080 BKN250 29/24 A2996 RMK AO2 TSB47 SLP143 OCNL LTGICCG SW-NW TS SW-NW MOV NE TCU NE-E T02940239",2025-09-09 16:06:02.028952,2025-09-09 12:06:02.028996
"KBNA","Nashville Intl, TN, US",2025-09-09 15:53:00,2025-09-09 11:53:00,"VFR",25,12.8,170,8,NA,NA,1022.1,"METAR KBNA 091553Z 17008KT 10SM SCT070 SCT250 25/13 A3018 RMK AO2 SLP215 T02500128 $",2025-09-09 16:06:02.035324,2025-09-09 12:06:02.035369
"KEYW","Key West Intl, FL, US",2025-09-09 15:53:00,2025-09-09 11:53:00,"VFR",30.6,25.6,210,9,NA,NA,1014.6,"METAR KEYW 091553Z 21009KT 10SM FEW002 FEW026 31/26 A2996 RMK AO2 SLP151 T03060256",2025-09-09 16:06:02.041804,2025-09-09 12:06:02.04185
"KHSV","Huntsville Intl, AL, US",2025-09-09 15:53:00,2025-09-09 11:53:00,"VFR",23.9,12.8,150,8,NA,NA,1022.1,"METAR KHSV 091553Z 15008KT 10SM FEW045 FEW060 24/13 A3018 RMK AO2 SLP213 T02390128 $",2025-09-09 16:06:02.048233,2025-09-09 12:06:02.048278
"KLIT","Little Rock/Clinton Natl, AR, US",2025-09-09 15:53:00,2025-09-09 11:53:00,"VFR",22.2,12.8,0,0,NA,NA,1019.7,"METAR KLIT 091553Z 00000KT 10SM FEW160 22/13 A3011 RMK AO2 SLP197 T02220128",2025-09-09 16:06:02.054564,2025-09-09 12:06:02.054629
"KGRR","Grand Rapids Intl, MI, US",2025-09-09 15:53:00,2025-09-09 11:53:00,"VFR",19.4,7.8,NA,5,NA,NA,1023.5,"METAR KGRR 091553Z VRB05KT 10SM SCT250 19/08 A3022 RMK AO2 SLP233 T01940078",2025-09-09 16:06:02.061003,2025-09-09 12:06:02.061049
"KBHM","Birmingham Intl, AL, US",2025-09-09 15:53:00,2025-09-09 11:53:00,"VFR",25,11.1,140,9,17,NA,1022.1,"METAR KBHM 091553Z 14009G17KT 10SM FEW055 FEW110 25/11 A3018 RMK AO2 SLP213 T02500111",2025-09-09 16:06:02.067353,2025-09-09 12:06:02.067396
"KOMA","Omaha/Eppley Fld, NE, US",2025-09-09 15:52:00,2025-09-09 11:52:00,"VFR",21.1,15.6,170,10,NA,NA,1016,"METAR KOMA 091552Z COR 17010KT 10SM SCT040 SCT080 21/16 A3000 RMK AO2 SLP155 T02110156",2025-09-09 16:06:02.073711,2025-09-09 12:06:02.073757
"KATL","Atlanta/Hartsfield-Jackson Intl, GA, US",2025-09-09 15:52:00,2025-09-09 11:52:00,"VFR",23.3,11.1,70,14,NA,NA,1023.1,"METAR KATL 091552Z 07014KT 10SM FEW065 FEW200 FEW250 23/11 A3021 RMK SLP222 T02330111",2025-09-09 16:06:02.08007,2025-09-09 12:06:02.082258
"KCLT","Charlotte/Douglas Intl, NC, US",2025-09-09 15:52:00,2025-09-09 11:52:00,"VFR",21.7,8.3,50,14,20,NA,1024.1,"METAR KCLT 091552Z 05014G20KT 10SM FEW045 FEW250 22/08 A3024 RMK SLP248 T02170083 $",2025-09-09 16:06:02.088675,2025-09-09 12:06:02.088719
"KCVG","Cincinnati Intl, KY, US",2025-09-09 15:52:00,2025-09-09 11:52:00,"VFR",21.7,8.3,130,5,NA,NA,1023.5,"METAR KCVG 091552Z 13005KT 10SM FEW250 22/08 A3022 RMK AO2 SLP226 T02170083",2025-09-09 16:06:02.095909,2025-09-09 12:06:02.095955
"KMLI","Moline/Quad City Intl, IL, US",2025-09-09 15:52:00,2025-09-09 11:52:00,"VFR",21.1,9.4,180,9,NA,NA,1020.1,"METAR KMLI 091552Z 18009KT 10SM CLR 21/09 A3012 RMK AO2 SLP198 T02110094",2025-09-09 16:06:02.102354,2025-09-09 12:06:02.102398
"KRDU","Raleigh-Durham Intl, NC, US",2025-09-09 15:51:00,2025-09-09 11:51:00,"VFR",21.7,12.2,20,8,16,NA,1023.5,"METAR KRDU 091551Z 02008G16KT 10SM SCT030 SCT250 22/12 A3022 RMK AO2 SLP230 T02170122",2025-09-09 16:06:02.108886,2025-09-09 12:06:02.108931
"KCLE","Cleveland/Hopkins Intl, OH, US",2025-09-09 15:51:00,2025-09-09 11:51:00,"VFR",22.2,6.1,130,6,NA,NA,1024.1,"METAR KCLE 091551Z 13006KT 10SM FEW250 22/06 A3024 RMK AO2 SLP254 T02220061",2025-09-09 16:06:02.115214,2025-09-09 12:06:02.115256
"KORD","Chicago/O'Hare Intl, IL, US",2025-09-09 15:51:00,2025-09-09 11:51:00,"VFR",20.6,6.1,180,7,NA,NA,1022.1,"METAR KORD 091551Z 18007KT 10SM BKN250 21/06 A3018 RMK AO2 SLP216 T02060061",2025-09-09 16:06:02.121547,2025-09-09 12:06:02.121609
"KSTL","St Louis/Lambert Intl, MO, US",2025-09-09 15:51:00,2025-09-09 11:51:00,"VFR",23.3,9.4,170,5,NA,NA,1021.1,"METAR KSTL 091551Z 17005KT 10SM FEW140 SCT200 BKN250 23/09 A3015 RMK AO2 SLP202 T02330094",2025-09-09 16:06:02.128069,2025-09-09 12:06:02.128128
"KCMH","Columbus/Glenn Intl, OH, US",2025-09-09 15:51:00,2025-09-09 11:51:00,"VFR",21.1,6.7,NA,4,NA,NA,1024.1,"METAR KCMH 091551Z VRB04KT 10SM FEW250 21/07 A3024 RMK AO2 SLP239 T02110067",2025-09-09 16:06:02.134872,2025-09-09 12:06:02.134917
"KJAX","Jacksonville Intl, FL, US",2025-09-09 15:40:00,2025-09-09 11:40:00,"MVFR",25,22.2,20,12,NA,NA,1017.4,"SPECI KJAX 091540Z 02012KT 10SM -RA FEW008 BKN014 OVC110 25/22 A3004 RMK AO2 RAB40 P0000 T02500222 $",2025-09-09 16:06:02.143835,2025-09-09 12:06:02.143885
"KEGE","Eagle Cnty Rgnl, CO, US",2025-09-09 15:56:00,2025-09-09 11:56:00,"VFR",13.9,2.2,NA,3,NA,NA,1025.5,"METAR KEGE 091556Z VRB03KT 10SM SCT100 14/02 A3028 RMK AO2 LTG DSNT W SLP188 T01390022 $",2025-09-09 16:06:03.638372,2025-09-09 12:06:03.638417
"KLRD","Laredo Intl, TX, US",2025-09-09 15:56:00,2025-09-09 11:56:00,"VFR",30,20.6,90,7,NA,NA,1016.7,"METAR KLRD 091556Z 09007KT 10SM CLR 30/21 A3002 RMK AO2 SLP162 T03000206 $",2025-09-09 16:06:03.644924,2025-09-09 12:06:03.644968
"KBZN","Bozeman/Gallatin Fld, MT, US",2025-09-09 15:56:00,2025-09-09 11:56:00,"VFR",16.1,5,20,3,NA,NA,1018,"METAR KBZN 091556Z 02003KT 10SM CLR 16/05 A3006 RMK AO2 SLP152 T01610050",2025-09-09 16:06:03.651323,2025-09-09 12:06:03.651366
"KEUG","Eugene/Mahlon Sweet Fld, OR, US",2025-09-09 15:54:00,2025-09-09 11:54:00,"VFR",17.8,14.4,170,3,NA,NA,1014.3,"METAR KEUG 091554Z 17003KT 10SM BKN031 BKN045 OVC080 18/14 A2995 RMK AO2 SLP140 T01780144",2025-09-09 16:06:03.657692,2025-09-09 12:06:03.657737
"KSLC","Salt Lake City Intl, UT, US",2025-09-09 15:54:00,2025-09-09 11:54:00,"VFR",27.2,6.7,160,19,25,NA,1014.3,"METAR KSLC 091554Z 16019G25KT 10SM FEW085 FEW120 BKN190 BKN230 27/07 A2995 RMK AO2 SLP083 T02720067 $",2025-09-09 16:06:03.66416,2025-09-09 12:06:03.664205
"KCOS","Colorado Spring Arpt, CO, US",2025-09-09 15:54:00,2025-09-09 11:54:00,"VFR",22.8,5,NA,3,NA,NA,1022.4,"METAR KCOS 091554Z VRB03KT 10SM SCT110 BKN250 23/05 A3019 RMK AO2 SLP133 T02280050 $",2025-09-09 16:06:03.673576,2025-09-09 12:06:03.673642
"KGTF","Great Falls Intl, MT, US",2025-09-09 15:53:00,2025-09-09 11:53:00,"VFR",19.4,5.6,0,0,NA,NA,1016,"METAR KGTF 091553Z 00000KT 10SM CLR 19/06 A3000 RMK AO2 SLP136 T01940056 $",2025-09-09 16:06:03.680125,2025-09-09 12:06:03.680179
"KPUB","Pueblo Mem Arpt, CO, US",2025-09-09 15:53:00,2025-09-09 11:53:00,"VFR",23.3,7.2,290,5,NA,NA,1019.4,"METAR KPUB 091553Z 29005KT 10SM CLR 23/07 A3010 RMK AO2 SLP127 T02330072 $",2025-09-09 16:06:03.686656,2025-09-09 12:06:03.686701
"KSEA","Seattle-Tacoma Intl, WA, US",2025-09-09 15:53:00,2025-09-09 11:53:00,"VFR",16.1,12.8,20,6,NA,NA,1014.6,"METAR KSEA 091553Z 02006KT 10SM BKN039 BKN120 BKN250 16/13 A2996 RMK AO2 SLP151 T01610128 $",2025-09-09 16:06:03.693133,2025-09-09 12:06:03.693177
"KLAW","Lawton-Fort Sill Rgnl, OK, US",2025-09-09 15:53:00,2025-09-09 11:53:00,"VFR",25,11.7,200,9,16,NA,1018,"METAR KLAW 091553Z 20009G16KT 10SM CLR 25/12 A3006 RMK AO2 SLP170 T02500117",2025-09-09 16:06:03.699574,2025-09-09 12:06:03.699641
"KTUL","Tulsa Intl Arpt, OK, US",2025-09-09 15:53:00,2025-09-09 11:53:00,"VFR",23.9,11.7,170,13,NA,NA,1018.7,"METAR KTUL 091553Z 17013KT 10SM SCT090 SCT160 24/12 A3008 RMK AO2 SLP180 T02390117",2025-09-09 16:06:03.705994,2025-09-09 12:06:03.706039
"KIDA","Idaho Falls Rgnl, ID, US",2025-09-09 15:53:00,2025-09-09 11:53:00,"VFR",17.2,8.3,350,6,NA,NA,1016.7,"METAR KIDA 091553Z 35006KT 10SM CLR 17/08 A3002 RMK AO2 SLP133 T01720083",2025-09-09 16:06:03.712433,2025-09-09 12:06:03.712476
"KDEN","Denver Intl, CO, US",2025-09-09 15:53:00,2025-09-09 11:53:00,"VFR",23.3,4.4,240,5,NA,NA,1020.1,"METAR KDEN 091553Z 24005KT 10SM FEW100 FEW140 FEW180 SCT220 23/04 A3012 RMK AO2 SLP122 T02330044",2025-09-09 16:06:03.718847,2025-09-09 12:06:03.718891
"KBFI","Seattle/Boeing Fld, WA, US",2025-09-09 15:53:00,2025-09-09 11:53:00,"VFR",17.2,13.3,NA,4,NA,NA,1014.3,"METAR KBFI 091553Z VRB04KT 10SM OVC045 17/13 A2995 RMK AO2 SLP142 T01720133",2025-09-09 16:06:03.727977,2025-09-09 12:06:03.728025
"KBIL","Billings/Logan Intl, MT, US",2025-09-09 15:53:00,2025-09-09 11:53:00,"VFR",17.2,6.7,200,3,NA,NA,1017,"METAR KBIL 091553Z 20003KT 10SM FEW240 17/07 A3003 RMK AO2 SLP145 T01720067",2025-09-09 16:06:03.734474,2025-09-09 12:06:03.734517
"KBRO","Brownsville Intl, TX, US",2025-09-09 15:53:00,2025-09-09 11:53:00,"VFR",30.6,25.6,NA,5,NA,NA,1014.3,"METAR KBRO 091553Z VRB05KT 10SM FEW050 FEW080 31/26 A2995 RMK AO2 SLP142 T03060256",2025-09-09 16:06:03.741069,2025-09-09 12:06:03.741112
"KGEG","Spokane Intl, WA, US",2025-09-09 15:53:00,2025-09-09 11:53:00,"VFR",20,10.6,10,4,NA,NA,1013.6,"METAR KGEG 091553Z 01004KT 10SM FEW120 FEW150 FEW300 20/11 A2993 RMK AO2 SLP121 OCNL LTGCGICCC DSNT N-NE CB DSNT N-NE AND NW MOV N SHRA DSNT N-NE T02000106 $",2025-09-09 16:06:03.747497,2025-09-09 12:06:03.74754
"KICT","Wichita/Eisenhower Arpt, KS, US",2025-09-09 15:53:00,2025-09-09 11:53:00,"VFR",22.2,13.9,200,19,24,NA,1016,"METAR KICT 091553Z 20019G24KT 10SM SCT120 SCT150 BKN190 BKN250 22/14 A3000 RMK AO2 SLP148 ACC NW-NE T02220139 $",2025-09-09 16:06:03.753891,2025-09-09 12:06:03.753935
"KMFE","McAllen/Miller Intl, TX, US",2025-09-09 15:53:00,2025-09-09 11:53:00,"VFR",31.7,23.9,10,8,NA,NA,1015.3,"METAR KMFE 091553Z 01008KT 10SM FEW025 SCT050 32/24 A2998 RMK AO2 SLP150 T03170239 $",2025-09-09 16:06:03.760339,2025-09-09 12:06:03.760383
"KAFW","Fort Worth/Alliance Arpt, TX, US",2025-09-09 15:53:00,2025-09-09 11:53:00,"VFR",25,13.3,150,10,NA,NA,1018.7,"METAR KAFW 091553Z 15010KT 10SM CLR 25/13 A3008 RMK AO2 SLP174 T02500133",2025-09-09 16:06:03.766715,2025-09-09 12:06:03.766761
"KAMA","Amarillo Intl Arpt, TX, US",2025-09-09 15:53:00,2025-09-09 11:53:00,"VFR",25.6,15.6,210,14,NA,NA,1019,"METAR KAMA 091553Z 21014KT 10SM CLR 26/16 A3009 RMK AO2 SLP136 T02560156",2025-09-09 16:06:03.773168,2025-09-09 12:06:03.773211
"KAUS","Austin/Bergstrom Intl, TX, US",2025-09-09 15:53:00,2025-09-09 11:53:00,"VFR",26.7,13.9,70,4,NA,NA,1018,"METAR KAUS 091553Z 07004KT 10SM CLR 27/14 A3006 RMK AO2 SLP170 T02670139",2025-09-09 16:06:03.781814,2025-09-09 12:06:03.781859
"KBOI","Boise Arpt, ID, US",2025-09-09 15:53:00,2025-09-09 11:53:00,"VFR",19.4,6.7,50,4,NA,NA,1012.6,"METAR KBOI 091553Z 05004KT 10SM CLR 19/07 A2990 RMK AO2 SLP101 T01940067",2025-09-09 16:06:03.788307,2025-09-09 12:06:03.788352
"KLBB","Lubbock Intl Arpt, TX, US",2025-09-09 15:53:00,2025-09-09 11:53:00,"VFR",24.4,17.8,180,8,NA,NA,1019,"METAR KLBB 091553Z 18008KT 10SM FEW100 24/18 A3009 RMK AO2 SLP139 T02440178",2025-09-09 16:06:03.79489,2025-09-09 12:06:03.794935
"KASE","Aspen/Pitkin Cnty, CO, US",2025-09-09 15:53:00,2025-09-09 11:53:00,"VFR",18.3,1.7,0,0,NA,NA,1025.5,"METAR KASE 091553Z 00000KT 10SM FEW110 18/02 A3028 RMK AO2 LTG DSNT S AND SW SLP143 T01830017",2025-09-09 16:06:03.801355,2025-09-09 12:06:03.801398
"KDFW","Dallas-Ft Worth Intl, TX, US",2025-09-09 15:53:00,2025-09-09 11:53:00,"VFR",24.4,12.2,170,8,NA,NA,1018.7,"METAR KDFW 091553Z 17008KT 10SM CLR 24/12 A3008 RMK AO2 SLP177 T02440122 $",2025-09-09 16:06:03.807724,2025-09-09 12:06:03.807769
"KHLN","Helena Rgnl, MT, US",2025-09-09 15:53:00,2025-09-09 11:53:00,"VFR",14.4,6.1,0,0,NA,NA,1016.7,"METAR KHLN 091553Z 00000KT 10SM CLR 14/06 A3002 RMK AO2 SLP159 T01440061",2025-09-09 16:06:03.814138,2025-09-09 12:06:03.814184
"KMSO","Missoula Intl, MT, US",2025-09-09 15:53:00,2025-09-09 11:53:00,"VFR",13.3,7.8,160,3,NA,NA,1015.7,"METAR KMSO 091553Z 16003KT 10SM CLR 13/08 A2999 RMK AO2 SLP146 T01330078",2025-09-09 16:06:03.820604,2025-09-09 12:06:03.820652
"KMFR","Medford/Rogue Valley Intl, OR, US",2025-09-09 15:53:00,2025-09-09 11:53:00,"MVFR",16.1,13.9,0,0,NA,NA,1014.3,"METAR KMFR 091553Z 00000KT 10SM FEW011 BKN023 BKN090 16/14 A2995 RMK AO2 SLP137 T01610139 $",2025-09-09 16:06:03.827006,2025-09-09 12:06:03.82705
"KGJT","Grand Junction Rgnl, CO, US",2025-09-09 15:53:00,2025-09-09 11:53:00,"VFR",23.9,3.9,120,11,NA,NA,1018.7,"METAR KGJT 091553Z 12011KT 10SM CLR 24/04 A3008 RMK AO2 SLP115 T02390039",2025-09-09 16:06:03.833408,2025-09-09 12:06:03.833452
"KHOU","Houston/Hobby Arpt, TX, US",2025-09-09 15:53:00,2025-09-09 11:53:00,"VFR",27.2,13.9,NA,5,NA,NA,1017,"METAR KHOU 091553Z VRB05KT 10SM CLR 27/14 A3003 RMK AO2 SLP173 T02720139",2025-09-09 16:06:03.842101,2025-09-09 12:06:03.842146
"KPDX","Portland Intl, OR, US",2025-09-09 15:53:00,2025-09-09 11:53:00,"VFR",18.3,12.8,350,4,NA,NA,1014,"METAR KPDX 091553Z 35004KT 10SM FEW025 SCT110 BKN250 18/13 A2994 RMK AO2 SLP137 T01830128",2025-09-09 16:06:03.84854,2025-09-09 12:06:03.848603
"KDAL","Dallas/Love Fld, TX, US",2025-09-09 15:53:00,2025-09-09 11:53:00,"VFR",23.9,12.2,150,9,NA,NA,1019,"METAR KDAL 091553Z 15009KT 120V190 10SM FEW180 24/12 A3009 RMK AO2 SLP183 T02390122",2025-09-09 16:06:03.854938,2025-09-09 12:06:03.854981
"KIAH","Houston/Bush Intl, TX, US",2025-09-09 15:53:00,2025-09-09 11:53:00,"VFR",26.7,13.3,60,5,NA,NA,1017.4,"METAR KIAH 091553Z 06005KT 10SM CLR 27/13 A3004 RMK AO2 SLP173 T02670133",2025-09-09 16:06:03.861277,2025-09-09 12:06:03.861321
"KOKC","Oklahoma City/Will Rogers Intl, OK, US",2025-09-09 15:52:00,2025-09-09 11:52:00,"VFR",23.9,12.2,190,11,NA,NA,1018.4,"METAR KOKC 091552Z 19011KT 10SM SCT095 SCT250 24/12 A3007 RMK AO2 SLP169 T02390122",2025-09-09 16:06:03.867647,2025-09-09 12:06:03.867691
"KHRL","Harlingen/Valley Intl, TX, US",2025-09-09 15:52:00,2025-09-09 11:52:00,"VFR",30,23.9,20,10,NA,NA,1014.6,"METAR KHRL 091552Z 02010KT 10SM FEW022 SCT070 OVC090 30/24 A2996 RMK AO2 SLP144 T03000239",2025-09-09 16:06:03.873988,2025-09-09 12:06:03.874033
"KABI","Abilene Rgnl, TX, US",2025-09-09 15:52:00,2025-09-09 11:52:00,"VFR",26.7,15,210,10,NA,NA,1018.7,"METAR KABI 091552Z 21010KT 10SM CLR 27/15 A3008 RMK AO2 SLP161 T02670150",2025-09-09 16:06:03.880426,2025-09-09 12:06:03.880469
"KELP","El Paso Intl, TX, US",2025-09-09 15:51:00,2025-09-09 11:51:00,"VFR",28.3,12.8,170,8,NA,NA,1019,"METAR KELP 091551Z 17008KT 10SM FEW110 FEW160 28/13 A3009 RMK AO2 SLP109 T02830128",2025-09-09 16:06:03.887316,2025-09-09 12:06:03.887362
"KACT","Waco Rgnl, TX, US",2025-09-09 15:51:00,2025-09-09 11:51:00,"VFR",25.6,15,110,4,NA,NA,1018.7,"METAR KACT 091551Z 11004KT 10SM CLR 26/15 A3008 RMK AO2 SLP181 T02560150",2025-09-09 16:06:03.896845,2025-09-09 12:06:03.896889
"KSAT","San Antonio Intl, TX, US",2025-09-09 15:51:00,2025-09-09 11:51:00,"VFR",26.7,15,100,4,NA,NA,1018,"METAR KSAT 091551Z 10004KT 10SM CLR 27/15 A3006 RMK AO2 SLP163 T02670150",2025-09-09 16:06:03.903477,2025-09-09 12:06:03.903523
"KSFO","San Francisco Intl, CA, US",2025-09-09 15:56:00,2025-09-09 11:56:00,"VFR",19.4,17.2,0,0,NA,NA,1014,"METAR KSFO 091556Z 00000KT 10SM FEW006 SCT017 BKN043 19/17 A2994 RMK AO2 SLP140 T01940172 $",2025-09-09 16:06:05.140372,2025-09-09 12:06:05.140418
"KRNO","Reno/Tahoe Intl, NV, US",2025-09-09 15:55:00,2025-09-09 11:55:00,"VFR",15.6,4.4,0,0,NA,NA,1017.4,"METAR KRNO 091555Z 00000KT 10SM FEW070 SCT130 BKN200 16/04 A3004 RMK AO2 SLP129 T01560044",2025-09-09 16:06:05.14696,2025-09-09 12:06:05.147003
"PHOG","Kahului Arpt, HI, US",2025-09-09 15:54:00,2025-09-09 11:54:00,"VFR",23.9,21.1,30,4,NA,NA,1015,"METAR PHOG 091554Z 03004KT 10SM FEW030 SCT045 24/21 A2997 RMK AO2 SLP153 T02390211",2025-09-09 16:06:05.153348,2025-09-09 12:06:05.153392
"PHNL","Honolulu Intl, HI, US",2025-09-09 15:53:00,2025-09-09 11:53:00,"VFR",25.6,22.2,340,3,NA,NA,1015.3,"METAR PHNL 091553Z 34003KT 10SM FEW020 FEW035 FEW080 26/22 A2998 RMK AO2 SLP150 T02560222",2025-09-09 16:06:05.159743,2025-09-09 12:06:05.159786
"KSTS","Santa Rosa/Schulz Arpt, CA, US",2025-09-09 15:53:00,2025-09-09 11:53:00,"IFR",17.8,17.2,130,4,NA,6,1014,"METAR KSTS 091553Z 13004KT 6SM BR BKN005 OVC013 18/17 A2994 RMK AO2 RAE42 SLP132 P0005 T01780172",2025-09-09 16:06:05.166123,2025-09-09 12:06:05.166169
"KONT","Ontario Intl, CA, US",2025-09-09 15:53:00,2025-09-09 11:53:00,"VFR",19.4,14.4,220,4,NA,NA,1015,"METAR KONT 091553Z 22004KT 10SM FEW010 19/14 A2997 RMK AO2 SLP134 T01940144 $",2025-09-09 16:06:05.174889,2025-09-09 12:06:05.174932
"KSAF","Santa Fe Cnty Muni, NM, US",2025-09-09 15:53:00,2025-09-09 11:53:00,"VFR",21.1,4.4,340,10,NA,NA,1024.1,"METAR KSAF 091553Z 34010KT 10SM FEW110 21/04 A3024 RMK AO2 LTG DSNT NE SLP151 T02110044",2025-09-09 16:06:05.181403,2025-09-09 12:06:05.181451
"KPSP","Palm Springs Intl, CA, US",2025-09-09 15:53:00,2025-09-09 11:53:00,"VFR",30,6.1,NA,3,NA,NA,1010.6,"METAR KPSP 091553Z VRB03KT 10SM CLR 30/06 A2984 RMK AO2 SLP098 T03000061",2025-09-09 16:06:05.187927,2025-09-09 12:06:05.187974
"KBUR","Burbank/Bob Hope Arpt, CA, US",2025-09-09 15:53:00,2025-09-09 11:53:00,"MVFR",18.9,15,200,4,NA,NA,1015,"METAR KBUR 091553Z 20004KT 10SM OVC014 19/15 A2997 RMK AO2 SLP139 T01890150",2025-09-09 16:06:05.194447,2025-09-09 12:06:05.194492
"KTUS","Tucson Intl Arpt, AZ, US",2025-09-09 15:53:00,2025-09-09 11:53:00,"VFR",30,16.7,0,0,NA,NA,1016,"METAR KTUS 091553Z 00000KT 10SM CLR 30/17 A3000 RMK AO2 SLP103 T03000167",2025-09-09 16:06:05.200957,2025-09-09 12:06:05.201001
"KSJC","San Jose Intl Arpt, CA, US",2025-09-09 15:53:00,2025-09-09 11:53:00,"VFR",20.6,13.9,180,3,NA,NA,1014.3,"METAR KSJC 091553Z 18003KT 10SM FEW010 SCT023 BKN042 21/14 A2995 RMK AO2 SLP143 TCU DSNT SE T02060139",2025-09-09 16:06:05.207313,2025-09-09 12:06:05.207356
"KLAX","Los Angeles Intl, CA, US",2025-09-09 15:53:00,2025-09-09 11:53:00,"MVFR",20.6,16.7,160,4,NA,5,1014.6,"METAR KLAX 091553Z 16004KT 5SM HZ FEW009 SCT016 OVC019 21/17 A2996 RMK AO2 SLP142 T02060167 $",2025-09-09 16:06:05.2136,2025-09-09 12:06:05.213646
"KOAK","Oakland Intl, CA, US",2025-09-09 15:53:00,2025-09-09 11:53:00,"VFR",18.9,17.2,190,7,NA,NA,1014.6,"METAR KOAK 091553Z 19007KT 10SM SCT019 BKN038 BKN050 BKN250 19/17 A2996 RMK AO2 RAE02 SLP144 P0000 T01890172",2025-09-09 16:06:05.219944,2025-09-09 12:06:05.219989
"KSBA","Santa Barbara Muni, CA, US",2025-09-09 15:53:00,2025-09-09 11:53:00,"VFR",20,17.2,130,9,NA,NA,1013.6,"METAR KSBA 091553Z 13009KT 10SM CLR 20/17 A2993 RMK AO2 SLP133 T02000172 $",2025-09-09 16:06:05.228142,2025-09-09 12:06:05.228186
"KSNA","Santa Ana/Wayne Arpt, CA, US",2025-09-09 15:53:00,2025-09-09 11:53:00,"MVFR",20.6,16.1,130,5,NA,NA,1014.3,"METAR KSNA 091553Z 13005KT 10SM BKN020 21/16 A2995 RMK AO2 SLP141 T02060161",2025-09-09 16:06:05.234612,2025-09-09 12:06:05.234659
"KLGB","Long Beach Arpt, CA, US",2025-09-09 15:53:00,2025-09-09 11:53:00,"MVFR",20.6,16.1,190,4,NA,NA,1014.3,"METAR KLGB 091553Z 19004KT 10SM OVC018 21/16 A2995 RMK AO2 SLP142 T02060161",2025-09-09 16:06:05.240993,2025-09-09 12:06:05.241037
"KABQ","Albuquerque Intl, NM, US",2025-09-09 15:52:00,2025-09-09 11:52:00,"VFR",23.3,6.7,220,4,NA,NA,1022.8,"METAR KABQ 091552Z 22004KT 10SM FEW060 SCT120 23/07 A3020 RMK AO2 SLP139 T02330067 $",2025-09-09 16:06:05.247627,2025-09-09 12:06:05.247673
"KSMO","Santa Monica Muni, CA, US",2025-09-09 15:51:00,2025-09-09 11:51:00,"MVFR",20.6,17.2,190,4,NA,NA,1014.6,"METAR KSMO 091551Z 19004KT 10SM OVC014 21/17 A2996 RMK AO2 SLP144 T02060172",2025-09-09 16:06:05.253947,2025-09-09 12:06:05.253991
"KSAN","San Diego Intl Arpt, CA, US",2025-09-09 15:51:00,2025-09-09 11:51:00,"MVFR",21.1,15.6,NA,3,NA,NA,1015.3,"METAR KSAN 091551Z VRB03KT 10SM BKN021 21/16 A2998 RMK AO2 SLP151 T02110156",2025-09-09 16:06:05.260379,2025-09-09 12:06:05.260423
"KPHX","Phoenix/Sky Harbor Intl, AZ, US",2025-09-09 15:51:00,2025-09-09 11:51:00,"VFR",33.9,15.6,110,4,NA,NA,1010.6,"METAR KPHX 091551Z 11004KT 10SM FEW100 34/16 A2984 RMK AO2 SLP083 T03390156",2025-09-09 16:06:05.266781,2025-09-09 12:06:05.266826
"CYQF","Red Deer Rgnl, AB, CA",2025-09-09 16:02:00,2025-09-09 12:02:00,"VFR",15,9,220,4,NA,6,1013.6,"SPECI CYQF 091602Z AUTO 22004KT 6SM HZ CLR 15/09 A2993 RMK SLP143 DENSITY ALT 3700FT",2025-09-09 16:11:11.027086,2025-09-09 12:11:11.027132
"CYOW","Ottawa/Cartier Intl, ON, CA",2025-09-09 16:00:00,2025-09-09 12:00:00,"VFR",18,9,270,3,NA,15,1027.9,"METAR CYOW 091600Z 27003KT 180V330 15SM FEW250 18/09 A3035 RMK CI1 CI TR SLP282",2025-09-09 16:11:11.037299,2025-09-09 12:11:11.037342
"CYQB","Quebec/Lesage Intl, QC, CA",2025-09-09 16:00:00,2025-09-09 12:00:00,"VFR",17,6,NA,2,NA,30,1028.9,"METAR CYQB 091600Z VRB02KT 30SM FEW050 FEW100 FEW250 17/06 A3038 RMK SC1AC1CI1 SC TR AC TR SLP292",2025-09-09 16:11:11.043802,2025-09-09 12:11:11.043848
"CYQG","Windsor Intl, ON, CA",2025-09-09 16:00:00,2025-09-09 12:00:00,"VFR",22,7,210,11,NA,9,1024.5,"METAR CYQG 091600Z AUTO 21011KT 9SM CLR 22/07 A3025 RMK SLP246 DENSITY ALT 1300FT",2025-09-09 16:11:11.050178,2025-09-09 12:11:11.05022
"CYQM","Moncton Intl, NB, CA",2025-09-09 16:00:00,2025-09-09 12:00:00,"VFR",20,5,250,7,NA,15,1028.5,"METAR CYQM 091600Z 25007KT 220V290 15SM FEW056 FEW240 20/05 A3037 RMK CU1CI1 CU TR SLP288",2025-09-09 16:11:11.056495,2025-09-09 12:11:11.056538
"CYUL","Montreal/Trudeau Intl, QC, CA",2025-09-09 16:00:00,2025-09-09 12:00:00,"VFR",18,10,240,5,NA,30,1028.2,"METAR CYUL 091600Z 24005KT 180V310 30SM FEW028 FEW250 18/10 A3036 RMK CF1CI2 CF TR SLP284",2025-09-09 16:11:11.062949,2025-09-09 12:11:11.062993
"CYVR","Vancouver Intl, BC, CA",2025-09-09 16:00:00,2025-09-09 12:00:00,"VFR",18,17,320,3,NA,15,1014.3,"METAR CYVR 091600Z 32003KT 280V360 15SM FEW010 FEW015 BKN048 18/17 A2995 RMK SC1SC1SC7 SC TR SC TR SLP145 DENSITY ALT 400FT",2025-09-09 16:11:11.069376,2025-09-09 12:11:11.069417
"CYWG","Winnipeg Intl Arpt, MB, CA",2025-09-09 16:00:00,2025-09-09 12:00:00,"VFR",21,15,NA,3,NA,15,1015,"METAR CYWG 091600Z VRB03KT 15SM SKC 21/15 A2997 RMK SLP154 DENSITY ALT 1600FT",2025-09-09 16:11:11.07576,2025-09-09 12:11:11.075804
"CYYZ","Toronto/Pearson Intl, ON, CA",2025-09-09 16:00:00,2025-09-09 12:00:00,"VFR",19,11,170,5,NA,15,1025.8,"METAR CYYZ 091600Z 17005KT 15SM FEW030 FEW250 19/11 A3029 RMK CU1CI1 CU TR SLP260 DENSITY ALT 800FT",2025-09-09 16:11:11.082212,2025-09-09 12:11:11.082253
"CYZV","Sept-Îles Arpt, QC, CA",2025-09-09 16:00:00,2025-09-09 12:00:00,"VFR",13,6,160,8,NA,30,1027.9,"METAR CYZV 091600Z 16008KT 30SM FEW050 FEW120 FEW180 BKN260 13/06 A3035 RMK CU1AC1AC1CI4 AC TR SLP280",2025-09-09 16:11:11.090676,2025-09-09 12:11:11.090718
"CYAT","Attawapisket Arpt, ON, CA",2025-09-09 16:00:00,2025-09-09 12:00:00,"VFR",12,11,230,5,NA,9,1011.6,"METAR CYAT 091600Z AUTO 23005KT 190V260 9SM FEW006 BKN050 OVC086 12/11 A2987 RMK SLP117",2025-09-09 16:11:11.097349,2025-09-09 12:11:11.097393
"CYER","Ft Severn Arpt, ON, CA",2025-09-09 16:00:00,2025-09-09 12:00:00,"MVFR",9,6,40,7,NA,9,1015.7,"METAR CYER 091600Z AUTO 04007KT 360V060 9SM BKN015 OVC024 09/06 A2999 RMK SLP159",2025-09-09 16:11:11.103729,2025-09-09 12:11:11.103772
"CYQA","Muskoka Arpt, ON, CA",2025-09-09 16:00:00,2025-09-09 12:00:00,"VFR",19,7,160,11,NA,9,1025.8,"METAR CYQA 091600Z AUTO 16011KT 150V210 9SM CLR 19/07 A3029 RMK SLP265 DENSITY ALT 1200FT",2025-09-09 16:11:11.11013,2025-09-09 12:11:11.110172
"CYVO","Val D'Or Arpt, QC, CA",2025-09-09 16:00:00,2025-09-09 12:00:00,"VFR",14,7,180,9,15,15,1023.1,"METAR CYVO 091600Z 18009G15KT 15SM BKN070 OVC100 14/07 A3021 RMK AC5AC3 SLP243",2025-09-09 16:11:11.11654,2025-09-09 12:11:11.116584
"CYQR","Regina Intl Arpt, SK, CA",2025-09-09 16:00:00,2025-09-09 12:00:00,"VFR",22,9,20,3,NA,15,1016,"METAR CYQR 091600Z 02003KT 300V050 15SM SKC 22/09 A3000 RMK SLP163 DENSITY ALT 3100FT",2025-09-09 16:11:11.12293,2025-09-09 12:11:11.122976
"CYYG","Charlottetown Arpt, PE, CA",2025-09-09 16:00:00,2025-09-09 12:00:00,"VFR",19,8,170,10,16,15,1028.5,"METAR CYYG 091600Z 17010G16KT 120V200 15SM BKN057 BKN250 19/08 A3037 RMK SC5CI1 SLP287",2025-09-09 16:11:11.129255,2025-09-09 12:11:11.129298
"CYRJ","Roberval Arpt, QC, CA",2025-09-09 16:00:00,2025-09-09 12:00:00,"VFR",17,6,220,10,16,40,1026.2,"METAR CYRJ 091600Z 22010G16KT 40SM FEW060 BKN120 BKN240 17/06 A3030 RMK SC2AC4CI1 CI TR SLP269",2025-09-09 16:11:11.135623,2025-09-09 12:11:11.135666
"CYVV","Wiarton Arpt, ON, CA",2025-09-09 16:00:00,2025-09-09 12:00:00,"VFR",18,11,230,9,NA,15,1025.1,"METAR CYVV 091600Z 23009KT 180V250 15SM FEW030 OVC250 18/11 A3027 RMK CF1CI8 CF TR SLP256",2025-09-09 16:11:11.141947,2025-09-09 12:11:11.141996
"CYXE","Saskatoon/Diefenbaker Intl, SK, CA",2025-09-09 16:00:00,2025-09-09 12:00:00,"VFR",18,12,80,5,NA,12,1015.3,"METAR CYXE 091600Z 08005KT 12SM FEW028 FEW300 18/12 A2998 RMK CU1CI1 CU TR CI TR FU SLP161 DENSITY ALT 2400FT",2025-09-09 16:11:11.150064,2025-09-09 12:11:11.150108
"CYXS","Prince George Arpt, BC, CA",2025-09-09 16:00:00,2025-09-09 12:00:00,"MVFR",12,11,190,3,NA,5,1014,"METAR CYXS 091600Z AUTO 19003KT 5SM BR CLR 12/11 A2994 RMK SLP150",2025-09-09 16:11:11.156483,2025-09-09 12:11:11.156527
"CYEG","Edmonton Intl Arpt, AB, CA",2025-09-09 16:00:00,2025-09-09 12:00:00,"VFR",17,11,180,6,NA,8,1011.9,"METAR CYEG 091600Z 18006KT 8SM SKC 17/11 A2988 RMK FU SLP124 DENSITY ALT 3200FT",2025-09-09 16:11:11.1628,2025-09-09 12:11:11.162843
"CYHZ","Halifax/Stanfield Intl, NS, CA",2025-09-09 16:00:00,2025-09-09 12:00:00,"VFR",19,8,310,4,NA,15,1028.9,"METAR CYHZ 091600Z 31004KT 280V010 15SM FEW045 BKN250 19/08 A3038 RMK CU2CS5 CI ASOCTD SLP292",2025-09-09 16:11:11.169177,2025-09-09 12:11:11.169221
"CYPL","Pickle Lake Arpt, ON, CA",2025-09-09 16:00:00,2025-09-09 12:00:00,"VFR",17,11,360,3,NA,9,1015,"METAR CYPL 091600Z AUTO 36003KT 310V060 9SM CLR 17/11 A2997 RMK SLP158 DENSITY ALT 1800FT",2025-09-09 16:11:11.175498,2025-09-09 12:11:11.175539
"CYQQ","Comox(MIL), BC, CA",2025-09-09 16:00:00,2025-09-09 12:00:00,"MVFR",17,13,310,7,NA,20,1015.3,"METAR CYQQ 091600Z 31007KT 20SM BKN019 17/13 A2998 RMK SC5 DENSITY ALT 404FT SLP152",2025-09-09 16:11:11.181766,2025-09-09 12:11:11.181807
"CYUY","Rouyn/Noranda Arpt, QC, CA",2025-09-09 16:00:00,2025-09-09 12:00:00,"VFR",12,9,190,9,NA,15,1021.8,"METAR CYUY 091600Z 19009KT 15SM -RA OVC051 12/09 A3017 RMK SC8 SLP225",2025-09-09 16:11:11.188025,2025-09-09 12:11:11.188068
"CYYC","Calgary Intl, AB, CA",2025-09-09 16:00:00,2025-09-09 12:00:00,"VFR",17,9,NA,2,NA,15,1014.6,"METAR CYYC 091600Z VRB02KT 15SM SKC 17/09 A2996 RMK SLP144 DENSITY ALT 4600FT",2025-09-09 16:11:11.19448,2025-09-09 12:11:11.194524
"CYYJ","Victoria Intl, BC, CA",2025-09-09 16:00:00,2025-09-09 12:00:00,"VFR",17,14,NA,2,NA,30,1014.6,"METAR CYYJ 091600Z VRB02KT 30SM FEW020 BKN044 BKN065 17/14 A2996 RMK SC1SC7SC1 SC TR SC TR SLP146 DENSITY ALT 300FT",2025-09-09 16:11:11.202476,2025-09-09 12:11:11.20252
"CYXT","Terrace Arpt, BC, CA",2025-09-09 16:00:00,2025-09-09 12:00:00,"VFR",14,11,290,4,NA,20,1016.7,"METAR CYXT 091600Z 29004KT 20SM FEW017 FEW024 BKN045 BKN210 14/11 A3002 RMK CF1CF1SC7CI1 CF TR CF TR CI TR SLP172",2025-09-09 16:11:11.208827,2025-09-09 12:11:11.208868
"CYYB","North Bay/Garland Arpt, ON, CA",2025-09-09 16:00:00,2025-09-09 12:00:00,"VFR",17,10,200,12,18,30,1024.8,"METAR CYYB 091600Z 20012G18KT 30SM FEW030 FEW120 BKN280 17/10 A3026 RMK CU1AC1CI4 SLP255",2025-09-09 16:11:11.215147,2025-09-09 12:11:11.215191
"CYQT","Thunder Bay Intl, ON, CA",2025-09-09 16:00:00,2025-09-09 12:00:00,"IFR",16,15,30,4,NA,NA,1014.3,"METAR CYQT 091600Z 03004KT 300V040 10SM BKN008 OVC023 16/15 A2995 RMK SC6SC2 SLP148 DENSITY ALT 1000FT",2025-09-09 16:11:11.221426,2025-09-09 12:11:11.221469
"CYSB","Sudbury Arpt, ON, CA",2025-09-09 16:00:00,2025-09-09 12:00:00,"VFR",18,10,220,14,22,20,1023.1,"METAR CYSB 091600Z 22014G22KT 20SM FEW022 BKN050 BKN190 18/10 A3021 RMK CF1CU4CI1 SLP237 DENSITY ALT 1500FT",2025-09-09 16:11:11.227643,2025-09-09 12:11:11.227688
"CYTS","Timmins/Power Arpt, ON, CA",2025-09-09 16:00:00,2025-09-09 12:00:00,"MVFR",12,12,200,11,NA,3,1018,"METAR CYTS 091600Z 20011KT 3SM -RA BR SCT010 OVC015 12/12 A3006 RMK SC4SC4 SLP190",2025-09-09 16:11:11.233824,2025-09-09 12:11:11.233866
"CYGK","Kingston Arpt, ON, CA",2025-09-09 16:00:00,2025-09-09 12:00:00,"VFR",18,12,170,10,NA,15,1028.2,"METAR CYGK 091600Z 17010KT 15SM FEW024 OVC240 18/12 A3036 RMK CU2CS6 SLP284",2025-09-09 16:11:11.240049,2025-09-09 12:11:11.240093
"CYHU","Montreal/St Hubert, QC, CA",2025-09-09 16:00:00,2025-09-09 12:00:00,"VFR",19,11,NA,4,NA,9,1028.2,"METAR CYHU 091600Z AUTO VRB04KT 9SM CLR 19/11 A3036 RMK SLP283",2025-09-09 16:11:11.246342,2025-09-09 12:11:11.246385
"CYMM","Fort McMurray Arpt, AB, CA",2025-09-09 16:00:00,2025-09-09 12:00:00,"MVFR",15,10,90,6,NA,5,1010.9,"METAR CYMM 091600Z AUTO 09006KT 5SM HZ CLR 15/10 A2985 RMK SLP121 DENSITY ALT 1600FT",2025-09-09 16:11:11.252602,2025-09-09 12:11:11.252645
"CYMO","Moosonee Arpt, ON, CA",2025-09-09 16:00:00,2025-09-09 12:00:00,"IFR",13,12,190,9,NA,9,1014.3,"METAR CYMO 091600Z AUTO 19009KT 9SM OVC009 13/12 A2995 RMK SLP145",2025-09-09 16:11:11.260448,2025-09-09 12:11:11.260489
"CYAM","Sault Ste Marie Arpt, ON, CA",2025-09-09 16:00:00,2025-09-09 12:00:00,"VFR",18,12,190,11,17,20,1019,"METAR CYAM 091600Z 19011G17KT 20SM FEW018 SCT082 BKN099 BKN150 OVC250 18/12 A3009 RMK CU1AC2AC2AS2CI1 SLP193 DENSITY ALT 1000FT",2025-09-09 16:11:11.266757,2025-09-09 12:11:11.266798
"CYBC","Baie Comeau Arpt, QC, CA",2025-09-09 16:00:00,2025-09-09 12:00:00,"VFR",13,7,210,10,NA,9,1028.2,"METAR CYBC 091600Z AUTO 21010KT 9SM FEW150 13/07 A3036 RMK SLP282",2025-09-09 16:11:11.273059,2025-09-09 12:11:11.273101
"CYBR","Brandon Arpt, MB, CA",2025-09-09 16:00:00,2025-09-09 12:00:00,"VFR",19,13,70,8,NA,15,1015.7,"METAR CYBR 091600Z 07008KT 15SM FEW250 19/13 A2999 RMK CI2 SLP162 DENSITY ALT 2100FT",2025-09-09 16:11:11.279204,2025-09-09 12:11:11.279245
"CYLW","Kelowna Arpt, BC, CA",2025-09-09 16:00:00,2025-09-09 12:00:00,"VFR",18,12,0,0,NA,9,1013.3,"METAR CYLW 091600Z AUTO 00000KT 9SM CLR 18/12 A2992 RMK SLP132 DENSITY ALT 2100FT",2025-09-09 16:11:11.285451,2025-09-09 12:11:11.285492
"CYCO","Coppermine/Kugluktuk Arpt, NU, CA",2025-09-09 16:07:00,2025-09-09 12:07:00,"VFR",9,7,320,3,NA,6,1008.2,"SPECI CYCO 091607Z 32003KT 200V350 6SM FU BKN210 09/07 A2977 RMK CS7 SLP084",2025-09-09 16:11:12.575112,2025-09-09 12:11:12.575156
"CYFB","Iqaluit Arpt, NU, CA",2025-09-09 16:00:00,2025-09-09 12:00:00,"MVFR",7,4,320,11,18,30,1009.9,"METAR CYFB 091600Z 32011G18KT 30SM BKN018 07/04 A2982 RMK SC7 SLP102",2025-09-09 16:11:12.583673,2025-09-09 12:11:12.583715
"CYFC","Fredericton Intl, NB, CA",2025-09-09 16:00:00,2025-09-09 12:00:00,"VFR",19,8,NA,5,NA,9,1028.9,"METAR CYFC 091600Z AUTO VRB05KT 9SM CLR 19/08 A3038 RMK SLP290",2025-09-09 16:11:12.590282,2025-09-09 12:11:12.590327
"CYTR","Trenton(MIL), ON, CA",2025-09-09 16:00:00,2025-09-09 12:00:00,"VFR",20,10,170,6,NA,15,1027.2,"METAR CYTR 091600Z 17006KT 120V230 15SM FEW036 20/10 A3033 RMK CU1 DENSITY ALT 660FT CONTRAILS SLP271",2025-09-09 16:11:12.596729,2025-09-09 12:11:12.596771
"CYXX","Abbotsford Intl, BC, CA",2025-09-09 16:00:00,2025-09-09 12:00:00,"LIFR",16,16,0,0,NA,2.5,1014.3,"METAR CYXX 091600Z 00000KT 2 1/2SM BR OVC004 16/16 A2995 RMK ST8 VIS SW 1 SLP145 DENSITY ALT 400FT",2025-09-09 16:11:12.603098,2025-09-09 12:11:12.603141
"CYYT","St Johns Intl, NL, CA",2025-09-09 16:00:00,2025-09-09 12:00:00,"VFR",17,9,280,11,NA,15,1025.5,"METAR CYYT 091600Z 28011KT 15SM FEW032 BKN120 BKN160 OVC220 17/09 A3028 RMK CU1AC5AC1CI1 SLP258",2025-09-09 16:11:12.609502,2025-09-09 12:11:12.609546
"CYZF","Yellowknife Arpt, NT, CA",2025-09-09 16:00:00,2025-09-09 12:00:00,"VFR",12,9,130,12,NA,15,1006.5,"METAR CYZF 091600Z 13012KT 15SM FEW020 BKN140 12/09 A2972 RMK SC1AC5 SC TR SLP074",2025-09-09 16:11:12.615959,2025-09-09 12:11:12.616007
"CYRT","Rankin Inlet Arpt, NU, CA",2025-09-09 16:00:00,2025-09-09 12:00:00,"MVFR",7,2,40,10,NA,15,1015.3,"METAR CYRT 091600Z 04010KT 15SM FEW013 BKN024 BKN040 07/02 A2998 RMK SC2CU4SC1 SH DST SE-W SLP155",2025-09-09 16:11:12.622321,2025-09-09 12:11:12.622368
"CYRB","Resolute Bay Arpt, NU, CA",2025-09-09 16:00:00,2025-09-09 12:00:00,"LIFR",-2,-2,300,4,NA,0.5,1012.3,"METAR CYRB 091600Z 30004KT 1/2SM R35/2200V2600FT/N FZFG OVC002 M02/M02 A2989 RMK FG6ST2 SLP131",2025-09-09 16:11:12.62875,2025-09-09 12:11:12.628793
"CYBK","Baker Lake Arpt, NU, CA",2025-09-09 16:00:00,2025-09-09 12:00:00,"MVFR",6,1,230,3,NA,20,1016.7,"METAR CYBK 091600Z 23003KT 200V320 20SM BKN019 06/01 A3002 RMK SC6 SLP169",2025-09-09 16:11:12.636954,2025-09-09 12:11:12.636998
"CYHD","Dryden Rgnl, ON, CA",2025-09-09 16:00:00,2025-09-09 12:00:00,"VFR",17,11,50,5,NA,9,1015.7,"METAR CYHD 091600Z AUTO 05005KT 020V140 9SM CLR 17/11 A2999 RMK SLP164 DENSITY ALT 1800FT",2025-09-09 16:11:12.643347,2025-09-09 12:11:12.643389
"CYAZ","Tofino Arpt, BC, CA",2025-09-09 16:00:00,2025-09-09 12:00:00,"LIFR",14,14,NA,2,NA,0.25,1015,"METAR CYAZ 091600Z VRB02KT 1/4SM FG VV002 14/14 A2997 RMK FG8 SLP150",2025-09-09 16:11:12.649838,2025-09-09 12:11:12.649882
"CYPR","Prince Rupert Arpt, BC, CA",2025-09-09 16:00:00,2025-09-09 12:00:00,NA,13,12,360,3,NA,NA,1017.7,"METAR CYPR 091600Z AUTO 36003KT 310V020 OVC002 13/12 A3005 RMK WX MISG VIS MISG SLP178",2025-09-09 16:11:12.656214,2025-09-09 12:11:12.656256
"CYXS","Prince George Arpt, BC, CA",2025-09-09 16:00:00,2025-09-09 12:00:00,"MVFR",12,11,190,3,NA,5,1014,"METAR CYXS 091600Z AUTO 19003KT 5SM BR CLR 12/11 A2994 RMK SLP150",2025-09-09 16:11:12.662538,2025-09-09 12:11:12.66258
"CYQH","Watson Lake Arpt, YT, CA",2025-09-09 16:00:00,2025-09-09 12:00:00,"VFR",10,5,0,0,NA,30,1011.9,"METAR CYQH 091600Z 00000KT 30SM BKN060 BKN110 10/05 A2988 RMK CU5AC1 SLP134",2025-09-09 16:11:12.668885,2025-09-09 12:11:12.668949
"CYQU","Grande Prairie Arpt, AB, CA",2025-09-09 16:00:00,2025-09-09 12:00:00,"MVFR",16,9,240,5,NA,4,1010.6,"METAR CYQU 091600Z 24005KT 4SM FU FEW150 16/09 A2984 RMK AC1 SLP109 DENSITY ALT 3000FT",2025-09-09 16:11:12.675228,2025-09-09 12:11:12.675271
"CYWL","Williams Lake Rgnl, BC, CA",2025-09-09 16:00:00,2025-09-09 12:00:00,"IFR",13,12,110,5,NA,2.5,1015.3,"METAR CYWL 091600Z 11005KT 2 1/2SM FU SCT059 BKN100 13/12 A2998 RMK FU3SC1AC1 VIS 3/4 E-S SLP156 DENSITY ALT 3500FT",2025-09-09 16:11:12.681595,2025-09-09 12:11:12.681637
"CYMH","Mary's Harbor Arpt, NL, CA",2025-09-09 16:00:00,2025-09-09 12:00:00,"VFR",13,5,300,8,16,9,1020.7,"METAR CYMH 091600Z AUTO 30008G16KT 280V360 9SM SCT044 13/05 A3014 RMK SLP209",2025-09-09 16:11:12.687876,2025-09-09 12:11:12.687938
"CYQQ","Comox(MIL), BC, CA",2025-09-09 16:00:00,2025-09-09 12:00:00,"MVFR",17,13,310,7,NA,20,1015.3,"METAR CYQQ 091600Z 31007KT 20SM BKN019 17/13 A2998 RMK SC5 DENSITY ALT 404FT SLP152",2025-09-09 16:11:12.703382,2025-09-09 12:11:12.703425
"CYQX","Gander Intl Arpt, NL, CA",2025-09-09 16:00:00,2025-09-09 12:00:00,"VFR",18,6,270,14,19,20,1024.5,"METAR CYQX 091600Z 27014G19KT 20SM FEW051 BKN230 18/06 A3025 RMK CU1CC6 SLP247",2025-09-09 16:11:12.709758,2025-09-09 12:11:12.7098
"CYQY","Sydney Arpt, NS, CA",2025-09-09 16:00:00,2025-09-09 12:00:00,"VFR",20,7,340,6,NA,15,1028.2,"METAR CYQY 091600Z 34006KT 190V360 15SM SCT051 BKN240 20/07 A3036 RMK CU3CI2 SLP283",2025-09-09 16:11:12.716089,2025-09-09 12:11:12.716132
"CYUY","Rouyn/Noranda Arpt, QC, CA",2025-09-09 16:00:00,2025-09-09 12:00:00,"VFR",12,9,190,9,NA,15,1021.8,"METAR CYUY 091600Z 19009KT 15SM -RA OVC051 12/09 A3017 RMK SC8 SLP225",2025-09-09 16:11:12.722391,2025-09-09 12:11:12.722434
"CYXU","London Intl, ON, CA",2025-09-09 16:00:00,2025-09-09 12:00:00,"VFR",21,11,180,6,NA,15,1025.5,"METAR CYXU 091600Z 18006KT 140V220 15SM FEW050 FEW210 21/11 A3028 RMK SC1CI1 SC TR SLP257 DENSITY ALT 1400FT",2025-09-09 16:11:12.728714,2025-09-09 12:11:12.728757
"CYXY","Whitehorse Arpt, YT, CA",2025-09-09 16:00:00,2025-09-09 12:00:00,"VFR",7,5,NA,2,NA,40,1012.3,"METAR CYXY 091600Z VRB02KT 40SM FEW060 FEW140 07/05 A2989 RMK SC1AC1 SLP147",2025-09-09 16:11:12.735114,2025-09-09 12:11:12.735158
"CYZP","Sandspit Arpt, BC, CA",2025-09-09 16:00:00,2025-09-09 12:00:00,"MVFR",15,10,300,7,NA,9,1018.7,"METAR CYZP 091600Z AUTO 30007KT 9SM OVC026 15/10 A3008 RMK SLP188",2025-09-09 16:11:12.741441,2025-09-09 12:11:12.741485
"CYOD","Cold Lake (Mil), AB, CA",2025-09-09 16:00:00,2025-09-09 12:00:00,"VFR",17,11,120,6,NA,8,1013.6,"METAR CYOD 091600Z 12006KT 8SM FEW250 17/11 A2993 RMK CI1 DENSITY ALT 2593FT FU SLP144",2025-09-09 16:11:12.747797,2025-09-09 12:11:12.747839
"CYQK","Kenora Arpt, ON, CA",2025-09-09 16:00:00,2025-09-09 12:00:00,"VFR",19,9,NA,2,NA,20,1015.7,"METAR CYQK 091600Z VRB02KT 20SM FEW250 19/09 A2999 RMK CI1 CI TR SLP162 DENSITY ALT 2100FT",2025-09-09 16:11:12.756058,2025-09-09 12:11:12.7561
"CYQT","Thunder Bay Intl, ON, CA",2025-09-09 16:00:00,2025-09-09 12:00:00,"IFR",16,15,30,4,NA,NA,1014.3,"METAR CYQT 091600Z 03004KT 300V040 10SM BKN008 OVC023 16/15 A2995 RMK SC6SC2 SLP148 DENSITY ALT 1000FT",2025-09-09 16:11:12.762377,2025-09-09 12:11:12.76242
"CYAM","Sault Ste Marie Arpt, ON, CA",2025-09-09 16:00:00,2025-09-09 12:00:00,"VFR",18,12,190,11,17,20,1019,"METAR CYAM 091600Z 19011G17KT 20SM FEW018 SCT082 BKN099 BKN150 OVC250 18/12 A3009 RMK CU1AC2AC2AS2CI1 SLP193 DENSITY ALT 1000FT",2025-09-09 16:11:12.768721,2025-09-09 12:11:12.768762
"CYBL","Campbell River Arpt, BC, CA",2025-09-09 16:00:00,2025-09-09 12:00:00,"MVFR",15,14,310,7,NA,20,1015.3,"METAR CYBL 091600Z 31007KT 20SM FEW007 BKN017 15/14 A2998 RMK SF1SC7 SF TR VIS LWR S-SW DUE LO CLD SLP156",2025-09-09 16:11:12.775011,2025-09-09 12:11:12.775054
"CYCD","Nanaimo Arpt, BC, CA",2025-09-09 16:00:00,2025-09-09 12:00:00,"VFR",17,14,20,6,NA,20,1015,"METAR CYCD 091600Z 02006KT 20SM FEW006 BKN046 17/14 A2997 RMK SF1SC7 SF TR SLP150 DENSITY ALT 300FT",2025-09-09 16:11:12.781308,2025-09-09 12:11:12.78135
"CYDF","Deer Lake Arpt, NL, CA",2025-09-09 16:00:00,2025-09-09 12:00:00,"VFR",18,5,240,15,22,15,1025.1,"METAR CYDF 091600Z 24015G22KT 220V290 15SM SCT056 SCT250 18/05 A3027 RMK CU3CI1 SLP254",2025-09-09 16:11:12.787609,2025-09-09 12:11:12.787652
"CYDP","Nain Arpt, NL, CA",2025-09-09 16:00:00,2025-09-09 12:00:00,"VFR",12,2,300,17,25,15,1016.7,"METAR CYDP 091600Z 30017G25KT 15SM BKN051 12/02 A3002 RMK SC5 SLP167",2025-09-09 16:11:12.793888,2025-09-09 12:11:12.793953
"CYHM","Hamilton/Munro Intl, ON, CA",2025-09-09 16:00:00,2025-09-09 12:00:00,"VFR",21,10,140,10,NA,15,1025.8,"METAR CYHM 091600Z 14010KT 130V200 15SM FEW050 21/10 A3029 RMK CU1 SLP262 DENSITY ALT 1300FT",2025-09-09 16:11:12.800209,2025-09-09 12:11:12.800251
"CYKF","Waterloo Intl, ON, CA",2025-09-09 16:00:00,2025-09-09 12:00:00,"VFR",20,8,180,7,NA,9,1025.8,"METAR CYKF 091600Z AUTO 18007KT 150V220 9SM CLR 20/08 A3029 RMK SLP260 DENSITY ALT 1600FT",2025-09-09 16:11:12.806519,2025-09-09 12:11:12.806561
"CYBG","Bagotville(MIL), QC, CA",2025-09-09 16:00:00,2025-09-09 12:00:00,"VFR",15,9,90,6,NA,25,1027.5,"METAR CYBG 091600Z 09006KT 25SM FEW025 BKN180 15/09 A3034 RMK CU2AC5 DENSITY ALT 348FT SLP280",2025-09-09 16:11:12.81451,2025-09-09 12:11:12.814568
"CYTZ","Toronto/Bishop Arpt, ON, CA",2025-09-09 16:00:00,2025-09-09 12:00:00,"VFR",17,13,70,6,NA,9,1026.2,"METAR CYTZ 091600Z AUTO 07006KT 9SM CLR 17/13 A3030 RMK SLP263",2025-09-09 16:11:12.820825,2025-09-09 12:11:12.82087
"CYCO","Coppermine/Kugluktuk Arpt, NU, CA",2025-09-09 16:07:00,2025-09-09 12:07:00,"VFR",9,7,320,3,NA,6,1008.2,"SPECI CYCO 091607Z 32003KT 200V350 6SM FU BKN210 09/07 A2977 RMK CS7 SLP084",2025-09-09 16:11:14.583694,2025-09-09 12:11:14.583737
"CYHA","Quaqtaq Arpt, QC, CA",2025-09-09 16:00:00,2025-09-09 12:00:00,"VFR",8,3,300,6,NA,15,1013.3,"METAR CYHA 091600Z 30006KT 15SM FEW035 FEW070 08/03 A2992 RMK SC1AC1 AC TR SLP135",2025-09-09 16:11:14.590178,2025-09-09 12:11:14.590221
"CYKJ","Key Lake Arpt, SK, CA",2025-09-09 16:00:00,2025-09-09 12:00:00,"VFR",13,8,170,7,NA,9,1015.7,"METAR CYKJ 091600Z AUTO 17007KT 9SM CLR 13/08 A2999 RMK SLP175",2025-09-09 16:11:14.596518,2025-09-09 12:11:14.596562
"CYMT","Chibougamau Arpt, QC, CA",2025-09-09 16:00:00,2025-09-09 12:00:00,"VFR",13,9,200,11,19,9,1023.5,"METAR CYMT 091600Z AUTO 20011G19KT 9SM BKN045 BKN071 OVC083 13/09 A3022 RMK SLP246",2025-09-09 16:11:14.602927,2025-09-09 12:11:14.60298
"CYBC","Baie Comeau Arpt, QC, CA",2025-09-09 16:00:00,2025-09-09 12:00:00,"VFR",13,7,210,10,NA,9,1028.2,"METAR CYBC 091600Z AUTO 21010KT 9SM FEW150 13/07 A3036 RMK SLP282",2025-09-09 16:11:14.611553,2025-09-09 12:11:14.611602
"CYPC","Paulatuk Arpt, NT, CA",2025-09-09 16:00:00,2025-09-09 12:00:00,"VFR",6,6,60,2,NA,15,1005.8,"METAR CYPC 091600Z 06002KT 15SM SCT190 BKN250 06/06 A2970 RMK AC4CS2 SLP058",2025-09-09 16:11:14.617964,2025-09-09 12:11:14.618007
"CYVC","La Ronge Arpt, SK, CA",2025-09-09 16:00:00,2025-09-09 12:00:00,"VFR",15,11,100,5,NA,15,1017,"METAR CYVC 091600Z 10005KT 15SM FEW200 15/11 A3003 RMK CI2 SLP180",2025-09-09 16:11:14.624444,2025-09-09 12:11:14.624487
"CYQB","Quebec/Lesage Intl, QC, CA",2025-09-09 16:00:00,2025-09-09 12:00:00,"VFR",17,6,NA,2,NA,30,1028.9,"METAR CYQB 091600Z VRB02KT 30SM FEW050 FEW100 FEW250 17/06 A3038 RMK SC1AC1CI1 SC TR AC TR SLP292",2025-09-09 16:11:14.630845,2025-09-09 12:11:14.630888
"CYGV","Havre St Pierre Arpt, QC, CA",2025-09-09 16:00:00,2025-09-09 12:00:00,"VFR",14,4,250,13,21,9,1026.8,"METAR CYGV 091600Z AUTO 25013G21KT 9SM SCT160 14/04 A3032 RMK SLP271",2025-09-09 16:11:14.637215,2025-09-09 12:11:14.637259
"CYLK","Lutselke Arpt, NT, CA",2025-09-09 16:00:00,2025-09-09 12:00:00,"VFR",14,8,90,4,NA,25,1009.9,"METAR CYLK 091600Z 09004KT 060V150 25SM FEW065 SCT120 BKN210 14/08 A2982 RMK SC2AC1CI3 FU SLP106",2025-09-09 16:11:14.643579,2025-09-09 12:11:14.643622
"CYXP","Pangnirtung Arpt, NU, CA",2025-09-09 16:00:00,2025-09-09 12:00:00,"VFR",7,1,240,16,NA,15,1003.8,"METAR CYXP 091600Z 24016KT 15SM FEW032 07/01 A2964 RMK CF1 SLP040",2025-09-09 16:11:14.649941,2025-09-09 12:11:14.649985
"CYCK","Chatham/Kent Arpt, ON, CA",2025-09-09 16:00:00,2025-09-09 12:00:00,"VFR",21,9,220,8,NA,9,1024.8,"METAR CYCK 091600Z AUTO 22008KT 180V240 9SM CLR 21/09 A3026 RMK SLP249 DENSITY ALT 1200FT",2025-09-09 16:11:14.656301,2025-09-09 12:11:14.656343
"CYVO","Val D'Or Arpt, QC, CA",2025-09-09 16:00:00,2025-09-09 12:00:00,"VFR",14,7,180,9,15,15,1023.1,"METAR CYVO 091600Z 18009G15KT 15SM BKN070 OVC100 14/07 A3021 RMK AC5AC3 SLP243",2025-09-09 16:11:14.66455,2025-09-09 12:11:14.664592
"CYRJ","Roberval Arpt, QC, CA",2025-09-09 16:00:00,2025-09-09 12:00:00,"VFR",17,6,220,10,16,40,1026.2,"METAR CYRJ 091600Z 22010G16KT 40SM FEW060 BKN120 BKN240 17/06 A3030 RMK SC2AC4CI1 CI TR SLP269",2025-09-09 16:11:14.670942,2025-09-09 12:11:14.670991
"CYDQ","Dawson Creek Arpt, BC, CA",2025-09-09 16:00:00,2025-09-09 12:00:00,"VFR",21,6,240,6,NA,9,1008.5,"METAR CYDQ 091600Z AUTO 24006KT 190V320 9SM CLR 21/06 A2978 RMK SLP089 DENSITY ALT 3500FT",2025-09-09 16:11:14.677392,2025-09-09 12:11:14.677435
"CYTE","Cape Dorset Arpt, NU, CA",2025-09-09 16:00:00,2025-09-09 12:00:00,"VFR",7,2,240,7,NA,15,1011.9,"METAR CYTE 091600Z 24007KT 15SM FEW024 BKN044 07/02 A2988 RMK CU1SC4 SLP125",2025-09-09 16:11:14.683688,2025-09-09 12:11:14.68373
"CYVQ","Norman Wells Arpt, NT, CA",2025-09-09 16:00:00,2025-09-09 12:00:00,"MVFR",13,12,260,5,NA,6,1004.5,"METAR CYVQ 091600Z 26005KT 6SM -SHRA FEW007 BKN024 BKN050 OVC068 13/12 A2966 RMK ST1SC5SC1AC1 CVCTV CLD EMBD SLP048",2025-09-09 16:11:14.690017,2025-09-09 12:11:14.690061
"CYFB","Iqaluit Arpt, NU, CA",2025-09-09 16:00:00,2025-09-09 12:00:00,"MVFR",7,4,320,11,18,30,1009.9,"METAR CYFB 091600Z 32011G18KT 30SM BKN018 07/04 A2982 RMK SC7 SLP102",2025-09-09 16:11:14.696295,2025-09-09 12:11:14.696337
"CYGL","La Grande Riviere Arpt, QC, CA",2025-09-09 16:00:00,2025-09-09 12:00:00,"VFR",12,10,200,8,NA,15,1014,"METAR CYGL 091600Z 20008KT 15SM -DZ SCT015 OVC053 12/10 A2994 RMK SC4SC4 SLP148",2025-09-09 16:11:14.70261,2025-09-09 12:11:14.702652
"KHPN","White Plains/Westchester Cnty, NY, US",2025-09-09 15:56:00,2025-09-09 11:56:00,"VFR",21.1,4.4,80,12,17,NA,1027.5,"METAR KHPN 091556Z 08012G17KT 10SM FEW040 21/04 A3034 RMK AO2 SLP272 T02110044",2025-09-09 16:11:14.708985,2025-09-09 12:11:14.70903
"KBUF","Buffalo-Niagara Intl, NY, US",2025-09-09 15:54:00,2025-09-09 11:54:00,"VFR",21.1,7.2,170,4,NA,NA,1026.2,"METAR KBUF 091554Z 17004KT 10SM FEW055 21/07 A3030 RMK AO2 SLP262 FU ALF T02110072 $",2025-09-09 16:11:14.715412,2025-09-09 12:11:14.715455
"KSYR","Syracuse/Hancock Intl, NY, US",2025-09-09 15:54:00,2025-09-09 11:54:00,"VFR",20,10.6,0,0,NA,NA,1027.9,"METAR KSYR 091554Z 00000KT 10SM FEW030 SCT250 20/11 A3035 RMK AO2 SLP275 T02000106",2025-09-09 16:11:14.723469,2025-09-09 12:11:14.723513
"KBOS","Boston/Logan Intl, MA, US",2025-09-09 15:54:00,2025-09-09 11:54:00,"VFR",20,11.7,70,8,NA,NA,1029.2,"METAR KBOS 091554Z 07008KT 10SM FEW030 FEW250 20/12 A3039 RMK AO2 SLP291 T02000117",2025-09-09 16:11:14.729959,2025-09-09 12:11:14.730004
"KRIC","Richmond Intl, VA, US",2025-09-09 15:54:00,2025-09-09 11:54:00,"VFR",21.7,13.9,50,11,19,NA,1024.1,"METAR KRIC 091554Z 05011G19KT 10SM OVC033 22/14 A3024 RMK AO2 SLP242 T02170139",2025-09-09 16:11:14.736341,2025-09-09 12:11:14.736385
"KBWI","Baltimore-Washington Intl, MD, US",2025-09-09 15:54:00,2025-09-09 11:54:00,"VFR",22.2,10.6,80,15,NA,NA,1025.8,"METAR KBWI 091554Z 08015KT 10SM SCT041 SCT250 22/11 A3029 RMK AO2 SLP256 T02220106",2025-09-09 16:11:14.742648,2025-09-09 12:11:14.742694
"KPHL","Philadelphia Intl, PA, US",2025-09-09 15:54:00,2025-09-09 11:54:00,"VFR",22.8,12.8,70,9,19,NA,1026.2,"METAR KPHL 091554Z 07009G19KT 10SM BKN038 BKN250 BKN330 23/13 A3030 RMK AO2 SLP261 T02280128 $",2025-09-09 16:11:14.748965,2025-09-09 12:11:14.74901
"KROC","Rochester Intl Arpt, NY, US",2025-09-09 15:54:00,2025-09-09 11:54:00,"VFR",20.6,8.9,240,5,NA,NA,1026.8,"METAR KROC 091554Z 24005KT 10SM FEW028 FEW240 21/09 A3032 RMK AO2 SLP271 T02060089 $",2025-09-09 16:11:14.75529,2025-09-09 12:11:14.755332
"KIAD","Washington/Dulles Intl, VA, US",2025-09-09 15:52:00,2025-09-09 11:52:00,"VFR",22.8,10,110,8,NA,NA,1025.8,"METAR KIAD 091552Z 11008KT 10SM FEW035 SCT250 23/10 A3029 RMK AO2 SLP255 T02280100",2025-09-09 16:11:14.761674,2025-09-09 12:11:14.761721
"KDCA","Washington/Reagan-National Arpt, VA, US",2025-09-09 15:52:00,2025-09-09 11:52:00,"VFR",22.2,11.1,60,13,NA,NA,1025.5,"METAR KDCA 091552Z 06013KT 10SM FEW040 SCT250 22/11 A3028 RMK AO2 SLP251 T02220111",2025-09-09 16:11:14.768111,2025-09-09 12:11:14.768154
"KEWR","Newark Intl, NJ, US",2025-09-09 15:51:00,2025-09-09 11:51:00,"VFR",21.7,10,80,5,15,NA,1027.2,"METAR KEWR 091551Z 08005G15KT 10SM SCT040 SCT250 22/10 A3033 RMK AO2 SLP269 T02170100 $",2025-09-09 16:11:14.7763,2025-09-09 12:11:14.776344
"KLGA","New York/La Guardia Arpt, NY, US",2025-09-09 15:51:00,2025-09-09 11:51:00,"VFR",20.6,10,50,13,NA,NA,1027.2,"METAR KLGA 091551Z 05013KT 10SM FEW028 SCT250 21/10 A3033 RMK AO2 SLP269 T02060100",2025-09-09 16:11:14.782688,2025-09-09 12:11:14.782732
"KORF","Norfolk Intl, VA, US",2025-09-09 15:51:00,2025-09-09 11:51:00,"MVFR",22.8,18.3,40,18,NA,NA,1021.8,"METAR KORF 091551Z 04018KT 10SM FEW017 BKN024 OVC031 23/18 A3017 RMK AO2 PK WND 04028/1519 SLP214 T02280183",2025-09-09 16:11:14.789183,2025-09-09 12:11:14.789226
"KPVD","Providence/Green Mem, RI, US",2025-09-09 15:51:00,2025-09-09 11:51:00,"VFR",21.1,10.6,50,11,17,NA,1028.5,"METAR KPVD 091551Z 05011G17KT 10SM FEW033 FEW250 21/11 A3037 RMK AO2 SLP285 T02110106",2025-09-09 16:11:14.795524,2025-09-09 12:11:14.795567
"KBED","Bedford/Hanscom Fld, MA, US",2025-09-09 15:51:00,2025-09-09 11:51:00,"VFR",21.7,7.8,130,11,17,NA,1028.5,"METAR KBED 091551Z 13011G17KT 10SM SCT040 22/08 A3037 RMK AO2 SLP298 T02170078 $",2025-09-09 16:11:14.801877,2025-09-09 12:11:14.801941
"KALB","Albany Intl, NY, US",2025-09-09 15:51:00,2025-09-09 11:51:00,"VFR",18.9,9.4,0,0,NA,NA,1028.5,"METAR KALB 091551Z 00000KT 10SM FEW037 SCT250 19/09 A3037 RMK AO2 SLP284 T01890094",2025-09-09 16:11:14.808259,2025-09-09 12:11:14.808304
"KBDL","Hartford/Bradley Intl, CT, US",2025-09-09 15:51:00,2025-09-09 11:51:00,"VFR",20.6,10.6,0,0,NA,NA,1028.5,"METAR KBDL 091551Z 00000KT 10SM FEW037 FEW250 21/11 A3037 RMK AO2 SLP284 T02060106",2025-09-09 16:11:14.814571,2025-09-09 12:11:14.814613
"KJFK","New York/JF Kennedy Intl, NY, US",2025-09-09 15:51:00,2025-09-09 11:51:00,"VFR",21.7,8.3,60,11,NA,NA,1027.2,"METAR KJFK 091551Z 06011KT 10SM FEW028 FEW032 BKN250 22/08 A3033 RMK AO2 SLP270 T02170083",2025-09-09 16:11:14.820952,2025-09-09 12:11:14.820996
"KPIT","Pittsburgh Intl, PA, US",2025-09-09 15:51:00,2025-09-09 11:51:00,"VFR",20.6,6.1,NA,5,NA,NA,1025.8,"METAR KPIT 091551Z VRB05KT 10SM FEW040 FEW250 21/06 A3029 RMK AO2 SLP262 T02060061 $",2025-09-09 16:11:14.827371,2025-09-09 12:11:14.827414
"KSDF","Louisville Intl, KY, US",2025-09-09 15:56:00,2025-09-09 11:56:00,"VFR",22.2,9.4,0,0,NA,NA,1022.8,"METAR KSDF 091556Z 00000KT 10SM FEW350 22/09 A3020 RMK AO2 SLP222 T02220094",2025-09-09 16:11:16.389444,2025-09-09 12:11:16.389487
"KJAX","Jacksonville Intl, FL, US",2025-09-09 15:56:00,2025-09-09 11:56:00,"MVFR",25,23,10,13,19,NA,1017.4,"METAR KJAX 091556Z 01013G19KT 10SM -RA FEW008 BKN014 OVC110 25/23 A3004",2025-09-09 16:11:16.395975,2025-09-09 12:11:16.396019
"KFSD","Sioux Falls/Foss Fld, SD, US",2025-09-09 15:56:00,2025-09-09 11:56:00,"IFR",17.2,15.6,170,3,NA,NA,1016,"METAR KFSD 091556Z 17003KT 10SM OVC009 17/16 A3000 RMK AO2 RAB18E36 TSE40 SLP154 P0003 T01720156",2025-09-09 16:11:16.402406,2025-09-09 12:11:16.40245
"KDAY","Dayton/Cox Intl, OH, US",2025-09-09 15:56:00,2025-09-09 11:56:00,"VFR",21.7,5,100,3,NA,NA,1024.1,"METAR KDAY 091556Z 10003KT 10SM FEW250 22/05 A3024 RMK AO2 SLP236 T02170050",2025-09-09 16:11:16.408831,2025-09-09 12:11:16.408875
"KCHS","Charleston Intl, SC, US",2025-09-09 15:56:00,2025-09-09 11:56:00,"VFR",23.9,13.3,30,13,NA,NA,1020.1,"METAR KCHS 091556Z 03013KT 10SM SCT180 BKN250 24/13 A3012 RMK AO2 SLP200 T02390133",2025-09-09 16:11:16.415302,2025-09-09 12:11:16.415347
"KIND","Indianapolis Intl, IN, US",2025-09-09 15:54:00,2025-09-09 11:54:00,"VFR",22.2,7.8,170,7,NA,NA,1023.1,"METAR KIND 091554Z 17007KT 10SM BKN250 22/08 A3021 RMK AO2 SLP226 T02220078",2025-09-09 16:11:16.423923,2025-09-09 12:11:16.424024
"KSBN","South Bend Rgnl, IN, US",2025-09-09 15:54:00,2025-09-09 11:54:00,"VFR",21.1,8.9,210,6,NA,NA,1023.5,"METAR KSBN 091554Z 21006KT 10SM CLR 21/09 A3022 RMK AO2 SLP232 T02110089",2025-09-09 16:11:16.430447,2025-09-09 12:11:16.43049
"KDSM","Des Moines Intl, IA, US",2025-09-09 15:54:00,2025-09-09 11:54:00,"VFR",17.2,9.4,190,6,NA,NA,1018,"METAR KDSM 091554Z 19006KT 10SM FEW070 FEW110 SCT190 OVC210 17/09 A3006 RMK AO2 SLP175 T01720094",2025-09-09 16:11:16.436954,2025-09-09 12:11:16.437
"KFWA","Fort Wayne Intl, IN, US",2025-09-09 15:54:00,2025-09-09 11:54:00,"VFR",22.2,8.3,200,9,NA,NA,1023.8,"METAR KFWA 091554Z 20009KT 10SM SCT250 22/08 A3023 RMK AO2 SLP237 T02220083",2025-09-09 16:11:16.443355,2025-09-09 12:11:16.443401
"KGSO","Greensboro Intl, NC, US",2025-09-09 15:54:00,2025-09-09 11:54:00,"VFR",20.6,7.2,60,14,20,NA,1024.1,"METAR KGSO 091554Z 06014G20KT 10SM FEW060 FEW250 21/07 A3024 RMK AO2 SLP235 T02060072",2025-09-09 16:11:16.44972,2025-09-09 12:11:16.449764
"KLNK","Lincoln Arpt, NE, US",2025-09-09 15:54:00,2025-09-09 11:54:00,"VFR",21.7,15.6,210,10,NA,NA,1016.3,"METAR KLNK 091554Z 21010KT 10SM BKN034 OVC050 22/16 A3001 RMK AO2 SLP156 T02170156",2025-09-09 16:11:16.456277,2025-09-09 12:11:16.456328
"KMEM","Memphis Intl, TN, US",2025-09-09 15:54:00,2025-09-09 11:54:00,"VFR",26.7,17.8,170,10,NA,NA,1019.7,"METAR KMEM 091554Z 17010KT 10SM SCT028 27/18 A3011 RMK AO2 SLP190 T02670178 $",2025-09-09 16:11:16.462708,2025-09-09 12:11:16.46275
"KBNA","Nashville Intl, TN, US",2025-09-09 15:53:00,2025-09-09 11:53:00,"VFR",25,12.8,170,8,NA,NA,1022.1,"METAR KBNA 091553Z 17008KT 10SM SCT070 SCT250 25/13 A3018 RMK AO2 SLP215 T02500128 $",2025-09-09 16:11:16.469057,2025-09-09 12:11:16.469102
"KEYW","Key West Intl, FL, US",2025-09-09 15:53:00,2025-09-09 11:53:00,"VFR",30.6,25.6,210,9,NA,NA,1014.6,"METAR KEYW 091553Z 21009KT 10SM FEW002 FEW026 31/26 A2996 RMK AO2 SLP151 T03060256",2025-09-09 16:11:16.475559,2025-09-09 12:11:16.475602
"KFLL","Ft Lauderdale-Hollywood Intl, FL, US",2025-09-09 15:53:00,2025-09-09 11:53:00,"VFR",29.4,23.9,280,13,18,NA,1014.6,"METAR KFLL 091553Z 28013G18KT 10SM TS SCT025CB BKN080 BKN250 29/24 A2996 RMK AO2 TSB47 SLP143 OCNL LTGICCG SW-NW TS SW-NW MOV NE TCU NE-E T02940239",2025-09-09 16:11:16.483663,2025-09-09 12:11:16.483707
"KLIT","Little Rock/Clinton Natl, AR, US",2025-09-09 15:53:00,2025-09-09 11:53:00,"VFR",22.2,12.8,0,0,NA,NA,1019.7,"METAR KLIT 091553Z 00000KT 10SM FEW160 22/13 A3011 RMK AO2 SLP197 T02220128",2025-09-09 16:11:16.490229,2025-09-09 12:11:16.490273
"KGRR","Grand Rapids Intl, MI, US",2025-09-09 15:53:00,2025-09-09 11:53:00,"VFR",19.4,7.8,NA,5,NA,NA,1023.5,"METAR KGRR 091553Z VRB05KT 10SM SCT250 19/08 A3022 RMK AO2 SLP233 T01940078",2025-09-09 16:11:16.496689,2025-09-09 12:11:16.496732
"KMDW","Chicago/Midway Intl, IL, US",2025-09-09 15:53:00,2025-09-09 11:53:00,"VFR",21.1,5.6,210,7,NA,NA,1022.4,"METAR KMDW 091553Z 21007KT 10SM BKN250 21/06 A3019 RMK AO2 SLP216 T02110056 $",2025-09-09 16:11:16.503134,2025-09-09 12:11:16.503177
"KRSW","Ft Myers/SW Florida Intl, FL, US",2025-09-09 15:53:00,2025-09-09 11:53:00,"VFR",29.4,25.6,100,6,NA,NA,1014.6,"METAR KRSW 091553Z 10006KT 10SM FEW012 29/26 A2996 RMK AO1 SLP142 T02940256",2025-09-09 16:11:16.509561,2025-09-09 12:11:16.509604
"KMYR","Myrtle Beach Intl, SC, US",2025-09-09 15:53:00,2025-09-09 11:53:00,"VFR",22.2,15.6,360,13,NA,NA,1020.7,"METAR KMYR 091553Z 36013KT 10SM CLR 22/16 A3014 RMK AO2 SLP204 T02220156 $",2025-09-09 16:11:16.515879,2025-09-09 12:11:16.515943
"KMCO","Orlando Intl, FL, US",2025-09-09 15:53:00,2025-09-09 11:53:00,"VFR",28.9,23.3,NA,3,NA,NA,1015,"METAR KMCO 091553Z VRB03KT 10SM FEW020 BKN160 BKN250 29/23 A2997 RMK AO2 SLP149 T02890233 $",2025-09-09 16:11:16.522342,2025-09-09 12:11:16.522385
"KBHM","Birmingham Intl, AL, US",2025-09-09 15:53:00,2025-09-09 11:53:00,"VFR",25,11.1,140,9,17,NA,1022.1,"METAR KBHM 091553Z 14009G17KT 10SM FEW055 FEW110 25/11 A3018 RMK AO2 SLP213 T02500111",2025-09-09 16:11:16.528737,2025-09-09 12:11:16.528781
"KHSV","Huntsville Intl, AL, US",2025-09-09 15:53:00,2025-09-09 11:53:00,"VFR",23.9,12.8,150,8,NA,NA,1022.1,"METAR KHSV 091553Z 15008KT 10SM FEW045 FEW060 24/13 A3018 RMK AO2 SLP213 T02390128 $",2025-09-09 16:11:16.537112,2025-09-09 12:11:16.537156
"KMSP","Minneapolis-St Paul Intl, MN, US",2025-09-09 15:53:00,2025-09-09 11:53:00,"MVFR",19.4,13.3,230,11,17,NA,1015.3,"METAR KMSP 091553Z 23011G17KT 10SM OVC029 19/13 A2998 RMK AO2 SLP148 T01940133",2025-09-09 16:11:16.543451,2025-09-09 12:11:16.543495
"KTPA","Tampa Intl Arpt, FL, US",2025-09-09 15:53:00,2025-09-09 11:53:00,"VFR",27.8,24.4,NA,4,NA,NA,1014.6,"METAR KTPA 091553Z VRB04KT 10SM FEW010 SCT035 BKN110 28/24 A2996 RMK AO2 SLP146 OCNL LTGIC DSNT SW CB DSNT SW T02780244 $",2025-09-09 16:11:16.550063,2025-09-09 12:11:16.550107
"KSAV","Savannah Intl, GA, US",2025-09-09 15:53:00,2025-09-09 11:53:00,"VFR",25.6,15,40,11,19,NA,1019.7,"METAR KSAV 091553Z 04011G19KT 10SM SCT250 26/15 A3011 RMK AO2 SLP197 T02560150",2025-09-09 16:11:16.556454,2025-09-09 12:11:16.556497
"KMIA","Miami Intl, FL, US",2025-09-09 15:53:00,2025-09-09 11:53:00,"VFR",31.1,24.4,150,4,NA,NA,1014.3,"METAR KMIA 091553Z 15004KT 10SM SCT025CB BKN250 31/24 A2995 RMK AO2 LTG DSNT N SLP143 CB VC NE AND DSNT ALQDS MOV NE T03110244 $",2025-09-09 16:11:16.56286,2025-09-09 12:11:16.562922
"KPBI","Palm Beach Intl, FL, US",2025-09-09 15:53:00,2025-09-09 11:53:00,"VFR",30.6,23.9,NA,3,NA,NA,1015,"METAR KPBI 091553Z VRB03KT 10SM SCT030 BKN250 31/24 A2997 RMK AO2 SLP147 CB DSNT E-SE S SW T03060239 $",2025-09-09 16:11:16.569303,2025-09-09 12:11:16.569348
"KDTW","Detroit/Metro Wayne Cnty, MI, US",2025-09-09 15:53:00,2025-09-09 11:53:00,"VFR",21.7,7.2,190,7,NA,NA,1024.5,"METAR KDTW 091553Z 19007KT 10SM SCT250 22/07 A3025 RMK AO2 SLP243 T02170072 $",2025-09-09 16:11:16.575592,2025-09-09 12:11:16.575635
"KMCI","Kansas City Intl, MO, US",2025-09-09 15:53:00,2025-09-09 11:53:00,"VFR",15.6,14.4,190,13,NA,NA,1017.4,"METAR KMCI 091553Z 19013KT 10SM -RA FEW036 BKN047 OVC090 16/14 A3004 RMK AO2 SLP169 P0005 T01560144 $",2025-09-09 16:11:16.582011,2025-09-09 12:11:16.582055
"KCLT","Charlotte/Douglas Intl, NC, US",2025-09-09 15:52:00,2025-09-09 11:52:00,"VFR",21.7,8.3,50,14,20,NA,1024.1,"METAR KCLT 091552Z 05014G20KT 10SM FEW045 FEW250 22/08 A3024 RMK SLP248 T02170083 $",2025-09-09 16:11:16.590128,2025-09-09 12:11:16.590174
"KATL","Atlanta/Hartsfield-Jackson Intl, GA, US",2025-09-09 15:52:00,2025-09-09 11:52:00,"VFR",23.3,11.1,70,14,NA,NA,1023.1,"METAR KATL 091552Z 07014KT 10SM FEW065 FEW200 FEW250 23/11 A3021 RMK SLP222 T02330111",2025-09-09 16:11:16.59658,2025-09-09 12:11:16.596623
"KOMA","Omaha/Eppley Fld, NE, US",2025-09-09 15:52:00,2025-09-09 11:52:00,"VFR",21.1,15.6,170,10,NA,NA,1016,"METAR KOMA 091552Z COR 17010KT 10SM SCT040 SCT080 21/16 A3000 RMK AO2 SLP155 T02110156",2025-09-09 16:11:16.603029,2025-09-09 12:11:16.603076
"KCVG","Cincinnati Intl, KY, US",2025-09-09 15:52:00,2025-09-09 11:52:00,"VFR",21.7,8.3,130,5,NA,NA,1023.5,"METAR KCVG 091552Z 13005KT 10SM FEW250 22/08 A3022 RMK AO2 SLP226 T02170083",2025-09-09 16:11:16.609515,2025-09-09 12:11:16.60956
"KMLI","Moline/Quad City Intl, IL, US",2025-09-09 15:52:00,2025-09-09 11:52:00,"VFR",21.1,9.4,180,9,NA,NA,1020.1,"METAR KMLI 091552Z 18009KT 10SM CLR 21/09 A3012 RMK AO2 SLP198 T02110094",2025-09-09 16:11:16.615883,2025-09-09 12:11:16.615949
"KORD","Chicago/O'Hare Intl, IL, US",2025-09-09 15:51:00,2025-09-09 11:51:00,"VFR",20.6,6.1,180,7,NA,NA,1022.1,"METAR KORD 091551Z 18007KT 10SM BKN250 21/06 A3018 RMK AO2 SLP216 T02060061",2025-09-09 16:11:16.622282,2025-09-09 12:11:16.622325
"KCLE","Cleveland/Hopkins Intl, OH, US",2025-09-09 15:51:00,2025-09-09 11:51:00,"VFR",22.2,6.1,130,6,NA,NA,1024.1,"METAR KCLE 091551Z 13006KT 10SM FEW250 22/06 A3024 RMK AO2 SLP254 T02220061",2025-09-09 16:11:16.62863,2025-09-09 12:11:16.628673
"KCMH","Columbus/Glenn Intl, OH, US",2025-09-09 15:51:00,2025-09-09 11:51:00,"VFR",21.1,6.7,NA,4,NA,NA,1024.1,"METAR KCMH 091551Z VRB04KT 10SM FEW250 21/07 A3024 RMK AO2 SLP239 T02110067",2025-09-09 16:11:16.63502,2025-09-09 12:11:16.635066
"KSTL","St Louis/Lambert Intl, MO, US",2025-09-09 15:51:00,2025-09-09 11:51:00,"VFR",23.3,9.4,170,5,NA,NA,1021.1,"METAR KSTL 091551Z 17005KT 10SM FEW140 SCT200 BKN250 23/09 A3015 RMK AO2 SLP202 T02330094",2025-09-09 16:11:16.641422,2025-09-09 12:11:16.641469
"KRDU","Raleigh-Durham Intl, NC, US",2025-09-09 15:51:00,2025-09-09 11:51:00,"VFR",21.7,12.2,20,8,16,NA,1023.5,"METAR KRDU 091551Z 02008G16KT 10SM SCT030 SCT250 22/12 A3022 RMK AO2 SLP230 T02170122",2025-09-09 16:11:16.649678,2025-09-09 12:11:16.649728
"KEGE","Eagle Cnty Rgnl, CO, US",2025-09-09 15:56:00,2025-09-09 11:56:00,"VFR",13.9,2.2,NA,3,NA,NA,1025.5,"METAR KEGE 091556Z VRB03KT 10SM SCT100 14/02 A3028 RMK AO2 LTG DSNT W SLP188 T01390022 $",2025-09-09 16:11:18.063673,2025-09-09 12:11:18.063718
"KLRD","Laredo Intl, TX, US",2025-09-09 15:56:00,2025-09-09 11:56:00,"VFR",30,20.6,90,7,NA,NA,1016.7,"METAR KLRD 091556Z 09007KT 10SM CLR 30/21 A3002 RMK AO2 SLP162 T03000206 $",2025-09-09 16:11:18.070271,2025-09-09 12:11:18.070314
"KBZN","Bozeman/Gallatin Fld, MT, US",2025-09-09 15:56:00,2025-09-09 11:56:00,"VFR",16.1,5,20,3,NA,NA,1018,"METAR KBZN 091556Z 02003KT 10SM CLR 16/05 A3006 RMK AO2 SLP152 T01610050",2025-09-09 16:11:18.076698,2025-09-09 12:11:18.076741
"KEUG","Eugene/Mahlon Sweet Fld, OR, US",2025-09-09 15:54:00,2025-09-09 11:54:00,"VFR",17.8,14.4,170,3,NA,NA,1014.3,"METAR KEUG 091554Z 17003KT 10SM BKN031 BKN045 OVC080 18/14 A2995 RMK AO2 SLP140 T01780144",2025-09-09 16:11:18.083172,2025-09-09 12:11:18.08322
"KSLC","Salt Lake City Intl, UT, US",2025-09-09 15:54:00,2025-09-09 11:54:00,"VFR",27.2,6.7,160,19,25,NA,1014.3,"METAR KSLC 091554Z 16019G25KT 10SM FEW085 FEW120 BKN190 BKN230 27/07 A2995 RMK AO2 SLP083 T02720067 $",2025-09-09 16:11:18.089703,2025-09-09 12:11:18.089747
"KCOS","Colorado Spring Arpt, CO, US",2025-09-09 15:54:00,2025-09-09 11:54:00,"VFR",22.8,5,NA,3,NA,NA,1022.4,"METAR KCOS 091554Z VRB03KT 10SM SCT110 BKN250 23/05 A3019 RMK AO2 SLP133 T02280050 $",2025-09-09 16:11:18.098526,2025-09-09 12:11:18.098569
"KGTF","Great Falls Intl, MT, US",2025-09-09 15:53:00,2025-09-09 11:53:00,"VFR",19.4,5.6,0,0,NA,NA,1016,"METAR KGTF 091553Z 00000KT 10SM CLR 19/06 A3000 RMK AO2 SLP136 T01940056 $",2025-09-09 16:11:18.105062,2025-09-09 12:11:18.105108
"KPUB","Pueblo Mem Arpt, CO, US",2025-09-09 15:53:00,2025-09-09 11:53:00,"VFR",23.3,7.2,290,5,NA,NA,1019.4,"METAR KPUB 091553Z 29005KT 10SM CLR 23/07 A3010 RMK AO2 SLP127 T02330072 $",2025-09-09 16:11:18.111551,2025-09-09 12:11:18.111596
"KSEA","Seattle-Tacoma Intl, WA, US",2025-09-09 15:53:00,2025-09-09 11:53:00,"VFR",16.1,12.8,20,6,NA,NA,1014.6,"METAR KSEA 091553Z 02006KT 10SM BKN039 BKN120 BKN250 16/13 A2996 RMK AO2 SLP151 T01610128 $",2025-09-09 16:11:18.117987,2025-09-09 12:11:18.118033
"KLAW","Lawton-Fort Sill Rgnl, OK, US",2025-09-09 15:53:00,2025-09-09 11:53:00,"VFR",25,11.7,200,9,16,NA,1018,"METAR KLAW 091553Z 20009G16KT 10SM CLR 25/12 A3006 RMK AO2 SLP170 T02500117",2025-09-09 16:11:18.124432,2025-09-09 12:11:18.124474
"KTUL","Tulsa Intl Arpt, OK, US",2025-09-09 15:53:00,2025-09-09 11:53:00,"VFR",23.9,11.7,170,13,NA,NA,1018.7,"METAR KTUL 091553Z 17013KT 10SM SCT090 SCT160 24/12 A3008 RMK AO2 SLP180 T02390117",2025-09-09 16:11:18.130853,2025-09-09 12:11:18.130915
"KIDA","Idaho Falls Rgnl, ID, US",2025-09-09 15:53:00,2025-09-09 11:53:00,"VFR",17.2,8.3,350,6,NA,NA,1016.7,"METAR KIDA 091553Z 35006KT 10SM CLR 17/08 A3002 RMK AO2 SLP133 T01720083",2025-09-09 16:11:18.137264,2025-09-09 12:11:18.137309
"KDEN","Denver Intl, CO, US",2025-09-09 15:53:00,2025-09-09 11:53:00,"VFR",23.3,4.4,240,5,NA,NA,1020.1,"METAR KDEN 091553Z 24005KT 10SM FEW100 FEW140 FEW180 SCT220 23/04 A3012 RMK AO2 SLP122 T02330044",2025-09-09 16:11:18.143723,2025-09-09 12:11:18.143766
"KBFI","Seattle/Boeing Fld, WA, US",2025-09-09 15:53:00,2025-09-09 11:53:00,"VFR",17.2,13.3,NA,4,NA,NA,1014.3,"METAR KBFI 091553Z VRB04KT 10SM OVC045 17/13 A2995 RMK AO2 SLP142 T01720133",2025-09-09 16:11:18.15215,2025-09-09 12:11:18.152193
"KBIL","Billings/Logan Intl, MT, US",2025-09-09 15:53:00,2025-09-09 11:53:00,"VFR",17.2,6.7,200,3,NA,NA,1017,"METAR KBIL 091553Z 20003KT 10SM FEW240 17/07 A3003 RMK AO2 SLP145 T01720067",2025-09-09 16:11:18.158605,2025-09-09 12:11:18.158649
"KBRO","Brownsville Intl, TX, US",2025-09-09 15:53:00,2025-09-09 11:53:00,"VFR",30.6,25.6,NA,5,NA,NA,1014.3,"METAR KBRO 091553Z VRB05KT 10SM FEW050 FEW080 31/26 A2995 RMK AO2 SLP142 T03060256",2025-09-09 16:11:18.165138,2025-09-09 12:11:18.165182
"KGEG","Spokane Intl, WA, US",2025-09-09 15:53:00,2025-09-09 11:53:00,"VFR",20,10.6,10,4,NA,NA,1013.6,"METAR KGEG 091553Z 01004KT 10SM FEW120 FEW150 FEW300 20/11 A2993 RMK AO2 SLP121 OCNL LTGCGICCC DSNT N-NE CB DSNT N-NE AND NW MOV N SHRA DSNT N-NE T02000106 $",2025-09-09 16:11:18.171509,2025-09-09 12:11:18.171551
"KICT","Wichita/Eisenhower Arpt, KS, US",2025-09-09 15:53:00,2025-09-09 11:53:00,"VFR",22.2,13.9,200,19,24,NA,1016,"METAR KICT 091553Z 20019G24KT 10SM SCT120 SCT150 BKN190 BKN250 22/14 A3000 RMK AO2 SLP148 ACC NW-NE T02220139 $",2025-09-09 16:11:18.178088,2025-09-09 12:11:18.178131
"KMFE","McAllen/Miller Intl, TX, US",2025-09-09 15:53:00,2025-09-09 11:53:00,"VFR",31.7,23.9,10,8,NA,NA,1015.3,"METAR KMFE 091553Z 01008KT 10SM FEW025 SCT050 32/24 A2998 RMK AO2 SLP150 T03170239 $",2025-09-09 16:11:18.184489,2025-09-09 12:11:18.184532
"KAFW","Fort Worth/Alliance Arpt, TX, US",2025-09-09 15:53:00,2025-09-09 11:53:00,"VFR",25,13.3,150,10,NA,NA,1018.7,"METAR KAFW 091553Z 15010KT 10SM CLR 25/13 A3008 RMK AO2 SLP174 T02500133",2025-09-09 16:11:18.190861,2025-09-09 12:11:18.190922
"KAMA","Amarillo Intl Arpt, TX, US",2025-09-09 15:53:00,2025-09-09 11:53:00,"VFR",25.6,15.6,210,14,NA,NA,1019,"METAR KAMA 091553Z 21014KT 10SM CLR 26/16 A3009 RMK AO2 SLP136 T02560156",2025-09-09 16:11:18.197326,2025-09-09 12:11:18.197371
"KAUS","Austin/Bergstrom Intl, TX, US",2025-09-09 15:53:00,2025-09-09 11:53:00,"VFR",26.7,13.9,70,4,NA,NA,1018,"METAR KAUS 091553Z 07004KT 10SM CLR 27/14 A3006 RMK AO2 SLP170 T02670139",2025-09-09 16:11:18.205618,2025-09-09 12:11:18.205662
"KBOI","Boise Arpt, ID, US",2025-09-09 15:53:00,2025-09-09 11:53:00,"VFR",19.4,6.7,50,4,NA,NA,1012.6,"METAR KBOI 091553Z 05004KT 10SM CLR 19/07 A2990 RMK AO2 SLP101 T01940067",2025-09-09 16:11:18.212019,2025-09-09 12:11:18.212066
"KLBB","Lubbock Intl Arpt, TX, US",2025-09-09 15:53:00,2025-09-09 11:53:00,"VFR",24.4,17.8,180,8,NA,NA,1019,"METAR KLBB 091553Z 18008KT 10SM FEW100 24/18 A3009 RMK AO2 SLP139 T02440178",2025-09-09 16:11:18.218554,2025-09-09 12:11:18.218597
"KASE","Aspen/Pitkin Cnty, CO, US",2025-09-09 15:53:00,2025-09-09 11:53:00,"VFR",18.3,1.7,0,0,NA,NA,1025.5,"METAR KASE 091553Z 00000KT 10SM FEW110 18/02 A3028 RMK AO2 LTG DSNT S AND SW SLP143 T01830017",2025-09-09 16:11:18.224981,2025-09-09 12:11:18.225025
"KDFW","Dallas-Ft Worth Intl, TX, US",2025-09-09 15:53:00,2025-09-09 11:53:00,"VFR",24.4,12.2,170,8,NA,NA,1018.7,"METAR KDFW 091553Z 17008KT 10SM CLR 24/12 A3008 RMK AO2 SLP177 T02440122 $",2025-09-09 16:11:18.231378,2025-09-09 12:11:18.231422
"KHLN","Helena Rgnl, MT, US",2025-09-09 15:53:00,2025-09-09 11:53:00,"VFR",14.4,6.1,0,0,NA,NA,1016.7,"METAR KHLN 091553Z 00000KT 10SM CLR 14/06 A3002 RMK AO2 SLP159 T01440061",2025-09-09 16:11:18.237782,2025-09-09 12:11:18.237825
"KMSO","Missoula Intl, MT, US",2025-09-09 15:53:00,2025-09-09 11:53:00,"VFR",13.3,7.8,160,3,NA,NA,1015.7,"METAR KMSO 091553Z 16003KT 10SM CLR 13/08 A2999 RMK AO2 SLP146 T01330078",2025-09-09 16:11:18.244188,2025-09-09 12:11:18.244232
"KMFR","Medford/Rogue Valley Intl, OR, US",2025-09-09 15:53:00,2025-09-09 11:53:00,"MVFR",16.1,13.9,0,0,NA,NA,1014.3,"METAR KMFR 091553Z 00000KT 10SM FEW011 BKN023 BKN090 16/14 A2995 RMK AO2 SLP137 T01610139 $",2025-09-09 16:11:18.250514,2025-09-09 12:11:18.250557
"KGJT","Grand Junction Rgnl, CO, US",2025-09-09 15:53:00,2025-09-09 11:53:00,"VFR",23.9,3.9,120,11,NA,NA,1018.7,"METAR KGJT 091553Z 12011KT 10SM CLR 24/04 A3008 RMK AO2 SLP115 T02390039",2025-09-09 16:11:18.256974,2025-09-09 12:11:18.25702
"KHOU","Houston/Hobby Arpt, TX, US",2025-09-09 15:53:00,2025-09-09 11:53:00,"VFR",27.2,13.9,NA,5,NA,NA,1017,"METAR KHOU 091553Z VRB05KT 10SM CLR 27/14 A3003 RMK AO2 SLP173 T02720139",2025-09-09 16:11:18.265227,2025-09-09 12:11:18.265271
"KPDX","Portland Intl, OR, US",2025-09-09 15:53:00,2025-09-09 11:53:00,"VFR",18.3,12.8,350,4,NA,NA,1014,"METAR KPDX 091553Z 35004KT 10SM FEW025 SCT110 BKN250 18/13 A2994 RMK AO2 SLP137 T01830128",2025-09-09 16:11:18.271767,2025-09-09 12:11:18.271812
"KDAL","Dallas/Love Fld, TX, US",2025-09-09 15:53:00,2025-09-09 11:53:00,"VFR",23.9,12.2,150,9,NA,NA,1019,"METAR KDAL 091553Z 15009KT 120V190 10SM FEW180 24/12 A3009 RMK AO2 SLP183 T02390122",2025-09-09 16:11:18.278218,2025-09-09 12:11:18.278262
"KIAH","Houston/Bush Intl, TX, US",2025-09-09 15:53:00,2025-09-09 11:53:00,"VFR",26.7,13.3,60,5,NA,NA,1017.4,"METAR KIAH 091553Z 06005KT 10SM CLR 27/13 A3004 RMK AO2 SLP173 T02670133",2025-09-09 16:11:18.284592,2025-09-09 12:11:18.284636
"KOKC","Oklahoma City/Will Rogers Intl, OK, US",2025-09-09 15:52:00,2025-09-09 11:52:00,"VFR",23.9,12.2,190,11,NA,NA,1018.4,"METAR KOKC 091552Z 19011KT 10SM SCT095 SCT250 24/12 A3007 RMK AO2 SLP169 T02390122",2025-09-09 16:11:18.290954,2025-09-09 12:11:18.290999
"KHRL","Harlingen/Valley Intl, TX, US",2025-09-09 15:52:00,2025-09-09 11:52:00,"VFR",30,23.9,20,10,NA,NA,1014.6,"METAR KHRL 091552Z 02010KT 10SM FEW022 SCT070 OVC090 30/24 A2996 RMK AO2 SLP144 T03000239",2025-09-09 16:11:18.297312,2025-09-09 12:11:18.297355
"KABI","Abilene Rgnl, TX, US",2025-09-09 15:52:00,2025-09-09 11:52:00,"VFR",26.7,15,210,10,NA,NA,1018.7,"METAR KABI 091552Z 21010KT 10SM CLR 27/15 A3008 RMK AO2 SLP161 T02670150",2025-09-09 16:11:18.303678,2025-09-09 12:11:18.30372
"KELP","El Paso Intl, TX, US",2025-09-09 15:51:00,2025-09-09 11:51:00,"VFR",28.3,12.8,170,8,NA,NA,1019,"METAR KELP 091551Z 17008KT 10SM FEW110 FEW160 28/13 A3009 RMK AO2 SLP109 T02830128",2025-09-09 16:11:18.310133,2025-09-09 12:11:18.310179
"KACT","Waco Rgnl, TX, US",2025-09-09 15:51:00,2025-09-09 11:51:00,"VFR",25.6,15,110,4,NA,NA,1018.7,"METAR KACT 091551Z 11004KT 10SM CLR 26/15 A3008 RMK AO2 SLP181 T02560150",2025-09-09 16:11:18.318414,2025-09-09 12:11:18.318457
"KSAT","San Antonio Intl, TX, US",2025-09-09 15:51:00,2025-09-09 11:51:00,"VFR",26.7,15,100,4,NA,NA,1018,"METAR KSAT 091551Z 10004KT 10SM CLR 27/15 A3006 RMK AO2 SLP163 T02670150",2025-09-09 16:11:18.324831,2025-09-09 12:11:18.324875
"KSFO","San Francisco Intl, CA, US",2025-09-09 15:56:00,2025-09-09 11:56:00,"VFR",19.4,17.2,0,0,NA,NA,1014,"METAR KSFO 091556Z 00000KT 10SM FEW006 SCT017 BKN043 19/17 A2994 RMK AO2 SLP140 T01940172 $",2025-09-09 16:11:19.532588,2025-09-09 12:11:19.532634
"KRNO","Reno/Tahoe Intl, NV, US",2025-09-09 15:55:00,2025-09-09 11:55:00,"VFR",15.6,4.4,0,0,NA,NA,1017.4,"METAR KRNO 091555Z 00000KT 10SM FEW070 SCT130 BKN200 16/04 A3004 RMK AO2 SLP129 T01560044",2025-09-09 16:11:19.539196,2025-09-09 12:11:19.53924
"PHOG","Kahului Arpt, HI, US",2025-09-09 15:54:00,2025-09-09 11:54:00,"VFR",23.9,21.1,30,4,NA,NA,1015,"METAR PHOG 091554Z 03004KT 10SM FEW030 SCT045 24/21 A2997 RMK AO2 SLP153 T02390211",2025-09-09 16:11:19.545584,2025-09-09 12:11:19.545628
"PHNL","Honolulu Intl, HI, US",2025-09-09 15:53:00,2025-09-09 11:53:00,"VFR",25.6,22.2,340,3,NA,NA,1015.3,"METAR PHNL 091553Z 34003KT 10SM FEW020 FEW035 FEW080 26/22 A2998 RMK AO2 SLP150 T02560222",2025-09-09 16:11:19.552023,2025-09-09 12:11:19.552067
"KSTS","Santa Rosa/Schulz Arpt, CA, US",2025-09-09 15:53:00,2025-09-09 11:53:00,"IFR",17.8,17.2,130,4,NA,6,1014,"METAR KSTS 091553Z 13004KT 6SM BR BKN005 OVC013 18/17 A2994 RMK AO2 RAE42 SLP132 P0005 T01780172",2025-09-09 16:11:19.558418,2025-09-09 12:11:19.558462
"KONT","Ontario Intl, CA, US",2025-09-09 15:53:00,2025-09-09 11:53:00,"VFR",19.4,14.4,220,4,NA,NA,1015,"METAR KONT 091553Z 22004KT 10SM FEW010 19/14 A2997 RMK AO2 SLP134 T01940144 $",2025-09-09 16:11:19.567154,2025-09-09 12:11:19.567197
"KSAF","Santa Fe Cnty Muni, NM, US",2025-09-09 15:53:00,2025-09-09 11:53:00,"VFR",21.1,4.4,340,10,NA,NA,1024.1,"METAR KSAF 091553Z 34010KT 10SM FEW110 21/04 A3024 RMK AO2 LTG DSNT NE SLP151 T02110044",2025-09-09 16:11:19.573705,2025-09-09 12:11:19.573752
"KPSP","Palm Springs Intl, CA, US",2025-09-09 15:53:00,2025-09-09 11:53:00,"VFR",30,6.1,NA,3,NA,NA,1010.6,"METAR KPSP 091553Z VRB03KT 10SM CLR 30/06 A2984 RMK AO2 SLP098 T03000061",2025-09-09 16:11:19.580267,2025-09-09 12:11:19.580324
"KBUR","Burbank/Bob Hope Arpt, CA, US",2025-09-09 15:53:00,2025-09-09 11:53:00,"MVFR",18.9,15,200,4,NA,NA,1015,"METAR KBUR 091553Z 20004KT 10SM OVC014 19/15 A2997 RMK AO2 SLP139 T01890150",2025-09-09 16:11:19.586717,2025-09-09 12:11:19.58676
"KTUS","Tucson Intl Arpt, AZ, US",2025-09-09 15:53:00,2025-09-09 11:53:00,"VFR",30,16.7,0,0,NA,NA,1016,"METAR KTUS 091553Z 00000KT 10SM CLR 30/17 A3000 RMK AO2 SLP103 T03000167",2025-09-09 16:11:19.593237,2025-09-09 12:11:19.593281
"KSJC","San Jose Intl Arpt, CA, US",2025-09-09 15:53:00,2025-09-09 11:53:00,"VFR",20.6,13.9,180,3,NA,NA,1014.3,"METAR KSJC 091553Z 18003KT 10SM FEW010 SCT023 BKN042 21/14 A2995 RMK AO2 SLP143 TCU DSNT SE T02060139",2025-09-09 16:11:19.599663,2025-09-09 12:11:19.599706
"KLAX","Los Angeles Intl, CA, US",2025-09-09 15:53:00,2025-09-09 11:53:00,"MVFR",20.6,16.7,160,4,NA,5,1014.6,"METAR KLAX 091553Z 16004KT 5SM HZ FEW009 SCT016 OVC019 21/17 A2996 RMK AO2 SLP142 T02060167 $",2025-09-09 16:11:19.605959,2025-09-09 12:11:19.606003
"KOAK","Oakland Intl, CA, US",2025-09-09 15:53:00,2025-09-09 11:53:00,"VFR",18.9,17.2,190,7,NA,NA,1014.6,"METAR KOAK 091553Z 19007KT 10SM SCT019 BKN038 BKN050 BKN250 19/17 A2996 RMK AO2 RAE02 SLP144 P0000 T01890172",2025-09-09 16:11:19.612432,2025-09-09 12:11:19.612477
"KSBA","Santa Barbara Muni, CA, US",2025-09-09 15:53:00,2025-09-09 11:53:00,"VFR",20,17.2,130,9,NA,NA,1013.6,"METAR KSBA 091553Z 13009KT 10SM CLR 20/17 A2993 RMK AO2 SLP133 T02000172 $",2025-09-09 16:11:19.620589,2025-09-09 12:11:19.620631
"KSNA","Santa Ana/Wayne Arpt, CA, US",2025-09-09 15:53:00,2025-09-09 11:53:00,"MVFR",20.6,16.1,130,5,NA,NA,1014.3,"METAR KSNA 091553Z 13005KT 10SM BKN020 21/16 A2995 RMK AO2 SLP141 T02060161",2025-09-09 16:11:19.627168,2025-09-09 12:11:19.627213
"KLGB","Long Beach Arpt, CA, US",2025-09-09 15:53:00,2025-09-09 11:53:00,"MVFR",20.6,16.1,190,4,NA,NA,1014.3,"METAR KLGB 091553Z 19004KT 10SM OVC018 21/16 A2995 RMK AO2 SLP142 T02060161",2025-09-09 16:11:19.633623,2025-09-09 12:11:19.633667
"KABQ","Albuquerque Intl, NM, US",2025-09-09 15:52:00,2025-09-09 11:52:00,"VFR",23.3,6.7,220,4,NA,NA,1022.8,"METAR KABQ 091552Z 22004KT 10SM FEW060 SCT120 23/07 A3020 RMK AO2 SLP139 T02330067 $",2025-09-09 16:11:19.640022,2025-09-09 12:11:19.640066
"KSMO","Santa Monica Muni, CA, US",2025-09-09 15:51:00,2025-09-09 11:51:00,"MVFR",20.6,17.2,190,4,NA,NA,1014.6,"METAR KSMO 091551Z 19004KT 10SM OVC014 21/17 A2996 RMK AO2 SLP144 T02060172",2025-09-09 16:11:19.646426,2025-09-09 12:11:19.64647
"KSAN","San Diego Intl Arpt, CA, US",2025-09-09 15:51:00,2025-09-09 11:51:00,"MVFR",21.1,15.6,NA,3,NA,NA,1015.3,"METAR KSAN 091551Z VRB03KT 10SM BKN021 21/16 A2998 RMK AO2 SLP151 T02110156",2025-09-09 16:11:19.652828,2025-09-09 12:11:19.652871
"KPHX","Phoenix/Sky Harbor Intl, AZ, US",2025-09-09 15:51:00,2025-09-09 11:51:00,"VFR",33.9,15.6,110,4,NA,NA,1010.6,"METAR KPHX 091551Z 11004KT 10SM FEW100 34/16 A2984 RMK AO2 SLP083 T03390156",2025-09-09 16:11:19.659281,2025-09-09 12:11:19.659324
"CYMO","Moosonee Arpt, ON, CA",2025-09-09 16:33:00,2025-09-09 12:33:00,"MVFR",14,13,190,6,NA,9,1014.3,"SPECI CYMO 091633Z AUTO 19006KT 9SM SCT007 OVC019 14/13 A2995 RMK SLP143",2025-09-09 16:36:21.442726,2025-09-09 12:36:21.442774
"CYAT","Attawapisket Arpt, ON, CA",2025-09-09 16:29:00,2025-09-09 12:29:00,"IFR",13,11,250,6,NA,9,1011.6,"SPECI CYAT 091629Z AUTO 25006KT 9SM BKN008 OVC055 13/11 A2987 RMK SLP117",2025-09-09 16:36:21.45406,2025-09-09 12:36:21.454103
"CYER","Ft Severn Arpt, ON, CA",2025-09-09 16:25:00,2025-09-09 12:25:00,"MVFR",9,5,20,8,NA,9,1016,"SPECI CYER 091625Z AUTO 02008KT 9SM SCT017 BKN028 BKN250 09/05 A3000 RMK SLP161",2025-09-09 16:36:21.46092,2025-09-09 12:36:21.460969
"CYQF","Red Deer Rgnl, AB, CA",2025-09-09 16:02:00,2025-09-09 12:02:00,"VFR",15,9,220,4,NA,6,1013.6,"SPECI CYQF 091602Z AUTO 22004KT 6SM HZ CLR 15/09 A2993 RMK SLP143 DENSITY ALT 3700FT",2025-09-09 16:36:21.467664,2025-09-09 12:36:21.467708
"CYQB","Quebec/Lesage Intl, QC, CA",2025-09-09 16:00:00,2025-09-09 12:00:00,"VFR",17,6,NA,2,NA,30,1028.9,"METAR CYQB 091600Z VRB02KT 30SM FEW050 FEW100 FEW250 17/06 A3038 RMK SC1AC1CI1 SC TR AC TR SLP292",2025-09-09 16:36:21.474587,2025-09-09 12:36:21.474633
"CYQG","Windsor Intl, ON, CA",2025-09-09 16:00:00,2025-09-09 12:00:00,"VFR",22,7,210,11,NA,9,1024.5,"METAR CYQG 091600Z AUTO 21011KT 9SM CLR 22/07 A3025 RMK SLP246 DENSITY ALT 1300FT",2025-09-09 16:36:21.481205,2025-09-09 12:36:21.481267
"CYQM","Moncton Intl, NB, CA",2025-09-09 16:00:00,2025-09-09 12:00:00,"VFR",20,5,250,7,NA,15,1028.5,"METAR CYQM 091600Z 25007KT 220V290 15SM FEW056 FEW240 20/05 A3037 RMK CU1CI1 CU TR SLP288",2025-09-09 16:36:21.487818,2025-09-09 12:36:21.487863
"CYUL","Montreal/Trudeau Intl, QC, CA",2025-09-09 16:00:00,2025-09-09 12:00:00,"VFR",18,10,240,5,NA,30,1028.2,"METAR CYUL 091600Z 24005KT 180V310 30SM FEW028 FEW250 18/10 A3036 RMK CF1CI2 CF TR SLP284",2025-09-09 16:36:21.494437,2025-09-09 12:36:21.494482
"CYVR","Vancouver Intl, BC, CA",2025-09-09 16:00:00,2025-09-09 12:00:00,"VFR",18,17,320,3,NA,15,1014.3,"METAR CYVR 091600Z 32003KT 280V360 15SM FEW010 FEW015 BKN048 18/17 A2995 RMK SC1SC1SC7 SC TR SC TR SLP145 DENSITY ALT 400FT",2025-09-09 16:36:21.501038,2025-09-09 12:36:21.50109
"CYWG","Winnipeg Intl Arpt, MB, CA",2025-09-09 16:00:00,2025-09-09 12:00:00,"VFR",21,15,NA,3,NA,15,1015,"METAR CYWG 091600Z VRB03KT 15SM SKC 21/15 A2997 RMK SLP154 DENSITY ALT 1600FT",2025-09-09 16:36:21.510301,2025-09-09 12:36:21.510348
"CYYZ","Toronto/Pearson Intl, ON, CA",2025-09-09 16:00:00,2025-09-09 12:00:00,"VFR",19,11,170,5,NA,15,1025.8,"METAR CYYZ 091600Z 17005KT 15SM FEW030 FEW250 19/11 A3029 RMK CU1CI1 CU TR SLP260 DENSITY ALT 800FT",2025-09-09 16:36:21.517094,2025-09-09 12:36:21.517139
"CYZV","Sept-Îles Arpt, QC, CA",2025-09-09 16:00:00,2025-09-09 12:00:00,"VFR",13,6,160,8,NA,30,1027.9,"METAR CYZV 091600Z 16008KT 30SM FEW050 FEW120 FEW180 BKN260 13/06 A3035 RMK CU1AC1AC1CI4 AC TR SLP280",2025-09-09 16:36:21.524173,2025-09-09 12:36:21.524217
"CYQA","Muskoka Arpt, ON, CA",2025-09-09 16:00:00,2025-09-09 12:00:00,"VFR",19,7,160,11,NA,9,1025.8,"METAR CYQA 091600Z AUTO 16011KT 150V210 9SM CLR 19/07 A3029 RMK SLP265 DENSITY ALT 1200FT",2025-09-09 16:36:21.530823,2025-09-09 12:36:21.530867
"CYVO","Val D'Or Arpt, QC, CA",2025-09-09 16:00:00,2025-09-09 12:00:00,"VFR",14,7,180,9,15,15,1023.1,"METAR CYVO 091600Z 18009G15KT 15SM BKN070 OVC100 14/07 A3021 RMK AC5AC3 SLP243",2025-09-09 16:36:21.537491,2025-09-09 12:36:21.537538
"CYQR","Regina Intl Arpt, SK, CA",2025-09-09 16:00:00,2025-09-09 12:00:00,"VFR",22,9,20,3,NA,15,1016,"METAR CYQR 091600Z 02003KT 300V050 15SM SKC 22/09 A3000 RMK SLP163 DENSITY ALT 3100FT",2025-09-09 16:36:21.544111,2025-09-09 12:36:21.544155
"CYYG","Charlottetown Arpt, PE, CA",2025-09-09 16:00:00,2025-09-09 12:00:00,"VFR",19,8,170,10,16,15,1028.5,"METAR CYYG 091600Z 17010G16KT 120V200 15SM BKN057 BKN250 19/08 A3037 RMK SC5CI1 SLP287",2025-09-09 16:36:21.550653,2025-09-09 12:36:21.550697
"CYRJ","Roberval Arpt, QC, CA",2025-09-09 16:00:00,2025-09-09 12:00:00,"VFR",17,6,220,10,16,40,1026.2,"METAR CYRJ 091600Z 22010G16KT 40SM FEW060 BKN120 BKN240 17/06 A3030 RMK SC2AC4CI1 CI TR SLP269",2025-09-09 16:36:21.557301,2025-09-09 12:36:21.557347
"CYVV","Wiarton Arpt, ON, CA",2025-09-09 16:00:00,2025-09-09 12:00:00,"VFR",18,11,230,9,NA,15,1025.1,"METAR CYVV 091600Z 23009KT 180V250 15SM FEW030 OVC250 18/11 A3027 RMK CF1CI8 CF TR SLP256",2025-09-09 16:36:21.563862,2025-09-09 12:36:21.563905
"CYXE","Saskatoon/Diefenbaker Intl, SK, CA",2025-09-09 16:00:00,2025-09-09 12:00:00,"VFR",18,12,80,5,NA,12,1015.3,"METAR CYXE 091600Z 08005KT 12SM FEW028 FEW300 18/12 A2998 RMK CU1CI1 CU TR CI TR FU SLP161 DENSITY ALT 2400FT",2025-09-09 16:36:21.572833,2025-09-09 12:36:21.572876
"CYXS","Prince George Arpt, BC, CA",2025-09-09 16:00:00,2025-09-09 12:00:00,"MVFR",12,11,190,3,NA,5,1014,"METAR CYXS 091600Z AUTO 19003KT 5SM BR CLR 12/11 A2994 RMK SLP150",2025-09-09 16:36:21.579541,2025-09-09 12:36:21.579588
"CYLW","Kelowna Arpt, BC, CA",2025-09-09 16:00:00,2025-09-09 12:00:00,"VFR",18,12,0,0,NA,9,1013.3,"METAR CYLW 091600Z AUTO 00000KT 9SM CLR 18/12 A2992 RMK SLP132 DENSITY ALT 2100FT",2025-09-09 16:36:21.586136,2025-09-09 12:36:21.58618
"CYOW","Ottawa/Cartier Intl, ON, CA",2025-09-09 16:00:00,2025-09-09 12:00:00,"VFR",18,9,270,3,NA,15,1027.9,"METAR CYOW 091600Z 27003KT 180V330 15SM FEW250 18/09 A3035 RMK CI1 CI TR SLP282",2025-09-09 16:36:21.592788,2025-09-09 12:36:21.592831
"CYHZ","Halifax/Stanfield Intl, NS, CA",2025-09-09 16:00:00,2025-09-09 12:00:00,"VFR",19,8,310,4,NA,15,1028.9,"METAR CYHZ 091600Z 31004KT 280V010 15SM FEW045 BKN250 19/08 A3038 RMK CU2CS5 CI ASOCTD SLP292",2025-09-09 16:36:21.599415,2025-09-09 12:36:21.599463
"CYPL","Pickle Lake Arpt, ON, CA",2025-09-09 16:00:00,2025-09-09 12:00:00,"VFR",17,11,360,3,NA,9,1015,"METAR CYPL 091600Z AUTO 36003KT 310V060 9SM CLR 17/11 A2997 RMK SLP158 DENSITY ALT 1800FT",2025-09-09 16:36:21.60599,2025-09-09 12:36:21.606037
"CYQQ","Comox(MIL), BC, CA",2025-09-09 16:00:00,2025-09-09 12:00:00,"MVFR",17,13,310,7,NA,20,1015.3,"METAR CYQQ 091600Z 31007KT 20SM BKN019 17/13 A2998 RMK SC5 DENSITY ALT 404FT SLP152",2025-09-09 16:36:21.612564,2025-09-09 12:36:21.612609
"CYUY","Rouyn/Noranda Arpt, QC, CA",2025-09-09 16:00:00,2025-09-09 12:00:00,"VFR",12,9,190,9,NA,15,1021.8,"METAR CYUY 091600Z 19009KT 15SM -RA OVC051 12/09 A3017 RMK SC8 SLP225",2025-09-09 16:36:21.61927,2025-09-09 12:36:21.61933
"CYYC","Calgary Intl, AB, CA",2025-09-09 16:00:00,2025-09-09 12:00:00,"VFR",17,9,NA,2,NA,15,1014.6,"METAR CYYC 091600Z VRB02KT 15SM SKC 17/09 A2996 RMK SLP144 DENSITY ALT 4600FT",2025-09-09 16:36:21.628418,2025-09-09 12:36:21.62847
"CYYJ","Victoria Intl, BC, CA",2025-09-09 16:00:00,2025-09-09 12:00:00,"VFR",17,14,NA,2,NA,30,1014.6,"METAR CYYJ 091600Z VRB02KT 30SM FEW020 BKN044 BKN065 17/14 A2996 RMK SC1SC7SC1 SC TR SC TR SLP146 DENSITY ALT 300FT",2025-09-09 16:36:21.635266,2025-09-09 12:36:21.635316
"CYXT","Terrace Arpt, BC, CA",2025-09-09 16:00:00,2025-09-09 12:00:00,"VFR",14,11,290,4,NA,20,1016.7,"METAR CYXT 091600Z 29004KT 20SM FEW017 FEW024 BKN045 BKN210 14/11 A3002 RMK CF1CF1SC7CI1 CF TR CF TR CI TR SLP172",2025-09-09 16:36:21.642141,2025-09-09 12:36:21.642185
"CYYB","North Bay/Garland Arpt, ON, CA",2025-09-09 16:00:00,2025-09-09 12:00:00,"VFR",17,10,200,12,18,30,1024.8,"METAR CYYB 091600Z 20012G18KT 30SM FEW030 FEW120 BKN280 17/10 A3026 RMK CU1AC1CI4 SLP255",2025-09-09 16:36:21.648795,2025-09-09 12:36:21.648844
"CYQT","Thunder Bay Intl, ON, CA",2025-09-09 16:00:00,2025-09-09 12:00:00,"IFR",16,15,30,4,NA,NA,1014.3,"METAR CYQT 091600Z 03004KT 300V040 10SM BKN008 OVC023 16/15 A2995 RMK SC6SC2 SLP148 DENSITY ALT 1000FT",2025-09-09 16:36:21.655539,2025-09-09 12:36:21.65559
"CYSB","Sudbury Arpt, ON, CA",2025-09-09 16:00:00,2025-09-09 12:00:00,"VFR",18,10,220,14,22,20,1023.1,"METAR CYSB 091600Z 22014G22KT 20SM FEW022 BKN050 BKN190 18/10 A3021 RMK CF1CU4CI1 SLP237 DENSITY ALT 1500FT",2025-09-09 16:36:21.662174,2025-09-09 12:36:21.662218
"CYTS","Timmins/Power Arpt, ON, CA",2025-09-09 16:00:00,2025-09-09 12:00:00,"MVFR",12,12,200,11,NA,3,1018,"METAR CYTS 091600Z 20011KT 3SM -RA BR SCT010 OVC015 12/12 A3006 RMK SC4SC4 SLP190",2025-09-09 16:36:21.668763,2025-09-09 12:36:21.668807
"CYGK","Kingston Arpt, ON, CA",2025-09-09 16:00:00,2025-09-09 12:00:00,"VFR",18,12,170,10,NA,15,1028.2,"METAR CYGK 091600Z 17010KT 15SM FEW024 OVC240 18/12 A3036 RMK CU2CS6 SLP284",2025-09-09 16:36:21.675385,2025-09-09 12:36:21.675431
"CYHU","Montreal/St Hubert, QC, CA",2025-09-09 16:00:00,2025-09-09 12:00:00,"VFR",19,11,NA,4,NA,9,1028.2,"METAR CYHU 091600Z AUTO VRB04KT 9SM CLR 19/11 A3036 RMK SLP283",2025-09-09 16:36:21.68208,2025-09-09 12:36:21.682124
"CYMM","Fort McMurray Arpt, AB, CA",2025-09-09 16:00:00,2025-09-09 12:00:00,"MVFR",15,10,90,6,NA,5,1010.9,"METAR CYMM 091600Z AUTO 09006KT 5SM HZ CLR 15/10 A2985 RMK SLP121 DENSITY ALT 1600FT",2025-09-09 16:36:21.691203,2025-09-09 12:36:21.691263
"CYAM","Sault Ste Marie Arpt, ON, CA",2025-09-09 16:00:00,2025-09-09 12:00:00,"VFR",18,12,190,11,17,20,1019,"METAR CYAM 091600Z 19011G17KT 20SM FEW018 SCT082 BKN099 BKN150 OVC250 18/12 A3009 RMK CU1AC2AC2AS2CI1 SLP193 DENSITY ALT 1000FT",2025-09-09 16:36:21.697924,2025-09-09 12:36:21.697967
"CYBC","Baie Comeau Arpt, QC, CA",2025-09-09 16:00:00,2025-09-09 12:00:00,"VFR",13,7,210,10,NA,9,1028.2,"METAR CYBC 091600Z AUTO 21010KT 9SM FEW150 13/07 A3036 RMK SLP282",2025-09-09 16:36:21.704561,2025-09-09 12:36:21.704605
"CYBR","Brandon Arpt, MB, CA",2025-09-09 16:00:00,2025-09-09 12:00:00,"VFR",19,13,70,8,NA,15,1015.7,"METAR CYBR 091600Z 07008KT 15SM FEW250 19/13 A2999 RMK CI2 SLP162 DENSITY ALT 2100FT",2025-09-09 16:36:21.711125,2025-09-09 12:36:21.711169
"CYEG","Edmonton Intl Arpt, AB, CA",2025-09-09 16:00:00,2025-09-09 12:00:00,"VFR",17,11,180,6,NA,8,1011.9,"METAR CYEG 091600Z 18006KT 8SM SKC 17/11 A2988 RMK FU SLP124 DENSITY ALT 3200FT",2025-09-09 16:36:21.7178,2025-09-09 12:36:21.717848
"CYXX","Abbotsford Intl, BC, CA",2025-09-09 16:33:00,2025-09-09 12:33:00,"IFR",16,16,0,0,NA,4,1014.6,"SPECI CYXX 091633Z 00000KT 4SM BR BKN005 OVC008 16/16 A2996 RMK SF6SC2 VIS SW 2 SLP146 DENSITY ALT 400FT",2025-09-09 16:36:22.957152,2025-09-09 12:36:22.957199
"CYPR","Prince Rupert Arpt, BC, CA",2025-09-09 16:31:00,2025-09-09 12:31:00,NA,13,13,NA,2,NA,NA,1017.4,"SPECI CYPR 091631Z AUTO VRB02KT BKN006 OVC009 13/13 A3004 RMK WX MISG VIS MISG SLP176",2025-09-09 16:36:22.966146,2025-09-09 12:36:22.966191
"CYCO","Coppermine/Kugluktuk Arpt, NU, CA",2025-09-09 16:07:00,2025-09-09 12:07:00,"VFR",9,7,320,3,NA,6,1008.2,"SPECI CYCO 091607Z 32003KT 200V350 6SM FU BKN210 09/07 A2977 RMK CS7 SLP084",2025-09-09 16:36:22.972888,2025-09-09 12:36:22.972937
"CYFC","Fredericton Intl, NB, CA",2025-09-09 16:00:00,2025-09-09 12:00:00,"VFR",19,8,NA,5,NA,9,1028.9,"METAR CYFC 091600Z AUTO VRB05KT 9SM CLR 19/08 A3038 RMK SLP290",2025-09-09 16:36:22.97959,2025-09-09 12:36:22.979636
"CYTR","Trenton(MIL), ON, CA",2025-09-09 16:00:00,2025-09-09 12:00:00,"VFR",20,10,170,6,NA,15,1027.2,"METAR CYTR 091600Z 17006KT 120V230 15SM FEW036 20/10 A3033 RMK CU1 DENSITY ALT 660FT CONTRAILS SLP271",2025-09-09 16:36:22.986357,2025-09-09 12:36:22.986402
"CYYT","St Johns Intl, NL, CA",2025-09-09 16:00:00,2025-09-09 12:00:00,"VFR",17,9,280,11,NA,15,1025.5,"METAR CYYT 091600Z 28011KT 15SM FEW032 BKN120 BKN160 OVC220 17/09 A3028 RMK CU1AC5AC1CI1 SLP258",2025-09-09 16:36:22.992976,2025-09-09 12:36:22.99302
"CYZF","Yellowknife Arpt, NT, CA",2025-09-09 16:00:00,2025-09-09 12:00:00,"VFR",12,9,130,12,NA,15,1006.5,"METAR CYZF 091600Z 13012KT 15SM FEW020 BKN140 12/09 A2972 RMK SC1AC5 SC TR SLP074",2025-09-09 16:36:22.999645,2025-09-09 12:36:22.999688
"CYRT","Rankin Inlet Arpt, NU, CA",2025-09-09 16:00:00,2025-09-09 12:00:00,"MVFR",7,2,40,10,NA,15,1015.3,"METAR CYRT 091600Z 04010KT 15SM FEW013 BKN024 BKN040 07/02 A2998 RMK SC2CU4SC1 SH DST SE-W SLP155",2025-09-09 16:36:23.006277,2025-09-09 12:36:23.006324
"CYRB","Resolute Bay Arpt, NU, CA",2025-09-09 16:00:00,2025-09-09 12:00:00,"LIFR",-2,-2,300,4,NA,0.5,1012.3,"METAR CYRB 091600Z 30004KT 1/2SM R35/2200V2600FT/N FZFG OVC002 M02/M02 A2989 RMK FG6ST2 SLP131",2025-09-09 16:36:23.012864,2025-09-09 12:36:23.012908
"CYBK","Baker Lake Arpt, NU, CA",2025-09-09 16:00:00,2025-09-09 12:00:00,"MVFR",6,1,230,3,NA,20,1016.7,"METAR CYBK 091600Z 23003KT 200V320 20SM BKN019 06/01 A3002 RMK SC6 SLP169",2025-09-09 16:36:23.021845,2025-09-09 12:36:23.021888
"CYHD","Dryden Rgnl, ON, CA",2025-09-09 16:00:00,2025-09-09 12:00:00,"VFR",17,11,50,5,NA,9,1015.7,"METAR CYHD 091600Z AUTO 05005KT 020V140 9SM CLR 17/11 A2999 RMK SLP164 DENSITY ALT 1800FT",2025-09-09 16:36:23.028435,2025-09-09 12:36:23.028481
"CYAZ","Tofino Arpt, BC, CA",2025-09-09 16:00:00,2025-09-09 12:00:00,"LIFR",14,14,NA,2,NA,0.25,1015,"METAR CYAZ 091600Z VRB02KT 1/4SM FG VV002 14/14 A2997 RMK FG8 SLP150",2025-09-09 16:36:23.035163,2025-09-09 12:36:23.035207
"CYXS","Prince George Arpt, BC, CA",2025-09-09 16:00:00,2025-09-09 12:00:00,"MVFR",12,11,190,3,NA,5,1014,"METAR CYXS 091600Z AUTO 19003KT 5SM BR CLR 12/11 A2994 RMK SLP150",2025-09-09 16:36:23.041722,2025-09-09 12:36:23.041766
"CYQH","Watson Lake Arpt, YT, CA",2025-09-09 16:00:00,2025-09-09 12:00:00,"VFR",10,5,0,0,NA,30,1011.9,"METAR CYQH 091600Z 00000KT 30SM BKN060 BKN110 10/05 A2988 RMK CU5AC1 SLP134",2025-09-09 16:36:23.048277,2025-09-09 12:36:23.048326
"CYQU","Grande Prairie Arpt, AB, CA",2025-09-09 16:00:00,2025-09-09 12:00:00,"MVFR",16,9,240,5,NA,4,1010.6,"METAR CYQU 091600Z 24005KT 4SM FU FEW150 16/09 A2984 RMK AC1 SLP109 DENSITY ALT 3000FT",2025-09-09 16:36:23.054875,2025-09-09 12:36:23.054922
"CYWL","Williams Lake Rgnl, BC, CA",2025-09-09 16:00:00,2025-09-09 12:00:00,"IFR",13,12,110,5,NA,2.5,1015.3,"METAR CYWL 091600Z 11005KT 2 1/2SM FU SCT059 BKN100 13/12 A2998 RMK FU3SC1AC1 VIS 3/4 E-S SLP156 DENSITY ALT 3500FT",2025-09-09 16:36:23.061515,2025-09-09 12:36:23.061559
"CYMH","Mary's Harbor Arpt, NL, CA",2025-09-09 16:00:00,2025-09-09 12:00:00,"VFR",13,5,300,8,16,9,1020.7,"METAR CYMH 091600Z AUTO 30008G16KT 280V360 9SM SCT044 13/05 A3014 RMK SLP209",2025-09-09 16:36:23.068118,2025-09-09 12:36:23.068168
"CYQQ","Comox(MIL), BC, CA",2025-09-09 16:00:00,2025-09-09 12:00:00,"MVFR",17,13,310,7,NA,20,1015.3,"METAR CYQQ 091600Z 31007KT 20SM BKN019 17/13 A2998 RMK SC5 DENSITY ALT 404FT SLP152",2025-09-09 16:36:23.074742,2025-09-09 12:36:23.07479
"CYQX","Gander Intl Arpt, NL, CA",2025-09-09 16:00:00,2025-09-09 12:00:00,"VFR",18,6,270,14,19,20,1024.5,"METAR CYQX 091600Z 27014G19KT 20SM FEW051 BKN230 18/06 A3025 RMK CU1CC6 SLP247",2025-09-09 16:36:23.094407,2025-09-09 12:36:23.094451
"CYQY","Sydney Arpt, NS, CA",2025-09-09 16:00:00,2025-09-09 12:00:00,"VFR",20,7,340,6,NA,15,1028.2,"METAR CYQY 091600Z 34006KT 190V360 15SM SCT051 BKN240 20/07 A3036 RMK CU3CI2 SLP283",2025-09-09 16:36:23.101129,2025-09-09 12:36:23.101172
"CYUY","Rouyn/Noranda Arpt, QC, CA",2025-09-09 16:00:00,2025-09-09 12:00:00,"VFR",12,9,190,9,NA,15,1021.8,"METAR CYUY 091600Z 19009KT 15SM -RA OVC051 12/09 A3017 RMK SC8 SLP225",2025-09-09 16:36:23.107801,2025-09-09 12:36:23.107845
"CYXU","London Intl, ON, CA",2025-09-09 16:00:00,2025-09-09 12:00:00,"VFR",21,11,180,6,NA,15,1025.5,"METAR CYXU 091600Z 18006KT 140V220 15SM FEW050 FEW210 21/11 A3028 RMK SC1CI1 SC TR SLP257 DENSITY ALT 1400FT",2025-09-09 16:36:23.114422,2025-09-09 12:36:23.114468
"CYXY","Whitehorse Arpt, YT, CA",2025-09-09 16:00:00,2025-09-09 12:00:00,"VFR",7,5,NA,2,NA,40,1012.3,"METAR CYXY 091600Z VRB02KT 40SM FEW060 FEW140 07/05 A2989 RMK SC1AC1 SLP147",2025-09-09 16:36:23.121124,2025-09-09 12:36:23.121169
"CYZP","Sandspit Arpt, BC, CA",2025-09-09 16:00:00,2025-09-09 12:00:00,"MVFR",15,10,300,7,NA,9,1018.7,"METAR CYZP 091600Z AUTO 30007KT 9SM OVC026 15/10 A3008 RMK SLP188",2025-09-09 16:36:23.127781,2025-09-09 12:36:23.127825
"CYOD","Cold Lake (Mil), AB, CA",2025-09-09 16:00:00,2025-09-09 12:00:00,"VFR",17,11,120,6,NA,8,1013.6,"METAR CYOD 091600Z 12006KT 8SM FEW250 17/11 A2993 RMK CI1 DENSITY ALT 2593FT FU SLP144",2025-09-09 16:36:23.134432,2025-09-09 12:36:23.134478
"CYQK","Kenora Arpt, ON, CA",2025-09-09 16:00:00,2025-09-09 12:00:00,"VFR",19,9,NA,2,NA,20,1015.7,"METAR CYQK 091600Z VRB02KT 20SM FEW250 19/09 A2999 RMK CI1 CI TR SLP162 DENSITY ALT 2100FT",2025-09-09 16:36:23.141291,2025-09-09 12:36:23.14134
"CYQT","Thunder Bay Intl, ON, CA",2025-09-09 16:00:00,2025-09-09 12:00:00,"IFR",16,15,30,4,NA,NA,1014.3,"METAR CYQT 091600Z 03004KT 300V040 10SM BKN008 OVC023 16/15 A2995 RMK SC6SC2 SLP148 DENSITY ALT 1000FT",2025-09-09 16:36:23.150698,2025-09-09 12:36:23.150742
"CYAM","Sault Ste Marie Arpt, ON, CA",2025-09-09 16:00:00,2025-09-09 12:00:00,"VFR",18,12,190,11,17,20,1019,"METAR CYAM 091600Z 19011G17KT 20SM FEW018 SCT082 BKN099 BKN150 OVC250 18/12 A3009 RMK CU1AC2AC2AS2CI1 SLP193 DENSITY ALT 1000FT",2025-09-09 16:36:23.157385,2025-09-09 12:36:23.157432
"CYBL","Campbell River Arpt, BC, CA",2025-09-09 16:00:00,2025-09-09 12:00:00,"MVFR",15,14,310,7,NA,20,1015.3,"METAR CYBL 091600Z 31007KT 20SM FEW007 BKN017 15/14 A2998 RMK SF1SC7 SF TR VIS LWR S-SW DUE LO CLD SLP156",2025-09-09 16:36:23.164081,2025-09-09 12:36:23.164125
"CYCD","Nanaimo Arpt, BC, CA",2025-09-09 16:00:00,2025-09-09 12:00:00,"VFR",17,14,20,6,NA,20,1015,"METAR CYCD 091600Z 02006KT 20SM FEW006 BKN046 17/14 A2997 RMK SF1SC7 SF TR SLP150 DENSITY ALT 300FT",2025-09-09 16:36:23.170736,2025-09-09 12:36:23.170781
"CYDF","Deer Lake Arpt, NL, CA",2025-09-09 16:00:00,2025-09-09 12:00:00,"VFR",18,5,240,15,22,15,1025.1,"METAR CYDF 091600Z 24015G22KT 220V290 15SM SCT056 SCT250 18/05 A3027 RMK CU3CI1 SLP254",2025-09-09 16:36:23.177434,2025-09-09 12:36:23.177481
"CYDP","Nain Arpt, NL, CA",2025-09-09 16:00:00,2025-09-09 12:00:00,"VFR",12,2,300,17,25,15,1016.7,"METAR CYDP 091600Z 30017G25KT 15SM BKN051 12/02 A3002 RMK SC5 SLP167",2025-09-09 16:36:23.184047,2025-09-09 12:36:23.184092
"CYHM","Hamilton/Munro Intl, ON, CA",2025-09-09 16:00:00,2025-09-09 12:00:00,"VFR",21,10,140,10,NA,15,1025.8,"METAR CYHM 091600Z 14010KT 130V200 15SM FEW050 21/10 A3029 RMK CU1 SLP262 DENSITY ALT 1300FT",2025-09-09 16:36:23.19076,2025-09-09 12:36:23.190803
"CYKF","Waterloo Intl, ON, CA",2025-09-09 16:00:00,2025-09-09 12:00:00,"VFR",20,8,180,7,NA,9,1025.8,"METAR CYKF 091600Z AUTO 18007KT 150V220 9SM CLR 20/08 A3029 RMK SLP260 DENSITY ALT 1600FT",2025-09-09 16:36:23.197369,2025-09-09 12:36:23.197414
"CYTZ","Toronto/Bishop Arpt, ON, CA",2025-09-09 16:00:00,2025-09-09 12:00:00,"VFR",17,13,70,6,NA,9,1026.2,"METAR CYTZ 091600Z AUTO 07006KT 9SM CLR 17/13 A3030 RMK SLP263",2025-09-09 16:36:23.203916,2025-09-09 12:36:23.203959
"CYBG","Bagotville(MIL), QC, CA",2025-09-09 16:00:00,2025-09-09 12:00:00,"VFR",15,9,90,6,NA,25,1027.5,"METAR CYBG 091600Z 09006KT 25SM FEW025 BKN180 15/09 A3034 RMK CU2AC5 DENSITY ALT 348FT SLP280",2025-09-09 16:36:23.213216,2025-09-09 12:36:23.213288
"CYFB","Iqaluit Arpt, NU, CA",2025-09-09 16:00:00,2025-09-09 12:00:00,"MVFR",7,4,320,11,18,30,1009.9,"METAR CYFB 091600Z 32011G18KT 30SM BKN018 07/04 A2982 RMK SC7 SLP102",2025-09-09 16:36:23.219887,2025-09-09 12:36:23.219933
"CYGL","La Grande Riviere Arpt, QC, CA",2025-09-09 16:27:00,2025-09-09 12:27:00,"VFR",12,10,210,7,NA,15,1014,"SPECI CYGL 091627Z 21007KT 15SM SCT022 BKN051 OVC090 12/10 A2994 RMK SC3SC3AC2 SLP148",2025-09-09 16:36:25.022472,2025-09-09 12:36:25.022514
"CYMT","Chibougamau Arpt, QC, CA",2025-09-09 16:15:00,2025-09-09 12:15:00,"VFR",13,9,190,14,23,9,1023.1,"SPECI CYMT 091615Z AUTO 19014G23KT 9SM -RA BKN045 OVC050 13/09 A3021 RMK SLP244",2025-09-09 16:36:25.029163,2025-09-09 12:36:25.029207
"CYCO","Coppermine/Kugluktuk Arpt, NU, CA",2025-09-09 16:07:00,2025-09-09 12:07:00,"VFR",9,7,320,3,NA,6,1008.2,"SPECI CYCO 091607Z 32003KT 200V350 6SM FU BKN210 09/07 A2977 RMK CS7 SLP084",2025-09-09 16:36:25.035809,2025-09-09 12:36:25.035855
"CYHA","Quaqtaq Arpt, QC, CA",2025-09-09 16:00:00,2025-09-09 12:00:00,"VFR",8,3,300,6,NA,15,1013.3,"METAR CYHA 091600Z 30006KT 15SM FEW035 FEW070 08/03 A2992 RMK SC1AC1 AC TR SLP135",2025-09-09 16:36:25.046681,2025-09-09 12:36:25.046768
"CYKJ","Key Lake Arpt, SK, CA",2025-09-09 16:00:00,2025-09-09 12:00:00,"VFR",13,8,170,7,NA,9,1015.7,"METAR CYKJ 091600Z AUTO 17007KT 9SM CLR 13/08 A2999 RMK SLP175",2025-09-09 16:36:25.065521,2025-09-09 12:36:25.065567
"CYBC","Baie Comeau Arpt, QC, CA",2025-09-09 16:00:00,2025-09-09 12:00:00,"VFR",13,7,210,10,NA,9,1028.2,"METAR CYBC 091600Z AUTO 21010KT 9SM FEW150 13/07 A3036 RMK SLP282",2025-09-09 16:36:25.07753,2025-09-09 12:36:25.077629
"CYPC","Paulatuk Arpt, NT, CA",2025-09-09 16:00:00,2025-09-09 12:00:00,"VFR",6,6,60,2,NA,15,1005.8,"METAR CYPC 091600Z 06002KT 15SM SCT190 BKN250 06/06 A2970 RMK AC4CS2 SLP058",2025-09-09 16:36:25.090001,2025-09-09 12:36:25.090057
"CYVC","La Ronge Arpt, SK, CA",2025-09-09 16:00:00,2025-09-09 12:00:00,"VFR",15,11,100,5,NA,15,1017,"METAR CYVC 091600Z 10005KT 15SM FEW200 15/11 A3003 RMK CI2 SLP180",2025-09-09 16:36:25.097772,2025-09-09 12:36:25.097818
"CYGV","Havre St Pierre Arpt, QC, CA",2025-09-09 16:00:00,2025-09-09 12:00:00,"VFR",14,4,250,13,21,9,1026.8,"METAR CYGV 091600Z AUTO 25013G21KT 9SM SCT160 14/04 A3032 RMK SLP271",2025-09-09 16:36:25.104441,2025-09-09 12:36:25.104485
"CYLK","Lutselke Arpt, NT, CA",2025-09-09 16:00:00,2025-09-09 12:00:00,"VFR",14,8,90,4,NA,25,1009.9,"METAR CYLK 091600Z 09004KT 060V150 25SM FEW065 SCT120 BKN210 14/08 A2982 RMK SC2AC1CI3 FU SLP106",2025-09-09 16:36:25.111145,2025-09-09 12:36:25.111191
"CYXP","Pangnirtung Arpt, NU, CA",2025-09-09 16:00:00,2025-09-09 12:00:00,"VFR",7,1,240,16,NA,15,1003.8,"METAR CYXP 091600Z 24016KT 15SM FEW032 07/01 A2964 RMK CF1 SLP040",2025-09-09 16:36:25.117775,2025-09-09 12:36:25.117819
"CYCK","Chatham/Kent Arpt, ON, CA",2025-09-09 16:00:00,2025-09-09 12:00:00,"VFR",21,9,220,8,NA,9,1024.8,"METAR CYCK 091600Z AUTO 22008KT 180V240 9SM CLR 21/09 A3026 RMK SLP249 DENSITY ALT 1200FT",2025-09-09 16:36:25.124456,2025-09-09 12:36:25.124501
"CYVO","Val D'Or Arpt, QC, CA",2025-09-09 16:00:00,2025-09-09 12:00:00,"VFR",14,7,180,9,15,15,1023.1,"METAR CYVO 091600Z 18009G15KT 15SM BKN070 OVC100 14/07 A3021 RMK AC5AC3 SLP243",2025-09-09 16:36:25.13396,2025-09-09 12:36:25.134004
"CYRJ","Roberval Arpt, QC, CA",2025-09-09 16:00:00,2025-09-09 12:00:00,"VFR",17,6,220,10,16,40,1026.2,"METAR CYRJ 091600Z 22010G16KT 40SM FEW060 BKN120 BKN240 17/06 A3030 RMK SC2AC4CI1 CI TR SLP269",2025-09-09 16:36:25.14058,2025-09-09 12:36:25.140629
"CYFB","Iqaluit Arpt, NU, CA",2025-09-09 16:00:00,2025-09-09 12:00:00,"MVFR",7,4,320,11,18,30,1009.9,"METAR CYFB 091600Z 32011G18KT 30SM BKN018 07/04 A2982 RMK SC7 SLP102",2025-09-09 16:36:25.147382,2025-09-09 12:36:25.147426
"CYDQ","Dawson Creek Arpt, BC, CA",2025-09-09 16:00:00,2025-09-09 12:00:00,"VFR",21,6,240,6,NA,9,1008.5,"METAR CYDQ 091600Z AUTO 24006KT 190V320 9SM CLR 21/06 A2978 RMK SLP089 DENSITY ALT 3500FT",2025-09-09 16:36:25.154006,2025-09-09 12:36:25.154051
"CYTE","Cape Dorset Arpt, NU, CA",2025-09-09 16:00:00,2025-09-09 12:00:00,"VFR",7,2,240,7,NA,15,1011.9,"METAR CYTE 091600Z 24007KT 15SM FEW024 BKN044 07/02 A2988 RMK CU1SC4 SLP125",2025-09-09 16:36:25.160617,2025-09-09 12:36:25.160663
"CYVQ","Norman Wells Arpt, NT, CA",2025-09-09 16:00:00,2025-09-09 12:00:00,"MVFR",13,12,260,5,NA,6,1004.5,"METAR CYVQ 091600Z 26005KT 6SM -SHRA FEW007 BKN024 BKN050 OVC068 13/12 A2966 RMK ST1SC5SC1AC1 CVCTV CLD EMBD SLP048",2025-09-09 16:36:25.167239,2025-09-09 12:36:25.167307
"CYQB","Quebec/Lesage Intl, QC, CA",2025-09-09 16:00:00,2025-09-09 12:00:00,"VFR",17,6,NA,2,NA,30,1028.9,"METAR CYQB 091600Z VRB02KT 30SM FEW050 FEW100 FEW250 17/06 A3038 RMK SC1AC1CI1 SC TR AC TR SLP292",2025-09-09 16:36:25.174001,2025-09-09 12:36:25.174053
"KHPN","White Plains/Westchester Cnty, NY, US",2025-09-09 15:56:00,2025-09-09 11:56:00,"VFR",21.1,4.4,80,12,17,NA,1027.5,"METAR KHPN 091556Z 08012G17KT 10SM FEW040 21/04 A3034 RMK AO2 SLP272 T02110044",2025-09-09 16:36:25.180689,2025-09-09 12:36:25.180734
"KBUF","Buffalo-Niagara Intl, NY, US",2025-09-09 15:54:00,2025-09-09 11:54:00,"VFR",21.1,7.2,170,4,NA,NA,1026.2,"METAR KBUF 091554Z 17004KT 10SM FEW055 21/07 A3030 RMK AO2 SLP262 FU ALF T02110072 $",2025-09-09 16:36:25.187479,2025-09-09 12:36:25.187523
"KPHL","Philadelphia Intl, PA, US",2025-09-09 15:54:00,2025-09-09 11:54:00,"VFR",22.8,12.8,70,9,19,NA,1026.2,"METAR KPHL 091554Z 07009G19KT 10SM BKN038 BKN250 BKN330 23/13 A3030 RMK AO2 SLP261 T02280128 $",2025-09-09 16:36:25.196857,2025-09-09 12:36:25.196903
"KROC","Rochester Intl Arpt, NY, US",2025-09-09 15:54:00,2025-09-09 11:54:00,"VFR",20.6,8.9,240,5,NA,NA,1026.8,"METAR KROC 091554Z 24005KT 10SM FEW028 FEW240 21/09 A3032 RMK AO2 SLP271 T02060089 $",2025-09-09 16:36:25.203589,2025-09-09 12:36:25.203637
"KBOS","Boston/Logan Intl, MA, US",2025-09-09 15:54:00,2025-09-09 11:54:00,"VFR",20,11.7,70,8,NA,NA,1029.2,"METAR KBOS 091554Z 07008KT 10SM FEW030 FEW250 20/12 A3039 RMK AO2 SLP291 T02000117",2025-09-09 16:36:25.210428,2025-09-09 12:36:25.210474
"KRIC","Richmond Intl, VA, US",2025-09-09 15:54:00,2025-09-09 11:54:00,"VFR",21.7,13.9,50,11,19,NA,1024.1,"METAR KRIC 091554Z 05011G19KT 10SM OVC033 22/14 A3024 RMK AO2 SLP242 T02170139",2025-09-09 16:36:25.217067,2025-09-09 12:36:25.217111
"KBWI","Baltimore-Washington Intl, MD, US",2025-09-09 15:54:00,2025-09-09 11:54:00,"VFR",22.2,10.6,80,15,NA,NA,1025.8,"METAR KBWI 091554Z 08015KT 10SM SCT041 SCT250 22/11 A3029 RMK AO2 SLP256 T02220106",2025-09-09 16:36:25.223742,2025-09-09 12:36:25.223788
"KSYR","Syracuse/Hancock Intl, NY, US",2025-09-09 15:54:00,2025-09-09 11:54:00,"VFR",20,10.6,0,0,NA,NA,1027.9,"METAR KSYR 091554Z 00000KT 10SM FEW030 SCT250 20/11 A3035 RMK AO2 SLP275 T02000106",2025-09-09 16:36:25.230544,2025-09-09 12:36:25.230593
"KIAD","Washington/Dulles Intl, VA, US",2025-09-09 15:52:00,2025-09-09 11:52:00,"VFR",22.8,10,110,8,NA,NA,1025.8,"METAR KIAD 091552Z 11008KT 10SM FEW035 SCT250 23/10 A3029 RMK AO2 SLP255 T02280100",2025-09-09 16:36:25.237223,2025-09-09 12:36:25.23729
"KDCA","Washington/Reagan-National Arpt, VA, US",2025-09-09 15:52:00,2025-09-09 11:52:00,"VFR",22.2,11.1,60,13,NA,NA,1025.5,"METAR KDCA 091552Z 06013KT 10SM FEW040 SCT250 22/11 A3028 RMK AO2 SLP251 T02220111",2025-09-09 16:36:25.244008,2025-09-09 12:36:25.244055
"KALB","Albany Intl, NY, US",2025-09-09 15:51:00,2025-09-09 11:51:00,"VFR",18.9,9.4,0,0,NA,NA,1028.5,"METAR KALB 091551Z 00000KT 10SM FEW037 SCT250 19/09 A3037 RMK AO2 SLP284 T01890094",2025-09-09 16:36:25.253689,2025-09-09 12:36:25.253733
"KPVD","Providence/Green Mem, RI, US",2025-09-09 15:51:00,2025-09-09 11:51:00,"VFR",21.1,10.6,50,11,17,NA,1028.5,"METAR KPVD 091551Z 05011G17KT 10SM FEW033 FEW250 21/11 A3037 RMK AO2 SLP285 T02110106",2025-09-09 16:36:25.260523,2025-09-09 12:36:25.260572
"KBED","Bedford/Hanscom Fld, MA, US",2025-09-09 15:51:00,2025-09-09 11:51:00,"VFR",21.7,7.8,130,11,17,NA,1028.5,"METAR KBED 091551Z 13011G17KT 10SM SCT040 22/08 A3037 RMK AO2 SLP298 T02170078 $",2025-09-09 16:36:25.26749,2025-09-09 12:36:25.267538
"KEWR","Newark Intl, NJ, US",2025-09-09 15:51:00,2025-09-09 11:51:00,"VFR",21.7,10,80,5,15,NA,1027.2,"METAR KEWR 091551Z 08005G15KT 10SM SCT040 SCT250 22/10 A3033 RMK AO2 SLP269 T02170100 $",2025-09-09 16:36:25.274225,2025-09-09 12:36:25.274292
"KLGA","New York/La Guardia Arpt, NY, US",2025-09-09 15:51:00,2025-09-09 11:51:00,"VFR",20.6,10,50,13,NA,NA,1027.2,"METAR KLGA 091551Z 05013KT 10SM FEW028 SCT250 21/10 A3033 RMK AO2 SLP269 T02060100",2025-09-09 16:36:25.281054,2025-09-09 12:36:25.281099
"KBDL","Hartford/Bradley Intl, CT, US",2025-09-09 15:51:00,2025-09-09 11:51:00,"VFR",20.6,10.6,0,0,NA,NA,1028.5,"METAR KBDL 091551Z 00000KT 10SM FEW037 FEW250 21/11 A3037 RMK AO2 SLP284 T02060106",2025-09-09 16:36:25.287933,2025-09-09 12:36:25.287977
"KJFK","New York/JF Kennedy Intl, NY, US",2025-09-09 15:51:00,2025-09-09 11:51:00,"VFR",21.7,8.3,60,11,NA,NA,1027.2,"METAR KJFK 091551Z 06011KT 10SM FEW028 FEW032 BKN250 22/08 A3033 RMK AO2 SLP270 T02170083",2025-09-09 16:36:25.294618,2025-09-09 12:36:25.294664
"KPIT","Pittsburgh Intl, PA, US",2025-09-09 15:51:00,2025-09-09 11:51:00,"VFR",20.6,6.1,NA,5,NA,NA,1025.8,"METAR KPIT 091551Z VRB05KT 10SM FEW040 FEW250 21/06 A3029 RMK AO2 SLP262 T02060061 $",2025-09-09 16:36:25.301507,2025-09-09 12:36:25.301554
"KORF","Norfolk Intl, VA, US",2025-09-09 15:51:00,2025-09-09 11:51:00,"MVFR",22.8,18.3,40,18,NA,NA,1021.8,"METAR KORF 091551Z 04018KT 10SM FEW017 BKN024 OVC031 23/18 A3017 RMK AO2 PK WND 04028/1519 SLP214 T02280183",2025-09-09 16:36:25.310924,2025-09-09 12:36:25.310983
"KLNK","Lincoln Arpt, NE, US",2025-09-09 16:32:00,2025-09-09 12:32:00,"MVFR",21.1,15,200,10,NA,NA,1016.3,"SPECI KLNK 091632Z 20010KT 10SM OVC029 21/15 A3001 RMK AO2 T02110150",2025-09-09 16:36:27.335437,2025-09-09 12:36:27.335487
"KFSD","Sioux Falls/Foss Fld, SD, US",2025-09-09 16:29:00,2025-09-09 12:29:00,"MVFR",17.8,16.7,200,4,NA,NA,1015.7,"SPECI KFSD 091629Z 20004KT 10SM -RA SCT009 BKN030 BKN110 18/17 A2999 RMK AO2 RAB14 P0001 T01780167",2025-09-09 16:36:27.342184,2025-09-09 12:36:27.342231
"KMIA","Miami Intl, FL, US",2025-09-09 16:27:00,2025-09-09 12:27:00,"MVFR",31.1,24.4,130,6,NA,NA,1014.3,"SPECI KMIA 091627Z 13006KT 10SM TS BKN026CB BKN250 31/24 A2995 RMK AO2 TSB26 OCNL LTGICCG VC W-NW TS VC W-NW MOV NE CB DSNT ALQDS MOV NE T03110244 $",2025-09-09 16:36:27.348961,2025-09-09 12:36:27.349006
"KSDF","Louisville Intl, KY, US",2025-09-09 15:56:00,2025-09-09 11:56:00,"VFR",22.2,9.4,0,0,NA,NA,1022.8,"METAR KSDF 091556Z 00000KT 10SM FEW350 22/09 A3020 RMK AO2 SLP222 T02220094",2025-09-09 16:36:27.356445,2025-09-09 12:36:27.356532
"KDAY","Dayton/Cox Intl, OH, US",2025-09-09 15:56:00,2025-09-09 11:56:00,"VFR",21.7,5,100,3,NA,NA,1024.1,"METAR KDAY 091556Z 10003KT 10SM FEW250 22/05 A3024 RMK AO2 SLP236 T02170050",2025-09-09 16:36:27.364687,2025-09-09 12:36:27.364734
"KJAX","Jacksonville Intl, FL, US",2025-09-09 15:56:00,2025-09-09 11:56:00,"MVFR",25,23,10,13,19,NA,1017.4,"METAR KJAX 091556Z 01013G19KT 10SM -RA FEW008 BKN014 OVC110 25/23 A3004",2025-09-09 16:36:27.374372,2025-09-09 12:36:27.374439
"KCHS","Charleston Intl, SC, US",2025-09-09 15:56:00,2025-09-09 11:56:00,"VFR",23.9,13.3,30,13,NA,NA,1020.1,"METAR KCHS 091556Z 03013KT 10SM SCT180 BKN250 24/13 A3012 RMK AO2 SLP200 T02390133",2025-09-09 16:36:27.381183,2025-09-09 12:36:27.381228
"KSBN","South Bend Rgnl, IN, US",2025-09-09 15:54:00,2025-09-09 11:54:00,"VFR",21.1,8.9,210,6,NA,NA,1023.5,"METAR KSBN 091554Z 21006KT 10SM CLR 21/09 A3022 RMK AO2 SLP232 T02110089",2025-09-09 16:36:27.38799,2025-09-09 12:36:27.388037
"KDSM","Des Moines Intl, IA, US",2025-09-09 15:54:00,2025-09-09 11:54:00,"VFR",17.2,9.4,190,6,NA,NA,1018,"METAR KDSM 091554Z 19006KT 10SM FEW070 FEW110 SCT190 OVC210 17/09 A3006 RMK AO2 SLP175 T01720094",2025-09-09 16:36:27.39477,2025-09-09 12:36:27.394816
"KIND","Indianapolis Intl, IN, US",2025-09-09 15:54:00,2025-09-09 11:54:00,"VFR",22.2,7.8,170,7,NA,NA,1023.1,"METAR KIND 091554Z 17007KT 10SM BKN250 22/08 A3021 RMK AO2 SLP226 T02220078",2025-09-09 16:36:27.401536,2025-09-09 12:36:27.401582
"KFWA","Fort Wayne Intl, IN, US",2025-09-09 15:54:00,2025-09-09 11:54:00,"VFR",22.2,8.3,200,9,NA,NA,1023.8,"METAR KFWA 091554Z 20009KT 10SM SCT250 22/08 A3023 RMK AO2 SLP237 T02220083",2025-09-09 16:36:27.408325,2025-09-09 12:36:27.408372
"KGSO","Greensboro Intl, NC, US",2025-09-09 15:54:00,2025-09-09 11:54:00,"VFR",20.6,7.2,60,14,20,NA,1024.1,"METAR KGSO 091554Z 06014G20KT 10SM FEW060 FEW250 21/07 A3024 RMK AO2 SLP235 T02060072",2025-09-09 16:36:27.41493,2025-09-09 12:36:27.414976
"KMEM","Memphis Intl, TN, US",2025-09-09 15:54:00,2025-09-09 11:54:00,"VFR",26.7,17.8,170,10,NA,NA,1019.7,"METAR KMEM 091554Z 17010KT 10SM SCT028 27/18 A3011 RMK AO2 SLP190 T02670178 $",2025-09-09 16:36:27.421538,2025-09-09 12:36:27.421583
"KBNA","Nashville Intl, TN, US",2025-09-09 15:53:00,2025-09-09 11:53:00,"VFR",25,12.8,170,8,NA,NA,1022.1,"METAR KBNA 091553Z 17008KT 10SM SCT070 SCT250 25/13 A3018 RMK AO2 SLP215 T02500128 $",2025-09-09 16:36:27.428297,2025-09-09 12:36:27.428343
"KBHM","Birmingham Intl, AL, US",2025-09-09 15:53:00,2025-09-09 11:53:00,"VFR",25,11.1,140,9,17,NA,1022.1,"METAR KBHM 091553Z 14009G17KT 10SM FEW055 FEW110 25/11 A3018 RMK AO2 SLP213 T02500111",2025-09-09 16:36:27.437671,2025-09-09 12:36:27.437715
"KHSV","Huntsville Intl, AL, US",2025-09-09 15:53:00,2025-09-09 11:53:00,"VFR",23.9,12.8,150,8,NA,NA,1022.1,"METAR KHSV 091553Z 15008KT 10SM FEW045 FEW060 24/13 A3018 RMK AO2 SLP213 T02390128 $",2025-09-09 16:36:27.444392,2025-09-09 12:36:27.444441
"KMSP","Minneapolis-St Paul Intl, MN, US",2025-09-09 15:53:00,2025-09-09 11:53:00,"MVFR",19.4,13.3,230,11,17,NA,1015.3,"METAR KMSP 091553Z 23011G17KT 10SM OVC029 19/13 A2998 RMK AO2 SLP148 T01940133",2025-09-09 16:36:27.451087,2025-09-09 12:36:27.451132
"KTPA","Tampa Intl Arpt, FL, US",2025-09-09 15:53:00,2025-09-09 11:53:00,"VFR",27.8,24.4,NA,4,NA,NA,1014.6,"METAR KTPA 091553Z VRB04KT 10SM FEW010 SCT035 BKN110 28/24 A2996 RMK AO2 SLP146 OCNL LTGIC DSNT SW CB DSNT SW T02780244 $",2025-09-09 16:36:27.457773,2025-09-09 12:36:27.457818
"KSAV","Savannah Intl, GA, US",2025-09-09 15:53:00,2025-09-09 11:53:00,"VFR",25.6,15,40,11,19,NA,1019.7,"METAR KSAV 091553Z 04011G19KT 10SM SCT250 26/15 A3011 RMK AO2 SLP197 T02560150",2025-09-09 16:36:27.46446,2025-09-09 12:36:27.464509
"KPBI","Palm Beach Intl, FL, US",2025-09-09 15:53:00,2025-09-09 11:53:00,"VFR",30.6,23.9,NA,3,NA,NA,1015,"METAR KPBI 091553Z VRB03KT 10SM SCT030 BKN250 31/24 A2997 RMK AO2 SLP147 CB DSNT E-SE S SW T03060239 $",2025-09-09 16:36:27.471185,2025-09-09 12:36:27.47123
"KDTW","Detroit/Metro Wayne Cnty, MI, US",2025-09-09 15:53:00,2025-09-09 11:53:00,"VFR",21.7,7.2,190,7,NA,NA,1024.5,"METAR KDTW 091553Z 19007KT 10SM SCT250 22/07 A3025 RMK AO2 SLP243 T02170072 $",2025-09-09 16:36:27.477828,2025-09-09 12:36:27.477874
"KMCI","Kansas City Intl, MO, US",2025-09-09 15:53:00,2025-09-09 11:53:00,"VFR",15.6,14.4,190,13,NA,NA,1017.4,"METAR KMCI 091553Z 19013KT 10SM -RA FEW036 BKN047 OVC090 16/14 A3004 RMK AO2 SLP169 P0005 T01560144 $",2025-09-09 16:36:27.484455,2025-09-09 12:36:27.484503
"KEYW","Key West Intl, FL, US",2025-09-09 15:53:00,2025-09-09 11:53:00,"VFR",30.6,25.6,210,9,NA,NA,1014.6,"METAR KEYW 091553Z 21009KT 10SM FEW002 FEW026 31/26 A2996 RMK AO2 SLP151 T03060256",2025-09-09 16:36:27.493773,2025-09-09 12:36:27.493817
"KLIT","Little Rock/Clinton Natl, AR, US",2025-09-09 15:53:00,2025-09-09 11:53:00,"VFR",22.2,12.8,0,0,NA,NA,1019.7,"METAR KLIT 091553Z 00000KT 10SM FEW160 22/13 A3011 RMK AO2 SLP197 T02220128",2025-09-09 16:36:27.500443,2025-09-09 12:36:27.50049
"KGRR","Grand Rapids Intl, MI, US",2025-09-09 15:53:00,2025-09-09 11:53:00,"VFR",19.4,7.8,NA,5,NA,NA,1023.5,"METAR KGRR 091553Z VRB05KT 10SM SCT250 19/08 A3022 RMK AO2 SLP233 T01940078",2025-09-09 16:36:27.507214,2025-09-09 12:36:27.507277
"KMDW","Chicago/Midway Intl, IL, US",2025-09-09 15:53:00,2025-09-09 11:53:00,"VFR",21.1,5.6,210,7,NA,NA,1022.4,"METAR KMDW 091553Z 21007KT 10SM BKN250 21/06 A3019 RMK AO2 SLP216 T02110056 $",2025-09-09 16:36:27.51392,2025-09-09 12:36:27.513965
"KRSW","Ft Myers/SW Florida Intl, FL, US",2025-09-09 15:53:00,2025-09-09 11:53:00,"VFR",29.4,25.6,100,6,NA,NA,1014.6,"METAR KRSW 091553Z 10006KT 10SM FEW012 29/26 A2996 RMK AO1 SLP142 T02940256",2025-09-09 16:36:27.520652,2025-09-09 12:36:27.520697
"KMYR","Myrtle Beach Intl, SC, US",2025-09-09 15:53:00,2025-09-09 11:53:00,"VFR",22.2,15.6,360,13,NA,NA,1020.7,"METAR KMYR 091553Z 36013KT 10SM CLR 22/16 A3014 RMK AO2 SLP204 T02220156 $",2025-09-09 16:36:27.527663,2025-09-09 12:36:27.52771
"KMCO","Orlando Intl, FL, US",2025-09-09 15:53:00,2025-09-09 11:53:00,"VFR",28.9,23.3,NA,3,NA,NA,1015,"METAR KMCO 091553Z VRB03KT 10SM FEW020 BKN160 BKN250 29/23 A2997 RMK AO2 SLP149 T02890233 $",2025-09-09 16:36:27.534407,2025-09-09 12:36:27.534453
"KFLL","Ft Lauderdale-Hollywood Intl, FL, US",2025-09-09 15:53:00,2025-09-09 11:53:00,"VFR",29.4,23.9,280,13,18,NA,1014.6,"METAR KFLL 091553Z 28013G18KT 10SM TS SCT025CB BKN080 BKN250 29/24 A2996 RMK AO2 TSB47 SLP143 OCNL LTGICCG SW-NW TS SW-NW MOV NE TCU NE-E T02940239",2025-09-09 16:36:27.541106,2025-09-09 12:36:27.541151
"KCVG","Cincinnati Intl, KY, US",2025-09-09 15:52:00,2025-09-09 11:52:00,"VFR",21.7,8.3,130,5,NA,NA,1023.5,"METAR KCVG 091552Z 13005KT 10SM FEW250 22/08 A3022 RMK AO2 SLP226 T02170083",2025-09-09 16:36:27.550502,2025-09-09 12:36:27.550565
"KMLI","Moline/Quad City Intl, IL, US",2025-09-09 15:52:00,2025-09-09 11:52:00,"VFR",21.1,9.4,180,9,NA,NA,1020.1,"METAR KMLI 091552Z 18009KT 10SM CLR 21/09 A3012 RMK AO2 SLP198 T02110094",2025-09-09 16:36:27.557208,2025-09-09 12:36:27.55727
"KOMA","Omaha/Eppley Fld, NE, US",2025-09-09 15:52:00,2025-09-09 11:52:00,"VFR",21.1,15.6,170,10,NA,NA,1016,"METAR KOMA 091552Z COR 17010KT 10SM SCT040 SCT080 21/16 A3000 RMK AO2 SLP155 T02110156",2025-09-09 16:36:27.564038,2025-09-09 12:36:27.564085
"KATL","Atlanta/Hartsfield-Jackson Intl, GA, US",2025-09-09 15:52:00,2025-09-09 11:52:00,"VFR",23.3,11.1,70,14,NA,NA,1023.1,"METAR KATL 091552Z 07014KT 10SM FEW065 FEW200 FEW250 23/11 A3021 RMK SLP222 T02330111",2025-09-09 16:36:27.570851,2025-09-09 12:36:27.570895
"KCLT","Charlotte/Douglas Intl, NC, US",2025-09-09 15:52:00,2025-09-09 11:52:00,"VFR",21.7,8.3,50,14,20,NA,1024.1,"METAR KCLT 091552Z 05014G20KT 10SM FEW045 FEW250 22/08 A3024 RMK SLP248 T02170083 $",2025-09-09 16:36:27.577553,2025-09-09 12:36:27.577599
"KORD","Chicago/O'Hare Intl, IL, US",2025-09-09 15:51:00,2025-09-09 11:51:00,"VFR",20.6,6.1,180,7,NA,NA,1022.1,"METAR KORD 091551Z 18007KT 10SM BKN250 21/06 A3018 RMK AO2 SLP216 T02060061",2025-09-09 16:36:27.584214,2025-09-09 12:36:27.584312
"KRDU","Raleigh-Durham Intl, NC, US",2025-09-09 15:51:00,2025-09-09 11:51:00,"VFR",21.7,12.2,20,8,16,NA,1023.5,"METAR KRDU 091551Z 02008G16KT 10SM SCT030 SCT250 22/12 A3022 RMK AO2 SLP230 T02170122",2025-09-09 16:36:27.591009,2025-09-09 12:36:27.591054
"KCMH","Columbus/Glenn Intl, OH, US",2025-09-09 15:51:00,2025-09-09 11:51:00,"VFR",21.1,6.7,NA,4,NA,NA,1024.1,"METAR KCMH 091551Z VRB04KT 10SM FEW250 21/07 A3024 RMK AO2 SLP239 T02110067",2025-09-09 16:36:27.5978,2025-09-09 12:36:27.597846
"KSTL","St Louis/Lambert Intl, MO, US",2025-09-09 15:51:00,2025-09-09 11:51:00,"VFR",23.3,9.4,170,5,NA,NA,1021.1,"METAR KSTL 091551Z 17005KT 10SM FEW140 SCT200 BKN250 23/09 A3015 RMK AO2 SLP202 T02330094",2025-09-09 16:36:27.606199,2025-09-09 12:36:27.606372
"KCLE","Cleveland/Hopkins Intl, OH, US",2025-09-09 15:51:00,2025-09-09 11:51:00,"VFR",22.2,6.1,130,6,NA,NA,1024.1,"METAR KCLE 091551Z 13006KT 10SM FEW250 22/06 A3024 RMK AO2 SLP254 T02220061",2025-09-09 16:36:27.616638,2025-09-09 12:36:27.616683
"KEGE","Eagle Cnty Rgnl, CO, US",2025-09-09 15:56:00,2025-09-09 11:56:00,"VFR",13.9,2.2,NA,3,NA,NA,1025.5,"METAR KEGE 091556Z VRB03KT 10SM SCT100 14/02 A3028 RMK AO2 LTG DSNT W SLP188 T01390022 $",2025-09-09 16:36:30.182069,2025-09-09 12:36:30.182119
"KLRD","Laredo Intl, TX, US",2025-09-09 15:56:00,2025-09-09 11:56:00,"VFR",30,20.6,90,7,NA,NA,1016.7,"METAR KLRD 091556Z 09007KT 10SM CLR 30/21 A3002 RMK AO2 SLP162 T03000206 $",2025-09-09 16:36:30.189116,2025-09-09 12:36:30.189161
"KBZN","Bozeman/Gallatin Fld, MT, US",2025-09-09 15:56:00,2025-09-09 11:56:00,"VFR",16.1,5,20,3,NA,NA,1018,"METAR KBZN 091556Z 02003KT 10SM CLR 16/05 A3006 RMK AO2 SLP152 T01610050",2025-09-09 16:36:30.19585,2025-09-09 12:36:30.195895
"KEUG","Eugene/Mahlon Sweet Fld, OR, US",2025-09-09 15:54:00,2025-09-09 11:54:00,"VFR",17.8,14.4,170,3,NA,NA,1014.3,"METAR KEUG 091554Z 17003KT 10SM BKN031 BKN045 OVC080 18/14 A2995 RMK AO2 SLP140 T01780144",2025-09-09 16:36:30.202533,2025-09-09 12:36:30.202579
"KSLC","Salt Lake City Intl, UT, US",2025-09-09 15:54:00,2025-09-09 11:54:00,"VFR",27.2,6.7,160,19,25,NA,1014.3,"METAR KSLC 091554Z 16019G25KT 10SM FEW085 FEW120 BKN190 BKN230 27/07 A2995 RMK AO2 SLP083 T02720067 $",2025-09-09 16:36:30.209178,2025-09-09 12:36:30.209224
"KCOS","Colorado Spring Arpt, CO, US",2025-09-09 15:54:00,2025-09-09 11:54:00,"VFR",22.8,5,NA,3,NA,NA,1022.4,"METAR KCOS 091554Z VRB03KT 10SM SCT110 BKN250 23/05 A3019 RMK AO2 SLP133 T02280050 $",2025-09-09 16:36:30.218788,2025-09-09 12:36:30.218832
"KGTF","Great Falls Intl, MT, US",2025-09-09 15:53:00,2025-09-09 11:53:00,"VFR",19.4,5.6,0,0,NA,NA,1016,"METAR KGTF 091553Z 00000KT 10SM CLR 19/06 A3000 RMK AO2 SLP136 T01940056 $",2025-09-09 16:36:30.225554,2025-09-09 12:36:30.2256
"KPUB","Pueblo Mem Arpt, CO, US",2025-09-09 15:53:00,2025-09-09 11:53:00,"VFR",23.3,7.2,290,5,NA,NA,1019.4,"METAR KPUB 091553Z 29005KT 10SM CLR 23/07 A3010 RMK AO2 SLP127 T02330072 $",2025-09-09 16:36:30.232416,2025-09-09 12:36:30.232462
"KSEA","Seattle-Tacoma Intl, WA, US",2025-09-09 15:53:00,2025-09-09 11:53:00,"VFR",16.1,12.8,20,6,NA,NA,1014.6,"METAR KSEA 091553Z 02006KT 10SM BKN039 BKN120 BKN250 16/13 A2996 RMK AO2 SLP151 T01610128 $",2025-09-09 16:36:30.2391,2025-09-09 12:36:30.239146
"KLAW","Lawton-Fort Sill Rgnl, OK, US",2025-09-09 15:53:00,2025-09-09 11:53:00,"VFR",25,11.7,200,9,16,NA,1018,"METAR KLAW 091553Z 20009G16KT 10SM CLR 25/12 A3006 RMK AO2 SLP170 T02500117",2025-09-09 16:36:30.24582,2025-09-09 12:36:30.245866
"KTUL","Tulsa Intl Arpt, OK, US",2025-09-09 15:53:00,2025-09-09 11:53:00,"VFR",23.9,11.7,170,13,NA,NA,1018.7,"METAR KTUL 091553Z 17013KT 10SM SCT090 SCT160 24/12 A3008 RMK AO2 SLP180 T02390117",2025-09-09 16:36:30.252499,2025-09-09 12:36:30.252545
"KIDA","Idaho Falls Rgnl, ID, US",2025-09-09 15:53:00,2025-09-09 11:53:00,"VFR",17.2,8.3,350,6,NA,NA,1016.7,"METAR KIDA 091553Z 35006KT 10SM CLR 17/08 A3002 RMK AO2 SLP133 T01720083",2025-09-09 16:36:30.259125,2025-09-09 12:36:30.25917
"KDEN","Denver Intl, CO, US",2025-09-09 15:53:00,2025-09-09 11:53:00,"VFR",23.3,4.4,240,5,NA,NA,1020.1,"METAR KDEN 091553Z 24005KT 10SM FEW100 FEW140 FEW180 SCT220 23/04 A3012 RMK AO2 SLP122 T02330044",2025-09-09 16:36:30.265788,2025-09-09 12:36:30.265832
"KBFI","Seattle/Boeing Fld, WA, US",2025-09-09 15:53:00,2025-09-09 11:53:00,"VFR",17.2,13.3,NA,4,NA,NA,1014.3,"METAR KBFI 091553Z VRB04KT 10SM OVC045 17/13 A2995 RMK AO2 SLP142 T01720133",2025-09-09 16:36:30.275152,2025-09-09 12:36:30.275195
"KBIL","Billings/Logan Intl, MT, US",2025-09-09 15:53:00,2025-09-09 11:53:00,"VFR",17.2,6.7,200,3,NA,NA,1017,"METAR KBIL 091553Z 20003KT 10SM FEW240 17/07 A3003 RMK AO2 SLP145 T01720067",2025-09-09 16:36:30.281882,2025-09-09 12:36:30.281928
"KBRO","Brownsville Intl, TX, US",2025-09-09 15:53:00,2025-09-09 11:53:00,"VFR",30.6,25.6,NA,5,NA,NA,1014.3,"METAR KBRO 091553Z VRB05KT 10SM FEW050 FEW080 31/26 A2995 RMK AO2 SLP142 T03060256",2025-09-09 16:36:30.288689,2025-09-09 12:36:30.288736
"KGEG","Spokane Intl, WA, US",2025-09-09 15:53:00,2025-09-09 11:53:00,"VFR",20,10.6,10,4,NA,NA,1013.6,"METAR KGEG 091553Z 01004KT 10SM FEW120 FEW150 FEW300 20/11 A2993 RMK AO2 SLP121 OCNL LTGCGICCC DSNT N-NE CB DSNT N-NE AND NW MOV N SHRA DSNT N-NE T02000106 $",2025-09-09 16:36:30.295422,2025-09-09 12:36:30.295468
"KICT","Wichita/Eisenhower Arpt, KS, US",2025-09-09 15:53:00,2025-09-09 11:53:00,"VFR",22.2,13.9,200,19,24,NA,1016,"METAR KICT 091553Z 20019G24KT 10SM SCT120 SCT150 BKN190 BKN250 22/14 A3000 RMK AO2 SLP148 ACC NW-NE T02220139 $",2025-09-09 16:36:30.302044,2025-09-09 12:36:30.30209
"KMFE","McAllen/Miller Intl, TX, US",2025-09-09 15:53:00,2025-09-09 11:53:00,"VFR",31.7,23.9,10,8,NA,NA,1015.3,"METAR KMFE 091553Z 01008KT 10SM FEW025 SCT050 32/24 A2998 RMK AO2 SLP150 T03170239 $",2025-09-09 16:36:30.308721,2025-09-09 12:36:30.308766
"KAFW","Fort Worth/Alliance Arpt, TX, US",2025-09-09 15:53:00,2025-09-09 11:53:00,"VFR",25,13.3,150,10,NA,NA,1018.7,"METAR KAFW 091553Z 15010KT 10SM CLR 25/13 A3008 RMK AO2 SLP174 T02500133",2025-09-09 16:36:30.315316,2025-09-09 12:36:30.315364
"KAMA","Amarillo Intl Arpt, TX, US",2025-09-09 15:53:00,2025-09-09 11:53:00,"VFR",25.6,15.6,210,14,NA,NA,1019,"METAR KAMA 091553Z 21014KT 10SM CLR 26/16 A3009 RMK AO2 SLP136 T02560156",2025-09-09 16:36:30.321974,2025-09-09 12:36:30.32202
"KAUS","Austin/Bergstrom Intl, TX, US",2025-09-09 15:53:00,2025-09-09 11:53:00,"VFR",26.7,13.9,70,4,NA,NA,1018,"METAR KAUS 091553Z 07004KT 10SM CLR 27/14 A3006 RMK AO2 SLP170 T02670139",2025-09-09 16:36:30.331345,2025-09-09 12:36:30.331393
"KBOI","Boise Arpt, ID, US",2025-09-09 15:53:00,2025-09-09 11:53:00,"VFR",19.4,6.7,50,4,NA,NA,1012.6,"METAR KBOI 091553Z 05004KT 10SM CLR 19/07 A2990 RMK AO2 SLP101 T01940067",2025-09-09 16:36:30.337976,2025-09-09 12:36:30.338021
"KLBB","Lubbock Intl Arpt, TX, US",2025-09-09 15:53:00,2025-09-09 11:53:00,"VFR",24.4,17.8,180,8,NA,NA,1019,"METAR KLBB 091553Z 18008KT 10SM FEW100 24/18 A3009 RMK AO2 SLP139 T02440178",2025-09-09 16:36:30.344813,2025-09-09 12:36:30.34486
"KASE","Aspen/Pitkin Cnty, CO, US",2025-09-09 15:53:00,2025-09-09 11:53:00,"VFR",18.3,1.7,0,0,NA,NA,1025.5,"METAR KASE 091553Z 00000KT 10SM FEW110 18/02 A3028 RMK AO2 LTG DSNT S AND SW SLP143 T01830017",2025-09-09 16:36:30.351526,2025-09-09 12:36:30.351571
"KDFW","Dallas-Ft Worth Intl, TX, US",2025-09-09 15:53:00,2025-09-09 11:53:00,"VFR",24.4,12.2,170,8,NA,NA,1018.7,"METAR KDFW 091553Z 17008KT 10SM CLR 24/12 A3008 RMK AO2 SLP177 T02440122 $",2025-09-09 16:36:30.358142,2025-09-09 12:36:30.358187
"KHLN","Helena Rgnl, MT, US",2025-09-09 15:53:00,2025-09-09 11:53:00,"VFR",14.4,6.1,0,0,NA,NA,1016.7,"METAR KHLN 091553Z 00000KT 10SM CLR 14/06 A3002 RMK AO2 SLP159 T01440061",2025-09-09 16:36:30.364882,2025-09-09 12:36:30.364931
"KMSO","Missoula Intl, MT, US",2025-09-09 15:53:00,2025-09-09 11:53:00,"VFR",13.3,7.8,160,3,NA,NA,1015.7,"METAR KMSO 091553Z 16003KT 10SM CLR 13/08 A2999 RMK AO2 SLP146 T01330078",2025-09-09 16:36:30.371714,2025-09-09 12:36:30.371758
"KMFR","Medford/Rogue Valley Intl, OR, US",2025-09-09 15:53:00,2025-09-09 11:53:00,"MVFR",16.1,13.9,0,0,NA,NA,1014.3,"METAR KMFR 091553Z 00000KT 10SM FEW011 BKN023 BKN090 16/14 A2995 RMK AO2 SLP137 T01610139 $",2025-09-09 16:36:30.378471,2025-09-09 12:36:30.378518
"KGJT","Grand Junction Rgnl, CO, US",2025-09-09 15:53:00,2025-09-09 11:53:00,"VFR",23.9,3.9,120,11,NA,NA,1018.7,"METAR KGJT 091553Z 12011KT 10SM CLR 24/04 A3008 RMK AO2 SLP115 T02390039",2025-09-09 16:36:30.385303,2025-09-09 12:36:30.385353
"KHOU","Houston/Hobby Arpt, TX, US",2025-09-09 15:53:00,2025-09-09 11:53:00,"VFR",27.2,13.9,NA,5,NA,NA,1017,"METAR KHOU 091553Z VRB05KT 10SM CLR 27/14 A3003 RMK AO2 SLP173 T02720139",2025-09-09 16:36:30.394841,2025-09-09 12:36:30.394889
"KPDX","Portland Intl, OR, US",2025-09-09 15:53:00,2025-09-09 11:53:00,"VFR",18.3,12.8,350,4,NA,NA,1014,"METAR KPDX 091553Z 35004KT 10SM FEW025 SCT110 BKN250 18/13 A2994 RMK AO2 SLP137 T01830128",2025-09-09 16:36:30.40173,2025-09-09 12:36:30.401776
"KDAL","Dallas/Love Fld, TX, US",2025-09-09 15:53:00,2025-09-09 11:53:00,"VFR",23.9,12.2,150,9,NA,NA,1019,"METAR KDAL 091553Z 15009KT 120V190 10SM FEW180 24/12 A3009 RMK AO2 SLP183 T02390122",2025-09-09 16:36:30.4087,2025-09-09 12:36:30.408746
"KIAH","Houston/Bush Intl, TX, US",2025-09-09 15:53:00,2025-09-09 11:53:00,"VFR",26.7,13.3,60,5,NA,NA,1017.4,"METAR KIAH 091553Z 06005KT 10SM CLR 27/13 A3004 RMK AO2 SLP173 T02670133",2025-09-09 16:36:30.415416,2025-09-09 12:36:30.415466
"KOKC","Oklahoma City/Will Rogers Intl, OK, US",2025-09-09 15:52:00,2025-09-09 11:52:00,"VFR",23.9,12.2,190,11,NA,NA,1018.4,"METAR KOKC 091552Z 19011KT 10SM SCT095 SCT250 24/12 A3007 RMK AO2 SLP169 T02390122",2025-09-09 16:36:30.422158,2025-09-09 12:36:30.422203
"KHRL","Harlingen/Valley Intl, TX, US",2025-09-09 15:52:00,2025-09-09 11:52:00,"VFR",30,23.9,20,10,NA,NA,1014.6,"METAR KHRL 091552Z 02010KT 10SM FEW022 SCT070 OVC090 30/24 A2996 RMK AO2 SLP144 T03000239",2025-09-09 16:36:30.428948,2025-09-09 12:36:30.428993
"KABI","Abilene Rgnl, TX, US",2025-09-09 15:52:00,2025-09-09 11:52:00,"VFR",26.7,15,210,10,NA,NA,1018.7,"METAR KABI 091552Z 21010KT 10SM CLR 27/15 A3008 RMK AO2 SLP161 T02670150",2025-09-09 16:36:30.435608,2025-09-09 12:36:30.435653
"KELP","El Paso Intl, TX, US",2025-09-09 15:51:00,2025-09-09 11:51:00,"VFR",28.3,12.8,170,8,NA,NA,1019,"METAR KELP 091551Z 17008KT 10SM FEW110 FEW160 28/13 A3009 RMK AO2 SLP109 T02830128",2025-09-09 16:36:30.442465,2025-09-09 12:36:30.442513
"KACT","Waco Rgnl, TX, US",2025-09-09 15:51:00,2025-09-09 11:51:00,"VFR",25.6,15,110,4,NA,NA,1018.7,"METAR KACT 091551Z 11004KT 10SM CLR 26/15 A3008 RMK AO2 SLP181 T02560150",2025-09-09 16:36:30.452147,2025-09-09 12:36:30.452192
"KSAT","San Antonio Intl, TX, US",2025-09-09 15:51:00,2025-09-09 11:51:00,"VFR",26.7,15,100,4,NA,NA,1018,"METAR KSAT 091551Z 10004KT 10SM CLR 27/15 A3006 RMK AO2 SLP163 T02670150",2025-09-09 16:36:30.458962,2025-09-09 12:36:30.459008
"KBUR","Burbank/Bob Hope Arpt, CA, US",2025-09-09 16:22:00,2025-09-09 12:22:00,"MVFR",19.4,15,160,5,NA,NA,1015.3,"SPECI KBUR 091622Z 16005KT 10SM BKN015 19/15 A2998 RMK AO2 T01940150",2025-09-09 16:36:33.104818,2025-09-09 12:36:33.104863
"KSFO","San Francisco Intl, CA, US",2025-09-09 15:56:00,2025-09-09 11:56:00,"VFR",19.4,17.2,0,0,NA,NA,1014,"METAR KSFO 091556Z 00000KT 10SM FEW006 SCT017 BKN043 19/17 A2994 RMK AO2 SLP140 T01940172 $",2025-09-09 16:36:33.111818,2025-09-09 12:36:33.111863
"KRNO","Reno/Tahoe Intl, NV, US",2025-09-09 15:55:00,2025-09-09 11:55:00,"VFR",15.6,4.4,0,0,NA,NA,1017.4,"METAR KRNO 091555Z 00000KT 10SM FEW070 SCT130 BKN200 16/04 A3004 RMK AO2 SLP129 T01560044",2025-09-09 16:36:33.118563,2025-09-09 12:36:33.118608
"PHOG","Kahului Arpt, HI, US",2025-09-09 15:54:00,2025-09-09 11:54:00,"VFR",23.9,21.1,30,4,NA,NA,1015,"METAR PHOG 091554Z 03004KT 10SM FEW030 SCT045 24/21 A2997 RMK AO2 SLP153 T02390211",2025-09-09 16:36:33.125216,2025-09-09 12:36:33.125285
"PHNL","Honolulu Intl, HI, US",2025-09-09 15:53:00,2025-09-09 11:53:00,"VFR",25.6,22.2,340,3,NA,NA,1015.3,"METAR PHNL 091553Z 34003KT 10SM FEW020 FEW035 FEW080 26/22 A2998 RMK AO2 SLP150 T02560222",2025-09-09 16:36:33.134664,2025-09-09 12:36:33.134726
"KSTS","Santa Rosa/Schulz Arpt, CA, US",2025-09-09 15:53:00,2025-09-09 11:53:00,"IFR",17.8,17.2,130,4,NA,6,1014,"METAR KSTS 091553Z 13004KT 6SM BR BKN005 OVC013 18/17 A2994 RMK AO2 RAE42 SLP132 P0005 T01780172",2025-09-09 16:36:33.141431,2025-09-09 12:36:33.141475
"KLGB","Long Beach Arpt, CA, US",2025-09-09 15:53:00,2025-09-09 11:53:00,"MVFR",20.6,16.1,190,4,NA,NA,1014.3,"METAR KLGB 091553Z 19004KT 10SM OVC018 21/16 A2995 RMK AO2 SLP142 T02060161",2025-09-09 16:36:33.148396,2025-09-09 12:36:33.148446
"KONT","Ontario Intl, CA, US",2025-09-09 15:53:00,2025-09-09 11:53:00,"VFR",19.4,14.4,220,4,NA,NA,1015,"METAR KONT 091553Z 22004KT 10SM FEW010 19/14 A2997 RMK AO2 SLP134 T01940144 $",2025-09-09 16:36:33.155109,2025-09-09 12:36:33.155153
"KSAF","Santa Fe Cnty Muni, NM, US",2025-09-09 15:53:00,2025-09-09 11:53:00,"VFR",21.1,4.4,340,10,NA,NA,1024.1,"METAR KSAF 091553Z 34010KT 10SM FEW110 21/04 A3024 RMK AO2 LTG DSNT NE SLP151 T02110044",2025-09-09 16:36:33.161837,2025-09-09 12:36:33.161882
"KPSP","Palm Springs Intl, CA, US",2025-09-09 15:53:00,2025-09-09 11:53:00,"VFR",30,6.1,NA,3,NA,NA,1010.6,"METAR KPSP 091553Z VRB03KT 10SM CLR 30/06 A2984 RMK AO2 SLP098 T03000061",2025-09-09 16:36:33.16859,2025-09-09 12:36:33.168638
"KTUS","Tucson Intl Arpt, AZ, US",2025-09-09 15:53:00,2025-09-09 11:53:00,"VFR",30,16.7,0,0,NA,NA,1016,"METAR KTUS 091553Z 00000KT 10SM CLR 30/17 A3000 RMK AO2 SLP103 T03000167",2025-09-09 16:36:33.175266,2025-09-09 12:36:33.175329
"KSJC","San Jose Intl Arpt, CA, US",2025-09-09 15:53:00,2025-09-09 11:53:00,"VFR",20.6,13.9,180,3,NA,NA,1014.3,"METAR KSJC 091553Z 18003KT 10SM FEW010 SCT023 BKN042 21/14 A2995 RMK AO2 SLP143 TCU DSNT SE T02060139",2025-09-09 16:36:33.181911,2025-09-09 12:36:33.181956
"KLAX","Los Angeles Intl, CA, US",2025-09-09 15:53:00,2025-09-09 11:53:00,"MVFR",20.6,16.7,160,4,NA,5,1014.6,"METAR KLAX 091553Z 16004KT 5SM HZ FEW009 SCT016 OVC019 21/17 A2996 RMK AO2 SLP142 T02060167 $",2025-09-09 16:36:33.188653,2025-09-09 12:36:33.188699
"KOAK","Oakland Intl, CA, US",2025-09-09 15:53:00,2025-09-09 11:53:00,"VFR",18.9,17.2,190,7,NA,NA,1014.6,"METAR KOAK 091553Z 19007KT 10SM SCT019 BKN038 BKN050 BKN250 19/17 A2996 RMK AO2 RAE02 SLP144 P0000 T01890172",2025-09-09 16:36:33.198075,2025-09-09 12:36:33.198119
"KSBA","Santa Barbara Muni, CA, US",2025-09-09 15:53:00,2025-09-09 11:53:00,"VFR",20,17.2,130,9,NA,NA,1013.6,"METAR KSBA 091553Z 13009KT 10SM CLR 20/17 A2993 RMK AO2 SLP133 T02000172 $",2025-09-09 16:36:33.204858,2025-09-09 12:36:33.204905
"KSNA","Santa Ana/Wayne Arpt, CA, US",2025-09-09 15:53:00,2025-09-09 11:53:00,"MVFR",20.6,16.1,130,5,NA,NA,1014.3,"METAR KSNA 091553Z 13005KT 10SM BKN020 21/16 A2995 RMK AO2 SLP141 T02060161",2025-09-09 16:36:33.211667,2025-09-09 12:36:33.211715
"KABQ","Albuquerque Intl, NM, US",2025-09-09 15:52:00,2025-09-09 11:52:00,"VFR",23.3,6.7,220,4,NA,NA,1022.8,"METAR KABQ 091552Z 22004KT 10SM FEW060 SCT120 23/07 A3020 RMK AO2 SLP139 T02330067 $",2025-09-09 16:36:33.218387,2025-09-09 12:36:33.218434
"KSMO","Santa Monica Muni, CA, US",2025-09-09 15:51:00,2025-09-09 11:51:00,"MVFR",20.6,17.2,190,4,NA,NA,1014.6,"METAR KSMO 091551Z 19004KT 10SM OVC014 21/17 A2996 RMK AO2 SLP144 T02060172",2025-09-09 16:36:33.225073,2025-09-09 12:36:33.225117
"KSAN","San Diego Intl Arpt, CA, US",2025-09-09 15:51:00,2025-09-09 11:51:00,"MVFR",21.1,15.6,NA,3,NA,NA,1015.3,"METAR KSAN 091551Z VRB03KT 10SM BKN021 21/16 A2998 RMK AO2 SLP151 T02110156",2025-09-09 16:36:33.231799,2025-09-09 12:36:33.231844
"KPHX","Phoenix/Sky Harbor Intl, AZ, US",2025-09-09 15:51:00,2025-09-09 11:51:00,"VFR",33.9,15.6,110,4,NA,NA,1010.6,"METAR KPHX 091551Z 11004KT 10SM FEW100 34/16 A2984 RMK AO2 SLP083 T03390156",2025-09-09 16:36:33.238513,2025-09-09 12:36:33.238561
"CYMO","Moosonee Arpt, ON, CA",2025-09-09 16:33:00,2025-09-09 12:33:00,"MVFR",14,13,190,6,NA,9,1014.3,"SPECI CYMO 091633Z AUTO 19006KT 9SM SCT007 OVC019 14/13 A2995 RMK SLP143",2025-09-09 16:38:29.75458,2025-09-09 12:38:29.754627
"CYAT","Attawapisket Arpt, ON, CA",2025-09-09 16:29:00,2025-09-09 12:29:00,"IFR",13,11,250,6,NA,9,1011.6,"SPECI CYAT 091629Z AUTO 25006KT 9SM BKN008 OVC055 13/11 A2987 RMK SLP117",2025-09-09 16:38:29.765383,2025-09-09 12:38:29.765426
"CYER","Ft Severn Arpt, ON, CA",2025-09-09 16:25:00,2025-09-09 12:25:00,"MVFR",9,5,20,8,NA,9,1016,"SPECI CYER 091625Z AUTO 02008KT 9SM SCT017 BKN028 BKN250 09/05 A3000 RMK SLP161",2025-09-09 16:38:29.772011,2025-09-09 12:38:29.77206
"CYQF","Red Deer Rgnl, AB, CA",2025-09-09 16:02:00,2025-09-09 12:02:00,"VFR",15,9,220,4,NA,6,1013.6,"SPECI CYQF 091602Z AUTO 22004KT 6SM HZ CLR 15/09 A2993 RMK SLP143 DENSITY ALT 3700FT",2025-09-09 16:38:29.778451,2025-09-09 12:38:29.778494
"CYQB","Quebec/Lesage Intl, QC, CA",2025-09-09 16:00:00,2025-09-09 12:00:00,"VFR",17,6,NA,2,NA,30,1028.9,"METAR CYQB 091600Z VRB02KT 30SM FEW050 FEW100 FEW250 17/06 A3038 RMK SC1AC1CI1 SC TR AC TR SLP292",2025-09-09 16:38:29.785012,2025-09-09 12:38:29.785056
"CYQG","Windsor Intl, ON, CA",2025-09-09 16:00:00,2025-09-09 12:00:00,"VFR",22,7,210,11,NA,9,1024.5,"METAR CYQG 091600Z AUTO 21011KT 9SM CLR 22/07 A3025 RMK SLP246 DENSITY ALT 1300FT",2025-09-09 16:38:29.791508,2025-09-09 12:38:29.791551
"CYQM","Moncton Intl, NB, CA",2025-09-09 16:00:00,2025-09-09 12:00:00,"VFR",20,5,250,7,NA,15,1028.5,"METAR CYQM 091600Z 25007KT 220V290 15SM FEW056 FEW240 20/05 A3037 RMK CU1CI1 CU TR SLP288",2025-09-09 16:38:29.797971,2025-09-09 12:38:29.798015
"CYUL","Montreal/Trudeau Intl, QC, CA",2025-09-09 16:00:00,2025-09-09 12:00:00,"VFR",18,10,240,5,NA,30,1028.2,"METAR CYUL 091600Z 24005KT 180V310 30SM FEW028 FEW250 18/10 A3036 RMK CF1CI2 CF TR SLP284",2025-09-09 16:38:29.80435,2025-09-09 12:38:29.804395
"CYVR","Vancouver Intl, BC, CA",2025-09-09 16:00:00,2025-09-09 12:00:00,"VFR",18,17,320,3,NA,15,1014.3,"METAR CYVR 091600Z 32003KT 280V360 15SM FEW010 FEW015 BKN048 18/17 A2995 RMK SC1SC1SC7 SC TR SC TR SLP145 DENSITY ALT 400FT",2025-09-09 16:38:29.81075,2025-09-09 12:38:29.810795
"CYWG","Winnipeg Intl Arpt, MB, CA",2025-09-09 16:00:00,2025-09-09 12:00:00,"VFR",21,15,NA,3,NA,15,1015,"METAR CYWG 091600Z VRB03KT 15SM SKC 21/15 A2997 RMK SLP154 DENSITY ALT 1600FT",2025-09-09 16:38:29.819728,2025-09-09 12:38:29.819773
"CYYZ","Toronto/Pearson Intl, ON, CA",2025-09-09 16:00:00,2025-09-09 12:00:00,"VFR",19,11,170,5,NA,15,1025.8,"METAR CYYZ 091600Z 17005KT 15SM FEW030 FEW250 19/11 A3029 RMK CU1CI1 CU TR SLP260 DENSITY ALT 800FT",2025-09-09 16:38:29.826315,2025-09-09 12:38:29.826361
"CYZV","Sept-Îles Arpt, QC, CA",2025-09-09 16:00:00,2025-09-09 12:00:00,"VFR",13,6,160,8,NA,30,1027.9,"METAR CYZV 091600Z 16008KT 30SM FEW050 FEW120 FEW180 BKN260 13/06 A3035 RMK CU1AC1AC1CI4 AC TR SLP280",2025-09-09 16:38:29.832788,2025-09-09 12:38:29.832832
"CYQA","Muskoka Arpt, ON, CA",2025-09-09 16:00:00,2025-09-09 12:00:00,"VFR",19,7,160,11,NA,9,1025.8,"METAR CYQA 091600Z AUTO 16011KT 150V210 9SM CLR 19/07 A3029 RMK SLP265 DENSITY ALT 1200FT",2025-09-09 16:38:29.839277,2025-09-09 12:38:29.839322
"CYVO","Val D'Or Arpt, QC, CA",2025-09-09 16:00:00,2025-09-09 12:00:00,"VFR",14,7,180,9,15,15,1023.1,"METAR CYVO 091600Z 18009G15KT 15SM BKN070 OVC100 14/07 A3021 RMK AC5AC3 SLP243",2025-09-09 16:38:29.845664,2025-09-09 12:38:29.845709
"CYQR","Regina Intl Arpt, SK, CA",2025-09-09 16:00:00,2025-09-09 12:00:00,"VFR",22,9,20,3,NA,15,1016,"METAR CYQR 091600Z 02003KT 300V050 15SM SKC 22/09 A3000 RMK SLP163 DENSITY ALT 3100FT",2025-09-09 16:38:29.852112,2025-09-09 12:38:29.852176
"CYYG","Charlottetown Arpt, PE, CA",2025-09-09 16:00:00,2025-09-09 12:00:00,"VFR",19,8,170,10,16,15,1028.5,"METAR CYYG 091600Z 17010G16KT 120V200 15SM BKN057 BKN250 19/08 A3037 RMK SC5CI1 SLP287",2025-09-09 16:38:29.858568,2025-09-09 12:38:29.858611
"CYRJ","Roberval Arpt, QC, CA",2025-09-09 16:00:00,2025-09-09 12:00:00,"VFR",17,6,220,10,16,40,1026.2,"METAR CYRJ 091600Z 22010G16KT 40SM FEW060 BKN120 BKN240 17/06 A3030 RMK SC2AC4CI1 CI TR SLP269",2025-09-09 16:38:29.864942,2025-09-09 12:38:29.864986
"CYVV","Wiarton Arpt, ON, CA",2025-09-09 16:00:00,2025-09-09 12:00:00,"VFR",18,11,230,9,NA,15,1025.1,"METAR CYVV 091600Z 23009KT 180V250 15SM FEW030 OVC250 18/11 A3027 RMK CF1CI8 CF TR SLP256",2025-09-09 16:38:29.87133,2025-09-09 12:38:29.871373
"CYXE","Saskatoon/Diefenbaker Intl, SK, CA",2025-09-09 16:00:00,2025-09-09 12:00:00,"VFR",18,12,80,5,NA,12,1015.3,"METAR CYXE 091600Z 08005KT 12SM FEW028 FEW300 18/12 A2998 RMK CU1CI1 CU TR CI TR FU SLP161 DENSITY ALT 2400FT",2025-09-09 16:38:29.879791,2025-09-09 12:38:29.879843
"CYXS","Prince George Arpt, BC, CA",2025-09-09 16:00:00,2025-09-09 12:00:00,"MVFR",12,11,190,3,NA,5,1014,"METAR CYXS 091600Z AUTO 19003KT 5SM BR CLR 12/11 A2994 RMK SLP150",2025-09-09 16:38:29.886297,2025-09-09 12:38:29.886343
"CYLW","Kelowna Arpt, BC, CA",2025-09-09 16:00:00,2025-09-09 12:00:00,"VFR",18,12,0,0,NA,9,1013.3,"METAR CYLW 091600Z AUTO 00000KT 9SM CLR 18/12 A2992 RMK SLP132 DENSITY ALT 2100FT",2025-09-09 16:38:29.892748,2025-09-09 12:38:29.892791
"CYOW","Ottawa/Cartier Intl, ON, CA",2025-09-09 16:00:00,2025-09-09 12:00:00,"VFR",18,9,270,3,NA,15,1027.9,"METAR CYOW 091600Z 27003KT 180V330 15SM FEW250 18/09 A3035 RMK CI1 CI TR SLP282",2025-09-09 16:38:29.899096,2025-09-09 12:38:29.899156
"CYHZ","Halifax/Stanfield Intl, NS, CA",2025-09-09 16:00:00,2025-09-09 12:00:00,"VFR",19,8,310,4,NA,15,1028.9,"METAR CYHZ 091600Z 31004KT 280V010 15SM FEW045 BKN250 19/08 A3038 RMK CU2CS5 CI ASOCTD SLP292",2025-09-09 16:38:29.905614,2025-09-09 12:38:29.905657
"CYPL","Pickle Lake Arpt, ON, CA",2025-09-09 16:00:00,2025-09-09 12:00:00,"VFR",17,11,360,3,NA,9,1015,"METAR CYPL 091600Z AUTO 36003KT 310V060 9SM CLR 17/11 A2997 RMK SLP158 DENSITY ALT 1800FT",2025-09-09 16:38:29.912044,2025-09-09 12:38:29.912087
"CYQQ","Comox(MIL), BC, CA",2025-09-09 16:00:00,2025-09-09 12:00:00,"MVFR",17,13,310,7,NA,20,1015.3,"METAR CYQQ 091600Z 31007KT 20SM BKN019 17/13 A2998 RMK SC5 DENSITY ALT 404FT SLP152",2025-09-09 16:38:29.918755,2025-09-09 12:38:29.918798
"CYUY","Rouyn/Noranda Arpt, QC, CA",2025-09-09 16:00:00,2025-09-09 12:00:00,"VFR",12,9,190,9,NA,15,1021.8,"METAR CYUY 091600Z 19009KT 15SM -RA OVC051 12/09 A3017 RMK SC8 SLP225",2025-09-09 16:38:29.92531,2025-09-09 12:38:29.925354
"CYYC","Calgary Intl, AB, CA",2025-09-09 16:00:00,2025-09-09 12:00:00,"VFR",17,9,NA,2,NA,15,1014.6,"METAR CYYC 091600Z VRB02KT 15SM SKC 17/09 A2996 RMK SLP144 DENSITY ALT 4600FT",2025-09-09 16:38:29.934078,2025-09-09 12:38:29.934122
"CYYJ","Victoria Intl, BC, CA",2025-09-09 16:00:00,2025-09-09 12:00:00,"VFR",17,14,NA,2,NA,30,1014.6,"METAR CYYJ 091600Z VRB02KT 30SM FEW020 BKN044 BKN065 17/14 A2996 RMK SC1SC7SC1 SC TR SC TR SLP146 DENSITY ALT 300FT",2025-09-09 16:38:29.940713,2025-09-09 12:38:29.940761
"CYXT","Terrace Arpt, BC, CA",2025-09-09 16:00:00,2025-09-09 12:00:00,"VFR",14,11,290,4,NA,20,1016.7,"METAR CYXT 091600Z 29004KT 20SM FEW017 FEW024 BKN045 BKN210 14/11 A3002 RMK CF1CF1SC7CI1 CF TR CF TR CI TR SLP172",2025-09-09 16:38:29.947232,2025-09-09 12:38:29.947276
"CYYB","North Bay/Garland Arpt, ON, CA",2025-09-09 16:00:00,2025-09-09 12:00:00,"VFR",17,10,200,12,18,30,1024.8,"METAR CYYB 091600Z 20012G18KT 30SM FEW030 FEW120 BKN280 17/10 A3026 RMK CU1AC1CI4 SLP255",2025-09-09 16:38:29.95368,2025-09-09 12:38:29.953723
"CYQT","Thunder Bay Intl, ON, CA",2025-09-09 16:00:00,2025-09-09 12:00:00,"IFR",16,15,30,4,NA,NA,1014.3,"METAR CYQT 091600Z 03004KT 300V040 10SM BKN008 OVC023 16/15 A2995 RMK SC6SC2 SLP148 DENSITY ALT 1000FT",2025-09-09 16:38:29.96023,2025-09-09 12:38:29.960278
"CYSB","Sudbury Arpt, ON, CA",2025-09-09 16:00:00,2025-09-09 12:00:00,"VFR",18,10,220,14,22,20,1023.1,"METAR CYSB 091600Z 22014G22KT 20SM FEW022 BKN050 BKN190 18/10 A3021 RMK CF1CU4CI1 SLP237 DENSITY ALT 1500FT",2025-09-09 16:38:29.966812,2025-09-09 12:38:29.966855
"CYTS","Timmins/Power Arpt, ON, CA",2025-09-09 16:00:00,2025-09-09 12:00:00,"MVFR",12,12,200,11,NA,3,1018,"METAR CYTS 091600Z 20011KT 3SM -RA BR SCT010 OVC015 12/12 A3006 RMK SC4SC4 SLP190",2025-09-09 16:38:29.97329,2025-09-09 12:38:29.973334
"CYGK","Kingston Arpt, ON, CA",2025-09-09 16:00:00,2025-09-09 12:00:00,"VFR",18,12,170,10,NA,15,1028.2,"METAR CYGK 091600Z 17010KT 15SM FEW024 OVC240 18/12 A3036 RMK CU2CS6 SLP284",2025-09-09 16:38:29.979669,2025-09-09 12:38:29.979714
"CYHU","Montreal/St Hubert, QC, CA",2025-09-09 16:00:00,2025-09-09 12:00:00,"VFR",19,11,NA,4,NA,9,1028.2,"METAR CYHU 091600Z AUTO VRB04KT 9SM CLR 19/11 A3036 RMK SLP283",2025-09-09 16:38:29.98622,2025-09-09 12:38:29.986267
"CYMM","Fort McMurray Arpt, AB, CA",2025-09-09 16:00:00,2025-09-09 12:00:00,"MVFR",15,10,90,6,NA,5,1010.9,"METAR CYMM 091600Z AUTO 09006KT 5SM HZ CLR 15/10 A2985 RMK SLP121 DENSITY ALT 1600FT",2025-09-09 16:38:29.994738,2025-09-09 12:38:29.994782
"CYAM","Sault Ste Marie Arpt, ON, CA",2025-09-09 16:00:00,2025-09-09 12:00:00,"VFR",18,12,190,11,17,20,1019,"METAR CYAM 091600Z 19011G17KT 20SM FEW018 SCT082 BKN099 BKN150 OVC250 18/12 A3009 RMK CU1AC2AC2AS2CI1 SLP193 DENSITY ALT 1000FT",2025-09-09 16:38:30.00131,2025-09-09 12:38:30.001354
"CYBC","Baie Comeau Arpt, QC, CA",2025-09-09 16:00:00,2025-09-09 12:00:00,"VFR",13,7,210,10,NA,9,1028.2,"METAR CYBC 091600Z AUTO 21010KT 9SM FEW150 13/07 A3036 RMK SLP282",2025-09-09 16:38:30.007752,2025-09-09 12:38:30.007794
"CYBR","Brandon Arpt, MB, CA",2025-09-09 16:00:00,2025-09-09 12:00:00,"VFR",19,13,70,8,NA,15,1015.7,"METAR CYBR 091600Z 07008KT 15SM FEW250 19/13 A2999 RMK CI2 SLP162 DENSITY ALT 2100FT",2025-09-09 16:38:30.014174,2025-09-09 12:38:30.014222
"CYEG","Edmonton Intl Arpt, AB, CA",2025-09-09 16:00:00,2025-09-09 12:00:00,"VFR",17,11,180,6,NA,8,1011.9,"METAR CYEG 091600Z 18006KT 8SM SKC 17/11 A2988 RMK FU SLP124 DENSITY ALT 3200FT",2025-09-09 16:38:30.020573,2025-09-09 12:38:30.020616
"CYXX","Abbotsford Intl, BC, CA",2025-09-09 16:33:00,2025-09-09 12:33:00,"IFR",16,16,0,0,NA,4,1014.6,"SPECI CYXX 091633Z 00000KT 4SM BR BKN005 OVC008 16/16 A2996 RMK SF6SC2 VIS SW 2 SLP146 DENSITY ALT 400FT",2025-09-09 16:38:32.969555,2025-09-09 12:38:32.969603
"CYPR","Prince Rupert Arpt, BC, CA",2025-09-09 16:31:00,2025-09-09 12:31:00,NA,13,13,NA,2,NA,NA,1017.4,"SPECI CYPR 091631Z AUTO VRB02KT BKN006 OVC009 13/13 A3004 RMK WX MISG VIS MISG SLP176",2025-09-09 16:38:32.978601,2025-09-09 12:38:32.978647
"CYCO","Coppermine/Kugluktuk Arpt, NU, CA",2025-09-09 16:07:00,2025-09-09 12:07:00,"VFR",9,7,320,3,NA,6,1008.2,"SPECI CYCO 091607Z 32003KT 200V350 6SM FU BKN210 09/07 A2977 RMK CS7 SLP084",2025-09-09 16:38:32.985211,2025-09-09 12:38:32.985257
"CYFC","Fredericton Intl, NB, CA",2025-09-09 16:00:00,2025-09-09 12:00:00,"VFR",19,8,NA,5,NA,9,1028.9,"METAR CYFC 091600Z AUTO VRB05KT 9SM CLR 19/08 A3038 RMK SLP290",2025-09-09 16:38:32.991719,2025-09-09 12:38:32.991764
"CYTR","Trenton(MIL), ON, CA",2025-09-09 16:00:00,2025-09-09 12:00:00,"VFR",20,10,170,6,NA,15,1027.2,"METAR CYTR 091600Z 17006KT 120V230 15SM FEW036 20/10 A3033 RMK CU1 DENSITY ALT 660FT CONTRAILS SLP271",2025-09-09 16:38:32.998188,2025-09-09 12:38:32.998235
"CYYT","St Johns Intl, NL, CA",2025-09-09 16:00:00,2025-09-09 12:00:00,"VFR",17,9,280,11,NA,15,1025.5,"METAR CYYT 091600Z 28011KT 15SM FEW032 BKN120 BKN160 OVC220 17/09 A3028 RMK CU1AC5AC1CI1 SLP258",2025-09-09 16:38:33.004619,2025-09-09 12:38:33.004663
"CYZF","Yellowknife Arpt, NT, CA",2025-09-09 16:00:00,2025-09-09 12:00:00,"VFR",12,9,130,12,NA,15,1006.5,"METAR CYZF 091600Z 13012KT 15SM FEW020 BKN140 12/09 A2972 RMK SC1AC5 SC TR SLP074",2025-09-09 16:38:33.011062,2025-09-09 12:38:33.011105
"CYRT","Rankin Inlet Arpt, NU, CA",2025-09-09 16:00:00,2025-09-09 12:00:00,"MVFR",7,2,40,10,NA,15,1015.3,"METAR CYRT 091600Z 04010KT 15SM FEW013 BKN024 BKN040 07/02 A2998 RMK SC2CU4SC1 SH DST SE-W SLP155",2025-09-09 16:38:33.017416,2025-09-09 12:38:33.017459
"CYRB","Resolute Bay Arpt, NU, CA",2025-09-09 16:00:00,2025-09-09 12:00:00,"LIFR",-2,-2,300,4,NA,0.5,1012.3,"METAR CYRB 091600Z 30004KT 1/2SM R35/2200V2600FT/N FZFG OVC002 M02/M02 A2989 RMK FG6ST2 SLP131",2025-09-09 16:38:33.023834,2025-09-09 12:38:33.023877
"CYBK","Baker Lake Arpt, NU, CA",2025-09-09 16:00:00,2025-09-09 12:00:00,"MVFR",6,1,230,3,NA,20,1016.7,"METAR CYBK 091600Z 23003KT 200V320 20SM BKN019 06/01 A3002 RMK SC6 SLP169",2025-09-09 16:38:33.032642,2025-09-09 12:38:33.032684
"CYHD","Dryden Rgnl, ON, CA",2025-09-09 16:00:00,2025-09-09 12:00:00,"VFR",17,11,50,5,NA,9,1015.7,"METAR CYHD 091600Z AUTO 05005KT 020V140 9SM CLR 17/11 A2999 RMK SLP164 DENSITY ALT 1800FT",2025-09-09 16:38:33.039303,2025-09-09 12:38:33.039346
"CYAZ","Tofino Arpt, BC, CA",2025-09-09 16:00:00,2025-09-09 12:00:00,"LIFR",14,14,NA,2,NA,0.25,1015,"METAR CYAZ 091600Z VRB02KT 1/4SM FG VV002 14/14 A2997 RMK FG8 SLP150",2025-09-09 16:38:33.045829,2025-09-09 12:38:33.045873
"CYXS","Prince George Arpt, BC, CA",2025-09-09 16:00:00,2025-09-09 12:00:00,"MVFR",12,11,190,3,NA,5,1014,"METAR CYXS 091600Z AUTO 19003KT 5SM BR CLR 12/11 A2994 RMK SLP150",2025-09-09 16:38:33.052234,2025-09-09 12:38:33.05228
"CYQH","Watson Lake Arpt, YT, CA",2025-09-09 16:00:00,2025-09-09 12:00:00,"VFR",10,5,0,0,NA,30,1011.9,"METAR CYQH 091600Z 00000KT 30SM BKN060 BKN110 10/05 A2988 RMK CU5AC1 SLP134",2025-09-09 16:38:33.058614,2025-09-09 12:38:33.058657
"CYQU","Grande Prairie Arpt, AB, CA",2025-09-09 16:00:00,2025-09-09 12:00:00,"MVFR",16,9,240,5,NA,4,1010.6,"METAR CYQU 091600Z 24005KT 4SM FU FEW150 16/09 A2984 RMK AC1 SLP109 DENSITY ALT 3000FT",2025-09-09 16:38:33.065017,2025-09-09 12:38:33.065062
"CYWL","Williams Lake Rgnl, BC, CA",2025-09-09 16:00:00,2025-09-09 12:00:00,"IFR",13,12,110,5,NA,2.5,1015.3,"METAR CYWL 091600Z 11005KT 2 1/2SM FU SCT059 BKN100 13/12 A2998 RMK FU3SC1AC1 VIS 3/4 E-S SLP156 DENSITY ALT 3500FT",2025-09-09 16:38:33.071461,2025-09-09 12:38:33.071506
"CYMH","Mary's Harbor Arpt, NL, CA",2025-09-09 16:00:00,2025-09-09 12:00:00,"VFR",13,5,300,8,16,9,1020.7,"METAR CYMH 091600Z AUTO 30008G16KT 280V360 9SM SCT044 13/05 A3014 RMK SLP209",2025-09-09 16:38:33.077865,2025-09-09 12:38:33.077909
"CYQQ","Comox(MIL), BC, CA",2025-09-09 16:00:00,2025-09-09 12:00:00,"MVFR",17,13,310,7,NA,20,1015.3,"METAR CYQQ 091600Z 31007KT 20SM BKN019 17/13 A2998 RMK SC5 DENSITY ALT 404FT SLP152",2025-09-09 16:38:33.084237,2025-09-09 12:38:33.084283
"CYQX","Gander Intl Arpt, NL, CA",2025-09-09 16:00:00,2025-09-09 12:00:00,"VFR",18,6,270,14,19,20,1024.5,"METAR CYQX 091600Z 27014G19KT 20SM FEW051 BKN230 18/06 A3025 RMK CU1CC6 SLP247",2025-09-09 16:38:33.100944,2025-09-09 12:38:33.100986
"CYQY","Sydney Arpt, NS, CA",2025-09-09 16:00:00,2025-09-09 12:00:00,"VFR",20,7,340,6,NA,15,1028.2,"METAR CYQY 091600Z 34006KT 190V360 15SM SCT051 BKN240 20/07 A3036 RMK CU3CI2 SLP283",2025-09-09 16:38:33.107545,2025-09-09 12:38:33.107589
"CYUY","Rouyn/Noranda Arpt, QC, CA",2025-09-09 16:00:00,2025-09-09 12:00:00,"VFR",12,9,190,9,NA,15,1021.8,"METAR CYUY 091600Z 19009KT 15SM -RA OVC051 12/09 A3017 RMK SC8 SLP225",2025-09-09 16:38:33.113993,2025-09-09 12:38:33.114035
"CYXU","London Intl, ON, CA",2025-09-09 16:00:00,2025-09-09 12:00:00,"VFR",21,11,180,6,NA,15,1025.5,"METAR CYXU 091600Z 18006KT 140V220 15SM FEW050 FEW210 21/11 A3028 RMK SC1CI1 SC TR SLP257 DENSITY ALT 1400FT",2025-09-09 16:38:33.120434,2025-09-09 12:38:33.120477
"CYXY","Whitehorse Arpt, YT, CA",2025-09-09 16:00:00,2025-09-09 12:00:00,"VFR",7,5,NA,2,NA,40,1012.3,"METAR CYXY 091600Z VRB02KT 40SM FEW060 FEW140 07/05 A2989 RMK SC1AC1 SLP147",2025-09-09 16:38:33.126889,2025-09-09 12:38:33.126932
"CYZP","Sandspit Arpt, BC, CA",2025-09-09 16:00:00,2025-09-09 12:00:00,"MVFR",15,10,300,7,NA,9,1018.7,"METAR CYZP 091600Z AUTO 30007KT 9SM OVC026 15/10 A3008 RMK SLP188",2025-09-09 16:38:33.133303,2025-09-09 12:38:33.133347
"CYOD","Cold Lake (Mil), AB, CA",2025-09-09 16:00:00,2025-09-09 12:00:00,"VFR",17,11,120,6,NA,8,1013.6,"METAR CYOD 091600Z 12006KT 8SM FEW250 17/11 A2993 RMK CI1 DENSITY ALT 2593FT FU SLP144",2025-09-09 16:38:33.139676,2025-09-09 12:38:33.139718
"CYQK","Kenora Arpt, ON, CA",2025-09-09 16:00:00,2025-09-09 12:00:00,"VFR",19,9,NA,2,NA,20,1015.7,"METAR CYQK 091600Z VRB02KT 20SM FEW250 19/09 A2999 RMK CI1 CI TR SLP162 DENSITY ALT 2100FT",2025-09-09 16:38:33.146259,2025-09-09 12:38:33.146304
"CYQT","Thunder Bay Intl, ON, CA",2025-09-09 16:00:00,2025-09-09 12:00:00,"IFR",16,15,30,4,NA,NA,1014.3,"METAR CYQT 091600Z 03004KT 300V040 10SM BKN008 OVC023 16/15 A2995 RMK SC6SC2 SLP148 DENSITY ALT 1000FT",2025-09-09 16:38:33.155124,2025-09-09 12:38:33.155191
"CYAM","Sault Ste Marie Arpt, ON, CA",2025-09-09 16:00:00,2025-09-09 12:00:00,"VFR",18,12,190,11,17,20,1019,"METAR CYAM 091600Z 19011G17KT 20SM FEW018 SCT082 BKN099 BKN150 OVC250 18/12 A3009 RMK CU1AC2AC2AS2CI1 SLP193 DENSITY ALT 1000FT",2025-09-09 16:38:33.161513,2025-09-09 12:38:33.161556
"CYBL","Campbell River Arpt, BC, CA",2025-09-09 16:00:00,2025-09-09 12:00:00,"MVFR",15,14,310,7,NA,20,1015.3,"METAR CYBL 091600Z 31007KT 20SM FEW007 BKN017 15/14 A2998 RMK SF1SC7 SF TR VIS LWR S-SW DUE LO CLD SLP156",2025-09-09 16:38:33.168038,2025-09-09 12:38:33.16808
"CYCD","Nanaimo Arpt, BC, CA",2025-09-09 16:00:00,2025-09-09 12:00:00,"VFR",17,14,20,6,NA,20,1015,"METAR CYCD 091600Z 02006KT 20SM FEW006 BKN046 17/14 A2997 RMK SF1SC7 SF TR SLP150 DENSITY ALT 300FT",2025-09-09 16:38:33.174457,2025-09-09 12:38:33.1745
"CYDF","Deer Lake Arpt, NL, CA",2025-09-09 16:00:00,2025-09-09 12:00:00,"VFR",18,5,240,15,22,15,1025.1,"METAR CYDF 091600Z 24015G22KT 220V290 15SM SCT056 SCT250 18/05 A3027 RMK CU3CI1 SLP254",2025-09-09 16:38:33.180929,2025-09-09 12:38:33.180972
"CYDP","Nain Arpt, NL, CA",2025-09-09 16:00:00,2025-09-09 12:00:00,"VFR",12,2,300,17,25,15,1016.7,"METAR CYDP 091600Z 30017G25KT 15SM BKN051 12/02 A3002 RMK SC5 SLP167",2025-09-09 16:38:33.187316,2025-09-09 12:38:33.187361
"CYHM","Hamilton/Munro Intl, ON, CA",2025-09-09 16:00:00,2025-09-09 12:00:00,"VFR",21,10,140,10,NA,15,1025.8,"METAR CYHM 091600Z 14010KT 130V200 15SM FEW050 21/10 A3029 RMK CU1 SLP262 DENSITY ALT 1300FT",2025-09-09 16:38:33.193645,2025-09-09 12:38:33.193688
"CYKF","Waterloo Intl, ON, CA",2025-09-09 16:00:00,2025-09-09 12:00:00,"VFR",20,8,180,7,NA,9,1025.8,"METAR CYKF 091600Z AUTO 18007KT 150V220 9SM CLR 20/08 A3029 RMK SLP260 DENSITY ALT 1600FT",2025-09-09 16:38:33.200078,2025-09-09 12:38:33.200122
"CYTZ","Toronto/Bishop Arpt, ON, CA",2025-09-09 16:00:00,2025-09-09 12:00:00,"VFR",17,13,70,6,NA,9,1026.2,"METAR CYTZ 091600Z AUTO 07006KT 9SM CLR 17/13 A3030 RMK SLP263",2025-09-09 16:38:33.206443,2025-09-09 12:38:33.206488
"CYBG","Bagotville(MIL), QC, CA",2025-09-09 16:00:00,2025-09-09 12:00:00,"VFR",15,9,90,6,NA,25,1027.5,"METAR CYBG 091600Z 09006KT 25SM FEW025 BKN180 15/09 A3034 RMK CU2AC5 DENSITY ALT 348FT SLP280",2025-09-09 16:38:33.214997,2025-09-09 12:38:33.215041
"CYFB","Iqaluit Arpt, NU, CA",2025-09-09 16:00:00,2025-09-09 12:00:00,"MVFR",7,4,320,11,18,30,1009.9,"METAR CYFB 091600Z 32011G18KT 30SM BKN018 07/04 A2982 RMK SC7 SLP102",2025-09-09 16:38:33.221431,2025-09-09 12:38:33.221478
"CYGL","La Grande Riviere Arpt, QC, CA",2025-09-09 16:27:00,2025-09-09 12:27:00,"VFR",12,10,210,7,NA,15,1014,"SPECI CYGL 091627Z 21007KT 15SM SCT022 BKN051 OVC090 12/10 A2994 RMK SC3SC3AC2 SLP148",2025-09-09 16:38:35.797404,2025-09-09 12:38:35.797447
"CYMT","Chibougamau Arpt, QC, CA",2025-09-09 16:15:00,2025-09-09 12:15:00,"VFR",13,9,190,14,23,9,1023.1,"SPECI CYMT 091615Z AUTO 19014G23KT 9SM -RA BKN045 OVC050 13/09 A3021 RMK SLP244",2025-09-09 16:38:35.804051,2025-09-09 12:38:35.804132
"CYCO","Coppermine/Kugluktuk Arpt, NU, CA",2025-09-09 16:07:00,2025-09-09 12:07:00,"VFR",9,7,320,3,NA,6,1008.2,"SPECI CYCO 091607Z 32003KT 200V350 6SM FU BKN210 09/07 A2977 RMK CS7 SLP084",2025-09-09 16:38:35.810843,2025-09-09 12:38:35.810888
"CYHA","Quaqtaq Arpt, QC, CA",2025-09-09 16:00:00,2025-09-09 12:00:00,"VFR",8,3,300,6,NA,15,1013.3,"METAR CYHA 091600Z 30006KT 15SM FEW035 FEW070 08/03 A2992 RMK SC1AC1 AC TR SLP135",2025-09-09 16:38:35.817544,2025-09-09 12:38:35.817589
"CYKJ","Key Lake Arpt, SK, CA",2025-09-09 16:00:00,2025-09-09 12:00:00,"VFR",13,8,170,7,NA,9,1015.7,"METAR CYKJ 091600Z AUTO 17007KT 9SM CLR 13/08 A2999 RMK SLP175",2025-09-09 16:38:35.826727,2025-09-09 12:38:35.82677
"CYBC","Baie Comeau Arpt, QC, CA",2025-09-09 16:00:00,2025-09-09 12:00:00,"VFR",13,7,210,10,NA,9,1028.2,"METAR CYBC 091600Z AUTO 21010KT 9SM FEW150 13/07 A3036 RMK SLP282",2025-09-09 16:38:35.833265,2025-09-09 12:38:35.83331
"CYPC","Paulatuk Arpt, NT, CA",2025-09-09 16:00:00,2025-09-09 12:00:00,"VFR",6,6,60,2,NA,15,1005.8,"METAR CYPC 091600Z 06002KT 15SM SCT190 BKN250 06/06 A2970 RMK AC4CS2 SLP058",2025-09-09 16:38:35.839796,2025-09-09 12:38:35.839839
"CYVC","La Ronge Arpt, SK, CA",2025-09-09 16:00:00,2025-09-09 12:00:00,"VFR",15,11,100,5,NA,15,1017,"METAR CYVC 091600Z 10005KT 15SM FEW200 15/11 A3003 RMK CI2 SLP180",2025-09-09 16:38:35.846333,2025-09-09 12:38:35.846377
"CYGV","Havre St Pierre Arpt, QC, CA",2025-09-09 16:00:00,2025-09-09 12:00:00,"VFR",14,4,250,13,21,9,1026.8,"METAR CYGV 091600Z AUTO 25013G21KT 9SM SCT160 14/04 A3032 RMK SLP271",2025-09-09 16:38:35.852879,2025-09-09 12:38:35.852922
"CYLK","Lutselke Arpt, NT, CA",2025-09-09 16:00:00,2025-09-09 12:00:00,"VFR",14,8,90,4,NA,25,1009.9,"METAR CYLK 091600Z 09004KT 060V150 25SM FEW065 SCT120 BKN210 14/08 A2982 RMK SC2AC1CI3 FU SLP106",2025-09-09 16:38:35.859338,2025-09-09 12:38:35.859381
"CYXP","Pangnirtung Arpt, NU, CA",2025-09-09 16:00:00,2025-09-09 12:00:00,"VFR",7,1,240,16,NA,15,1003.8,"METAR CYXP 091600Z 24016KT 15SM FEW032 07/01 A2964 RMK CF1 SLP040",2025-09-09 16:38:35.865805,2025-09-09 12:38:35.865847
"CYCK","Chatham/Kent Arpt, ON, CA",2025-09-09 16:00:00,2025-09-09 12:00:00,"VFR",21,9,220,8,NA,9,1024.8,"METAR CYCK 091600Z AUTO 22008KT 180V240 9SM CLR 21/09 A3026 RMK SLP249 DENSITY ALT 1200FT",2025-09-09 16:38:35.872304,2025-09-09 12:38:35.87235
"CYVO","Val D'Or Arpt, QC, CA",2025-09-09 16:00:00,2025-09-09 12:00:00,"VFR",14,7,180,9,15,15,1023.1,"METAR CYVO 091600Z 18009G15KT 15SM BKN070 OVC100 14/07 A3021 RMK AC5AC3 SLP243",2025-09-09 16:38:35.881378,2025-09-09 12:38:35.881422
"CYRJ","Roberval Arpt, QC, CA",2025-09-09 16:00:00,2025-09-09 12:00:00,"VFR",17,6,220,10,16,40,1026.2,"METAR CYRJ 091600Z 22010G16KT 40SM FEW060 BKN120 BKN240 17/06 A3030 RMK SC2AC4CI1 CI TR SLP269",2025-09-09 16:38:35.887877,2025-09-09 12:38:35.887924
"CYFB","Iqaluit Arpt, NU, CA",2025-09-09 16:00:00,2025-09-09 12:00:00,"MVFR",7,4,320,11,18,30,1009.9,"METAR CYFB 091600Z 32011G18KT 30SM BKN018 07/04 A2982 RMK SC7 SLP102",2025-09-09 16:38:35.894477,2025-09-09 12:38:35.894521
"CYDQ","Dawson Creek Arpt, BC, CA",2025-09-09 16:00:00,2025-09-09 12:00:00,"VFR",21,6,240,6,NA,9,1008.5,"METAR CYDQ 091600Z AUTO 24006KT 190V320 9SM CLR 21/06 A2978 RMK SLP089 DENSITY ALT 3500FT",2025-09-09 16:38:35.901071,2025-09-09 12:38:35.901114
"CYTE","Cape Dorset Arpt, NU, CA",2025-09-09 16:00:00,2025-09-09 12:00:00,"VFR",7,2,240,7,NA,15,1011.9,"METAR CYTE 091600Z 24007KT 15SM FEW024 BKN044 07/02 A2988 RMK CU1SC4 SLP125",2025-09-09 16:38:35.907581,2025-09-09 12:38:35.907625
"CYVQ","Norman Wells Arpt, NT, CA",2025-09-09 16:00:00,2025-09-09 12:00:00,"MVFR",13,12,260,5,NA,6,1004.5,"METAR CYVQ 091600Z 26005KT 6SM -SHRA FEW007 BKN024 BKN050 OVC068 13/12 A2966 RMK ST1SC5SC1AC1 CVCTV CLD EMBD SLP048",2025-09-09 16:38:35.914169,2025-09-09 12:38:35.914217
"CYQB","Quebec/Lesage Intl, QC, CA",2025-09-09 16:00:00,2025-09-09 12:00:00,"VFR",17,6,NA,2,NA,30,1028.9,"METAR CYQB 091600Z VRB02KT 30SM FEW050 FEW100 FEW250 17/06 A3038 RMK SC1AC1CI1 SC TR AC TR SLP292",2025-09-09 16:38:35.920822,2025-09-09 12:38:35.920865
"KHPN","White Plains/Westchester Cnty, NY, US",2025-09-09 15:56:00,2025-09-09 11:56:00,"VFR",21.1,4.4,80,12,17,NA,1027.5,"METAR KHPN 091556Z 08012G17KT 10SM FEW040 21/04 A3034 RMK AO2 SLP272 T02110044",2025-09-09 16:38:35.927412,2025-09-09 12:38:35.927457
"KBUF","Buffalo-Niagara Intl, NY, US",2025-09-09 15:54:00,2025-09-09 11:54:00,"VFR",21.1,7.2,170,4,NA,NA,1026.2,"METAR KBUF 091554Z 17004KT 10SM FEW055 21/07 A3030 RMK AO2 SLP262 FU ALF T02110072 $",2025-09-09 16:38:35.934024,2025-09-09 12:38:35.934068
"KPHL","Philadelphia Intl, PA, US",2025-09-09 15:54:00,2025-09-09 11:54:00,"VFR",22.8,12.8,70,9,19,NA,1026.2,"METAR KPHL 091554Z 07009G19KT 10SM BKN038 BKN250 BKN330 23/13 A3030 RMK AO2 SLP261 T02280128 $",2025-09-09 16:38:35.943258,2025-09-09 12:38:35.943303
"KROC","Rochester Intl Arpt, NY, US",2025-09-09 15:54:00,2025-09-09 11:54:00,"VFR",20.6,8.9,240,5,NA,NA,1026.8,"METAR KROC 091554Z 24005KT 10SM FEW028 FEW240 21/09 A3032 RMK AO2 SLP271 T02060089 $",2025-09-09 16:38:35.949956,2025-09-09 12:38:35.950005
"KBOS","Boston/Logan Intl, MA, US",2025-09-09 15:54:00,2025-09-09 11:54:00,"VFR",20,11.7,70,8,NA,NA,1029.2,"METAR KBOS 091554Z 07008KT 10SM FEW030 FEW250 20/12 A3039 RMK AO2 SLP291 T02000117",2025-09-09 16:38:35.95659,2025-09-09 12:38:35.956635
"KRIC","Richmond Intl, VA, US",2025-09-09 15:54:00,2025-09-09 11:54:00,"VFR",21.7,13.9,50,11,19,NA,1024.1,"METAR KRIC 091554Z 05011G19KT 10SM OVC033 22/14 A3024 RMK AO2 SLP242 T02170139",2025-09-09 16:38:35.963269,2025-09-09 12:38:35.963314
"KBWI","Baltimore-Washington Intl, MD, US",2025-09-09 15:54:00,2025-09-09 11:54:00,"VFR",22.2,10.6,80,15,NA,NA,1025.8,"METAR KBWI 091554Z 08015KT 10SM SCT041 SCT250 22/11 A3029 RMK AO2 SLP256 T02220106",2025-09-09 16:38:35.969872,2025-09-09 12:38:35.969916
"KSYR","Syracuse/Hancock Intl, NY, US",2025-09-09 15:54:00,2025-09-09 11:54:00,"VFR",20,10.6,0,0,NA,NA,1027.9,"METAR KSYR 091554Z 00000KT 10SM FEW030 SCT250 20/11 A3035 RMK AO2 SLP275 T02000106",2025-09-09 16:38:35.976571,2025-09-09 12:38:35.976615
"KIAD","Washington/Dulles Intl, VA, US",2025-09-09 15:52:00,2025-09-09 11:52:00,"VFR",22.8,10,110,8,NA,NA,1025.8,"METAR KIAD 091552Z 11008KT 10SM FEW035 SCT250 23/10 A3029 RMK AO2 SLP255 T02280100",2025-09-09 16:38:35.983171,2025-09-09 12:38:35.983221
"KDCA","Washington/Reagan-National Arpt, VA, US",2025-09-09 15:52:00,2025-09-09 11:52:00,"VFR",22.2,11.1,60,13,NA,NA,1025.5,"METAR KDCA 091552Z 06013KT 10SM FEW040 SCT250 22/11 A3028 RMK AO2 SLP251 T02220111",2025-09-09 16:38:35.989739,2025-09-09 12:38:35.989783
"KALB","Albany Intl, NY, US",2025-09-09 15:51:00,2025-09-09 11:51:00,"VFR",18.9,9.4,0,0,NA,NA,1028.5,"METAR KALB 091551Z 00000KT 10SM FEW037 SCT250 19/09 A3037 RMK AO2 SLP284 T01890094",2025-09-09 16:38:35.999055,2025-09-09 12:38:35.999098
"KPVD","Providence/Green Mem, RI, US",2025-09-09 15:51:00,2025-09-09 11:51:00,"VFR",21.1,10.6,50,11,17,NA,1028.5,"METAR KPVD 091551Z 05011G17KT 10SM FEW033 FEW250 21/11 A3037 RMK AO2 SLP285 T02110106",2025-09-09 16:38:36.005673,2025-09-09 12:38:36.005719
"KBED","Bedford/Hanscom Fld, MA, US",2025-09-09 15:51:00,2025-09-09 11:51:00,"VFR",21.7,7.8,130,11,17,NA,1028.5,"METAR KBED 091551Z 13011G17KT 10SM SCT040 22/08 A3037 RMK AO2 SLP298 T02170078 $",2025-09-09 16:38:36.012466,2025-09-09 12:38:36.012512
"KEWR","Newark Intl, NJ, US",2025-09-09 15:51:00,2025-09-09 11:51:00,"VFR",21.7,10,80,5,15,NA,1027.2,"METAR KEWR 091551Z 08005G15KT 10SM SCT040 SCT250 22/10 A3033 RMK AO2 SLP269 T02170100 $",2025-09-09 16:38:36.019049,2025-09-09 12:38:36.019095
"KLGA","New York/La Guardia Arpt, NY, US",2025-09-09 15:51:00,2025-09-09 11:51:00,"VFR",20.6,10,50,13,NA,NA,1027.2,"METAR KLGA 091551Z 05013KT 10SM FEW028 SCT250 21/10 A3033 RMK AO2 SLP269 T02060100",2025-09-09 16:38:36.025741,2025-09-09 12:38:36.025787
"KBDL","Hartford/Bradley Intl, CT, US",2025-09-09 15:51:00,2025-09-09 11:51:00,"VFR",20.6,10.6,0,0,NA,NA,1028.5,"METAR KBDL 091551Z 00000KT 10SM FEW037 FEW250 21/11 A3037 RMK AO2 SLP284 T02060106",2025-09-09 16:38:36.032406,2025-09-09 12:38:36.032453
"KJFK","New York/JF Kennedy Intl, NY, US",2025-09-09 15:51:00,2025-09-09 11:51:00,"VFR",21.7,8.3,60,11,NA,NA,1027.2,"METAR KJFK 091551Z 06011KT 10SM FEW028 FEW032 BKN250 22/08 A3033 RMK AO2 SLP270 T02170083",2025-09-09 16:38:36.039108,2025-09-09 12:38:36.03917
"KPIT","Pittsburgh Intl, PA, US",2025-09-09 15:51:00,2025-09-09 11:51:00,"VFR",20.6,6.1,NA,5,NA,NA,1025.8,"METAR KPIT 091551Z VRB05KT 10SM FEW040 FEW250 21/06 A3029 RMK AO2 SLP262 T02060061 $",2025-09-09 16:38:36.045773,2025-09-09 12:38:36.04582
"KORF","Norfolk Intl, VA, US",2025-09-09 15:51:00,2025-09-09 11:51:00,"MVFR",22.8,18.3,40,18,NA,NA,1021.8,"METAR KORF 091551Z 04018KT 10SM FEW017 BKN024 OVC031 23/18 A3017 RMK AO2 PK WND 04028/1519 SLP214 T02280183",2025-09-09 16:38:36.052478,2025-09-09 12:38:36.055366
"KRSW","Ft Myers/SW Florida Intl, FL, US",2025-09-09 16:34:00,2025-09-09 12:34:00,"MVFR",29.4,25.6,100,5,NA,NA,1014,"SPECI KRSW 091634Z 10005KT 10SM SCT020 BKN025 29/26 A2994 RMK AO1 T02940256",2025-09-09 16:38:37.614034,2025-09-09 12:38:37.614078
"KLNK","Lincoln Arpt, NE, US",2025-09-09 16:32:00,2025-09-09 12:32:00,"MVFR",21.1,15,200,10,NA,NA,1016.3,"SPECI KLNK 091632Z 20010KT 10SM OVC029 21/15 A3001 RMK AO2 T02110150",2025-09-09 16:38:37.620733,2025-09-09 12:38:37.620776
"KFSD","Sioux Falls/Foss Fld, SD, US",2025-09-09 16:29:00,2025-09-09 12:29:00,"MVFR",17.8,16.7,200,4,NA,NA,1015.7,"SPECI KFSD 091629Z 20004KT 10SM -RA SCT009 BKN030 BKN110 18/17 A2999 RMK AO2 RAB14 P0001 T01780167",2025-09-09 16:38:37.627318,2025-09-09 12:38:37.627364
"KMIA","Miami Intl, FL, US",2025-09-09 16:27:00,2025-09-09 12:27:00,"MVFR",31.1,24.4,130,6,NA,NA,1014.3,"SPECI KMIA 091627Z 13006KT 10SM TS BKN026CB BKN250 31/24 A2995 RMK AO2 TSB26 OCNL LTGICCG VC W-NW TS VC W-NW MOV NE CB DSNT ALQDS MOV NE T03110244 $",2025-09-09 16:38:37.633954,2025-09-09 12:38:37.634
"KSDF","Louisville Intl, KY, US",2025-09-09 15:56:00,2025-09-09 11:56:00,"VFR",22.2,9.4,0,0,NA,NA,1022.8,"METAR KSDF 091556Z 00000KT 10SM FEW350 22/09 A3020 RMK AO2 SLP222 T02220094",2025-09-09 16:38:37.640645,2025-09-09 12:38:37.640691
"KCHS","Charleston Intl, SC, US",2025-09-09 15:56:00,2025-09-09 11:56:00,"VFR",23.9,13.3,30,13,NA,NA,1020.1,"METAR KCHS 091556Z 03013KT 10SM SCT180 BKN250 24/13 A3012 RMK AO2 SLP200 T02390133",2025-09-09 16:38:37.64974,2025-09-09 12:38:37.649802
"KJAX","Jacksonville Intl, FL, US",2025-09-09 15:56:00,2025-09-09 11:56:00,"MVFR",25,23,10,13,19,NA,1017.4,"METAR KJAX 091556Z 01013G19KT 10SM -RA FEW008 BKN014 OVC110 25/23 A3004",2025-09-09 16:38:37.656411,2025-09-09 12:38:37.656456
"KDAY","Dayton/Cox Intl, OH, US",2025-09-09 15:56:00,2025-09-09 11:56:00,"VFR",21.7,5,100,3,NA,NA,1024.1,"METAR KDAY 091556Z 10003KT 10SM FEW250 22/05 A3024 RMK AO2 SLP236 T02170050",2025-09-09 16:38:37.663032,2025-09-09 12:38:37.663078
"KDSM","Des Moines Intl, IA, US",2025-09-09 15:54:00,2025-09-09 11:54:00,"VFR",17.2,9.4,190,6,NA,NA,1018,"METAR KDSM 091554Z 19006KT 10SM FEW070 FEW110 SCT190 OVC210 17/09 A3006 RMK AO2 SLP175 T01720094",2025-09-09 16:38:37.669759,2025-09-09 12:38:37.669805
"KGSO","Greensboro Intl, NC, US",2025-09-09 15:54:00,2025-09-09 11:54:00,"VFR",20.6,7.2,60,14,20,NA,1024.1,"METAR KGSO 091554Z 06014G20KT 10SM FEW060 FEW250 21/07 A3024 RMK AO2 SLP235 T02060072",2025-09-09 16:38:37.676399,2025-09-09 12:38:37.676444
"KMEM","Memphis Intl, TN, US",2025-09-09 15:54:00,2025-09-09 11:54:00,"VFR",26.7,17.8,170,10,NA,NA,1019.7,"METAR KMEM 091554Z 17010KT 10SM SCT028 27/18 A3011 RMK AO2 SLP190 T02670178 $",2025-09-09 16:38:37.68297,2025-09-09 12:38:37.683014
"KFWA","Fort Wayne Intl, IN, US",2025-09-09 15:54:00,2025-09-09 11:54:00,"VFR",22.2,8.3,200,9,NA,NA,1023.8,"METAR KFWA 091554Z 20009KT 10SM SCT250 22/08 A3023 RMK AO2 SLP237 T02220083",2025-09-09 16:38:37.689472,2025-09-09 12:38:37.689515
"KIND","Indianapolis Intl, IN, US",2025-09-09 15:54:00,2025-09-09 11:54:00,"VFR",22.2,7.8,170,7,NA,NA,1023.1,"METAR KIND 091554Z 17007KT 10SM BKN250 22/08 A3021 RMK AO2 SLP226 T02220078",2025-09-09 16:38:37.695948,2025-09-09 12:38:37.695993
"KSBN","South Bend Rgnl, IN, US",2025-09-09 15:54:00,2025-09-09 11:54:00,"VFR",21.1,8.9,210,6,NA,NA,1023.5,"METAR KSBN 091554Z 21006KT 10SM CLR 21/09 A3022 RMK AO2 SLP232 T02110089",2025-09-09 16:38:37.702636,2025-09-09 12:38:37.70268
"KHSV","Huntsville Intl, AL, US",2025-09-09 15:53:00,2025-09-09 11:53:00,"VFR",23.9,12.8,150,8,NA,NA,1022.1,"METAR KHSV 091553Z 15008KT 10SM FEW045 FEW060 24/13 A3018 RMK AO2 SLP213 T02390128 $",2025-09-09 16:38:37.711538,2025-09-09 12:38:37.711584
"KPBI","Palm Beach Intl, FL, US",2025-09-09 15:53:00,2025-09-09 11:53:00,"VFR",30.6,23.9,NA,3,NA,NA,1015,"METAR KPBI 091553Z VRB03KT 10SM SCT030 BKN250 31/24 A2997 RMK AO2 SLP147 CB DSNT E-SE S SW T03060239 $",2025-09-09 16:38:37.71813,2025-09-09 12:38:37.718196
"KDTW","Detroit/Metro Wayne Cnty, MI, US",2025-09-09 15:53:00,2025-09-09 11:53:00,"VFR",21.7,7.2,190,7,NA,NA,1024.5,"METAR KDTW 091553Z 19007KT 10SM SCT250 22/07 A3025 RMK AO2 SLP243 T02170072 $",2025-09-09 16:38:37.724703,2025-09-09 12:38:37.724748
"KMCI","Kansas City Intl, MO, US",2025-09-09 15:53:00,2025-09-09 11:53:00,"VFR",15.6,14.4,190,13,NA,NA,1017.4,"METAR KMCI 091553Z 19013KT 10SM -RA FEW036 BKN047 OVC090 16/14 A3004 RMK AO2 SLP169 P0005 T01560144 $",2025-09-09 16:38:37.731199,2025-09-09 12:38:37.731245
"KBHM","Birmingham Intl, AL, US",2025-09-09 15:53:00,2025-09-09 11:53:00,"VFR",25,11.1,140,9,17,NA,1022.1,"METAR KBHM 091553Z 14009G17KT 10SM FEW055 FEW110 25/11 A3018 RMK AO2 SLP213 T02500111",2025-09-09 16:38:37.737633,2025-09-09 12:38:37.737678
"KMDW","Chicago/Midway Intl, IL, US",2025-09-09 15:53:00,2025-09-09 11:53:00,"VFR",21.1,5.6,210,7,NA,NA,1022.4,"METAR KMDW 091553Z 21007KT 10SM BKN250 21/06 A3019 RMK AO2 SLP216 T02110056 $",2025-09-09 16:38:37.744118,2025-09-09 12:38:37.744184
"KMCO","Orlando Intl, FL, US",2025-09-09 15:53:00,2025-09-09 11:53:00,"VFR",28.9,23.3,NA,3,NA,NA,1015,"METAR KMCO 091553Z VRB03KT 10SM FEW020 BKN160 BKN250 29/23 A2997 RMK AO2 SLP149 T02890233 $",2025-09-09 16:38:37.750606,2025-09-09 12:38:37.750649
"KBNA","Nashville Intl, TN, US",2025-09-09 15:53:00,2025-09-09 11:53:00,"VFR",25,12.8,170,8,NA,NA,1022.1,"METAR KBNA 091553Z 17008KT 10SM SCT070 SCT250 25/13 A3018 RMK AO2 SLP215 T02500128 $",2025-09-09 16:38:37.757063,2025-09-09 12:38:37.757109
"KEYW","Key West Intl, FL, US",2025-09-09 15:53:00,2025-09-09 11:53:00,"VFR",30.6,25.6,210,9,NA,NA,1014.6,"METAR KEYW 091553Z 21009KT 10SM FEW002 FEW026 31/26 A2996 RMK AO2 SLP151 T03060256",2025-09-09 16:38:37.765906,2025-09-09 12:38:37.765949
"KFLL","Ft Lauderdale-Hollywood Intl, FL, US",2025-09-09 15:53:00,2025-09-09 11:53:00,"VFR",29.4,23.9,280,13,18,NA,1014.6,"METAR KFLL 091553Z 28013G18KT 10SM TS SCT025CB BKN080 BKN250 29/24 A2996 RMK AO2 TSB47 SLP143 OCNL LTGICCG SW-NW TS SW-NW MOV NE TCU NE-E T02940239",2025-09-09 16:38:37.772354,2025-09-09 12:38:37.772399
"KLIT","Little Rock/Clinton Natl, AR, US",2025-09-09 15:53:00,2025-09-09 11:53:00,"VFR",22.2,12.8,0,0,NA,NA,1019.7,"METAR KLIT 091553Z 00000KT 10SM FEW160 22/13 A3011 RMK AO2 SLP197 T02220128",2025-09-09 16:38:37.778933,2025-09-09 12:38:37.778977
"KGRR","Grand Rapids Intl, MI, US",2025-09-09 15:53:00,2025-09-09 11:53:00,"VFR",19.4,7.8,NA,5,NA,NA,1023.5,"METAR KGRR 091553Z VRB05KT 10SM SCT250 19/08 A3022 RMK AO2 SLP233 T01940078",2025-09-09 16:38:37.78544,2025-09-09 12:38:37.785494
"KMYR","Myrtle Beach Intl, SC, US",2025-09-09 15:53:00,2025-09-09 11:53:00,"VFR",22.2,15.6,360,13,NA,NA,1020.7,"METAR KMYR 091553Z 36013KT 10SM CLR 22/16 A3014 RMK AO2 SLP204 T02220156 $",2025-09-09 16:38:37.791917,2025-09-09 12:38:37.791961
"KSAV","Savannah Intl, GA, US",2025-09-09 15:53:00,2025-09-09 11:53:00,"VFR",25.6,15,40,11,19,NA,1019.7,"METAR KSAV 091553Z 04011G19KT 10SM SCT250 26/15 A3011 RMK AO2 SLP197 T02560150",2025-09-09 16:38:37.798439,2025-09-09 12:38:37.798485
"KTPA","Tampa Intl Arpt, FL, US",2025-09-09 15:53:00,2025-09-09 11:53:00,"VFR",27.8,24.4,NA,4,NA,NA,1014.6,"METAR KTPA 091553Z VRB04KT 10SM FEW010 SCT035 BKN110 28/24 A2996 RMK AO2 SLP146 OCNL LTGIC DSNT SW CB DSNT SW T02780244 $",2025-09-09 16:38:37.804876,2025-09-09 12:38:37.804921
"KMSP","Minneapolis-St Paul Intl, MN, US",2025-09-09 15:53:00,2025-09-09 11:53:00,"MVFR",19.4,13.3,230,11,17,NA,1015.3,"METAR KMSP 091553Z 23011G17KT 10SM OVC029 19/13 A2998 RMK AO2 SLP148 T01940133",2025-09-09 16:38:37.811396,2025-09-09 12:38:37.81144
"KCLT","Charlotte/Douglas Intl, NC, US",2025-09-09 15:52:00,2025-09-09 11:52:00,"VFR",21.7,8.3,50,14,20,NA,1024.1,"METAR KCLT 091552Z 05014G20KT 10SM FEW045 FEW250 22/08 A3024 RMK SLP248 T02170083 $",2025-09-09 16:38:37.820258,2025-09-09 12:38:37.820328
"KATL","Atlanta/Hartsfield-Jackson Intl, GA, US",2025-09-09 15:52:00,2025-09-09 11:52:00,"VFR",23.3,11.1,70,14,NA,NA,1023.1,"METAR KATL 091552Z 07014KT 10SM FEW065 FEW200 FEW250 23/11 A3021 RMK SLP222 T02330111",2025-09-09 16:38:37.826854,2025-09-09 12:38:37.826898
"KOMA","Omaha/Eppley Fld, NE, US",2025-09-09 15:52:00,2025-09-09 11:52:00,"VFR",21.1,15.6,170,10,NA,NA,1016,"METAR KOMA 091552Z COR 17010KT 10SM SCT040 SCT080 21/16 A3000 RMK AO2 SLP155 T02110156",2025-09-09 16:38:37.833425,2025-09-09 12:38:37.833471
"KCVG","Cincinnati Intl, KY, US",2025-09-09 15:52:00,2025-09-09 11:52:00,"VFR",21.7,8.3,130,5,NA,NA,1023.5,"METAR KCVG 091552Z 13005KT 10SM FEW250 22/08 A3022 RMK AO2 SLP226 T02170083",2025-09-09 16:38:37.83996,2025-09-09 12:38:37.840006
"KMLI","Moline/Quad City Intl, IL, US",2025-09-09 15:52:00,2025-09-09 11:52:00,"VFR",21.1,9.4,180,9,NA,NA,1020.1,"METAR KMLI 091552Z 18009KT 10SM CLR 21/09 A3012 RMK AO2 SLP198 T02110094",2025-09-09 16:38:37.846775,2025-09-09 12:38:37.846821
"KORD","Chicago/O'Hare Intl, IL, US",2025-09-09 15:51:00,2025-09-09 11:51:00,"VFR",20.6,6.1,180,7,NA,NA,1022.1,"METAR KORD 091551Z 18007KT 10SM BKN250 21/06 A3018 RMK AO2 SLP216 T02060061",2025-09-09 16:38:37.853492,2025-09-09 12:38:37.853536
"KCLE","Cleveland/Hopkins Intl, OH, US",2025-09-09 15:51:00,2025-09-09 11:51:00,"VFR",22.2,6.1,130,6,NA,NA,1024.1,"METAR KCLE 091551Z 13006KT 10SM FEW250 22/06 A3024 RMK AO2 SLP254 T02220061",2025-09-09 16:38:37.859996,2025-09-09 12:38:37.86004
"KCMH","Columbus/Glenn Intl, OH, US",2025-09-09 15:51:00,2025-09-09 11:51:00,"VFR",21.1,6.7,NA,4,NA,NA,1024.1,"METAR KCMH 091551Z VRB04KT 10SM FEW250 21/07 A3024 RMK AO2 SLP239 T02110067",2025-09-09 16:38:37.866674,2025-09-09 12:38:37.866722
"KSTL","St Louis/Lambert Intl, MO, US",2025-09-09 15:51:00,2025-09-09 11:51:00,"VFR",23.3,9.4,170,5,NA,NA,1021.1,"METAR KSTL 091551Z 17005KT 10SM FEW140 SCT200 BKN250 23/09 A3015 RMK AO2 SLP202 T02330094",2025-09-09 16:38:37.873262,2025-09-09 12:38:37.873308
"KRDU","Raleigh-Durham Intl, NC, US",2025-09-09 15:51:00,2025-09-09 11:51:00,"VFR",21.7,12.2,20,8,16,NA,1023.5,"METAR KRDU 091551Z 02008G16KT 10SM SCT030 SCT250 22/12 A3022 RMK AO2 SLP230 T02170122",2025-09-09 16:38:37.882185,2025-09-09 12:38:37.882231
"KASE","Aspen/Pitkin Cnty, CO, US",2025-09-09 16:24:00,2025-09-09 12:24:00,"VFR",19.4,3.3,350,8,NA,NA,1025.5,"SPECI KASE 091624Z 35008KT 10SM SCT085 BKN110 19/03 A3028 RMK AO2 RAB10E24 P0000 T01940033",2025-09-09 16:38:39.537488,2025-09-09 12:38:39.537533
"KSEA","Seattle-Tacoma Intl, WA, US",2025-09-09 16:13:00,2025-09-09 12:13:00,"VFR",17.2,12.8,360,5,NA,NA,1015,"SPECI KSEA 091613Z 36005KT 10SM FEW009 SCT040 BKN100 BKN250 17/13 A2997 RMK AO2 T01720128 $",2025-09-09 16:38:39.544019,2025-09-09 12:38:39.544063
"KLRD","Laredo Intl, TX, US",2025-09-09 15:56:00,2025-09-09 11:56:00,"VFR",30,20.6,90,7,NA,NA,1016.7,"METAR KLRD 091556Z 09007KT 10SM CLR 30/21 A3002 RMK AO2 SLP162 T03000206 $",2025-09-09 16:38:39.550504,2025-09-09 12:38:39.550548
"KEGE","Eagle Cnty Rgnl, CO, US",2025-09-09 15:56:00,2025-09-09 11:56:00,"VFR",13.9,2.2,NA,3,NA,NA,1025.5,"METAR KEGE 091556Z VRB03KT 10SM SCT100 14/02 A3028 RMK AO2 LTG DSNT W SLP188 T01390022 $",2025-09-09 16:38:39.557002,2025-09-09 12:38:39.557047
"KBZN","Bozeman/Gallatin Fld, MT, US",2025-09-09 15:56:00,2025-09-09 11:56:00,"VFR",16.1,5,20,3,NA,NA,1018,"METAR KBZN 091556Z 02003KT 10SM CLR 16/05 A3006 RMK AO2 SLP152 T01610050",2025-09-09 16:38:39.563545,2025-09-09 12:38:39.563591
"KSLC","Salt Lake City Intl, UT, US",2025-09-09 15:54:00,2025-09-09 11:54:00,"VFR",27.2,6.7,160,19,25,NA,1014.3,"METAR KSLC 091554Z 16019G25KT 10SM FEW085 FEW120 BKN190 BKN230 27/07 A2995 RMK AO2 SLP083 T02720067 $",2025-09-09 16:38:39.572404,2025-09-09 12:38:39.572448
"KCOS","Colorado Spring Arpt, CO, US",2025-09-09 15:54:00,2025-09-09 11:54:00,"VFR",22.8,5,NA,3,NA,NA,1022.4,"METAR KCOS 091554Z VRB03KT 10SM SCT110 BKN250 23/05 A3019 RMK AO2 SLP133 T02280050 $",2025-09-09 16:38:39.578918,2025-09-09 12:38:39.578963
"KEUG","Eugene/Mahlon Sweet Fld, OR, US",2025-09-09 15:54:00,2025-09-09 11:54:00,"VFR",17.8,14.4,170,3,NA,NA,1014.3,"METAR KEUG 091554Z 17003KT 10SM BKN031 BKN045 OVC080 18/14 A2995 RMK AO2 SLP140 T01780144",2025-09-09 16:38:39.585346,2025-09-09 12:38:39.585391
"KLAW","Lawton-Fort Sill Rgnl, OK, US",2025-09-09 15:53:00,2025-09-09 11:53:00,"VFR",25,11.7,200,9,16,NA,1018,"METAR KLAW 091553Z 20009G16KT 10SM CLR 25/12 A3006 RMK AO2 SLP170 T02500117",2025-09-09 16:38:39.591847,2025-09-09 12:38:39.591892
"KTUL","Tulsa Intl Arpt, OK, US",2025-09-09 15:53:00,2025-09-09 11:53:00,"VFR",23.9,11.7,170,13,NA,NA,1018.7,"METAR KTUL 091553Z 17013KT 10SM SCT090 SCT160 24/12 A3008 RMK AO2 SLP180 T02390117",2025-09-09 16:38:39.598275,2025-09-09 12:38:39.59832
"KIDA","Idaho Falls Rgnl, ID, US",2025-09-09 15:53:00,2025-09-09 11:53:00,"VFR",17.2,8.3,350,6,NA,NA,1016.7,"METAR KIDA 091553Z 35006KT 10SM CLR 17/08 A3002 RMK AO2 SLP133 T01720083",2025-09-09 16:38:39.604657,2025-09-09 12:38:39.604701
"KICT","Wichita/Eisenhower Arpt, KS, US",2025-09-09 15:53:00,2025-09-09 11:53:00,"VFR",22.2,13.9,200,19,24,NA,1016,"METAR KICT 091553Z 20019G24KT 10SM SCT120 SCT150 BKN190 BKN250 22/14 A3000 RMK AO2 SLP148 ACC NW-NE T02220139 $",2025-09-09 16:38:39.611315,2025-09-09 12:38:39.61136
"KDEN","Denver Intl, CO, US",2025-09-09 15:53:00,2025-09-09 11:53:00,"VFR",23.3,4.4,240,5,NA,NA,1020.1,"METAR KDEN 091553Z 24005KT 10SM FEW100 FEW140 FEW180 SCT220 23/04 A3012 RMK AO2 SLP122 T02330044",2025-09-09 16:38:39.618011,2025-09-09 12:38:39.618055
"KBFI","Seattle/Boeing Fld, WA, US",2025-09-09 15:53:00,2025-09-09 11:53:00,"VFR",17.2,13.3,NA,4,NA,NA,1014.3,"METAR KBFI 091553Z VRB04KT 10SM OVC045 17/13 A2995 RMK AO2 SLP142 T01720133",2025-09-09 16:38:39.626819,2025-09-09 12:38:39.626873
"KBIL","Billings/Logan Intl, MT, US",2025-09-09 15:53:00,2025-09-09 11:53:00,"VFR",17.2,6.7,200,3,NA,NA,1017,"METAR KBIL 091553Z 20003KT 10SM FEW240 17/07 A3003 RMK AO2 SLP145 T01720067",2025-09-09 16:38:39.633325,2025-09-09 12:38:39.63337
"KBRO","Brownsville Intl, TX, US",2025-09-09 15:53:00,2025-09-09 11:53:00,"VFR",30.6,25.6,NA,5,NA,NA,1014.3,"METAR KBRO 091553Z VRB05KT 10SM FEW050 FEW080 31/26 A2995 RMK AO2 SLP142 T03060256",2025-09-09 16:38:39.639892,2025-09-09 12:38:39.639936
"KGEG","Spokane Intl, WA, US",2025-09-09 15:53:00,2025-09-09 11:53:00,"VFR",20,10.6,10,4,NA,NA,1013.6,"METAR KGEG 091553Z 01004KT 10SM FEW120 FEW150 FEW300 20/11 A2993 RMK AO2 SLP121 OCNL LTGCGICCC DSNT N-NE CB DSNT N-NE AND NW MOV N SHRA DSNT N-NE T02000106 $",2025-09-09 16:38:39.646291,2025-09-09 12:38:39.646336
"KLBB","Lubbock Intl Arpt, TX, US",2025-09-09 15:53:00,2025-09-09 11:53:00,"VFR",24.4,17.8,180,8,NA,NA,1019,"METAR KLBB 091553Z 18008KT 10SM FEW100 24/18 A3009 RMK AO2 SLP139 T02440178",2025-09-09 16:38:39.652666,2025-09-09 12:38:39.652709
"KBOI","Boise Arpt, ID, US",2025-09-09 15:53:00,2025-09-09 11:53:00,"VFR",19.4,6.7,50,4,NA,NA,1012.6,"METAR KBOI 091553Z 05004KT 10SM CLR 19/07 A2990 RMK AO2 SLP101 T01940067",2025-09-09 16:38:39.659128,2025-09-09 12:38:39.659194
"KMFE","McAllen/Miller Intl, TX, US",2025-09-09 15:53:00,2025-09-09 11:53:00,"VFR",31.7,23.9,10,8,NA,NA,1015.3,"METAR KMFE 091553Z 01008KT 10SM FEW025 SCT050 32/24 A2998 RMK AO2 SLP150 T03170239 $",2025-09-09 16:38:39.665519,2025-09-09 12:38:39.665563
"KAFW","Fort Worth/Alliance Arpt, TX, US",2025-09-09 15:53:00,2025-09-09 11:53:00,"VFR",25,13.3,150,10,NA,NA,1018.7,"METAR KAFW 091553Z 15010KT 10SM CLR 25/13 A3008 RMK AO2 SLP174 T02500133",2025-09-09 16:38:39.671917,2025-09-09 12:38:39.671963
"KAMA","Amarillo Intl Arpt, TX, US",2025-09-09 15:53:00,2025-09-09 11:53:00,"VFR",25.6,15.6,210,14,NA,NA,1019,"METAR KAMA 091553Z 21014KT 10SM CLR 26/16 A3009 RMK AO2 SLP136 T02560156",2025-09-09 16:38:39.680335,2025-09-09 12:38:39.680379
"KAUS","Austin/Bergstrom Intl, TX, US",2025-09-09 15:53:00,2025-09-09 11:53:00,"VFR",26.7,13.9,70,4,NA,NA,1018,"METAR KAUS 091553Z 07004KT 10SM CLR 27/14 A3006 RMK AO2 SLP170 T02670139",2025-09-09 16:38:39.686744,2025-09-09 12:38:39.68679
"KHLN","Helena Rgnl, MT, US",2025-09-09 15:53:00,2025-09-09 11:53:00,"VFR",14.4,6.1,0,0,NA,NA,1016.7,"METAR KHLN 091553Z 00000KT 10SM CLR 14/06 A3002 RMK AO2 SLP159 T01440061",2025-09-09 16:38:39.693609,2025-09-09 12:38:39.693655
"KGTF","Great Falls Intl, MT, US",2025-09-09 15:53:00,2025-09-09 11:53:00,"VFR",19.4,5.6,0,0,NA,NA,1016,"METAR KGTF 091553Z 00000KT 10SM CLR 19/06 A3000 RMK AO2 SLP136 T01940056 $",2025-09-09 16:38:39.700685,2025-09-09 12:38:39.700765
"KPUB","Pueblo Mem Arpt, CO, US",2025-09-09 15:53:00,2025-09-09 11:53:00,"VFR",23.3,7.2,290,5,NA,NA,1019.4,"METAR KPUB 091553Z 29005KT 10SM CLR 23/07 A3010 RMK AO2 SLP127 T02330072 $",2025-09-09 16:38:39.707211,2025-09-09 12:38:39.707255
"KHOU","Houston/Hobby Arpt, TX, US",2025-09-09 15:53:00,2025-09-09 11:53:00,"VFR",27.2,13.9,NA,5,NA,NA,1017,"METAR KHOU 091553Z VRB05KT 10SM CLR 27/14 A3003 RMK AO2 SLP173 T02720139",2025-09-09 16:38:39.713694,2025-09-09 12:38:39.71374
"KPDX","Portland Intl, OR, US",2025-09-09 15:53:00,2025-09-09 11:53:00,"VFR",18.3,12.8,350,4,NA,NA,1014,"METAR KPDX 091553Z 35004KT 10SM FEW025 SCT110 BKN250 18/13 A2994 RMK AO2 SLP137 T01830128",2025-09-09 16:38:39.720102,2025-09-09 12:38:39.720166
"KDAL","Dallas/Love Fld, TX, US",2025-09-09 15:53:00,2025-09-09 11:53:00,"VFR",23.9,12.2,150,9,NA,NA,1019,"METAR KDAL 091553Z 15009KT 120V190 10SM FEW180 24/12 A3009 RMK AO2 SLP183 T02390122",2025-09-09 16:38:39.72655,2025-09-09 12:38:39.726595
"KIAH","Houston/Bush Intl, TX, US",2025-09-09 15:53:00,2025-09-09 11:53:00,"VFR",26.7,13.3,60,5,NA,NA,1017.4,"METAR KIAH 091553Z 06005KT 10SM CLR 27/13 A3004 RMK AO2 SLP173 T02670133",2025-09-09 16:38:39.73302,2025-09-09 12:38:39.733065
"KDFW","Dallas-Ft Worth Intl, TX, US",2025-09-09 15:53:00,2025-09-09 11:53:00,"VFR",24.4,12.2,170,8,NA,NA,1018.7,"METAR KDFW 091553Z 17008KT 10SM CLR 24/12 A3008 RMK AO2 SLP177 T02440122 $",2025-09-09 16:38:39.741664,2025-09-09 12:38:39.741708
"KMSO","Missoula Intl, MT, US",2025-09-09 15:53:00,2025-09-09 11:53:00,"VFR",13.3,7.8,160,3,NA,NA,1015.7,"METAR KMSO 091553Z 16003KT 10SM CLR 13/08 A2999 RMK AO2 SLP146 T01330078",2025-09-09 16:38:39.748232,2025-09-09 12:38:39.748279
"KMFR","Medford/Rogue Valley Intl, OR, US",2025-09-09 15:53:00,2025-09-09 11:53:00,"MVFR",16.1,13.9,0,0,NA,NA,1014.3,"METAR KMFR 091553Z 00000KT 10SM FEW011 BKN023 BKN090 16/14 A2995 RMK AO2 SLP137 T01610139 $",2025-09-09 16:38:39.754703,2025-09-09 12:38:39.754747
"KGJT","Grand Junction Rgnl, CO, US",2025-09-09 15:53:00,2025-09-09 11:53:00,"VFR",23.9,3.9,120,11,NA,NA,1018.7,"METAR KGJT 091553Z 12011KT 10SM CLR 24/04 A3008 RMK AO2 SLP115 T02390039",2025-09-09 16:38:39.761093,2025-09-09 12:38:39.761154
"KOKC","Oklahoma City/Will Rogers Intl, OK, US",2025-09-09 15:52:00,2025-09-09 11:52:00,"VFR",23.9,12.2,190,11,NA,NA,1018.4,"METAR KOKC 091552Z 19011KT 10SM SCT095 SCT250 24/12 A3007 RMK AO2 SLP169 T02390122",2025-09-09 16:38:39.767512,2025-09-09 12:38:39.767556
"KABI","Abilene Rgnl, TX, US",2025-09-09 15:52:00,2025-09-09 11:52:00,"VFR",26.7,15,210,10,NA,NA,1018.7,"METAR KABI 091552Z 21010KT 10SM CLR 27/15 A3008 RMK AO2 SLP161 T02670150",2025-09-09 16:38:39.773896,2025-09-09 12:38:39.77394
"KHRL","Harlingen/Valley Intl, TX, US",2025-09-09 15:52:00,2025-09-09 11:52:00,"VFR",30,23.9,20,10,NA,NA,1014.6,"METAR KHRL 091552Z 02010KT 10SM FEW022 SCT070 OVC090 30/24 A2996 RMK AO2 SLP144 T03000239",2025-09-09 16:38:39.780256,2025-09-09 12:38:39.7803
"KACT","Waco Rgnl, TX, US",2025-09-09 15:51:00,2025-09-09 11:51:00,"VFR",25.6,15,110,4,NA,NA,1018.7,"METAR KACT 091551Z 11004KT 10SM CLR 26/15 A3008 RMK AO2 SLP181 T02560150",2025-09-09 16:38:39.78667,2025-09-09 12:38:39.786716
"KSAT","San Antonio Intl, TX, US",2025-09-09 15:51:00,2025-09-09 11:51:00,"VFR",26.7,15,100,4,NA,NA,1018,"METAR KSAT 091551Z 10004KT 10SM CLR 27/15 A3006 RMK AO2 SLP163 T02670150",2025-09-09 16:38:39.795071,2025-09-09 12:38:39.795114
"KELP","El Paso Intl, TX, US",2025-09-09 15:51:00,2025-09-09 11:51:00,"VFR",28.3,12.8,170,8,NA,NA,1019,"METAR KELP 091551Z 17008KT 10SM FEW110 FEW160 28/13 A3009 RMK AO2 SLP109 T02830128",2025-09-09 16:38:39.80153,2025-09-09 12:38:39.801575
"KBUR","Burbank/Bob Hope Arpt, CA, US",2025-09-09 16:36:00,2025-09-09 12:36:00,"VFR",20,15,140,4,NA,NA,1015,"SPECI KBUR 091636Z 14004KT 10SM FEW015 20/15 A2997 RMK AO2 T02000150",2025-09-09 16:38:42.775439,2025-09-09 12:38:42.775483
"KSFO","San Francisco Intl, CA, US",2025-09-09 15:56:00,2025-09-09 11:56:00,"VFR",19.4,17.2,0,0,NA,NA,1014,"METAR KSFO 091556Z 00000KT 10SM FEW006 SCT017 BKN043 19/17 A2994 RMK AO2 SLP140 T01940172 $",2025-09-09 16:38:42.781974,2025-09-09 12:38:42.782019
"KRNO","Reno/Tahoe Intl, NV, US",2025-09-09 15:55:00,2025-09-09 11:55:00,"VFR",15.6,4.4,0,0,NA,NA,1017.4,"METAR KRNO 091555Z 00000KT 10SM FEW070 SCT130 BKN200 16/04 A3004 RMK AO2 SLP129 T01560044",2025-09-09 16:38:42.788328,2025-09-09 12:38:42.788371
"PHOG","Kahului Arpt, HI, US",2025-09-09 15:54:00,2025-09-09 11:54:00,"VFR",23.9,21.1,30,4,NA,NA,1015,"METAR PHOG 091554Z 03004KT 10SM FEW030 SCT045 24/21 A2997 RMK AO2 SLP153 T02390211",2025-09-09 16:38:42.794723,2025-09-09 12:38:42.794768
"PHNL","Honolulu Intl, HI, US",2025-09-09 15:53:00,2025-09-09 11:53:00,"VFR",25.6,22.2,340,3,NA,NA,1015.3,"METAR PHNL 091553Z 34003KT 10SM FEW020 FEW035 FEW080 26/22 A2998 RMK AO2 SLP150 T02560222",2025-09-09 16:38:42.80121,2025-09-09 12:38:42.803406
"KSTS","Santa Rosa/Schulz Arpt, CA, US",2025-09-09 15:53:00,2025-09-09 11:53:00,"IFR",17.8,17.2,130,4,NA,6,1014,"METAR KSTS 091553Z 13004KT 6SM BR BKN005 OVC013 18/17 A2994 RMK AO2 RAE42 SLP132 P0005 T01780172",2025-09-09 16:38:42.809852,2025-09-09 12:38:42.809894
"KTUS","Tucson Intl Arpt, AZ, US",2025-09-09 15:53:00,2025-09-09 11:53:00,"VFR",30,16.7,0,0,NA,NA,1016,"METAR KTUS 091553Z 00000KT 10SM CLR 30/17 A3000 RMK AO2 SLP103 T03000167",2025-09-09 16:38:42.816388,2025-09-09 12:38:42.816436
"KSJC","San Jose Intl Arpt, CA, US",2025-09-09 15:53:00,2025-09-09 11:53:00,"VFR",20.6,13.9,180,3,NA,NA,1014.3,"METAR KSJC 091553Z 18003KT 10SM FEW010 SCT023 BKN042 21/14 A2995 RMK AO2 SLP143 TCU DSNT SE T02060139",2025-09-09 16:38:42.822839,2025-09-09 12:38:42.822884
"KLGB","Long Beach Arpt, CA, US",2025-09-09 15:53:00,2025-09-09 11:53:00,"MVFR",20.6,16.1,190,4,NA,NA,1014.3,"METAR KLGB 091553Z 19004KT 10SM OVC018 21/16 A2995 RMK AO2 SLP142 T02060161",2025-09-09 16:38:42.82931,2025-09-09 12:38:42.829357
"KONT","Ontario Intl, CA, US",2025-09-09 15:53:00,2025-09-09 11:53:00,"VFR",19.4,14.4,220,4,NA,NA,1015,"METAR KONT 091553Z 22004KT 10SM FEW010 19/14 A2997 RMK AO2 SLP134 T01940144 $",2025-09-09 16:38:42.835729,2025-09-09 12:38:42.835775
"KSAF","Santa Fe Cnty Muni, NM, US",2025-09-09 15:53:00,2025-09-09 11:53:00,"VFR",21.1,4.4,340,10,NA,NA,1024.1,"METAR KSAF 091553Z 34010KT 10SM FEW110 21/04 A3024 RMK AO2 LTG DSNT NE SLP151 T02110044",2025-09-09 16:38:42.842121,2025-09-09 12:38:42.842185
"KPSP","Palm Springs Intl, CA, US",2025-09-09 15:53:00,2025-09-09 11:53:00,"VFR",30,6.1,NA,3,NA,NA,1010.6,"METAR KPSP 091553Z VRB03KT 10SM CLR 30/06 A2984 RMK AO2 SLP098 T03000061",2025-09-09 16:38:42.848593,2025-09-09 12:38:42.848637
"KLAX","Los Angeles Intl, CA, US",2025-09-09 15:53:00,2025-09-09 11:53:00,"MVFR",20.6,16.7,160,4,NA,5,1014.6,"METAR KLAX 091553Z 16004KT 5SM HZ FEW009 SCT016 OVC019 21/17 A2996 RMK AO2 SLP142 T02060167 $",2025-09-09 16:38:42.854978,2025-09-09 12:38:42.855024
"KOAK","Oakland Intl, CA, US",2025-09-09 15:53:00,2025-09-09 11:53:00,"VFR",18.9,17.2,190,7,NA,NA,1014.6,"METAR KOAK 091553Z 19007KT 10SM SCT019 BKN038 BKN050 BKN250 19/17 A2996 RMK AO2 RAE02 SLP144 P0000 T01890172",2025-09-09 16:38:42.8639,2025-09-09 12:38:42.863945
"KSBA","Santa Barbara Muni, CA, US",2025-09-09 15:53:00,2025-09-09 11:53:00,"VFR",20,17.2,130,9,NA,NA,1013.6,"METAR KSBA 091553Z 13009KT 10SM CLR 20/17 A2993 RMK AO2 SLP133 T02000172 $",2025-09-09 16:38:42.870589,2025-09-09 12:38:42.870636
"KSNA","Santa Ana/Wayne Arpt, CA, US",2025-09-09 15:53:00,2025-09-09 11:53:00,"MVFR",20.6,16.1,130,5,NA,NA,1014.3,"METAR KSNA 091553Z 13005KT 10SM BKN020 21/16 A2995 RMK AO2 SLP141 T02060161",2025-09-09 16:38:42.877206,2025-09-09 12:38:42.877255
"KABQ","Albuquerque Intl, NM, US",2025-09-09 15:52:00,2025-09-09 11:52:00,"VFR",23.3,6.7,220,4,NA,NA,1022.8,"METAR KABQ 091552Z 22004KT 10SM FEW060 SCT120 23/07 A3020 RMK AO2 SLP139 T02330067 $",2025-09-09 16:38:42.883657,2025-09-09 12:38:42.883702
"KSMO","Santa Monica Muni, CA, US",2025-09-09 15:51:00,2025-09-09 11:51:00,"MVFR",20.6,17.2,190,4,NA,NA,1014.6,"METAR KSMO 091551Z 19004KT 10SM OVC014 21/17 A2996 RMK AO2 SLP144 T02060172",2025-09-09 16:38:42.890093,2025-09-09 12:38:42.890153
"KSAN","San Diego Intl Arpt, CA, US",2025-09-09 15:51:00,2025-09-09 11:51:00,"MVFR",21.1,15.6,NA,3,NA,NA,1015.3,"METAR KSAN 091551Z VRB03KT 10SM BKN021 21/16 A2998 RMK AO2 SLP151 T02110156",2025-09-09 16:38:42.896588,2025-09-09 12:38:42.896632
"KPHX","Phoenix/Sky Harbor Intl, AZ, US",2025-09-09 15:51:00,2025-09-09 11:51:00,"VFR",33.9,15.6,110,4,NA,NA,1010.6,"METAR KPHX 091551Z 11004KT 10SM FEW100 34/16 A2984 RMK AO2 SLP083 T03390156",2025-09-09 16:38:42.903008,2025-09-09 12:38:42.903052
"CYMM","Fort McMurray Arpt, AB, CA",2025-09-09 16:51:00,2025-09-09 12:51:00,"VFR",18,12,90,4,NA,6,1010.6,"SPECI CYMM 091651Z AUTO 09004KT 060V140 6SM HZ BKN100 18/12 A2984 RMK SLP114 DENSITY ALT 2000FT",2025-09-09 16:53:58.34777,2025-09-09 12:53:58.347834
"CYER","Ft Severn Arpt, ON, CA",2025-09-09 16:37:00,2025-09-09 12:37:00,"MVFR",9,5,40,6,NA,9,1016,"SPECI CYER 091637Z AUTO 04006KT 9SM FEW016 BKN021 BKN028 BKN240 09/05 A3000 RMK SLP162",2025-09-09 16:53:58.355347,2025-09-09 12:53:58.355391
"CYMO","Moosonee Arpt, ON, CA",2025-09-09 16:33:00,2025-09-09 12:33:00,"MVFR",14,13,190,6,NA,9,1014.3,"SPECI CYMO 091633Z AUTO 19006KT 9SM SCT007 OVC019 14/13 A2995 RMK SLP143",2025-09-09 16:53:58.361899,2025-09-09 12:53:58.361945
"CYAT","Attawapisket Arpt, ON, CA",2025-09-09 16:29:00,2025-09-09 12:29:00,"IFR",13,11,250,6,NA,9,1011.6,"SPECI CYAT 091629Z AUTO 25006KT 9SM BKN008 OVC055 13/11 A2987 RMK SLP117",2025-09-09 16:53:58.368404,2025-09-09 12:53:58.36845
"CYQF","Red Deer Rgnl, AB, CA",2025-09-09 16:02:00,2025-09-09 12:02:00,"VFR",15,9,220,4,NA,6,1013.6,"SPECI CYQF 091602Z AUTO 22004KT 6SM HZ CLR 15/09 A2993 RMK SLP143 DENSITY ALT 3700FT",2025-09-09 16:53:58.374781,2025-09-09 12:53:58.374824
"CYQM","Moncton Intl, NB, CA",2025-09-09 16:00:00,2025-09-09 12:00:00,"VFR",20,5,250,7,NA,15,1028.5,"METAR CYQM 091600Z 25007KT 220V290 15SM FEW056 FEW240 20/05 A3037 RMK CU1CI1 CU TR SLP288",2025-09-09 16:53:58.381249,2025-09-09 12:53:58.381295
"CYUL","Montreal/Trudeau Intl, QC, CA",2025-09-09 16:00:00,2025-09-09 12:00:00,"VFR",18,10,240,5,NA,30,1028.2,"METAR CYUL 091600Z 24005KT 180V310 30SM FEW028 FEW250 18/10 A3036 RMK CF1CI2 CF TR SLP284",2025-09-09 16:53:58.387661,2025-09-09 12:53:58.387704
"CYVR","Vancouver Intl, BC, CA",2025-09-09 16:00:00,2025-09-09 12:00:00,"VFR",18,17,320,3,NA,15,1014.3,"METAR CYVR 091600Z 32003KT 280V360 15SM FEW010 FEW015 BKN048 18/17 A2995 RMK SC1SC1SC7 SC TR SC TR SLP145 DENSITY ALT 400FT",2025-09-09 16:53:58.394032,2025-09-09 12:53:58.394073
"CYWG","Winnipeg Intl Arpt, MB, CA",2025-09-09 16:00:00,2025-09-09 12:00:00,"VFR",21,15,NA,3,NA,15,1015,"METAR CYWG 091600Z VRB03KT 15SM SKC 21/15 A2997 RMK SLP154 DENSITY ALT 1600FT",2025-09-09 16:53:58.400585,2025-09-09 12:53:58.400629
"CYYZ","Toronto/Pearson Intl, ON, CA",2025-09-09 16:00:00,2025-09-09 12:00:00,"VFR",19,11,170,5,NA,15,1025.8,"METAR CYYZ 091600Z 17005KT 15SM FEW030 FEW250 19/11 A3029 RMK CU1CI1 CU TR SLP260 DENSITY ALT 800FT",2025-09-09 16:53:58.409128,2025-09-09 12:53:58.40917
"CYZV","Sept-Îles Arpt, QC, CA",2025-09-09 16:00:00,2025-09-09 12:00:00,"VFR",13,6,160,8,NA,30,1027.9,"METAR CYZV 091600Z 16008KT 30SM FEW050 FEW120 FEW180 BKN260 13/06 A3035 RMK CU1AC1AC1CI4 AC TR SLP280",2025-09-09 16:53:58.415546,2025-09-09 12:53:58.415589
"CYQG","Windsor Intl, ON, CA",2025-09-09 16:00:00,2025-09-09 12:00:00,"VFR",22,7,210,11,NA,9,1024.5,"METAR CYQG 091600Z AUTO 21011KT 9SM CLR 22/07 A3025 RMK SLP246 DENSITY ALT 1300FT",2025-09-09 16:53:58.421945,2025-09-09 12:53:58.421988
"CYQA","Muskoka Arpt, ON, CA",2025-09-09 16:00:00,2025-09-09 12:00:00,"VFR",19,7,160,11,NA,9,1025.8,"METAR CYQA 091600Z AUTO 16011KT 150V210 9SM CLR 19/07 A3029 RMK SLP265 DENSITY ALT 1200FT",2025-09-09 16:53:58.428304,2025-09-09 12:53:58.428348
"CYVO","Val D'Or Arpt, QC, CA",2025-09-09 16:00:00,2025-09-09 12:00:00,"VFR",14,7,180,9,15,15,1023.1,"METAR CYVO 091600Z 18009G15KT 15SM BKN070 OVC100 14/07 A3021 RMK AC5AC3 SLP243",2025-09-09 16:53:58.434623,2025-09-09 12:53:58.434667
"CYQR","Regina Intl Arpt, SK, CA",2025-09-09 16:00:00,2025-09-09 12:00:00,"VFR",22,9,20,3,NA,15,1016,"METAR CYQR 091600Z 02003KT 300V050 15SM SKC 22/09 A3000 RMK SLP163 DENSITY ALT 3100FT",2025-09-09 16:53:58.441043,2025-09-09 12:53:58.441086
"CYYG","Charlottetown Arpt, PE, CA",2025-09-09 16:00:00,2025-09-09 12:00:00,"VFR",19,8,170,10,16,15,1028.5,"METAR CYYG 091600Z 17010G16KT 120V200 15SM BKN057 BKN250 19/08 A3037 RMK SC5CI1 SLP287",2025-09-09 16:53:58.447466,2025-09-09 12:53:58.447509
"CYRJ","Roberval Arpt, QC, CA",2025-09-09 16:00:00,2025-09-09 12:00:00,"VFR",17,6,220,10,16,40,1026.2,"METAR CYRJ 091600Z 22010G16KT 40SM FEW060 BKN120 BKN240 17/06 A3030 RMK SC2AC4CI1 CI TR SLP269",2025-09-09 16:53:58.453881,2025-09-09 12:53:58.453924
"CYVV","Wiarton Arpt, ON, CA",2025-09-09 16:00:00,2025-09-09 12:00:00,"VFR",18,11,230,9,NA,15,1025.1,"METAR CYVV 091600Z 23009KT 180V250 15SM FEW030 OVC250 18/11 A3027 RMK CF1CI8 CF TR SLP256",2025-09-09 16:53:58.460264,2025-09-09 12:53:58.460309
"CYXE","Saskatoon/Diefenbaker Intl, SK, CA",2025-09-09 16:00:00,2025-09-09 12:00:00,"VFR",18,12,80,5,NA,12,1015.3,"METAR CYXE 091600Z 08005KT 12SM FEW028 FEW300 18/12 A2998 RMK CU1CI1 CU TR CI TR FU SLP161 DENSITY ALT 2400FT",2025-09-09 16:53:58.468634,2025-09-09 12:53:58.468677
"CYXS","Prince George Arpt, BC, CA",2025-09-09 16:00:00,2025-09-09 12:00:00,"MVFR",12,11,190,3,NA,5,1014,"METAR CYXS 091600Z AUTO 19003KT 5SM BR CLR 12/11 A2994 RMK SLP150",2025-09-09 16:53:58.475035,2025-09-09 12:53:58.475079
"CYLW","Kelowna Arpt, BC, CA",2025-09-09 16:00:00,2025-09-09 12:00:00,"VFR",18,12,0,0,NA,9,1013.3,"METAR CYLW 091600Z AUTO 00000KT 9SM CLR 18/12 A2992 RMK SLP132 DENSITY ALT 2100FT",2025-09-09 16:53:58.48139,2025-09-09 12:53:58.481433
"CYQB","Quebec/Lesage Intl, QC, CA",2025-09-09 16:00:00,2025-09-09 12:00:00,"VFR",17,6,NA,2,NA,30,1028.9,"METAR CYQB 091600Z VRB02KT 30SM FEW050 FEW100 FEW250 17/06 A3038 RMK SC1AC1CI1 SC TR AC TR SLP292",2025-09-09 16:53:58.487758,2025-09-09 12:53:58.487802
"CYHZ","Halifax/Stanfield Intl, NS, CA",2025-09-09 16:00:00,2025-09-09 12:00:00,"VFR",19,8,310,4,NA,15,1028.9,"METAR CYHZ 091600Z 31004KT 280V010 15SM FEW045 BKN250 19/08 A3038 RMK CU2CS5 CI ASOCTD SLP292",2025-09-09 16:53:58.494051,2025-09-09 12:53:58.494094
"CYPL","Pickle Lake Arpt, ON, CA",2025-09-09 16:00:00,2025-09-09 12:00:00,"VFR",17,11,360,3,NA,9,1015,"METAR CYPL 091600Z AUTO 36003KT 310V060 9SM CLR 17/11 A2997 RMK SLP158 DENSITY ALT 1800FT",2025-09-09 16:53:58.500466,2025-09-09 12:53:58.500512
"CYQQ","Comox(MIL), BC, CA",2025-09-09 16:00:00,2025-09-09 12:00:00,"MVFR",17,13,310,7,NA,20,1015.3,"METAR CYQQ 091600Z 31007KT 20SM BKN019 17/13 A2998 RMK SC5 DENSITY ALT 404FT SLP152",2025-09-09 16:53:58.506761,2025-09-09 12:53:58.506804
"CYUY","Rouyn/Noranda Arpt, QC, CA",2025-09-09 16:00:00,2025-09-09 12:00:00,"VFR",12,9,190,9,NA,15,1021.8,"METAR CYUY 091600Z 19009KT 15SM -RA OVC051 12/09 A3017 RMK SC8 SLP225",2025-09-09 16:53:58.513194,2025-09-09 12:53:58.513255
"CYYC","Calgary Intl, AB, CA",2025-09-09 16:00:00,2025-09-09 12:00:00,"VFR",17,9,NA,2,NA,15,1014.6,"METAR CYYC 091600Z VRB02KT 15SM SKC 17/09 A2996 RMK SLP144 DENSITY ALT 4600FT",2025-09-09 16:53:58.521418,2025-09-09 12:53:58.521463
"CYYJ","Victoria Intl, BC, CA",2025-09-09 16:00:00,2025-09-09 12:00:00,"VFR",17,14,NA,2,NA,30,1014.6,"METAR CYYJ 091600Z VRB02KT 30SM FEW020 BKN044 BKN065 17/14 A2996 RMK SC1SC7SC1 SC TR SC TR SLP146 DENSITY ALT 300FT",2025-09-09 16:53:58.527862,2025-09-09 12:53:58.527906
"CYXT","Terrace Arpt, BC, CA",2025-09-09 16:00:00,2025-09-09 12:00:00,"VFR",14,11,290,4,NA,20,1016.7,"METAR CYXT 091600Z 29004KT 20SM FEW017 FEW024 BKN045 BKN210 14/11 A3002 RMK CF1CF1SC7CI1 CF TR CF TR CI TR SLP172",2025-09-09 16:53:58.5344,2025-09-09 12:53:58.534444
"CYYB","North Bay/Garland Arpt, ON, CA",2025-09-09 16:00:00,2025-09-09 12:00:00,"VFR",17,10,200,12,18,30,1024.8,"METAR CYYB 091600Z 20012G18KT 30SM FEW030 FEW120 BKN280 17/10 A3026 RMK CU1AC1CI4 SLP255",2025-09-09 16:53:58.54073,2025-09-09 12:53:58.540773
"CYOW","Ottawa/Cartier Intl, ON, CA",2025-09-09 16:00:00,2025-09-09 12:00:00,"VFR",18,9,270,3,NA,15,1027.9,"METAR CYOW 091600Z 27003KT 180V330 15SM FEW250 18/09 A3035 RMK CI1 CI TR SLP282",2025-09-09 16:53:58.547041,2025-09-09 12:53:58.547088
"CYQT","Thunder Bay Intl, ON, CA",2025-09-09 16:00:00,2025-09-09 12:00:00,"IFR",16,15,30,4,NA,NA,1014.3,"METAR CYQT 091600Z 03004KT 300V040 10SM BKN008 OVC023 16/15 A2995 RMK SC6SC2 SLP148 DENSITY ALT 1000FT",2025-09-09 16:53:58.55351,2025-09-09 12:53:58.553556
"CYSB","Sudbury Arpt, ON, CA",2025-09-09 16:00:00,2025-09-09 12:00:00,"VFR",18,10,220,14,22,20,1023.1,"METAR CYSB 091600Z 22014G22KT 20SM FEW022 BKN050 BKN190 18/10 A3021 RMK CF1CU4CI1 SLP237 DENSITY ALT 1500FT",2025-09-09 16:53:58.559817,2025-09-09 12:53:58.55986
"CYTS","Timmins/Power Arpt, ON, CA",2025-09-09 16:00:00,2025-09-09 12:00:00,"MVFR",12,12,200,11,NA,3,1018,"METAR CYTS 091600Z 20011KT 3SM -RA BR SCT010 OVC015 12/12 A3006 RMK SC4SC4 SLP190",2025-09-09 16:53:58.566215,2025-09-09 12:53:58.56628
"CYGK","Kingston Arpt, ON, CA",2025-09-09 16:00:00,2025-09-09 12:00:00,"VFR",18,12,170,10,NA,15,1028.2,"METAR CYGK 091600Z 17010KT 15SM FEW024 OVC240 18/12 A3036 RMK CU2CS6 SLP284",2025-09-09 16:53:58.572576,2025-09-09 12:53:58.572621
"CYHU","Montreal/St Hubert, QC, CA",2025-09-09 16:00:00,2025-09-09 12:00:00,"VFR",19,11,NA,4,NA,9,1028.2,"METAR CYHU 091600Z AUTO VRB04KT 9SM CLR 19/11 A3036 RMK SLP283",2025-09-09 16:53:58.580862,2025-09-09 12:53:58.580906
"CYAM","Sault Ste Marie Arpt, ON, CA",2025-09-09 16:00:00,2025-09-09 12:00:00,"VFR",18,12,190,11,17,20,1019,"METAR CYAM 091600Z 19011G17KT 20SM FEW018 SCT082 BKN099 BKN150 OVC250 18/12 A3009 RMK CU1AC2AC2AS2CI1 SLP193 DENSITY ALT 1000FT",2025-09-09 16:53:58.587293,2025-09-09 12:53:58.587337
"CYBC","Baie Comeau Arpt, QC, CA",2025-09-09 16:00:00,2025-09-09 12:00:00,"VFR",13,7,210,10,NA,9,1028.2,"METAR CYBC 091600Z AUTO 21010KT 9SM FEW150 13/07 A3036 RMK SLP282",2025-09-09 16:53:58.593668,2025-09-09 12:53:58.59371
"CYBR","Brandon Arpt, MB, CA",2025-09-09 16:00:00,2025-09-09 12:00:00,"VFR",19,13,70,8,NA,15,1015.7,"METAR CYBR 091600Z 07008KT 15SM FEW250 19/13 A2999 RMK CI2 SLP162 DENSITY ALT 2100FT",2025-09-09 16:53:58.599977,2025-09-09 12:53:58.60002
"CYEG","Edmonton Intl Arpt, AB, CA",2025-09-09 16:00:00,2025-09-09 12:00:00,"VFR",17,11,180,6,NA,8,1011.9,"METAR CYEG 091600Z 18006KT 8SM SKC 17/11 A2988 RMK FU SLP124 DENSITY ALT 3200FT",2025-09-09 16:53:58.606302,2025-09-09 12:53:58.606346
"CYWL","Williams Lake Rgnl, BC, CA",2025-09-09 16:41:00,2025-09-09 12:41:00,"MVFR",14,12,NA,3,NA,3,1015.3,"SPECI CYWL 091641Z VRB03KT 3SM FU SKC 14/12 A2998 RMK SLP157 DENSITY ALT 3700FT",2025-09-09 16:53:59.874958,2025-09-09 12:53:59.875004
"CYXX","Abbotsford Intl, BC, CA",2025-09-09 16:33:00,2025-09-09 12:33:00,"IFR",16,16,0,0,NA,4,1014.6,"SPECI CYXX 091633Z 00000KT 4SM BR BKN005 OVC008 16/16 A2996 RMK SF6SC2 VIS SW 2 SLP146 DENSITY ALT 400FT",2025-09-09 16:53:59.883793,2025-09-09 12:53:59.883836
"CYPR","Prince Rupert Arpt, BC, CA",2025-09-09 16:31:00,2025-09-09 12:31:00,NA,13,13,NA,2,NA,NA,1017.4,"SPECI CYPR 091631Z AUTO VRB02KT BKN006 OVC009 13/13 A3004 RMK WX MISG VIS MISG SLP176",2025-09-09 16:53:59.890489,2025-09-09 12:53:59.890537
"CYCO","Coppermine/Kugluktuk Arpt, NU, CA",2025-09-09 16:07:00,2025-09-09 12:07:00,"VFR",9,7,320,3,NA,6,1008.2,"SPECI CYCO 091607Z 32003KT 200V350 6SM FU BKN210 09/07 A2977 RMK CS7 SLP084",2025-09-09 16:53:59.897005,2025-09-09 12:53:59.897049
"CYTR","Trenton(MIL), ON, CA",2025-09-09 16:00:00,2025-09-09 12:00:00,"VFR",20,10,170,6,NA,15,1027.2,"METAR CYTR 091600Z 17006KT 120V230 15SM FEW036 20/10 A3033 RMK CU1 DENSITY ALT 660FT CONTRAILS SLP271",2025-09-09 16:53:59.903494,2025-09-09 12:53:59.903537
"CYYT","St Johns Intl, NL, CA",2025-09-09 16:00:00,2025-09-09 12:00:00,"VFR",17,9,280,11,NA,15,1025.5,"METAR CYYT 091600Z 28011KT 15SM FEW032 BKN120 BKN160 OVC220 17/09 A3028 RMK CU1AC5AC1CI1 SLP258",2025-09-09 16:53:59.910066,2025-09-09 12:53:59.910111
"CYZF","Yellowknife Arpt, NT, CA",2025-09-09 16:00:00,2025-09-09 12:00:00,"VFR",12,9,130,12,NA,15,1006.5,"METAR CYZF 091600Z 13012KT 15SM FEW020 BKN140 12/09 A2972 RMK SC1AC5 SC TR SLP074",2025-09-09 16:53:59.916599,2025-09-09 12:53:59.916644
"CYRT","Rankin Inlet Arpt, NU, CA",2025-09-09 16:00:00,2025-09-09 12:00:00,"MVFR",7,2,40,10,NA,15,1015.3,"METAR CYRT 091600Z 04010KT 15SM FEW013 BKN024 BKN040 07/02 A2998 RMK SC2CU4SC1 SH DST SE-W SLP155",2025-09-09 16:53:59.923119,2025-09-09 12:53:59.923162
"CYRB","Resolute Bay Arpt, NU, CA",2025-09-09 16:00:00,2025-09-09 12:00:00,"LIFR",-2,-2,300,4,NA,0.5,1012.3,"METAR CYRB 091600Z 30004KT 1/2SM R35/2200V2600FT/N FZFG OVC002 M02/M02 A2989 RMK FG6ST2 SLP131",2025-09-09 16:53:59.929664,2025-09-09 12:53:59.92971
"CYBK","Baker Lake Arpt, NU, CA",2025-09-09 16:00:00,2025-09-09 12:00:00,"MVFR",6,1,230,3,NA,20,1016.7,"METAR CYBK 091600Z 23003KT 200V320 20SM BKN019 06/01 A3002 RMK SC6 SLP169",2025-09-09 16:53:59.938777,2025-09-09 12:53:59.938819
"CYHD","Dryden Rgnl, ON, CA",2025-09-09 16:00:00,2025-09-09 12:00:00,"VFR",17,11,50,5,NA,9,1015.7,"METAR CYHD 091600Z AUTO 05005KT 020V140 9SM CLR 17/11 A2999 RMK SLP164 DENSITY ALT 1800FT",2025-09-09 16:53:59.94533,2025-09-09 12:53:59.945374
"CYAZ","Tofino Arpt, BC, CA",2025-09-09 16:00:00,2025-09-09 12:00:00,"LIFR",14,14,NA,2,NA,0.25,1015,"METAR CYAZ 091600Z VRB02KT 1/4SM FG VV002 14/14 A2997 RMK FG8 SLP150",2025-09-09 16:53:59.952326,2025-09-09 12:53:59.952371
"CYXS","Prince George Arpt, BC, CA",2025-09-09 16:00:00,2025-09-09 12:00:00,"MVFR",12,11,190,3,NA,5,1014,"METAR CYXS 091600Z AUTO 19003KT 5SM BR CLR 12/11 A2994 RMK SLP150",2025-09-09 16:53:59.958879,2025-09-09 12:53:59.958921
"CYQH","Watson Lake Arpt, YT, CA",2025-09-09 16:00:00,2025-09-09 12:00:00,"VFR",10,5,0,0,NA,30,1011.9,"METAR CYQH 091600Z 00000KT 30SM BKN060 BKN110 10/05 A2988 RMK CU5AC1 SLP134",2025-09-09 16:53:59.965682,2025-09-09 12:53:59.965727
"CYQU","Grande Prairie Arpt, AB, CA",2025-09-09 16:00:00,2025-09-09 12:00:00,"MVFR",16,9,240,5,NA,4,1010.6,"METAR CYQU 091600Z 24005KT 4SM FU FEW150 16/09 A2984 RMK AC1 SLP109 DENSITY ALT 3000FT",2025-09-09 16:53:59.97227,2025-09-09 12:53:59.972315
"CYMH","Mary's Harbor Arpt, NL, CA",2025-09-09 16:00:00,2025-09-09 12:00:00,"VFR",13,5,300,8,16,9,1020.7,"METAR CYMH 091600Z AUTO 30008G16KT 280V360 9SM SCT044 13/05 A3014 RMK SLP209",2025-09-09 16:53:59.978723,2025-09-09 12:53:59.978767
"CYQQ","Comox(MIL), BC, CA",2025-09-09 16:00:00,2025-09-09 12:00:00,"MVFR",17,13,310,7,NA,20,1015.3,"METAR CYQQ 091600Z 31007KT 20SM BKN019 17/13 A2998 RMK SC5 DENSITY ALT 404FT SLP152",2025-09-09 16:53:59.985273,2025-09-09 12:53:59.985318
"CYQX","Gander Intl Arpt, NL, CA",2025-09-09 16:00:00,2025-09-09 12:00:00,"VFR",18,6,270,14,19,20,1024.5,"METAR CYQX 091600Z 27014G19KT 20SM FEW051 BKN230 18/06 A3025 RMK CU1CC6 SLP247",2025-09-09 16:53:59.991803,2025-09-09 12:53:59.991847
"CYQY","Sydney Arpt, NS, CA",2025-09-09 16:00:00,2025-09-09 12:00:00,"VFR",20,7,340,6,NA,15,1028.2,"METAR CYQY 091600Z 34006KT 190V360 15SM SCT051 BKN240 20/07 A3036 RMK CU3CI2 SLP283",2025-09-09 16:54:00.010543,2025-09-09 12:54:00.010587
"CYUY","Rouyn/Noranda Arpt, QC, CA",2025-09-09 16:00:00,2025-09-09 12:00:00,"VFR",12,9,190,9,NA,15,1021.8,"METAR CYUY 091600Z 19009KT 15SM -RA OVC051 12/09 A3017 RMK SC8 SLP225",2025-09-09 16:54:00.017124,2025-09-09 12:54:00.017167
"CYXU","London Intl, ON, CA",2025-09-09 16:00:00,2025-09-09 12:00:00,"VFR",21,11,180,6,NA,15,1025.5,"METAR CYXU 091600Z 18006KT 140V220 15SM FEW050 FEW210 21/11 A3028 RMK SC1CI1 SC TR SLP257 DENSITY ALT 1400FT",2025-09-09 16:54:00.023655,2025-09-09 12:54:00.0237
"CYXY","Whitehorse Arpt, YT, CA",2025-09-09 16:00:00,2025-09-09 12:00:00,"VFR",7,5,NA,2,NA,40,1012.3,"METAR CYXY 091600Z VRB02KT 40SM FEW060 FEW140 07/05 A2989 RMK SC1AC1 SLP147",2025-09-09 16:54:00.03035,2025-09-09 12:54:00.030395
"CYZP","Sandspit Arpt, BC, CA",2025-09-09 16:00:00,2025-09-09 12:00:00,"MVFR",15,10,300,7,NA,9,1018.7,"METAR CYZP 091600Z AUTO 30007KT 9SM OVC026 15/10 A3008 RMK SLP188",2025-09-09 16:54:00.036854,2025-09-09 12:54:00.036897
"CYOD","Cold Lake (Mil), AB, CA",2025-09-09 16:00:00,2025-09-09 12:00:00,"VFR",17,11,120,6,NA,8,1013.6,"METAR CYOD 091600Z 12006KT 8SM FEW250 17/11 A2993 RMK CI1 DENSITY ALT 2593FT FU SLP144",2025-09-09 16:54:00.04335,2025-09-09 12:54:00.043393
"CYQK","Kenora Arpt, ON, CA",2025-09-09 16:00:00,2025-09-09 12:00:00,"VFR",19,9,NA,2,NA,20,1015.7,"METAR CYQK 091600Z VRB02KT 20SM FEW250 19/09 A2999 RMK CI1 CI TR SLP162 DENSITY ALT 2100FT",2025-09-09 16:54:00.04987,2025-09-09 12:54:00.049916
"CYQT","Thunder Bay Intl, ON, CA",2025-09-09 16:00:00,2025-09-09 12:00:00,"IFR",16,15,30,4,NA,NA,1014.3,"METAR CYQT 091600Z 03004KT 300V040 10SM BKN008 OVC023 16/15 A2995 RMK SC6SC2 SLP148 DENSITY ALT 1000FT",2025-09-09 16:54:00.056428,2025-09-09 12:54:00.056473
"CYAM","Sault Ste Marie Arpt, ON, CA",2025-09-09 16:00:00,2025-09-09 12:00:00,"VFR",18,12,190,11,17,20,1019,"METAR CYAM 091600Z 19011G17KT 20SM FEW018 SCT082 BKN099 BKN150 OVC250 18/12 A3009 RMK CU1AC2AC2AS2CI1 SLP193 DENSITY ALT 1000FT",2025-09-09 16:54:00.065493,2025-09-09 12:54:00.065536
"CYBL","Campbell River Arpt, BC, CA",2025-09-09 16:00:00,2025-09-09 12:00:00,"MVFR",15,14,310,7,NA,20,1015.3,"METAR CYBL 091600Z 31007KT 20SM FEW007 BKN017 15/14 A2998 RMK SF1SC7 SF TR VIS LWR S-SW DUE LO CLD SLP156",2025-09-09 16:54:00.071988,2025-09-09 12:54:00.072032
"CYCD","Nanaimo Arpt, BC, CA",2025-09-09 16:00:00,2025-09-09 12:00:00,"VFR",17,14,20,6,NA,20,1015,"METAR CYCD 091600Z 02006KT 20SM FEW006 BKN046 17/14 A2997 RMK SF1SC7 SF TR SLP150 DENSITY ALT 300FT",2025-09-09 16:54:00.078516,2025-09-09 12:54:00.078559
"CYDF","Deer Lake Arpt, NL, CA",2025-09-09 16:00:00,2025-09-09 12:00:00,"VFR",18,5,240,15,22,15,1025.1,"METAR CYDF 091600Z 24015G22KT 220V290 15SM SCT056 SCT250 18/05 A3027 RMK CU3CI1 SLP254",2025-09-09 16:54:00.084961,2025-09-09 12:54:00.085007
"CYDP","Nain Arpt, NL, CA",2025-09-09 16:00:00,2025-09-09 12:00:00,"VFR",12,2,300,17,25,15,1016.7,"METAR CYDP 091600Z 30017G25KT 15SM BKN051 12/02 A3002 RMK SC5 SLP167",2025-09-09 16:54:00.091395,2025-09-09 12:54:00.091439
"CYHM","Hamilton/Munro Intl, ON, CA",2025-09-09 16:00:00,2025-09-09 12:00:00,"VFR",21,10,140,10,NA,15,1025.8,"METAR CYHM 091600Z 14010KT 130V200 15SM FEW050 21/10 A3029 RMK CU1 SLP262 DENSITY ALT 1300FT",2025-09-09 16:54:00.097828,2025-09-09 12:54:00.097873
"CYKF","Waterloo Intl, ON, CA",2025-09-09 16:00:00,2025-09-09 12:00:00,"VFR",20,8,180,7,NA,9,1025.8,"METAR CYKF 091600Z AUTO 18007KT 150V220 9SM CLR 20/08 A3029 RMK SLP260 DENSITY ALT 1600FT",2025-09-09 16:54:00.104293,2025-09-09 12:54:00.104336
"CYTZ","Toronto/Bishop Arpt, ON, CA",2025-09-09 16:00:00,2025-09-09 12:00:00,"VFR",17,13,70,6,NA,9,1026.2,"METAR CYTZ 091600Z AUTO 07006KT 9SM CLR 17/13 A3030 RMK SLP263",2025-09-09 16:54:00.110728,2025-09-09 12:54:00.110772
"CYFB","Iqaluit Arpt, NU, CA",2025-09-09 16:00:00,2025-09-09 12:00:00,"MVFR",7,4,320,11,18,30,1009.9,"METAR CYFB 091600Z 32011G18KT 30SM BKN018 07/04 A2982 RMK SC7 SLP102",2025-09-09 16:54:00.117126,2025-09-09 12:54:00.117169
"CYBG","Bagotville(MIL), QC, CA",2025-09-09 16:00:00,2025-09-09 12:00:00,"VFR",15,9,90,6,NA,25,1027.5,"METAR CYBG 091600Z 09006KT 25SM FEW025 BKN180 15/09 A3034 RMK CU2AC5 DENSITY ALT 348FT SLP280",2025-09-09 16:54:00.125682,2025-09-09 12:54:00.125725
"CYFC","Fredericton Intl, NB, CA",2025-09-09 16:00:00,2025-09-09 12:00:00,"VFR",19,8,NA,5,NA,9,1028.9,"METAR CYFC 091600Z AUTO VRB05KT 9SM CLR 19/08 A3038 RMK SLP290",2025-09-09 16:54:00.132197,2025-09-09 12:54:00.132264
"KORF","Norfolk Intl, VA, US",2025-09-09 16:51:00,2025-09-09 12:51:00,"MVFR",23.3,18.3,40,15,23,NA,1021.4,"METAR KORF 091651Z 04015G23KT 10SM BKN018 OVC026 23/18 A3016 RMK AO2 PK WND 03027/1626 SLP212 T02330183",2025-09-09 16:54:01.425004,2025-09-09 12:54:01.425051
"KPIT","Pittsburgh Intl, PA, US",2025-09-09 16:51:00,2025-09-09 12:51:00,"VFR",21.1,5.6,NA,NA,NA,NA,1025.1,"METAR KPIT 091651Z 10SM FEW250 21/06 A3027 RMK AO2 SLP254 T02110056 $",2025-09-09 16:54:01.431723,2025-09-09 12:54:01.431767
"KEWR","Newark Intl, NJ, US",2025-09-09 16:51:00,2025-09-09 12:51:00,"VFR",22.8,10,NA,5,NA,NA,1026.8,"METAR KEWR 091651Z VRB05KT 10SM FEW040 SCT250 23/10 A3032 RMK AO2 SLP265 T02280100 $",2025-09-09 16:54:01.438321,2025-09-09 12:54:01.438367
"KBED","Bedford/Hanscom Fld, MA, US",2025-09-09 16:51:00,2025-09-09 12:51:00,"VFR",22.2,8.3,110,8,NA,NA,1028.2,"METAR KBED 091651Z 11008KT 090V170 10SM CLR 22/08 A3036 RMK AO2 SLP293 T02220083 $",2025-09-09 16:54:01.444869,2025-09-09 12:54:01.444912
"KBDL","Hartford/Bradley Intl, CT, US",2025-09-09 16:51:00,2025-09-09 12:51:00,"VFR",21.7,7.8,120,7,NA,NA,1027.9,"METAR KBDL 091651Z 12007KT 10SM FEW050 FEW250 22/08 A3035 RMK AO2 SLP277 T02170078 $",2025-09-09 16:54:01.454276,2025-09-09 12:54:01.45432
"KALB","Albany Intl, NY, US",2025-09-09 16:51:00,2025-09-09 12:51:00,"VFR",21.1,8.9,0,0,NA,NA,1027.9,"METAR KALB 091651Z 00000KT 10SM FEW046 FEW250 21/09 A3035 RMK AO2 SLP275 T02110089",2025-09-09 16:54:01.460854,2025-09-09 12:54:01.4609
"KPVD","Providence/Green Mem, RI, US",2025-09-09 16:51:00,2025-09-09 12:51:00,"VFR",22.2,9.4,60,11,18,NA,1027.9,"METAR KPVD 091651Z 06011G18KT 10SM FEW038 FEW250 22/09 A3035 RMK AO2 SLP278 T02220094",2025-09-09 16:54:01.467418,2025-09-09 12:54:01.467462
"KJFK","New York/JF Kennedy Intl, NY, US",2025-09-09 16:51:00,2025-09-09 12:51:00,"VFR",22.2,11.1,130,10,16,NA,1026.8,"METAR KJFK 091651Z 13010G16KT 10SM FEW028 SCT050 BKN250 22/11 A3032 RMK AO2 SLP265 T02220111 $",2025-09-09 16:54:01.473889,2025-09-09 12:54:01.473932
"KLGA","New York/La Guardia Arpt, NY, US",2025-09-09 16:51:00,2025-09-09 12:51:00,"VFR",21.1,10.6,40,15,NA,NA,1026.8,"METAR KLGA 091651Z 04015KT 10SM FEW028 SCT250 21/11 A3032 RMK AO2 SLP266 T02110106",2025-09-09 16:54:01.480348,2025-09-09 12:54:01.480392
"KSWF","Newburgh/Stewart Intl, NY, US",2025-09-09 16:45:00,2025-09-09 12:45:00,"VFR",22,11,110,7,NA,NA,1027.5,"METAR KSWF 091645Z 11007KT 10SM FEW050 22/11 A3034",2025-09-09 16:54:01.486898,2025-09-09 12:54:01.486942
"CYMT","Chibougamau Arpt, QC, CA",2025-09-09 16:44:00,2025-09-09 12:44:00,"VFR",13,8,190,13,19,9,1022.8,"SPECI CYMT 091644Z AUTO 19013G19KT 9SM -RA BKN048 OVC060 13/08 A3020 RMK SLP239",2025-09-09 16:54:01.493327,2025-09-09 12:54:01.493373
"CYGL","La Grande Riviere Arpt, QC, CA",2025-09-09 16:27:00,2025-09-09 12:27:00,"VFR",12,10,210,7,NA,15,1014,"SPECI CYGL 091627Z 21007KT 15SM SCT022 BKN051 OVC090 12/10 A2994 RMK SC3SC3AC2 SLP148",2025-09-09 16:54:01.499764,2025-09-09 12:54:01.499809
"CYCO","Coppermine/Kugluktuk Arpt, NU, CA",2025-09-09 16:07:00,2025-09-09 12:07:00,"VFR",9,7,320,3,NA,6,1008.2,"SPECI CYCO 091607Z 32003KT 200V350 6SM FU BKN210 09/07 A2977 RMK CS7 SLP084",2025-09-09 16:54:01.508175,2025-09-09 12:54:01.508235
"CYKJ","Key Lake Arpt, SK, CA",2025-09-09 16:00:00,2025-09-09 12:00:00,"VFR",13,8,170,7,NA,9,1015.7,"METAR CYKJ 091600Z AUTO 17007KT 9SM CLR 13/08 A2999 RMK SLP175",2025-09-09 16:54:01.514652,2025-09-09 12:54:01.514696
"CYLK","Lutselke Arpt, NT, CA",2025-09-09 16:00:00,2025-09-09 12:00:00,"VFR",14,8,90,4,NA,25,1009.9,"METAR CYLK 091600Z 09004KT 060V150 25SM FEW065 SCT120 BKN210 14/08 A2982 RMK SC2AC1CI3 FU SLP106",2025-09-09 16:54:01.521232,2025-09-09 12:54:01.521283
"CYBC","Baie Comeau Arpt, QC, CA",2025-09-09 16:00:00,2025-09-09 12:00:00,"VFR",13,7,210,10,NA,9,1028.2,"METAR CYBC 091600Z AUTO 21010KT 9SM FEW150 13/07 A3036 RMK SLP282",2025-09-09 16:54:01.527745,2025-09-09 12:54:01.527788
"CYPC","Paulatuk Arpt, NT, CA",2025-09-09 16:00:00,2025-09-09 12:00:00,"VFR",6,6,60,2,NA,15,1005.8,"METAR CYPC 091600Z 06002KT 15SM SCT190 BKN250 06/06 A2970 RMK AC4CS2 SLP058",2025-09-09 16:54:01.53426,2025-09-09 12:54:01.534305
"CYXP","Pangnirtung Arpt, NU, CA",2025-09-09 16:00:00,2025-09-09 12:00:00,"VFR",7,1,240,16,NA,15,1003.8,"METAR CYXP 091600Z 24016KT 15SM FEW032 07/01 A2964 RMK CF1 SLP040",2025-09-09 16:54:01.540752,2025-09-09 12:54:01.540798
"CYCK","Chatham/Kent Arpt, ON, CA",2025-09-09 16:00:00,2025-09-09 12:00:00,"VFR",21,9,220,8,NA,9,1024.8,"METAR CYCK 091600Z AUTO 22008KT 180V240 9SM CLR 21/09 A3026 RMK SLP249 DENSITY ALT 1200FT",2025-09-09 16:54:01.547262,2025-09-09 12:54:01.547307
"CYFB","Iqaluit Arpt, NU, CA",2025-09-09 16:00:00,2025-09-09 12:00:00,"MVFR",7,4,320,11,18,30,1009.9,"METAR CYFB 091600Z 32011G18KT 30SM BKN018 07/04 A2982 RMK SC7 SLP102",2025-09-09 16:54:01.553771,2025-09-09 12:54:01.553818
"CYVO","Val D'Or Arpt, QC, CA",2025-09-09 16:00:00,2025-09-09 12:00:00,"VFR",14,7,180,9,15,15,1023.1,"METAR CYVO 091600Z 18009G15KT 15SM BKN070 OVC100 14/07 A3021 RMK AC5AC3 SLP243",2025-09-09 16:54:01.560415,2025-09-09 12:54:01.56046
"CYRJ","Roberval Arpt, QC, CA",2025-09-09 16:00:00,2025-09-09 12:00:00,"VFR",17,6,220,10,16,40,1026.2,"METAR CYRJ 091600Z 22010G16KT 40SM FEW060 BKN120 BKN240 17/06 A3030 RMK SC2AC4CI1 CI TR SLP269",2025-09-09 16:54:01.57002,2025-09-09 12:54:01.570064
"CYVC","La Ronge Arpt, SK, CA",2025-09-09 16:00:00,2025-09-09 12:00:00,"VFR",15,11,100,5,NA,15,1017,"METAR CYVC 091600Z 10005KT 15SM FEW200 15/11 A3003 RMK CI2 SLP180",2025-09-09 16:54:01.576682,2025-09-09 12:54:01.576731
"CYHA","Quaqtaq Arpt, QC, CA",2025-09-09 16:00:00,2025-09-09 12:00:00,"VFR",8,3,300,6,NA,15,1013.3,"METAR CYHA 091600Z 30006KT 15SM FEW035 FEW070 08/03 A2992 RMK SC1AC1 AC TR SLP135",2025-09-09 16:54:01.583275,2025-09-09 12:54:01.58332
"CYVQ","Norman Wells Arpt, NT, CA",2025-09-09 16:00:00,2025-09-09 12:00:00,"MVFR",13,12,260,5,NA,6,1004.5,"METAR CYVQ 091600Z 26005KT 6SM -SHRA FEW007 BKN024 BKN050 OVC068 13/12 A2966 RMK ST1SC5SC1AC1 CVCTV CLD EMBD SLP048",2025-09-09 16:54:01.589808,2025-09-09 12:54:01.589853
"CYGV","Havre St Pierre Arpt, QC, CA",2025-09-09 16:00:00,2025-09-09 12:00:00,"VFR",14,4,250,13,21,9,1026.8,"METAR CYGV 091600Z AUTO 25013G21KT 9SM SCT160 14/04 A3032 RMK SLP271",2025-09-09 16:54:01.596424,2025-09-09 12:54:01.596469
"CYDQ","Dawson Creek Arpt, BC, CA",2025-09-09 16:00:00,2025-09-09 12:00:00,"VFR",21,6,240,6,NA,9,1008.5,"METAR CYDQ 091600Z AUTO 24006KT 190V320 9SM CLR 21/06 A2978 RMK SLP089 DENSITY ALT 3500FT",2025-09-09 16:54:01.603041,2025-09-09 12:54:01.603085
"CYTE","Cape Dorset Arpt, NU, CA",2025-09-09 16:00:00,2025-09-09 12:00:00,"VFR",7,2,240,7,NA,15,1011.9,"METAR CYTE 091600Z 24007KT 15SM FEW024 BKN044 07/02 A2988 RMK CU1SC4 SLP125",2025-09-09 16:54:01.609633,2025-09-09 12:54:01.609678
"CYQB","Quebec/Lesage Intl, QC, CA",2025-09-09 16:00:00,2025-09-09 12:00:00,"VFR",17,6,NA,2,NA,30,1028.9,"METAR CYQB 091600Z VRB02KT 30SM FEW050 FEW100 FEW250 17/06 A3038 RMK SC1AC1CI1 SC TR AC TR SLP292",2025-09-09 16:54:01.616367,2025-09-09 12:54:01.616412
"KHPN","White Plains/Westchester Cnty, NY, US",2025-09-09 15:56:00,2025-09-09 11:56:00,"VFR",21.1,4.4,80,12,17,NA,1027.5,"METAR KHPN 091556Z 08012G17KT 10SM FEW040 21/04 A3034 RMK AO2 SLP272 T02110044",2025-09-09 16:54:01.625959,2025-09-09 12:54:01.626003
"KBWI","Baltimore-Washington Intl, MD, US",2025-09-09 15:54:00,2025-09-09 11:54:00,"VFR",22.2,10.6,80,15,NA,NA,1025.8,"METAR KBWI 091554Z 08015KT 10SM SCT041 SCT250 22/11 A3029 RMK AO2 SLP256 T02220106",2025-09-09 16:54:01.632613,2025-09-09 12:54:01.632659
"KROC","Rochester Intl Arpt, NY, US",2025-09-09 15:54:00,2025-09-09 11:54:00,"VFR",20.6,8.9,240,5,NA,NA,1026.8,"METAR KROC 091554Z 24005KT 10SM FEW028 FEW240 21/09 A3032 RMK AO2 SLP271 T02060089 $",2025-09-09 16:54:01.63947,2025-09-09 12:54:01.639517
"KPHL","Philadelphia Intl, PA, US",2025-09-09 15:54:00,2025-09-09 11:54:00,"VFR",22.8,12.8,70,9,19,NA,1026.2,"METAR KPHL 091554Z 07009G19KT 10SM BKN038 BKN250 BKN330 23/13 A3030 RMK AO2 SLP261 T02280128 $",2025-09-09 16:54:01.646163,2025-09-09 12:54:01.646208
"KRIC","Richmond Intl, VA, US",2025-09-09 15:54:00,2025-09-09 11:54:00,"VFR",21.7,13.9,50,11,19,NA,1024.1,"METAR KRIC 091554Z 05011G19KT 10SM OVC033 22/14 A3024 RMK AO2 SLP242 T02170139",2025-09-09 16:54:01.6528,2025-09-09 12:54:01.652843
"KSYR","Syracuse/Hancock Intl, NY, US",2025-09-09 15:54:00,2025-09-09 11:54:00,"VFR",20,10.6,0,0,NA,NA,1027.9,"METAR KSYR 091554Z 00000KT 10SM FEW030 SCT250 20/11 A3035 RMK AO2 SLP275 T02000106",2025-09-09 16:54:01.659528,2025-09-09 12:54:01.659573
"KBOS","Boston/Logan Intl, MA, US",2025-09-09 15:54:00,2025-09-09 11:54:00,"VFR",20,11.7,70,8,NA,NA,1029.2,"METAR KBOS 091554Z 07008KT 10SM FEW030 FEW250 20/12 A3039 RMK AO2 SLP291 T02000117",2025-09-09 16:54:01.666349,2025-09-09 12:54:01.666394
"KBUF","Buffalo-Niagara Intl, NY, US",2025-09-09 15:54:00,2025-09-09 11:54:00,"VFR",21.1,7.2,170,4,NA,NA,1026.2,"METAR KBUF 091554Z 17004KT 10SM FEW055 21/07 A3030 RMK AO2 SLP262 FU ALF T02110072 $",2025-09-09 16:54:01.673058,2025-09-09 12:54:01.673102
"KDCA","Washington/Reagan-National Arpt, VA, US",2025-09-09 15:52:00,2025-09-09 11:52:00,"VFR",22.2,11.1,60,13,NA,NA,1025.5,"METAR KDCA 091552Z 06013KT 10SM FEW040 SCT250 22/11 A3028 RMK AO2 SLP251 T02220111",2025-09-09 16:54:01.682456,2025-09-09 12:54:01.682525
"KIAD","Washington/Dulles Intl, VA, US",2025-09-09 15:52:00,2025-09-09 11:52:00,"VFR",22.8,10,110,8,NA,NA,1025.8,"METAR KIAD 091552Z 11008KT 10SM FEW035 SCT250 23/10 A3029 RMK AO2 SLP255 T02280100",2025-09-09 16:54:01.689245,2025-09-09 12:54:01.689295
"KATL","Atlanta/Hartsfield-Jackson Intl, GA, US",2025-09-09 16:52:00,2025-09-09 12:52:00,"VFR",24.4,12.2,60,7,18,NA,1022.1,"METAR KATL 091652Z 06007G18KT 10SM FEW070 FEW200 FEW250 24/12 A3018 RMK SLP212 T02440122",2025-09-09 16:54:02.975837,2025-09-09 12:54:02.975882
"KCMH","Columbus/Glenn Intl, OH, US",2025-09-09 16:51:00,2025-09-09 12:51:00,"VFR",22.2,7.2,NA,6,NA,NA,1023.8,"METAR KCMH 091651Z VRB06KT 10SM FEW036 SCT250 22/07 A3023 RMK AO2 SLP235 T02220072",2025-09-09 16:54:02.982576,2025-09-09 12:54:02.982621
"KCLE","Cleveland/Hopkins Intl, OH, US",2025-09-09 16:51:00,2025-09-09 12:51:00,"VFR",22.8,5.6,150,7,NA,NA,1023.8,"METAR KCLE 091651Z 15007KT 120V180 10SM CLR 23/06 A3023 RMK AO2 SLP249 T02280056",2025-09-09 16:54:02.989086,2025-09-09 12:54:02.98913
"KORD","Chicago/O'Hare Intl, IL, US",2025-09-09 16:51:00,2025-09-09 12:51:00,"VFR",20.6,6.1,240,7,NA,NA,1021.8,"METAR KORD 091651Z 24007KT 10SM BKN250 21/06 A3017 RMK AO2 SLP214 T02060061",2025-09-09 16:54:02.995648,2025-09-09 12:54:02.995692
"KRDU","Raleigh-Durham Intl, NC, US",2025-09-09 16:51:00,2025-09-09 12:51:00,"VFR",22.2,12.8,50,10,20,NA,1022.8,"METAR KRDU 091651Z 05010G20KT 10SM SCT035 SCT250 22/13 A3020 RMK AO2 SLP223 T02220128",2025-09-09 16:54:03.004468,2025-09-09 12:54:03.00452
"KSTL","St Louis/Lambert Intl, MO, US",2025-09-09 16:51:00,2025-09-09 12:51:00,"VFR",25,8.3,180,4,NA,NA,1020.4,"METAR KSTL 091651Z 18004KT 10SM FEW150 FEW200 SCT250 25/08 A3013 RMK AO2 SLP197 T02500083",2025-09-09 16:54:03.010942,2025-09-09 12:54:03.010989
"KLNK","Lincoln Arpt, NE, US",2025-09-09 16:47:00,2025-09-09 12:47:00,"VFR",22.2,15.6,190,7,NA,NA,1016,"SPECI KLNK 091647Z 19007KT 10SM SCT029 BKN034 OVC041 22/16 A3000 RMK AO2 T02220156",2025-09-09 16:54:03.017574,2025-09-09 12:54:03.01762
"KRSW","Ft Myers/SW Florida Intl, FL, US",2025-09-09 16:34:00,2025-09-09 12:34:00,"MVFR",29.4,25.6,100,5,NA,NA,1014,"SPECI KRSW 091634Z 10005KT 10SM SCT020 BKN025 29/26 A2994 RMK AO1 T02940256",2025-09-09 16:54:03.024175,2025-09-09 12:54:03.024238
"KFSD","Sioux Falls/Foss Fld, SD, US",2025-09-09 16:29:00,2025-09-09 12:29:00,"MVFR",17.8,16.7,200,4,NA,NA,1015.7,"SPECI KFSD 091629Z 20004KT 10SM -RA SCT009 BKN030 BKN110 18/17 A2999 RMK AO2 RAB14 P0001 T01780167",2025-09-09 16:54:03.030667,2025-09-09 12:54:03.030711
"KMIA","Miami Intl, FL, US",2025-09-09 16:27:00,2025-09-09 12:27:00,"MVFR",31.1,24.4,130,6,NA,NA,1014.3,"SPECI KMIA 091627Z 13006KT 10SM TS BKN026CB BKN250 31/24 A2995 RMK AO2 TSB26 OCNL LTGICCG VC W-NW TS VC W-NW MOV NE CB DSNT ALQDS MOV NE T03110244 $",2025-09-09 16:54:03.037109,2025-09-09 12:54:03.037153
"KDAY","Dayton/Cox Intl, OH, US",2025-09-09 15:56:00,2025-09-09 11:56:00,"VFR",21.7,5,100,3,NA,NA,1024.1,"METAR KDAY 091556Z 10003KT 10SM FEW250 22/05 A3024 RMK AO2 SLP236 T02170050",2025-09-09 16:54:03.043639,2025-09-09 12:54:03.043682
"KJAX","Jacksonville Intl, FL, US",2025-09-09 15:56:00,2025-09-09 11:56:00,"MVFR",25,23,10,13,19,NA,1017.4,"METAR KJAX 091556Z 01013G19KT 10SM -RA FEW008 BKN014 OVC110 25/23 A3004",2025-09-09 16:54:03.050107,2025-09-09 12:54:03.050152
"KCHS","Charleston Intl, SC, US",2025-09-09 15:56:00,2025-09-09 11:56:00,"VFR",23.9,13.3,30,13,NA,NA,1020.1,"METAR KCHS 091556Z 03013KT 10SM SCT180 BKN250 24/13 A3012 RMK AO2 SLP200 T02390133",2025-09-09 16:54:03.056661,2025-09-09 12:54:03.056705
"KSDF","Louisville Intl, KY, US",2025-09-09 15:56:00,2025-09-09 11:56:00,"VFR",22.2,9.4,0,0,NA,NA,1022.8,"METAR KSDF 091556Z 00000KT 10SM FEW350 22/09 A3020 RMK AO2 SLP222 T02220094",2025-09-09 16:54:03.065551,2025-09-09 12:54:03.065595
"KMEM","Memphis Intl, TN, US",2025-09-09 15:54:00,2025-09-09 11:54:00,"VFR",26.7,17.8,170,10,NA,NA,1019.7,"METAR KMEM 091554Z 17010KT 10SM SCT028 27/18 A3011 RMK AO2 SLP190 T02670178 $",2025-09-09 16:54:03.072405,2025-09-09 12:54:03.07245
"KGSO","Greensboro Intl, NC, US",2025-09-09 15:54:00,2025-09-09 11:54:00,"VFR",20.6,7.2,60,14,20,NA,1024.1,"METAR KGSO 091554Z 06014G20KT 10SM FEW060 FEW250 21/07 A3024 RMK AO2 SLP235 T02060072",2025-09-09 16:54:03.078952,2025-09-09 12:54:03.078995
"KFWA","Fort Wayne Intl, IN, US",2025-09-09 15:54:00,2025-09-09 11:54:00,"VFR",22.2,8.3,200,9,NA,NA,1023.8,"METAR KFWA 091554Z 20009KT 10SM SCT250 22/08 A3023 RMK AO2 SLP237 T02220083",2025-09-09 16:54:03.08551,2025-09-09 12:54:03.085554
"KIND","Indianapolis Intl, IN, US",2025-09-09 15:54:00,2025-09-09 11:54:00,"VFR",22.2,7.8,170,7,NA,NA,1023.1,"METAR KIND 091554Z 17007KT 10SM BKN250 22/08 A3021 RMK AO2 SLP226 T02220078",2025-09-09 16:54:03.091989,2025-09-09 12:54:03.092033
"KSBN","South Bend Rgnl, IN, US",2025-09-09 15:54:00,2025-09-09 11:54:00,"VFR",21.1,8.9,210,6,NA,NA,1023.5,"METAR KSBN 091554Z 21006KT 10SM CLR 21/09 A3022 RMK AO2 SLP232 T02110089",2025-09-09 16:54:03.098495,2025-09-09 12:54:03.098539
"KDSM","Des Moines Intl, IA, US",2025-09-09 15:54:00,2025-09-09 11:54:00,"VFR",17.2,9.4,190,6,NA,NA,1018,"METAR KDSM 091554Z 19006KT 10SM FEW070 FEW110 SCT190 OVC210 17/09 A3006 RMK AO2 SLP175 T01720094",2025-09-09 16:54:03.104979,2025-09-09 12:54:03.105024
"KMSP","Minneapolis-St Paul Intl, MN, US",2025-09-09 15:53:00,2025-09-09 11:53:00,"MVFR",19.4,13.3,230,11,17,NA,1015.3,"METAR KMSP 091553Z 23011G17KT 10SM OVC029 19/13 A2998 RMK AO2 SLP148 T01940133",2025-09-09 16:54:03.111463,2025-09-09 12:54:03.111509
"KMCI","Kansas City Intl, MO, US",2025-09-09 15:53:00,2025-09-09 11:53:00,"VFR",15.6,14.4,190,13,NA,NA,1017.4,"METAR KMCI 091553Z 19013KT 10SM -RA FEW036 BKN047 OVC090 16/14 A3004 RMK AO2 SLP169 P0005 T01560144 $",2025-09-09 16:54:03.119963,2025-09-09 12:54:03.120006
"KDTW","Detroit/Metro Wayne Cnty, MI, US",2025-09-09 15:53:00,2025-09-09 11:53:00,"VFR",21.7,7.2,190,7,NA,NA,1024.5,"METAR KDTW 091553Z 19007KT 10SM SCT250 22/07 A3025 RMK AO2 SLP243 T02170072 $",2025-09-09 16:54:03.126384,2025-09-09 12:54:03.126428
"KPBI","Palm Beach Intl, FL, US",2025-09-09 15:53:00,2025-09-09 11:53:00,"VFR",30.6,23.9,NA,3,NA,NA,1015,"METAR KPBI 091553Z VRB03KT 10SM SCT030 BKN250 31/24 A2997 RMK AO2 SLP147 CB DSNT E-SE S SW T03060239 $",2025-09-09 16:54:03.132954,2025-09-09 12:54:03.132998
"KLIT","Little Rock/Clinton Natl, AR, US",2025-09-09 15:53:00,2025-09-09 11:53:00,"VFR",22.2,12.8,0,0,NA,NA,1019.7,"METAR KLIT 091553Z 00000KT 10SM FEW160 22/13 A3011 RMK AO2 SLP197 T02220128",2025-09-09 16:54:03.139477,2025-09-09 12:54:03.139523
"KGRR","Grand Rapids Intl, MI, US",2025-09-09 15:53:00,2025-09-09 11:53:00,"VFR",19.4,7.8,NA,5,NA,NA,1023.5,"METAR KGRR 091553Z VRB05KT 10SM SCT250 19/08 A3022 RMK AO2 SLP233 T01940078",2025-09-09 16:54:03.145949,2025-09-09 12:54:03.145993
"KBHM","Birmingham Intl, AL, US",2025-09-09 15:53:00,2025-09-09 11:53:00,"VFR",25,11.1,140,9,17,NA,1022.1,"METAR KBHM 091553Z 14009G17KT 10SM FEW055 FEW110 25/11 A3018 RMK AO2 SLP213 T02500111",2025-09-09 16:54:03.152508,2025-09-09 12:54:03.152552
"KMDW","Chicago/Midway Intl, IL, US",2025-09-09 15:53:00,2025-09-09 11:53:00,"VFR",21.1,5.6,210,7,NA,NA,1022.4,"METAR KMDW 091553Z 21007KT 10SM BKN250 21/06 A3019 RMK AO2 SLP216 T02110056 $",2025-09-09 16:54:03.158884,2025-09-09 12:54:03.158928
"KSAV","Savannah Intl, GA, US",2025-09-09 15:53:00,2025-09-09 11:53:00,"VFR",25.6,15,40,11,19,NA,1019.7,"METAR KSAV 091553Z 04011G19KT 10SM SCT250 26/15 A3011 RMK AO2 SLP197 T02560150",2025-09-09 16:54:03.165418,2025-09-09 12:54:03.165463
"KHSV","Huntsville Intl, AL, US",2025-09-09 15:53:00,2025-09-09 11:53:00,"VFR",23.9,12.8,150,8,NA,NA,1022.1,"METAR KHSV 091553Z 15008KT 10SM FEW045 FEW060 24/13 A3018 RMK AO2 SLP213 T02390128 $",2025-09-09 16:54:03.173802,2025-09-09 12:54:03.173854
"KBNA","Nashville Intl, TN, US",2025-09-09 15:53:00,2025-09-09 11:53:00,"VFR",25,12.8,170,8,NA,NA,1022.1,"METAR KBNA 091553Z 17008KT 10SM SCT070 SCT250 25/13 A3018 RMK AO2 SLP215 T02500128 $",2025-09-09 16:54:03.180295,2025-09-09 12:54:03.180339
"KEYW","Key West Intl, FL, US",2025-09-09 15:53:00,2025-09-09 11:53:00,"VFR",30.6,25.6,210,9,NA,NA,1014.6,"METAR KEYW 091553Z 21009KT 10SM FEW002 FEW026 31/26 A2996 RMK AO2 SLP151 T03060256",2025-09-09 16:54:03.186833,2025-09-09 12:54:03.186879
"KMYR","Myrtle Beach Intl, SC, US",2025-09-09 15:53:00,2025-09-09 11:53:00,"VFR",22.2,15.6,360,13,NA,NA,1020.7,"METAR KMYR 091553Z 36013KT 10SM CLR 22/16 A3014 RMK AO2 SLP204 T02220156 $",2025-09-09 16:54:03.193307,2025-09-09 12:54:03.193353
"KMCO","Orlando Intl, FL, US",2025-09-09 15:53:00,2025-09-09 11:53:00,"VFR",28.9,23.3,NA,3,NA,NA,1015,"METAR KMCO 091553Z VRB03KT 10SM FEW020 BKN160 BKN250 29/23 A2997 RMK AO2 SLP149 T02890233 $",2025-09-09 16:54:03.199734,2025-09-09 12:54:03.199777
"KTPA","Tampa Intl Arpt, FL, US",2025-09-09 15:53:00,2025-09-09 11:53:00,"VFR",27.8,24.4,NA,4,NA,NA,1014.6,"METAR KTPA 091553Z VRB04KT 10SM FEW010 SCT035 BKN110 28/24 A2996 RMK AO2 SLP146 OCNL LTGIC DSNT SW CB DSNT SW T02780244 $",2025-09-09 16:54:03.206213,2025-09-09 12:54:03.206279
"KFLL","Ft Lauderdale-Hollywood Intl, FL, US",2025-09-09 15:53:00,2025-09-09 11:53:00,"VFR",29.4,23.9,280,13,18,NA,1014.6,"METAR KFLL 091553Z 28013G18KT 10SM TS SCT025CB BKN080 BKN250 29/24 A2996 RMK AO2 TSB47 SLP143 OCNL LTGICCG SW-NW TS SW-NW MOV NE TCU NE-E T02940239",2025-09-09 16:54:03.212628,2025-09-09 12:54:03.212673
"KCVG","Cincinnati Intl, KY, US",2025-09-09 15:52:00,2025-09-09 11:52:00,"VFR",21.7,8.3,130,5,NA,NA,1023.5,"METAR KCVG 091552Z 13005KT 10SM FEW250 22/08 A3022 RMK AO2 SLP226 T02170083",2025-09-09 16:54:03.218988,2025-09-09 12:54:03.219031
"KOMA","Omaha/Eppley Fld, NE, US",2025-09-09 15:52:00,2025-09-09 11:52:00,"VFR",21.1,15.6,170,10,NA,NA,1016,"METAR KOMA 091552Z COR 17010KT 10SM SCT040 SCT080 21/16 A3000 RMK AO2 SLP155 T02110156",2025-09-09 16:54:03.225453,2025-09-09 12:54:03.225498
"KCLT","Charlotte/Douglas Intl, NC, US",2025-09-09 15:52:00,2025-09-09 11:52:00,"VFR",21.7,8.3,50,14,20,NA,1024.1,"METAR KCLT 091552Z 05014G20KT 10SM FEW045 FEW250 22/08 A3024 RMK SLP248 T02170083 $",2025-09-09 16:54:03.233723,2025-09-09 12:54:03.233767
"KMLI","Moline/Quad City Intl, IL, US",2025-09-09 15:52:00,2025-09-09 11:52:00,"VFR",21.1,9.4,180,9,NA,NA,1020.1,"METAR KMLI 091552Z 18009KT 10SM CLR 21/09 A3012 RMK AO2 SLP198 T02110094",2025-09-09 16:54:03.240238,2025-09-09 12:54:03.240286
"KSAT","San Antonio Intl, TX, US",2025-09-09 16:51:00,2025-09-09 12:51:00,"VFR",27.8,14.4,90,5,NA,NA,1018,"METAR KSAT 091651Z 09005KT 10SM CLR 28/14 A3006 RMK AO2 SLP160 T02780144",2025-09-09 16:54:04.822308,2025-09-09 12:54:04.822353
"KACT","Waco Rgnl, TX, US",2025-09-09 16:51:00,2025-09-09 12:51:00,"VFR",26.7,15.6,NA,NA,NA,NA,1018.7,"METAR KACT 091651Z 10SM CLR 27/16 A3008 RMK AO2 SLP179 T02670156",2025-09-09 16:54:04.828952,2025-09-09 12:54:04.828996
"KELP","El Paso Intl, TX, US",2025-09-09 16:51:00,2025-09-09 12:51:00,"VFR",30,12.8,180,6,NA,NA,1019,"METAR KELP 091651Z 18006KT 10SM FEW065 FEW110 30/13 A3009 RMK AO2 SLP107 T03000128",2025-09-09 16:54:04.835462,2025-09-09 12:54:04.835507
"KASE","Aspen/Pitkin Cnty, CO, US",2025-09-09 16:24:00,2025-09-09 12:24:00,"VFR",19.4,3.3,350,8,NA,NA,1025.5,"SPECI KASE 091624Z 35008KT 10SM SCT085 BKN110 19/03 A3028 RMK AO2 RAB10E24 P0000 T01940033",2025-09-09 16:54:04.842041,2025-09-09 12:54:04.842087
"KSEA","Seattle-Tacoma Intl, WA, US",2025-09-09 16:13:00,2025-09-09 12:13:00,"VFR",17.2,12.8,360,5,NA,NA,1015,"SPECI KSEA 091613Z 36005KT 10SM FEW009 SCT040 BKN100 BKN250 17/13 A2997 RMK AO2 T01720128 $",2025-09-09 16:54:04.851037,2025-09-09 12:54:04.851083
"KEGE","Eagle Cnty Rgnl, CO, US",2025-09-09 15:56:00,2025-09-09 11:56:00,"VFR",13.9,2.2,NA,3,NA,NA,1025.5,"METAR KEGE 091556Z VRB03KT 10SM SCT100 14/02 A3028 RMK AO2 LTG DSNT W SLP188 T01390022 $",2025-09-09 16:54:04.857684,2025-09-09 12:54:04.857728
"KLRD","Laredo Intl, TX, US",2025-09-09 15:56:00,2025-09-09 11:56:00,"VFR",30,20.6,90,7,NA,NA,1016.7,"METAR KLRD 091556Z 09007KT 10SM CLR 30/21 A3002 RMK AO2 SLP162 T03000206 $",2025-09-09 16:54:04.864326,2025-09-09 12:54:04.86437
"KBZN","Bozeman/Gallatin Fld, MT, US",2025-09-09 15:56:00,2025-09-09 11:56:00,"VFR",16.1,5,20,3,NA,NA,1018,"METAR KBZN 091556Z 02003KT 10SM CLR 16/05 A3006 RMK AO2 SLP152 T01610050",2025-09-09 16:54:04.870845,2025-09-09 12:54:04.870889
"KEUG","Eugene/Mahlon Sweet Fld, OR, US",2025-09-09 15:54:00,2025-09-09 11:54:00,"VFR",17.8,14.4,170,3,NA,NA,1014.3,"METAR KEUG 091554Z 17003KT 10SM BKN031 BKN045 OVC080 18/14 A2995 RMK AO2 SLP140 T01780144",2025-09-09 16:54:04.877382,2025-09-09 12:54:04.877426
"KCOS","Colorado Spring Arpt, CO, US",2025-09-09 15:54:00,2025-09-09 11:54:00,"VFR",22.8,5,NA,3,NA,NA,1022.4,"METAR KCOS 091554Z VRB03KT 10SM SCT110 BKN250 23/05 A3019 RMK AO2 SLP133 T02280050 $",2025-09-09 16:54:04.883914,2025-09-09 12:54:04.883959
"KSLC","Salt Lake City Intl, UT, US",2025-09-09 15:54:00,2025-09-09 11:54:00,"VFR",27.2,6.7,160,19,25,NA,1014.3,"METAR KSLC 091554Z 16019G25KT 10SM FEW085 FEW120 BKN190 BKN230 27/07 A2995 RMK AO2 SLP083 T02720067 $",2025-09-09 16:54:04.890373,2025-09-09 12:54:04.890417
"KDEN","Denver Intl, CO, US",2025-09-09 15:53:00,2025-09-09 11:53:00,"VFR",23.3,4.4,240,5,NA,NA,1020.1,"METAR KDEN 091553Z 24005KT 10SM FEW100 FEW140 FEW180 SCT220 23/04 A3012 RMK AO2 SLP122 T02330044",2025-09-09 16:54:04.896894,2025-09-09 12:54:04.89694
"KBFI","Seattle/Boeing Fld, WA, US",2025-09-09 15:53:00,2025-09-09 11:53:00,"VFR",17.2,13.3,NA,4,NA,NA,1014.3,"METAR KBFI 091553Z VRB04KT 10SM OVC045 17/13 A2995 RMK AO2 SLP142 T01720133",2025-09-09 16:54:04.905328,2025-09-09 12:54:04.905372
"KBIL","Billings/Logan Intl, MT, US",2025-09-09 15:53:00,2025-09-09 11:53:00,"VFR",17.2,6.7,200,3,NA,NA,1017,"METAR KBIL 091553Z 20003KT 10SM FEW240 17/07 A3003 RMK AO2 SLP145 T01720067",2025-09-09 16:54:04.911821,2025-09-09 12:54:04.911865
"KBRO","Brownsville Intl, TX, US",2025-09-09 15:53:00,2025-09-09 11:53:00,"VFR",30.6,25.6,NA,5,NA,NA,1014.3,"METAR KBRO 091553Z VRB05KT 10SM FEW050 FEW080 31/26 A2995 RMK AO2 SLP142 T03060256",2025-09-09 16:54:04.918405,2025-09-09 12:54:04.918448
"KGEG","Spokane Intl, WA, US",2025-09-09 15:53:00,2025-09-09 11:53:00,"VFR",20,10.6,10,4,NA,NA,1013.6,"METAR KGEG 091553Z 01004KT 10SM FEW120 FEW150 FEW300 20/11 A2993 RMK AO2 SLP121 OCNL LTGCGICCC DSNT N-NE CB DSNT N-NE AND NW MOV N SHRA DSNT N-NE T02000106 $",2025-09-09 16:54:04.924798,2025-09-09 12:54:04.924841
"KHLN","Helena Rgnl, MT, US",2025-09-09 15:53:00,2025-09-09 11:53:00,"VFR",14.4,6.1,0,0,NA,NA,1016.7,"METAR KHLN 091553Z 00000KT 10SM CLR 14/06 A3002 RMK AO2 SLP159 T01440061",2025-09-09 16:54:04.9312,2025-09-09 12:54:04.931265
"KDFW","Dallas-Ft Worth Intl, TX, US",2025-09-09 15:53:00,2025-09-09 11:53:00,"VFR",24.4,12.2,170,8,NA,NA,1018.7,"METAR KDFW 091553Z 17008KT 10SM CLR 24/12 A3008 RMK AO2 SLP177 T02440122 $",2025-09-09 16:54:04.937649,2025-09-09 12:54:04.937693
"KLBB","Lubbock Intl Arpt, TX, US",2025-09-09 15:53:00,2025-09-09 11:53:00,"VFR",24.4,17.8,180,8,NA,NA,1019,"METAR KLBB 091553Z 18008KT 10SM FEW100 24/18 A3009 RMK AO2 SLP139 T02440178",2025-09-09 16:54:04.944009,2025-09-09 12:54:04.944052
"KMSO","Missoula Intl, MT, US",2025-09-09 15:53:00,2025-09-09 11:53:00,"VFR",13.3,7.8,160,3,NA,NA,1015.7,"METAR KMSO 091553Z 16003KT 10SM CLR 13/08 A2999 RMK AO2 SLP146 T01330078",2025-09-09 16:54:04.950453,2025-09-09 12:54:04.950495
"KBOI","Boise Arpt, ID, US",2025-09-09 15:53:00,2025-09-09 11:53:00,"VFR",19.4,6.7,50,4,NA,NA,1012.6,"METAR KBOI 091553Z 05004KT 10SM CLR 19/07 A2990 RMK AO2 SLP101 T01940067",2025-09-09 16:54:04.95904,2025-09-09 12:54:04.959083
"KMFE","McAllen/Miller Intl, TX, US",2025-09-09 15:53:00,2025-09-09 11:53:00,"VFR",31.7,23.9,10,8,NA,NA,1015.3,"METAR KMFE 091553Z 01008KT 10SM FEW025 SCT050 32/24 A2998 RMK AO2 SLP150 T03170239 $",2025-09-09 16:54:04.9654,2025-09-09 12:54:04.965445
"KAFW","Fort Worth/Alliance Arpt, TX, US",2025-09-09 15:53:00,2025-09-09 11:53:00,"VFR",25,13.3,150,10,NA,NA,1018.7,"METAR KAFW 091553Z 15010KT 10SM CLR 25/13 A3008 RMK AO2 SLP174 T02500133",2025-09-09 16:54:04.971821,2025-09-09 12:54:04.971865
"KAMA","Amarillo Intl Arpt, TX, US",2025-09-09 15:53:00,2025-09-09 11:53:00,"VFR",25.6,15.6,210,14,NA,NA,1019,"METAR KAMA 091553Z 21014KT 10SM CLR 26/16 A3009 RMK AO2 SLP136 T02560156",2025-09-09 16:54:04.978148,2025-09-09 12:54:04.978192
"KAUS","Austin/Bergstrom Intl, TX, US",2025-09-09 15:53:00,2025-09-09 11:53:00,"VFR",26.7,13.9,70,4,NA,NA,1018,"METAR KAUS 091553Z 07004KT 10SM CLR 27/14 A3006 RMK AO2 SLP170 T02670139",2025-09-09 16:54:04.984469,2025-09-09 12:54:04.984513
"KMFR","Medford/Rogue Valley Intl, OR, US",2025-09-09 15:53:00,2025-09-09 11:53:00,"MVFR",16.1,13.9,0,0,NA,NA,1014.3,"METAR KMFR 091553Z 00000KT 10SM FEW011 BKN023 BKN090 16/14 A2995 RMK AO2 SLP137 T01610139 $",2025-09-09 16:54:04.990887,2025-09-09 12:54:04.990932
"KGJT","Grand Junction Rgnl, CO, US",2025-09-09 15:53:00,2025-09-09 11:53:00,"VFR",23.9,3.9,120,11,NA,NA,1018.7,"METAR KGJT 091553Z 12011KT 10SM CLR 24/04 A3008 RMK AO2 SLP115 T02390039",2025-09-09 16:54:04.997299,2025-09-09 12:54:04.997343
"KHOU","Houston/Hobby Arpt, TX, US",2025-09-09 15:53:00,2025-09-09 11:53:00,"VFR",27.2,13.9,NA,5,NA,NA,1017,"METAR KHOU 091553Z VRB05KT 10SM CLR 27/14 A3003 RMK AO2 SLP173 T02720139",2025-09-09 16:54:05.003696,2025-09-09 12:54:05.003742
"KPDX","Portland Intl, OR, US",2025-09-09 15:53:00,2025-09-09 11:53:00,"VFR",18.3,12.8,350,4,NA,NA,1014,"METAR KPDX 091553Z 35004KT 10SM FEW025 SCT110 BKN250 18/13 A2994 RMK AO2 SLP137 T01830128",2025-09-09 16:54:05.010128,2025-09-09 12:54:05.010174
"KDAL","Dallas/Love Fld, TX, US",2025-09-09 15:53:00,2025-09-09 11:53:00,"VFR",23.9,12.2,150,9,NA,NA,1019,"METAR KDAL 091553Z 15009KT 120V190 10SM FEW180 24/12 A3009 RMK AO2 SLP183 T02390122",2025-09-09 16:54:05.018317,2025-09-09 12:54:05.01836
"KIAH","Houston/Bush Intl, TX, US",2025-09-09 15:53:00,2025-09-09 11:53:00,"VFR",26.7,13.3,60,5,NA,NA,1017.4,"METAR KIAH 091553Z 06005KT 10SM CLR 27/13 A3004 RMK AO2 SLP173 T02670133",2025-09-09 16:54:05.024884,2025-09-09 12:54:05.024928
"KICT","Wichita/Eisenhower Arpt, KS, US",2025-09-09 15:53:00,2025-09-09 11:53:00,"VFR",22.2,13.9,200,19,24,NA,1016,"METAR KICT 091553Z 20019G24KT 10SM SCT120 SCT150 BKN190 BKN250 22/14 A3000 RMK AO2 SLP148 ACC NW-NE T02220139 $",2025-09-09 16:54:05.031291,2025-09-09 12:54:05.031336
"KGTF","Great Falls Intl, MT, US",2025-09-09 15:53:00,2025-09-09 11:53:00,"VFR",19.4,5.6,0,0,NA,NA,1016,"METAR KGTF 091553Z 00000KT 10SM CLR 19/06 A3000 RMK AO2 SLP136 T01940056 $",2025-09-09 16:54:05.037611,2025-09-09 12:54:05.037657
"KPUB","Pueblo Mem Arpt, CO, US",2025-09-09 15:53:00,2025-09-09 11:53:00,"VFR",23.3,7.2,290,5,NA,NA,1019.4,"METAR KPUB 091553Z 29005KT 10SM CLR 23/07 A3010 RMK AO2 SLP127 T02330072 $",2025-09-09 16:54:05.043998,2025-09-09 12:54:05.044043
"KLAW","Lawton-Fort Sill Rgnl, OK, US",2025-09-09 15:53:00,2025-09-09 11:53:00,"VFR",25,11.7,200,9,16,NA,1018,"METAR KLAW 091553Z 20009G16KT 10SM CLR 25/12 A3006 RMK AO2 SLP170 T02500117",2025-09-09 16:54:05.050441,2025-09-09 12:54:05.050485
"KTUL","Tulsa Intl Arpt, OK, US",2025-09-09 15:53:00,2025-09-09 11:53:00,"VFR",23.9,11.7,170,13,NA,NA,1018.7,"METAR KTUL 091553Z 17013KT 10SM SCT090 SCT160 24/12 A3008 RMK AO2 SLP180 T02390117",2025-09-09 16:54:05.056852,2025-09-09 12:54:05.056895
"KIDA","Idaho Falls Rgnl, ID, US",2025-09-09 15:53:00,2025-09-09 11:53:00,"VFR",17.2,8.3,350,6,NA,NA,1016.7,"METAR KIDA 091553Z 35006KT 10SM CLR 17/08 A3002 RMK AO2 SLP133 T01720083",2025-09-09 16:54:05.063406,2025-09-09 12:54:05.063451
"KHRL","Harlingen/Valley Intl, TX, US",2025-09-09 15:52:00,2025-09-09 11:52:00,"VFR",30,23.9,20,10,NA,NA,1014.6,"METAR KHRL 091552Z 02010KT 10SM FEW022 SCT070 OVC090 30/24 A2996 RMK AO2 SLP144 T03000239",2025-09-09 16:54:05.072456,2025-09-09 12:54:05.0725
"KOKC","Oklahoma City/Will Rogers Intl, OK, US",2025-09-09 15:52:00,2025-09-09 11:52:00,"VFR",23.9,12.2,190,11,NA,NA,1018.4,"METAR KOKC 091552Z 19011KT 10SM SCT095 SCT250 24/12 A3007 RMK AO2 SLP169 T02390122",2025-09-09 16:54:05.078994,2025-09-09 12:54:05.079038
"KABI","Abilene Rgnl, TX, US",2025-09-09 15:52:00,2025-09-09 11:52:00,"VFR",26.7,15,210,10,NA,NA,1018.7,"METAR KABI 091552Z 21010KT 10SM CLR 27/15 A3008 RMK AO2 SLP161 T02670150",2025-09-09 16:54:05.085644,2025-09-09 12:54:05.085689
"KPHX","Phoenix/Sky Harbor Intl, AZ, US",2025-09-09 16:51:00,2025-09-09 12:51:00,"VFR",36.1,13.9,NA,4,NA,NA,1010.6,"METAR KPHX 091651Z VRB04KT 10SM FEW100 36/14 A2984 RMK AO2 SLP082 T03610139",2025-09-09 16:54:06.782397,2025-09-09 12:54:06.782442
"KSAN","San Diego Intl Arpt, CA, US",2025-09-09 16:51:00,2025-09-09 12:51:00,"MVFR",21.7,15.6,250,7,NA,NA,1015.3,"METAR KSAN 091651Z 25007KT 10SM BKN021 22/16 A2998 RMK AO2 SLP151 T02170156",2025-09-09 16:54:06.788991,2025-09-09 12:54:06.789035
"KSMO","Santa Monica Muni, CA, US",2025-09-09 16:51:00,2025-09-09 12:51:00,"MVFR",21.1,16.7,NA,4,NA,NA,1014.6,"METAR KSMO 091651Z VRB04KT 10SM OVC020 21/17 A2996 RMK AO2 SLP143 T02110167",2025-09-09 16:54:06.795587,2025-09-09 12:54:06.795634
"KSFO","San Francisco Intl, CA, US",2025-09-09 16:39:00,2025-09-09 12:39:00,"MVFR",20,16.7,230,8,NA,NA,1014.3,"SPECI KSFO 091639Z 23008KT 10SM FEW005 BKN018 OVC040 20/17 A2995 RMK AO2 T02000167 $",2025-09-09 16:54:06.804431,2025-09-09 12:54:06.8045
"KBUR","Burbank/Bob Hope Arpt, CA, US",2025-09-09 16:36:00,2025-09-09 12:36:00,"VFR",20,15,140,4,NA,NA,1015,"SPECI KBUR 091636Z 14004KT 10SM FEW015 20/15 A2997 RMK AO2 T02000150",2025-09-09 16:54:06.811139,2025-09-09 12:54:06.811183
"KRNO","Reno/Tahoe Intl, NV, US",2025-09-09 15:55:00,2025-09-09 11:55:00,"VFR",15.6,4.4,0,0,NA,NA,1017.4,"METAR KRNO 091555Z 00000KT 10SM FEW070 SCT130 BKN200 16/04 A3004 RMK AO2 SLP129 T01560044",2025-09-09 16:54:06.817822,2025-09-09 12:54:06.817869
"PHOG","Kahului Arpt, HI, US",2025-09-09 15:54:00,2025-09-09 11:54:00,"VFR",23.9,21.1,30,4,NA,NA,1015,"METAR PHOG 091554Z 03004KT 10SM FEW030 SCT045 24/21 A2997 RMK AO2 SLP153 T02390211",2025-09-09 16:54:06.824368,2025-09-09 12:54:06.824414
"KSJC","San Jose Intl Arpt, CA, US",2025-09-09 15:53:00,2025-09-09 11:53:00,"VFR",20.6,13.9,180,3,NA,NA,1014.3,"METAR KSJC 091553Z 18003KT 10SM FEW010 SCT023 BKN042 21/14 A2995 RMK AO2 SLP143 TCU DSNT SE T02060139",2025-09-09 16:54:06.830954,2025-09-09 12:54:06.830998
"KLAX","Los Angeles Intl, CA, US",2025-09-09 15:53:00,2025-09-09 11:53:00,"MVFR",20.6,16.7,160,4,NA,5,1014.6,"METAR KLAX 091553Z 16004KT 5SM HZ FEW009 SCT016 OVC019 21/17 A2996 RMK AO2 SLP142 T02060167 $",2025-09-09 16:54:06.837424,2025-09-09 12:54:06.837471
"KTUS","Tucson Intl Arpt, AZ, US",2025-09-09 15:53:00,2025-09-09 11:53:00,"VFR",30,16.7,0,0,NA,NA,1016,"METAR KTUS 091553Z 00000KT 10SM CLR 30/17 A3000 RMK AO2 SLP103 T03000167",2025-09-09 16:54:06.843918,2025-09-09 12:54:06.843962
"KOAK","Oakland Intl, CA, US",2025-09-09 15:53:00,2025-09-09 11:53:00,"VFR",18.9,17.2,190,7,NA,NA,1014.6,"METAR KOAK 091553Z 19007KT 10SM SCT019 BKN038 BKN050 BKN250 19/17 A2996 RMK AO2 RAE02 SLP144 P0000 T01890172",2025-09-09 16:54:06.850419,2025-09-09 12:54:06.850462
"KSBA","Santa Barbara Muni, CA, US",2025-09-09 15:53:00,2025-09-09 11:53:00,"VFR",20,17.2,130,9,NA,NA,1013.6,"METAR KSBA 091553Z 13009KT 10SM CLR 20/17 A2993 RMK AO2 SLP133 T02000172 $",2025-09-09 16:54:06.856915,2025-09-09 12:54:06.856959
"KSNA","Santa Ana/Wayne Arpt, CA, US",2025-09-09 15:53:00,2025-09-09 11:53:00,"MVFR",20.6,16.1,130,5,NA,NA,1014.3,"METAR KSNA 091553Z 13005KT 10SM BKN020 21/16 A2995 RMK AO2 SLP141 T02060161",2025-09-09 16:54:06.865394,2025-09-09 12:54:06.865437
"KSTS","Santa Rosa/Schulz Arpt, CA, US",2025-09-09 15:53:00,2025-09-09 11:53:00,"IFR",17.8,17.2,130,4,NA,6,1014,"METAR KSTS 091553Z 13004KT 6SM BR BKN005 OVC013 18/17 A2994 RMK AO2 RAE42 SLP132 P0005 T01780172",2025-09-09 16:54:06.87182,2025-09-09 12:54:06.871869
"KLGB","Long Beach Arpt, CA, US",2025-09-09 15:53:00,2025-09-09 11:53:00,"MVFR",20.6,16.1,190,4,NA,NA,1014.3,"METAR KLGB 091553Z 19004KT 10SM OVC018 21/16 A2995 RMK AO2 SLP142 T02060161",2025-09-09 16:54:06.878394,2025-09-09 12:54:06.878439
"KONT","Ontario Intl, CA, US",2025-09-09 15:53:00,2025-09-09 11:53:00,"VFR",19.4,14.4,220,4,NA,NA,1015,"METAR KONT 091553Z 22004KT 10SM FEW010 19/14 A2997 RMK AO2 SLP134 T01940144 $",2025-09-09 16:54:06.884758,2025-09-09 12:54:06.884801
"KSAF","Santa Fe Cnty Muni, NM, US",2025-09-09 15:53:00,2025-09-09 11:53:00,"VFR",21.1,4.4,340,10,NA,NA,1024.1,"METAR KSAF 091553Z 34010KT 10SM FEW110 21/04 A3024 RMK AO2 LTG DSNT NE SLP151 T02110044",2025-09-09 16:54:06.891148,2025-09-09 12:54:06.891192
"KPSP","Palm Springs Intl, CA, US",2025-09-09 15:53:00,2025-09-09 11:53:00,"VFR",30,6.1,NA,3,NA,NA,1010.6,"METAR KPSP 091553Z VRB03KT 10SM CLR 30/06 A2984 RMK AO2 SLP098 T03000061",2025-09-09 16:54:06.89772,2025-09-09 12:54:06.897765
"PHNL","Honolulu Intl, HI, US",2025-09-09 15:53:00,2025-09-09 11:53:00,"VFR",25.6,22.2,340,3,NA,NA,1015.3,"METAR PHNL 091553Z 34003KT 10SM FEW020 FEW035 FEW080 26/22 A2998 RMK AO2 SLP150 T02560222",2025-09-09 16:54:06.90417,2025-09-09 12:54:06.904214
"KABQ","Albuquerque Intl, NM, US",2025-09-09 15:52:00,2025-09-09 11:52:00,"VFR",23.3,6.7,220,4,NA,NA,1022.8,"METAR KABQ 091552Z 22004KT 10SM FEW060 SCT120 23/07 A3020 RMK AO2 SLP139 T02330067 $",2025-09-09 16:54:06.910718,2025-09-09 12:54:06.910761
"CYAT","Attawapisket Arpt, ON, CA",2025-09-09 17:09:00,2025-09-09 13:09:00,"MVFR",13,12,250,8,NA,9,1011.6,"SPECI CYAT 091709Z AUTO 25008KT 9SM BKN010 OVC050 13/12 A2987 RMK SLP117",2025-09-09 17:12:43.892561,2025-09-09 13:12:43.892607
"CYQR","Regina Intl Arpt, SK, CA",2025-09-09 17:00:00,2025-09-09 13:00:00,"VFR",24,10,NA,2,NA,15,1016,"METAR CYQR 091700Z VRB02KT 15SM SKC 24/10 A3000 RMK SLP162 DENSITY ALT 3300FT",2025-09-09 17:12:43.903408,2025-09-09 13:12:43.903453
"CYEG","Edmonton Intl Arpt, AB, CA",2025-09-09 17:00:00,2025-09-09 13:00:00,"VFR",20,11,170,7,NA,8,1011.9,"METAR CYEG 091700Z 17007KT 8SM SKC 20/11 A2988 RMK FU SLP122 DENSITY ALT 3600FT",2025-09-09 17:12:43.909866,2025-09-09 13:12:43.909911
"CYER","Ft Severn Arpt, ON, CA",2025-09-09 17:00:00,2025-09-09 13:00:00,"MVFR",9,5,10,6,NA,9,1016,"METAR CYER 091700Z AUTO 01006KT 350V070 9SM OVC019 09/05 A3000 RMK SLP163",2025-09-09 17:12:43.916264,2025-09-09 13:12:43.916308
"CYVO","Val D'Or Arpt, QC, CA",2025-09-09 17:00:00,2025-09-09 13:00:00,"VFR",14,7,180,11,20,15,1022.4,"METAR CYVO 091700Z 18011G20KT 15SM SCT055 OVC070 14/07 A3019 RMK SC3AC5 SLP235",2025-09-09 17:12:43.922648,2025-09-09 13:12:43.922691
"CYYG","Charlottetown Arpt, PE, CA",2025-09-09 17:00:00,2025-09-09 13:00:00,"VFR",19,7,180,8,NA,15,1028.5,"METAR CYYG 091700Z 18008KT 15SM BKN055 BKN260 19/07 A3037 RMK SC6CI1 SLP288",2025-09-09 17:12:43.929059,2025-09-09 13:12:43.929104
"CYHZ","Halifax/Stanfield Intl, NS, CA",2025-09-09 17:00:00,2025-09-09 13:00:00,"VFR",19,7,330,4,NA,15,1028.5,"METAR CYHZ 091700Z 33004KT 15SM FEW040 BKN250 19/07 A3037 RMK CU2CS5 SLP288",2025-09-09 17:12:43.935446,2025-09-09 13:12:43.935489
"CYOW","Ottawa/Cartier Intl, ON, CA",2025-09-09 17:00:00,2025-09-09 13:00:00,"VFR",19,9,220,5,NA,15,1027.2,"METAR CYOW 091700Z 22005KT 130V250 15SM FEW040 FEW250 19/09 A3033 RMK CU1CI1 CU TR SLP275 DENSITY ALT 600FT",2025-09-09 17:12:43.941833,2025-09-09 13:12:43.941875
"CYPL","Pickle Lake Arpt, ON, CA",2025-09-09 17:00:00,2025-09-09 13:00:00,"VFR",19,10,330,3,NA,9,1015,"METAR CYPL 091700Z AUTO 33003KT 310V040 9SM CLR 19/10 A2997 RMK SLP157 DENSITY ALT 2000FT",2025-09-09 17:12:43.948232,2025-09-09 13:12:43.948274
"CYQB","Quebec/Lesage Intl, QC, CA",2025-09-09 17:00:00,2025-09-09 13:00:00,"VFR",18,5,230,4,NA,30,1028.5,"METAR CYQB 091700Z 23004KT 180V280 30SM FEW051 FEW100 SCT250 18/05 A3037 RMK SC1AC1CI1 SLP289",2025-09-09 17:12:43.956908,2025-09-09 13:12:43.956952
"CYQG","Windsor Intl, ON, CA",2025-09-09 17:00:00,2025-09-09 13:00:00,"VFR",23,6,200,8,NA,9,1024.1,"METAR CYQG 091700Z AUTO 20008KT 190V250 9SM CLR 23/06 A3024 RMK SLP242 DENSITY ALT 1300FT",2025-09-09 17:12:43.963388,2025-09-09 13:12:43.963433
"CYQM","Moncton Intl, NB, CA",2025-09-09 17:00:00,2025-09-09 13:00:00,"VFR",20,3,NA,2,NA,15,1028.2,"METAR CYQM 091700Z VRB02KT 15SM FEW062 FEW240 20/03 A3036 RMK CU1CI1 CU TR SLP284",2025-09-09 17:12:43.969963,2025-09-09 13:12:43.970006
"CYUL","Montreal/Trudeau Intl, QC, CA",2025-09-09 17:00:00,2025-09-09 13:00:00,"VFR",19,9,240,7,NA,30,1027.9,"METAR CYUL 091700Z 24007KT 180V280 30SM FEW035 SCT250 19/09 A3035 RMK CF1CI4 CF TR SLP279",2025-09-09 17:12:43.976398,2025-09-09 13:12:43.976442
"CYUY","Rouyn/Noranda Arpt, QC, CA",2025-09-09 17:00:00,2025-09-09 13:00:00,"VFR",12,11,180,9,NA,15,1020.7,"METAR CYUY 091700Z 18009KT 15SM -RA BKN069 12/11 A3014 RMK AC8 SLP217",2025-09-09 17:12:43.982802,2025-09-09 13:12:43.982846
"CYVR","Vancouver Intl, BC, CA",2025-09-09 17:00:00,2025-09-09 13:00:00,"MVFR",18,17,300,6,NA,20,1014.3,"METAR CYVR 091700Z 30006KT 270V330 20SM FEW010 FEW018 SCT023 BKN030 BKN042 18/17 A2995 RMK SC1SC2SC1SC1SC3 SC TR CU EMBD SLP146 DENSITY ALT 400FT",2025-09-09 17:12:43.98922,2025-09-09 13:12:43.989264
"CYWG","Winnipeg Intl Arpt, MB, CA",2025-09-09 17:00:00,2025-09-09 13:00:00,"VFR",22,15,0,0,NA,15,1015,"METAR CYWG 091700Z 00000KT 15SM SKC 22/15 A2997 RMK SLP154 DENSITY ALT 1800FT",2025-09-09 17:12:43.995552,2025-09-09 13:12:43.995595
"CYYC","Calgary Intl, AB, CA",2025-09-09 17:00:00,2025-09-09 13:00:00,"VFR",20,9,210,3,NA,15,1014.6,"METAR CYYC 091700Z 21003KT 130V240 15SM SKC 20/09 A2996 RMK SLP141 DENSITY ALT 5000FT",2025-09-09 17:12:44.001925,2025-09-09 13:12:44.001968
"CYYJ","Victoria Intl, BC, CA",2025-09-09 17:00:00,2025-09-09 13:00:00,"VFR",18,14,NA,2,NA,30,1014.6,"METAR CYYJ 091700Z VRB02KT 30SM FEW025 BKN044 18/14 A2996 RMK CU1SC7 CU TR SLP146 DENSITY ALT 400FT",2025-09-09 17:12:44.008398,2025-09-09 13:12:44.008442
"CYYZ","Toronto/Pearson Intl, ON, CA",2025-09-09 17:00:00,2025-09-09 13:00:00,"VFR",20,10,130,7,NA,15,1025.5,"METAR CYYZ 091700Z 13007KT 100V190 15SM FEW040 SCT250 20/10 A3028 RMK CU1CI3 SLP256 DENSITY ALT 900FT",2025-09-09 17:12:44.016827,2025-09-09 13:12:44.01687
"CYZV","Sept-Îles Arpt, QC, CA",2025-09-09 17:00:00,2025-09-09 13:00:00,"VFR",13,5,170,10,NA,30,1027.5,"METAR CYZV 091700Z 17010KT 30SM FEW060 FEW080 FEW180 BKN260 13/05 A3034 RMK CU1AC1AC1CI4 AC TR AC TR CONTRAILS SLP279",2025-09-09 17:12:44.023494,2025-09-09 13:12:44.02354
"CYQQ","Comox(MIL), BC, CA",2025-09-09 17:00:00,2025-09-09 13:00:00,"MVFR",18,13,340,6,NA,20,1015.3,"METAR CYQQ 091700Z 34006KT 20SM BKN019 18/13 A2998 RMK SC7 DENSITY ALT 543FT SLP153",2025-09-09 17:12:44.029995,2025-09-09 13:12:44.030057
"CYXE","Saskatoon/Diefenbaker Intl, SK, CA",2025-09-09 17:00:00,2025-09-09 13:00:00,"VFR",22,12,130,5,NA,12,1015.3,"METAR CYXE 091700Z 13005KT 050V150 12SM FEW300 22/12 A2998 RMK CI1 CI TR FU SLP160 DENSITY ALT 2800FT",2025-09-09 17:12:44.036388,2025-09-09 13:12:44.036431
"CYXS","Prince George Arpt, BC, CA",2025-09-09 17:00:00,2025-09-09 13:00:00,"MVFR",14,12,180,3,NA,5,1014,"METAR CYXS 091700Z AUTO 18003KT 150V220 5SM BR CLR 14/12 A2994 RMK SLP151 DENSITY ALT 2700FT",2025-09-09 17:12:44.042816,2025-09-09 13:12:44.042859
"CYXT","Terrace Arpt, BC, CA",2025-09-09 17:00:00,2025-09-09 13:00:00,"VFR",16,12,NA,2,NA,20,1016.7,"METAR CYXT 091700Z VRB02KT 20SM FEW020 FEW045 BKN210 16/12 A3002 RMK CF1SC2CI5 CF TR SLP172",2025-09-09 17:12:44.04936,2025-09-09 13:12:44.049404
"CYYB","North Bay/Garland Arpt, ON, CA",2025-09-09 17:00:00,2025-09-09 13:00:00,"VFR",18,11,190,13,20,30,1024.5,"METAR CYYB 091700Z 19013G20KT 30SM FEW030 BKN280 18/11 A3025 RMK CU3CI3 SLP251 DENSITY ALT 1600FT",2025-09-09 17:12:44.05583,2025-09-09 13:12:44.055873
"CYQA","Muskoka Arpt, ON, CA",2025-09-09 17:00:00,2025-09-09 13:00:00,"VFR",20,7,190,8,16,9,1025.5,"METAR CYQA 091700Z AUTO 19008G16KT 180V240 9SM CLR 20/07 A3028 RMK SLP260 DENSITY ALT 1400FT",2025-09-09 17:12:44.06231,2025-09-09 13:12:44.062355
"CYQF","Red Deer Rgnl, AB, CA",2025-09-09 17:00:00,2025-09-09 13:00:00,"VFR",18,9,230,3,NA,9,1013.6,"METAR CYQF 091700Z AUTO 23003KT 180V260 9SM CLR 18/09 A2993 RMK SLP143 DENSITY ALT 4100FT",2025-09-09 17:12:44.071043,2025-09-09 13:12:44.07109
"CYQT","Thunder Bay Intl, ON, CA",2025-09-09 17:00:00,2025-09-09 13:00:00,"MVFR",17,15,100,4,NA,15,1014.6,"METAR CYQT 091700Z 10004KT 15SM SCT013 OVC019 17/15 A2996 RMK SC4SC4 SLP152 DENSITY ALT 1000FT",2025-09-09 17:12:44.077474,2025-09-09 13:12:44.077518
"CYRJ","Roberval Arpt, QC, CA",2025-09-09 17:00:00,2025-09-09 13:00:00,"VFR",16,5,200,13,NA,40,1026.5,"METAR CYRJ 091700Z 20013KT 170V240 40SM SCT170 BKN200 16/05 A3031 RMK AC4CI3 SLP271",2025-09-09 17:12:44.083996,2025-09-09 13:12:44.084059
"CYSB","Sudbury Arpt, ON, CA",2025-09-09 17:00:00,2025-09-09 13:00:00,"VFR",19,10,190,19,25,20,1022.8,"METAR CYSB 091700Z 19019G25KT 20SM BKN033 BKN200 19/10 A3020 RMK CU5CI1 SLP233 DENSITY ALT 1600FT",2025-09-09 17:12:44.090537,2025-09-09 13:12:44.09058
"CYTS","Timmins/Power Arpt, ON, CA",2025-09-09 17:00:00,2025-09-09 13:00:00,"MVFR",13,12,190,8,NA,5,1017.7,"METAR CYTS 091700Z 19008KT 5SM -RA BR SCT009 OVC037 13/12 A3005 RMK SC4SC4 SLP187",2025-09-09 17:12:44.096908,2025-09-09 13:12:44.096955
"CYGK","Kingston Arpt, ON, CA",2025-09-09 17:00:00,2025-09-09 13:00:00,"VFR",18,12,160,8,NA,15,1027.5,"METAR CYGK 091700Z 16008KT 15SM FEW020 FEW250 18/12 A3034 RMK SC1CI1 SLP277",2025-09-09 17:12:44.103371,2025-09-09 13:12:44.103415
"CYHU","Montreal/St Hubert, QC, CA",2025-09-09 17:00:00,2025-09-09 13:00:00,"VFR",20,10,220,6,NA,9,1027.5,"METAR CYHU 091700Z AUTO 22006KT 130V240 9SM CLR 20/10 A3034 RMK SLP277",2025-09-09 17:12:44.109763,2025-09-09 13:12:44.109807
"CYLW","Kelowna Arpt, BC, CA",2025-09-09 17:00:00,2025-09-09 13:00:00,"VFR",20,12,NA,3,NA,9,1013.3,"METAR CYLW 091700Z AUTO VRB03KT 9SM CLR 20/12 A2992 RMK SLP130 DENSITY ALT 2400FT",2025-09-09 17:12:44.116394,2025-09-09 13:12:44.116439
"CYMM","Fort McMurray Arpt, AB, CA",2025-09-09 17:00:00,2025-09-09 13:00:00,"VFR",18,12,80,6,NA,6,1010.6,"METAR CYMM 091700Z AUTO 08006KT 6SM HZ BKN100 18/12 A2984 RMK SLP114 DENSITY ALT 2000FT",2025-09-09 17:12:44.122908,2025-09-09 13:12:44.122951
"CYMO","Moosonee Arpt, ON, CA",2025-09-09 17:00:00,2025-09-09 13:00:00,"MVFR",14,13,190,7,NA,9,1014,"METAR CYMO 091700Z AUTO 19007KT 9SM FEW012 OVC021 14/13 A2994 RMK SLP142",2025-09-09 17:12:44.131504,2025-09-09 13:12:44.131546
"CYAM","Sault Ste Marie Arpt, ON, CA",2025-09-09 17:00:00,2025-09-09 13:00:00,"VFR",19,13,230,6,NA,20,1019.4,"METAR CYAM 091700Z 23006KT 170V260 20SM FEW024 SCT066 BKN100 OVC250 19/13 A3010 RMK CU1AC4AS3CS1 CU TR SLP199 DENSITY ALT 1100FT",2025-09-09 17:12:44.138039,2025-09-09 13:12:44.138088
"CYBC","Baie Comeau Arpt, QC, CA",2025-09-09 17:00:00,2025-09-09 13:00:00,"VFR",14,8,220,11,NA,9,1027.5,"METAR CYBC 091700Z AUTO 22011KT 9SM CLR 14/08 A3034 RMK SLP278",2025-09-09 17:12:44.144466,2025-09-09 13:12:44.144509
"CYBR","Brandon Arpt, MB, CA",2025-09-09 17:00:00,2025-09-09 13:00:00,"VFR",21,13,70,7,NA,15,1015.7,"METAR CYBR 091700Z 07007KT 040V110 15SM FEW250 21/13 A2999 RMK CI2 SLP162 DENSITY ALT 2300FT",2025-09-09 17:12:44.150872,2025-09-09 13:12:44.150915
"CYVV","Wiarton Arpt, ON, CA",2025-09-09 17:00:00,2025-09-09 13:00:00,"VFR",20,10,200,8,NA,15,1024.5,"METAR CYVV 091700Z 20008KT 180V250 15SM FEW042 OVC250 20/10 A3025 RMK CU2CI6 SLP248 DENSITY ALT 1100FT",2025-09-09 17:12:44.157295,2025-09-09 13:12:44.157339
"CYQQ","Comox(MIL), BC, CA",2025-09-09 17:00:00,2025-09-09 13:00:00,"MVFR",18,13,340,6,NA,20,1015.3,"METAR CYQQ 091700Z 34006KT 20SM BKN019 18/13 A2998 RMK SC7 DENSITY ALT 543FT SLP153",2025-09-09 17:12:45.366178,2025-09-09 13:12:45.366221
"CYMH","Mary's Harbor Arpt, NL, CA",2025-09-09 17:00:00,2025-09-09 13:00:00,"VFR",16,6,340,4,NA,9,1020.7,"METAR CYMH 091700Z AUTO 34004KT 270V010 9SM SCT055 16/06 A3014 RMK SLP210",2025-09-09 17:12:45.375342,2025-09-09 13:12:45.375386
"CYBG","Bagotville(MIL), QC, CA",2025-09-09 17:00:00,2025-09-09 13:00:00,"VFR",16,9,100,5,NA,25,1027.2,"METAR CYBG 091700Z 10005KT 25SM FEW055 BKN180 16/09 A3033 RMK CU2AC5 DENSITY ALT 483FT SLP275",2025-09-09 17:12:45.381854,2025-09-09 13:12:45.381898
"CYFB","Iqaluit Arpt, NU, CA",2025-09-09 17:00:00,2025-09-09 13:00:00,"MVFR",8,3,320,15,21,30,1009.9,"METAR CYFB 091700Z 32015G21KT 30SM BKN024 08/03 A2982 RMK SC7 CVCTV CLD EMBD SLP103",2025-09-09 17:12:45.388259,2025-09-09 13:12:45.388302
"CYFC","Fredericton Intl, NB, CA",2025-09-09 17:00:00,2025-09-09 13:00:00,"VFR",19,8,NA,4,NA,9,1028.5,"METAR CYFC 091700Z AUTO VRB04KT 9SM CLR 19/08 A3037 RMK SLP286",2025-09-09 17:12:45.394682,2025-09-09 13:12:45.394726
"CYTR","Trenton(MIL), ON, CA",2025-09-09 17:00:00,2025-09-09 13:00:00,"VFR",21,9,190,6,NA,15,1026.5,"METAR CYTR 091700Z 19006KT 120V230 15SM FEW047 SCT220 21/09 A3031 RMK CU1CS4 DENSITY ALT 787FT CONTRAILS SLP264",2025-09-09 17:12:45.401088,2025-09-09 13:12:45.401132
"CYHD","Dryden Rgnl, ON, CA",2025-09-09 17:00:00,2025-09-09 13:00:00,"VFR",19,12,NA,2,NA,9,1015.7,"METAR CYHD 091700Z AUTO VRB02KT 9SM CLR 19/12 A2999 RMK SLP166 DENSITY ALT 2100FT",2025-09-09 17:12:45.407544,2025-09-09 13:12:45.407589
"CYHM","Hamilton/Munro Intl, ON, CA",2025-09-09 17:00:00,2025-09-09 13:00:00,"VFR",22,9,230,5,NA,15,1025.1,"METAR CYHM 091700Z 23005KT 100V250 15SM SCT050 22/09 A3027 RMK CU4 SLP255 DENSITY ALT 1400FT",2025-09-09 17:12:45.413953,2025-09-09 13:12:45.413996
"CYQK","Kenora Arpt, ON, CA",2025-09-09 17:00:00,2025-09-09 13:00:00,"VFR",20,9,0,0,NA,20,1016,"METAR CYQK 091700Z 00000KT 20SM FEW240 20/09 A3000 RMK CI1 CI TR SLP164 DENSITY ALT 2200FT",2025-09-09 17:12:45.420428,2025-09-09 13:12:45.42047
"CYQU","Grande Prairie Arpt, AB, CA",2025-09-09 17:00:00,2025-09-09 13:00:00,"MVFR",19,9,220,5,NA,5,1010.6,"METAR CYQU 091700Z 22005KT 5SM FU SKC 19/09 A2984 RMK SLP108 DENSITY ALT 3300FT",2025-09-09 17:12:45.428977,2025-09-09 13:12:45.429036
"CYQX","Gander Intl Arpt, NL, CA",2025-09-09 17:00:00,2025-09-09 13:00:00,"VFR",18,5,270,12,18,20,1024.5,"METAR CYQX 091700Z 27012G18KT 250V330 20SM FEW040 BKN230 18/05 A3025 RMK CU1CC5 CU TR SLP249",2025-09-09 17:12:45.435405,2025-09-09 13:12:45.435447
"CYQY","Sydney Arpt, NS, CA",2025-09-09 17:00:00,2025-09-09 13:00:00,"VFR",20,9,40,6,NA,15,1027.9,"METAR CYQY 091700Z 04006KT 340V060 15SM SCT057 BKN220 20/09 A3035 RMK CU3CI3 SLP280",2025-09-09 17:12:45.441805,2025-09-09 13:12:45.441848
"CYRB","Resolute Bay Arpt, NU, CA",2025-09-09 17:00:00,2025-09-09 13:00:00,"LIFR",-1,-1,270,7,NA,0.5,1012.6,"METAR CYRB 091700Z 27007KT 1/2SM R35/4000VP6000FT/D FZFG OVC002 M01/M01 A2990 RMK FG6ST2 SLP132",2025-09-09 17:12:45.448187,2025-09-09 13:12:45.44823
"CYUY","Rouyn/Noranda Arpt, QC, CA",2025-09-09 17:00:00,2025-09-09 13:00:00,"VFR",12,11,180,9,NA,15,1020.7,"METAR CYUY 091700Z 18009KT 15SM -RA BKN069 12/11 A3014 RMK AC8 SLP217",2025-09-09 17:12:45.454529,2025-09-09 13:12:45.454572
"CYXU","London Intl, ON, CA",2025-09-09 17:00:00,2025-09-09 13:00:00,"VFR",21,7,160,8,15,15,1025.1,"METAR CYXU 091700Z 16008G15KT 15SM SCT060 21/07 A3027 RMK SC3 SLP253 DENSITY ALT 1500FT",2025-09-09 17:12:45.46092,2025-09-09 13:12:45.460962
"CYXX","Abbotsford Intl, BC, CA",2025-09-09 17:00:00,2025-09-09 13:00:00,"IFR",17,16,0,0,NA,6,1014.6,"METAR CYXX 091700Z 00000KT 6SM BR OVC007 17/16 A2996 RMK SF8 SLP146 DENSITY ALT 400FT",2025-09-09 17:12:45.467252,2025-09-09 13:12:45.467295
"CYXY","Whitehorse Arpt, YT, CA",2025-09-09 17:00:00,2025-09-09 13:00:00,"VFR",9,6,190,2,NA,40,1012.3,"METAR CYXY 091700Z 19002KT 40SM FEW073 FEW140 09/06 A2989 RMK AC1AC1 AC TR SLP145",2025-09-09 17:12:45.473589,2025-09-09 13:12:45.473632
"CYYT","St Johns Intl, NL, CA",2025-09-09 17:00:00,2025-09-09 13:00:00,"VFR",17,8,290,10,17,15,1025.5,"METAR CYYT 091700Z 29010G17KT 15SM FEW036 SCT150 SCT220 BKN240 17/08 A3028 RMK CU1AC2CI1CI3 SLP259",2025-09-09 17:12:45.479973,2025-09-09 13:12:45.48003
"CYZF","Yellowknife Arpt, NT, CA",2025-09-09 17:00:00,2025-09-09 13:00:00,"VFR",13,9,140,9,16,15,1006.2,"METAR CYZF 091700Z 14009G16KT 15SM FEW020 BKN140 13/09 A2971 RMK SC1AC7 SC TR SLP071",2025-09-09 17:12:45.497464,2025-09-09 13:12:45.497508
"CYWL","Williams Lake Rgnl, BC, CA",2025-09-09 17:00:00,2025-09-09 13:00:00,"MVFR",15,11,150,4,NA,3,1015.3,"METAR CYWL 091700Z 15004KT 130V210 3SM FU SKC 15/11 A2998 RMK SLP155 DENSITY ALT 3800FT",2025-09-09 17:12:45.503875,2025-09-09 13:12:45.50392
"CYXS","Prince George Arpt, BC, CA",2025-09-09 17:00:00,2025-09-09 13:00:00,"MVFR",14,12,180,3,NA,5,1014,"METAR CYXS 091700Z AUTO 18003KT 150V220 5SM BR CLR 14/12 A2994 RMK SLP151 DENSITY ALT 2700FT",2025-09-09 17:12:45.510327,2025-09-09 13:12:45.51037
"CYZP","Sandspit Arpt, BC, CA",2025-09-09 17:00:00,2025-09-09 13:00:00,"MVFR",15,10,290,9,NA,9,1018.7,"METAR CYZP 091700Z AUTO 29009KT 9SM OVC026 15/10 A3008 RMK SLP187",2025-09-09 17:12:45.516799,2025-09-09 13:12:45.516842
"CYOD","Cold Lake (Mil), AB, CA",2025-09-09 17:00:00,2025-09-09 13:00:00,"VFR",20,12,90,5,NA,NA,1013.6,"METAR CYOD 091700Z 09005KT 10SM FEW080 FEW250 20/12 A2993 RMK AC1CI1 DENSITY ALT 2995FT SLP140",2025-09-09 17:12:45.523267,2025-09-09 13:12:45.523313
"CYPR","Prince Rupert Arpt, BC, CA",2025-09-09 17:00:00,2025-09-09 13:00:00,NA,14,12,330,4,NA,NA,1017.4,"METAR CYPR 091700Z AUTO 33004KT 290V030 OVC008 14/12 A3004 RMK WX MISG VIS MISG SLP176",2025-09-09 17:12:45.52972,2025-09-09 13:12:45.529763
"CYQH","Watson Lake Arpt, YT, CA",2025-09-09 17:00:00,2025-09-09 13:00:00,"VFR",12,5,NA,2,NA,25,1011.9,"METAR CYQH 091700Z VRB02KT 25SM BKN062 12/05 A2988 RMK CU6 SLP132 DENSITY ALT 2600FT",2025-09-09 17:12:45.536147,2025-09-09 13:12:45.536191
"CYQT","Thunder Bay Intl, ON, CA",2025-09-09 17:00:00,2025-09-09 13:00:00,"MVFR",17,15,100,4,NA,15,1014.6,"METAR CYQT 091700Z 10004KT 15SM SCT013 OVC019 17/15 A2996 RMK SC4SC4 SLP152 DENSITY ALT 1000FT",2025-09-09 17:12:45.542575,2025-09-09 13:12:45.542618
"CYRT","Rankin Inlet Arpt, NU, CA",2025-09-09 17:00:00,2025-09-09 13:00:00,"MVFR",7,3,20,9,NA,15,1015.7,"METAR CYRT 091700Z 02009KT 15SM BKN023 07/03 A2999 RMK SC7 CIG RAG SLP158",2025-09-09 17:12:45.551391,2025-09-09 13:12:45.551434
"CYAM","Sault Ste Marie Arpt, ON, CA",2025-09-09 17:00:00,2025-09-09 13:00:00,"VFR",19,13,230,6,NA,20,1019.4,"METAR CYAM 091700Z 23006KT 170V260 20SM FEW024 SCT066 BKN100 OVC250 19/13 A3010 RMK CU1AC4AS3CS1 CU TR SLP199 DENSITY ALT 1100FT",2025-09-09 17:12:45.557739,2025-09-09 13:12:45.557784
"CYAZ","Tofino Arpt, BC, CA",2025-09-09 17:00:00,2025-09-09 13:00:00,"LIFR",15,15,0,0,NA,0.25,1015,"METAR CYAZ 091700Z 00000KT 1/4SM FG OVC002 15/15 A2997 RMK SF8 SLP150",2025-09-09 17:12:45.564213,2025-09-09 13:12:45.564255
"CYBK","Baker Lake Arpt, NU, CA",2025-09-09 17:00:00,2025-09-09 13:00:00,"MVFR",7,1,180,6,NA,20,1016.7,"METAR CYBK 091700Z 18006KT 170V260 20SM BKN020 BKN075 07/01 A3002 RMK SC5AC1 AC TR SLP169",2025-09-09 17:12:45.570565,2025-09-09 13:12:45.570607
"CYBL","Campbell River Arpt, BC, CA",2025-09-09 17:00:00,2025-09-09 13:00:00,"MVFR",16,14,320,7,NA,20,1015.3,"METAR CYBL 091700Z 32007KT 20SM FEW007 BKN015 16/14 A2998 RMK SF1SC7 SF TR SLP156 DENSITY ALT 600FT",2025-09-09 17:12:45.576929,2025-09-09 13:12:45.576971
"CYCD","Nanaimo Arpt, BC, CA",2025-09-09 17:00:00,2025-09-09 13:00:00,"VFR",18,14,340,5,NA,20,1015,"METAR CYCD 091700Z 34005KT 330V040 20SM OVC047 18/14 A2997 RMK SC8 SLP150 DENSITY ALT 500FT",2025-09-09 17:12:45.58328,2025-09-09 13:12:45.583324
"CYCO","Coppermine/Kugluktuk Arpt, NU, CA",2025-09-09 17:00:00,2025-09-09 13:00:00,"MVFR",10,7,350,4,NA,5,1007.9,"METAR CYCO 091700Z 35004KT 5SM FU FEW160 BKN210 10/07 A2976 RMK AS1CS5 SLP082",2025-09-09 17:12:45.589656,2025-09-09 13:12:45.589699
"CYDF","Deer Lake Arpt, NL, CA",2025-09-09 17:00:00,2025-09-09 13:00:00,"VFR",18,4,250,13,20,15,1025.8,"METAR CYDF 091700Z 25013G20KT 15SM BKN052 18/04 A3029 RMK CU5 SLP258",2025-09-09 17:12:45.596068,2025-09-09 13:12:45.596115
"CYDP","Nain Arpt, NL, CA",2025-09-09 17:00:00,2025-09-09 13:00:00,"VFR",13,2,290,19,25,15,1016.7,"METAR CYDP 091700Z 29019G25KT 15SM SCT051 13/02 A3002 RMK SC4 SLP169",2025-09-09 17:12:45.602441,2025-09-09 13:12:45.602485
"CYKF","Waterloo Intl, ON, CA",2025-09-09 17:00:00,2025-09-09 13:00:00,"VFR",21,8,170,8,NA,9,1025.1,"METAR CYKF 091700Z AUTO 17008KT 150V230 9SM FEW055 21/08 A3027 RMK SLP255 DENSITY ALT 1700FT",2025-09-09 17:12:45.611109,2025-09-09 13:12:45.611154
"CYTZ","Toronto/Bishop Arpt, ON, CA",2025-09-09 17:00:00,2025-09-09 13:00:00,"VFR",18,13,70,6,NA,9,1025.5,"METAR CYTZ 091700Z AUTO 07006KT 9SM CLR 18/13 A3028 RMK SLP258",2025-09-09 17:12:45.617555,2025-09-09 13:12:45.6176
"CYMT","Chibougamau Arpt, QC, CA",2025-09-09 17:10:00,2025-09-09 13:10:00,"VFR",13,7,190,17,22,9,1022.8,"SPECI CYMT 091710Z AUTO 19017G22KT 9SM OVC049 13/07 A3020 RMK SLP238",2025-09-09 17:12:49.248188,2025-09-09 13:12:49.248231
"CYPC","Paulatuk Arpt, NT, CA",2025-09-09 17:00:00,2025-09-09 13:00:00,"VFR",5,5,360,3,NA,15,1005.8,"METAR CYPC 091700Z 36003KT 15SM FEW190 SCT250 05/05 A2970 RMK AC2CS1 DIST TCU TOP SW SLP058",2025-09-09 17:12:49.254685,2025-09-09 13:12:49.254728
"CYXP","Pangnirtung Arpt, NU, CA",2025-09-09 17:00:00,2025-09-09 13:00:00,"VFR",7,1,240,16,22,15,1004.1,"METAR CYXP 091700Z 24016G22KT 15SM FEW044 07/01 A2965 RMK CF2 SLP044",2025-09-09 17:12:49.261013,2025-09-09 13:12:49.261077
"CYHA","Quaqtaq Arpt, QC, CA",2025-09-09 17:00:00,2025-09-09 13:00:00,"VFR",8,3,270,5,NA,15,1013.3,"METAR CYHA 091700Z 27005KT 240V310 15SM FEW025 BKN033 08/03 A2992 RMK SC1SC6 SC TR CONTRAILS SLP137",2025-09-09 17:12:49.267418,2025-09-09 13:12:49.267462
"CYFB","Iqaluit Arpt, NU, CA",2025-09-09 17:00:00,2025-09-09 13:00:00,"MVFR",8,3,320,15,21,30,1009.9,"METAR CYFB 091700Z 32015G21KT 30SM BKN024 08/03 A2982 RMK SC7 CVCTV CLD EMBD SLP103",2025-09-09 17:12:49.276351,2025-09-09 13:12:49.276394
"CYGL","La Grande Riviere Arpt, QC, CA",2025-09-09 17:00:00,2025-09-09 13:00:00,"VFR",13,10,200,12,NA,15,1013.6,"METAR CYGL 091700Z 20012KT 15SM SCT018 BKN052 OVC082 13/10 A2993 RMK SC3SC3AC2 SLP145",2025-09-09 17:12:49.282762,2025-09-09 13:12:49.282805
"CYCK","Chatham/Kent Arpt, ON, CA",2025-09-09 17:00:00,2025-09-09 13:00:00,"VFR",23,7,180,10,15,9,1024.1,"METAR CYCK 091700Z AUTO 18010G15KT 150V230 9SM CLR 23/07 A3024 RMK SLP243 DENSITY ALT 1300FT",2025-09-09 17:12:49.289287,2025-09-09 13:12:49.289331
"CYVO","Val D'Or Arpt, QC, CA",2025-09-09 17:00:00,2025-09-09 13:00:00,"VFR",14,7,180,11,20,15,1022.4,"METAR CYVO 091700Z 18011G20KT 15SM SCT055 OVC070 14/07 A3019 RMK SC3AC5 SLP235",2025-09-09 17:12:49.295652,2025-09-09 13:12:49.295695
"CYDQ","Dawson Creek Arpt, BC, CA",2025-09-09 17:00:00,2025-09-09 13:00:00,"VFR",22,6,260,11,NA,9,1008.9,"METAR CYDQ 091700Z AUTO 26011KT 9SM CLR 22/06 A2979 RMK SLP091 DENSITY ALT 3700FT",2025-09-09 17:12:49.302119,2025-09-09 13:12:49.302163
"CYQB","Quebec/Lesage Intl, QC, CA",2025-09-09 17:00:00,2025-09-09 13:00:00,"VFR",18,5,230,4,NA,30,1028.5,"METAR CYQB 091700Z 23004KT 180V280 30SM FEW051 FEW100 SCT250 18/05 A3037 RMK SC1AC1CI1 SLP289",2025-09-09 17:12:49.308489,2025-09-09 13:12:49.308533
"CYTE","Cape Dorset Arpt, NU, CA",2025-09-09 17:00:00,2025-09-09 13:00:00,"VFR",7,3,260,6,NA,15,1012.3,"METAR CYTE 091700Z 26006KT 220V290 15SM BKN044 07/03 A2989 RMK SC5 SLP127",2025-09-09 17:12:49.314833,2025-09-09 13:12:49.314876
"CYVC","La Ronge Arpt, SK, CA",2025-09-09 17:00:00,2025-09-09 13:00:00,"VFR",16,10,120,5,NA,15,1016.7,"METAR CYVC 091700Z 12005KT 070V140 15SM SKC 16/10 A3002 RMK SLP176 DENSITY ALT 1500FT",2025-09-09 17:12:49.321276,2025-09-09 13:12:49.321318
"CYVQ","Norman Wells Arpt, NT, CA",2025-09-09 17:00:00,2025-09-09 13:00:00,"MVFR",13,13,280,5,NA,NA,1005.2,"METAR CYVQ 091700Z 28005KT 10SM -RA FEW009 BKN021 BKN046 OVC070 13/13 A2968 RMK ST1SC5SC1AC2 ST TR FU SLP054",2025-09-09 17:12:49.330105,2025-09-09 13:12:49.330155
"CYRJ","Roberval Arpt, QC, CA",2025-09-09 17:00:00,2025-09-09 13:00:00,"VFR",16,5,200,13,NA,40,1026.5,"METAR CYRJ 091700Z 20013KT 170V240 40SM SCT170 BKN200 16/05 A3031 RMK AC4CI3 SLP271",2025-09-09 17:12:49.336474,2025-09-09 13:12:49.336518
"CYGV","Havre St Pierre Arpt, QC, CA",2025-09-09 17:00:00,2025-09-09 13:00:00,"VFR",14,3,250,17,22,9,1026.8,"METAR CYGV 091700Z AUTO 25017G22KT 9SM CLR 14/03 A3032 RMK SLP271",2025-09-09 17:12:49.342969,2025-09-09 13:12:49.343014
"CYKJ","Key Lake Arpt, SK, CA",2025-09-09 17:00:00,2025-09-09 13:00:00,"VFR",15,7,190,10,NA,9,1015.7,"METAR CYKJ 091700Z AUTO 19010KT 9SM CLR 15/07 A2999 RMK SLP175 DENSITY ALT 2000FT",2025-09-09 17:12:49.349402,2025-09-09 13:12:49.349447
"CYLK","Lutselke Arpt, NT, CA",2025-09-09 17:00:00,2025-09-09 13:00:00,"VFR",15,8,100,3,NA,25,1009.2,"METAR CYLK 091700Z 10003KT 050V150 25SM SCT062 BKN110 BKN210 15/08 A2980 RMK SC3AC2CI1 FU SLP101 DENSITY ALT 900FT",2025-09-09 17:12:49.355802,2025-09-09 13:12:49.355845
"CYBC","Baie Comeau Arpt, QC, CA",2025-09-09 17:00:00,2025-09-09 13:00:00,"VFR",14,8,220,11,NA,9,1027.5,"METAR CYBC 091700Z AUTO 22011KT 9SM CLR 14/08 A3034 RMK SLP278",2025-09-09 17:12:49.362171,2025-09-09 13:12:49.362217
"CYCO","Coppermine/Kugluktuk Arpt, NU, CA",2025-09-09 17:00:00,2025-09-09 13:00:00,"MVFR",10,7,350,4,NA,5,1007.9,"METAR CYCO 091700Z 35004KT 5SM FU FEW160 BKN210 10/07 A2976 RMK AS1CS5 SLP082",2025-09-09 17:12:49.36852,2025-09-09 13:12:49.368563
"KHPN","White Plains/Westchester Cnty, NY, US",2025-09-09 16:56:00,2025-09-09 12:56:00,"VFR",21.1,7.8,90,13,20,NA,1027.2,"METAR KHPN 091656Z 09013G20KT 10SM CLR 21/08 A3033 RMK AO2 SLP269 T02110078",2025-09-09 17:12:49.375005,2025-09-09 13:12:49.375069
"KRIC","Richmond Intl, VA, US",2025-09-09 16:54:00,2025-09-09 12:54:00,"VFR",23.3,14.4,40,8,18,NA,1023.5,"METAR KRIC 091654Z 04008G18KT 360V060 10SM BKN033 BKN044 23/14 A3022 RMK AO2 SLP238 T02330144",2025-09-09 17:12:49.381518,2025-09-09 13:12:49.381563
"KROC","Rochester Intl Arpt, NY, US",2025-09-09 16:54:00,2025-09-09 12:54:00,"VFR",21.7,8.3,170,7,NA,NA,1026.2,"METAR KROC 091654Z 17007KT 10SM FEW029 22/08 A3030 RMK AO2 SLP264 T02170083 $",2025-09-09 17:12:49.390441,2025-09-09 13:12:49.390486
"KSYR","Syracuse/Hancock Intl, NY, US",2025-09-09 16:54:00,2025-09-09 12:54:00,"VFR",21.1,10,320,5,NA,NA,1026.8,"METAR KSYR 091654Z 32005KT 10SM FEW035 SCT250 21/10 A3032 RMK AO2 SLP265 T02110100",2025-09-09 17:12:49.396896,2025-09-09 13:12:49.396942
"KBOS","Boston/Logan Intl, MA, US",2025-09-09 16:54:00,2025-09-09 12:54:00,"VFR",20,12.8,70,9,NA,NA,1028.9,"METAR KBOS 091654Z 07009KT 10SM FEW030 FEW250 20/13 A3038 RMK AO2 SLP287 T02000128",2025-09-09 17:12:49.403408,2025-09-09 13:12:49.403453
"KPHL","Philadelphia Intl, PA, US",2025-09-09 16:54:00,2025-09-09 12:54:00,"VFR",23.9,12.2,60,8,17,NA,1025.8,"METAR KPHL 091654Z 06008G17KT 10SM BKN045 BKN230 BKN330 24/12 A3029 RMK AO2 SLP256 T02390122 $",2025-09-09 17:12:49.409783,2025-09-09 13:12:49.409828
"KBUF","Buffalo-Niagara Intl, NY, US",2025-09-09 16:54:00,2025-09-09 12:54:00,"VFR",22.2,6.7,250,9,NA,NA,1025.8,"METAR KBUF 091654Z 25009KT 10SM FEW060 22/07 A3029 RMK AO2 SLP256 FU ALF T02220067 $",2025-09-09 17:12:49.416274,2025-09-09 13:12:49.416319
"KBWI","Baltimore-Washington Intl, MD, US",2025-09-09 16:54:00,2025-09-09 12:54:00,"VFR",22.2,11.1,80,9,20,NA,1025.5,"METAR KBWI 091654Z 08009G20KT 10SM SCT041 SCT250 22/11 A3028 RMK AO2 SLP252 T02220111",2025-09-09 17:12:49.422692,2025-09-09 13:12:49.422737
"KDCA","Washington/Reagan-National Arpt, VA, US",2025-09-09 16:52:00,2025-09-09 12:52:00,"VFR",23.9,11.1,30,8,18,NA,1025.1,"METAR KDCA 091652Z 03008G18KT 10SM FEW050 SCT250 24/11 A3027 RMK AO2 SLP249 T02390111",2025-09-09 17:12:49.429142,2025-09-09 13:12:49.429187
"KIAD","Washington/Dulles Intl, VA, US",2025-09-09 16:52:00,2025-09-09 12:52:00,"VFR",23.3,8.3,60,7,NA,NA,1025.1,"METAR KIAD 091652Z 06007KT 10SM FEW045 SCT250 23/08 A3027 RMK AO2 SLP250 T02330083",2025-09-09 17:12:49.435633,2025-09-09 13:12:49.435677
"KALB","Albany Intl, NY, US",2025-09-09 16:51:00,2025-09-09 12:51:00,"VFR",21.1,8.9,0,0,NA,NA,1027.9,"METAR KALB 091651Z 00000KT 10SM FEW046 FEW250 21/09 A3035 RMK AO2 SLP275 T02110089",2025-09-09 17:12:49.444692,2025-09-09 13:12:49.444736
"KBDL","Hartford/Bradley Intl, CT, US",2025-09-09 16:51:00,2025-09-09 12:51:00,"VFR",21.7,7.8,120,7,NA,NA,1027.9,"METAR KBDL 091651Z 12007KT 10SM FEW050 FEW250 22/08 A3035 RMK AO2 SLP277 T02170078 $",2025-09-09 17:12:49.451134,2025-09-09 13:12:49.45118
"KBED","Bedford/Hanscom Fld, MA, US",2025-09-09 16:51:00,2025-09-09 12:51:00,"VFR",22.2,8.3,110,8,NA,NA,1028.2,"METAR KBED 091651Z 11008KT 090V170 10SM CLR 22/08 A3036 RMK AO2 SLP293 T02220083 $",2025-09-09 17:12:49.457644,2025-09-09 13:12:49.457688
"KEWR","Newark Intl, NJ, US",2025-09-09 16:51:00,2025-09-09 12:51:00,"VFR",22.8,10,NA,5,NA,NA,1026.8,"METAR KEWR 091651Z VRB05KT 10SM FEW040 SCT250 23/10 A3032 RMK AO2 SLP265 T02280100 $",2025-09-09 17:12:49.464147,2025-09-09 13:12:49.464191
"KJFK","New York/JF Kennedy Intl, NY, US",2025-09-09 16:51:00,2025-09-09 12:51:00,"VFR",22.2,11.1,130,10,16,NA,1026.8,"METAR KJFK 091651Z 13010G16KT 10SM FEW028 SCT050 BKN250 22/11 A3032 RMK AO2 SLP265 T02220111 $",2025-09-09 17:12:49.470536,2025-09-09 13:12:49.47058
"KLGA","New York/La Guardia Arpt, NY, US",2025-09-09 16:51:00,2025-09-09 12:51:00,"VFR",21.1,10.6,40,15,NA,NA,1026.8,"METAR KLGA 091651Z 04015KT 10SM FEW028 SCT250 21/11 A3032 RMK AO2 SLP266 T02110106",2025-09-09 17:12:49.476928,2025-09-09 13:12:49.476974
"KORF","Norfolk Intl, VA, US",2025-09-09 16:51:00,2025-09-09 12:51:00,"MVFR",23.3,18.3,40,15,23,NA,1021.4,"METAR KORF 091651Z 04015G23KT 10SM BKN018 OVC026 23/18 A3016 RMK AO2 PK WND 03027/1626 SLP212 T02330183",2025-09-09 17:12:49.483361,2025-09-09 13:12:49.483406
"KPVD","Providence/Green Mem, RI, US",2025-09-09 16:51:00,2025-09-09 12:51:00,"VFR",22.2,9.4,60,11,18,NA,1027.9,"METAR KPVD 091651Z 06011G18KT 10SM FEW038 FEW250 22/09 A3035 RMK AO2 SLP278 T02220094",2025-09-09 17:12:49.48974,2025-09-09 13:12:49.489788
"KPIT","Pittsburgh Intl, PA, US",2025-09-09 16:51:00,2025-09-09 12:51:00,"VFR",21.1,5.6,NA,6,NA,NA,1025.1,"METAR KPIT 091651Z COR VRB06KT 10SM FEW250 21/06 A3027 RMK AO2 SLP254 T02110056 $",2025-09-09 17:12:49.496293,2025-09-09 13:12:49.496338
"KSWF","Newburgh/Stewart Intl, NY, US",2025-09-09 16:45:00,2025-09-09 12:45:00,"VFR",22,11,110,7,NA,NA,1027.5,"METAR KSWF 091645Z 11007KT 10SM FEW050 22/11 A3034",2025-09-09 17:12:49.505042,2025-09-09 13:12:49.505092
"KLNK","Lincoln Arpt, NE, US",2025-09-09 17:10:00,2025-09-09 13:10:00,"MVFR",22.8,16.1,210,10,NA,NA,1016,"SPECI KLNK 091710Z 21010KT 10SM BKN029 OVC041 23/16 A3000 RMK AO2 T02280161",2025-09-09 17:12:51.431054,2025-09-09 13:12:51.4311
"KFSD","Sioux Falls/Foss Fld, SD, US",2025-09-09 16:56:00,2025-09-09 12:56:00,"IFR",18.3,16.7,160,6,NA,NA,1015.3,"METAR KFSD 091656Z 16006KT 10SM BKN009 BKN110 BKN250 18/17 A2998 RMK AO2 RAB14E54 SLP150 ACC OHD P0002 T01830167",2025-09-09 17:12:51.43757,2025-09-09 13:12:51.437618
"KCHS","Charleston Intl, SC, US",2025-09-09 16:56:00,2025-09-09 12:56:00,"VFR",25,13.3,30,12,21,NA,1019.7,"METAR KCHS 091656Z 03012G21KT 10SM SCT180 BKN250 25/13 A3011 RMK AO2 SLP195 T02500133",2025-09-09 17:12:51.443944,2025-09-09 13:12:51.443989
"KSDF","Louisville Intl, KY, US",2025-09-09 16:56:00,2025-09-09 12:56:00,"VFR",23.9,7.8,NA,4,NA,NA,1022.1,"METAR KSDF 091656Z VRB04KT 10SM FEW055 FEW350 24/08 A3018 RMK AO2 SLP216 T02390078",2025-09-09 17:12:51.450512,2025-09-09 13:12:51.450558
"KJAX","Jacksonville Intl, FL, US",2025-09-09 16:56:00,2025-09-09 12:56:00,"MVFR",26.1,22.8,40,17,24,NA,1017,"METAR KJAX 091656Z 04017G24KT 10SM FEW008 BKN014 BKN110 26/23 A3003 RMK AO2 RAE34 SLP169 P0001 T02610228 $",2025-09-09 17:12:51.456926,2025-09-09 13:12:51.45697
"KDAY","Dayton/Cox Intl, OH, US",2025-09-09 16:56:00,2025-09-09 12:56:00,"VFR",22.2,5,100,4,NA,NA,1023.8,"METAR KDAY 091656Z 10004KT 10SM FEW250 22/05 A3023 RMK AO2 SLP233 T02220050",2025-09-09 17:12:51.465665,2025-09-09 13:12:51.465708
"KMIA","Miami Intl, FL, US",2025-09-09 16:55:00,2025-09-09 12:55:00,"MVFR",28.9,24.4,330,9,14,NA,1014.3,"SPECI KMIA 091655Z 33009G14KT 10SM TS BKN025CB BKN045 BKN250 29/24 A2995 RMK AO2 LTG DSNT NE AND SW AND W OCNL LTGICCG VC W-NW TS VC W-NW MOV NE CB DSNT ALQDS MOV NE T02890244 $",2025-09-09 17:12:51.472201,2025-09-09 13:12:51.472246
"KSBN","South Bend Rgnl, IN, US",2025-09-09 16:54:00,2025-09-09 12:54:00,"VFR",21.7,7.2,210,9,NA,NA,1023.1,"METAR KSBN 091654Z 21009KT 10SM CLR 22/07 A3021 RMK AO2 SLP229 T02170072",2025-09-09 17:12:51.478639,2025-09-09 13:12:51.478684
"KIND","Indianapolis Intl, IN, US",2025-09-09 16:54:00,2025-09-09 12:54:00,"VFR",22.8,7.2,190,8,NA,NA,1022.8,"METAR KIND 091654Z 19008KT 10SM BKN250 23/07 A3020 RMK AO2 SLP222 T02280072",2025-09-09 17:12:51.485098,2025-09-09 13:12:51.485144
"KFWA","Fort Wayne Intl, IN, US",2025-09-09 16:54:00,2025-09-09 12:54:00,"VFR",23.3,7.2,220,7,NA,NA,1023.5,"METAR KFWA 091654Z 22007KT 10SM BKN250 23/07 A3022 RMK AO2 SLP232 T02330072",2025-09-09 17:12:51.491527,2025-09-09 13:12:51.491573
"KDSM","Des Moines Intl, IA, US",2025-09-09 16:54:00,2025-09-09 12:54:00,"VFR",18.3,10.6,NA,6,NA,NA,1018.7,"METAR KDSM 091654Z VRB06KT 10SM FEW080 FEW110 SCT150 BKN210 OVC250 18/11 A3008 RMK AO2 SLP181 PRESENT WX VCSH T01830106",2025-09-09 17:12:51.498041,2025-09-09 13:12:51.49809
"KGSO","Greensboro Intl, NC, US",2025-09-09 16:54:00,2025-09-09 12:54:00,"VFR",21.1,8.3,60,14,19,NA,1023.5,"METAR KGSO 091654Z 06014G19KT 10SM FEW060 FEW250 21/08 A3022 RMK AO2 SLP228 T02110083",2025-09-09 17:12:51.504446,2025-09-09 13:12:51.504492
"KMEM","Memphis Intl, TN, US",2025-09-09 16:54:00,2025-09-09 12:54:00,"VFR",27.8,17.8,210,8,NA,NA,1019.4,"METAR KMEM 091654Z 21008KT 10SM SCT033 28/18 A3010 RMK AO2 SLP188 T02780178 $",2025-09-09 17:12:51.510934,2025-09-09 13:12:51.510979
"KMCI","Kansas City Intl, MO, US",2025-09-09 16:53:00,2025-09-09 12:53:00,"VFR",17.2,14.4,180,13,NA,NA,1017.4,"METAR KMCI 091653Z 18013KT 10SM FEW010 BKN120 BKN250 17/14 A3004 RMK AO2 RAE03 SLP168 P0001 T01720144 $",2025-09-09 17:12:51.5198,2025-09-09 13:12:51.519845
"KBNA","Nashville Intl, TN, US",2025-09-09 16:53:00,2025-09-09 12:53:00,"VFR",26.7,13.9,NA,6,NA,NA,1021.8,"METAR KBNA 091653Z VRB06KT 10SM FEW040 SCT070 SCT250 27/14 A3017 RMK AO2 SLP210 T02670139 $",2025-09-09 17:12:51.526405,2025-09-09 13:12:51.526449
"KFLL","Ft Lauderdale-Hollywood Intl, FL, US",2025-09-09 16:53:00,2025-09-09 12:53:00,"VFR",26.7,23.9,60,7,NA,NA,1014.6,"METAR KFLL 091653Z 06007KT 10SM -TSRA SCT025CB BKN045 BKN065 BKN250 27/24 A2996 RMK AO2 RAB37 SLP144 OCNL LTGICCG N-E AND SW-W MOV NE P0001 T02670239",2025-09-09 17:12:51.532913,2025-09-09 13:12:51.532957
"KGRR","Grand Rapids Intl, MI, US",2025-09-09 16:53:00,2025-09-09 12:53:00,"VFR",21.1,6.1,230,6,15,NA,1023.1,"METAR KGRR 091653Z 23006G15KT 10SM FEW055 BKN250 21/06 A3021 RMK AO2 SLP230 T02110061 $",2025-09-09 17:12:51.539422,2025-09-09 13:12:51.539468
"KTPA","Tampa Intl Arpt, FL, US",2025-09-09 16:53:00,2025-09-09 12:53:00,"VFR",27.8,23.9,60,5,NA,NA,1015,"METAR KTPA 091653Z 06005KT 10SM FEW010 FEW049 SCT110 28/24 A2997 RMK AO2 SLP148 T02780239",2025-09-09 17:12:51.546009,2025-09-09 13:12:51.546074
"KRSW","Ft Myers/SW Florida Intl, FL, US",2025-09-09 16:53:00,2025-09-09 12:53:00,"VFR",30.6,25.6,160,6,NA,NA,1013.6,"METAR KRSW 091653Z 16006KT 10SM SCT021 31/26 A2993 RMK AO1 LTG DSNT S SLP133 T03060256",2025-09-09 17:12:51.552465,2025-09-09 13:12:51.55251
"KMYR","Myrtle Beach Intl, SC, US",2025-09-09 16:53:00,2025-09-09 12:53:00,"VFR",23.9,16.7,360,12,NA,NA,1020.1,"METAR KMYR 091653Z 36012KT 10SM CLR 24/17 A3012 RMK AO2 SLP199 T02390167 $",2025-09-09 17:12:51.558898,2025-09-09 13:12:51.558943
"KMSP","Minneapolis-St Paul Intl, MN, US",2025-09-09 16:53:00,2025-09-09 12:53:00,"MVFR",20,13.9,210,7,NA,NA,1015.3,"METAR KMSP 091653Z 21007KT 10SM OVC025 20/14 A2998 RMK AO2 SLP150 T02000139",2025-09-09 17:12:51.565405,2025-09-09 13:12:51.565451
"KDTW","Detroit/Metro Wayne Cnty, MI, US",2025-09-09 16:53:00,2025-09-09 12:53:00,"VFR",22.2,7.2,210,8,NA,NA,1024.1,"METAR KDTW 091653Z 21008KT 10SM FEW060 FEW250 22/07 A3024 RMK AO2 SLP239 T02220072 $",2025-09-09 17:12:51.574468,2025-09-09 13:12:51.574512
"KEYW","Key West Intl, FL, US",2025-09-09 16:53:00,2025-09-09 12:53:00,"VFR",31.1,26.1,200,9,NA,NA,1014.6,"METAR KEYW 091653Z 20009KT 10SM SCT025 31/26 A2996 RMK AO2 SLP151 T03110261",2025-09-09 17:12:51.580957,2025-09-09 13:12:51.581002
"KMCO","Orlando Intl, FL, US",2025-09-09 16:53:00,2025-09-09 12:53:00,"VFR",29.4,23.3,70,5,NA,NA,1014.6,"METAR KMCO 091653Z 07005KT 10SM SCT025 BKN160 29/23 A2996 RMK AO2 SLP144 T02940233 $",2025-09-09 17:12:51.587493,2025-09-09 13:12:51.587537
"KBHM","Birmingham Intl, AL, US",2025-09-09 16:53:00,2025-09-09 12:53:00,"VFR",26.7,12.2,100,6,16,NA,1021.8,"METAR KBHM 091653Z 10006G16KT 10SM FEW055 FEW110 FEW250 27/12 A3017 RMK AO2 SLP208 T02670122",2025-09-09 17:12:51.593963,2025-09-09 13:12:51.594007
"KSAV","Savannah Intl, GA, US",2025-09-09 16:53:00,2025-09-09 12:53:00,"VFR",27.2,15.6,30,9,NA,NA,1019.4,"METAR KSAV 091653Z 03009KT 10SM BKN250 27/16 A3010 RMK AO2 SLP192 T02720156",2025-09-09 17:12:51.600394,2025-09-09 13:12:51.60044
"KLIT","Little Rock/Clinton Natl, AR, US",2025-09-09 16:53:00,2025-09-09 12:53:00,"VFR",25,13.9,330,3,NA,NA,1019.4,"METAR KLIT 091653Z 33003KT 10SM CLR 25/14 A3010 RMK AO2 SLP194 T02500139",2025-09-09 17:12:51.606885,2025-09-09 13:12:51.606928
"KMDW","Chicago/Midway Intl, IL, US",2025-09-09 16:53:00,2025-09-09 12:53:00,"VFR",23.3,6.1,210,9,NA,NA,1021.8,"METAR KMDW 091653Z 21009KT 10SM BKN250 23/06 A3017 RMK AO2 SLP212 T02330061 $",2025-09-09 17:12:51.613398,2025-09-09 13:12:51.613443
"KHSV","Huntsville Intl, AL, US",2025-09-09 16:53:00,2025-09-09 12:53:00,"VFR",25,13.3,110,7,NA,NA,1021.4,"METAR KHSV 091653Z 11007KT 10SM FEW049 25/13 A3016 RMK AO2 SLP207 T02500133 $",2025-09-09 17:12:51.619861,2025-09-09 13:12:51.619907
"KPBI","Palm Beach Intl, FL, US",2025-09-09 16:53:00,2025-09-09 12:53:00,"VFR",31.1,23.9,340,3,NA,NA,1014.6,"METAR KPBI 091653Z COR 34003KT 10SM SCT031 BKN055 BKN250 31/24 A2996 RMK AO2 SLP144 OCNL LTGICCG DSNT E S CB DSNT E S T03110239 $",2025-09-09 17:12:51.626569,2025-09-09 13:12:51.626614
"KCLT","Charlotte/Douglas Intl, NC, US",2025-09-09 16:52:00,2025-09-09 12:52:00,"VFR",22.8,8.3,30,10,18,NA,1023.1,"METAR KCLT 091652Z 03010G18KT 10SM FEW045 FEW250 23/08 A3021 RMK SLP240 T02280083 $",2025-09-09 17:12:51.635675,2025-09-09 13:12:51.63572
"KMLI","Moline/Quad City Intl, IL, US",2025-09-09 16:52:00,2025-09-09 12:52:00,"VFR",23.3,9.4,180,10,NA,NA,1019.7,"METAR KMLI 091652Z 18010KT 10SM CLR 23/09 A3011 RMK AO2 SLP195 T02330094",2025-09-09 17:12:51.642297,2025-09-09 13:12:51.642341
"KOMA","Omaha/Eppley Fld, NE, US",2025-09-09 16:52:00,2025-09-09 12:52:00,"VFR",22.2,16.1,210,10,NA,NA,1016.3,"METAR KOMA 091652Z 21010KT 10SM SCT024 SCT050 BKN080 22/16 A3001 RMK AO2 SLP157 T02220161",2025-09-09 17:12:51.648894,2025-09-09 13:12:51.648937
"KATL","Atlanta/Hartsfield-Jackson Intl, GA, US",2025-09-09 16:52:00,2025-09-09 12:52:00,"VFR",24.4,12.2,60,7,18,NA,1022.1,"METAR KATL 091652Z 06007G18KT 10SM FEW070 FEW200 FEW250 24/12 A3018 RMK SLP212 T02440122",2025-09-09 17:12:51.655393,2025-09-09 13:12:51.655439
"KCVG","Cincinnati Intl, KY, US",2025-09-09 16:52:00,2025-09-09 12:52:00,"VFR",23.3,8.3,160,5,NA,NA,1023.1,"METAR KCVG 091652Z 16005KT 10SM FEW060 FEW250 23/08 A3021 RMK AO2 SLP221 T02330083",2025-09-09 17:12:51.661929,2025-09-09 13:12:51.661973
"KCMH","Columbus/Glenn Intl, OH, US",2025-09-09 16:51:00,2025-09-09 12:51:00,"VFR",22.2,7.2,NA,6,NA,NA,1023.8,"METAR KCMH 091651Z VRB06KT 10SM FEW036 SCT250 22/07 A3023 RMK AO2 SLP235 T02220072",2025-09-09 17:12:51.668471,2025-09-09 13:12:51.668516
"KRDU","Raleigh-Durham Intl, NC, US",2025-09-09 16:51:00,2025-09-09 12:51:00,"VFR",22.2,12.8,50,10,20,NA,1022.8,"METAR KRDU 091651Z 05010G20KT 10SM SCT035 SCT250 22/13 A3020 RMK AO2 SLP223 T02220128",2025-09-09 17:12:51.674946,2025-09-09 13:12:51.67499
"KORD","Chicago/O'Hare Intl, IL, US",2025-09-09 16:51:00,2025-09-09 12:51:00,"VFR",20.6,6.1,240,7,NA,NA,1021.8,"METAR KORD 091651Z 24007KT 10SM BKN250 21/06 A3017 RMK AO2 SLP214 T02060061",2025-09-09 17:12:51.681459,2025-09-09 13:12:51.681504
"KCLE","Cleveland/Hopkins Intl, OH, US",2025-09-09 16:51:00,2025-09-09 12:51:00,"VFR",22.8,5.6,150,7,NA,NA,1023.8,"METAR KCLE 091651Z 15007KT 120V180 10SM CLR 23/06 A3023 RMK AO2 SLP249 T02280056",2025-09-09 17:12:51.6906,2025-09-09 13:12:51.690645
"KSTL","St Louis/Lambert Intl, MO, US",2025-09-09 16:51:00,2025-09-09 12:51:00,"VFR",25,8.3,180,4,NA,NA,1020.4,"METAR KSTL 091651Z 18004KT 10SM FEW150 FEW200 SCT250 25/08 A3013 RMK AO2 SLP197 T02500083",2025-09-09 17:12:51.697173,2025-09-09 13:12:51.69722
"KLRD","Laredo Intl, TX, US",2025-09-09 16:56:00,2025-09-09 12:56:00,"VFR",30.6,20,NA,3,NA,NA,1016.7,"METAR KLRD 091656Z VRB03KT 10SM FEW043 SCT050 31/20 A3002 RMK AO2 SLP161 T03060200 $",2025-09-09 17:12:54.590246,2025-09-09 13:12:54.59029
"KBZN","Bozeman/Gallatin Fld, MT, US",2025-09-09 16:56:00,2025-09-09 12:56:00,"VFR",18.3,5.6,310,4,NA,NA,1017.7,"METAR KBZN 091656Z 31004KT 10SM CLR 18/06 A3005 RMK AO2 SLP144 T01830056",2025-09-09 17:12:54.596862,2025-09-09 13:12:54.596906
"KEGE","Eagle Cnty Rgnl, CO, US",2025-09-09 16:56:00,2025-09-09 12:56:00,"VFR",17.2,2.2,200,4,NA,NA,1025.1,"METAR KEGE 091656Z 20004KT 10SM CLR 17/02 A3027 RMK AO2 SLP180 T01720022 $",2025-09-09 17:12:54.603303,2025-09-09 13:12:54.603348
"KSLC","Salt Lake City Intl, UT, US",2025-09-09 16:54:00,2025-09-09 12:54:00,"VFR",27.8,6.1,170,14,24,NA,1014.6,"METAR KSLC 091654Z 17014G24KT 10SM FEW095 FEW130 BKN230 28/06 A2996 RMK AO2 PK WND 16026/1610 SLP088 T02780061 $",2025-09-09 17:12:54.609796,2025-09-09 13:12:54.609839
"KCOS","Colorado Spring Arpt, CO, US",2025-09-09 16:54:00,2025-09-09 12:54:00,"VFR",24.4,4.4,220,6,NA,NA,1022.1,"METAR KCOS 091654Z 22006KT 10SM SCT110 SCT250 24/04 A3018 RMK AO2 SLP132 T02440044 $",2025-09-09 17:12:54.618741,2025-09-09 13:12:54.618784
"KEUG","Eugene/Mahlon Sweet Fld, OR, US",2025-09-09 16:54:00,2025-09-09 12:54:00,"VFR",18.3,14.4,160,4,NA,NA,1014.3,"METAR KEUG 091654Z 16004KT 10SM BKN033 BKN042 OVC080 18/14 A2995 RMK AO2 SLP140 T01830144",2025-09-09 17:12:54.625313,2025-09-09 13:12:54.62536
"KMSO","Missoula Intl, MT, US",2025-09-09 16:53:00,2025-09-09 12:53:00,"VFR",15,7.8,160,3,NA,NA,1016,"METAR KMSO 091653Z 16003KT 10SM CLR 15/08 A3000 RMK AO2 SLP149 T01500078",2025-09-09 17:12:54.63194,2025-09-09 13:12:54.631984
"KSEA","Seattle-Tacoma Intl, WA, US",2025-09-09 16:53:00,2025-09-09 12:53:00,"VFR",18.3,13.9,10,5,NA,NA,1015,"METAR KSEA 091653Z 01005KT 10SM SCT012 BKN038 OVC100 18/14 A2997 RMK AO2 SLP154 T01830139 $",2025-09-09 17:12:54.63848,2025-09-09 13:12:54.638524
"KDFW","Dallas-Ft Worth Intl, TX, US",2025-09-09 16:53:00,2025-09-09 12:53:00,"VFR",26.1,13.3,170,7,NA,NA,1018,"METAR KDFW 091653Z 17007KT 10SM CLR 26/13 A3006 RMK AO2 SLP173 T02610133 $",2025-09-09 17:12:54.644932,2025-09-09 13:12:54.644975
"KGJT","Grand Junction Rgnl, CO, US",2025-09-09 16:53:00,2025-09-09 12:53:00,"VFR",25.6,3.9,130,9,NA,NA,1017.7,"METAR KGJT 091653Z 13009KT 10SM CLR 26/04 A3005 RMK AO2 SLP107 T02560039",2025-09-09 17:12:54.651393,2025-09-09 13:12:54.651438
"KDAL","Dallas/Love Fld, TX, US",2025-09-09 16:53:00,2025-09-09 12:53:00,"VFR",25.6,13.3,180,5,NA,NA,1018.7,"METAR KDAL 091653Z COR 18005KT 10SM CLR 26/13 A3008 RMK AO2 SLP178 T02560133",2025-09-09 17:12:54.65782,2025-09-09 13:12:54.657863
"KLBB","Lubbock Intl Arpt, TX, US",2025-09-09 16:53:00,2025-09-09 12:53:00,"VFR",27.8,18.3,170,7,NA,NA,1019,"METAR KLBB 091653Z 17007KT 10SM FEW075 FEW100 28/18 A3009 RMK AO2 SLP136 ACC DSNT E-SE T02780183",2025-09-09 17:12:54.664362,2025-09-09 13:12:54.664406
"KAUS","Austin/Bergstrom Intl, TX, US",2025-09-09 16:53:00,2025-09-09 12:53:00,"VFR",28.3,13.3,150,4,NA,NA,1017.7,"METAR KAUS 091653Z 15004KT 10SM CLR 28/13 A3005 RMK AO2 SLP168 T02830133",2025-09-09 17:12:54.673244,2025-09-09 13:12:54.673288
"KPUB","Pueblo Mem Arpt, CO, US",2025-09-09 16:53:00,2025-09-09 12:53:00,"VFR",27.2,6.7,NA,6,NA,NA,1018.7,"METAR KPUB 091653Z VRB06KT 10SM CLR 27/07 A3008 RMK AO2 SLP119 T02720067",2025-09-09 17:12:54.679695,2025-09-09 13:12:54.67974
"KTUL","Tulsa Intl Arpt, OK, US",2025-09-09 16:53:00,2025-09-09 12:53:00,"VFR",25.6,12.2,170,11,NA,NA,1018.4,"METAR KTUL 091653Z 17011KT 10SM BKN070 BKN090 26/12 A3007 RMK AO2 SLP176 T02560122",2025-09-09 17:12:54.686251,2025-09-09 13:12:54.686295
"KMFE","McAllen/Miller Intl, TX, US",2025-09-09 16:53:00,2025-09-09 12:53:00,"VFR",31.7,22.8,40,8,NA,NA,1015.3,"METAR KMFE 091653Z 04008KT 10SM FEW032 SCT050 BKN060 32/23 A2998 RMK AO2 SLP149 T03170228 $",2025-09-09 17:12:54.692711,2025-09-09 13:12:54.692755
"KMFR","Medford/Rogue Valley Intl, OR, US",2025-09-09 16:53:00,2025-09-09 12:53:00,"MVFR",17.2,13.9,0,0,NA,NA,1014.6,"METAR KMFR 091653Z 00000KT 10SM FEW011 BKN023 BKN090 17/14 A2996 RMK AO2 SLP138 T01720139 $",2025-09-09 17:12:54.69917,2025-09-09 13:12:54.699215
"KIDA","Idaho Falls Rgnl, ID, US",2025-09-09 16:53:00,2025-09-09 12:53:00,"VFR",22.2,6.7,190,3,NA,NA,1016.7,"METAR KIDA 091653Z 19003KT 10SM CLR 22/07 A3002 RMK AO2 SLP130 T02220067",2025-09-09 17:12:54.705607,2025-09-09 13:12:54.705653
"KICT","Wichita/Eisenhower Arpt, KS, US",2025-09-09 16:53:00,2025-09-09 12:53:00,"VFR",23.3,15,190,11,16,NA,1016.3,"METAR KICT 091653Z 19011G16KT 10SM SCT120 SCT150 BKN190 BKN250 23/15 A3001 RMK AO2 SLP153 ACC OHD T02330150 $",2025-09-09 17:12:54.71206,2025-09-09 13:12:54.712108
"KHOU","Houston/Hobby Arpt, TX, US",2025-09-09 16:53:00,2025-09-09 12:53:00,"VFR",28.3,13.9,50,6,NA,NA,1017,"METAR KHOU 091653Z 05006KT 10SM CLR 28/14 A3003 RMK AO2 SLP174 T02830139",2025-09-09 17:12:54.7185,2025-09-09 13:12:54.718546
"KDEN","Denver Intl, CO, US",2025-09-09 16:53:00,2025-09-09 12:53:00,"VFR",25,4.4,260,3,NA,NA,1019.7,"METAR KDEN 091653Z 26003KT 10SM FEW080 FEW100 SCT140 BKN220 25/04 A3011 RMK AO2 SLP117 T02500044",2025-09-09 17:12:54.727237,2025-09-09 13:12:54.727294
"KAFW","Fort Worth/Alliance Arpt, TX, US",2025-09-09 16:53:00,2025-09-09 12:53:00,"VFR",26.7,13.9,140,8,NA,NA,1018.4,"METAR KAFW 091653Z 14008KT 10SM CLR 27/14 A3007 RMK AO2 SLP170 T02670139",2025-09-09 17:12:54.733693,2025-09-09 13:12:54.733737
"KASE","Aspen/Pitkin Cnty, CO, US",2025-09-09 16:53:00,2025-09-09 12:53:00,"VFR",19.4,2.8,360,4,NA,NA,1025.8,"METAR KASE 091653Z 36004KT 10SM FEW090 19/03 A3029 RMK AO2 RAB10E24 SLP141 P0000 T01940028",2025-09-09 17:12:54.740261,2025-09-09 13:12:54.740307
"KBRO","Brownsville Intl, TX, US",2025-09-09 16:53:00,2025-09-09 12:53:00,"VFR",31.7,25,40,11,18,NA,1014.3,"METAR KBRO 091653Z 04011G18KT 10SM FEW025 SCT070 32/25 A2995 RMK AO2 SLP142 T03170250",2025-09-09 17:12:54.746775,2025-09-09 13:12:54.746821
"KBIL","Billings/Logan Intl, MT, US",2025-09-09 16:53:00,2025-09-09 12:53:00,"VFR",20.6,7.2,0,0,NA,NA,1017,"METAR KBIL 091653Z 00000KT 10SM FEW240 21/07 A3003 RMK AO2 SLP141 T02060072",2025-09-09 17:12:54.753488,2025-09-09 13:12:54.753533
"KHLN","Helena Rgnl, MT, US",2025-09-09 16:53:00,2025-09-09 12:53:00,"VFR",17.2,6.7,NA,4,NA,NA,1016.3,"METAR KHLN 091653Z VRB04KT 10SM CLR 17/07 A3001 RMK AO2 SLP156 T01720067",2025-09-09 17:12:54.760116,2025-09-09 13:12:54.760163
"KIAH","Houston/Bush Intl, TX, US",2025-09-09 16:53:00,2025-09-09 12:53:00,"VFR",27.8,13.3,30,7,NA,NA,1017.7,"METAR KIAH 091653Z 03007KT 10SM CLR 28/13 A3005 RMK AO2 SLP174 T02780133",2025-09-09 17:12:54.766623,2025-09-09 13:12:54.766667
"KLAW","Lawton-Fort Sill Rgnl, OK, US",2025-09-09 16:53:00,2025-09-09 12:53:00,"VFR",27.2,12.8,190,10,17,NA,1017.7,"METAR KLAW 091653Z 19010G17KT 10SM CLR 27/13 A3005 RMK AO2 SLP165 T02720128",2025-09-09 17:12:54.773194,2025-09-09 13:12:54.77324
"KGTF","Great Falls Intl, MT, US",2025-09-09 16:53:00,2025-09-09 12:53:00,"VFR",21.7,6.7,80,4,NA,NA,1016,"METAR KGTF 091653Z 08004KT 10SM CLR 22/07 A3000 RMK AO2 SLP127 T02170067 $",2025-09-09 17:12:54.779732,2025-09-09 13:12:54.779777
"KAMA","Amarillo Intl Arpt, TX, US",2025-09-09 16:53:00,2025-09-09 12:53:00,"VFR",27.8,16.1,220,12,NA,NA,1018.7,"METAR KAMA 091653Z 22012KT 10SM CLR 28/16 A3008 RMK AO2 SLP131 T02780161",2025-09-09 17:12:54.7891,2025-09-09 13:12:54.789144
"KBFI","Seattle/Boeing Fld, WA, US",2025-09-09 16:53:00,2025-09-09 12:53:00,"VFR",17.2,13.9,NA,3,NA,NA,1014.6,"METAR KBFI 091653Z VRB03KT 10SM SCT015 OVC043 17/14 A2996 RMK AO2 SLP146 T01720139",2025-09-09 17:12:54.795774,2025-09-09 13:12:54.795823
"KBOI","Boise Arpt, ID, US",2025-09-09 16:53:00,2025-09-09 12:53:00,"VFR",22.8,4.4,330,9,NA,NA,1012.6,"METAR KBOI 091653Z 33009KT 10SM CLR 23/04 A2990 RMK AO2 SLP100 T02280044",2025-09-09 17:12:54.802504,2025-09-09 13:12:54.802549
"KGEG","Spokane Intl, WA, US",2025-09-09 16:53:00,2025-09-09 12:53:00,"VFR",21.7,10,40,6,NA,NA,1013.6,"METAR KGEG 091653Z 04006KT 10SM FEW120 FEW150 FEW300 22/10 A2993 RMK AO2 SLP118 CB DSNT N-NE AND NW MOV N T02170100 $",2025-09-09 17:12:54.809076,2025-09-09 13:12:54.809129
"KPDX","Portland Intl, OR, US",2025-09-09 16:53:00,2025-09-09 12:53:00,"VFR",18.9,13.3,350,3,NA,NA,1014.3,"METAR KPDX 091653Z 35003KT 10SM FEW025 BKN110 BKN250 19/13 A2995 RMK AO2 SLP139 T01890133",2025-09-09 17:12:54.815652,2025-09-09 13:12:54.815696
"KHRL","Harlingen/Valley Intl, TX, US",2025-09-09 16:52:00,2025-09-09 12:52:00,"VFR",31.1,24.4,60,9,NA,NA,1014.6,"METAR KHRL 091652Z 06009KT 10SM SCT060 SCT070 31/24 A2996 RMK AO2 SLP143 T03110244",2025-09-09 17:12:54.82221,2025-09-09 13:12:54.822257
"KABI","Abilene Rgnl, TX, US",2025-09-09 16:52:00,2025-09-09 12:52:00,"VFR",28.3,16.1,210,9,NA,NA,1018.7,"METAR KABI 091652Z 21009KT 10SM CLR 28/16 A3008 RMK AO2 SLP159 T02830161",2025-09-09 17:12:54.828708,2025-09-09 13:12:54.828753
"KOKC","Oklahoma City/Will Rogers Intl, OK, US",2025-09-09 16:52:00,2025-09-09 12:52:00,"VFR",25.6,12.8,180,15,NA,NA,1017.7,"METAR KOKC 091652Z 18015KT 10SM FEW100 SCT250 26/13 A3005 RMK AO2 SLP163 T02560128",2025-09-09 17:12:54.835343,2025-09-09 13:12:54.835391
"KELP","El Paso Intl, TX, US",2025-09-09 16:51:00,2025-09-09 12:51:00,"VFR",30,12.8,180,6,NA,NA,1019,"METAR KELP 091651Z 18006KT 10SM FEW065 FEW110 30/13 A3009 RMK AO2 SLP107 T03000128",2025-09-09 17:12:54.844688,2025-09-09 13:12:54.844732
"KACT","Waco Rgnl, TX, US",2025-09-09 16:51:00,2025-09-09 12:51:00,"VFR",26.7,15.6,NA,NA,NA,NA,1018.7,"METAR KACT 091651Z 10SM CLR 27/16 A3008 RMK AO2 SLP179 T02670156",2025-09-09 17:12:54.851251,2025-09-09 13:12:54.851297
"KSAT","San Antonio Intl, TX, US",2025-09-09 16:51:00,2025-09-09 12:51:00,"VFR",27.8,14.4,90,5,NA,NA,1018,"METAR KSAT 091651Z 09005KT 10SM CLR 28/14 A3006 RMK AO2 SLP160 T02780144",2025-09-09 17:12:54.857842,2025-09-09 13:12:54.857887
"KOAK","Oakland Intl, CA, US",2025-09-09 17:10:00,2025-09-09 13:10:00,"MVFR",19.4,16.7,160,7,NA,NA,1014.6,"SPECI KOAK 091710Z 16007KT 10SM FEW019 BKN027 BKN037 BKN250 19/17 A2996 RMK AO2 T01940167",2025-09-09 17:12:57.281291,2025-09-09 13:12:57.281335
"KSAN","San Diego Intl Arpt, CA, US",2025-09-09 16:57:00,2025-09-09 12:57:00,"VFR",21.7,15,NA,4,NA,NA,1015.3,"SPECI KSAN 091657Z VRB04KT 10SM SCT021 22/15 A2998 RMK AO2 T02170150",2025-09-09 17:12:57.287884,2025-09-09 13:12:57.287929
"KSFO","San Francisco Intl, CA, US",2025-09-09 16:56:00,2025-09-09 12:56:00,"MVFR",20,16.1,230,9,NA,NA,1014.3,"METAR KSFO 091656Z 23009KT 10SM FEW005 BKN018 OVC038 20/16 A2995 RMK AO2 SLP142 T02000161 $",2025-09-09 17:12:57.294358,2025-09-09 13:12:57.294403
"KRNO","Reno/Tahoe Intl, NV, US",2025-09-09 16:55:00,2025-09-09 12:55:00,"VFR",16.1,4.4,0,0,NA,NA,1017,"METAR KRNO 091655Z 00000KT 10SM FEW070 BKN200 16/04 A3003 RMK AO2 SLP127 T01610044",2025-09-09 17:12:57.300914,2025-09-09 13:12:57.300961
"PHOG","Kahului Arpt, HI, US",2025-09-09 16:54:00,2025-09-09 12:54:00,"VFR",24.4,20.6,30,3,NA,NA,1015.3,"METAR PHOG 091654Z 03003KT 10SM FEW030 SCT045 24/21 A2998 RMK AO2 SLP155 T02440206",2025-09-09 17:12:57.309886,2025-09-09 13:12:57.309931
"KSBA","Santa Barbara Muni, CA, US",2025-09-09 16:53:00,2025-09-09 12:53:00,"VFR",20.6,17.2,140,9,NA,NA,1013.6,"METAR KSBA 091653Z 14009KT 10SM CLR 21/17 A2993 RMK AO2 SLP136 T02060172 $",2025-09-09 17:12:57.316467,2025-09-09 13:12:57.316514
"KSAF","Santa Fe Cnty Muni, NM, US",2025-09-09 16:53:00,2025-09-09 12:53:00,"VFR",24.4,4.4,40,5,NA,NA,1024.1,"METAR KSAF 091653Z 04005KT 10SM CLR 24/04 A3024 RMK AO2 SLP143 T02440044",2025-09-09 17:12:57.322956,2025-09-09 13:12:57.323001
"KLAX","Los Angeles Intl, CA, US",2025-09-09 16:53:00,2025-09-09 12:53:00,"MVFR",21.7,16.7,130,5,NA,7,1014.6,"METAR KLAX 091653Z 13005KT 7SM FEW009 SCT017 BKN023 22/17 A2996 RMK AO2 SLP142 T02170167 $",2025-09-09 17:12:57.329429,2025-09-09 13:12:57.329475
"KSTS","Santa Rosa/Schulz Arpt, CA, US",2025-09-09 16:53:00,2025-09-09 12:53:00,"MVFR",18.9,17.2,120,3,NA,NA,1013.6,"METAR KSTS 091653Z 12003KT 10SM SCT010 BKN019 BKN027 19/17 A2993 RMK AO2 SLP130 T01890172",2025-09-09 17:12:57.33593,2025-09-09 13:12:57.335975
"KPSP","Palm Springs Intl, CA, US",2025-09-09 16:53:00,2025-09-09 12:53:00,"VFR",32.8,3.9,0,0,NA,NA,1010.6,"METAR KPSP 091653Z 00000KT 10SM CLR 33/04 A2984 RMK AO2 SLP098 T03280039",2025-09-09 17:12:57.342357,2025-09-09 13:12:57.3424
"KSNA","Santa Ana/Wayne Arpt, CA, US",2025-09-09 16:53:00,2025-09-09 12:53:00,"MVFR",21.1,15.6,NA,4,NA,NA,1014.6,"METAR KSNA 091653Z VRB04KT 10SM BKN020 21/16 A2996 RMK AO2 SLP145 T02110156",2025-09-09 17:12:57.348854,2025-09-09 13:12:57.3489
"PHNL","Honolulu Intl, HI, US",2025-09-09 16:53:00,2025-09-09 12:53:00,"VFR",26.1,22.2,60,5,NA,NA,1015.3,"METAR PHNL 091653Z 06005KT 10SM FEW022 SCT035 26/22 A2998 RMK AO2 SLP152 VCSH N T02610222",2025-09-09 17:12:57.355466,2025-09-09 13:12:57.355512
"KSJC","San Jose Intl Arpt, CA, US",2025-09-09 16:53:00,2025-09-09 12:53:00,"MVFR",20.6,14.4,0,0,NA,NA,1014.6,"METAR KSJC 091653Z 00000KT 10SM -RA FEW010 BKN030 BKN045 21/14 A2996 RMK AO2 RAB46 SLP143 TCU DSNT SE AND NW P0000 T02060144",2025-09-09 17:12:57.364638,2025-09-09 13:12:57.364681
"KBUR","Burbank/Bob Hope Arpt, CA, US",2025-09-09 16:53:00,2025-09-09 12:53:00,"VFR",20.6,15,NA,5,NA,NA,1015,"METAR KBUR 091653Z VRB05KT 10SM FEW017 21/15 A2997 RMK AO2 SLP137 T02060150",2025-09-09 17:12:57.371257,2025-09-09 13:12:57.371303
"KLGB","Long Beach Arpt, CA, US",2025-09-09 16:53:00,2025-09-09 12:53:00,"MVFR",21.7,16.1,200,5,NA,NA,1014.6,"METAR KLGB 091653Z 20005KT 10SM OVC021 22/16 A2996 RMK AO2 SLP144 T02170161",2025-09-09 17:12:57.377793,2025-09-09 13:12:57.377837
"KTUS","Tucson Intl Arpt, AZ, US",2025-09-09 16:53:00,2025-09-09 12:53:00,"VFR",32.2,16.1,210,3,NA,NA,1015.7,"METAR KTUS 091653Z 21003KT 10SM CLR 32/16 A2999 RMK AO2 SLP100 T03220161",2025-09-09 17:12:57.384351,2025-09-09 13:12:57.384396
"KONT","Ontario Intl, CA, US",2025-09-09 16:53:00,2025-09-09 12:53:00,"VFR",21.1,14.4,NA,4,NA,NA,1015,"METAR KONT 091653Z VRB04KT 10SM FEW010 21/14 A2997 RMK AO2 SLP135 T02110144 $",2025-09-09 17:12:57.390963,2025-09-09 13:12:57.391008
"KABQ","Albuquerque Intl, NM, US",2025-09-09 16:52:00,2025-09-09 12:52:00,"VFR",24.4,6.7,210,3,NA,NA,1022.8,"METAR KABQ 091652Z COR 21003KT 10SM FEW070 BKN120 24/07 A3020 RMK AO2 SLP136 T02440067 $",2025-09-09 17:12:57.397537,2025-09-09 13:12:57.397581
"KPHX","Phoenix/Sky Harbor Intl, AZ, US",2025-09-09 16:51:00,2025-09-09 12:51:00,"VFR",36.1,13.9,NA,4,NA,NA,1010.6,"METAR KPHX 091651Z VRB04KT 10SM FEW100 36/14 A2984 RMK AO2 SLP082 T03610139",2025-09-09 17:12:57.403994,2025-09-09 13:12:57.40406
"KSMO","Santa Monica Muni, CA, US",2025-09-09 16:51:00,2025-09-09 12:51:00,"MVFR",21.1,16.7,NA,4,NA,NA,1014.6,"METAR KSMO 091651Z VRB04KT 10SM OVC020 21/17 A2996 RMK AO2 SLP143 T02110167",2025-09-09 17:12:57.410511,2025-09-09 13:12:57.410556
"CYAT","Attawapisket Arpt, ON, CA",2025-09-09 17:09:00,2025-09-09 13:09:00,"MVFR",13,12,250,8,NA,9,1011.6,"SPECI CYAT 091709Z AUTO 25008KT 9SM BKN010 OVC050 13/12 A2987 RMK SLP117",2025-09-09 17:30:27.611567,2025-09-09 13:30:27.611621
"CYQR","Regina Intl Arpt, SK, CA",2025-09-09 17:00:00,2025-09-09 13:00:00,"VFR",24,10,NA,2,NA,15,1016,"METAR CYQR 091700Z VRB02KT 15SM SKC 24/10 A3000 RMK SLP162 DENSITY ALT 3300FT",2025-09-09 17:30:27.623807,2025-09-09 13:30:27.623854
"CYEG","Edmonton Intl Arpt, AB, CA",2025-09-09 17:00:00,2025-09-09 13:00:00,"VFR",20,11,170,7,NA,8,1011.9,"METAR CYEG 091700Z 17007KT 8SM SKC 20/11 A2988 RMK FU SLP122 DENSITY ALT 3600FT",2025-09-09 17:30:27.630821,2025-09-09 13:30:27.630868
"CYER","Ft Severn Arpt, ON, CA",2025-09-09 17:00:00,2025-09-09 13:00:00,"MVFR",9,5,10,6,NA,9,1016,"METAR CYER 091700Z AUTO 01006KT 350V070 9SM OVC019 09/05 A3000 RMK SLP163",2025-09-09 17:30:27.637618,2025-09-09 13:30:27.637664
"CYVO","Val D'Or Arpt, QC, CA",2025-09-09 17:00:00,2025-09-09 13:00:00,"VFR",14,7,180,11,20,15,1022.4,"METAR CYVO 091700Z 18011G20KT 15SM SCT055 OVC070 14/07 A3019 RMK SC3AC5 SLP235",2025-09-09 17:30:27.644481,2025-09-09 13:30:27.644526
"CYYG","Charlottetown Arpt, PE, CA",2025-09-09 17:00:00,2025-09-09 13:00:00,"VFR",19,7,180,8,NA,15,1028.5,"METAR CYYG 091700Z 18008KT 15SM BKN055 BKN260 19/07 A3037 RMK SC6CI1 SLP288",2025-09-09 17:30:27.65136,2025-09-09 13:30:27.651404
"CYHZ","Halifax/Stanfield Intl, NS, CA",2025-09-09 17:00:00,2025-09-09 13:00:00,"VFR",19,7,330,4,NA,15,1028.5,"METAR CYHZ 091700Z 33004KT 15SM FEW040 BKN250 19/07 A3037 RMK CU2CS5 SLP288",2025-09-09 17:30:27.658225,2025-09-09 13:30:27.658268
"CYOW","Ottawa/Cartier Intl, ON, CA",2025-09-09 17:00:00,2025-09-09 13:00:00,"VFR",19,9,220,5,NA,15,1027.2,"METAR CYOW 091700Z 22005KT 130V250 15SM FEW040 FEW250 19/09 A3033 RMK CU1CI1 CU TR SLP275 DENSITY ALT 600FT",2025-09-09 17:30:27.664983,2025-09-09 13:30:27.665026
"CYPL","Pickle Lake Arpt, ON, CA",2025-09-09 17:00:00,2025-09-09 13:00:00,"VFR",19,10,330,3,NA,9,1015,"METAR CYPL 091700Z AUTO 33003KT 310V040 9SM CLR 19/10 A2997 RMK SLP157 DENSITY ALT 2000FT",2025-09-09 17:30:27.671803,2025-09-09 13:30:27.671847
"CYQB","Quebec/Lesage Intl, QC, CA",2025-09-09 17:00:00,2025-09-09 13:00:00,"VFR",18,5,230,4,NA,30,1028.5,"METAR CYQB 091700Z 23004KT 180V280 30SM FEW051 FEW100 SCT250 18/05 A3037 RMK SC1AC1CI1 SLP289",2025-09-09 17:30:27.681503,2025-09-09 13:30:27.681547
"CYQG","Windsor Intl, ON, CA",2025-09-09 17:00:00,2025-09-09 13:00:00,"VFR",23,6,200,8,NA,9,1024.1,"METAR CYQG 091700Z AUTO 20008KT 190V250 9SM CLR 23/06 A3024 RMK SLP242 DENSITY ALT 1300FT",2025-09-09 17:30:27.688514,2025-09-09 13:30:27.688577
"CYQM","Moncton Intl, NB, CA",2025-09-09 17:00:00,2025-09-09 13:00:00,"VFR",20,3,NA,2,NA,15,1028.2,"METAR CYQM 091700Z VRB02KT 15SM FEW062 FEW240 20/03 A3036 RMK CU1CI1 CU TR SLP284",2025-09-09 17:30:27.695694,2025-09-09 13:30:27.69574
"CYUL","Montreal/Trudeau Intl, QC, CA",2025-09-09 17:00:00,2025-09-09 13:00:00,"VFR",19,9,240,7,NA,30,1027.9,"METAR CYUL 091700Z 24007KT 180V280 30SM FEW035 SCT250 19/09 A3035 RMK CF1CI4 CF TR SLP279",2025-09-09 17:30:27.702769,2025-09-09 13:30:27.702814
"CYUY","Rouyn/Noranda Arpt, QC, CA",2025-09-09 17:00:00,2025-09-09 13:00:00,"VFR",12,11,180,9,NA,15,1020.7,"METAR CYUY 091700Z 18009KT 15SM -RA BKN069 12/11 A3014 RMK AC8 SLP217",2025-09-09 17:30:27.709585,2025-09-09 13:30:27.709636
"CYVR","Vancouver Intl, BC, CA",2025-09-09 17:00:00,2025-09-09 13:00:00,"MVFR",18,17,300,6,NA,20,1014.3,"METAR CYVR 091700Z 30006KT 270V330 20SM FEW010 FEW018 SCT023 BKN030 BKN042 18/17 A2995 RMK SC1SC2SC1SC1SC3 SC TR CU EMBD SLP146 DENSITY ALT 400FT",2025-09-09 17:30:27.716421,2025-09-09 13:30:27.716465
"CYWG","Winnipeg Intl Arpt, MB, CA",2025-09-09 17:00:00,2025-09-09 13:00:00,"VFR",22,15,0,0,NA,15,1015,"METAR CYWG 091700Z 00000KT 15SM SKC 22/15 A2997 RMK SLP154 DENSITY ALT 1800FT",2025-09-09 17:30:27.723305,2025-09-09 13:30:27.723347
"CYYC","Calgary Intl, AB, CA",2025-09-09 17:00:00,2025-09-09 13:00:00,"VFR",20,9,210,3,NA,15,1014.6,"METAR CYYC 091700Z 21003KT 130V240 15SM SKC 20/09 A2996 RMK SLP141 DENSITY ALT 5000FT",2025-09-09 17:30:27.730163,2025-09-09 13:30:27.730208
"CYYJ","Victoria Intl, BC, CA",2025-09-09 17:00:00,2025-09-09 13:00:00,"VFR",18,14,NA,2,NA,30,1014.6,"METAR CYYJ 091700Z VRB02KT 30SM FEW025 BKN044 18/14 A2996 RMK CU1SC7 CU TR SLP146 DENSITY ALT 400FT",2025-09-09 17:30:27.737096,2025-09-09 13:30:27.737139
"CYYZ","Toronto/Pearson Intl, ON, CA",2025-09-09 17:00:00,2025-09-09 13:00:00,"VFR",20,10,130,7,NA,15,1025.5,"METAR CYYZ 091700Z 13007KT 100V190 15SM FEW040 SCT250 20/10 A3028 RMK CU1CI3 SLP256 DENSITY ALT 900FT",2025-09-09 17:30:27.746531,2025-09-09 13:30:27.746595
"CYZV","Sept-Îles Arpt, QC, CA",2025-09-09 17:00:00,2025-09-09 13:00:00,"VFR",13,5,170,10,NA,30,1027.5,"METAR CYZV 091700Z 17010KT 30SM FEW060 FEW080 FEW180 BKN260 13/05 A3034 RMK CU1AC1AC1CI4 AC TR AC TR CONTRAILS SLP279",2025-09-09 17:30:27.753527,2025-09-09 13:30:27.753593
"CYQQ","Comox(MIL), BC, CA",2025-09-09 17:00:00,2025-09-09 13:00:00,"MVFR",18,13,340,6,NA,20,1015.3,"METAR CYQQ 091700Z 34006KT 20SM BKN019 18/13 A2998 RMK SC7 DENSITY ALT 543FT SLP153",2025-09-09 17:30:27.760374,2025-09-09 13:30:27.760417
"CYXE","Saskatoon/Diefenbaker Intl, SK, CA",2025-09-09 17:00:00,2025-09-09 13:00:00,"VFR",22,12,130,5,NA,12,1015.3,"METAR CYXE 091700Z 13005KT 050V150 12SM FEW300 22/12 A2998 RMK CI1 CI TR FU SLP160 DENSITY ALT 2800FT",2025-09-09 17:30:27.76722,2025-09-09 13:30:27.767267
"CYXS","Prince George Arpt, BC, CA",2025-09-09 17:00:00,2025-09-09 13:00:00,"MVFR",14,12,180,3,NA,5,1014,"METAR CYXS 091700Z AUTO 18003KT 150V220 5SM BR CLR 14/12 A2994 RMK SLP151 DENSITY ALT 2700FT",2025-09-09 17:30:27.774143,2025-09-09 13:30:27.774188
"CYXT","Terrace Arpt, BC, CA",2025-09-09 17:00:00,2025-09-09 13:00:00,"VFR",16,12,NA,2,NA,20,1016.7,"METAR CYXT 091700Z VRB02KT 20SM FEW020 FEW045 BKN210 16/12 A3002 RMK CF1SC2CI5 CF TR SLP172",2025-09-09 17:30:27.78126,2025-09-09 13:30:27.781308
"CYYB","North Bay/Garland Arpt, ON, CA",2025-09-09 17:00:00,2025-09-09 13:00:00,"VFR",18,11,190,13,20,30,1024.5,"METAR CYYB 091700Z 19013G20KT 30SM FEW030 BKN280 18/11 A3025 RMK CU3CI3 SLP251 DENSITY ALT 1600FT",2025-09-09 17:30:27.788167,2025-09-09 13:30:27.788211
"CYQA","Muskoka Arpt, ON, CA",2025-09-09 17:00:00,2025-09-09 13:00:00,"VFR",20,7,190,8,16,9,1025.5,"METAR CYQA 091700Z AUTO 19008G16KT 180V240 9SM CLR 20/07 A3028 RMK SLP260 DENSITY ALT 1400FT",2025-09-09 17:30:27.795347,2025-09-09 13:30:27.795392
"CYQF","Red Deer Rgnl, AB, CA",2025-09-09 17:00:00,2025-09-09 13:00:00,"VFR",18,9,230,3,NA,9,1013.6,"METAR CYQF 091700Z AUTO 23003KT 180V260 9SM CLR 18/09 A2993 RMK SLP143 DENSITY ALT 4100FT",2025-09-09 17:30:27.805637,2025-09-09 13:30:27.805688
"CYQT","Thunder Bay Intl, ON, CA",2025-09-09 17:00:00,2025-09-09 13:00:00,"MVFR",17,15,100,4,NA,15,1014.6,"METAR CYQT 091700Z 10004KT 15SM SCT013 OVC019 17/15 A2996 RMK SC4SC4 SLP152 DENSITY ALT 1000FT",2025-09-09 17:30:27.812959,2025-09-09 13:30:27.813005
"CYRJ","Roberval Arpt, QC, CA",2025-09-09 17:00:00,2025-09-09 13:00:00,"VFR",16,5,200,13,NA,40,1026.5,"METAR CYRJ 091700Z 20013KT 170V240 40SM SCT170 BKN200 16/05 A3031 RMK AC4CI3 SLP271",2025-09-09 17:30:27.820312,2025-09-09 13:30:27.820357
"CYSB","Sudbury Arpt, ON, CA",2025-09-09 17:00:00,2025-09-09 13:00:00,"VFR",19,10,190,19,25,20,1022.8,"METAR CYSB 091700Z 19019G25KT 20SM BKN033 BKN200 19/10 A3020 RMK CU5CI1 SLP233 DENSITY ALT 1600FT",2025-09-09 17:30:27.8275,2025-09-09 13:30:27.827546
"CYTS","Timmins/Power Arpt, ON, CA",2025-09-09 17:00:00,2025-09-09 13:00:00,"MVFR",13,12,190,8,NA,5,1017.7,"METAR CYTS 091700Z 19008KT 5SM -RA BR SCT009 OVC037 13/12 A3005 RMK SC4SC4 SLP187",2025-09-09 17:30:27.83477,2025-09-09 13:30:27.834821
"CYGK","Kingston Arpt, ON, CA",2025-09-09 17:00:00,2025-09-09 13:00:00,"VFR",18,12,160,8,NA,15,1027.5,"METAR CYGK 091700Z 16008KT 15SM FEW020 FEW250 18/12 A3034 RMK SC1CI1 SLP277",2025-09-09 17:30:27.841868,2025-09-09 13:30:27.841913
"CYHU","Montreal/St Hubert, QC, CA",2025-09-09 17:00:00,2025-09-09 13:00:00,"VFR",20,10,220,6,NA,9,1027.5,"METAR CYHU 091700Z AUTO 22006KT 130V240 9SM CLR 20/10 A3034 RMK SLP277",2025-09-09 17:30:27.848961,2025-09-09 13:30:27.849022
"CYLW","Kelowna Arpt, BC, CA",2025-09-09 17:00:00,2025-09-09 13:00:00,"VFR",20,12,NA,3,NA,9,1013.3,"METAR CYLW 091700Z AUTO VRB03KT 9SM CLR 20/12 A2992 RMK SLP130 DENSITY ALT 2400FT",2025-09-09 17:30:27.856071,2025-09-09 13:30:27.856121
"CYMM","Fort McMurray Arpt, AB, CA",2025-09-09 17:00:00,2025-09-09 13:00:00,"VFR",18,12,80,6,NA,6,1010.6,"METAR CYMM 091700Z AUTO 08006KT 6SM HZ BKN100 18/12 A2984 RMK SLP114 DENSITY ALT 2000FT",2025-09-09 17:30:27.863192,2025-09-09 13:30:27.863237
"CYMO","Moosonee Arpt, ON, CA",2025-09-09 17:00:00,2025-09-09 13:00:00,"MVFR",14,13,190,7,NA,9,1014,"METAR CYMO 091700Z AUTO 19007KT 9SM FEW012 OVC021 14/13 A2994 RMK SLP142",2025-09-09 17:30:27.872653,2025-09-09 13:30:27.872698
"CYAM","Sault Ste Marie Arpt, ON, CA",2025-09-09 17:00:00,2025-09-09 13:00:00,"VFR",19,13,230,6,NA,20,1019.4,"METAR CYAM 091700Z 23006KT 170V260 20SM FEW024 SCT066 BKN100 OVC250 19/13 A3010 RMK CU1AC4AS3CS1 CU TR SLP199 DENSITY ALT 1100FT",2025-09-09 17:30:27.879848,2025-09-09 13:30:27.879894
"CYBC","Baie Comeau Arpt, QC, CA",2025-09-09 17:00:00,2025-09-09 13:00:00,"VFR",14,8,220,11,NA,9,1027.5,"METAR CYBC 091700Z AUTO 22011KT 9SM CLR 14/08 A3034 RMK SLP278",2025-09-09 17:30:27.886808,2025-09-09 13:30:27.886853
"CYBR","Brandon Arpt, MB, CA",2025-09-09 17:00:00,2025-09-09 13:00:00,"VFR",21,13,70,7,NA,15,1015.7,"METAR CYBR 091700Z 07007KT 040V110 15SM FEW250 21/13 A2999 RMK CI2 SLP162 DENSITY ALT 2300FT",2025-09-09 17:30:27.893862,2025-09-09 13:30:27.893908
"CYVV","Wiarton Arpt, ON, CA",2025-09-09 17:00:00,2025-09-09 13:00:00,"VFR",20,10,200,8,NA,15,1024.5,"METAR CYVV 091700Z 20008KT 180V250 15SM FEW042 OVC250 20/10 A3025 RMK CU2CI6 SLP248 DENSITY ALT 1100FT",2025-09-09 17:30:27.900918,2025-09-09 13:30:27.900964
"CYQQ","Comox(MIL), BC, CA",2025-09-09 17:00:00,2025-09-09 13:00:00,"MVFR",18,13,340,6,NA,20,1015.3,"METAR CYQQ 091700Z 34006KT 20SM BKN019 18/13 A2998 RMK SC7 DENSITY ALT 543FT SLP153",2025-09-09 17:30:30.015424,2025-09-09 13:30:30.01547
"CYMH","Mary's Harbor Arpt, NL, CA",2025-09-09 17:00:00,2025-09-09 13:00:00,"VFR",16,6,340,4,NA,9,1020.7,"METAR CYMH 091700Z AUTO 34004KT 270V010 9SM SCT055 16/06 A3014 RMK SLP210",2025-09-09 17:30:30.028303,2025-09-09 13:30:30.028353
"CYBG","Bagotville(MIL), QC, CA",2025-09-09 17:00:00,2025-09-09 13:00:00,"VFR",16,9,100,5,NA,25,1027.2,"METAR CYBG 091700Z 10005KT 25SM FEW055 BKN180 16/09 A3033 RMK CU2AC5 DENSITY ALT 483FT SLP275",2025-09-09 17:30:30.036979,2025-09-09 13:30:30.03709
"CYFB","Iqaluit Arpt, NU, CA",2025-09-09 17:00:00,2025-09-09 13:00:00,"MVFR",8,3,320,15,21,30,1009.9,"METAR CYFB 091700Z 32015G21KT 30SM BKN024 08/03 A2982 RMK SC7 CVCTV CLD EMBD SLP103",2025-09-09 17:30:30.047369,2025-09-09 13:30:30.047436
"CYFC","Fredericton Intl, NB, CA",2025-09-09 17:00:00,2025-09-09 13:00:00,"VFR",19,8,NA,4,NA,9,1028.5,"METAR CYFC 091700Z AUTO VRB04KT 9SM CLR 19/08 A3037 RMK SLP286",2025-09-09 17:30:30.056289,2025-09-09 13:30:30.05634
"CYTR","Trenton(MIL), ON, CA",2025-09-09 17:00:00,2025-09-09 13:00:00,"VFR",21,9,190,6,NA,15,1026.5,"METAR CYTR 091700Z 19006KT 120V230 15SM FEW047 SCT220 21/09 A3031 RMK CU1CS4 DENSITY ALT 787FT CONTRAILS SLP264",2025-09-09 17:30:30.065014,2025-09-09 13:30:30.065093
"CYHD","Dryden Rgnl, ON, CA",2025-09-09 17:00:00,2025-09-09 13:00:00,"VFR",19,12,NA,2,NA,9,1015.7,"METAR CYHD 091700Z AUTO VRB02KT 9SM CLR 19/12 A2999 RMK SLP166 DENSITY ALT 2100FT",2025-09-09 17:30:30.074612,2025-09-09 13:30:30.074661
"CYHM","Hamilton/Munro Intl, ON, CA",2025-09-09 17:00:00,2025-09-09 13:00:00,"VFR",22,9,230,5,NA,15,1025.1,"METAR CYHM 091700Z 23005KT 100V250 15SM SCT050 22/09 A3027 RMK CU4 SLP255 DENSITY ALT 1400FT",2025-09-09 17:30:30.083083,2025-09-09 13:30:30.083166
"CYQK","Kenora Arpt, ON, CA",2025-09-09 17:00:00,2025-09-09 13:00:00,"VFR",20,9,0,0,NA,20,1016,"METAR CYQK 091700Z 00000KT 20SM FEW240 20/09 A3000 RMK CI1 CI TR SLP164 DENSITY ALT 2200FT",2025-09-09 17:30:30.091124,2025-09-09 13:30:30.09118
"CYQU","Grande Prairie Arpt, AB, CA",2025-09-09 17:00:00,2025-09-09 13:00:00,"MVFR",19,9,220,5,NA,5,1010.6,"METAR CYQU 091700Z 22005KT 5SM FU SKC 19/09 A2984 RMK SLP108 DENSITY ALT 3300FT",2025-09-09 17:30:30.104657,2025-09-09 13:30:30.104704
"CYQX","Gander Intl Arpt, NL, CA",2025-09-09 17:00:00,2025-09-09 13:00:00,"VFR",18,5,270,12,18,20,1024.5,"METAR CYQX 091700Z 27012G18KT 250V330 20SM FEW040 BKN230 18/05 A3025 RMK CU1CC5 CU TR SLP249",2025-09-09 17:30:30.113651,2025-09-09 13:30:30.113707
"CYQY","Sydney Arpt, NS, CA",2025-09-09 17:00:00,2025-09-09 13:00:00,"VFR",20,9,40,6,NA,15,1027.9,"METAR CYQY 091700Z 04006KT 340V060 15SM SCT057 BKN220 20/09 A3035 RMK CU3CI3 SLP280",2025-09-09 17:30:30.122446,2025-09-09 13:30:30.122495
"CYRB","Resolute Bay Arpt, NU, CA",2025-09-09 17:00:00,2025-09-09 13:00:00,"LIFR",-1,-1,270,7,NA,0.5,1012.6,"METAR CYRB 091700Z 27007KT 1/2SM R35/4000VP6000FT/D FZFG OVC002 M01/M01 A2990 RMK FG6ST2 SLP132",2025-09-09 17:30:30.131294,2025-09-09 13:30:30.131341
"CYUY","Rouyn/Noranda Arpt, QC, CA",2025-09-09 17:00:00,2025-09-09 13:00:00,"VFR",12,11,180,9,NA,15,1020.7,"METAR CYUY 091700Z 18009KT 15SM -RA BKN069 12/11 A3014 RMK AC8 SLP217",2025-09-09 17:30:30.139701,2025-09-09 13:30:30.139785
"CYXU","London Intl, ON, CA",2025-09-09 17:00:00,2025-09-09 13:00:00,"VFR",21,7,160,8,15,15,1025.1,"METAR CYXU 091700Z 16008G15KT 15SM SCT060 21/07 A3027 RMK SC3 SLP253 DENSITY ALT 1500FT",2025-09-09 17:30:30.148767,2025-09-09 13:30:30.148813
"CYXX","Abbotsford Intl, BC, CA",2025-09-09 17:00:00,2025-09-09 13:00:00,"IFR",17,16,0,0,NA,6,1014.6,"METAR CYXX 091700Z 00000KT 6SM BR OVC007 17/16 A2996 RMK SF8 SLP146 DENSITY ALT 400FT",2025-09-09 17:30:30.15722,2025-09-09 13:30:30.157277
"CYXY","Whitehorse Arpt, YT, CA",2025-09-09 17:00:00,2025-09-09 13:00:00,"VFR",9,6,190,2,NA,40,1012.3,"METAR CYXY 091700Z 19002KT 40SM FEW073 FEW140 09/06 A2989 RMK AC1AC1 AC TR SLP145",2025-09-09 17:30:30.165652,2025-09-09 13:30:30.165703
"CYYT","St Johns Intl, NL, CA",2025-09-09 17:00:00,2025-09-09 13:00:00,"VFR",17,8,290,10,17,15,1025.5,"METAR CYYT 091700Z 29010G17KT 15SM FEW036 SCT150 SCT220 BKN240 17/08 A3028 RMK CU1AC2CI1CI3 SLP259",2025-09-09 17:30:30.173756,2025-09-09 13:30:30.173803
"CYZF","Yellowknife Arpt, NT, CA",2025-09-09 17:00:00,2025-09-09 13:00:00,"VFR",13,9,140,9,16,15,1006.2,"METAR CYZF 091700Z 14009G16KT 15SM FEW020 BKN140 13/09 A2971 RMK SC1AC7 SC TR SLP071",2025-09-09 17:30:30.201351,2025-09-09 13:30:30.201396
"CYWL","Williams Lake Rgnl, BC, CA",2025-09-09 17:00:00,2025-09-09 13:00:00,"MVFR",15,11,150,4,NA,3,1015.3,"METAR CYWL 091700Z 15004KT 130V210 3SM FU SKC 15/11 A2998 RMK SLP155 DENSITY ALT 3800FT",2025-09-09 17:30:30.210438,2025-09-09 13:30:30.210536
"CYXS","Prince George Arpt, BC, CA",2025-09-09 17:00:00,2025-09-09 13:00:00,"MVFR",14,12,180,3,NA,5,1014,"METAR CYXS 091700Z AUTO 18003KT 150V220 5SM BR CLR 14/12 A2994 RMK SLP151 DENSITY ALT 2700FT",2025-09-09 17:30:30.218647,2025-09-09 13:30:30.218696
"CYZP","Sandspit Arpt, BC, CA",2025-09-09 17:00:00,2025-09-09 13:00:00,"MVFR",15,10,290,9,NA,9,1018.7,"METAR CYZP 091700Z AUTO 29009KT 9SM OVC026 15/10 A3008 RMK SLP187",2025-09-09 17:30:30.226746,2025-09-09 13:30:30.226792
"CYOD","Cold Lake (Mil), AB, CA",2025-09-09 17:00:00,2025-09-09 13:00:00,"VFR",20,12,90,5,NA,NA,1013.6,"METAR CYOD 091700Z 09005KT 10SM FEW080 FEW250 20/12 A2993 RMK AC1CI1 DENSITY ALT 2995FT SLP140",2025-09-09 17:30:30.2354,2025-09-09 13:30:30.235453
"CYPR","Prince Rupert Arpt, BC, CA",2025-09-09 17:00:00,2025-09-09 13:00:00,NA,14,12,330,4,NA,NA,1017.4,"METAR CYPR 091700Z AUTO 33004KT 290V030 OVC008 14/12 A3004 RMK WX MISG VIS MISG SLP176",2025-09-09 17:30:30.24358,2025-09-09 13:30:30.243632
"CYQH","Watson Lake Arpt, YT, CA",2025-09-09 17:00:00,2025-09-09 13:00:00,"VFR",12,5,NA,2,NA,25,1011.9,"METAR CYQH 091700Z VRB02KT 25SM BKN062 12/05 A2988 RMK CU6 SLP132 DENSITY ALT 2600FT",2025-09-09 17:30:30.251884,2025-09-09 13:30:30.25194
"CYQT","Thunder Bay Intl, ON, CA",2025-09-09 17:00:00,2025-09-09 13:00:00,"MVFR",17,15,100,4,NA,15,1014.6,"METAR CYQT 091700Z 10004KT 15SM SCT013 OVC019 17/15 A2996 RMK SC4SC4 SLP152 DENSITY ALT 1000FT",2025-09-09 17:30:30.259739,2025-09-09 13:30:30.259785
"CYRT","Rankin Inlet Arpt, NU, CA",2025-09-09 17:00:00,2025-09-09 13:00:00,"MVFR",7,3,20,9,NA,15,1015.7,"METAR CYRT 091700Z 02009KT 15SM BKN023 07/03 A2999 RMK SC7 CIG RAG SLP158",2025-09-09 17:30:30.272658,2025-09-09 13:30:30.272715
"CYAM","Sault Ste Marie Arpt, ON, CA",2025-09-09 17:00:00,2025-09-09 13:00:00,"VFR",19,13,230,6,NA,20,1019.4,"METAR CYAM 091700Z 23006KT 170V260 20SM FEW024 SCT066 BKN100 OVC250 19/13 A3010 RMK CU1AC4AS3CS1 CU TR SLP199 DENSITY ALT 1100FT",2025-09-09 17:30:30.280593,2025-09-09 13:30:30.280645
"CYAZ","Tofino Arpt, BC, CA",2025-09-09 17:00:00,2025-09-09 13:00:00,"LIFR",15,15,0,0,NA,0.25,1015,"METAR CYAZ 091700Z 00000KT 1/4SM FG OVC002 15/15 A2997 RMK SF8 SLP150",2025-09-09 17:30:30.288755,2025-09-09 13:30:30.2888
"CYBK","Baker Lake Arpt, NU, CA",2025-09-09 17:00:00,2025-09-09 13:00:00,"MVFR",7,1,180,6,NA,20,1016.7,"METAR CYBK 091700Z 18006KT 170V260 20SM BKN020 BKN075 07/01 A3002 RMK SC5AC1 AC TR SLP169",2025-09-09 17:30:30.296336,2025-09-09 13:30:30.296381
"CYBL","Campbell River Arpt, BC, CA",2025-09-09 17:00:00,2025-09-09 13:00:00,"MVFR",16,14,320,7,NA,20,1015.3,"METAR CYBL 091700Z 32007KT 20SM FEW007 BKN015 16/14 A2998 RMK SF1SC7 SF TR SLP156 DENSITY ALT 600FT",2025-09-09 17:30:30.304191,2025-09-09 13:30:30.304268
"CYCD","Nanaimo Arpt, BC, CA",2025-09-09 17:00:00,2025-09-09 13:00:00,"VFR",18,14,340,5,NA,20,1015,"METAR CYCD 091700Z 34005KT 330V040 20SM OVC047 18/14 A2997 RMK SC8 SLP150 DENSITY ALT 500FT",2025-09-09 17:30:30.312391,2025-09-09 13:30:30.312437
"CYCO","Coppermine/Kugluktuk Arpt, NU, CA",2025-09-09 17:00:00,2025-09-09 13:00:00,"MVFR",10,7,350,4,NA,5,1007.9,"METAR CYCO 091700Z 35004KT 5SM FU FEW160 BKN210 10/07 A2976 RMK AS1CS5 SLP082",2025-09-09 17:30:30.319841,2025-09-09 13:30:30.319889
"CYDF","Deer Lake Arpt, NL, CA",2025-09-09 17:00:00,2025-09-09 13:00:00,"VFR",18,4,250,13,20,15,1025.8,"METAR CYDF 091700Z 25013G20KT 15SM BKN052 18/04 A3029 RMK CU5 SLP258",2025-09-09 17:30:30.327214,2025-09-09 13:30:30.327264
"CYDP","Nain Arpt, NL, CA",2025-09-09 17:00:00,2025-09-09 13:00:00,"VFR",13,2,290,19,25,15,1016.7,"METAR CYDP 091700Z 29019G25KT 15SM SCT051 13/02 A3002 RMK SC4 SLP169",2025-09-09 17:30:30.334364,2025-09-09 13:30:30.334412
"CYKF","Waterloo Intl, ON, CA",2025-09-09 17:00:00,2025-09-09 13:00:00,"VFR",21,8,170,8,NA,9,1025.1,"METAR CYKF 091700Z AUTO 17008KT 150V230 9SM FEW055 21/08 A3027 RMK SLP255 DENSITY ALT 1700FT",2025-09-09 17:30:30.344288,2025-09-09 13:30:30.344341
"CYTZ","Toronto/Bishop Arpt, ON, CA",2025-09-09 17:00:00,2025-09-09 13:00:00,"VFR",18,13,70,6,NA,9,1025.5,"METAR CYTZ 091700Z AUTO 07006KT 9SM CLR 18/13 A3028 RMK SLP258",2025-09-09 17:30:30.351916,2025-09-09 13:30:30.351961
"CYGL","La Grande Riviere Arpt, QC, CA",2025-09-09 17:26:00,2025-09-09 13:26:00,"VFR",12,10,210,8,NA,NA,1013.6,"SPECI CYGL 091726Z 21008KT 10SM -RA FEW020 BKN055 OVC080 12/10 A2993 RMK SC1SC4AC3 SLP145",2025-09-09 17:30:32.230337,2025-09-09 13:30:32.230383
"CYMT","Chibougamau Arpt, QC, CA",2025-09-09 17:10:00,2025-09-09 13:10:00,"VFR",13,7,190,17,22,9,1022.8,"SPECI CYMT 091710Z AUTO 19017G22KT 9SM OVC049 13/07 A3020 RMK SLP238",2025-09-09 17:30:32.238221,2025-09-09 13:30:32.238267
"CYKJ","Key Lake Arpt, SK, CA",2025-09-09 17:00:00,2025-09-09 13:00:00,"VFR",15,7,190,10,NA,9,1015.7,"METAR CYKJ 091700Z AUTO 19010KT 9SM CLR 15/07 A2999 RMK SLP175 DENSITY ALT 2000FT",2025-09-09 17:30:32.246183,2025-09-09 13:30:32.24623
"CYPC","Paulatuk Arpt, NT, CA",2025-09-09 17:00:00,2025-09-09 13:00:00,"VFR",5,5,360,3,NA,15,1005.8,"METAR CYPC 091700Z 36003KT 15SM FEW190 SCT250 05/05 A2970 RMK AC2CS1 DIST TCU TOP SW SLP058",2025-09-09 17:30:32.253824,2025-09-09 13:30:32.253872
"CYXP","Pangnirtung Arpt, NU, CA",2025-09-09 17:00:00,2025-09-09 13:00:00,"VFR",7,1,240,16,22,15,1004.1,"METAR CYXP 091700Z 24016G22KT 15SM FEW044 07/01 A2965 RMK CF2 SLP044",2025-09-09 17:30:32.265955,2025-09-09 13:30:32.266005
"CYGV","Havre St Pierre Arpt, QC, CA",2025-09-09 17:00:00,2025-09-09 13:00:00,"VFR",14,3,250,17,22,9,1026.8,"METAR CYGV 091700Z AUTO 25017G22KT 9SM CLR 14/03 A3032 RMK SLP271",2025-09-09 17:30:32.274189,2025-09-09 13:30:32.274235
"CYRJ","Roberval Arpt, QC, CA",2025-09-09 17:00:00,2025-09-09 13:00:00,"VFR",16,5,200,13,NA,40,1026.5,"METAR CYRJ 091700Z 20013KT 170V240 40SM SCT170 BKN200 16/05 A3031 RMK AC4CI3 SLP271",2025-09-09 17:30:32.282276,2025-09-09 13:30:32.282321
"CYCO","Coppermine/Kugluktuk Arpt, NU, CA",2025-09-09 17:00:00,2025-09-09 13:00:00,"MVFR",10,7,350,4,NA,5,1007.9,"METAR CYCO 091700Z 35004KT 5SM FU FEW160 BKN210 10/07 A2976 RMK AS1CS5 SLP082",2025-09-09 17:30:32.290132,2025-09-09 13:30:32.290182
"CYBC","Baie Comeau Arpt, QC, CA",2025-09-09 17:00:00,2025-09-09 13:00:00,"VFR",14,8,220,11,NA,9,1027.5,"METAR CYBC 091700Z AUTO 22011KT 9SM CLR 14/08 A3034 RMK SLP278",2025-09-09 17:30:32.297485,2025-09-09 13:30:32.29753
"CYLK","Lutselke Arpt, NT, CA",2025-09-09 17:00:00,2025-09-09 13:00:00,"VFR",15,8,100,3,NA,25,1009.2,"METAR CYLK 091700Z 10003KT 050V150 25SM SCT062 BKN110 BKN210 15/08 A2980 RMK SC3AC2CI1 FU SLP101 DENSITY ALT 900FT",2025-09-09 17:30:32.304838,2025-09-09 13:30:32.304883
"CYHA","Quaqtaq Arpt, QC, CA",2025-09-09 17:00:00,2025-09-09 13:00:00,"VFR",8,3,270,5,NA,15,1013.3,"METAR CYHA 091700Z 27005KT 240V310 15SM FEW025 BKN033 08/03 A2992 RMK SC1SC6 SC TR CONTRAILS SLP137",2025-09-09 17:30:32.312155,2025-09-09 13:30:32.312201
"CYFB","Iqaluit Arpt, NU, CA",2025-09-09 17:00:00,2025-09-09 13:00:00,"MVFR",8,3,320,15,21,30,1009.9,"METAR CYFB 091700Z 32015G21KT 30SM BKN024 08/03 A2982 RMK SC7 CVCTV CLD EMBD SLP103",2025-09-09 17:30:32.319267,2025-09-09 13:30:32.319313
"CYCK","Chatham/Kent Arpt, ON, CA",2025-09-09 17:00:00,2025-09-09 13:00:00,"VFR",23,7,180,10,15,9,1024.1,"METAR CYCK 091700Z AUTO 18010G15KT 150V230 9SM CLR 23/07 A3024 RMK SLP243 DENSITY ALT 1300FT",2025-09-09 17:30:32.329621,2025-09-09 13:30:32.329673
"CYVO","Val D'Or Arpt, QC, CA",2025-09-09 17:00:00,2025-09-09 13:00:00,"VFR",14,7,180,11,20,15,1022.4,"METAR CYVO 091700Z 18011G20KT 15SM SCT055 OVC070 14/07 A3019 RMK SC3AC5 SLP235",2025-09-09 17:30:32.337008,2025-09-09 13:30:32.337055
"CYDQ","Dawson Creek Arpt, BC, CA",2025-09-09 17:00:00,2025-09-09 13:00:00,"VFR",22,6,260,11,NA,9,1008.9,"METAR CYDQ 091700Z AUTO 26011KT 9SM CLR 22/06 A2979 RMK SLP091 DENSITY ALT 3700FT",2025-09-09 17:30:32.34423,2025-09-09 13:30:32.344283
"CYQB","Quebec/Lesage Intl, QC, CA",2025-09-09 17:00:00,2025-09-09 13:00:00,"VFR",18,5,230,4,NA,30,1028.5,"METAR CYQB 091700Z 23004KT 180V280 30SM FEW051 FEW100 SCT250 18/05 A3037 RMK SC1AC1CI1 SLP289",2025-09-09 17:30:32.351691,2025-09-09 13:30:32.351738
"CYTE","Cape Dorset Arpt, NU, CA",2025-09-09 17:00:00,2025-09-09 13:00:00,"VFR",7,3,260,6,NA,15,1012.3,"METAR CYTE 091700Z 26006KT 220V290 15SM BKN044 07/03 A2989 RMK SC5 SLP127",2025-09-09 17:30:32.358762,2025-09-09 13:30:32.358808
"CYVC","La Ronge Arpt, SK, CA",2025-09-09 17:00:00,2025-09-09 13:00:00,"VFR",16,10,120,5,NA,15,1016.7,"METAR CYVC 091700Z 12005KT 070V140 15SM SKC 16/10 A3002 RMK SLP176 DENSITY ALT 1500FT",2025-09-09 17:30:32.366049,2025-09-09 13:30:32.366098
"CYVQ","Norman Wells Arpt, NT, CA",2025-09-09 17:00:00,2025-09-09 13:00:00,"MVFR",13,13,280,5,NA,NA,1005.2,"METAR CYVQ 091700Z 28005KT 10SM -RA FEW009 BKN021 BKN046 OVC070 13/13 A2968 RMK ST1SC5SC1AC2 ST TR FU SLP054",2025-09-09 17:30:32.373415,2025-09-09 13:30:32.373461
"KHPN","White Plains/Westchester Cnty, NY, US",2025-09-09 16:56:00,2025-09-09 12:56:00,"VFR",21.1,7.8,90,13,20,NA,1027.2,"METAR KHPN 091656Z 09013G20KT 10SM CLR 21/08 A3033 RMK AO2 SLP269 T02110078",2025-09-09 17:30:32.38067,2025-09-09 13:30:32.380719
"KROC","Rochester Intl Arpt, NY, US",2025-09-09 16:54:00,2025-09-09 12:54:00,"VFR",21.7,8.3,170,7,NA,NA,1026.2,"METAR KROC 091654Z 17007KT 10SM FEW029 22/08 A3030 RMK AO2 SLP264 T02170083 $",2025-09-09 17:30:32.3879,2025-09-09 13:30:32.387946
"KRIC","Richmond Intl, VA, US",2025-09-09 16:54:00,2025-09-09 12:54:00,"VFR",23.3,14.4,40,8,18,NA,1023.5,"METAR KRIC 091654Z 04008G18KT 360V060 10SM BKN033 BKN044 23/14 A3022 RMK AO2 SLP238 T02330144",2025-09-09 17:30:32.398424,2025-09-09 13:30:32.398468
"KSYR","Syracuse/Hancock Intl, NY, US",2025-09-09 16:54:00,2025-09-09 12:54:00,"VFR",21.1,10,320,5,NA,NA,1026.8,"METAR KSYR 091654Z 32005KT 10SM FEW035 SCT250 21/10 A3032 RMK AO2 SLP265 T02110100",2025-09-09 17:30:32.405762,2025-09-09 13:30:32.405808
"KBOS","Boston/Logan Intl, MA, US",2025-09-09 16:54:00,2025-09-09 12:54:00,"VFR",20,12.8,70,9,NA,NA,1028.9,"METAR KBOS 091654Z 07009KT 10SM FEW030 FEW250 20/13 A3038 RMK AO2 SLP287 T02000128",2025-09-09 17:30:32.412897,2025-09-09 13:30:32.412944
"KBWI","Baltimore-Washington Intl, MD, US",2025-09-09 16:54:00,2025-09-09 12:54:00,"VFR",22.2,11.1,80,9,20,NA,1025.5,"METAR KBWI 091654Z 08009G20KT 10SM SCT041 SCT250 22/11 A3028 RMK AO2 SLP252 T02220111",2025-09-09 17:30:32.419819,2025-09-09 13:30:32.419864
"KPHL","Philadelphia Intl, PA, US",2025-09-09 16:54:00,2025-09-09 12:54:00,"VFR",23.9,12.2,60,8,17,NA,1025.8,"METAR KPHL 091654Z 06008G17KT 10SM BKN045 BKN230 BKN330 24/12 A3029 RMK AO2 SLP256 T02390122 $",2025-09-09 17:30:32.426866,2025-09-09 13:30:32.42691
"KBUF","Buffalo-Niagara Intl, NY, US",2025-09-09 16:54:00,2025-09-09 12:54:00,"VFR",22.2,6.7,250,9,NA,NA,1025.8,"METAR KBUF 091654Z 25009KT 10SM FEW060 22/07 A3029 RMK AO2 SLP256 FU ALF T02220067 $",2025-09-09 17:30:32.434,2025-09-09 13:30:32.434047
"KDCA","Washington/Reagan-National Arpt, VA, US",2025-09-09 16:52:00,2025-09-09 12:52:00,"VFR",23.9,11.1,30,8,18,NA,1025.1,"METAR KDCA 091652Z 03008G18KT 10SM FEW050 SCT250 24/11 A3027 RMK AO2 SLP249 T02390111",2025-09-09 17:30:32.441012,2025-09-09 13:30:32.441058
"KIAD","Washington/Dulles Intl, VA, US",2025-09-09 16:52:00,2025-09-09 12:52:00,"VFR",23.3,8.3,60,7,NA,NA,1025.1,"METAR KIAD 091652Z 06007KT 10SM FEW045 SCT250 23/08 A3027 RMK AO2 SLP250 T02330083",2025-09-09 17:30:32.44827,2025-09-09 13:30:32.448317
"KORF","Norfolk Intl, VA, US",2025-09-09 16:51:00,2025-09-09 12:51:00,"MVFR",23.3,18.3,40,15,23,NA,1021.4,"METAR KORF 091651Z 04015G23KT 10SM BKN018 OVC026 23/18 A3016 RMK AO2 PK WND 03027/1626 SLP212 T02330183",2025-09-09 17:30:32.458526,2025-09-09 13:30:32.45859
"KPVD","Providence/Green Mem, RI, US",2025-09-09 16:51:00,2025-09-09 12:51:00,"VFR",22.2,9.4,60,11,18,NA,1027.9,"METAR KPVD 091651Z 06011G18KT 10SM FEW038 FEW250 22/09 A3035 RMK AO2 SLP278 T02220094",2025-09-09 17:30:32.465666,2025-09-09 13:30:32.465712
"KALB","Albany Intl, NY, US",2025-09-09 16:51:00,2025-09-09 12:51:00,"VFR",21.1,8.9,0,0,NA,NA,1027.9,"METAR KALB 091651Z 00000KT 10SM FEW046 FEW250 21/09 A3035 RMK AO2 SLP275 T02110089",2025-09-09 17:30:32.47302,2025-09-09 13:30:32.473065
"KBDL","Hartford/Bradley Intl, CT, US",2025-09-09 16:51:00,2025-09-09 12:51:00,"VFR",21.7,7.8,120,7,NA,NA,1027.9,"METAR KBDL 091651Z 12007KT 10SM FEW050 FEW250 22/08 A3035 RMK AO2 SLP277 T02170078 $",2025-09-09 17:30:32.480161,2025-09-09 13:30:32.480207
"KBED","Bedford/Hanscom Fld, MA, US",2025-09-09 16:51:00,2025-09-09 12:51:00,"VFR",22.2,8.3,110,8,NA,NA,1028.2,"METAR KBED 091651Z 11008KT 090V170 10SM CLR 22/08 A3036 RMK AO2 SLP293 T02220083 $",2025-09-09 17:30:32.487152,2025-09-09 13:30:32.487198
"KLGA","New York/La Guardia Arpt, NY, US",2025-09-09 16:51:00,2025-09-09 12:51:00,"VFR",21.1,10.6,40,15,NA,NA,1026.8,"METAR KLGA 091651Z 04015KT 10SM FEW028 SCT250 21/11 A3032 RMK AO2 SLP266 T02110106",2025-09-09 17:30:32.494348,2025-09-09 13:30:32.494397
"KJFK","New York/JF Kennedy Intl, NY, US",2025-09-09 16:51:00,2025-09-09 12:51:00,"VFR",22.2,11.1,130,10,16,NA,1026.8,"METAR KJFK 091651Z 13010G16KT 10SM FEW028 SCT050 BKN250 22/11 A3032 RMK AO2 SLP265 T02220111 $",2025-09-09 17:30:32.501757,2025-09-09 13:30:32.501803
"KPIT","Pittsburgh Intl, PA, US",2025-09-09 16:51:00,2025-09-09 12:51:00,"VFR",21.1,5.6,NA,6,NA,NA,1025.1,"METAR KPIT 091651Z COR VRB06KT 10SM FEW250 21/06 A3027 RMK AO2 SLP254 T02110056 $",2025-09-09 17:30:32.509057,2025-09-09 13:30:32.509105
"KEWR","Newark Intl, NJ, US",2025-09-09 16:51:00,2025-09-09 12:51:00,"VFR",22.8,10,NA,5,NA,NA,1026.8,"METAR KEWR 091651Z VRB05KT 10SM FEW040 SCT250 23/10 A3032 RMK AO2 SLP265 T02280100 $",2025-09-09 17:30:32.516244,2025-09-09 13:30:32.516292
"KSWF","Newburgh/Stewart Intl, NY, US",2025-09-09 16:45:00,2025-09-09 12:45:00,"VFR",22,11,110,7,NA,NA,1027.5,"METAR KSWF 091645Z 11007KT 10SM FEW050 22/11 A3034",2025-09-09 17:30:32.526389,2025-09-09 13:30:32.526435
"KMIA","Miami Intl, FL, US",2025-09-09 17:24:00,2025-09-09 13:24:00,"LIFR",25.6,23.9,20,4,NA,0.5,1015,"SPECI KMIA 091724Z 02004KT 1/2SM +TSRA FG BKN006 OVC015CB 26/24 A2997 RMK AO2 RAB05 PRESRR OCNL LTGICCG OHD TS OHD MOV NE P0024 T02560239 RVRNO $",2025-09-09 17:30:35.968186,2025-09-09 13:30:35.96823
"KFSD","Sioux Falls/Foss Fld, SD, US",2025-09-09 17:15:00,2025-09-09 13:15:00,"MVFR",18.9,16.7,190,11,NA,NA,1015.3,"SPECI KFSD 091715Z 19011KT 10SM BKN011 19/17 A2998 RMK AO2 T01890167",2025-09-09 17:30:35.975111,2025-09-09 13:30:35.975157
"KLNK","Lincoln Arpt, NE, US",2025-09-09 17:10:00,2025-09-09 13:10:00,"MVFR",22.8,16.1,210,10,NA,NA,1016,"SPECI KLNK 091710Z 21010KT 10SM BKN029 OVC041 23/16 A3000 RMK AO2 T02280161",2025-09-09 17:30:35.981964,2025-09-09 13:30:35.982009
"KDAY","Dayton/Cox Intl, OH, US",2025-09-09 16:56:00,2025-09-09 12:56:00,"VFR",22.2,5,100,4,NA,NA,1023.8,"METAR KDAY 091656Z 10004KT 10SM FEW250 22/05 A3023 RMK AO2 SLP233 T02220050",2025-09-09 17:30:35.988899,2025-09-09 13:30:35.988948
"KSDF","Louisville Intl, KY, US",2025-09-09 16:56:00,2025-09-09 12:56:00,"VFR",23.9,7.8,NA,4,NA,NA,1022.1,"METAR KSDF 091656Z VRB04KT 10SM FEW055 FEW350 24/08 A3018 RMK AO2 SLP216 T02390078",2025-09-09 17:30:35.995852,2025-09-09 13:30:35.995908
"KCHS","Charleston Intl, SC, US",2025-09-09 16:56:00,2025-09-09 12:56:00,"VFR",25,13.3,30,12,21,NA,1019.7,"METAR KCHS 091656Z 03012G21KT 10SM SCT180 BKN250 25/13 A3011 RMK AO2 SLP195 T02500133",2025-09-09 17:30:36.006341,2025-09-09 13:30:36.006385
"KJAX","Jacksonville Intl, FL, US",2025-09-09 16:56:00,2025-09-09 12:56:00,"MVFR",26.1,22.8,40,17,24,NA,1017,"METAR KJAX 091656Z 04017G24KT 10SM FEW008 BKN014 BKN110 26/23 A3003 RMK AO2 RAE34 SLP169 P0001 T02610228 $",2025-09-09 17:30:36.013658,2025-09-09 13:30:36.013705
"KIND","Indianapolis Intl, IN, US",2025-09-09 16:54:00,2025-09-09 12:54:00,"VFR",22.8,7.2,190,8,NA,NA,1022.8,"METAR KIND 091654Z 19008KT 10SM BKN250 23/07 A3020 RMK AO2 SLP222 T02280072",2025-09-09 17:30:36.021823,2025-09-09 13:30:36.021871
"KMEM","Memphis Intl, TN, US",2025-09-09 16:54:00,2025-09-09 12:54:00,"VFR",27.8,17.8,210,8,NA,NA,1019.4,"METAR KMEM 091654Z 21008KT 10SM SCT033 28/18 A3010 RMK AO2 SLP188 T02780178 $",2025-09-09 17:30:36.029838,2025-09-09 13:30:36.029886
"KGSO","Greensboro Intl, NC, US",2025-09-09 16:54:00,2025-09-09 12:54:00,"VFR",21.1,8.3,60,14,19,NA,1023.5,"METAR KGSO 091654Z 06014G19KT 10SM FEW060 FEW250 21/08 A3022 RMK AO2 SLP228 T02110083",2025-09-09 17:30:36.038652,2025-09-09 13:30:36.038714
"KFWA","Fort Wayne Intl, IN, US",2025-09-09 16:54:00,2025-09-09 12:54:00,"VFR",23.3,7.2,220,7,NA,NA,1023.5,"METAR KFWA 091654Z 22007KT 10SM BKN250 23/07 A3022 RMK AO2 SLP232 T02330072",2025-09-09 17:30:36.047503,2025-09-09 13:30:36.047573
"KSBN","South Bend Rgnl, IN, US",2025-09-09 16:54:00,2025-09-09 12:54:00,"VFR",21.7,7.2,210,9,NA,NA,1023.1,"METAR KSBN 091654Z 21009KT 10SM CLR 22/07 A3021 RMK AO2 SLP229 T02170072",2025-09-09 17:30:36.056495,2025-09-09 13:30:36.056552
"KDSM","Des Moines Intl, IA, US",2025-09-09 16:54:00,2025-09-09 12:54:00,"VFR",18.3,10.6,NA,6,NA,NA,1018.7,"METAR KDSM 091654Z VRB06KT 10SM FEW080 FEW110 SCT150 BKN210 OVC250 18/11 A3008 RMK AO2 SLP181 PRESENT WX VCSH T01830106",2025-09-09 17:30:36.065958,2025-09-09 13:30:36.066017
"KBNA","Nashville Intl, TN, US",2025-09-09 16:53:00,2025-09-09 12:53:00,"VFR",26.7,13.9,NA,6,NA,NA,1021.8,"METAR KBNA 091653Z VRB06KT 10SM FEW040 SCT070 SCT250 27/14 A3017 RMK AO2 SLP210 T02670139 $",2025-09-09 17:30:36.081034,2025-09-09 13:30:36.081088
"KMCO","Orlando Intl, FL, US",2025-09-09 16:53:00,2025-09-09 12:53:00,"VFR",29.4,23.3,70,5,NA,NA,1014.6,"METAR KMCO 091653Z 07005KT 10SM SCT025 BKN160 29/23 A2996 RMK AO2 SLP144 T02940233 $",2025-09-09 17:30:36.090911,2025-09-09 13:30:36.090981
"KMSP","Minneapolis-St Paul Intl, MN, US",2025-09-09 16:53:00,2025-09-09 12:53:00,"MVFR",20,13.9,210,7,NA,NA,1015.3,"METAR KMSP 091653Z 21007KT 10SM OVC025 20/14 A2998 RMK AO2 SLP150 T02000139",2025-09-09 17:30:36.101893,2025-09-09 13:30:36.10195
"KMCI","Kansas City Intl, MO, US",2025-09-09 16:53:00,2025-09-09 12:53:00,"VFR",17.2,14.4,180,13,NA,NA,1017.4,"METAR KMCI 091653Z 18013KT 10SM FEW010 BKN120 BKN250 17/14 A3004 RMK AO2 RAE03 SLP168 P0001 T01720144 $",2025-09-09 17:30:36.111172,2025-09-09 13:30:36.11122
"KFLL","Ft Lauderdale-Hollywood Intl, FL, US",2025-09-09 16:53:00,2025-09-09 12:53:00,"VFR",26.7,23.9,60,7,NA,NA,1014.6,"METAR KFLL 091653Z 06007KT 10SM -TSRA SCT025CB BKN045 BKN065 BKN250 27/24 A2996 RMK AO2 RAB37 SLP144 OCNL LTGICCG N-E AND SW-W MOV NE P0001 T02670239",2025-09-09 17:30:36.120179,2025-09-09 13:30:36.120247
"KGRR","Grand Rapids Intl, MI, US",2025-09-09 16:53:00,2025-09-09 12:53:00,"VFR",21.1,6.1,230,6,15,NA,1023.1,"METAR KGRR 091653Z 23006G15KT 10SM FEW055 BKN250 21/06 A3021 RMK AO2 SLP230 T02110061 $",2025-09-09 17:30:36.128693,2025-09-09 13:30:36.128742
"KTPA","Tampa Intl Arpt, FL, US",2025-09-09 16:53:00,2025-09-09 12:53:00,"VFR",27.8,23.9,60,5,NA,NA,1015,"METAR KTPA 091653Z 06005KT 10SM FEW010 FEW049 SCT110 28/24 A2997 RMK AO2 SLP148 T02780239",2025-09-09 17:30:36.137344,2025-09-09 13:30:36.137402
"KHSV","Huntsville Intl, AL, US",2025-09-09 16:53:00,2025-09-09 12:53:00,"VFR",25,13.3,110,7,NA,NA,1021.4,"METAR KHSV 091653Z 11007KT 10SM FEW049 25/13 A3016 RMK AO2 SLP207 T02500133 $",2025-09-09 17:30:36.1454,2025-09-09 13:30:36.14545
"KPBI","Palm Beach Intl, FL, US",2025-09-09 16:53:00,2025-09-09 12:53:00,"VFR",31.1,23.9,340,3,NA,NA,1014.6,"METAR KPBI 091653Z COR 34003KT 10SM SCT031 BKN055 BKN250 31/24 A2996 RMK AO2 SLP144 OCNL LTGICCG DSNT E S CB DSNT E S T03110239 $",2025-09-09 17:30:36.158568,2025-09-09 13:30:36.158622
"KRSW","Ft Myers/SW Florida Intl, FL, US",2025-09-09 16:53:00,2025-09-09 12:53:00,"VFR",30.6,25.6,160,6,NA,NA,1013.6,"METAR KRSW 091653Z 16006KT 10SM SCT021 31/26 A2993 RMK AO1 LTG DSNT S SLP133 T03060256",2025-09-09 17:30:36.166465,2025-09-09 13:30:36.166516
"KMYR","Myrtle Beach Intl, SC, US",2025-09-09 16:53:00,2025-09-09 12:53:00,"VFR",23.9,16.7,360,12,NA,NA,1020.1,"METAR KMYR 091653Z 36012KT 10SM CLR 24/17 A3012 RMK AO2 SLP199 T02390167 $",2025-09-09 17:30:36.174978,2025-09-09 13:30:36.175038
"KDTW","Detroit/Metro Wayne Cnty, MI, US",2025-09-09 16:53:00,2025-09-09 12:53:00,"VFR",22.2,7.2,210,8,NA,NA,1024.1,"METAR KDTW 091653Z 21008KT 10SM FEW060 FEW250 22/07 A3024 RMK AO2 SLP239 T02220072 $",2025-09-09 17:30:36.183287,2025-09-09 13:30:36.183377
"KEYW","Key West Intl, FL, US",2025-09-09 16:53:00,2025-09-09 12:53:00,"VFR",31.1,26.1,200,9,NA,NA,1014.6,"METAR KEYW 091653Z 20009KT 10SM SCT025 31/26 A2996 RMK AO2 SLP151 T03110261",2025-09-09 17:30:36.191244,2025-09-09 13:30:36.191293
"KBHM","Birmingham Intl, AL, US",2025-09-09 16:53:00,2025-09-09 12:53:00,"VFR",26.7,12.2,100,6,16,NA,1021.8,"METAR KBHM 091653Z 10006G16KT 10SM FEW055 FEW110 FEW250 27/12 A3017 RMK AO2 SLP208 T02670122",2025-09-09 17:30:36.199025,2025-09-09 13:30:36.199072
"KSAV","Savannah Intl, GA, US",2025-09-09 16:53:00,2025-09-09 12:53:00,"VFR",27.2,15.6,30,9,NA,NA,1019.4,"METAR KSAV 091653Z 03009KT 10SM BKN250 27/16 A3010 RMK AO2 SLP192 T02720156",2025-09-09 17:30:36.206847,2025-09-09 13:30:36.206895
"KLIT","Little Rock/Clinton Natl, AR, US",2025-09-09 16:53:00,2025-09-09 12:53:00,"VFR",25,13.9,330,3,NA,NA,1019.4,"METAR KLIT 091653Z 33003KT 10SM CLR 25/14 A3010 RMK AO2 SLP194 T02500139",2025-09-09 17:30:36.215678,2025-09-09 13:30:36.215729
"KMDW","Chicago/Midway Intl, IL, US",2025-09-09 16:53:00,2025-09-09 12:53:00,"VFR",23.3,6.1,210,9,NA,NA,1021.8,"METAR KMDW 091653Z 21009KT 10SM BKN250 23/06 A3017 RMK AO2 SLP212 T02330061 $",2025-09-09 17:30:36.224169,2025-09-09 13:30:36.224216
"KATL","Atlanta/Hartsfield-Jackson Intl, GA, US",2025-09-09 16:52:00,2025-09-09 12:52:00,"VFR",24.4,12.2,60,7,18,NA,1022.1,"METAR KATL 091652Z 06007G18KT 10SM FEW070 FEW200 FEW250 24/12 A3018 RMK SLP212 T02440122",2025-09-09 17:30:36.235941,2025-09-09 13:30:36.235991
"KMLI","Moline/Quad City Intl, IL, US",2025-09-09 16:52:00,2025-09-09 12:52:00,"VFR",23.3,9.4,180,10,NA,NA,1019.7,"METAR KMLI 091652Z 18010KT 10SM CLR 23/09 A3011 RMK AO2 SLP195 T02330094",2025-09-09 17:30:36.244,2025-09-09 13:30:36.244054
"KCVG","Cincinnati Intl, KY, US",2025-09-09 16:52:00,2025-09-09 12:52:00,"VFR",23.3,8.3,160,5,NA,NA,1023.1,"METAR KCVG 091652Z 16005KT 10SM FEW060 FEW250 23/08 A3021 RMK AO2 SLP221 T02330083",2025-09-09 17:30:36.252455,2025-09-09 13:30:36.252508
"KCLT","Charlotte/Douglas Intl, NC, US",2025-09-09 16:52:00,2025-09-09 12:52:00,"VFR",22.8,8.3,30,10,18,NA,1023.1,"METAR KCLT 091652Z 03010G18KT 10SM FEW045 FEW250 23/08 A3021 RMK SLP240 T02280083 $",2025-09-09 17:30:36.260474,2025-09-09 13:30:36.260522
"KOMA","Omaha/Eppley Fld, NE, US",2025-09-09 16:52:00,2025-09-09 12:52:00,"VFR",22.2,16.1,210,10,NA,NA,1016.3,"METAR KOMA 091652Z 21010KT 10SM SCT024 SCT050 BKN080 22/16 A3001 RMK AO2 SLP157 T02220161",2025-09-09 17:30:36.268188,2025-09-09 13:30:36.268235
"KRDU","Raleigh-Durham Intl, NC, US",2025-09-09 16:51:00,2025-09-09 12:51:00,"VFR",22.2,12.8,50,10,20,NA,1022.8,"METAR KRDU 091651Z 05010G20KT 10SM SCT035 SCT250 22/13 A3020 RMK AO2 SLP223 T02220128",2025-09-09 17:30:36.275673,2025-09-09 13:30:36.275727
"KCLE","Cleveland/Hopkins Intl, OH, US",2025-09-09 16:51:00,2025-09-09 12:51:00,"VFR",22.8,5.6,150,7,NA,NA,1023.8,"METAR KCLE 091651Z 15007KT 120V180 10SM CLR 23/06 A3023 RMK AO2 SLP249 T02280056",2025-09-09 17:30:36.283274,2025-09-09 13:30:36.28332
"KCMH","Columbus/Glenn Intl, OH, US",2025-09-09 16:51:00,2025-09-09 12:51:00,"VFR",22.2,7.2,NA,6,NA,NA,1023.8,"METAR KCMH 091651Z VRB06KT 10SM FEW036 SCT250 22/07 A3023 RMK AO2 SLP235 T02220072",2025-09-09 17:30:36.290698,2025-09-09 13:30:36.290748
"KORD","Chicago/O'Hare Intl, IL, US",2025-09-09 16:51:00,2025-09-09 12:51:00,"VFR",20.6,6.1,240,7,NA,NA,1021.8,"METAR KORD 091651Z 24007KT 10SM BKN250 21/06 A3017 RMK AO2 SLP214 T02060061",2025-09-09 17:30:36.300922,2025-09-09 13:30:36.300968
"KSTL","St Louis/Lambert Intl, MO, US",2025-09-09 16:51:00,2025-09-09 12:51:00,"VFR",25,8.3,180,4,NA,NA,1020.4,"METAR KSTL 091651Z 18004KT 10SM FEW150 FEW200 SCT250 25/08 A3013 RMK AO2 SLP197 T02500083",2025-09-09 17:30:36.308282,2025-09-09 13:30:36.308326
"KGJT","Grand Junction Rgnl, CO, US",2025-09-09 17:27:00,2025-09-09 13:27:00,"VFR",23.9,7.2,250,11,NA,9,1018,"SPECI KGJT 091727Z 25011KT 9SM -TSRA FEW070 SCT100 BKN120 24/07 A3006 RMK AO2 RAB22 TSB21 P0000 T02390072",2025-09-09 17:30:38.01402,2025-09-09 13:30:38.014077
"KLRD","Laredo Intl, TX, US",2025-09-09 16:56:00,2025-09-09 12:56:00,"VFR",30.6,20,NA,3,NA,NA,1016.7,"METAR KLRD 091656Z VRB03KT 10SM FEW043 SCT050 31/20 A3002 RMK AO2 SLP161 T03060200 $",2025-09-09 17:30:38.022217,2025-09-09 13:30:38.022273
"KEGE","Eagle Cnty Rgnl, CO, US",2025-09-09 16:56:00,2025-09-09 12:56:00,"VFR",17.2,2.2,200,4,NA,NA,1025.1,"METAR KEGE 091656Z 20004KT 10SM CLR 17/02 A3027 RMK AO2 SLP180 T01720022 $",2025-09-09 17:30:38.031158,2025-09-09 13:30:38.031236
"KBZN","Bozeman/Gallatin Fld, MT, US",2025-09-09 16:56:00,2025-09-09 12:56:00,"VFR",18.3,5.6,310,4,NA,NA,1017.7,"METAR KBZN 091656Z 31004KT 10SM CLR 18/06 A3005 RMK AO2 SLP144 T01830056",2025-09-09 17:30:38.04067,2025-09-09 13:30:38.040725
"KCOS","Colorado Spring Arpt, CO, US",2025-09-09 16:54:00,2025-09-09 12:54:00,"VFR",24.4,4.4,220,6,NA,NA,1022.1,"METAR KCOS 091654Z 22006KT 10SM SCT110 SCT250 24/04 A3018 RMK AO2 SLP132 T02440044 $",2025-09-09 17:30:38.056771,2025-09-09 13:30:38.056845
"KSLC","Salt Lake City Intl, UT, US",2025-09-09 16:54:00,2025-09-09 12:54:00,"VFR",27.8,6.1,170,14,24,NA,1014.6,"METAR KSLC 091654Z 17014G24KT 10SM FEW095 FEW130 BKN230 28/06 A2996 RMK AO2 PK WND 16026/1610 SLP088 T02780061 $",2025-09-09 17:30:38.067541,2025-09-09 13:30:38.067647
"KEUG","Eugene/Mahlon Sweet Fld, OR, US",2025-09-09 16:54:00,2025-09-09 12:54:00,"VFR",18.3,14.4,160,4,NA,NA,1014.3,"METAR KEUG 091654Z 16004KT 10SM BKN033 BKN042 OVC080 18/14 A2995 RMK AO2 SLP140 T01830144",2025-09-09 17:30:38.077937,2025-09-09 13:30:38.078013
"KSEA","Seattle-Tacoma Intl, WA, US",2025-09-09 16:53:00,2025-09-09 12:53:00,"VFR",18.3,13.9,10,5,NA,NA,1015,"METAR KSEA 091653Z 01005KT 10SM SCT012 BKN038 OVC100 18/14 A2997 RMK AO2 SLP154 T01830139 $",2025-09-09 17:30:38.089078,2025-09-09 13:30:38.089145
"KDFW","Dallas-Ft Worth Intl, TX, US",2025-09-09 16:53:00,2025-09-09 12:53:00,"VFR",26.1,13.3,170,7,NA,NA,1018,"METAR KDFW 091653Z 17007KT 10SM CLR 26/13 A3006 RMK AO2 SLP173 T02610133 $",2025-09-09 17:30:38.101287,2025-09-09 13:30:38.101389
"KDAL","Dallas/Love Fld, TX, US",2025-09-09 16:53:00,2025-09-09 12:53:00,"VFR",25.6,13.3,180,5,NA,NA,1018.7,"METAR KDAL 091653Z COR 18005KT 10SM CLR 26/13 A3008 RMK AO2 SLP178 T02560133",2025-09-09 17:30:38.112038,2025-09-09 13:30:38.112098
"KLBB","Lubbock Intl Arpt, TX, US",2025-09-09 16:53:00,2025-09-09 12:53:00,"VFR",27.8,18.3,170,7,NA,NA,1019,"METAR KLBB 091653Z 17007KT 10SM FEW075 FEW100 28/18 A3009 RMK AO2 SLP136 ACC DSNT E-SE T02780183",2025-09-09 17:30:38.121524,2025-09-09 13:30:38.121594
"KAUS","Austin/Bergstrom Intl, TX, US",2025-09-09 16:53:00,2025-09-09 12:53:00,"VFR",28.3,13.3,150,4,NA,NA,1017.7,"METAR KAUS 091653Z 15004KT 10SM CLR 28/13 A3005 RMK AO2 SLP168 T02830133",2025-09-09 17:30:38.13181,2025-09-09 13:30:38.131866
"KPUB","Pueblo Mem Arpt, CO, US",2025-09-09 16:53:00,2025-09-09 12:53:00,"VFR",27.2,6.7,NA,6,NA,NA,1018.7,"METAR KPUB 091653Z VRB06KT 10SM CLR 27/07 A3008 RMK AO2 SLP119 T02720067",2025-09-09 17:30:38.147227,2025-09-09 13:30:38.147339
"KTUL","Tulsa Intl Arpt, OK, US",2025-09-09 16:53:00,2025-09-09 12:53:00,"VFR",25.6,12.2,170,11,NA,NA,1018.4,"METAR KTUL 091653Z 17011KT 10SM BKN070 BKN090 26/12 A3007 RMK AO2 SLP176 T02560122",2025-09-09 17:30:38.156578,2025-09-09 13:30:38.156634
"KMFE","McAllen/Miller Intl, TX, US",2025-09-09 16:53:00,2025-09-09 12:53:00,"VFR",31.7,22.8,40,8,NA,NA,1015.3,"METAR KMFE 091653Z 04008KT 10SM FEW032 SCT050 BKN060 32/23 A2998 RMK AO2 SLP149 T03170228 $",2025-09-09 17:30:38.165879,2025-09-09 13:30:38.165928
"KMFR","Medford/Rogue Valley Intl, OR, US",2025-09-09 16:53:00,2025-09-09 12:53:00,"MVFR",17.2,13.9,0,0,NA,NA,1014.6,"METAR KMFR 091653Z 00000KT 10SM FEW011 BKN023 BKN090 17/14 A2996 RMK AO2 SLP138 T01720139 $",2025-09-09 17:30:38.174551,2025-09-09 13:30:38.174619
"KIDA","Idaho Falls Rgnl, ID, US",2025-09-09 16:53:00,2025-09-09 12:53:00,"VFR",22.2,6.7,190,3,NA,NA,1016.7,"METAR KIDA 091653Z 19003KT 10SM CLR 22/07 A3002 RMK AO2 SLP130 T02220067",2025-09-09 17:30:38.182956,2025-09-09 13:30:38.183006
"KICT","Wichita/Eisenhower Arpt, KS, US",2025-09-09 16:53:00,2025-09-09 12:53:00,"VFR",23.3,15,190,11,16,NA,1016.3,"METAR KICT 091653Z 19011G16KT 10SM SCT120 SCT150 BKN190 BKN250 23/15 A3001 RMK AO2 SLP153 ACC OHD T02330150 $",2025-09-09 17:30:38.191486,2025-09-09 13:30:38.191533
"KHOU","Houston/Hobby Arpt, TX, US",2025-09-09 16:53:00,2025-09-09 12:53:00,"VFR",28.3,13.9,50,6,NA,NA,1017,"METAR KHOU 091653Z 05006KT 10SM CLR 28/14 A3003 RMK AO2 SLP174 T02830139",2025-09-09 17:30:38.199856,2025-09-09 13:30:38.199905
"KDEN","Denver Intl, CO, US",2025-09-09 16:53:00,2025-09-09 12:53:00,"VFR",25,4.4,260,3,NA,NA,1019.7,"METAR KDEN 091653Z 26003KT 10SM FEW080 FEW100 SCT140 BKN220 25/04 A3011 RMK AO2 SLP117 T02500044",2025-09-09 17:30:38.208124,2025-09-09 13:30:38.208173
"KAFW","Fort Worth/Alliance Arpt, TX, US",2025-09-09 16:53:00,2025-09-09 12:53:00,"VFR",26.7,13.9,140,8,NA,NA,1018.4,"METAR KAFW 091653Z 14008KT 10SM CLR 27/14 A3007 RMK AO2 SLP170 T02670139",2025-09-09 17:30:38.219893,2025-09-09 13:30:38.219965
"KASE","Aspen/Pitkin Cnty, CO, US",2025-09-09 16:53:00,2025-09-09 12:53:00,"VFR",19.4,2.8,360,4,NA,NA,1025.8,"METAR KASE 091653Z 36004KT 10SM FEW090 19/03 A3029 RMK AO2 RAB10E24 SLP141 P0000 T01940028",2025-09-09 17:30:38.227703,2025-09-09 13:30:38.227748
"KBRO","Brownsville Intl, TX, US",2025-09-09 16:53:00,2025-09-09 12:53:00,"VFR",31.7,25,40,11,18,NA,1014.3,"METAR KBRO 091653Z 04011G18KT 10SM FEW025 SCT070 32/25 A2995 RMK AO2 SLP142 T03170250",2025-09-09 17:30:38.23562,2025-09-09 13:30:38.235673
"KBIL","Billings/Logan Intl, MT, US",2025-09-09 16:53:00,2025-09-09 12:53:00,"VFR",20.6,7.2,0,0,NA,NA,1017,"METAR KBIL 091653Z 00000KT 10SM FEW240 21/07 A3003 RMK AO2 SLP141 T02060072",2025-09-09 17:30:38.243598,2025-09-09 13:30:38.243651
"KHLN","Helena Rgnl, MT, US",2025-09-09 16:53:00,2025-09-09 12:53:00,"VFR",17.2,6.7,NA,4,NA,NA,1016.3,"METAR KHLN 091653Z VRB04KT 10SM CLR 17/07 A3001 RMK AO2 SLP156 T01720067",2025-09-09 17:30:38.251184,2025-09-09 13:30:38.251231
"KIAH","Houston/Bush Intl, TX, US",2025-09-09 16:53:00,2025-09-09 12:53:00,"VFR",27.8,13.3,30,7,NA,NA,1017.7,"METAR KIAH 091653Z 03007KT 10SM CLR 28/13 A3005 RMK AO2 SLP174 T02780133",2025-09-09 17:30:38.258968,2025-09-09 13:30:38.259016
"KLAW","Lawton-Fort Sill Rgnl, OK, US",2025-09-09 16:53:00,2025-09-09 12:53:00,"VFR",27.2,12.8,190,10,17,NA,1017.7,"METAR KLAW 091653Z 19010G17KT 10SM CLR 27/13 A3005 RMK AO2 SLP165 T02720128",2025-09-09 17:30:38.266352,2025-09-09 13:30:38.266399
"KGTF","Great Falls Intl, MT, US",2025-09-09 16:53:00,2025-09-09 12:53:00,"VFR",21.7,6.7,80,4,NA,NA,1016,"METAR KGTF 091653Z 08004KT 10SM CLR 22/07 A3000 RMK AO2 SLP127 T02170067 $",2025-09-09 17:30:38.273363,2025-09-09 13:30:38.273409
"KAMA","Amarillo Intl Arpt, TX, US",2025-09-09 16:53:00,2025-09-09 12:53:00,"VFR",27.8,16.1,220,12,NA,NA,1018.7,"METAR KAMA 091653Z 22012KT 10SM CLR 28/16 A3008 RMK AO2 SLP131 T02780161",2025-09-09 17:30:38.280621,2025-09-09 13:30:38.280671
"KBFI","Seattle/Boeing Fld, WA, US",2025-09-09 16:53:00,2025-09-09 12:53:00,"VFR",17.2,13.9,NA,3,NA,NA,1014.6,"METAR KBFI 091653Z VRB03KT 10SM SCT015 OVC043 17/14 A2996 RMK AO2 SLP146 T01720139",2025-09-09 17:30:38.291128,2025-09-09 13:30:38.291174
"KBOI","Boise Arpt, ID, US",2025-09-09 16:53:00,2025-09-09 12:53:00,"VFR",22.8,4.4,330,9,NA,NA,1012.6,"METAR KBOI 091653Z 33009KT 10SM CLR 23/04 A2990 RMK AO2 SLP100 T02280044",2025-09-09 17:30:38.298325,2025-09-09 13:30:38.298373
"KGEG","Spokane Intl, WA, US",2025-09-09 16:53:00,2025-09-09 12:53:00,"VFR",21.7,10,40,6,NA,NA,1013.6,"METAR KGEG 091653Z 04006KT 10SM FEW120 FEW150 FEW300 22/10 A2993 RMK AO2 SLP118 CB DSNT N-NE AND NW MOV N T02170100 $",2025-09-09 17:30:38.305746,2025-09-09 13:30:38.305794
"KPDX","Portland Intl, OR, US",2025-09-09 16:53:00,2025-09-09 12:53:00,"VFR",18.9,13.3,350,3,NA,NA,1014.3,"METAR KPDX 091653Z 35003KT 10SM FEW025 BKN110 BKN250 19/13 A2995 RMK AO2 SLP139 T01890133",2025-09-09 17:30:38.313023,2025-09-09 13:30:38.313067
"KMSO","Missoula Intl, MT, US",2025-09-09 16:53:00,2025-09-09 12:53:00,"VFR",15,7.8,160,3,NA,NA,1016,"METAR KMSO 091653Z 16003KT 10SM CLR 15/08 A3000 RMK AO2 SLP149 T01500078",2025-09-09 17:30:38.320365,2025-09-09 13:30:38.320411
"KHRL","Harlingen/Valley Intl, TX, US",2025-09-09 16:52:00,2025-09-09 12:52:00,"VFR",31.1,24.4,60,9,NA,NA,1014.6,"METAR KHRL 091652Z 06009KT 10SM SCT060 SCT070 31/24 A2996 RMK AO2 SLP143 T03110244",2025-09-09 17:30:38.327847,2025-09-09 13:30:38.327894
"KABI","Abilene Rgnl, TX, US",2025-09-09 16:52:00,2025-09-09 12:52:00,"VFR",28.3,16.1,210,9,NA,NA,1018.7,"METAR KABI 091652Z 21009KT 10SM CLR 28/16 A3008 RMK AO2 SLP159 T02830161",2025-09-09 17:30:38.335235,2025-09-09 13:30:38.335287
"KOKC","Oklahoma City/Will Rogers Intl, OK, US",2025-09-09 16:52:00,2025-09-09 12:52:00,"VFR",25.6,12.8,180,15,NA,NA,1017.7,"METAR KOKC 091652Z 18015KT 10SM FEW100 SCT250 26/13 A3005 RMK AO2 SLP163 T02560128",2025-09-09 17:30:38.342705,2025-09-09 13:30:38.342753
"KELP","El Paso Intl, TX, US",2025-09-09 16:51:00,2025-09-09 12:51:00,"VFR",30,12.8,180,6,NA,NA,1019,"METAR KELP 091651Z 18006KT 10SM FEW065 FEW110 30/13 A3009 RMK AO2 SLP107 T03000128",2025-09-09 17:30:38.354456,2025-09-09 13:30:38.354501
"KACT","Waco Rgnl, TX, US",2025-09-09 16:51:00,2025-09-09 12:51:00,"VFR",26.7,15.6,NA,NA,NA,NA,1018.7,"METAR KACT 091651Z 10SM CLR 27/16 A3008 RMK AO2 SLP179 T02670156",2025-09-09 17:30:38.361885,2025-09-09 13:30:38.361936
"KSAT","San Antonio Intl, TX, US",2025-09-09 16:51:00,2025-09-09 12:51:00,"VFR",27.8,14.4,90,5,NA,NA,1018,"METAR KSAT 091651Z 09005KT 10SM CLR 28/14 A3006 RMK AO2 SLP160 T02780144",2025-09-09 17:30:38.369332,2025-09-09 13:30:38.369378
"KSTS","Santa Rosa/Schulz Arpt, CA, US",2025-09-09 17:27:00,2025-09-09 13:27:00,"MVFR",19.4,16.7,0,0,NA,NA,1014,"SPECI KSTS 091727Z 00000KT 10SM BKN017 OVC050 19/17 A2994 RMK AO2 T01940167",2025-09-09 17:30:41.121856,2025-09-09 13:30:41.121904
"KOAK","Oakland Intl, CA, US",2025-09-09 17:10:00,2025-09-09 13:10:00,"MVFR",19.4,16.7,160,7,NA,NA,1014.6,"SPECI KOAK 091710Z 16007KT 10SM FEW019 BKN027 BKN037 BKN250 19/17 A2996 RMK AO2 T01940167",2025-09-09 17:30:41.131034,2025-09-09 13:30:41.131097
"KSAN","San Diego Intl Arpt, CA, US",2025-09-09 16:57:00,2025-09-09 12:57:00,"VFR",21.7,15,NA,4,NA,NA,1015.3,"SPECI KSAN 091657Z VRB04KT 10SM SCT021 22/15 A2998 RMK AO2 T02170150",2025-09-09 17:30:41.140166,2025-09-09 13:30:41.140244
"KSFO","San Francisco Intl, CA, US",2025-09-09 16:56:00,2025-09-09 12:56:00,"MVFR",20,16.1,230,9,NA,NA,1014.3,"METAR KSFO 091656Z 23009KT 10SM FEW005 BKN018 OVC038 20/16 A2995 RMK AO2 SLP142 T02000161 $",2025-09-09 17:30:41.149832,2025-09-09 13:30:41.14989
"KRNO","Reno/Tahoe Intl, NV, US",2025-09-09 16:55:00,2025-09-09 12:55:00,"VFR",16.1,4.4,0,0,NA,NA,1017,"METAR KRNO 091655Z 00000KT 10SM FEW070 BKN200 16/04 A3003 RMK AO2 SLP127 T01610044",2025-09-09 17:30:41.164247,2025-09-09 13:30:41.1643
"PHOG","Kahului Arpt, HI, US",2025-09-09 16:54:00,2025-09-09 12:54:00,"VFR",24.4,20.6,30,3,NA,NA,1015.3,"METAR PHOG 091654Z 03003KT 10SM FEW030 SCT045 24/21 A2998 RMK AO2 SLP155 T02440206",2025-09-09 17:30:41.172907,2025-09-09 13:30:41.172959
"KSJC","San Jose Intl Arpt, CA, US",2025-09-09 16:53:00,2025-09-09 12:53:00,"MVFR",20.6,14.4,0,0,NA,NA,1014.6,"METAR KSJC 091653Z 00000KT 10SM -RA FEW010 BKN030 BKN045 21/14 A2996 RMK AO2 RAB46 SLP143 TCU DSNT SE AND NW P0000 T02060144",2025-09-09 17:30:41.181502,2025-09-09 13:30:41.181576
"KLAX","Los Angeles Intl, CA, US",2025-09-09 16:53:00,2025-09-09 12:53:00,"MVFR",21.7,16.7,130,5,NA,7,1014.6,"METAR KLAX 091653Z 13005KT 7SM FEW009 SCT017 BKN023 22/17 A2996 RMK AO2 SLP142 T02170167 $",2025-09-09 17:30:41.189585,2025-09-09 13:30:41.189638
"KPSP","Palm Springs Intl, CA, US",2025-09-09 16:53:00,2025-09-09 12:53:00,"VFR",32.8,3.9,0,0,NA,NA,1010.6,"METAR KPSP 091653Z 00000KT 10SM CLR 33/04 A2984 RMK AO2 SLP098 T03280039",2025-09-09 17:30:41.197581,2025-09-09 13:30:41.197634
"KSNA","Santa Ana/Wayne Arpt, CA, US",2025-09-09 16:53:00,2025-09-09 12:53:00,"MVFR",21.1,15.6,NA,4,NA,NA,1014.6,"METAR KSNA 091653Z VRB04KT 10SM BKN020 21/16 A2996 RMK AO2 SLP145 T02110156",2025-09-09 17:30:41.20617,2025-09-09 13:30:41.206221
"PHNL","Honolulu Intl, HI, US",2025-09-09 16:53:00,2025-09-09 12:53:00,"VFR",26.1,22.2,60,5,NA,NA,1015.3,"METAR PHNL 091653Z 06005KT 10SM FEW022 SCT035 26/22 A2998 RMK AO2 SLP152 VCSH N T02610222",2025-09-09 17:30:41.214147,2025-09-09 13:30:41.214195
"KSBA","Santa Barbara Muni, CA, US",2025-09-09 16:53:00,2025-09-09 12:53:00,"VFR",20.6,17.2,140,9,NA,NA,1013.6,"METAR KSBA 091653Z 14009KT 10SM CLR 21/17 A2993 RMK AO2 SLP136 T02060172 $",2025-09-09 17:30:41.222595,2025-09-09 13:30:41.222644
"KBUR","Burbank/Bob Hope Arpt, CA, US",2025-09-09 16:53:00,2025-09-09 12:53:00,"VFR",20.6,15,NA,5,NA,NA,1015,"METAR KBUR 091653Z VRB05KT 10SM FEW017 21/15 A2997 RMK AO2 SLP137 T02060150",2025-09-09 17:30:41.235307,2025-09-09 13:30:41.235355
"KLGB","Long Beach Arpt, CA, US",2025-09-09 16:53:00,2025-09-09 12:53:00,"MVFR",21.7,16.1,200,5,NA,NA,1014.6,"METAR KLGB 091653Z 20005KT 10SM OVC021 22/16 A2996 RMK AO2 SLP144 T02170161",2025-09-09 17:30:41.243876,2025-09-09 13:30:41.243926
"KTUS","Tucson Intl Arpt, AZ, US",2025-09-09 16:53:00,2025-09-09 12:53:00,"VFR",32.2,16.1,210,3,NA,NA,1015.7,"METAR KTUS 091653Z 21003KT 10SM CLR 32/16 A2999 RMK AO2 SLP100 T03220161",2025-09-09 17:30:41.252713,2025-09-09 13:30:41.252766
"KONT","Ontario Intl, CA, US",2025-09-09 16:53:00,2025-09-09 12:53:00,"VFR",21.1,14.4,NA,4,NA,NA,1015,"METAR KONT 091653Z VRB04KT 10SM FEW010 21/14 A2997 RMK AO2 SLP135 T02110144 $",2025-09-09 17:30:41.260929,2025-09-09 13:30:41.260979
"KSAF","Santa Fe Cnty Muni, NM, US",2025-09-09 16:53:00,2025-09-09 12:53:00,"VFR",24.4,4.4,40,5,NA,NA,1024.1,"METAR KSAF 091653Z 04005KT 10SM CLR 24/04 A3024 RMK AO2 SLP143 T02440044",2025-09-09 17:30:41.268436,2025-09-09 13:30:41.268484
"KABQ","Albuquerque Intl, NM, US",2025-09-09 16:52:00,2025-09-09 12:52:00,"VFR",24.4,6.7,210,3,NA,NA,1022.8,"METAR KABQ 091652Z COR 21003KT 10SM FEW070 BKN120 24/07 A3020 RMK AO2 SLP136 T02440067 $",2025-09-09 17:30:41.276081,2025-09-09 13:30:41.276129
"KPHX","Phoenix/Sky Harbor Intl, AZ, US",2025-09-09 16:51:00,2025-09-09 12:51:00,"VFR",36.1,13.9,NA,4,NA,NA,1010.6,"METAR KPHX 091651Z VRB04KT 10SM FEW100 36/14 A2984 RMK AO2 SLP082 T03610139",2025-09-09 17:30:41.283568,2025-09-09 13:30:41.283622
"KSMO","Santa Monica Muni, CA, US",2025-09-09 16:51:00,2025-09-09 12:51:00,"MVFR",21.1,16.7,NA,4,NA,NA,1014.6,"METAR KSMO 091651Z VRB04KT 10SM OVC020 21/17 A2996 RMK AO2 SLP143 T02110167",2025-09-09 17:30:41.290994,2025-09-09 13:30:41.291042
"CYXS","Prince George Arpt, BC, CA",2025-09-09 17:38:00,2025-09-09 13:38:00,"VFR",16,11,200,5,NA,6,1014,"SPECI CYXS 091738Z AUTO 20005KT 6SM HZ CLR 16/11 A2994 RMK SLP149 DENSITY ALT 2900FT",2025-09-09 17:41:32.941724,2025-09-09 13:41:32.941769
"CYAT","Attawapisket Arpt, ON, CA",2025-09-09 17:09:00,2025-09-09 13:09:00,"MVFR",13,12,250,8,NA,9,1011.6,"SPECI CYAT 091709Z AUTO 25008KT 9SM BKN010 OVC050 13/12 A2987 RMK SLP117",2025-09-09 17:41:32.952774,2025-09-09 13:41:32.952819
"CYEG","Edmonton Intl Arpt, AB, CA",2025-09-09 17:00:00,2025-09-09 13:00:00,"VFR",20,11,170,7,NA,8,1011.9,"METAR CYEG 091700Z 17007KT 8SM SKC 20/11 A2988 RMK FU SLP122 DENSITY ALT 3600FT",2025-09-09 17:41:32.959509,2025-09-09 13:41:32.959554
"CYER","Ft Severn Arpt, ON, CA",2025-09-09 17:00:00,2025-09-09 13:00:00,"MVFR",9,5,10,6,NA,9,1016,"METAR CYER 091700Z AUTO 01006KT 350V070 9SM OVC019 09/05 A3000 RMK SLP163",2025-09-09 17:41:32.966063,2025-09-09 13:41:32.966104
"CYVO","Val D'Or Arpt, QC, CA",2025-09-09 17:00:00,2025-09-09 13:00:00,"VFR",14,7,180,11,20,15,1022.4,"METAR CYVO 091700Z 18011G20KT 15SM SCT055 OVC070 14/07 A3019 RMK SC3AC5 SLP235",2025-09-09 17:41:32.972515,2025-09-09 13:41:32.972557
"CYYG","Charlottetown Arpt, PE, CA",2025-09-09 17:00:00,2025-09-09 13:00:00,"VFR",19,7,180,8,NA,15,1028.5,"METAR CYYG 091700Z 18008KT 15SM BKN055 BKN260 19/07 A3037 RMK SC6CI1 SLP288",2025-09-09 17:41:32.978981,2025-09-09 13:41:32.979023
"CYHZ","Halifax/Stanfield Intl, NS, CA",2025-09-09 17:00:00,2025-09-09 13:00:00,"VFR",19,7,330,4,NA,15,1028.5,"METAR CYHZ 091700Z 33004KT 15SM FEW040 BKN250 19/07 A3037 RMK CU2CS5 SLP288",2025-09-09 17:41:32.985428,2025-09-09 13:41:32.98547
"CYOW","Ottawa/Cartier Intl, ON, CA",2025-09-09 17:00:00,2025-09-09 13:00:00,"VFR",19,9,220,5,NA,15,1027.2,"METAR CYOW 091700Z 22005KT 130V250 15SM FEW040 FEW250 19/09 A3033 RMK CU1CI1 CU TR SLP275 DENSITY ALT 600FT",2025-09-09 17:41:32.991889,2025-09-09 13:41:32.991932
"CYPL","Pickle Lake Arpt, ON, CA",2025-09-09 17:00:00,2025-09-09 13:00:00,"VFR",19,10,330,3,NA,9,1015,"METAR CYPL 091700Z AUTO 33003KT 310V040 9SM CLR 19/10 A2997 RMK SLP157 DENSITY ALT 2000FT",2025-09-09 17:41:32.998343,2025-09-09 13:41:32.998384
"CYQB","Quebec/Lesage Intl, QC, CA",2025-09-09 17:00:00,2025-09-09 13:00:00,"VFR",18,5,230,4,NA,30,1028.5,"METAR CYQB 091700Z 23004KT 180V280 30SM FEW051 FEW100 SCT250 18/05 A3037 RMK SC1AC1CI1 SLP289",2025-09-09 17:41:33.0071,2025-09-09 13:41:33.007142
"CYQG","Windsor Intl, ON, CA",2025-09-09 17:00:00,2025-09-09 13:00:00,"VFR",23,6,200,8,NA,9,1024.1,"METAR CYQG 091700Z AUTO 20008KT 190V250 9SM CLR 23/06 A3024 RMK SLP242 DENSITY ALT 1300FT",2025-09-09 17:41:33.01366,2025-09-09 13:41:33.013708
"CYQM","Moncton Intl, NB, CA",2025-09-09 17:00:00,2025-09-09 13:00:00,"VFR",20,3,NA,2,NA,15,1028.2,"METAR CYQM 091700Z VRB02KT 15SM FEW062 FEW240 20/03 A3036 RMK CU1CI1 CU TR SLP284",2025-09-09 17:41:33.020358,2025-09-09 13:41:33.020404
"CYUL","Montreal/Trudeau Intl, QC, CA",2025-09-09 17:00:00,2025-09-09 13:00:00,"VFR",19,9,240,7,NA,30,1027.9,"METAR CYUL 091700Z 24007KT 180V280 30SM FEW035 SCT250 19/09 A3035 RMK CF1CI4 CF TR SLP279",2025-09-09 17:41:33.026893,2025-09-09 13:41:33.026934
"CYUY","Rouyn/Noranda Arpt, QC, CA",2025-09-09 17:00:00,2025-09-09 13:00:00,"VFR",12,11,180,9,NA,15,1020.7,"METAR CYUY 091700Z 18009KT 15SM -RA BKN069 12/11 A3014 RMK AC8 SLP217",2025-09-09 17:41:33.033376,2025-09-09 13:41:33.033422
"CYVR","Vancouver Intl, BC, CA",2025-09-09 17:00:00,2025-09-09 13:00:00,"MVFR",18,17,300,6,NA,20,1014.3,"METAR CYVR 091700Z 30006KT 270V330 20SM FEW010 FEW018 SCT023 BKN030 BKN042 18/17 A2995 RMK SC1SC2SC1SC1SC3 SC TR CU EMBD SLP146 DENSITY ALT 400FT",2025-09-09 17:41:33.039921,2025-09-09 13:41:33.039964
"CYWG","Winnipeg Intl Arpt, MB, CA",2025-09-09 17:00:00,2025-09-09 13:00:00,"VFR",22,15,0,0,NA,15,1015,"METAR CYWG 091700Z 00000KT 15SM SKC 22/15 A2997 RMK SLP154 DENSITY ALT 1800FT",2025-09-09 17:41:33.046489,2025-09-09 13:41:33.046533
"CYYC","Calgary Intl, AB, CA",2025-09-09 17:00:00,2025-09-09 13:00:00,"VFR",20,9,210,3,NA,15,1014.6,"METAR CYYC 091700Z 21003KT 130V240 15SM SKC 20/09 A2996 RMK SLP141 DENSITY ALT 5000FT",2025-09-09 17:41:33.053082,2025-09-09 13:41:33.053127
"CYYJ","Victoria Intl, BC, CA",2025-09-09 17:00:00,2025-09-09 13:00:00,"VFR",18,14,NA,2,NA,30,1014.6,"METAR CYYJ 091700Z VRB02KT 30SM FEW025 BKN044 18/14 A2996 RMK CU1SC7 CU TR SLP146 DENSITY ALT 400FT",2025-09-09 17:41:33.0598,2025-09-09 13:41:33.059845
"CYYZ","Toronto/Pearson Intl, ON, CA",2025-09-09 17:00:00,2025-09-09 13:00:00,"VFR",20,10,130,7,NA,15,1025.5,"METAR CYYZ 091700Z 13007KT 100V190 15SM FEW040 SCT250 20/10 A3028 RMK CU1CI3 SLP256 DENSITY ALT 900FT",2025-09-09 17:41:33.068861,2025-09-09 13:41:33.068904
"CYQQ","Comox(MIL), BC, CA",2025-09-09 17:00:00,2025-09-09 13:00:00,"MVFR",18,13,340,6,NA,20,1015.3,"METAR CYQQ 091700Z 34006KT 20SM BKN019 18/13 A2998 RMK SC7 DENSITY ALT 543FT SLP153",2025-09-09 17:41:33.075663,2025-09-09 13:41:33.075711
"CYVV","Wiarton Arpt, ON, CA",2025-09-09 17:00:00,2025-09-09 13:00:00,"VFR",20,10,200,8,NA,15,1024.5,"METAR CYVV 091700Z 20008KT 180V250 15SM FEW042 OVC250 20/10 A3025 RMK CU2CI6 SLP248 DENSITY ALT 1100FT",2025-09-09 17:41:33.082229,2025-09-09 13:41:33.082271
"CYXE","Saskatoon/Diefenbaker Intl, SK, CA",2025-09-09 17:00:00,2025-09-09 13:00:00,"VFR",22,12,130,5,NA,12,1015.3,"METAR CYXE 091700Z 13005KT 050V150 12SM FEW300 22/12 A2998 RMK CI1 CI TR FU SLP160 DENSITY ALT 2800FT",2025-09-09 17:41:33.088734,2025-09-09 13:41:33.088779
"CYXT","Terrace Arpt, BC, CA",2025-09-09 17:00:00,2025-09-09 13:00:00,"VFR",16,12,NA,2,NA,20,1016.7,"METAR CYXT 091700Z VRB02KT 20SM FEW020 FEW045 BKN210 16/12 A3002 RMK CF1SC2CI5 CF TR SLP172",2025-09-09 17:41:33.09529,2025-09-09 13:41:33.095334
"CYYB","North Bay/Garland Arpt, ON, CA",2025-09-09 17:00:00,2025-09-09 13:00:00,"VFR",18,11,190,13,20,30,1024.5,"METAR CYYB 091700Z 19013G20KT 30SM FEW030 BKN280 18/11 A3025 RMK CU3CI3 SLP251 DENSITY ALT 1600FT",2025-09-09 17:41:33.101885,2025-09-09 13:41:33.101928
"CYQA","Muskoka Arpt, ON, CA",2025-09-09 17:00:00,2025-09-09 13:00:00,"VFR",20,7,190,8,16,9,1025.5,"METAR CYQA 091700Z AUTO 19008G16KT 180V240 9SM CLR 20/07 A3028 RMK SLP260 DENSITY ALT 1400FT",2025-09-09 17:41:33.108365,2025-09-09 13:41:33.108408
"CYQF","Red Deer Rgnl, AB, CA",2025-09-09 17:00:00,2025-09-09 13:00:00,"VFR",18,9,230,3,NA,9,1013.6,"METAR CYQF 091700Z AUTO 23003KT 180V260 9SM CLR 18/09 A2993 RMK SLP143 DENSITY ALT 4100FT",2025-09-09 17:41:33.114916,2025-09-09 13:41:33.114961
"CYQT","Thunder Bay Intl, ON, CA",2025-09-09 17:00:00,2025-09-09 13:00:00,"MVFR",17,15,100,4,NA,15,1014.6,"METAR CYQT 091700Z 10004KT 15SM SCT013 OVC019 17/15 A2996 RMK SC4SC4 SLP152 DENSITY ALT 1000FT",2025-09-09 17:41:33.123674,2025-09-09 13:41:33.12372
"CYRJ","Roberval Arpt, QC, CA",2025-09-09 17:00:00,2025-09-09 13:00:00,"VFR",16,5,200,13,NA,40,1026.5,"METAR CYRJ 091700Z 20013KT 170V240 40SM SCT170 BKN200 16/05 A3031 RMK AC4CI3 SLP271",2025-09-09 17:41:33.130239,2025-09-09 13:41:33.130281
"CYSB","Sudbury Arpt, ON, CA",2025-09-09 17:00:00,2025-09-09 13:00:00,"VFR",19,10,190,19,25,20,1022.8,"METAR CYSB 091700Z 19019G25KT 20SM BKN033 BKN200 19/10 A3020 RMK CU5CI1 SLP233 DENSITY ALT 1600FT",2025-09-09 17:41:33.136848,2025-09-09 13:41:33.136892
"CYTS","Timmins/Power Arpt, ON, CA",2025-09-09 17:00:00,2025-09-09 13:00:00,"MVFR",13,12,190,8,NA,5,1017.7,"METAR CYTS 091700Z 19008KT 5SM -RA BR SCT009 OVC037 13/12 A3005 RMK SC4SC4 SLP187",2025-09-09 17:41:33.143379,2025-09-09 13:41:33.14342
"CYGK","Kingston Arpt, ON, CA",2025-09-09 17:00:00,2025-09-09 13:00:00,"VFR",18,12,160,8,NA,15,1027.5,"METAR CYGK 091700Z 16008KT 15SM FEW020 FEW250 18/12 A3034 RMK SC1CI1 SLP277",2025-09-09 17:41:33.149885,2025-09-09 13:41:33.149933
"CYHU","Montreal/St Hubert, QC, CA",2025-09-09 17:00:00,2025-09-09 13:00:00,"VFR",20,10,220,6,NA,9,1027.5,"METAR CYHU 091700Z AUTO 22006KT 130V240 9SM CLR 20/10 A3034 RMK SLP277",2025-09-09 17:41:33.15637,2025-09-09 13:41:33.156413
"CYLW","Kelowna Arpt, BC, CA",2025-09-09 17:00:00,2025-09-09 13:00:00,"VFR",20,12,NA,3,NA,9,1013.3,"METAR CYLW 091700Z AUTO VRB03KT 9SM CLR 20/12 A2992 RMK SLP130 DENSITY ALT 2400FT",2025-09-09 17:41:33.162872,2025-09-09 13:41:33.162918
"CYMM","Fort McMurray Arpt, AB, CA",2025-09-09 17:00:00,2025-09-09 13:00:00,"VFR",18,12,80,6,NA,6,1010.6,"METAR CYMM 091700Z AUTO 08006KT 6SM HZ BKN100 18/12 A2984 RMK SLP114 DENSITY ALT 2000FT",2025-09-09 17:41:33.169454,2025-09-09 13:41:33.169496
"CYMO","Moosonee Arpt, ON, CA",2025-09-09 17:00:00,2025-09-09 13:00:00,"MVFR",14,13,190,7,NA,9,1014,"METAR CYMO 091700Z AUTO 19007KT 9SM FEW012 OVC021 14/13 A2994 RMK SLP142",2025-09-09 17:41:33.17596,2025-09-09 13:41:33.176002
"CYAM","Sault Ste Marie Arpt, ON, CA",2025-09-09 17:00:00,2025-09-09 13:00:00,"VFR",19,13,230,6,NA,20,1019.4,"METAR CYAM 091700Z 23006KT 170V260 20SM FEW024 SCT066 BKN100 OVC250 19/13 A3010 RMK CU1AC4AS3CS1 CU TR SLP199 DENSITY ALT 1100FT",2025-09-09 17:41:33.184715,2025-09-09 13:41:33.18476
"CYBC","Baie Comeau Arpt, QC, CA",2025-09-09 17:00:00,2025-09-09 13:00:00,"VFR",14,8,220,11,NA,9,1027.5,"METAR CYBC 091700Z AUTO 22011KT 9SM CLR 14/08 A3034 RMK SLP278",2025-09-09 17:41:33.19137,2025-09-09 13:41:33.191413
"CYBR","Brandon Arpt, MB, CA",2025-09-09 17:00:00,2025-09-09 13:00:00,"VFR",21,13,70,7,NA,15,1015.7,"METAR CYBR 091700Z 07007KT 040V110 15SM FEW250 21/13 A2999 RMK CI2 SLP162 DENSITY ALT 2300FT",2025-09-09 17:41:33.198016,2025-09-09 13:41:33.198057
"CYZV","Sept-Îles Arpt, QC, CA",2025-09-09 17:00:00,2025-09-09 13:00:00,"VFR",13,5,170,10,NA,30,1027.5,"METAR CYZV 091700Z 17010KT 30SM FEW060 FEW080 FEW180 BKN260 13/05 A3034 RMK CU1AC1AC1CI4 AC TR AC TR CONTRAILS SLP279",2025-09-09 17:41:33.204551,2025-09-09 13:41:33.204595
"CYQR","Regina Intl Arpt, SK, CA",2025-09-09 17:00:00,2025-09-09 13:00:00,"VFR",24,10,NA,2,NA,15,1016,"METAR CYQR 091700Z VRB02KT 15SM SKC 24/10 A3000 RMK SLP162 DENSITY ALT 3300FT",2025-09-09 17:41:33.211241,2025-09-09 13:41:33.211285
"CYZP","Sandspit Arpt, BC, CA",2025-09-09 17:40:00,2025-09-09 13:40:00,"MVFR",16,11,350,10,NA,9,1018.7,"SPECI CYZP 091740Z AUTO 35010KT 9SM OVC024 16/11 A3008 RMK SLP187",2025-09-09 17:41:34.407313,2025-09-09 13:41:34.407357
"CYXX","Abbotsford Intl, BC, CA",2025-09-09 17:39:00,2025-09-09 13:39:00,"IFR",18,15,180,3,NA,NA,1014.3,"SPECI CYXX 091739Z 18003KT 160V280 10SM BKN009 OVC037 18/15 A2995 RMK SF6SC2 SLP144 DENSITY ALT 500FT",2025-09-09 17:41:34.416505,2025-09-09 13:41:34.416548
"CYXS","Prince George Arpt, BC, CA",2025-09-09 17:38:00,2025-09-09 13:38:00,"VFR",16,11,200,5,NA,6,1014,"SPECI CYXS 091738Z AUTO 20005KT 6SM HZ CLR 16/11 A2994 RMK SLP149 DENSITY ALT 2900FT",2025-09-09 17:41:34.423065,2025-09-09 13:41:34.42311
"CYBG","Bagotville(MIL), QC, CA",2025-09-09 17:00:00,2025-09-09 13:00:00,"VFR",16,9,100,5,NA,25,1027.2,"METAR CYBG 091700Z 10005KT 25SM FEW055 BKN180 16/09 A3033 RMK CU2AC5 DENSITY ALT 483FT SLP275",2025-09-09 17:41:34.42961,2025-09-09 13:41:34.429675
"CYFB","Iqaluit Arpt, NU, CA",2025-09-09 17:00:00,2025-09-09 13:00:00,"MVFR",8,3,320,15,21,30,1009.9,"METAR CYFB 091700Z 32015G21KT 30SM BKN024 08/03 A2982 RMK SC7 CVCTV CLD EMBD SLP103",2025-09-09 17:41:34.436063,2025-09-09 13:41:34.436105
"CYFC","Fredericton Intl, NB, CA",2025-09-09 17:00:00,2025-09-09 13:00:00,"VFR",19,8,NA,4,NA,9,1028.5,"METAR CYFC 091700Z AUTO VRB04KT 9SM CLR 19/08 A3037 RMK SLP286",2025-09-09 17:41:34.442621,2025-09-09 13:41:34.442687
"CYTR","Trenton(MIL), ON, CA",2025-09-09 17:00:00,2025-09-09 13:00:00,"VFR",21,9,190,6,NA,15,1026.5,"METAR CYTR 091700Z 19006KT 120V230 15SM FEW047 SCT220 21/09 A3031 RMK CU1CS4 DENSITY ALT 787FT CONTRAILS SLP264",2025-09-09 17:41:34.449242,2025-09-09 13:41:34.449287
"CYHD","Dryden Rgnl, ON, CA",2025-09-09 17:00:00,2025-09-09 13:00:00,"VFR",19,12,NA,2,NA,9,1015.7,"METAR CYHD 091700Z AUTO VRB02KT 9SM CLR 19/12 A2999 RMK SLP166 DENSITY ALT 2100FT",2025-09-09 17:41:34.455827,2025-09-09 13:41:34.455872
"CYHM","Hamilton/Munro Intl, ON, CA",2025-09-09 17:00:00,2025-09-09 13:00:00,"VFR",22,9,230,5,NA,15,1025.1,"METAR CYHM 091700Z 23005KT 100V250 15SM SCT050 22/09 A3027 RMK CU4 SLP255 DENSITY ALT 1400FT",2025-09-09 17:41:34.46242,2025-09-09 13:41:34.462464
"CYQK","Kenora Arpt, ON, CA",2025-09-09 17:00:00,2025-09-09 13:00:00,"VFR",20,9,0,0,NA,20,1016,"METAR CYQK 091700Z 00000KT 20SM FEW240 20/09 A3000 RMK CI1 CI TR SLP164 DENSITY ALT 2200FT",2025-09-09 17:41:34.47135,2025-09-09 13:41:34.471392
"CYQU","Grande Prairie Arpt, AB, CA",2025-09-09 17:00:00,2025-09-09 13:00:00,"MVFR",19,9,220,5,NA,5,1010.6,"METAR CYQU 091700Z 22005KT 5SM FU SKC 19/09 A2984 RMK SLP108 DENSITY ALT 3300FT",2025-09-09 17:41:34.477944,2025-09-09 13:41:34.477988
"CYQX","Gander Intl Arpt, NL, CA",2025-09-09 17:00:00,2025-09-09 13:00:00,"VFR",18,5,270,12,18,20,1024.5,"METAR CYQX 091700Z 27012G18KT 250V330 20SM FEW040 BKN230 18/05 A3025 RMK CU1CC5 CU TR SLP249",2025-09-09 17:41:34.484622,2025-09-09 13:41:34.484688
"CYQY","Sydney Arpt, NS, CA",2025-09-09 17:00:00,2025-09-09 13:00:00,"VFR",20,9,40,6,NA,15,1027.9,"METAR CYQY 091700Z 04006KT 340V060 15SM SCT057 BKN220 20/09 A3035 RMK CU3CI3 SLP280",2025-09-09 17:41:34.491135,2025-09-09 13:41:34.491178
"CYRB","Resolute Bay Arpt, NU, CA",2025-09-09 17:00:00,2025-09-09 13:00:00,"LIFR",-1,-1,270,7,NA,0.5,1012.6,"METAR CYRB 091700Z 27007KT 1/2SM R35/4000VP6000FT/D FZFG OVC002 M01/M01 A2990 RMK FG6ST2 SLP132",2025-09-09 17:41:34.49762,2025-09-09 13:41:34.497689
"CYUY","Rouyn/Noranda Arpt, QC, CA",2025-09-09 17:00:00,2025-09-09 13:00:00,"VFR",12,11,180,9,NA,15,1020.7,"METAR CYUY 091700Z 18009KT 15SM -RA BKN069 12/11 A3014 RMK AC8 SLP217",2025-09-09 17:41:34.504168,2025-09-09 13:41:34.50421
"CYXU","London Intl, ON, CA",2025-09-09 17:00:00,2025-09-09 13:00:00,"VFR",21,7,160,8,15,15,1025.1,"METAR CYXU 091700Z 16008G15KT 15SM SCT060 21/07 A3027 RMK SC3 SLP253 DENSITY ALT 1500FT",2025-09-09 17:41:34.510684,2025-09-09 13:41:34.510731
"CYXY","Whitehorse Arpt, YT, CA",2025-09-09 17:00:00,2025-09-09 13:00:00,"VFR",9,6,190,2,NA,40,1012.3,"METAR CYXY 091700Z 19002KT 40SM FEW073 FEW140 09/06 A2989 RMK AC1AC1 AC TR SLP145",2025-09-09 17:41:34.517208,2025-09-09 13:41:34.517251
"CYYT","St Johns Intl, NL, CA",2025-09-09 17:00:00,2025-09-09 13:00:00,"VFR",17,8,290,10,17,15,1025.5,"METAR CYYT 091700Z 29010G17KT 15SM FEW036 SCT150 SCT220 BKN240 17/08 A3028 RMK CU1AC2CI1CI3 SLP259",2025-09-09 17:41:34.523742,2025-09-09 13:41:34.523787
"CYZF","Yellowknife Arpt, NT, CA",2025-09-09 17:00:00,2025-09-09 13:00:00,"VFR",13,9,140,9,16,15,1006.2,"METAR CYZF 091700Z 14009G16KT 15SM FEW020 BKN140 13/09 A2971 RMK SC1AC7 SC TR SLP071",2025-09-09 17:41:34.543195,2025-09-09 13:41:34.543241
"CYWL","Williams Lake Rgnl, BC, CA",2025-09-09 17:00:00,2025-09-09 13:00:00,"MVFR",15,11,150,4,NA,3,1015.3,"METAR CYWL 091700Z 15004KT 130V210 3SM FU SKC 15/11 A2998 RMK SLP155 DENSITY ALT 3800FT",2025-09-09 17:41:34.550105,2025-09-09 13:41:34.550151
"CYOD","Cold Lake (Mil), AB, CA",2025-09-09 17:00:00,2025-09-09 13:00:00,"VFR",20,12,90,5,NA,NA,1013.6,"METAR CYOD 091700Z 09005KT 10SM FEW080 FEW250 20/12 A2993 RMK AC1CI1 DENSITY ALT 2995FT SLP140",2025-09-09 17:41:34.556936,2025-09-09 13:41:34.556979
"CYPR","Prince Rupert Arpt, BC, CA",2025-09-09 17:00:00,2025-09-09 13:00:00,NA,14,12,330,4,NA,NA,1017.4,"METAR CYPR 091700Z AUTO 33004KT 290V030 OVC008 14/12 A3004 RMK WX MISG VIS MISG SLP176",2025-09-09 17:41:34.563499,2025-09-09 13:41:34.56354
"CYQH","Watson Lake Arpt, YT, CA",2025-09-09 17:00:00,2025-09-09 13:00:00,"VFR",12,5,NA,2,NA,25,1011.9,"METAR CYQH 091700Z VRB02KT 25SM BKN062 12/05 A2988 RMK CU6 SLP132 DENSITY ALT 2600FT",2025-09-09 17:41:34.570139,2025-09-09 13:41:34.570184
"CYQT","Thunder Bay Intl, ON, CA",2025-09-09 17:00:00,2025-09-09 13:00:00,"MVFR",17,15,100,4,NA,15,1014.6,"METAR CYQT 091700Z 10004KT 15SM SCT013 OVC019 17/15 A2996 RMK SC4SC4 SLP152 DENSITY ALT 1000FT",2025-09-09 17:41:34.576652,2025-09-09 13:41:34.576699
"CYRT","Rankin Inlet Arpt, NU, CA",2025-09-09 17:00:00,2025-09-09 13:00:00,"MVFR",7,3,20,9,NA,15,1015.7,"METAR CYRT 091700Z 02009KT 15SM BKN023 07/03 A2999 RMK SC7 CIG RAG SLP158",2025-09-09 17:41:34.583078,2025-09-09 13:41:34.583119
"CYAM","Sault Ste Marie Arpt, ON, CA",2025-09-09 17:00:00,2025-09-09 13:00:00,"VFR",19,13,230,6,NA,20,1019.4,"METAR CYAM 091700Z 23006KT 170V260 20SM FEW024 SCT066 BKN100 OVC250 19/13 A3010 RMK CU1AC4AS3CS1 CU TR SLP199 DENSITY ALT 1100FT",2025-09-09 17:41:34.589582,2025-09-09 13:41:34.589624
"CYAZ","Tofino Arpt, BC, CA",2025-09-09 17:00:00,2025-09-09 13:00:00,"LIFR",15,15,0,0,NA,0.25,1015,"METAR CYAZ 091700Z 00000KT 1/4SM FG OVC002 15/15 A2997 RMK SF8 SLP150",2025-09-09 17:41:34.598683,2025-09-09 13:41:34.598727
"CYBK","Baker Lake Arpt, NU, CA",2025-09-09 17:00:00,2025-09-09 13:00:00,"MVFR",7,1,180,6,NA,20,1016.7,"METAR CYBK 091700Z 18006KT 170V260 20SM BKN020 BKN075 07/01 A3002 RMK SC5AC1 AC TR SLP169",2025-09-09 17:41:34.605426,2025-09-09 13:41:34.605469
"CYBL","Campbell River Arpt, BC, CA",2025-09-09 17:00:00,2025-09-09 13:00:00,"MVFR",16,14,320,7,NA,20,1015.3,"METAR CYBL 091700Z 32007KT 20SM FEW007 BKN015 16/14 A2998 RMK SF1SC7 SF TR SLP156 DENSITY ALT 600FT",2025-09-09 17:41:34.612458,2025-09-09 13:41:34.612501
"CYCD","Nanaimo Arpt, BC, CA",2025-09-09 17:00:00,2025-09-09 13:00:00,"VFR",18,14,340,5,NA,20,1015,"METAR CYCD 091700Z 34005KT 330V040 20SM OVC047 18/14 A2997 RMK SC8 SLP150 DENSITY ALT 500FT",2025-09-09 17:41:34.619129,2025-09-09 13:41:34.619171
"CYCO","Coppermine/Kugluktuk Arpt, NU, CA",2025-09-09 17:00:00,2025-09-09 13:00:00,"MVFR",10,7,350,4,NA,5,1007.9,"METAR CYCO 091700Z 35004KT 5SM FU FEW160 BKN210 10/07 A2976 RMK AS1CS5 SLP082",2025-09-09 17:41:34.625648,2025-09-09 13:41:34.625697
"CYDF","Deer Lake Arpt, NL, CA",2025-09-09 17:00:00,2025-09-09 13:00:00,"VFR",18,4,250,13,20,15,1025.8,"METAR CYDF 091700Z 25013G20KT 15SM BKN052 18/04 A3029 RMK CU5 SLP258",2025-09-09 17:41:34.632164,2025-09-09 13:41:34.632209
"CYDP","Nain Arpt, NL, CA",2025-09-09 17:00:00,2025-09-09 13:00:00,"VFR",13,2,290,19,25,15,1016.7,"METAR CYDP 091700Z 29019G25KT 15SM SCT051 13/02 A3002 RMK SC4 SLP169",2025-09-09 17:41:34.638693,2025-09-09 13:41:34.638738
"CYKF","Waterloo Intl, ON, CA",2025-09-09 17:00:00,2025-09-09 13:00:00,"VFR",21,8,170,8,NA,9,1025.1,"METAR CYKF 091700Z AUTO 17008KT 150V230 9SM FEW055 21/08 A3027 RMK SLP255 DENSITY ALT 1700FT",2025-09-09 17:41:34.64513,2025-09-09 13:41:34.645175
"CYTZ","Toronto/Bishop Arpt, ON, CA",2025-09-09 17:00:00,2025-09-09 13:00:00,"VFR",18,13,70,6,NA,9,1025.5,"METAR CYTZ 091700Z AUTO 07006KT 9SM CLR 18/13 A3028 RMK SLP258",2025-09-09 17:41:34.651572,2025-09-09 13:41:34.651614
"CYQQ","Comox(MIL), BC, CA",2025-09-09 17:00:00,2025-09-09 13:00:00,"MVFR",18,13,340,6,NA,20,1015.3,"METAR CYQQ 091700Z 34006KT 20SM BKN019 18/13 A2998 RMK SC7 DENSITY ALT 543FT SLP153",2025-09-09 17:41:34.660381,2025-09-09 13:41:34.660422
"CYMH","Mary's Harbor Arpt, NL, CA",2025-09-09 17:00:00,2025-09-09 13:00:00,"VFR",16,6,340,4,NA,9,1020.7,"METAR CYMH 091700Z AUTO 34004KT 270V010 9SM SCT055 16/06 A3014 RMK SLP210",2025-09-09 17:41:34.666913,2025-09-09 13:41:34.666959
"CYGL","La Grande Riviere Arpt, QC, CA",2025-09-09 17:26:00,2025-09-09 13:26:00,"VFR",12,10,210,8,NA,NA,1013.6,"SPECI CYGL 091726Z 21008KT 10SM -RA FEW020 BKN055 OVC080 12/10 A2993 RMK SC1SC4AC3 SLP145",2025-09-09 17:41:35.995255,2025-09-09 13:41:35.995299
"CYMT","Chibougamau Arpt, QC, CA",2025-09-09 17:10:00,2025-09-09 13:10:00,"VFR",13,7,190,17,22,9,1022.8,"SPECI CYMT 091710Z AUTO 19017G22KT 9SM OVC049 13/07 A3020 RMK SLP238",2025-09-09 17:41:36.00182,2025-09-09 13:41:36.001863
"CYKJ","Key Lake Arpt, SK, CA",2025-09-09 17:00:00,2025-09-09 13:00:00,"VFR",15,7,190,10,NA,9,1015.7,"METAR CYKJ 091700Z AUTO 19010KT 9SM CLR 15/07 A2999 RMK SLP175 DENSITY ALT 2000FT",2025-09-09 17:41:36.008243,2025-09-09 13:41:36.008286
"CYPC","Paulatuk Arpt, NT, CA",2025-09-09 17:00:00,2025-09-09 13:00:00,"VFR",5,5,360,3,NA,15,1005.8,"METAR CYPC 091700Z 36003KT 15SM FEW190 SCT250 05/05 A2970 RMK AC2CS1 DIST TCU TOP SW SLP058",2025-09-09 17:41:36.014717,2025-09-09 13:41:36.014764
"CYCO","Coppermine/Kugluktuk Arpt, NU, CA",2025-09-09 17:00:00,2025-09-09 13:00:00,"MVFR",10,7,350,4,NA,5,1007.9,"METAR CYCO 091700Z 35004KT 5SM FU FEW160 BKN210 10/07 A2976 RMK AS1CS5 SLP082",2025-09-09 17:41:36.023513,2025-09-09 13:41:36.023554
"CYBC","Baie Comeau Arpt, QC, CA",2025-09-09 17:00:00,2025-09-09 13:00:00,"VFR",14,8,220,11,NA,9,1027.5,"METAR CYBC 091700Z AUTO 22011KT 9SM CLR 14/08 A3034 RMK SLP278",2025-09-09 17:41:36.029995,2025-09-09 13:41:36.030036
"CYLK","Lutselke Arpt, NT, CA",2025-09-09 17:00:00,2025-09-09 13:00:00,"VFR",15,8,100,3,NA,25,1009.2,"METAR CYLK 091700Z 10003KT 050V150 25SM SCT062 BKN110 BKN210 15/08 A2980 RMK SC3AC2CI1 FU SLP101 DENSITY ALT 900FT",2025-09-09 17:41:36.036463,2025-09-09 13:41:36.036505
"CYHA","Quaqtaq Arpt, QC, CA",2025-09-09 17:00:00,2025-09-09 13:00:00,"VFR",8,3,270,5,NA,15,1013.3,"METAR CYHA 091700Z 27005KT 240V310 15SM FEW025 BKN033 08/03 A2992 RMK SC1SC6 SC TR CONTRAILS SLP137",2025-09-09 17:41:36.042945,2025-09-09 13:41:36.042989
"CYFB","Iqaluit Arpt, NU, CA",2025-09-09 17:00:00,2025-09-09 13:00:00,"MVFR",8,3,320,15,21,30,1009.9,"METAR CYFB 091700Z 32015G21KT 30SM BKN024 08/03 A2982 RMK SC7 CVCTV CLD EMBD SLP103",2025-09-09 17:41:36.049456,2025-09-09 13:41:36.049497
"CYXP","Pangnirtung Arpt, NU, CA",2025-09-09 17:00:00,2025-09-09 13:00:00,"VFR",7,1,240,16,22,15,1004.1,"METAR CYXP 091700Z 24016G22KT 15SM FEW044 07/01 A2965 RMK CF2 SLP044",2025-09-09 17:41:36.055921,2025-09-09 13:41:36.055964
"CYGV","Havre St Pierre Arpt, QC, CA",2025-09-09 17:00:00,2025-09-09 13:00:00,"VFR",14,3,250,17,22,9,1026.8,"METAR CYGV 091700Z AUTO 25017G22KT 9SM CLR 14/03 A3032 RMK SLP271",2025-09-09 17:41:36.06233,2025-09-09 13:41:36.062373
"CYRJ","Roberval Arpt, QC, CA",2025-09-09 17:00:00,2025-09-09 13:00:00,"VFR",16,5,200,13,NA,40,1026.5,"METAR CYRJ 091700Z 20013KT 170V240 40SM SCT170 BKN200 16/05 A3031 RMK AC4CI3 SLP271",2025-09-09 17:41:36.068805,2025-09-09 13:41:36.068849
"CYCK","Chatham/Kent Arpt, ON, CA",2025-09-09 17:00:00,2025-09-09 13:00:00,"VFR",23,7,180,10,15,9,1024.1,"METAR CYCK 091700Z AUTO 18010G15KT 150V230 9SM CLR 23/07 A3024 RMK SLP243 DENSITY ALT 1300FT",2025-09-09 17:41:36.077885,2025-09-09 13:41:36.077928
"CYVO","Val D'Or Arpt, QC, CA",2025-09-09 17:00:00,2025-09-09 13:00:00,"VFR",14,7,180,11,20,15,1022.4,"METAR CYVO 091700Z 18011G20KT 15SM SCT055 OVC070 14/07 A3019 RMK SC3AC5 SLP235",2025-09-09 17:41:36.084277,2025-09-09 13:41:36.08432
"CYDQ","Dawson Creek Arpt, BC, CA",2025-09-09 17:00:00,2025-09-09 13:00:00,"VFR",22,6,260,11,NA,9,1008.9,"METAR CYDQ 091700Z AUTO 26011KT 9SM CLR 22/06 A2979 RMK SLP091 DENSITY ALT 3700FT",2025-09-09 17:41:36.090887,2025-09-09 13:41:36.090931
"CYQB","Quebec/Lesage Intl, QC, CA",2025-09-09 17:00:00,2025-09-09 13:00:00,"VFR",18,5,230,4,NA,30,1028.5,"METAR CYQB 091700Z 23004KT 180V280 30SM FEW051 FEW100 SCT250 18/05 A3037 RMK SC1AC1CI1 SLP289",2025-09-09 17:41:36.09731,2025-09-09 13:41:36.097352
"CYTE","Cape Dorset Arpt, NU, CA",2025-09-09 17:00:00,2025-09-09 13:00:00,"VFR",7,3,260,6,NA,15,1012.3,"METAR CYTE 091700Z 26006KT 220V290 15SM BKN044 07/03 A2989 RMK SC5 SLP127",2025-09-09 17:41:36.103868,2025-09-09 13:41:36.103911
"CYVC","La Ronge Arpt, SK, CA",2025-09-09 17:00:00,2025-09-09 13:00:00,"VFR",16,10,120,5,NA,15,1016.7,"METAR CYVC 091700Z 12005KT 070V140 15SM SKC 16/10 A3002 RMK SLP176 DENSITY ALT 1500FT",2025-09-09 17:41:36.110325,2025-09-09 13:41:36.110368
"CYVQ","Norman Wells Arpt, NT, CA",2025-09-09 17:00:00,2025-09-09 13:00:00,"MVFR",13,13,280,5,NA,NA,1005.2,"METAR CYVQ 091700Z 28005KT 10SM -RA FEW009 BKN021 BKN046 OVC070 13/13 A2968 RMK ST1SC5SC1AC2 ST TR FU SLP054",2025-09-09 17:41:36.116882,2025-09-09 13:41:36.116927
"KHPN","White Plains/Westchester Cnty, NY, US",2025-09-09 16:56:00,2025-09-09 12:56:00,"VFR",21.1,7.8,90,13,20,NA,1027.2,"METAR KHPN 091656Z 09013G20KT 10SM CLR 21/08 A3033 RMK AO2 SLP269 T02110078",2025-09-09 17:41:36.123396,2025-09-09 13:41:36.12344
"KROC","Rochester Intl Arpt, NY, US",2025-09-09 16:54:00,2025-09-09 12:54:00,"VFR",21.7,8.3,170,7,NA,NA,1026.2,"METAR KROC 091654Z 17007KT 10SM FEW029 22/08 A3030 RMK AO2 SLP264 T02170083 $",2025-09-09 17:41:36.130022,2025-09-09 13:41:36.130067
"KRIC","Richmond Intl, VA, US",2025-09-09 16:54:00,2025-09-09 12:54:00,"VFR",23.3,14.4,40,8,18,NA,1023.5,"METAR KRIC 091654Z 04008G18KT 360V060 10SM BKN033 BKN044 23/14 A3022 RMK AO2 SLP238 T02330144",2025-09-09 17:41:36.139042,2025-09-09 13:41:36.139085
"KSYR","Syracuse/Hancock Intl, NY, US",2025-09-09 16:54:00,2025-09-09 12:54:00,"VFR",21.1,10,320,5,NA,NA,1026.8,"METAR KSYR 091654Z 32005KT 10SM FEW035 SCT250 21/10 A3032 RMK AO2 SLP265 T02110100",2025-09-09 17:41:36.145613,2025-09-09 13:41:36.145678
"KBOS","Boston/Logan Intl, MA, US",2025-09-09 16:54:00,2025-09-09 12:54:00,"VFR",20,12.8,70,9,NA,NA,1028.9,"METAR KBOS 091654Z 07009KT 10SM FEW030 FEW250 20/13 A3038 RMK AO2 SLP287 T02000128",2025-09-09 17:41:36.152223,2025-09-09 13:41:36.152268
"KBWI","Baltimore-Washington Intl, MD, US",2025-09-09 16:54:00,2025-09-09 12:54:00,"VFR",22.2,11.1,80,9,20,NA,1025.5,"METAR KBWI 091654Z 08009G20KT 10SM SCT041 SCT250 22/11 A3028 RMK AO2 SLP252 T02220111",2025-09-09 17:41:36.159549,2025-09-09 13:41:36.159667
"KPHL","Philadelphia Intl, PA, US",2025-09-09 16:54:00,2025-09-09 12:54:00,"VFR",23.9,12.2,60,8,17,NA,1025.8,"METAR KPHL 091654Z 06008G17KT 10SM BKN045 BKN230 BKN330 24/12 A3029 RMK AO2 SLP256 T02390122 $",2025-09-09 17:41:36.166569,2025-09-09 13:41:36.166612
"KBUF","Buffalo-Niagara Intl, NY, US",2025-09-09 16:54:00,2025-09-09 12:54:00,"VFR",22.2,6.7,250,9,NA,NA,1025.8,"METAR KBUF 091654Z 25009KT 10SM FEW060 22/07 A3029 RMK AO2 SLP256 FU ALF T02220067 $",2025-09-09 17:41:36.17336,2025-09-09 13:41:36.173402
"KDCA","Washington/Reagan-National Arpt, VA, US",2025-09-09 16:52:00,2025-09-09 12:52:00,"VFR",23.9,11.1,30,8,18,NA,1025.1,"METAR KDCA 091652Z 03008G18KT 10SM FEW050 SCT250 24/11 A3027 RMK AO2 SLP249 T02390111",2025-09-09 17:41:36.179936,2025-09-09 13:41:36.17998
"KIAD","Washington/Dulles Intl, VA, US",2025-09-09 16:52:00,2025-09-09 12:52:00,"VFR",23.3,8.3,60,7,NA,NA,1025.1,"METAR KIAD 091652Z 06007KT 10SM FEW045 SCT250 23/08 A3027 RMK AO2 SLP250 T02330083",2025-09-09 17:41:36.186438,2025-09-09 13:41:36.18649
"KORF","Norfolk Intl, VA, US",2025-09-09 16:51:00,2025-09-09 12:51:00,"MVFR",23.3,18.3,40,15,23,NA,1021.4,"METAR KORF 091651Z 04015G23KT 10SM BKN018 OVC026 23/18 A3016 RMK AO2 PK WND 03027/1626 SLP212 T02330183",2025-09-09 17:41:36.195379,2025-09-09 13:41:36.195421
"KPVD","Providence/Green Mem, RI, US",2025-09-09 16:51:00,2025-09-09 12:51:00,"VFR",22.2,9.4,60,11,18,NA,1027.9,"METAR KPVD 091651Z 06011G18KT 10SM FEW038 FEW250 22/09 A3035 RMK AO2 SLP278 T02220094",2025-09-09 17:41:36.202017,2025-09-09 13:41:36.202062
"KALB","Albany Intl, NY, US",2025-09-09 16:51:00,2025-09-09 12:51:00,"VFR",21.1,8.9,0,0,NA,NA,1027.9,"METAR KALB 091651Z 00000KT 10SM FEW046 FEW250 21/09 A3035 RMK AO2 SLP275 T02110089",2025-09-09 17:41:36.208695,2025-09-09 13:41:36.208741
"KBDL","Hartford/Bradley Intl, CT, US",2025-09-09 16:51:00,2025-09-09 12:51:00,"VFR",21.7,7.8,120,7,NA,NA,1027.9,"METAR KBDL 091651Z 12007KT 10SM FEW050 FEW250 22/08 A3035 RMK AO2 SLP277 T02170078 $",2025-09-09 17:41:36.215219,2025-09-09 13:41:36.215263
"KBED","Bedford/Hanscom Fld, MA, US",2025-09-09 16:51:00,2025-09-09 12:51:00,"VFR",22.2,8.3,110,8,NA,NA,1028.2,"METAR KBED 091651Z 11008KT 090V170 10SM CLR 22/08 A3036 RMK AO2 SLP293 T02220083 $",2025-09-09 17:41:36.223289,2025-09-09 13:41:36.223333
"KLGA","New York/La Guardia Arpt, NY, US",2025-09-09 16:51:00,2025-09-09 12:51:00,"VFR",21.1,10.6,40,15,NA,NA,1026.8,"METAR KLGA 091651Z 04015KT 10SM FEW028 SCT250 21/11 A3032 RMK AO2 SLP266 T02110106",2025-09-09 17:41:36.229983,2025-09-09 13:41:36.23003
"KJFK","New York/JF Kennedy Intl, NY, US",2025-09-09 16:51:00,2025-09-09 12:51:00,"VFR",22.2,11.1,130,10,16,NA,1026.8,"METAR KJFK 091651Z 13010G16KT 10SM FEW028 SCT050 BKN250 22/11 A3032 RMK AO2 SLP265 T02220111 $",2025-09-09 17:41:36.236585,2025-09-09 13:41:36.236654
"KPIT","Pittsburgh Intl, PA, US",2025-09-09 16:51:00,2025-09-09 12:51:00,"VFR",21.1,5.6,NA,6,NA,NA,1025.1,"METAR KPIT 091651Z COR VRB06KT 10SM FEW250 21/06 A3027 RMK AO2 SLP254 T02110056 $",2025-09-09 17:41:36.243322,2025-09-09 13:41:36.243367
"KEWR","Newark Intl, NJ, US",2025-09-09 16:51:00,2025-09-09 12:51:00,"VFR",22.8,10,NA,5,NA,NA,1026.8,"METAR KEWR 091651Z VRB05KT 10SM FEW040 SCT250 23/10 A3032 RMK AO2 SLP265 T02280100 $",2025-09-09 17:41:36.249964,2025-09-09 13:41:36.250009
"KSWF","Newburgh/Stewart Intl, NY, US",2025-09-09 16:45:00,2025-09-09 12:45:00,"VFR",22,11,110,7,NA,NA,1027.5,"METAR KSWF 091645Z 11007KT 10SM FEW050 22/11 A3034",2025-09-09 17:41:36.25886,2025-09-09 13:41:36.258906
"KLNK","Lincoln Arpt, NE, US",2025-09-09 17:36:00,2025-09-09 13:36:00,"VFR",22.8,16.1,190,9,NA,NA,1015.7,"SPECI KLNK 091736Z 19009KT 10SM SCT029 BKN040 23/16 A2999 RMK AO2 T02280161",2025-09-09 17:41:37.480105,2025-09-09 13:41:37.480147
"KMIA","Miami Intl, FL, US",2025-09-09 17:34:00,2025-09-09 13:34:00,"LIFR",24.4,23.9,290,9,NA,0.25,1015.7,"SPECI KMIA 091734Z 29009KT 1/4SM +TSRA FG VV006 24/24 A2999 RMK AO2 RAB05 FRQ LTGICCG OHD TS OHD MOV NE P0096 T02440239 RVRNO $",2025-09-09 17:41:37.48666,2025-09-09 13:41:37.486707
"KFSD","Sioux Falls/Foss Fld, SD, US",2025-09-09 17:15:00,2025-09-09 13:15:00,"MVFR",18.9,16.7,190,11,NA,NA,1015.3,"SPECI KFSD 091715Z 19011KT 10SM BKN011 19/17 A2998 RMK AO2 T01890167",2025-09-09 17:41:37.493104,2025-09-09 13:41:37.493148
"KDAY","Dayton/Cox Intl, OH, US",2025-09-09 16:56:00,2025-09-09 12:56:00,"VFR",22.2,5,100,4,NA,NA,1023.8,"METAR KDAY 091656Z 10004KT 10SM FEW250 22/05 A3023 RMK AO2 SLP233 T02220050",2025-09-09 17:41:37.499672,2025-09-09 13:41:37.499722
"KSDF","Louisville Intl, KY, US",2025-09-09 16:56:00,2025-09-09 12:56:00,"VFR",23.9,7.8,NA,4,NA,NA,1022.1,"METAR KSDF 091656Z VRB04KT 10SM FEW055 FEW350 24/08 A3018 RMK AO2 SLP216 T02390078",2025-09-09 17:41:37.506312,2025-09-09 13:41:37.506358
"KCHS","Charleston Intl, SC, US",2025-09-09 16:56:00,2025-09-09 12:56:00,"VFR",25,13.3,30,12,21,NA,1019.7,"METAR KCHS 091656Z 03012G21KT 10SM SCT180 BKN250 25/13 A3011 RMK AO2 SLP195 T02500133",2025-09-09 17:41:37.515144,2025-09-09 13:41:37.515188
"KJAX","Jacksonville Intl, FL, US",2025-09-09 16:56:00,2025-09-09 12:56:00,"MVFR",26.1,22.8,40,17,24,NA,1017,"METAR KJAX 091656Z 04017G24KT 10SM FEW008 BKN014 BKN110 26/23 A3003 RMK AO2 RAE34 SLP169 P0001 T02610228 $",2025-09-09 17:41:37.521754,2025-09-09 13:41:37.5218
"KFWA","Fort Wayne Intl, IN, US",2025-09-09 16:54:00,2025-09-09 12:54:00,"VFR",23.3,7.2,220,7,NA,NA,1023.5,"METAR KFWA 091654Z 22007KT 10SM BKN250 23/07 A3022 RMK AO2 SLP232 T02330072",2025-09-09 17:41:37.528296,2025-09-09 13:41:37.52834
"KMEM","Memphis Intl, TN, US",2025-09-09 16:54:00,2025-09-09 12:54:00,"VFR",27.8,17.8,210,8,NA,NA,1019.4,"METAR KMEM 091654Z 21008KT 10SM SCT033 28/18 A3010 RMK AO2 SLP188 T02780178 $",2025-09-09 17:41:37.534796,2025-09-09 13:41:37.53484
"KGSO","Greensboro Intl, NC, US",2025-09-09 16:54:00,2025-09-09 12:54:00,"VFR",21.1,8.3,60,14,19,NA,1023.5,"METAR KGSO 091654Z 06014G19KT 10SM FEW060 FEW250 21/08 A3022 RMK AO2 SLP228 T02110083",2025-09-09 17:41:37.541283,2025-09-09 13:41:37.541329
"KIND","Indianapolis Intl, IN, US",2025-09-09 16:54:00,2025-09-09 12:54:00,"VFR",22.8,7.2,190,8,NA,NA,1022.8,"METAR KIND 091654Z 19008KT 10SM BKN250 23/07 A3020 RMK AO2 SLP222 T02280072",2025-09-09 17:41:37.547804,2025-09-09 13:41:37.547849
"KSBN","South Bend Rgnl, IN, US",2025-09-09 16:54:00,2025-09-09 12:54:00,"VFR",21.7,7.2,210,9,NA,NA,1023.1,"METAR KSBN 091654Z 21009KT 10SM CLR 22/07 A3021 RMK AO2 SLP229 T02170072",2025-09-09 17:41:37.554362,2025-09-09 13:41:37.554406
"KDSM","Des Moines Intl, IA, US",2025-09-09 16:54:00,2025-09-09 12:54:00,"VFR",18.3,10.6,NA,6,NA,NA,1018.7,"METAR KDSM 091654Z VRB06KT 10SM FEW080 FEW110 SCT150 BKN210 OVC250 18/11 A3008 RMK AO2 SLP181 PRESENT WX VCSH T01830106",2025-09-09 17:41:37.560934,2025-09-09 13:41:37.560978
"KBNA","Nashville Intl, TN, US",2025-09-09 16:53:00,2025-09-09 12:53:00,"VFR",26.7,13.9,NA,6,NA,NA,1021.8,"METAR KBNA 091653Z VRB06KT 10SM FEW040 SCT070 SCT250 27/14 A3017 RMK AO2 SLP210 T02670139 $",2025-09-09 17:41:37.569725,2025-09-09 13:41:37.56977
"KMCO","Orlando Intl, FL, US",2025-09-09 16:53:00,2025-09-09 12:53:00,"VFR",29.4,23.3,70,5,NA,NA,1014.6,"METAR KMCO 091653Z 07005KT 10SM SCT025 BKN160 29/23 A2996 RMK AO2 SLP144 T02940233 $",2025-09-09 17:41:37.576281,2025-09-09 13:41:37.576325
"KMSP","Minneapolis-St Paul Intl, MN, US",2025-09-09 16:53:00,2025-09-09 12:53:00,"MVFR",20,13.9,210,7,NA,NA,1015.3,"METAR KMSP 091653Z 21007KT 10SM OVC025 20/14 A2998 RMK AO2 SLP150 T02000139",2025-09-09 17:41:37.582817,2025-09-09 13:41:37.582863
"KMCI","Kansas City Intl, MO, US",2025-09-09 16:53:00,2025-09-09 12:53:00,"VFR",17.2,14.4,180,13,NA,NA,1017.4,"METAR KMCI 091653Z 18013KT 10SM FEW010 BKN120 BKN250 17/14 A3004 RMK AO2 RAE03 SLP168 P0001 T01720144 $",2025-09-09 17:41:37.589334,2025-09-09 13:41:37.589379
"KFLL","Ft Lauderdale-Hollywood Intl, FL, US",2025-09-09 16:53:00,2025-09-09 12:53:00,"VFR",26.7,23.9,60,7,NA,NA,1014.6,"METAR KFLL 091653Z 06007KT 10SM -TSRA SCT025CB BKN045 BKN065 BKN250 27/24 A2996 RMK AO2 RAB37 SLP144 OCNL LTGICCG N-E AND SW-W MOV NE P0001 T02670239",2025-09-09 17:41:37.595814,2025-09-09 13:41:37.595857
"KGRR","Grand Rapids Intl, MI, US",2025-09-09 16:53:00,2025-09-09 12:53:00,"VFR",21.1,6.1,230,6,15,NA,1023.1,"METAR KGRR 091653Z 23006G15KT 10SM FEW055 BKN250 21/06 A3021 RMK AO2 SLP230 T02110061 $",2025-09-09 17:41:37.60226,2025-09-09 13:41:37.602304
"KTPA","Tampa Intl Arpt, FL, US",2025-09-09 16:53:00,2025-09-09 12:53:00,"VFR",27.8,23.9,60,5,NA,NA,1015,"METAR KTPA 091653Z 06005KT 10SM FEW010 FEW049 SCT110 28/24 A2997 RMK AO2 SLP148 T02780239",2025-09-09 17:41:37.608726,2025-09-09 13:41:37.60877
"KHSV","Huntsville Intl, AL, US",2025-09-09 16:53:00,2025-09-09 12:53:00,"VFR",25,13.3,110,7,NA,NA,1021.4,"METAR KHSV 091653Z 11007KT 10SM FEW049 25/13 A3016 RMK AO2 SLP207 T02500133 $",2025-09-09 17:41:37.615221,2025-09-09 13:41:37.615264
"KPBI","Palm Beach Intl, FL, US",2025-09-09 16:53:00,2025-09-09 12:53:00,"VFR",31.1,23.9,340,3,NA,NA,1014.6,"METAR KPBI 091653Z COR 34003KT 10SM SCT031 BKN055 BKN250 31/24 A2996 RMK AO2 SLP144 OCNL LTGICCG DSNT E S CB DSNT E S T03110239 $",2025-09-09 17:41:37.624218,2025-09-09 13:41:37.624261
"KRSW","Ft Myers/SW Florida Intl, FL, US",2025-09-09 16:53:00,2025-09-09 12:53:00,"VFR",30.6,25.6,160,6,NA,NA,1013.6,"METAR KRSW 091653Z 16006KT 10SM SCT021 31/26 A2993 RMK AO1 LTG DSNT S SLP133 T03060256",2025-09-09 17:41:37.630709,2025-09-09 13:41:37.630757
"KMYR","Myrtle Beach Intl, SC, US",2025-09-09 16:53:00,2025-09-09 12:53:00,"VFR",23.9,16.7,360,12,NA,NA,1020.1,"METAR KMYR 091653Z 36012KT 10SM CLR 24/17 A3012 RMK AO2 SLP199 T02390167 $",2025-09-09 17:41:37.637333,2025-09-09 13:41:37.637377
"KDTW","Detroit/Metro Wayne Cnty, MI, US",2025-09-09 16:53:00,2025-09-09 12:53:00,"VFR",22.2,7.2,210,8,NA,NA,1024.1,"METAR KDTW 091653Z 21008KT 10SM FEW060 FEW250 22/07 A3024 RMK AO2 SLP239 T02220072 $",2025-09-09 17:41:37.643858,2025-09-09 13:41:37.643903
"KEYW","Key West Intl, FL, US",2025-09-09 16:53:00,2025-09-09 12:53:00,"VFR",31.1,26.1,200,9,NA,NA,1014.6,"METAR KEYW 091653Z 20009KT 10SM SCT025 31/26 A2996 RMK AO2 SLP151 T03110261",2025-09-09 17:41:37.650355,2025-09-09 13:41:37.650397
"KBHM","Birmingham Intl, AL, US",2025-09-09 16:53:00,2025-09-09 12:53:00,"VFR",26.7,12.2,100,6,16,NA,1021.8,"METAR KBHM 091653Z 10006G16KT 10SM FEW055 FEW110 FEW250 27/12 A3017 RMK AO2 SLP208 T02670122",2025-09-09 17:41:37.656857,2025-09-09 13:41:37.6569
"KSAV","Savannah Intl, GA, US",2025-09-09 16:53:00,2025-09-09 12:53:00,"VFR",27.2,15.6,30,9,NA,NA,1019.4,"METAR KSAV 091653Z 03009KT 10SM BKN250 27/16 A3010 RMK AO2 SLP192 T02720156",2025-09-09 17:41:37.663317,2025-09-09 13:41:37.663361
"KLIT","Little Rock/Clinton Natl, AR, US",2025-09-09 16:53:00,2025-09-09 12:53:00,"VFR",25,13.9,330,3,NA,NA,1019.4,"METAR KLIT 091653Z 33003KT 10SM CLR 25/14 A3010 RMK AO2 SLP194 T02500139",2025-09-09 17:41:37.669858,2025-09-09 13:41:37.669905
"KMDW","Chicago/Midway Intl, IL, US",2025-09-09 16:53:00,2025-09-09 12:53:00,"VFR",23.3,6.1,210,9,NA,NA,1021.8,"METAR KMDW 091653Z 21009KT 10SM BKN250 23/06 A3017 RMK AO2 SLP212 T02330061 $",2025-09-09 17:41:37.676945,2025-09-09 13:41:37.676989
"KATL","Atlanta/Hartsfield-Jackson Intl, GA, US",2025-09-09 16:52:00,2025-09-09 12:52:00,"VFR",24.4,12.2,60,7,18,NA,1022.1,"METAR KATL 091652Z 06007G18KT 10SM FEW070 FEW200 FEW250 24/12 A3018 RMK SLP212 T02440122",2025-09-09 17:41:37.685569,2025-09-09 13:41:37.685612
"KMLI","Moline/Quad City Intl, IL, US",2025-09-09 16:52:00,2025-09-09 12:52:00,"VFR",23.3,9.4,180,10,NA,NA,1019.7,"METAR KMLI 091652Z 18010KT 10SM CLR 23/09 A3011 RMK AO2 SLP195 T02330094",2025-09-09 17:41:37.69216,2025-09-09 13:41:37.692204
"KCVG","Cincinnati Intl, KY, US",2025-09-09 16:52:00,2025-09-09 12:52:00,"VFR",23.3,8.3,160,5,NA,NA,1023.1,"METAR KCVG 091652Z 16005KT 10SM FEW060 FEW250 23/08 A3021 RMK AO2 SLP221 T02330083",2025-09-09 17:41:37.698736,2025-09-09 13:41:37.698781
"KCLT","Charlotte/Douglas Intl, NC, US",2025-09-09 16:52:00,2025-09-09 12:52:00,"VFR",22.8,8.3,30,10,18,NA,1023.1,"METAR KCLT 091652Z 03010G18KT 10SM FEW045 FEW250 23/08 A3021 RMK SLP240 T02280083 $",2025-09-09 17:41:37.705306,2025-09-09 13:41:37.705352
"KOMA","Omaha/Eppley Fld, NE, US",2025-09-09 16:52:00,2025-09-09 12:52:00,"VFR",22.2,16.1,210,10,NA,NA,1016.3,"METAR KOMA 091652Z 21010KT 10SM SCT024 SCT050 BKN080 22/16 A3001 RMK AO2 SLP157 T02220161",2025-09-09 17:41:37.711822,2025-09-09 13:41:37.711869
"KRDU","Raleigh-Durham Intl, NC, US",2025-09-09 16:51:00,2025-09-09 12:51:00,"VFR",22.2,12.8,50,10,20,NA,1022.8,"METAR KRDU 091651Z 05010G20KT 10SM SCT035 SCT250 22/13 A3020 RMK AO2 SLP223 T02220128",2025-09-09 17:41:37.718478,2025-09-09 13:41:37.718522
"KCLE","Cleveland/Hopkins Intl, OH, US",2025-09-09 16:51:00,2025-09-09 12:51:00,"VFR",22.8,5.6,150,7,NA,NA,1023.8,"METAR KCLE 091651Z 15007KT 120V180 10SM CLR 23/06 A3023 RMK AO2 SLP249 T02280056",2025-09-09 17:41:37.724939,2025-09-09 13:41:37.724984
"KCMH","Columbus/Glenn Intl, OH, US",2025-09-09 16:51:00,2025-09-09 12:51:00,"VFR",22.2,7.2,NA,6,NA,NA,1023.8,"METAR KCMH 091651Z VRB06KT 10SM FEW036 SCT250 22/07 A3023 RMK AO2 SLP235 T02220072",2025-09-09 17:41:37.731518,2025-09-09 13:41:37.731561
"KORD","Chicago/O'Hare Intl, IL, US",2025-09-09 16:51:00,2025-09-09 12:51:00,"VFR",20.6,6.1,240,7,NA,NA,1021.8,"METAR KORD 091651Z 24007KT 10SM BKN250 21/06 A3017 RMK AO2 SLP214 T02060061",2025-09-09 17:41:37.740266,2025-09-09 13:41:37.74031
"KSTL","St Louis/Lambert Intl, MO, US",2025-09-09 16:51:00,2025-09-09 12:51:00,"VFR",25,8.3,180,4,NA,NA,1020.4,"METAR KSTL 091651Z 18004KT 10SM FEW150 FEW200 SCT250 25/08 A3013 RMK AO2 SLP197 T02500083",2025-09-09 17:41:37.746854,2025-09-09 13:41:37.746899
"KGJT","Grand Junction Rgnl, CO, US",2025-09-09 17:27:00,2025-09-09 13:27:00,"VFR",23.9,7.2,250,11,NA,9,1018,"SPECI KGJT 091727Z 25011KT 9SM -TSRA FEW070 SCT100 BKN120 24/07 A3006 RMK AO2 RAB22 TSB21 P0000 T02390072",2025-09-09 17:41:38.943173,2025-09-09 13:41:38.943217
"KLRD","Laredo Intl, TX, US",2025-09-09 16:56:00,2025-09-09 12:56:00,"VFR",30.6,20,NA,3,NA,NA,1016.7,"METAR KLRD 091656Z VRB03KT 10SM FEW043 SCT050 31/20 A3002 RMK AO2 SLP161 T03060200 $",2025-09-09 17:41:38.949864,2025-09-09 13:41:38.949908
"KEGE","Eagle Cnty Rgnl, CO, US",2025-09-09 16:56:00,2025-09-09 12:56:00,"VFR",17.2,2.2,200,4,NA,NA,1025.1,"METAR KEGE 091656Z 20004KT 10SM CLR 17/02 A3027 RMK AO2 SLP180 T01720022 $",2025-09-09 17:41:38.956404,2025-09-09 13:41:38.956448
"KBZN","Bozeman/Gallatin Fld, MT, US",2025-09-09 16:56:00,2025-09-09 12:56:00,"VFR",18.3,5.6,310,4,NA,NA,1017.7,"METAR KBZN 091656Z 31004KT 10SM CLR 18/06 A3005 RMK AO2 SLP144 T01830056",2025-09-09 17:41:38.962999,2025-09-09 13:41:38.963044
"KCOS","Colorado Spring Arpt, CO, US",2025-09-09 16:54:00,2025-09-09 12:54:00,"VFR",24.4,4.4,220,6,NA,NA,1022.1,"METAR KCOS 091654Z 22006KT 10SM SCT110 SCT250 24/04 A3018 RMK AO2 SLP132 T02440044 $",2025-09-09 17:41:38.971926,2025-09-09 13:41:38.971969
"KSLC","Salt Lake City Intl, UT, US",2025-09-09 16:54:00,2025-09-09 12:54:00,"VFR",27.8,6.1,170,14,24,NA,1014.6,"METAR KSLC 091654Z 17014G24KT 10SM FEW095 FEW130 BKN230 28/06 A2996 RMK AO2 PK WND 16026/1610 SLP088 T02780061 $",2025-09-09 17:41:38.978498,2025-09-09 13:41:38.978542
"KEUG","Eugene/Mahlon Sweet Fld, OR, US",2025-09-09 16:54:00,2025-09-09 12:54:00,"VFR",18.3,14.4,160,4,NA,NA,1014.3,"METAR KEUG 091654Z 16004KT 10SM BKN033 BKN042 OVC080 18/14 A2995 RMK AO2 SLP140 T01830144",2025-09-09 17:41:38.985082,2025-09-09 13:41:38.985126
"KSEA","Seattle-Tacoma Intl, WA, US",2025-09-09 16:53:00,2025-09-09 12:53:00,"VFR",18.3,13.9,10,5,NA,NA,1015,"METAR KSEA 091653Z 01005KT 10SM SCT012 BKN038 OVC100 18/14 A2997 RMK AO2 SLP154 T01830139 $",2025-09-09 17:41:38.991868,2025-09-09 13:41:38.991912
"KDFW","Dallas-Ft Worth Intl, TX, US",2025-09-09 16:53:00,2025-09-09 12:53:00,"VFR",26.1,13.3,170,7,NA,NA,1018,"METAR KDFW 091653Z 17007KT 10SM CLR 26/13 A3006 RMK AO2 SLP173 T02610133 $",2025-09-09 17:41:38.998427,2025-09-09 13:41:38.998471
"KDAL","Dallas/Love Fld, TX, US",2025-09-09 16:53:00,2025-09-09 12:53:00,"VFR",25.6,13.3,180,5,NA,NA,1018.7,"METAR KDAL 091653Z COR 18005KT 10SM CLR 26/13 A3008 RMK AO2 SLP178 T02560133",2025-09-09 17:41:39.005055,2025-09-09 13:41:39.005099
"KLBB","Lubbock Intl Arpt, TX, US",2025-09-09 16:53:00,2025-09-09 12:53:00,"VFR",27.8,18.3,170,7,NA,NA,1019,"METAR KLBB 091653Z 17007KT 10SM FEW075 FEW100 28/18 A3009 RMK AO2 SLP136 ACC DSNT E-SE T02780183",2025-09-09 17:41:39.011528,2025-09-09 13:41:39.011575
"KAUS","Austin/Bergstrom Intl, TX, US",2025-09-09 16:53:00,2025-09-09 12:53:00,"VFR",28.3,13.3,150,4,NA,NA,1017.7,"METAR KAUS 091653Z 15004KT 10SM CLR 28/13 A3005 RMK AO2 SLP168 T02830133",2025-09-09 17:41:39.018096,2025-09-09 13:41:39.01814
"KPUB","Pueblo Mem Arpt, CO, US",2025-09-09 16:53:00,2025-09-09 12:53:00,"VFR",27.2,6.7,NA,6,NA,NA,1018.7,"METAR KPUB 091653Z VRB06KT 10SM CLR 27/07 A3008 RMK AO2 SLP119 T02720067",2025-09-09 17:41:39.026977,2025-09-09 13:41:39.02702
"KTUL","Tulsa Intl Arpt, OK, US",2025-09-09 16:53:00,2025-09-09 12:53:00,"VFR",25.6,12.2,170,11,NA,NA,1018.4,"METAR KTUL 091653Z 17011KT 10SM BKN070 BKN090 26/12 A3007 RMK AO2 SLP176 T02560122",2025-09-09 17:41:39.033428,2025-09-09 13:41:39.033473
"KMFE","McAllen/Miller Intl, TX, US",2025-09-09 16:53:00,2025-09-09 12:53:00,"VFR",31.7,22.8,40,8,NA,NA,1015.3,"METAR KMFE 091653Z 04008KT 10SM FEW032 SCT050 BKN060 32/23 A2998 RMK AO2 SLP149 T03170228 $",2025-09-09 17:41:39.040028,2025-09-09 13:41:39.040072
"KMFR","Medford/Rogue Valley Intl, OR, US",2025-09-09 16:53:00,2025-09-09 12:53:00,"MVFR",17.2,13.9,0,0,NA,NA,1014.6,"METAR KMFR 091653Z 00000KT 10SM FEW011 BKN023 BKN090 17/14 A2996 RMK AO2 SLP138 T01720139 $",2025-09-09 17:41:39.046523,2025-09-09 13:41:39.046567
"KIDA","Idaho Falls Rgnl, ID, US",2025-09-09 16:53:00,2025-09-09 12:53:00,"VFR",22.2,6.7,190,3,NA,NA,1016.7,"METAR KIDA 091653Z 19003KT 10SM CLR 22/07 A3002 RMK AO2 SLP130 T02220067",2025-09-09 17:41:39.053114,2025-09-09 13:41:39.053167
"KICT","Wichita/Eisenhower Arpt, KS, US",2025-09-09 16:53:00,2025-09-09 12:53:00,"VFR",23.3,15,190,11,16,NA,1016.3,"METAR KICT 091653Z 19011G16KT 10SM SCT120 SCT150 BKN190 BKN250 23/15 A3001 RMK AO2 SLP153 ACC OHD T02330150 $",2025-09-09 17:41:39.059698,2025-09-09 13:41:39.059742
"KHOU","Houston/Hobby Arpt, TX, US",2025-09-09 16:53:00,2025-09-09 12:53:00,"VFR",28.3,13.9,50,6,NA,NA,1017,"METAR KHOU 091653Z 05006KT 10SM CLR 28/14 A3003 RMK AO2 SLP174 T02830139",2025-09-09 17:41:39.066155,2025-09-09 13:41:39.066199
"KDEN","Denver Intl, CO, US",2025-09-09 16:53:00,2025-09-09 12:53:00,"VFR",25,4.4,260,3,NA,NA,1019.7,"METAR KDEN 091653Z 26003KT 10SM FEW080 FEW100 SCT140 BKN220 25/04 A3011 RMK AO2 SLP117 T02500044",2025-09-09 17:41:39.072782,2025-09-09 13:41:39.072828
"KAFW","Fort Worth/Alliance Arpt, TX, US",2025-09-09 16:53:00,2025-09-09 12:53:00,"VFR",26.7,13.9,140,8,NA,NA,1018.4,"METAR KAFW 091653Z 14008KT 10SM CLR 27/14 A3007 RMK AO2 SLP170 T02670139",2025-09-09 17:41:39.0817,2025-09-09 13:41:39.081758
"KASE","Aspen/Pitkin Cnty, CO, US",2025-09-09 16:53:00,2025-09-09 12:53:00,"VFR",19.4,2.8,360,4,NA,NA,1025.8,"METAR KASE 091653Z 36004KT 10SM FEW090 19/03 A3029 RMK AO2 RAB10E24 SLP141 P0000 T01940028",2025-09-09 17:41:39.088285,2025-09-09 13:41:39.088329
"KBRO","Brownsville Intl, TX, US",2025-09-09 16:53:00,2025-09-09 12:53:00,"VFR",31.7,25,40,11,18,NA,1014.3,"METAR KBRO 091653Z 04011G18KT 10SM FEW025 SCT070 32/25 A2995 RMK AO2 SLP142 T03170250",2025-09-09 17:41:39.094911,2025-09-09 13:41:39.094956
"KBIL","Billings/Logan Intl, MT, US",2025-09-09 16:53:00,2025-09-09 12:53:00,"VFR",20.6,7.2,0,0,NA,NA,1017,"METAR KBIL 091653Z 00000KT 10SM FEW240 21/07 A3003 RMK AO2 SLP141 T02060072",2025-09-09 17:41:39.101493,2025-09-09 13:41:39.101539
"KHLN","Helena Rgnl, MT, US",2025-09-09 16:53:00,2025-09-09 12:53:00,"VFR",17.2,6.7,NA,4,NA,NA,1016.3,"METAR KHLN 091653Z VRB04KT 10SM CLR 17/07 A3001 RMK AO2 SLP156 T01720067",2025-09-09 17:41:39.108108,2025-09-09 13:41:39.108152
"KIAH","Houston/Bush Intl, TX, US",2025-09-09 16:53:00,2025-09-09 12:53:00,"VFR",27.8,13.3,30,7,NA,NA,1017.7,"METAR KIAH 091653Z 03007KT 10SM CLR 28/13 A3005 RMK AO2 SLP174 T02780133",2025-09-09 17:41:39.114661,2025-09-09 13:41:39.114712
"KLAW","Lawton-Fort Sill Rgnl, OK, US",2025-09-09 16:53:00,2025-09-09 12:53:00,"VFR",27.2,12.8,190,10,17,NA,1017.7,"METAR KLAW 091653Z 19010G17KT 10SM CLR 27/13 A3005 RMK AO2 SLP165 T02720128",2025-09-09 17:41:39.121158,2025-09-09 13:41:39.121202
"KGTF","Great Falls Intl, MT, US",2025-09-09 16:53:00,2025-09-09 12:53:00,"VFR",21.7,6.7,80,4,NA,NA,1016,"METAR KGTF 091653Z 08004KT 10SM CLR 22/07 A3000 RMK AO2 SLP127 T02170067 $",2025-09-09 17:41:39.127678,2025-09-09 13:41:39.127725
"KAMA","Amarillo Intl Arpt, TX, US",2025-09-09 16:53:00,2025-09-09 12:53:00,"VFR",27.8,16.1,220,12,NA,NA,1018.7,"METAR KAMA 091653Z 22012KT 10SM CLR 28/16 A3008 RMK AO2 SLP131 T02780161",2025-09-09 17:41:39.13422,2025-09-09 13:41:39.134266
"KBFI","Seattle/Boeing Fld, WA, US",2025-09-09 16:53:00,2025-09-09 12:53:00,"VFR",17.2,13.9,NA,3,NA,NA,1014.6,"METAR KBFI 091653Z VRB03KT 10SM SCT015 OVC043 17/14 A2996 RMK AO2 SLP146 T01720139",2025-09-09 17:41:39.143094,2025-09-09 13:41:39.143138
"KBOI","Boise Arpt, ID, US",2025-09-09 16:53:00,2025-09-09 12:53:00,"VFR",22.8,4.4,330,9,NA,NA,1012.6,"METAR KBOI 091653Z 33009KT 10SM CLR 23/04 A2990 RMK AO2 SLP100 T02280044",2025-09-09 17:41:39.149748,2025-09-09 13:41:39.149796
"KGEG","Spokane Intl, WA, US",2025-09-09 16:53:00,2025-09-09 12:53:00,"VFR",21.7,10,40,6,NA,NA,1013.6,"METAR KGEG 091653Z 04006KT 10SM FEW120 FEW150 FEW300 22/10 A2993 RMK AO2 SLP118 CB DSNT N-NE AND NW MOV N T02170100 $",2025-09-09 17:41:39.156343,2025-09-09 13:41:39.156386
"KPDX","Portland Intl, OR, US",2025-09-09 16:53:00,2025-09-09 12:53:00,"VFR",18.9,13.3,350,3,NA,NA,1014.3,"METAR KPDX 091653Z 35003KT 10SM FEW025 BKN110 BKN250 19/13 A2995 RMK AO2 SLP139 T01890133",2025-09-09 17:41:39.16287,2025-09-09 13:41:39.162915
"KMSO","Missoula Intl, MT, US",2025-09-09 16:53:00,2025-09-09 12:53:00,"VFR",15,7.8,160,3,NA,NA,1016,"METAR KMSO 091653Z 16003KT 10SM CLR 15/08 A3000 RMK AO2 SLP149 T01500078",2025-09-09 17:41:39.169356,2025-09-09 13:41:39.169399
"KHRL","Harlingen/Valley Intl, TX, US",2025-09-09 16:52:00,2025-09-09 12:52:00,"VFR",31.1,24.4,60,9,NA,NA,1014.6,"METAR KHRL 091652Z 06009KT 10SM SCT060 SCT070 31/24 A2996 RMK AO2 SLP143 T03110244",2025-09-09 17:41:39.175895,2025-09-09 13:41:39.175939
"KABI","Abilene Rgnl, TX, US",2025-09-09 16:52:00,2025-09-09 12:52:00,"VFR",28.3,16.1,210,9,NA,NA,1018.7,"METAR KABI 091652Z 21009KT 10SM CLR 28/16 A3008 RMK AO2 SLP159 T02830161",2025-09-09 17:41:39.182344,2025-09-09 13:41:39.182388
"KOKC","Oklahoma City/Will Rogers Intl, OK, US",2025-09-09 16:52:00,2025-09-09 12:52:00,"VFR",25.6,12.8,180,15,NA,NA,1017.7,"METAR KOKC 091652Z 18015KT 10SM FEW100 SCT250 26/13 A3005 RMK AO2 SLP163 T02560128",2025-09-09 17:41:39.188935,2025-09-09 13:41:39.188981
"KELP","El Paso Intl, TX, US",2025-09-09 16:51:00,2025-09-09 12:51:00,"VFR",30,12.8,180,6,NA,NA,1019,"METAR KELP 091651Z 18006KT 10SM FEW065 FEW110 30/13 A3009 RMK AO2 SLP107 T03000128",2025-09-09 17:41:39.197668,2025-09-09 13:41:39.197716
"KACT","Waco Rgnl, TX, US",2025-09-09 16:51:00,2025-09-09 12:51:00,"VFR",26.7,15.6,NA,NA,NA,NA,1018.7,"METAR KACT 091651Z 10SM CLR 27/16 A3008 RMK AO2 SLP179 T02670156",2025-09-09 17:41:39.204177,2025-09-09 13:41:39.204232
"KSAT","San Antonio Intl, TX, US",2025-09-09 16:51:00,2025-09-09 12:51:00,"VFR",27.8,14.4,90,5,NA,NA,1018,"METAR KSAT 091651Z 09005KT 10SM CLR 28/14 A3006 RMK AO2 SLP160 T02780144",2025-09-09 17:41:39.210994,2025-09-09 13:41:39.211038
"KLAX","Los Angeles Intl, CA, US",2025-09-09 17:36:00,2025-09-09 13:36:00,"VFR",22.8,15.6,150,5,NA,NA,1014.3,"SPECI KLAX 091736Z 15005KT 10SM FEW009 FEW018 SCT023 23/16 A2995 RMK AO2 T02280156 $",2025-09-09 17:41:40.402228,2025-09-09 13:41:40.402272
"KSFO","San Francisco Intl, CA, US",2025-09-09 17:29:00,2025-09-09 13:29:00,"VFR",20,17.2,170,4,NA,NA,1014.3,"SPECI KSFO 091729Z 17004KT 10SM FEW006 SCT024 BKN042 20/17 A2995 RMK AO2 RAB08E22 P0000 T02000172 $",2025-09-09 17:41:40.408814,2025-09-09 13:41:40.408856
"KSTS","Santa Rosa/Schulz Arpt, CA, US",2025-09-09 17:27:00,2025-09-09 13:27:00,"MVFR",19.4,16.7,0,0,NA,NA,1014,"SPECI KSTS 091727Z 00000KT 10SM BKN017 OVC050 19/17 A2994 RMK AO2 T01940167",2025-09-09 17:41:40.415268,2025-09-09 13:41:40.415312
"KOAK","Oakland Intl, CA, US",2025-09-09 17:10:00,2025-09-09 13:10:00,"MVFR",19.4,16.7,160,7,NA,NA,1014.6,"SPECI KOAK 091710Z 16007KT 10SM FEW019 BKN027 BKN037 BKN250 19/17 A2996 RMK AO2 T01940167",2025-09-09 17:41:40.421836,2025-09-09 13:41:40.42188
"KSAN","San Diego Intl Arpt, CA, US",2025-09-09 16:57:00,2025-09-09 12:57:00,"VFR",21.7,15,NA,4,NA,NA,1015.3,"SPECI KSAN 091657Z VRB04KT 10SM SCT021 22/15 A2998 RMK AO2 T02170150",2025-09-09 17:41:40.430827,2025-09-09 13:41:40.430877
"KRNO","Reno/Tahoe Intl, NV, US",2025-09-09 16:55:00,2025-09-09 12:55:00,"VFR",16.1,4.4,0,0,NA,NA,1017,"METAR KRNO 091655Z 00000KT 10SM FEW070 BKN200 16/04 A3003 RMK AO2 SLP127 T01610044",2025-09-09 17:41:40.437346,2025-09-09 13:41:40.43739
"PHOG","Kahului Arpt, HI, US",2025-09-09 16:54:00,2025-09-09 12:54:00,"VFR",24.4,20.6,30,3,NA,NA,1015.3,"METAR PHOG 091654Z 03003KT 10SM FEW030 SCT045 24/21 A2998 RMK AO2 SLP155 T02440206",2025-09-09 17:41:40.443932,2025-09-09 13:41:40.443979
"KPSP","Palm Springs Intl, CA, US",2025-09-09 16:53:00,2025-09-09 12:53:00,"VFR",32.8,3.9,0,0,NA,NA,1010.6,"METAR KPSP 091653Z 00000KT 10SM CLR 33/04 A2984 RMK AO2 SLP098 T03280039",2025-09-09 17:41:40.450468,2025-09-09 13:41:40.450512
"KSNA","Santa Ana/Wayne Arpt, CA, US",2025-09-09 16:53:00,2025-09-09 12:53:00,"MVFR",21.1,15.6,NA,4,NA,NA,1014.6,"METAR KSNA 091653Z VRB04KT 10SM BKN020 21/16 A2996 RMK AO2 SLP145 T02110156",2025-09-09 17:41:40.457027,2025-09-09 13:41:40.45707
"PHNL","Honolulu Intl, HI, US",2025-09-09 16:53:00,2025-09-09 12:53:00,"VFR",26.1,22.2,60,5,NA,NA,1015.3,"METAR PHNL 091653Z 06005KT 10SM FEW022 SCT035 26/22 A2998 RMK AO2 SLP152 VCSH N T02610222",2025-09-09 17:41:40.463676,2025-09-09 13:41:40.463725
"KONT","Ontario Intl, CA, US",2025-09-09 16:53:00,2025-09-09 12:53:00,"VFR",21.1,14.4,NA,4,NA,NA,1015,"METAR KONT 091653Z VRB04KT 10SM FEW010 21/14 A2997 RMK AO2 SLP135 T02110144 $",2025-09-09 17:41:40.470263,2025-09-09 13:41:40.470308
"KBUR","Burbank/Bob Hope Arpt, CA, US",2025-09-09 16:53:00,2025-09-09 12:53:00,"VFR",20.6,15,NA,5,NA,NA,1015,"METAR KBUR 091653Z VRB05KT 10SM FEW017 21/15 A2997 RMK AO2 SLP137 T02060150",2025-09-09 17:41:40.476973,2025-09-09 13:41:40.477017
"KLGB","Long Beach Arpt, CA, US",2025-09-09 16:53:00,2025-09-09 12:53:00,"MVFR",21.7,16.1,200,5,NA,NA,1014.6,"METAR KLGB 091653Z 20005KT 10SM OVC021 22/16 A2996 RMK AO2 SLP144 T02170161",2025-09-09 17:41:40.485521,2025-09-09 13:41:40.485563
"KTUS","Tucson Intl Arpt, AZ, US",2025-09-09 16:53:00,2025-09-09 12:53:00,"VFR",32.2,16.1,210,3,NA,NA,1015.7,"METAR KTUS 091653Z 21003KT 10SM CLR 32/16 A2999 RMK AO2 SLP100 T03220161",2025-09-09 17:41:40.49211,2025-09-09 13:41:40.492156
"KSAF","Santa Fe Cnty Muni, NM, US",2025-09-09 16:53:00,2025-09-09 12:53:00,"VFR",24.4,4.4,40,5,NA,NA,1024.1,"METAR KSAF 091653Z 04005KT 10SM CLR 24/04 A3024 RMK AO2 SLP143 T02440044",2025-09-09 17:41:40.498624,2025-09-09 13:41:40.498691
"KSBA","Santa Barbara Muni, CA, US",2025-09-09 16:53:00,2025-09-09 12:53:00,"VFR",20.6,17.2,140,9,NA,NA,1013.6,"METAR KSBA 091653Z 14009KT 10SM CLR 21/17 A2993 RMK AO2 SLP136 T02060172 $",2025-09-09 17:41:40.505144,2025-09-09 13:41:40.505187
"KSJC","San Jose Intl Arpt, CA, US",2025-09-09 16:53:00,2025-09-09 12:53:00,"MVFR",20.6,14.4,0,0,NA,NA,1014.6,"METAR KSJC 091653Z 00000KT 10SM -RA FEW010 BKN030 BKN045 21/14 A2996 RMK AO2 RAB46 SLP143 TCU DSNT SE AND NW P0000 T02060144",2025-09-09 17:41:40.51158,2025-09-09 13:41:40.511623
"KABQ","Albuquerque Intl, NM, US",2025-09-09 16:52:00,2025-09-09 12:52:00,"VFR",24.4,6.7,210,3,NA,NA,1022.8,"METAR KABQ 091652Z COR 21003KT 10SM FEW070 BKN120 24/07 A3020 RMK AO2 SLP136 T02440067 $",2025-09-09 17:41:40.518036,2025-09-09 13:41:40.51808
"KPHX","Phoenix/Sky Harbor Intl, AZ, US",2025-09-09 16:51:00,2025-09-09 12:51:00,"VFR",36.1,13.9,NA,4,NA,NA,1010.6,"METAR KPHX 091651Z VRB04KT 10SM FEW100 36/14 A2984 RMK AO2 SLP082 T03610139",2025-09-09 17:41:40.524525,2025-09-09 13:41:40.52457
"KSMO","Santa Monica Muni, CA, US",2025-09-09 16:51:00,2025-09-09 12:51:00,"MVFR",21.1,16.7,NA,4,NA,NA,1014.6,"METAR KSMO 091651Z VRB04KT 10SM OVC020 21/17 A2996 RMK AO2 SLP143 T02110167",2025-09-09 17:41:40.53109,2025-09-09 13:41:40.531134
"CYXS","Prince George Arpt, BC, CA",2025-09-09 17:38:00,2025-09-09 13:38:00,"VFR",16,11,200,5,NA,6,1014,"SPECI CYXS 091738Z AUTO 20005KT 6SM HZ CLR 16/11 A2994 RMK SLP149 DENSITY ALT 2900FT",2025-09-09 17:52:09.197505,2025-09-09 13:52:09.197551
"CYAT","Attawapisket Arpt, ON, CA",2025-09-09 17:09:00,2025-09-09 13:09:00,"MVFR",13,12,250,8,NA,9,1011.6,"SPECI CYAT 091709Z AUTO 25008KT 9SM BKN010 OVC050 13/12 A2987 RMK SLP117",2025-09-09 17:52:09.208377,2025-09-09 13:52:09.208421
"CYEG","Edmonton Intl Arpt, AB, CA",2025-09-09 17:00:00,2025-09-09 13:00:00,"VFR",20,11,170,7,NA,8,1011.9,"METAR CYEG 091700Z 17007KT 8SM SKC 20/11 A2988 RMK FU SLP122 DENSITY ALT 3600FT",2025-09-09 17:52:09.215106,2025-09-09 13:52:09.215172
"CYER","Ft Severn Arpt, ON, CA",2025-09-09 17:00:00,2025-09-09 13:00:00,"MVFR",9,5,10,6,NA,9,1016,"METAR CYER 091700Z AUTO 01006KT 350V070 9SM OVC019 09/05 A3000 RMK SLP163",2025-09-09 17:52:09.221627,2025-09-09 13:52:09.221671
"CYVO","Val D'Or Arpt, QC, CA",2025-09-09 17:00:00,2025-09-09 13:00:00,"VFR",14,7,180,11,20,15,1022.4,"METAR CYVO 091700Z 18011G20KT 15SM SCT055 OVC070 14/07 A3019 RMK SC3AC5 SLP235",2025-09-09 17:52:09.22807,2025-09-09 13:52:09.22813
"CYYG","Charlottetown Arpt, PE, CA",2025-09-09 17:00:00,2025-09-09 13:00:00,"VFR",19,7,180,8,NA,15,1028.5,"METAR CYYG 091700Z 18008KT 15SM BKN055 BKN260 19/07 A3037 RMK SC6CI1 SLP288",2025-09-09 17:52:09.234561,2025-09-09 13:52:09.234604
"CYHZ","Halifax/Stanfield Intl, NS, CA",2025-09-09 17:00:00,2025-09-09 13:00:00,"VFR",19,7,330,4,NA,15,1028.5,"METAR CYHZ 091700Z 33004KT 15SM FEW040 BKN250 19/07 A3037 RMK CU2CS5 SLP288",2025-09-09 17:52:09.241008,2025-09-09 13:52:09.241051
"CYOW","Ottawa/Cartier Intl, ON, CA",2025-09-09 17:00:00,2025-09-09 13:00:00,"VFR",19,9,220,5,NA,15,1027.2,"METAR CYOW 091700Z 22005KT 130V250 15SM FEW040 FEW250 19/09 A3033 RMK CU1CI1 CU TR SLP275 DENSITY ALT 600FT",2025-09-09 17:52:09.247444,2025-09-09 13:52:09.247488
"CYPL","Pickle Lake Arpt, ON, CA",2025-09-09 17:00:00,2025-09-09 13:00:00,"VFR",19,10,330,3,NA,9,1015,"METAR CYPL 091700Z AUTO 33003KT 310V040 9SM CLR 19/10 A2997 RMK SLP157 DENSITY ALT 2000FT",2025-09-09 17:52:09.25387,2025-09-09 13:52:09.253914
"CYQB","Quebec/Lesage Intl, QC, CA",2025-09-09 17:00:00,2025-09-09 13:00:00,"VFR",18,5,230,4,NA,30,1028.5,"METAR CYQB 091700Z 23004KT 180V280 30SM FEW051 FEW100 SCT250 18/05 A3037 RMK SC1AC1CI1 SLP289",2025-09-09 17:52:09.262455,2025-09-09 13:52:09.262497
"CYQG","Windsor Intl, ON, CA",2025-09-09 17:00:00,2025-09-09 13:00:00,"VFR",23,6,200,8,NA,9,1024.1,"METAR CYQG 091700Z AUTO 20008KT 190V250 9SM CLR 23/06 A3024 RMK SLP242 DENSITY ALT 1300FT",2025-09-09 17:52:09.268929,2025-09-09 13:52:09.268973
"CYQM","Moncton Intl, NB, CA",2025-09-09 17:00:00,2025-09-09 13:00:00,"VFR",20,3,NA,2,NA,15,1028.2,"METAR CYQM 091700Z VRB02KT 15SM FEW062 FEW240 20/03 A3036 RMK CU1CI1 CU TR SLP284",2025-09-09 17:52:09.275637,2025-09-09 13:52:09.275683
"CYUL","Montreal/Trudeau Intl, QC, CA",2025-09-09 17:00:00,2025-09-09 13:00:00,"VFR",19,9,240,7,NA,30,1027.9,"METAR CYUL 091700Z 24007KT 180V280 30SM FEW035 SCT250 19/09 A3035 RMK CF1CI4 CF TR SLP279",2025-09-09 17:52:09.282225,2025-09-09 13:52:09.282268
"CYUY","Rouyn/Noranda Arpt, QC, CA",2025-09-09 17:00:00,2025-09-09 13:00:00,"VFR",12,11,180,9,NA,15,1020.7,"METAR CYUY 091700Z 18009KT 15SM -RA BKN069 12/11 A3014 RMK AC8 SLP217",2025-09-09 17:52:09.288651,2025-09-09 13:52:09.288698
"CYVR","Vancouver Intl, BC, CA",2025-09-09 17:00:00,2025-09-09 13:00:00,"MVFR",18,17,300,6,NA,20,1014.3,"METAR CYVR 091700Z 30006KT 270V330 20SM FEW010 FEW018 SCT023 BKN030 BKN042 18/17 A2995 RMK SC1SC2SC1SC1SC3 SC TR CU EMBD SLP146 DENSITY ALT 400FT",2025-09-09 17:52:09.295203,2025-09-09 13:52:09.295247
"CYWG","Winnipeg Intl Arpt, MB, CA",2025-09-09 17:00:00,2025-09-09 13:00:00,"VFR",22,15,0,0,NA,15,1015,"METAR CYWG 091700Z 00000KT 15SM SKC 22/15 A2997 RMK SLP154 DENSITY ALT 1800FT",2025-09-09 17:52:09.301655,2025-09-09 13:52:09.301698
"CYYC","Calgary Intl, AB, CA",2025-09-09 17:00:00,2025-09-09 13:00:00,"VFR",20,9,210,3,NA,15,1014.6,"METAR CYYC 091700Z 21003KT 130V240 15SM SKC 20/09 A2996 RMK SLP141 DENSITY ALT 5000FT",2025-09-09 17:52:09.30815,2025-09-09 13:52:09.308195
"CYYJ","Victoria Intl, BC, CA",2025-09-09 17:00:00,2025-09-09 13:00:00,"VFR",18,14,NA,2,NA,30,1014.6,"METAR CYYJ 091700Z VRB02KT 30SM FEW025 BKN044 18/14 A2996 RMK CU1SC7 CU TR SLP146 DENSITY ALT 400FT",2025-09-09 17:52:09.314682,2025-09-09 13:52:09.314725
"CYYZ","Toronto/Pearson Intl, ON, CA",2025-09-09 17:00:00,2025-09-09 13:00:00,"VFR",20,10,130,7,NA,15,1025.5,"METAR CYYZ 091700Z 13007KT 100V190 15SM FEW040 SCT250 20/10 A3028 RMK CU1CI3 SLP256 DENSITY ALT 900FT",2025-09-09 17:52:09.323377,2025-09-09 13:52:09.323421
"CYQQ","Comox(MIL), BC, CA",2025-09-09 17:00:00,2025-09-09 13:00:00,"MVFR",18,13,340,6,NA,20,1015.3,"METAR CYQQ 091700Z 34006KT 20SM BKN019 18/13 A2998 RMK SC7 DENSITY ALT 543FT SLP153",2025-09-09 17:52:09.329999,2025-09-09 13:52:09.330045
"CYVV","Wiarton Arpt, ON, CA",2025-09-09 17:00:00,2025-09-09 13:00:00,"VFR",20,10,200,8,NA,15,1024.5,"METAR CYVV 091700Z 20008KT 180V250 15SM FEW042 OVC250 20/10 A3025 RMK CU2CI6 SLP248 DENSITY ALT 1100FT",2025-09-09 17:52:09.336559,2025-09-09 13:52:09.336602
"CYXE","Saskatoon/Diefenbaker Intl, SK, CA",2025-09-09 17:00:00,2025-09-09 13:00:00,"VFR",22,12,130,5,NA,12,1015.3,"METAR CYXE 091700Z 13005KT 050V150 12SM FEW300 22/12 A2998 RMK CI1 CI TR FU SLP160 DENSITY ALT 2800FT",2025-09-09 17:52:09.34301,2025-09-09 13:52:09.343054
"CYXT","Terrace Arpt, BC, CA",2025-09-09 17:00:00,2025-09-09 13:00:00,"VFR",16,12,NA,2,NA,20,1016.7,"METAR CYXT 091700Z VRB02KT 20SM FEW020 FEW045 BKN210 16/12 A3002 RMK CF1SC2CI5 CF TR SLP172",2025-09-09 17:52:09.349636,2025-09-09 13:52:09.349679
"CYYB","North Bay/Garland Arpt, ON, CA",2025-09-09 17:00:00,2025-09-09 13:00:00,"VFR",18,11,190,13,20,30,1024.5,"METAR CYYB 091700Z 19013G20KT 30SM FEW030 BKN280 18/11 A3025 RMK CU3CI3 SLP251 DENSITY ALT 1600FT",2025-09-09 17:52:09.35619,2025-09-09 13:52:09.356236
"CYQA","Muskoka Arpt, ON, CA",2025-09-09 17:00:00,2025-09-09 13:00:00,"VFR",20,7,190,8,16,9,1025.5,"METAR CYQA 091700Z AUTO 19008G16KT 180V240 9SM CLR 20/07 A3028 RMK SLP260 DENSITY ALT 1400FT",2025-09-09 17:52:09.36268,2025-09-09 13:52:09.362724
"CYQF","Red Deer Rgnl, AB, CA",2025-09-09 17:00:00,2025-09-09 13:00:00,"VFR",18,9,230,3,NA,9,1013.6,"METAR CYQF 091700Z AUTO 23003KT 180V260 9SM CLR 18/09 A2993 RMK SLP143 DENSITY ALT 4100FT",2025-09-09 17:52:09.36927,2025-09-09 13:52:09.369314
"CYQT","Thunder Bay Intl, ON, CA",2025-09-09 17:00:00,2025-09-09 13:00:00,"MVFR",17,15,100,4,NA,15,1014.6,"METAR CYQT 091700Z 10004KT 15SM SCT013 OVC019 17/15 A2996 RMK SC4SC4 SLP152 DENSITY ALT 1000FT",2025-09-09 17:52:09.377872,2025-09-09 13:52:09.377914
"CYRJ","Roberval Arpt, QC, CA",2025-09-09 17:00:00,2025-09-09 13:00:00,"VFR",16,5,200,13,NA,40,1026.5,"METAR CYRJ 091700Z 20013KT 170V240 40SM SCT170 BKN200 16/05 A3031 RMK AC4CI3 SLP271",2025-09-09 17:52:09.384369,2025-09-09 13:52:09.384412
"CYSB","Sudbury Arpt, ON, CA",2025-09-09 17:00:00,2025-09-09 13:00:00,"VFR",19,10,190,19,25,20,1022.8,"METAR CYSB 091700Z 19019G25KT 20SM BKN033 BKN200 19/10 A3020 RMK CU5CI1 SLP233 DENSITY ALT 1600FT",2025-09-09 17:52:09.390926,2025-09-09 13:52:09.390969
"CYTS","Timmins/Power Arpt, ON, CA",2025-09-09 17:00:00,2025-09-09 13:00:00,"MVFR",13,12,190,8,NA,5,1017.7,"METAR CYTS 091700Z 19008KT 5SM -RA BR SCT009 OVC037 13/12 A3005 RMK SC4SC4 SLP187",2025-09-09 17:52:09.397445,2025-09-09 13:52:09.397489
"CYGK","Kingston Arpt, ON, CA",2025-09-09 17:00:00,2025-09-09 13:00:00,"VFR",18,12,160,8,NA,15,1027.5,"METAR CYGK 091700Z 16008KT 15SM FEW020 FEW250 18/12 A3034 RMK SC1CI1 SLP277",2025-09-09 17:52:09.403983,2025-09-09 13:52:09.404028
"CYHU","Montreal/St Hubert, QC, CA",2025-09-09 17:00:00,2025-09-09 13:00:00,"VFR",20,10,220,6,NA,9,1027.5,"METAR CYHU 091700Z AUTO 22006KT 130V240 9SM CLR 20/10 A3034 RMK SLP277",2025-09-09 17:52:09.410542,2025-09-09 13:52:09.410586
"CYLW","Kelowna Arpt, BC, CA",2025-09-09 17:00:00,2025-09-09 13:00:00,"VFR",20,12,NA,3,NA,9,1013.3,"METAR CYLW 091700Z AUTO VRB03KT 9SM CLR 20/12 A2992 RMK SLP130 DENSITY ALT 2400FT",2025-09-09 17:52:09.417033,2025-09-09 13:52:09.417077
"CYMM","Fort McMurray Arpt, AB, CA",2025-09-09 17:00:00,2025-09-09 13:00:00,"VFR",18,12,80,6,NA,6,1010.6,"METAR CYMM 091700Z AUTO 08006KT 6SM HZ BKN100 18/12 A2984 RMK SLP114 DENSITY ALT 2000FT",2025-09-09 17:52:09.423558,2025-09-09 13:52:09.423601
"CYMO","Moosonee Arpt, ON, CA",2025-09-09 17:00:00,2025-09-09 13:00:00,"MVFR",14,13,190,7,NA,9,1014,"METAR CYMO 091700Z AUTO 19007KT 9SM FEW012 OVC021 14/13 A2994 RMK SLP142",2025-09-09 17:52:09.429996,2025-09-09 13:52:09.43004
"CYAM","Sault Ste Marie Arpt, ON, CA",2025-09-09 17:00:00,2025-09-09 13:00:00,"VFR",19,13,230,6,NA,20,1019.4,"METAR CYAM 091700Z 23006KT 170V260 20SM FEW024 SCT066 BKN100 OVC250 19/13 A3010 RMK CU1AC4AS3CS1 CU TR SLP199 DENSITY ALT 1100FT",2025-09-09 17:52:09.438833,2025-09-09 13:52:09.438875
"CYBC","Baie Comeau Arpt, QC, CA",2025-09-09 17:00:00,2025-09-09 13:00:00,"VFR",14,8,220,11,NA,9,1027.5,"METAR CYBC 091700Z AUTO 22011KT 9SM CLR 14/08 A3034 RMK SLP278",2025-09-09 17:52:09.445471,2025-09-09 13:52:09.445515
"CYBR","Brandon Arpt, MB, CA",2025-09-09 17:00:00,2025-09-09 13:00:00,"VFR",21,13,70,7,NA,15,1015.7,"METAR CYBR 091700Z 07007KT 040V110 15SM FEW250 21/13 A2999 RMK CI2 SLP162 DENSITY ALT 2300FT",2025-09-09 17:52:09.451965,2025-09-09 13:52:09.452008
"CYZV","Sept-Îles Arpt, QC, CA",2025-09-09 17:00:00,2025-09-09 13:00:00,"VFR",13,5,170,10,NA,30,1027.5,"METAR CYZV 091700Z 17010KT 30SM FEW060 FEW080 FEW180 BKN260 13/05 A3034 RMK CU1AC1AC1CI4 AC TR AC TR CONTRAILS SLP279",2025-09-09 17:52:09.458472,2025-09-09 13:52:09.458517
"CYQR","Regina Intl Arpt, SK, CA",2025-09-09 17:00:00,2025-09-09 13:00:00,"VFR",24,10,NA,2,NA,15,1016,"METAR CYQR 091700Z VRB02KT 15SM SKC 24/10 A3000 RMK SLP162 DENSITY ALT 3300FT",2025-09-09 17:52:09.465202,2025-09-09 13:52:09.465247
"CYZP","Sandspit Arpt, BC, CA",2025-09-09 17:40:00,2025-09-09 13:40:00,"MVFR",16,11,350,10,NA,9,1018.7,"SPECI CYZP 091740Z AUTO 35010KT 9SM OVC024 16/11 A3008 RMK SLP187",2025-09-09 17:52:10.689009,2025-09-09 13:52:10.689053
"CYXX","Abbotsford Intl, BC, CA",2025-09-09 17:39:00,2025-09-09 13:39:00,"IFR",18,15,180,3,NA,NA,1014.3,"SPECI CYXX 091739Z 18003KT 160V280 10SM BKN009 OVC037 18/15 A2995 RMK SF6SC2 SLP144 DENSITY ALT 500FT",2025-09-09 17:52:10.697963,2025-09-09 13:52:10.698006
"CYXS","Prince George Arpt, BC, CA",2025-09-09 17:38:00,2025-09-09 13:38:00,"VFR",16,11,200,5,NA,6,1014,"SPECI CYXS 091738Z AUTO 20005KT 6SM HZ CLR 16/11 A2994 RMK SLP149 DENSITY ALT 2900FT",2025-09-09 17:52:10.704523,2025-09-09 13:52:10.704568
"CYBG","Bagotville(MIL), QC, CA",2025-09-09 17:00:00,2025-09-09 13:00:00,"VFR",16,9,100,5,NA,25,1027.2,"METAR CYBG 091700Z 10005KT 25SM FEW055 BKN180 16/09 A3033 RMK CU2AC5 DENSITY ALT 483FT SLP275",2025-09-09 17:52:10.711079,2025-09-09 13:52:10.711141
"CYFB","Iqaluit Arpt, NU, CA",2025-09-09 17:00:00,2025-09-09 13:00:00,"MVFR",8,3,320,15,21,30,1009.9,"METAR CYFB 091700Z 32015G21KT 30SM BKN024 08/03 A2982 RMK SC7 CVCTV CLD EMBD SLP103",2025-09-09 17:52:10.717562,2025-09-09 13:52:10.717605
"CYFC","Fredericton Intl, NB, CA",2025-09-09 17:00:00,2025-09-09 13:00:00,"VFR",19,8,NA,4,NA,9,1028.5,"METAR CYFC 091700Z AUTO VRB04KT 9SM CLR 19/08 A3037 RMK SLP286",2025-09-09 17:52:10.724146,2025-09-09 13:52:10.724194
"CYTR","Trenton(MIL), ON, CA",2025-09-09 17:00:00,2025-09-09 13:00:00,"VFR",21,9,190,6,NA,15,1026.5,"METAR CYTR 091700Z 19006KT 120V230 15SM FEW047 SCT220 21/09 A3031 RMK CU1CS4 DENSITY ALT 787FT CONTRAILS SLP264",2025-09-09 17:52:10.730678,2025-09-09 13:52:10.730721
"CYHD","Dryden Rgnl, ON, CA",2025-09-09 17:00:00,2025-09-09 13:00:00,"VFR",19,12,NA,2,NA,9,1015.7,"METAR CYHD 091700Z AUTO VRB02KT 9SM CLR 19/12 A2999 RMK SLP166 DENSITY ALT 2100FT",2025-09-09 17:52:10.737218,2025-09-09 13:52:10.737262
"CYHM","Hamilton/Munro Intl, ON, CA",2025-09-09 17:00:00,2025-09-09 13:00:00,"VFR",22,9,230,5,NA,15,1025.1,"METAR CYHM 091700Z 23005KT 100V250 15SM SCT050 22/09 A3027 RMK CU4 SLP255 DENSITY ALT 1400FT",2025-09-09 17:52:10.743675,2025-09-09 13:52:10.743719
"CYQK","Kenora Arpt, ON, CA",2025-09-09 17:00:00,2025-09-09 13:00:00,"VFR",20,9,0,0,NA,20,1016,"METAR CYQK 091700Z 00000KT 20SM FEW240 20/09 A3000 RMK CI1 CI TR SLP164 DENSITY ALT 2200FT",2025-09-09 17:52:10.752329,2025-09-09 13:52:10.752372
"CYQU","Grande Prairie Arpt, AB, CA",2025-09-09 17:00:00,2025-09-09 13:00:00,"MVFR",19,9,220,5,NA,5,1010.6,"METAR CYQU 091700Z 22005KT 5SM FU SKC 19/09 A2984 RMK SLP108 DENSITY ALT 3300FT",2025-09-09 17:52:10.75878,2025-09-09 13:52:10.758823
"CYQX","Gander Intl Arpt, NL, CA",2025-09-09 17:00:00,2025-09-09 13:00:00,"VFR",18,5,270,12,18,20,1024.5,"METAR CYQX 091700Z 27012G18KT 250V330 20SM FEW040 BKN230 18/05 A3025 RMK CU1CC5 CU TR SLP249",2025-09-09 17:52:10.765319,2025-09-09 13:52:10.765362
"CYQY","Sydney Arpt, NS, CA",2025-09-09 17:00:00,2025-09-09 13:00:00,"VFR",20,9,40,6,NA,15,1027.9,"METAR CYQY 091700Z 04006KT 340V060 15SM SCT057 BKN220 20/09 A3035 RMK CU3CI3 SLP280",2025-09-09 17:52:10.771752,2025-09-09 13:52:10.771795
"CYRB","Resolute Bay Arpt, NU, CA",2025-09-09 17:00:00,2025-09-09 13:00:00,"LIFR",-1,-1,270,7,NA,0.5,1012.6,"METAR CYRB 091700Z 27007KT 1/2SM R35/4000VP6000FT/D FZFG OVC002 M01/M01 A2990 RMK FG6ST2 SLP132",2025-09-09 17:52:10.778276,2025-09-09 13:52:10.778321
"CYUY","Rouyn/Noranda Arpt, QC, CA",2025-09-09 17:00:00,2025-09-09 13:00:00,"VFR",12,11,180,9,NA,15,1020.7,"METAR CYUY 091700Z 18009KT 15SM -RA BKN069 12/11 A3014 RMK AC8 SLP217",2025-09-09 17:52:10.784765,2025-09-09 13:52:10.784808
"CYXU","London Intl, ON, CA",2025-09-09 17:00:00,2025-09-09 13:00:00,"VFR",21,7,160,8,15,15,1025.1,"METAR CYXU 091700Z 16008G15KT 15SM SCT060 21/07 A3027 RMK SC3 SLP253 DENSITY ALT 1500FT",2025-09-09 17:52:10.791322,2025-09-09 13:52:10.791365
"CYXY","Whitehorse Arpt, YT, CA",2025-09-09 17:00:00,2025-09-09 13:00:00,"VFR",9,6,190,2,NA,40,1012.3,"METAR CYXY 091700Z 19002KT 40SM FEW073 FEW140 09/06 A2989 RMK AC1AC1 AC TR SLP145",2025-09-09 17:52:10.797853,2025-09-09 13:52:10.797896
"CYYT","St Johns Intl, NL, CA",2025-09-09 17:00:00,2025-09-09 13:00:00,"VFR",17,8,290,10,17,15,1025.5,"METAR CYYT 091700Z 29010G17KT 15SM FEW036 SCT150 SCT220 BKN240 17/08 A3028 RMK CU1AC2CI1CI3 SLP259",2025-09-09 17:52:10.804324,2025-09-09 13:52:10.804366
"CYZF","Yellowknife Arpt, NT, CA",2025-09-09 17:00:00,2025-09-09 13:00:00,"VFR",13,9,140,9,16,15,1006.2,"METAR CYZF 091700Z 14009G16KT 15SM FEW020 BKN140 13/09 A2971 RMK SC1AC7 SC TR SLP071",2025-09-09 17:52:10.822013,2025-09-09 13:52:10.822055
"CYWL","Williams Lake Rgnl, BC, CA",2025-09-09 17:00:00,2025-09-09 13:00:00,"MVFR",15,11,150,4,NA,3,1015.3,"METAR CYWL 091700Z 15004KT 130V210 3SM FU SKC 15/11 A2998 RMK SLP155 DENSITY ALT 3800FT",2025-09-09 17:52:10.82856,2025-09-09 13:52:10.828605
"CYOD","Cold Lake (Mil), AB, CA",2025-09-09 17:00:00,2025-09-09 13:00:00,"VFR",20,12,90,5,NA,NA,1013.6,"METAR CYOD 091700Z 09005KT 10SM FEW080 FEW250 20/12 A2993 RMK AC1CI1 DENSITY ALT 2995FT SLP140",2025-09-09 17:52:10.835142,2025-09-09 13:52:10.835191
"CYPR","Prince Rupert Arpt, BC, CA",2025-09-09 17:00:00,2025-09-09 13:00:00,NA,14,12,330,4,NA,NA,1017.4,"METAR CYPR 091700Z AUTO 33004KT 290V030 OVC008 14/12 A3004 RMK WX MISG VIS MISG SLP176",2025-09-09 17:52:10.841556,2025-09-09 13:52:10.841599
"CYQH","Watson Lake Arpt, YT, CA",2025-09-09 17:00:00,2025-09-09 13:00:00,"VFR",12,5,NA,2,NA,25,1011.9,"METAR CYQH 091700Z VRB02KT 25SM BKN062 12/05 A2988 RMK CU6 SLP132 DENSITY ALT 2600FT",2025-09-09 17:52:10.848096,2025-09-09 13:52:10.848161
"CYQT","Thunder Bay Intl, ON, CA",2025-09-09 17:00:00,2025-09-09 13:00:00,"MVFR",17,15,100,4,NA,15,1014.6,"METAR CYQT 091700Z 10004KT 15SM SCT013 OVC019 17/15 A2996 RMK SC4SC4 SLP152 DENSITY ALT 1000FT",2025-09-09 17:52:10.854613,2025-09-09 13:52:10.854655
"CYRT","Rankin Inlet Arpt, NU, CA",2025-09-09 17:00:00,2025-09-09 13:00:00,"MVFR",7,3,20,9,NA,15,1015.7,"METAR CYRT 091700Z 02009KT 15SM BKN023 07/03 A2999 RMK SC7 CIG RAG SLP158",2025-09-09 17:52:10.861159,2025-09-09 13:52:10.861204
"CYAM","Sault Ste Marie Arpt, ON, CA",2025-09-09 17:00:00,2025-09-09 13:00:00,"VFR",19,13,230,6,NA,20,1019.4,"METAR CYAM 091700Z 23006KT 170V260 20SM FEW024 SCT066 BKN100 OVC250 19/13 A3010 RMK CU1AC4AS3CS1 CU TR SLP199 DENSITY ALT 1100FT",2025-09-09 17:52:10.867655,2025-09-09 13:52:10.867698
"CYAZ","Tofino Arpt, BC, CA",2025-09-09 17:00:00,2025-09-09 13:00:00,"LIFR",15,15,0,0,NA,0.25,1015,"METAR CYAZ 091700Z 00000KT 1/4SM FG OVC002 15/15 A2997 RMK SF8 SLP150",2025-09-09 17:52:10.876355,2025-09-09 13:52:10.876398
"CYBK","Baker Lake Arpt, NU, CA",2025-09-09 17:00:00,2025-09-09 13:00:00,"MVFR",7,1,180,6,NA,20,1016.7,"METAR CYBK 091700Z 18006KT 170V260 20SM BKN020 BKN075 07/01 A3002 RMK SC5AC1 AC TR SLP169",2025-09-09 17:52:10.882795,2025-09-09 13:52:10.882839
"CYBL","Campbell River Arpt, BC, CA",2025-09-09 17:00:00,2025-09-09 13:00:00,"MVFR",16,14,320,7,NA,20,1015.3,"METAR CYBL 091700Z 32007KT 20SM FEW007 BKN015 16/14 A2998 RMK SF1SC7 SF TR SLP156 DENSITY ALT 600FT",2025-09-09 17:52:10.889367,2025-09-09 13:52:10.889412
"CYCD","Nanaimo Arpt, BC, CA",2025-09-09 17:00:00,2025-09-09 13:00:00,"VFR",18,14,340,5,NA,20,1015,"METAR CYCD 091700Z 34005KT 330V040 20SM OVC047 18/14 A2997 RMK SC8 SLP150 DENSITY ALT 500FT",2025-09-09 17:52:10.895869,2025-09-09 13:52:10.895912
"CYCO","Coppermine/Kugluktuk Arpt, NU, CA",2025-09-09 17:00:00,2025-09-09 13:00:00,"MVFR",10,7,350,4,NA,5,1007.9,"METAR CYCO 091700Z 35004KT 5SM FU FEW160 BKN210 10/07 A2976 RMK AS1CS5 SLP082",2025-09-09 17:52:10.902466,2025-09-09 13:52:10.902511
"CYDF","Deer Lake Arpt, NL, CA",2025-09-09 17:00:00,2025-09-09 13:00:00,"VFR",18,4,250,13,20,15,1025.8,"METAR CYDF 091700Z 25013G20KT 15SM BKN052 18/04 A3029 RMK CU5 SLP258",2025-09-09 17:52:10.909246,2025-09-09 13:52:10.909305
"CYDP","Nain Arpt, NL, CA",2025-09-09 17:00:00,2025-09-09 13:00:00,"VFR",13,2,290,19,25,15,1016.7,"METAR CYDP 091700Z 29019G25KT 15SM SCT051 13/02 A3002 RMK SC4 SLP169",2025-09-09 17:52:10.916202,2025-09-09 13:52:10.916246
"CYKF","Waterloo Intl, ON, CA",2025-09-09 17:00:00,2025-09-09 13:00:00,"VFR",21,8,170,8,NA,9,1025.1,"METAR CYKF 091700Z AUTO 17008KT 150V230 9SM FEW055 21/08 A3027 RMK SLP255 DENSITY ALT 1700FT",2025-09-09 17:52:10.922657,2025-09-09 13:52:10.922702
"CYTZ","Toronto/Bishop Arpt, ON, CA",2025-09-09 17:00:00,2025-09-09 13:00:00,"VFR",18,13,70,6,NA,9,1025.5,"METAR CYTZ 091700Z AUTO 07006KT 9SM CLR 18/13 A3028 RMK SLP258",2025-09-09 17:52:10.929224,2025-09-09 13:52:10.929269
"CYQQ","Comox(MIL), BC, CA",2025-09-09 17:00:00,2025-09-09 13:00:00,"MVFR",18,13,340,6,NA,20,1015.3,"METAR CYQQ 091700Z 34006KT 20SM BKN019 18/13 A2998 RMK SC7 DENSITY ALT 543FT SLP153",2025-09-09 17:52:10.938128,2025-09-09 13:52:10.938178
"CYMH","Mary's Harbor Arpt, NL, CA",2025-09-09 17:00:00,2025-09-09 13:00:00,"VFR",16,6,340,4,NA,9,1020.7,"METAR CYMH 091700Z AUTO 34004KT 270V010 9SM SCT055 16/06 A3014 RMK SLP210",2025-09-09 17:52:10.944695,2025-09-09 13:52:10.94474
"KSWF","Newburgh/Stewart Intl, NY, US",2025-09-09 17:45:00,2025-09-09 13:45:00,"VFR",22,9,100,10,NA,NA,1026.8,"METAR KSWF 091745Z 10010KT 10SM FEW050 22/09 A3032",2025-09-09 17:52:13.131932,2025-09-09 13:52:13.131977
"CYGL","La Grande Riviere Arpt, QC, CA",2025-09-09 17:26:00,2025-09-09 13:26:00,"VFR",12,10,210,8,NA,NA,1013.6,"SPECI CYGL 091726Z 21008KT 10SM -RA FEW020 BKN055 OVC080 12/10 A2993 RMK SC1SC4AC3 SLP145",2025-09-09 17:52:13.138736,2025-09-09 13:52:13.13878
"CYMT","Chibougamau Arpt, QC, CA",2025-09-09 17:10:00,2025-09-09 13:10:00,"VFR",13,7,190,17,22,9,1022.8,"SPECI CYMT 091710Z AUTO 19017G22KT 9SM OVC049 13/07 A3020 RMK SLP238",2025-09-09 17:52:13.14542,2025-09-09 13:52:13.145464
"CYPC","Paulatuk Arpt, NT, CA",2025-09-09 17:00:00,2025-09-09 13:00:00,"VFR",5,5,360,3,NA,15,1005.8,"METAR CYPC 091700Z 36003KT 15SM FEW190 SCT250 05/05 A2970 RMK AC2CS1 DIST TCU TOP SW SLP058",2025-09-09 17:52:13.151998,2025-09-09 13:52:13.152044
"CYCO","Coppermine/Kugluktuk Arpt, NU, CA",2025-09-09 17:00:00,2025-09-09 13:00:00,"MVFR",10,7,350,4,NA,5,1007.9,"METAR CYCO 091700Z 35004KT 5SM FU FEW160 BKN210 10/07 A2976 RMK AS1CS5 SLP082",2025-09-09 17:52:13.161214,2025-09-09 13:52:13.161258
"CYBC","Baie Comeau Arpt, QC, CA",2025-09-09 17:00:00,2025-09-09 13:00:00,"VFR",14,8,220,11,NA,9,1027.5,"METAR CYBC 091700Z AUTO 22011KT 9SM CLR 14/08 A3034 RMK SLP278",2025-09-09 17:52:13.167784,2025-09-09 13:52:13.167827
"CYLK","Lutselke Arpt, NT, CA",2025-09-09 17:00:00,2025-09-09 13:00:00,"VFR",15,8,100,3,NA,25,1009.2,"METAR CYLK 091700Z 10003KT 050V150 25SM SCT062 BKN110 BKN210 15/08 A2980 RMK SC3AC2CI1 FU SLP101 DENSITY ALT 900FT",2025-09-09 17:52:13.174334,2025-09-09 13:52:13.174378
"CYHA","Quaqtaq Arpt, QC, CA",2025-09-09 17:00:00,2025-09-09 13:00:00,"VFR",8,3,270,5,NA,15,1013.3,"METAR CYHA 091700Z 27005KT 240V310 15SM FEW025 BKN033 08/03 A2992 RMK SC1SC6 SC TR CONTRAILS SLP137",2025-09-09 17:52:13.180858,2025-09-09 13:52:13.180902
"CYFB","Iqaluit Arpt, NU, CA",2025-09-09 17:00:00,2025-09-09 13:00:00,"MVFR",8,3,320,15,21,30,1009.9,"METAR CYFB 091700Z 32015G21KT 30SM BKN024 08/03 A2982 RMK SC7 CVCTV CLD EMBD SLP103",2025-09-09 17:52:13.187376,2025-09-09 13:52:13.187421
"CYXP","Pangnirtung Arpt, NU, CA",2025-09-09 17:00:00,2025-09-09 13:00:00,"VFR",7,1,240,16,22,15,1004.1,"METAR CYXP 091700Z 24016G22KT 15SM FEW044 07/01 A2965 RMK CF2 SLP044",2025-09-09 17:52:13.193912,2025-09-09 13:52:13.193954
"CYGV","Havre St Pierre Arpt, QC, CA",2025-09-09 17:00:00,2025-09-09 13:00:00,"VFR",14,3,250,17,22,9,1026.8,"METAR CYGV 091700Z AUTO 25017G22KT 9SM CLR 14/03 A3032 RMK SLP271",2025-09-09 17:52:13.200392,2025-09-09 13:52:13.200435
"CYKJ","Key Lake Arpt, SK, CA",2025-09-09 17:00:00,2025-09-09 13:00:00,"VFR",15,7,190,10,NA,9,1015.7,"METAR CYKJ 091700Z AUTO 19010KT 9SM CLR 15/07 A2999 RMK SLP175 DENSITY ALT 2000FT",2025-09-09 17:52:13.206887,2025-09-09 13:52:13.206931
"CYRJ","Roberval Arpt, QC, CA",2025-09-09 17:00:00,2025-09-09 13:00:00,"VFR",16,5,200,13,NA,40,1026.5,"METAR CYRJ 091700Z 20013KT 170V240 40SM SCT170 BKN200 16/05 A3031 RMK AC4CI3 SLP271",2025-09-09 17:52:13.21562,2025-09-09 13:52:13.215663
"CYCK","Chatham/Kent Arpt, ON, CA",2025-09-09 17:00:00,2025-09-09 13:00:00,"VFR",23,7,180,10,15,9,1024.1,"METAR CYCK 091700Z AUTO 18010G15KT 150V230 9SM CLR 23/07 A3024 RMK SLP243 DENSITY ALT 1300FT",2025-09-09 17:52:13.221987,2025-09-09 13:52:13.22203
"CYVO","Val D'Or Arpt, QC, CA",2025-09-09 17:00:00,2025-09-09 13:00:00,"VFR",14,7,180,11,20,15,1022.4,"METAR CYVO 091700Z 18011G20KT 15SM SCT055 OVC070 14/07 A3019 RMK SC3AC5 SLP235",2025-09-09 17:52:13.228587,2025-09-09 13:52:13.228631
"CYDQ","Dawson Creek Arpt, BC, CA",2025-09-09 17:00:00,2025-09-09 13:00:00,"VFR",22,6,260,11,NA,9,1008.9,"METAR CYDQ 091700Z AUTO 26011KT 9SM CLR 22/06 A2979 RMK SLP091 DENSITY ALT 3700FT",2025-09-09 17:52:13.235125,2025-09-09 13:52:13.235176
"CYQB","Quebec/Lesage Intl, QC, CA",2025-09-09 17:00:00,2025-09-09 13:00:00,"VFR",18,5,230,4,NA,30,1028.5,"METAR CYQB 091700Z 23004KT 180V280 30SM FEW051 FEW100 SCT250 18/05 A3037 RMK SC1AC1CI1 SLP289",2025-09-09 17:52:13.241569,2025-09-09 13:52:13.241612
"CYTE","Cape Dorset Arpt, NU, CA",2025-09-09 17:00:00,2025-09-09 13:00:00,"VFR",7,3,260,6,NA,15,1012.3,"METAR CYTE 091700Z 26006KT 220V290 15SM BKN044 07/03 A2989 RMK SC5 SLP127",2025-09-09 17:52:13.248021,2025-09-09 13:52:13.248064
"CYVC","La Ronge Arpt, SK, CA",2025-09-09 17:00:00,2025-09-09 13:00:00,"VFR",16,10,120,5,NA,15,1016.7,"METAR CYVC 091700Z 12005KT 070V140 15SM SKC 16/10 A3002 RMK SLP176 DENSITY ALT 1500FT",2025-09-09 17:52:13.254457,2025-09-09 13:52:13.2545
"CYVQ","Norman Wells Arpt, NT, CA",2025-09-09 17:00:00,2025-09-09 13:00:00,"MVFR",13,13,280,5,NA,NA,1005.2,"METAR CYVQ 091700Z 28005KT 10SM -RA FEW009 BKN021 BKN046 OVC070 13/13 A2968 RMK ST1SC5SC1AC2 ST TR FU SLP054",2025-09-09 17:52:13.260953,2025-09-09 13:52:13.260998
"KHPN","White Plains/Westchester Cnty, NY, US",2025-09-09 16:56:00,2025-09-09 12:56:00,"VFR",21.1,7.8,90,13,20,NA,1027.2,"METAR KHPN 091656Z 09013G20KT 10SM CLR 21/08 A3033 RMK AO2 SLP269 T02110078",2025-09-09 17:52:13.267485,2025-09-09 13:52:13.26753
"KROC","Rochester Intl Arpt, NY, US",2025-09-09 16:54:00,2025-09-09 12:54:00,"VFR",21.7,8.3,170,7,NA,NA,1026.2,"METAR KROC 091654Z 17007KT 10SM FEW029 22/08 A3030 RMK AO2 SLP264 T02170083 $",2025-09-09 17:52:13.275935,2025-09-09 13:52:13.275979
"KRIC","Richmond Intl, VA, US",2025-09-09 16:54:00,2025-09-09 12:54:00,"VFR",23.3,14.4,40,8,18,NA,1023.5,"METAR KRIC 091654Z 04008G18KT 360V060 10SM BKN033 BKN044 23/14 A3022 RMK AO2 SLP238 T02330144",2025-09-09 17:52:13.282516,2025-09-09 13:52:13.28256
"KSYR","Syracuse/Hancock Intl, NY, US",2025-09-09 16:54:00,2025-09-09 12:54:00,"VFR",21.1,10,320,5,NA,NA,1026.8,"METAR KSYR 091654Z 32005KT 10SM FEW035 SCT250 21/10 A3032 RMK AO2 SLP265 T02110100",2025-09-09 17:52:13.289073,2025-09-09 13:52:13.289141
"KBOS","Boston/Logan Intl, MA, US",2025-09-09 16:54:00,2025-09-09 12:54:00,"VFR",20,12.8,70,9,NA,NA,1028.9,"METAR KBOS 091654Z 07009KT 10SM FEW030 FEW250 20/13 A3038 RMK AO2 SLP287 T02000128",2025-09-09 17:52:13.295629,2025-09-09 13:52:13.295673
"KBWI","Baltimore-Washington Intl, MD, US",2025-09-09 16:54:00,2025-09-09 12:54:00,"VFR",22.2,11.1,80,9,20,NA,1025.5,"METAR KBWI 091654Z 08009G20KT 10SM SCT041 SCT250 22/11 A3028 RMK AO2 SLP252 T02220111",2025-09-09 17:52:13.302178,2025-09-09 13:52:13.302224
"KPHL","Philadelphia Intl, PA, US",2025-09-09 16:54:00,2025-09-09 12:54:00,"VFR",23.9,12.2,60,8,17,NA,1025.8,"METAR KPHL 091654Z 06008G17KT 10SM BKN045 BKN230 BKN330 24/12 A3029 RMK AO2 SLP256 T02390122 $",2025-09-09 17:52:13.308713,2025-09-09 13:52:13.308758
"KBUF","Buffalo-Niagara Intl, NY, US",2025-09-09 16:54:00,2025-09-09 12:54:00,"VFR",22.2,6.7,250,9,NA,NA,1025.8,"METAR KBUF 091654Z 25009KT 10SM FEW060 22/07 A3029 RMK AO2 SLP256 FU ALF T02220067 $",2025-09-09 17:52:13.315216,2025-09-09 13:52:13.315263
"KIAD","Washington/Dulles Intl, VA, US",2025-09-09 16:52:00,2025-09-09 12:52:00,"VFR",23.3,8.3,60,7,NA,NA,1025.1,"METAR KIAD 091652Z 06007KT 10SM FEW045 SCT250 23/08 A3027 RMK AO2 SLP250 T02330083",2025-09-09 17:52:13.321788,2025-09-09 13:52:13.321832
"KDCA","Washington/Reagan-National Arpt, VA, US",2025-09-09 16:52:00,2025-09-09 12:52:00,"VFR",23.9,11.1,30,8,18,NA,1025.1,"METAR KDCA 091652Z 03008G18KT 10SM FEW050 SCT250 24/11 A3027 RMK AO2 SLP249 T02390111",2025-09-09 17:52:13.330448,2025-09-09 13:52:13.330491
"KPVD","Providence/Green Mem, RI, US",2025-09-09 16:51:00,2025-09-09 12:51:00,"VFR",22.2,9.4,60,11,18,NA,1027.9,"METAR KPVD 091651Z 06011G18KT 10SM FEW038 FEW250 22/09 A3035 RMK AO2 SLP278 T02220094",2025-09-09 17:52:13.336907,2025-09-09 13:52:13.336953
"KALB","Albany Intl, NY, US",2025-09-09 16:51:00,2025-09-09 12:51:00,"VFR",21.1,8.9,0,0,NA,NA,1027.9,"METAR KALB 091651Z 00000KT 10SM FEW046 FEW250 21/09 A3035 RMK AO2 SLP275 T02110089",2025-09-09 17:52:13.343477,2025-09-09 13:52:13.343522
"KBDL","Hartford/Bradley Intl, CT, US",2025-09-09 16:51:00,2025-09-09 12:51:00,"VFR",21.7,7.8,120,7,NA,NA,1027.9,"METAR KBDL 091651Z 12007KT 10SM FEW050 FEW250 22/08 A3035 RMK AO2 SLP277 T02170078 $",2025-09-09 17:52:13.350007,2025-09-09 13:52:13.350051
"KBED","Bedford/Hanscom Fld, MA, US",2025-09-09 16:51:00,2025-09-09 12:51:00,"VFR",22.2,8.3,110,8,NA,NA,1028.2,"METAR KBED 091651Z 11008KT 090V170 10SM CLR 22/08 A3036 RMK AO2 SLP293 T02220083 $",2025-09-09 17:52:13.356577,2025-09-09 13:52:13.356622
"KLGA","New York/La Guardia Arpt, NY, US",2025-09-09 16:51:00,2025-09-09 12:51:00,"VFR",21.1,10.6,40,15,NA,NA,1026.8,"METAR KLGA 091651Z 04015KT 10SM FEW028 SCT250 21/11 A3032 RMK AO2 SLP266 T02110106",2025-09-09 17:52:13.363054,2025-09-09 13:52:13.363101
"KJFK","New York/JF Kennedy Intl, NY, US",2025-09-09 16:51:00,2025-09-09 12:51:00,"VFR",22.2,11.1,130,10,16,NA,1026.8,"METAR KJFK 091651Z 13010G16KT 10SM FEW028 SCT050 BKN250 22/11 A3032 RMK AO2 SLP265 T02220111 $",2025-09-09 17:52:13.369607,2025-09-09 13:52:13.369652
"KEWR","Newark Intl, NJ, US",2025-09-09 16:51:00,2025-09-09 12:51:00,"VFR",22.8,10,NA,5,NA,NA,1026.8,"METAR KEWR 091651Z VRB05KT 10SM FEW040 SCT250 23/10 A3032 RMK AO2 SLP265 T02280100 $",2025-09-09 17:52:13.376148,2025-09-09 13:52:13.376198
"KPIT","Pittsburgh Intl, PA, US",2025-09-09 16:51:00,2025-09-09 12:51:00,"VFR",21.1,5.6,NA,6,NA,NA,1025.1,"METAR KPIT 091651Z COR VRB06KT 10SM FEW250 21/06 A3027 RMK AO2 SLP254 T02110056 $",2025-09-09 17:52:13.382778,2025-09-09 13:52:13.382824
"KORF","Norfolk Intl, VA, US",2025-09-09 16:51:00,2025-09-09 12:51:00,"MVFR",23.3,18.3,40,15,23,NA,1021.4,"METAR KORF 091651Z 04015G23KT 10SM BKN018 OVC026 23/18 A3016 RMK AO2 PK WND 03027/1626 SLP212 T02330183",2025-09-09 17:52:13.39137,2025-09-09 13:52:13.391415
"KMIA","Miami Intl, FL, US",2025-09-09 17:43:00,2025-09-09 13:43:00,"LIFR",24.4,24.4,340,3,NA,0.25,1015.7,"SPECI KMIA 091743Z 34003KT 1/4SM +TSRA FG VV005 24/24 A2999 RMK AO2 RAB05 CONS LTGICCCCG OHD TS OHD MOV NE P0171 T02440244 RVRNO $",2025-09-09 17:52:14.918931,2025-09-09 13:52:14.918976
"KLNK","Lincoln Arpt, NE, US",2025-09-09 17:36:00,2025-09-09 13:36:00,"VFR",22.8,16.1,190,9,NA,NA,1015.7,"SPECI KLNK 091736Z 19009KT 10SM SCT029 BKN040 23/16 A2999 RMK AO2 T02280161",2025-09-09 17:52:14.925663,2025-09-09 13:52:14.925707
"KFSD","Sioux Falls/Foss Fld, SD, US",2025-09-09 17:15:00,2025-09-09 13:15:00,"MVFR",18.9,16.7,190,11,NA,NA,1015.3,"SPECI KFSD 091715Z 19011KT 10SM BKN011 19/17 A2998 RMK AO2 T01890167",2025-09-09 17:52:14.932178,2025-09-09 13:52:14.932223
"KDAY","Dayton/Cox Intl, OH, US",2025-09-09 16:56:00,2025-09-09 12:56:00,"VFR",22.2,5,100,4,NA,NA,1023.8,"METAR KDAY 091656Z 10004KT 10SM FEW250 22/05 A3023 RMK AO2 SLP233 T02220050",2025-09-09 17:52:14.938689,2025-09-09 13:52:14.938735
"KSDF","Louisville Intl, KY, US",2025-09-09 16:56:00,2025-09-09 12:56:00,"VFR",23.9,7.8,NA,4,NA,NA,1022.1,"METAR KSDF 091656Z VRB04KT 10SM FEW055 FEW350 24/08 A3018 RMK AO2 SLP216 T02390078",2025-09-09 17:52:14.947498,2025-09-09 13:52:14.947572
"KCHS","Charleston Intl, SC, US",2025-09-09 16:56:00,2025-09-09 12:56:00,"VFR",25,13.3,30,12,21,NA,1019.7,"METAR KCHS 091656Z 03012G21KT 10SM SCT180 BKN250 25/13 A3011 RMK AO2 SLP195 T02500133",2025-09-09 17:52:14.954181,2025-09-09 13:52:14.954226
"KJAX","Jacksonville Intl, FL, US",2025-09-09 16:56:00,2025-09-09 12:56:00,"MVFR",26.1,22.8,40,17,24,NA,1017,"METAR KJAX 091656Z 04017G24KT 10SM FEW008 BKN014 BKN110 26/23 A3003 RMK AO2 RAE34 SLP169 P0001 T02610228 $",2025-09-09 17:52:14.960804,2025-09-09 13:52:14.960852
"KIND","Indianapolis Intl, IN, US",2025-09-09 16:54:00,2025-09-09 12:54:00,"VFR",22.8,7.2,190,8,NA,NA,1022.8,"METAR KIND 091654Z 19008KT 10SM BKN250 23/07 A3020 RMK AO2 SLP222 T02280072",2025-09-09 17:52:14.967402,2025-09-09 13:52:14.967445
"KMEM","Memphis Intl, TN, US",2025-09-09 16:54:00,2025-09-09 12:54:00,"VFR",27.8,17.8,210,8,NA,NA,1019.4,"METAR KMEM 091654Z 21008KT 10SM SCT033 28/18 A3010 RMK AO2 SLP188 T02780178 $",2025-09-09 17:52:14.973988,2025-09-09 13:52:14.974038
"KGSO","Greensboro Intl, NC, US",2025-09-09 16:54:00,2025-09-09 12:54:00,"VFR",21.1,8.3,60,14,19,NA,1023.5,"METAR KGSO 091654Z 06014G19KT 10SM FEW060 FEW250 21/08 A3022 RMK AO2 SLP228 T02110083",2025-09-09 17:52:14.980539,2025-09-09 13:52:14.980584
"KFWA","Fort Wayne Intl, IN, US",2025-09-09 16:54:00,2025-09-09 12:54:00,"VFR",23.3,7.2,220,7,NA,NA,1023.5,"METAR KFWA 091654Z 22007KT 10SM BKN250 23/07 A3022 RMK AO2 SLP232 T02330072",2025-09-09 17:52:14.987133,2025-09-09 13:52:14.987183
"KSBN","South Bend Rgnl, IN, US",2025-09-09 16:54:00,2025-09-09 12:54:00,"VFR",21.7,7.2,210,9,NA,NA,1023.1,"METAR KSBN 091654Z 21009KT 10SM CLR 22/07 A3021 RMK AO2 SLP229 T02170072",2025-09-09 17:52:14.993623,2025-09-09 13:52:14.993669
"KDSM","Des Moines Intl, IA, US",2025-09-09 16:54:00,2025-09-09 12:54:00,"VFR",18.3,10.6,NA,6,NA,NA,1018.7,"METAR KDSM 091654Z VRB06KT 10SM FEW080 FEW110 SCT150 BKN210 OVC250 18/11 A3008 RMK AO2 SLP181 PRESENT WX VCSH T01830106",2025-09-09 17:52:15.000292,2025-09-09 13:52:15.000336
"KBNA","Nashville Intl, TN, US",2025-09-09 16:53:00,2025-09-09 12:53:00,"VFR",26.7,13.9,NA,6,NA,NA,1021.8,"METAR KBNA 091653Z VRB06KT 10SM FEW040 SCT070 SCT250 27/14 A3017 RMK AO2 SLP210 T02670139 $",2025-09-09 17:52:15.009218,2025-09-09 13:52:15.009262
"KMCO","Orlando Intl, FL, US",2025-09-09 16:53:00,2025-09-09 12:53:00,"VFR",29.4,23.3,70,5,NA,NA,1014.6,"METAR KMCO 091653Z 07005KT 10SM SCT025 BKN160 29/23 A2996 RMK AO2 SLP144 T02940233 $",2025-09-09 17:52:15.015835,2025-09-09 13:52:15.01588
"KMSP","Minneapolis-St Paul Intl, MN, US",2025-09-09 16:53:00,2025-09-09 12:53:00,"MVFR",20,13.9,210,7,NA,NA,1015.3,"METAR KMSP 091653Z 21007KT 10SM OVC025 20/14 A2998 RMK AO2 SLP150 T02000139",2025-09-09 17:52:15.022534,2025-09-09 13:52:15.02258
"KMCI","Kansas City Intl, MO, US",2025-09-09 16:53:00,2025-09-09 12:53:00,"VFR",17.2,14.4,180,13,NA,NA,1017.4,"METAR KMCI 091653Z 18013KT 10SM FEW010 BKN120 BKN250 17/14 A3004 RMK AO2 RAE03 SLP168 P0001 T01720144 $",2025-09-09 17:52:15.029127,2025-09-09 13:52:15.029178
"KFLL","Ft Lauderdale-Hollywood Intl, FL, US",2025-09-09 16:53:00,2025-09-09 12:53:00,"VFR",26.7,23.9,60,7,NA,NA,1014.6,"METAR KFLL 091653Z 06007KT 10SM -TSRA SCT025CB BKN045 BKN065 BKN250 27/24 A2996 RMK AO2 RAB37 SLP144 OCNL LTGICCG N-E AND SW-W MOV NE P0001 T02670239",2025-09-09 17:52:15.035675,2025-09-09 13:52:15.035719
"KGRR","Grand Rapids Intl, MI, US",2025-09-09 16:53:00,2025-09-09 12:53:00,"VFR",21.1,6.1,230,6,15,NA,1023.1,"METAR KGRR 091653Z 23006G15KT 10SM FEW055 BKN250 21/06 A3021 RMK AO2 SLP230 T02110061 $",2025-09-09 17:52:15.042253,2025-09-09 13:52:15.042298
"KTPA","Tampa Intl Arpt, FL, US",2025-09-09 16:53:00,2025-09-09 12:53:00,"VFR",27.8,23.9,60,5,NA,NA,1015,"METAR KTPA 091653Z 06005KT 10SM FEW010 FEW049 SCT110 28/24 A2997 RMK AO2 SLP148 T02780239",2025-09-09 17:52:15.04879,2025-09-09 13:52:15.048836
"KHSV","Huntsville Intl, AL, US",2025-09-09 16:53:00,2025-09-09 12:53:00,"VFR",25,13.3,110,7,NA,NA,1021.4,"METAR KHSV 091653Z 11007KT 10SM FEW049 25/13 A3016 RMK AO2 SLP207 T02500133 $",2025-09-09 17:52:15.055471,2025-09-09 13:52:15.055517
"KPBI","Palm Beach Intl, FL, US",2025-09-09 16:53:00,2025-09-09 12:53:00,"VFR",31.1,23.9,340,3,NA,NA,1014.6,"METAR KPBI 091653Z COR 34003KT 10SM SCT031 BKN055 BKN250 31/24 A2996 RMK AO2 SLP144 OCNL LTGICCG DSNT E S CB DSNT E S T03110239 $",2025-09-09 17:52:15.06461,2025-09-09 13:52:15.064653
"KRSW","Ft Myers/SW Florida Intl, FL, US",2025-09-09 16:53:00,2025-09-09 12:53:00,"VFR",30.6,25.6,160,6,NA,NA,1013.6,"METAR KRSW 091653Z 16006KT 10SM SCT021 31/26 A2993 RMK AO1 LTG DSNT S SLP133 T03060256",2025-09-09 17:52:15.071095,2025-09-09 13:52:15.071163
"KMYR","Myrtle Beach Intl, SC, US",2025-09-09 16:53:00,2025-09-09 12:53:00,"VFR",23.9,16.7,360,12,NA,NA,1020.1,"METAR KMYR 091653Z 36012KT 10SM CLR 24/17 A3012 RMK AO2 SLP199 T02390167 $",2025-09-09 17:52:15.077839,2025-09-09 13:52:15.077883
"KDTW","Detroit/Metro Wayne Cnty, MI, US",2025-09-09 16:53:00,2025-09-09 12:53:00,"VFR",22.2,7.2,210,8,NA,NA,1024.1,"METAR KDTW 091653Z 21008KT 10SM FEW060 FEW250 22/07 A3024 RMK AO2 SLP239 T02220072 $",2025-09-09 17:52:15.084422,2025-09-09 13:52:15.084466
"KEYW","Key West Intl, FL, US",2025-09-09 16:53:00,2025-09-09 12:53:00,"VFR",31.1,26.1,200,9,NA,NA,1014.6,"METAR KEYW 091653Z 20009KT 10SM SCT025 31/26 A2996 RMK AO2 SLP151 T03110261",2025-09-09 17:52:15.09095,2025-09-09 13:52:15.090994
"KBHM","Birmingham Intl, AL, US",2025-09-09 16:53:00,2025-09-09 12:53:00,"VFR",26.7,12.2,100,6,16,NA,1021.8,"METAR KBHM 091653Z 10006G16KT 10SM FEW055 FEW110 FEW250 27/12 A3017 RMK AO2 SLP208 T02670122",2025-09-09 17:52:15.097613,2025-09-09 13:52:15.097669
"KSAV","Savannah Intl, GA, US",2025-09-09 16:53:00,2025-09-09 12:53:00,"VFR",27.2,15.6,30,9,NA,NA,1019.4,"METAR KSAV 091653Z 03009KT 10SM BKN250 27/16 A3010 RMK AO2 SLP192 T02720156",2025-09-09 17:52:15.104298,2025-09-09 13:52:15.104345
"KLIT","Little Rock/Clinton Natl, AR, US",2025-09-09 16:53:00,2025-09-09 12:53:00,"VFR",25,13.9,330,3,NA,NA,1019.4,"METAR KLIT 091653Z 33003KT 10SM CLR 25/14 A3010 RMK AO2 SLP194 T02500139",2025-09-09 17:52:15.110857,2025-09-09 13:52:15.110903
"KMDW","Chicago/Midway Intl, IL, US",2025-09-09 16:53:00,2025-09-09 12:53:00,"VFR",23.3,6.1,210,9,NA,NA,1021.8,"METAR KMDW 091653Z 21009KT 10SM BKN250 23/06 A3017 RMK AO2 SLP212 T02330061 $",2025-09-09 17:52:15.117475,2025-09-09 13:52:15.117519
"KATL","Atlanta/Hartsfield-Jackson Intl, GA, US",2025-09-09 16:52:00,2025-09-09 12:52:00,"VFR",24.4,12.2,60,7,18,NA,1022.1,"METAR KATL 091652Z 06007G18KT 10SM FEW070 FEW200 FEW250 24/12 A3018 RMK SLP212 T02440122",2025-09-09 17:52:15.126499,2025-09-09 13:52:15.126544
"KMLI","Moline/Quad City Intl, IL, US",2025-09-09 16:52:00,2025-09-09 12:52:00,"VFR",23.3,9.4,180,10,NA,NA,1019.7,"METAR KMLI 091652Z 18010KT 10SM CLR 23/09 A3011 RMK AO2 SLP195 T02330094",2025-09-09 17:52:15.13341,2025-09-09 13:52:15.133456
"KCVG","Cincinnati Intl, KY, US",2025-09-09 16:52:00,2025-09-09 12:52:00,"VFR",23.3,8.3,160,5,NA,NA,1023.1,"METAR KCVG 091652Z 16005KT 10SM FEW060 FEW250 23/08 A3021 RMK AO2 SLP221 T02330083",2025-09-09 17:52:15.140131,2025-09-09 13:52:15.14018
"KCLT","Charlotte/Douglas Intl, NC, US",2025-09-09 16:52:00,2025-09-09 12:52:00,"VFR",22.8,8.3,30,10,18,NA,1023.1,"METAR KCLT 091652Z 03010G18KT 10SM FEW045 FEW250 23/08 A3021 RMK SLP240 T02280083 $",2025-09-09 17:52:15.146899,2025-09-09 13:52:15.146945
"KOMA","Omaha/Eppley Fld, NE, US",2025-09-09 16:52:00,2025-09-09 12:52:00,"VFR",22.2,16.1,210,10,NA,NA,1016.3,"METAR KOMA 091652Z 21010KT 10SM SCT024 SCT050 BKN080 22/16 A3001 RMK AO2 SLP157 T02220161",2025-09-09 17:52:15.153669,2025-09-09 13:52:15.153713
"KRDU","Raleigh-Durham Intl, NC, US",2025-09-09 16:51:00,2025-09-09 12:51:00,"VFR",22.2,12.8,50,10,20,NA,1022.8,"METAR KRDU 091651Z 05010G20KT 10SM SCT035 SCT250 22/13 A3020 RMK AO2 SLP223 T02220128",2025-09-09 17:52:15.160603,2025-09-09 13:52:15.16065
"KCLE","Cleveland/Hopkins Intl, OH, US",2025-09-09 16:51:00,2025-09-09 12:51:00,"VFR",22.8,5.6,150,7,NA,NA,1023.8,"METAR KCLE 091651Z 15007KT 120V180 10SM CLR 23/06 A3023 RMK AO2 SLP249 T02280056",2025-09-09 17:52:15.16721,2025-09-09 13:52:15.167256
"KCMH","Columbus/Glenn Intl, OH, US",2025-09-09 16:51:00,2025-09-09 12:51:00,"VFR",22.2,7.2,NA,6,NA,NA,1023.8,"METAR KCMH 091651Z VRB06KT 10SM FEW036 SCT250 22/07 A3023 RMK AO2 SLP235 T02220072",2025-09-09 17:52:15.173894,2025-09-09 13:52:15.173939
"KORD","Chicago/O'Hare Intl, IL, US",2025-09-09 16:51:00,2025-09-09 12:51:00,"VFR",20.6,6.1,240,7,NA,NA,1021.8,"METAR KORD 091651Z 24007KT 10SM BKN250 21/06 A3017 RMK AO2 SLP214 T02060061",2025-09-09 17:52:15.182895,2025-09-09 13:52:15.18294
"KSTL","St Louis/Lambert Intl, MO, US",2025-09-09 16:51:00,2025-09-09 12:51:00,"VFR",25,8.3,180,4,NA,NA,1020.4,"METAR KSTL 091651Z 18004KT 10SM FEW150 FEW200 SCT250 25/08 A3013 RMK AO2 SLP197 T02500083",2025-09-09 17:52:15.189519,2025-09-09 13:52:15.189564
"KGJT","Grand Junction Rgnl, CO, US",2025-09-09 17:45:00,2025-09-09 13:45:00,"MVFR",17.8,10,90,15,NA,3,1018,"SPECI KGJT 091745Z 09015KT 3SM GR FEW046 SCT065 OVC110 18/10 A3006 RMK AO2 RAB22E42GRB42 TSB21E44 P0012 T01780100",2025-09-09 17:52:16.754655,2025-09-09 13:52:16.754699
"KMFR","Medford/Rogue Valley Intl, OR, US",2025-09-09 17:41:00,2025-09-09 13:41:00,"MVFR",17.8,14.4,0,0,NA,NA,1014.3,"SPECI KMFR 091741Z 00000KT 10SM BKN013 BKN026 OVC085 18/14 A2995 RMK AO2 T01780144 $",2025-09-09 17:52:16.761383,2025-09-09 13:52:16.761427
"KLRD","Laredo Intl, TX, US",2025-09-09 16:56:00,2025-09-09 12:56:00,"VFR",30.6,20,NA,3,NA,NA,1016.7,"METAR KLRD 091656Z VRB03KT 10SM FEW043 SCT050 31/20 A3002 RMK AO2 SLP161 T03060200 $",2025-09-09 17:52:16.768014,2025-09-09 13:52:16.768059
"KBZN","Bozeman/Gallatin Fld, MT, US",2025-09-09 16:56:00,2025-09-09 12:56:00,"VFR",18.3,5.6,310,4,NA,NA,1017.7,"METAR KBZN 091656Z 31004KT 10SM CLR 18/06 A3005 RMK AO2 SLP144 T01830056",2025-09-09 17:52:16.774731,2025-09-09 13:52:16.774777
"KEGE","Eagle Cnty Rgnl, CO, US",2025-09-09 16:56:00,2025-09-09 12:56:00,"VFR",17.2,2.2,200,4,NA,NA,1025.1,"METAR KEGE 091656Z 20004KT 10SM CLR 17/02 A3027 RMK AO2 SLP180 T01720022 $",2025-09-09 17:52:16.783901,2025-09-09 13:52:16.783946
"KEUG","Eugene/Mahlon Sweet Fld, OR, US",2025-09-09 16:54:00,2025-09-09 12:54:00,"VFR",18.3,14.4,160,4,NA,NA,1014.3,"METAR KEUG 091654Z 16004KT 10SM BKN033 BKN042 OVC080 18/14 A2995 RMK AO2 SLP140 T01830144",2025-09-09 17:52:16.790568,2025-09-09 13:52:16.790616
"KCOS","Colorado Spring Arpt, CO, US",2025-09-09 16:54:00,2025-09-09 12:54:00,"VFR",24.4,4.4,220,6,NA,NA,1022.1,"METAR KCOS 091654Z 22006KT 10SM SCT110 SCT250 24/04 A3018 RMK AO2 SLP132 T02440044 $",2025-09-09 17:52:16.797243,2025-09-09 13:52:16.797288
"KSLC","Salt Lake City Intl, UT, US",2025-09-09 16:54:00,2025-09-09 12:54:00,"VFR",27.8,6.1,170,14,24,NA,1014.6,"METAR KSLC 091654Z 17014G24KT 10SM FEW095 FEW130 BKN230 28/06 A2996 RMK AO2 PK WND 16026/1610 SLP088 T02780061 $",2025-09-09 17:52:16.803893,2025-09-09 13:52:16.803938
"KDFW","Dallas-Ft Worth Intl, TX, US",2025-09-09 16:53:00,2025-09-09 12:53:00,"VFR",26.1,13.3,170,7,NA,NA,1018,"METAR KDFW 091653Z 17007KT 10SM CLR 26/13 A3006 RMK AO2 SLP173 T02610133 $",2025-09-09 17:52:16.810551,2025-09-09 13:52:16.810596
"KDAL","Dallas/Love Fld, TX, US",2025-09-09 16:53:00,2025-09-09 12:53:00,"VFR",25.6,13.3,180,5,NA,NA,1018.7,"METAR KDAL 091653Z COR 18005KT 10SM CLR 26/13 A3008 RMK AO2 SLP178 T02560133",2025-09-09 17:52:16.81718,2025-09-09 13:52:16.817227
"KLBB","Lubbock Intl Arpt, TX, US",2025-09-09 16:53:00,2025-09-09 12:53:00,"VFR",27.8,18.3,170,7,NA,NA,1019,"METAR KLBB 091653Z 17007KT 10SM FEW075 FEW100 28/18 A3009 RMK AO2 SLP136 ACC DSNT E-SE T02780183",2025-09-09 17:52:16.825083,2025-09-09 13:52:16.825157
"KAUS","Austin/Bergstrom Intl, TX, US",2025-09-09 16:53:00,2025-09-09 12:53:00,"VFR",28.3,13.3,150,4,NA,NA,1017.7,"METAR KAUS 091653Z 15004KT 10SM CLR 28/13 A3005 RMK AO2 SLP168 T02830133",2025-09-09 17:52:16.831806,2025-09-09 13:52:16.831851
"KPUB","Pueblo Mem Arpt, CO, US",2025-09-09 16:53:00,2025-09-09 12:53:00,"VFR",27.2,6.7,NA,6,NA,NA,1018.7,"METAR KPUB 091653Z VRB06KT 10SM CLR 27/07 A3008 RMK AO2 SLP119 T02720067",2025-09-09 17:52:16.841047,2025-09-09 13:52:16.841092
"KTUL","Tulsa Intl Arpt, OK, US",2025-09-09 16:53:00,2025-09-09 12:53:00,"VFR",25.6,12.2,170,11,NA,NA,1018.4,"METAR KTUL 091653Z 17011KT 10SM BKN070 BKN090 26/12 A3007 RMK AO2 SLP176 T02560122",2025-09-09 17:52:16.847556,2025-09-09 13:52:16.847602
"KMFE","McAllen/Miller Intl, TX, US",2025-09-09 16:53:00,2025-09-09 12:53:00,"VFR",31.7,22.8,40,8,NA,NA,1015.3,"METAR KMFE 091653Z 04008KT 10SM FEW032 SCT050 BKN060 32/23 A2998 RMK AO2 SLP149 T03170228 $",2025-09-09 17:52:16.854255,2025-09-09 13:52:16.854301
"KIDA","Idaho Falls Rgnl, ID, US",2025-09-09 16:53:00,2025-09-09 12:53:00,"VFR",22.2,6.7,190,3,NA,NA,1016.7,"METAR KIDA 091653Z 19003KT 10SM CLR 22/07 A3002 RMK AO2 SLP130 T02220067",2025-09-09 17:52:16.860987,2025-09-09 13:52:16.861032
"KICT","Wichita/Eisenhower Arpt, KS, US",2025-09-09 16:53:00,2025-09-09 12:53:00,"VFR",23.3,15,190,11,16,NA,1016.3,"METAR KICT 091653Z 19011G16KT 10SM SCT120 SCT150 BKN190 BKN250 23/15 A3001 RMK AO2 SLP153 ACC OHD T02330150 $",2025-09-09 17:52:16.867642,2025-09-09 13:52:16.867687
"KHOU","Houston/Hobby Arpt, TX, US",2025-09-09 16:53:00,2025-09-09 12:53:00,"VFR",28.3,13.9,50,6,NA,NA,1017,"METAR KHOU 091653Z 05006KT 10SM CLR 28/14 A3003 RMK AO2 SLP174 T02830139",2025-09-09 17:52:16.874338,2025-09-09 13:52:16.874383
"KDEN","Denver Intl, CO, US",2025-09-09 16:53:00,2025-09-09 12:53:00,"VFR",25,4.4,260,3,NA,NA,1019.7,"METAR KDEN 091653Z 26003KT 10SM FEW080 FEW100 SCT140 BKN220 25/04 A3011 RMK AO2 SLP117 T02500044",2025-09-09 17:52:16.880991,2025-09-09 13:52:16.881034
"KAFW","Fort Worth/Alliance Arpt, TX, US",2025-09-09 16:53:00,2025-09-09 12:53:00,"VFR",26.7,13.9,140,8,NA,NA,1018.4,"METAR KAFW 091653Z 14008KT 10SM CLR 27/14 A3007 RMK AO2 SLP170 T02670139",2025-09-09 17:52:16.887642,2025-09-09 13:52:16.887687
"KASE","Aspen/Pitkin Cnty, CO, US",2025-09-09 16:53:00,2025-09-09 12:53:00,"VFR",19.4,2.8,360,4,NA,NA,1025.8,"METAR KASE 091653Z 36004KT 10SM FEW090 19/03 A3029 RMK AO2 RAB10E24 SLP141 P0000 T01940028",2025-09-09 17:52:16.8967,2025-09-09 13:52:16.896758
"KBRO","Brownsville Intl, TX, US",2025-09-09 16:53:00,2025-09-09 12:53:00,"VFR",31.7,25,40,11,18,NA,1014.3,"METAR KBRO 091653Z 04011G18KT 10SM FEW025 SCT070 32/25 A2995 RMK AO2 SLP142 T03170250",2025-09-09 17:52:16.903299,2025-09-09 13:52:16.903344
"KBIL","Billings/Logan Intl, MT, US",2025-09-09 16:53:00,2025-09-09 12:53:00,"VFR",20.6,7.2,0,0,NA,NA,1017,"METAR KBIL 091653Z 00000KT 10SM FEW240 21/07 A3003 RMK AO2 SLP141 T02060072",2025-09-09 17:52:16.91008,2025-09-09 13:52:16.910148
"KHLN","Helena Rgnl, MT, US",2025-09-09 16:53:00,2025-09-09 12:53:00,"VFR",17.2,6.7,NA,4,NA,NA,1016.3,"METAR KHLN 091653Z VRB04KT 10SM CLR 17/07 A3001 RMK AO2 SLP156 T01720067",2025-09-09 17:52:16.916789,2025-09-09 13:52:16.916834
"KIAH","Houston/Bush Intl, TX, US",2025-09-09 16:53:00,2025-09-09 12:53:00,"VFR",27.8,13.3,30,7,NA,NA,1017.7,"METAR KIAH 091653Z 03007KT 10SM CLR 28/13 A3005 RMK AO2 SLP174 T02780133",2025-09-09 17:52:16.92334,2025-09-09 13:52:16.923395
"KLAW","Lawton-Fort Sill Rgnl, OK, US",2025-09-09 16:53:00,2025-09-09 12:53:00,"VFR",27.2,12.8,190,10,17,NA,1017.7,"METAR KLAW 091653Z 19010G17KT 10SM CLR 27/13 A3005 RMK AO2 SLP165 T02720128",2025-09-09 17:52:16.929908,2025-09-09 13:52:16.929954
"KGTF","Great Falls Intl, MT, US",2025-09-09 16:53:00,2025-09-09 12:53:00,"VFR",21.7,6.7,80,4,NA,NA,1016,"METAR KGTF 091653Z 08004KT 10SM CLR 22/07 A3000 RMK AO2 SLP127 T02170067 $",2025-09-09 17:52:16.936395,2025-09-09 13:52:16.936438
"KAMA","Amarillo Intl Arpt, TX, US",2025-09-09 16:53:00,2025-09-09 12:53:00,"VFR",27.8,16.1,220,12,NA,NA,1018.7,"METAR KAMA 091653Z 22012KT 10SM CLR 28/16 A3008 RMK AO2 SLP131 T02780161",2025-09-09 17:52:16.942903,2025-09-09 13:52:16.942947
"KBFI","Seattle/Boeing Fld, WA, US",2025-09-09 16:53:00,2025-09-09 12:53:00,"VFR",17.2,13.9,NA,3,NA,NA,1014.6,"METAR KBFI 091653Z VRB03KT 10SM SCT015 OVC043 17/14 A2996 RMK AO2 SLP146 T01720139",2025-09-09 17:52:16.949512,2025-09-09 13:52:16.949558
"KBOI","Boise Arpt, ID, US",2025-09-09 16:53:00,2025-09-09 12:53:00,"VFR",22.8,4.4,330,9,NA,NA,1012.6,"METAR KBOI 091653Z 33009KT 10SM CLR 23/04 A2990 RMK AO2 SLP100 T02280044",2025-09-09 17:52:16.958059,2025-09-09 13:52:16.95813
"KGEG","Spokane Intl, WA, US",2025-09-09 16:53:00,2025-09-09 12:53:00,"VFR",21.7,10,40,6,NA,NA,1013.6,"METAR KGEG 091653Z 04006KT 10SM FEW120 FEW150 FEW300 22/10 A2993 RMK AO2 SLP118 CB DSNT N-NE AND NW MOV N T02170100 $",2025-09-09 17:52:16.964663,2025-09-09 13:52:16.964708
"KPDX","Portland Intl, OR, US",2025-09-09 16:53:00,2025-09-09 12:53:00,"VFR",18.9,13.3,350,3,NA,NA,1014.3,"METAR KPDX 091653Z 35003KT 10SM FEW025 BKN110 BKN250 19/13 A2995 RMK AO2 SLP139 T01890133",2025-09-09 17:52:16.971303,2025-09-09 13:52:16.971349
"KMSO","Missoula Intl, MT, US",2025-09-09 16:53:00,2025-09-09 12:53:00,"VFR",15,7.8,160,3,NA,NA,1016,"METAR KMSO 091653Z 16003KT 10SM CLR 15/08 A3000 RMK AO2 SLP149 T01500078",2025-09-09 17:52:16.97783,2025-09-09 13:52:16.977873
"KSEA","Seattle-Tacoma Intl, WA, US",2025-09-09 16:53:00,2025-09-09 12:53:00,"VFR",18.3,13.9,10,5,NA,NA,1015,"METAR KSEA 091653Z 01005KT 10SM SCT012 BKN038 OVC100 18/14 A2997 RMK AO2 SLP154 T01830139 $",2025-09-09 17:52:16.984388,2025-09-09 13:52:16.984432
"KHRL","Harlingen/Valley Intl, TX, US",2025-09-09 16:52:00,2025-09-09 12:52:00,"VFR",31.1,24.4,60,9,NA,NA,1014.6,"METAR KHRL 091652Z 06009KT 10SM SCT060 SCT070 31/24 A2996 RMK AO2 SLP143 T03110244",2025-09-09 17:52:16.990931,2025-09-09 13:52:16.990975
"KABI","Abilene Rgnl, TX, US",2025-09-09 16:52:00,2025-09-09 12:52:00,"VFR",28.3,16.1,210,9,NA,NA,1018.7,"METAR KABI 091652Z 21009KT 10SM CLR 28/16 A3008 RMK AO2 SLP159 T02830161",2025-09-09 17:52:16.997508,2025-09-09 13:52:16.997552
"KOKC","Oklahoma City/Will Rogers Intl, OK, US",2025-09-09 16:52:00,2025-09-09 12:52:00,"VFR",25.6,12.8,180,15,NA,NA,1017.7,"METAR KOKC 091652Z 18015KT 10SM FEW100 SCT250 26/13 A3005 RMK AO2 SLP163 T02560128",2025-09-09 17:52:17.003978,2025-09-09 13:52:17.004022
"KELP","El Paso Intl, TX, US",2025-09-09 16:51:00,2025-09-09 12:51:00,"VFR",30,12.8,180,6,NA,NA,1019,"METAR KELP 091651Z 18006KT 10SM FEW065 FEW110 30/13 A3009 RMK AO2 SLP107 T03000128",2025-09-09 17:52:17.012342,2025-09-09 13:52:17.012387
"KACT","Waco Rgnl, TX, US",2025-09-09 16:51:00,2025-09-09 12:51:00,"VFR",26.7,15.6,NA,NA,NA,NA,1018.7,"METAR KACT 091651Z 10SM CLR 27/16 A3008 RMK AO2 SLP179 T02670156",2025-09-09 17:52:17.018845,2025-09-09 13:52:17.01889
"KSAT","San Antonio Intl, TX, US",2025-09-09 16:51:00,2025-09-09 12:51:00,"VFR",27.8,14.4,90,5,NA,NA,1018,"METAR KSAT 091651Z 09005KT 10SM CLR 28/14 A3006 RMK AO2 SLP160 T02780144",2025-09-09 17:52:17.025434,2025-09-09 13:52:17.025479
"KSNA","Santa Ana/Wayne Arpt, CA, US",2025-09-09 17:42:00,2025-09-09 13:42:00,"VFR",22.2,15,NA,3,NA,NA,1014.3,"SPECI KSNA 091742Z VRB03KT 10SM SCT024 22/15 A2995 RMK AO2 T02220150",2025-09-09 17:52:18.171415,2025-09-09 13:52:18.17146
"KLAX","Los Angeles Intl, CA, US",2025-09-09 17:36:00,2025-09-09 13:36:00,"VFR",22.8,15.6,150,5,NA,NA,1014.3,"SPECI KLAX 091736Z 15005KT 10SM FEW009 FEW018 SCT023 23/16 A2995 RMK AO2 T02280156 $",2025-09-09 17:52:18.178099,2025-09-09 13:52:18.178164
"KSFO","San Francisco Intl, CA, US",2025-09-09 17:29:00,2025-09-09 13:29:00,"VFR",20,17.2,170,4,NA,NA,1014.3,"SPECI KSFO 091729Z 17004KT 10SM FEW006 SCT024 BKN042 20/17 A2995 RMK AO2 RAB08E22 P0000 T02000172 $",2025-09-09 17:52:18.184649,2025-09-09 13:52:18.184694
"KSTS","Santa Rosa/Schulz Arpt, CA, US",2025-09-09 17:27:00,2025-09-09 13:27:00,"MVFR",19.4,16.7,0,0,NA,NA,1014,"SPECI KSTS 091727Z 00000KT 10SM BKN017 OVC050 19/17 A2994 RMK AO2 T01940167",2025-09-09 17:52:18.191285,2025-09-09 13:52:18.191331
"KOAK","Oakland Intl, CA, US",2025-09-09 17:10:00,2025-09-09 13:10:00,"MVFR",19.4,16.7,160,7,NA,NA,1014.6,"SPECI KOAK 091710Z 16007KT 10SM FEW019 BKN027 BKN037 BKN250 19/17 A2996 RMK AO2 T01940167",2025-09-09 17:52:18.200356,2025-09-09 13:52:18.200401
"KSAN","San Diego Intl Arpt, CA, US",2025-09-09 16:57:00,2025-09-09 12:57:00,"VFR",21.7,15,NA,4,NA,NA,1015.3,"SPECI KSAN 091657Z VRB04KT 10SM SCT021 22/15 A2998 RMK AO2 T02170150",2025-09-09 17:52:18.207005,2025-09-09 13:52:18.20705
"KRNO","Reno/Tahoe Intl, NV, US",2025-09-09 16:55:00,2025-09-09 12:55:00,"VFR",16.1,4.4,0,0,NA,NA,1017,"METAR KRNO 091655Z 00000KT 10SM FEW070 BKN200 16/04 A3003 RMK AO2 SLP127 T01610044",2025-09-09 17:52:18.213635,2025-09-09 13:52:18.213679
"PHOG","Kahului Arpt, HI, US",2025-09-09 16:54:00,2025-09-09 12:54:00,"VFR",24.4,20.6,30,3,NA,NA,1015.3,"METAR PHOG 091654Z 03003KT 10SM FEW030 SCT045 24/21 A2998 RMK AO2 SLP155 T02440206",2025-09-09 17:52:18.220268,2025-09-09 13:52:18.220314
"PHNL","Honolulu Intl, HI, US",2025-09-09 16:53:00,2025-09-09 12:53:00,"VFR",26.1,22.2,60,5,NA,NA,1015.3,"METAR PHNL 091653Z 06005KT 10SM FEW022 SCT035 26/22 A2998 RMK AO2 SLP152 VCSH N T02610222",2025-09-09 17:52:18.226848,2025-09-09 13:52:18.226893
"KTUS","Tucson Intl Arpt, AZ, US",2025-09-09 16:53:00,2025-09-09 12:53:00,"VFR",32.2,16.1,210,3,NA,NA,1015.7,"METAR KTUS 091653Z 21003KT 10SM CLR 32/16 A2999 RMK AO2 SLP100 T03220161",2025-09-09 17:52:18.233475,2025-09-09 13:52:18.233521
"KBUR","Burbank/Bob Hope Arpt, CA, US",2025-09-09 16:53:00,2025-09-09 12:53:00,"VFR",20.6,15,NA,5,NA,NA,1015,"METAR KBUR 091653Z VRB05KT 10SM FEW017 21/15 A2997 RMK AO2 SLP137 T02060150",2025-09-09 17:52:18.240079,2025-09-09 13:52:18.240143
"KLGB","Long Beach Arpt, CA, US",2025-09-09 16:53:00,2025-09-09 12:53:00,"MVFR",21.7,16.1,200,5,NA,NA,1014.6,"METAR KLGB 091653Z 20005KT 10SM OVC021 22/16 A2996 RMK AO2 SLP144 T02170161",2025-09-09 17:52:18.246683,2025-09-09 13:52:18.246729
"KSAF","Santa Fe Cnty Muni, NM, US",2025-09-09 16:53:00,2025-09-09 12:53:00,"VFR",24.4,4.4,40,5,NA,NA,1024.1,"METAR KSAF 091653Z 04005KT 10SM CLR 24/04 A3024 RMK AO2 SLP143 T02440044",2025-09-09 17:52:18.255518,2025-09-09 13:52:18.255561
"KONT","Ontario Intl, CA, US",2025-09-09 16:53:00,2025-09-09 12:53:00,"VFR",21.1,14.4,NA,4,NA,NA,1015,"METAR KONT 091653Z VRB04KT 10SM FEW010 21/14 A2997 RMK AO2 SLP135 T02110144 $",2025-09-09 17:52:18.262224,2025-09-09 13:52:18.262269
"KSBA","Santa Barbara Muni, CA, US",2025-09-09 16:53:00,2025-09-09 12:53:00,"VFR",20.6,17.2,140,9,NA,NA,1013.6,"METAR KSBA 091653Z 14009KT 10SM CLR 21/17 A2993 RMK AO2 SLP136 T02060172 $",2025-09-09 17:52:18.268808,2025-09-09 13:52:18.268855
"KSJC","San Jose Intl Arpt, CA, US",2025-09-09 16:53:00,2025-09-09 12:53:00,"MVFR",20.6,14.4,0,0,NA,NA,1014.6,"METAR KSJC 091653Z 00000KT 10SM -RA FEW010 BKN030 BKN045 21/14 A2996 RMK AO2 RAB46 SLP143 TCU DSNT SE AND NW P0000 T02060144",2025-09-09 17:52:18.275434,2025-09-09 13:52:18.27548
"KPSP","Palm Springs Intl, CA, US",2025-09-09 16:53:00,2025-09-09 12:53:00,"VFR",32.8,3.9,0,0,NA,NA,1010.6,"METAR KPSP 091653Z 00000KT 10SM CLR 33/04 A2984 RMK AO2 SLP098 T03280039",2025-09-09 17:52:18.282027,2025-09-09 13:52:18.282072
"KABQ","Albuquerque Intl, NM, US",2025-09-09 16:52:00,2025-09-09 12:52:00,"VFR",24.4,6.7,210,3,NA,NA,1022.8,"METAR KABQ 091652Z COR 21003KT 10SM FEW070 BKN120 24/07 A3020 RMK AO2 SLP136 T02440067 $",2025-09-09 17:52:18.288576,2025-09-09 13:52:18.288621
"KPHX","Phoenix/Sky Harbor Intl, AZ, US",2025-09-09 16:51:00,2025-09-09 12:51:00,"VFR",36.1,13.9,NA,4,NA,NA,1010.6,"METAR KPHX 091651Z VRB04KT 10SM FEW100 36/14 A2984 RMK AO2 SLP082 T03610139",2025-09-09 17:52:18.295314,2025-09-09 13:52:18.29536
"KSMO","Santa Monica Muni, CA, US",2025-09-09 16:51:00,2025-09-09 12:51:00,"MVFR",21.1,16.7,NA,4,NA,NA,1014.6,"METAR KSMO 091651Z VRB04KT 10SM OVC020 21/17 A2996 RMK AO2 SLP143 T02110167",2025-09-09 17:52:18.301933,2025-09-09 13:52:18.301979
"CYAT","Attawapisket Arpt, ON, CA",2025-09-09 18:00:00,2025-09-09 14:00:00,"MVFR",14,12,260,8,NA,9,1011.9,"METAR CYAT 091800Z AUTO 26008KT 9SM OVC012 14/12 A2988 RMK SLP119",2025-09-09 18:09:15.863577,2025-09-09 14:09:15.863639
"CYER","Ft Severn Arpt, ON, CA",2025-09-09 18:00:00,2025-09-09 14:00:00,"MVFR",9,5,20,6,NA,9,1016.7,"METAR CYER 091800Z AUTO 02006KT 360V070 9SM OVC025 09/05 A3002 RMK SLP168",2025-09-09 18:09:15.87271,2025-09-09 14:09:15.872757
"CYQA","Muskoka Arpt, ON, CA",2025-09-09 18:00:00,2025-09-09 14:00:00,"VFR",20,7,190,8,16,9,1024.5,"METAR CYQA 091800Z AUTO 19008G16KT 130V220 9SM CLR 20/07 A3025 RMK SLP252 DENSITY ALT 1400FT",2025-09-09 18:09:15.879651,2025-09-09 14:09:15.879699
"CYVV","Wiarton Arpt, ON, CA",2025-09-09 18:00:00,2025-09-09 14:00:00,"VFR",20,12,240,6,NA,15,1023.8,"METAR CYVV 091800Z 24006KT 170V270 15SM FEW042 OVC250 20/12 A3023 RMK CU2CI6 SLP243 DENSITY ALT 1200FT",2025-09-09 18:09:15.886416,2025-09-09 14:09:15.886464
"CYMM","Fort McMurray Arpt, AB, CA",2025-09-09 18:00:00,2025-09-09 14:00:00,"VFR",23,13,110,8,NA,9,1009.9,"METAR CYMM 091800Z AUTO 11008KT 9SM CLR 23/13 A2982 RMK SLP105 DENSITY ALT 2600FT",2025-09-09 18:09:15.893434,2025-09-09 14:09:15.893481
"CYZV","Sept-Îles Arpt, QC, CA",2025-09-09 18:00:00,2025-09-09 14:00:00,"VFR",13,7,210,8,NA,30,1027.2,"METAR CYZV 091800Z 21008KT 160V220 30SM FEW060 FEW080 FEW120 BKN260 13/07 A3033 RMK CU1AC1AC1CI5 CU TR AC TR AC TR SLP276",2025-09-09 18:09:15.900147,2025-09-09 14:09:15.900193
"CYEG","Edmonton Intl Arpt, AB, CA",2025-09-09 18:00:00,2025-09-09 14:00:00,"VFR",22,11,150,8,NA,8,1011.3,"METAR CYEG 091800Z 15008KT 8SM SKC 22/11 A2986 RMK FU SLP115 DENSITY ALT 3900FT",2025-09-09 18:09:15.909636,2025-09-09 14:09:15.909747
"CYHZ","Halifax/Stanfield Intl, NS, CA",2025-09-09 18:00:00,2025-09-09 14:00:00,"VFR",20,7,NA,4,NA,15,1028.5,"METAR CYHZ 091800Z VRB04KT 15SM FEW040 BKN250 20/07 A3037 RMK CU1CS6 SLP286 DENSITY ALT 700FT",2025-09-09 18:09:15.92124,2025-09-09 14:09:15.921286
"CYOW","Ottawa/Cartier Intl, ON, CA",2025-09-09 18:00:00,2025-09-09 14:00:00,"VFR",21,8,170,6,NA,15,1026.5,"METAR CYOW 091800Z 17006KT 15SM FEW050 FEW250 21/08 A3031 RMK CU1CI1 SLP266 DENSITY ALT 700FT",2025-09-09 18:09:15.928473,2025-09-09 14:09:15.928517
"CYPL","Pickle Lake Arpt, ON, CA",2025-09-09 18:00:00,2025-09-09 14:00:00,"VFR",20,9,10,4,NA,9,1015,"METAR CYPL 091800Z AUTO 01004KT 300V090 9SM CLR 20/09 A2997 RMK SLP157 DENSITY ALT 2100FT",2025-09-09 18:09:15.938002,2025-09-09 14:09:15.938051
"CYQB","Quebec/Lesage Intl, QC, CA",2025-09-09 18:00:00,2025-09-09 14:00:00,"VFR",19,8,260,6,NA,30,1027.9,"METAR CYQB 091800Z 26006KT 170V280 30SM FEW052 FEW100 SCT250 19/08 A3035 RMK SC2AC1CI1 AC TR SLP280",2025-09-09 18:09:15.944793,2025-09-09 14:09:15.944838
"CYQG","Windsor Intl, ON, CA",2025-09-09 18:00:00,2025-09-09 14:00:00,"VFR",23,7,190,9,15,9,1023.5,"METAR CYQG 091800Z AUTO 19009G15KT 150V270 9SM CLR 23/07 A3022 RMK SLP237 DENSITY ALT 1400FT",2025-09-09 18:09:15.951515,2025-09-09 14:09:15.951561
"CYQM","Moncton Intl, NB, CA",2025-09-09 18:00:00,2025-09-09 14:00:00,"VFR",21,5,NA,4,NA,15,1027.5,"METAR CYQM 091800Z VRB04KT 15SM FEW062 FEW240 21/05 A3034 RMK CU1CI1 SLP279 DENSITY ALT 500FT",2025-09-09 18:09:15.95828,2025-09-09 14:09:15.958329
"CYQQ","Comox(MIL), BC, CA",2025-09-09 18:00:00,2025-09-09 14:00:00,"MVFR",18,12,340,10,NA,20,1015.3,"METAR CYQQ 091800Z 34010KT 20SM BKN019 18/12 A2998 RMK SC7 DENSITY ALT 622FT SLP152",2025-09-09 18:09:15.964873,2025-09-09 14:09:15.96492
"CYUL","Montreal/Trudeau Intl, QC, CA",2025-09-09 18:00:00,2025-09-09 14:00:00,"VFR",19,9,210,3,NA,30,1027.2,"METAR CYUL 091800Z 21003KT 190V320 30SM FEW035 BKN250 19/09 A3033 RMK CF1CI6 CF TR SLP273",2025-09-09 18:09:15.971565,2025-09-09 14:09:15.97161
"CYUY","Rouyn/Noranda Arpt, QC, CA",2025-09-09 18:00:00,2025-09-09 14:00:00,"VFR",14,10,190,10,19,15,1020.1,"METAR CYUY 091800Z 19010G19KT 15SM -RA FEW034 BKN098 14/10 A3012 RMK SC2AC5 SLP210",2025-09-09 18:09:15.978235,2025-09-09 14:09:15.97828
"CYVR","Vancouver Intl, BC, CA",2025-09-09 18:00:00,2025-09-09 14:00:00,"VFR",19,17,300,13,NA,20,1014.3,"METAR CYVR 091800Z 30013KT 20SM FEW013 SCT020 BKN042 19/17 A2995 RMK SC1SC3SC3 SLP146 DENSITY ALT 500FT",2025-09-09 18:09:15.98526,2025-09-09 14:09:15.985305
"CYWG","Winnipeg Intl Arpt, MB, CA",2025-09-09 18:00:00,2025-09-09 14:00:00,"VFR",24,15,NA,4,NA,15,1015,"METAR CYWG 091800Z VRB04KT 15SM FEW035 24/15 A2997 RMK CU1 SLP153 DENSITY ALT 1900FT",2025-09-09 18:09:15.99658,2025-09-09 14:09:15.99673
"CYYC","Calgary Intl, AB, CA",2025-09-09 18:00:00,2025-09-09 14:00:00,"VFR",22,8,150,3,NA,15,1014,"METAR CYYC 091800Z 15003KT 120V290 15SM FEW050 FEW250 22/08 A2994 RMK CU1CI1 CU TR SLP137 DENSITY ALT 5300FT",2025-09-09 18:09:16.015138,2025-09-09 14:09:16.015185
"CYYJ","Victoria Intl, BC, CA",2025-09-09 18:00:00,2025-09-09 14:00:00,"VFR",18,14,90,6,NA,30,1014.6,"METAR CYYJ 091800Z 09006KT 070V150 30SM FEW025 BKN042 BKN250 18/14 A2996 RMK CU1SC7CI1 CU TR CI TR SLP147 DENSITY ALT 500FT",2025-09-09 18:09:16.025162,2025-09-09 14:09:16.025208
"CYYZ","Toronto/Pearson Intl, ON, CA",2025-09-09 18:00:00,2025-09-09 14:00:00,"VFR",21,9,140,8,15,15,1024.8,"METAR CYYZ 091800Z 14008G15KT 100V190 15SM FEW040 SCT250 21/09 A3026 RMK CU2CI2 SLP250 DENSITY ALT 1100FT",2025-09-09 18:09:16.035207,2025-09-09 14:09:16.035258
"CYVO","Val D'Or Arpt, QC, CA",2025-09-09 18:00:00,2025-09-09 14:00:00,"VFR",15,8,180,10,15,15,1021.4,"METAR CYVO 091800Z 18010G15KT 15SM OVC074 15/08 A3016 RMK AC8 SLP226",2025-09-09 18:09:16.044837,2025-09-09 14:09:16.044953
"CYXE","Saskatoon/Diefenbaker Intl, SK, CA",2025-09-09 18:00:00,2025-09-09 14:00:00,"VFR",24,12,150,4,NA,12,1015.3,"METAR CYXE 091800Z 15004KT 020V170 12SM FEW300 24/12 A2998 RMK CI1 CI TR FU SLP159 DENSITY ALT 3000FT",2025-09-09 18:09:16.053578,2025-09-09 14:09:16.053624
"CYXS","Prince George Arpt, BC, CA",2025-09-09 18:00:00,2025-09-09 14:00:00,"VFR",18,8,220,4,NA,6,1014,"METAR CYXS 091800Z AUTO 22004KT 180V250 6SM HZ CLR 18/08 A2994 RMK SLP147 DENSITY ALT 3100FT",2025-09-09 18:09:16.060275,2025-09-09 14:09:16.060322
"CYXT","Terrace Arpt, BC, CA",2025-09-09 18:00:00,2025-09-09 14:00:00,"VFR",17,12,NA,3,NA,20,1016.7,"METAR CYXT 091800Z VRB03KT 20SM FEW025 BKN045 BKN210 17/12 A3002 RMK CU1SC5CI2 CU TR SLP170 DENSITY ALT 1100FT",2025-09-09 18:09:16.066923,2025-09-09 14:09:16.066984
"CYYB","North Bay/Garland Arpt, ON, CA",2025-09-09 18:00:00,2025-09-09 14:00:00,"VFR",19,10,220,13,20,30,1023.8,"METAR CYYB 091800Z 22013G20KT 30SM SCT040 BKN280 19/10 A3023 RMK CU3CI3 SLP244 DENSITY ALT 1600FT",2025-09-09 18:09:16.073615,2025-09-09 14:09:16.07366
"CYYG","Charlottetown Arpt, PE, CA",2025-09-09 18:00:00,2025-09-09 14:00:00,"VFR",21,6,230,8,NA,15,1028.2,"METAR CYYG 091800Z 23008KT 180V280 15SM SCT057 BKN260 21/06 A3036 RMK SC3CI4 SLP284 DENSITY ALT 400FT",2025-09-09 18:09:16.082737,2025-09-09 14:09:16.082781
"CYQF","Red Deer Rgnl, AB, CA",2025-09-09 18:00:00,2025-09-09 14:00:00,"VFR",22,9,NA,3,NA,9,1013.3,"METAR CYQF 091800Z AUTO VRB03KT 9SM CLR 22/09 A2992 RMK SLP137 DENSITY ALT 4500FT",2025-09-09 18:09:16.089534,2025-09-09 14:09:16.089581
"CYQR","Regina Intl Arpt, SK, CA",2025-09-09 18:00:00,2025-09-09 14:00:00,"VFR",25,10,NA,2,NA,15,1015.7,"METAR CYQR 091800Z VRB02KT 15SM FEW040 25/10 A2999 RMK CU1 CU TR SLP162 DENSITY ALT 3400FT",2025-09-09 18:09:16.097757,2025-09-09 14:09:16.097802
"CYQT","Thunder Bay Intl, ON, CA",2025-09-09 18:00:00,2025-09-09 14:00:00,"MVFR",17,15,120,3,NA,15,1015,"METAR CYQT 091800Z 12003KT 070V150 15SM SCT013 OVC019 17/15 A2997 RMK SC4SC4 SLP154 DENSITY ALT 1100FT",2025-09-09 18:09:16.10464,2025-09-09 14:09:16.104685
"CYRJ","Roberval Arpt, QC, CA",2025-09-09 18:00:00,2025-09-09 14:00:00,"VFR",16,6,210,9,16,40,1026.2,"METAR CYRJ 091800Z 21009G16KT 180V250 40SM BKN150 BKN240 16/06 A3030 RMK AC5CI1 SLP268",2025-09-09 18:09:16.111314,2025-09-09 14:09:16.111362
"CYSB","Sudbury Arpt, ON, CA",2025-09-09 18:00:00,2025-09-09 14:00:00,"VFR",19,9,210,19,25,20,1022.4,"METAR CYSB 091800Z 21019G25KT 20SM SCT035 BKN200 19/09 A3019 RMK SC3CS3 SLP230 DENSITY ALT 1600FT",2025-09-09 18:09:16.118009,2025-09-09 14:09:16.118057
"CYGK","Kingston Arpt, ON, CA",2025-09-09 18:00:00,2025-09-09 14:00:00,"VFR",19,12,170,7,NA,15,1026.8,"METAR CYGK 091800Z 17007KT 15SM FEW020 FEW250 19/12 A3032 RMK SC1CI1 SLP271",2025-09-09 18:09:16.124572,2025-09-09 14:09:16.124615
"CYHU","Montreal/St Hubert, QC, CA",2025-09-09 18:00:00,2025-09-09 14:00:00,"VFR",20,10,NA,6,NA,9,1026.8,"METAR CYHU 091800Z AUTO VRB06KT 9SM CLR 20/10 A3032 RMK SLP270 DENSITY ALT 300FT",2025-09-09 18:09:16.131306,2025-09-09 14:09:16.131351
"CYLW","Kelowna Arpt, BC, CA",2025-09-09 18:00:00,2025-09-09 14:00:00,"VFR",22,12,NA,2,NA,9,1012.6,"METAR CYLW 091800Z AUTO VRB02KT 9SM CLR 22/12 A2990 RMK SLP123 DENSITY ALT 2700FT",2025-09-09 18:09:16.138093,2025-09-09 14:09:16.138136
"CYMO","Moosonee Arpt, ON, CA",2025-09-09 18:00:00,2025-09-09 14:00:00,"MVFR",16,13,210,10,NA,9,1013.6,"METAR CYMO 091800Z AUTO 21010KT 9SM OVC016 16/13 A2993 RMK SLP137",2025-09-09 18:09:16.147295,2025-09-09 14:09:16.147341
"CYAM","Sault Ste Marie Arpt, ON, CA",2025-09-09 18:00:00,2025-09-09 14:00:00,"VFR",19,12,210,7,NA,20,1019.7,"METAR CYAM 091800Z 21007KT 20SM FEW024 FEW069 BKN098 BKN110 OVC250 19/12 A3011 RMK CU1AC2ACC3AS2CS1 CU TR ACC N MOV E SLP201 DENSITY ALT 1100FT",2025-09-09 18:09:16.15406,2025-09-09 14:09:16.154104
"CYBC","Baie Comeau Arpt, QC, CA",2025-09-09 18:00:00,2025-09-09 14:00:00,"VFR",15,7,220,11,NA,9,1027.2,"METAR CYBC 091800Z AUTO 22011KT 9SM CLR 15/07 A3033 RMK SLP275",2025-09-09 18:09:16.161058,2025-09-09 14:09:16.161105
"CYBR","Brandon Arpt, MB, CA",2025-09-09 18:00:00,2025-09-09 14:00:00,"VFR",23,11,90,3,NA,15,1015.7,"METAR CYBR 091800Z 09003KT 040V120 15SM FEW250 23/11 A2999 RMK CI2 SLP161 DENSITY ALT 2500FT",2025-09-09 18:09:16.167829,2025-09-09 14:09:16.167885
"CYTS","Timmins/Power Arpt, ON, CA",2025-09-09 17:00:00,2025-09-09 13:00:00,"MVFR",13,12,190,8,NA,5,1017.7,"METAR CYTS 091700Z 19008KT 5SM -RA BR SCT009 OVC037 13/12 A3005 RMK SC4SC4 SLP187",2025-09-09 18:09:16.179507,2025-09-09 14:09:16.179552
"CYFB","Iqaluit Arpt, NU, CA",2025-09-09 18:00:00,2025-09-09 14:00:00,"MVFR",8,3,320,15,NA,30,1010.2,"METAR CYFB 091800Z 32015KT 30SM BKN022 08/03 A2983 RMK SC7 SLP105",2025-09-09 18:09:17.385832,2025-09-09 14:09:17.385878
"CYBL","Campbell River Arpt, BC, CA",2025-09-09 18:00:00,2025-09-09 14:00:00,"MVFR",17,14,350,6,NA,20,1015.3,"METAR CYBL 091800Z 35006KT 300V010 20SM OVC016 17/14 A2998 RMK SC8 SLP154 DENSITY ALT 600FT",2025-09-09 18:09:17.394996,2025-09-09 14:09:17.395049
"CYBG","Bagotville(MIL), QC, CA",2025-09-09 18:00:00,2025-09-09 14:00:00,"VFR",17,8,80,2,NA,25,1026.5,"METAR CYBG 091800Z 08002KT 25SM SCT055 BKN160 17/08 A3031 RMK SC4AC3 DENSITY ALT 564FT SLP270",2025-09-09 18:09:17.401676,2025-09-09 14:09:17.401724
"CYDF","Deer Lake Arpt, NL, CA",2025-09-09 18:00:00,2025-09-09 14:00:00,"VFR",18,4,260,15,21,15,1025.8,"METAR CYDF 091800Z 26015G21KT 15SM SCT056 SCT250 18/04 A3029 RMK CU3CI1 SLP260",2025-09-09 18:09:17.408333,2025-09-09 14:09:17.408377
"CYTZ","Toronto/Bishop Arpt, ON, CA",2025-09-09 18:00:00,2025-09-09 14:00:00,"VFR",18,13,70,8,NA,9,1025.1,"METAR CYTZ 091800Z AUTO 07008KT 9SM CLR 18/13 A3027 RMK SLP254",2025-09-09 18:09:17.414902,2025-09-09 14:09:17.414946
"CYRT","Rankin Inlet Arpt, NU, CA",2025-09-09 18:00:00,2025-09-09 14:00:00,"MVFR",8,4,360,7,NA,15,1015.7,"METAR CYRT 091800Z 36007KT 15SM OVC023 08/04 A2999 RMK SC8 SLP160",2025-09-09 18:09:17.421514,2025-09-09 14:09:17.421558
"CYFC","Fredericton Intl, NB, CA",2025-09-09 18:00:00,2025-09-09 14:00:00,"VFR",20,6,NA,2,NA,9,1027.9,"METAR CYFC 091800Z AUTO VRB02KT 9SM CLR 20/06 A3035 RMK SLP282 DENSITY ALT 300FT",2025-09-09 18:09:17.428239,2025-09-09 14:09:17.428286
"CYMH","Mary's Harbor Arpt, NL, CA",2025-09-09 18:00:00,2025-09-09 14:00:00,"VFR",17,5,330,8,18,9,1021.1,"METAR CYMH 091800Z AUTO 33008G18KT 9SM SCT060 17/05 A3015 RMK SLP211",2025-09-09 18:09:17.434783,2025-09-09 14:09:17.434828
"CYQQ","Comox(MIL), BC, CA",2025-09-09 18:00:00,2025-09-09 14:00:00,"MVFR",18,12,340,10,NA,20,1015.3,"METAR CYQQ 091800Z 34010KT 20SM BKN019 18/12 A2998 RMK SC7 DENSITY ALT 622FT SLP152",2025-09-09 18:09:17.441412,2025-09-09 14:09:17.441458
"CYQX","Gander Intl Arpt, NL, CA",2025-09-09 18:00:00,2025-09-09 14:00:00,"VFR",18,6,250,11,20,20,1024.5,"METAR CYQX 091800Z 25011G20KT 20SM FEW040 SCT210 18/06 A3025 RMK CU1CC2 SLP249 DENSITY ALT 700FT",2025-09-09 18:09:17.450243,2025-09-09 14:09:17.450288
"CYQY","Sydney Arpt, NS, CA",2025-09-09 18:00:00,2025-09-09 14:00:00,"VFR",20,9,60,4,NA,15,1027.5,"METAR CYQY 091800Z 06004KT 030V100 15SM SCT054 BKN230 20/09 A3034 RMK CU3CS3 SLP277",2025-09-09 18:09:17.456889,2025-09-09 14:09:17.456933
"CYRB","Resolute Bay Arpt, NU, CA",2025-09-09 18:00:00,2025-09-09 14:00:00,"LIFR",-1,-1,280,7,NA,0.5,1012.3,"METAR CYRB 091800Z 28007KT 1/2SM R35/3000V5500FT/D FZFG OVC002 M01/M01 A2989 RMK FG6ST2 SLP131",2025-09-09 18:09:17.463659,2025-09-09 14:09:17.463702
"CYTR","Trenton(MIL), ON, CA",2025-09-09 18:00:00,2025-09-09 14:00:00,"VFR",22,8,160,7,NA,15,1025.8,"METAR CYTR 091800Z 16007KT 120V230 15SM FEW052 FEW250 22/08 A3029 RMK CU1CI2 DENSITY ALT 870FT SLP258",2025-09-09 18:09:17.470299,2025-09-09 14:09:17.470345
"CYUY","Rouyn/Noranda Arpt, QC, CA",2025-09-09 18:00:00,2025-09-09 14:00:00,"VFR",14,10,190,10,19,15,1020.1,"METAR CYUY 091800Z 19010G19KT 15SM -RA FEW034 BKN098 14/10 A3012 RMK SC2AC5 SLP210",2025-09-09 18:09:17.477037,2025-09-09 14:09:17.477085
"CYXU","London Intl, ON, CA",2025-09-09 18:00:00,2025-09-09 14:00:00,"VFR",22,8,170,9,15,15,1024.1,"METAR CYXU 091800Z 17009G15KT 100V190 15SM FEW060 22/08 A3024 RMK SC2 SLP244 DENSITY ALT 1600FT",2025-09-09 18:09:17.48375,2025-09-09 14:09:17.483794
"CYXX","Abbotsford Intl, BC, CA",2025-09-09 18:00:00,2025-09-09 14:00:00,"MVFR",18,16,270,3,NA,NA,1014.3,"METAR CYXX 091800Z 27003KT 230V290 10SM BKN010 OVC037 18/16 A2995 RMK CF5SC3 SLP144 DENSITY ALT 600FT",2025-09-09 18:09:17.490502,2025-09-09 14:09:17.490547
"CYXY","Whitehorse Arpt, YT, CA",2025-09-09 18:00:00,2025-09-09 14:00:00,"VFR",11,6,170,6,NA,40,1012.3,"METAR CYXY 091800Z 17006KT 120V210 40SM FEW060 FEW140 11/06 A2989 RMK SC1AC1 SC TR AC TR SLP141",2025-09-09 18:09:17.497174,2025-09-09 14:09:17.497225
"CYYT","St Johns Intl, NL, CA",2025-09-09 18:00:00,2025-09-09 14:00:00,"VFR",18,8,310,12,17,15,1025.8,"METAR CYYT 091800Z 31012G17KT 260V320 15SM FEW040 SCT220 BKN240 18/08 A3029 RMK CU1CI3CI7 SLP262",2025-09-09 18:09:17.503904,2025-09-09 14:09:17.503949
"CYZF","Yellowknife Arpt, NT, CA",2025-09-09 18:00:00,2025-09-09 14:00:00,"VFR",13,9,140,9,17,15,1006.2,"METAR CYZF 091800Z 14009G17KT 15SM BKN130 13/09 A2971 RMK AC7 SLP070 DENSITY ALT 900FT",2025-09-09 18:09:17.524139,2025-09-09 14:09:17.524208
"CYWL","Williams Lake Rgnl, BC, CA",2025-09-09 18:00:00,2025-09-09 14:00:00,"MVFR",17,10,180,3,NA,5,1015,"METAR CYWL 091800Z 18003KT 100V260 5SM FU SKC 17/10 A2997 RMK SLP152 DENSITY ALT 4100FT",2025-09-09 18:09:17.530944,2025-09-09 14:09:17.531007
"CYXS","Prince George Arpt, BC, CA",2025-09-09 18:00:00,2025-09-09 14:00:00,"VFR",18,8,220,4,NA,6,1014,"METAR CYXS 091800Z AUTO 22004KT 180V250 6SM HZ CLR 18/08 A2994 RMK SLP147 DENSITY ALT 3100FT",2025-09-09 18:09:17.537608,2025-09-09 14:09:17.537653
"CYZP","Sandspit Arpt, BC, CA",2025-09-09 18:00:00,2025-09-09 14:00:00,"MVFR",16,11,320,9,NA,9,1018.7,"METAR CYZP 091800Z AUTO 32009KT 9SM OVC024 16/11 A3008 RMK SLP188",2025-09-09 18:09:17.544268,2025-09-09 14:09:17.544312
"CYOD","Cold Lake (Mil), AB, CA",2025-09-09 18:00:00,2025-09-09 14:00:00,"VFR",23,13,120,6,NA,8,1013.3,"METAR CYOD 091800Z 12006KT 8SM FEW250 23/13 A2992 RMK CI1 DENSITY ALT 3367FT FU SLP135",2025-09-09 18:09:17.550919,2025-09-09 14:09:17.550964
"CYPR","Prince Rupert Arpt, BC, CA",2025-09-09 18:00:00,2025-09-09 14:00:00,NA,14,12,300,4,NA,NA,1017.4,"METAR CYPR 091800Z AUTO 30004KT 250V320 OVC008 14/12 A3004 RMK WX MISG VIS MISG SLP175",2025-09-09 18:09:17.557562,2025-09-09 14:09:17.557606
"CYQH","Watson Lake Arpt, YT, CA",2025-09-09 18:00:00,2025-09-09 14:00:00,"VFR",14,5,310,6,NA,30,1011.9,"METAR CYQH 091800Z 31006KT 260V330 30SM BKN055 14/05 A2988 RMK CU7 CLIMAT 14.5/3.4/0.0 SLP134 DENSITY ALT 2800FT",2025-09-09 18:09:17.564166,2025-09-09 14:09:17.564211
"CYQT","Thunder Bay Intl, ON, CA",2025-09-09 18:00:00,2025-09-09 14:00:00,"MVFR",17,15,120,3,NA,15,1015,"METAR CYQT 091800Z 12003KT 070V150 15SM SCT013 OVC019 17/15 A2997 RMK SC4SC4 SLP154 DENSITY ALT 1100FT",2025-09-09 18:09:17.570789,2025-09-09 14:09:17.570832
"CYQU","Grande Prairie Arpt, AB, CA",2025-09-09 18:00:00,2025-09-09 14:00:00,"MVFR",21,8,230,8,NA,5,1010.2,"METAR CYQU 091800Z 23008KT 5SM FU SKC 21/08 A2983 RMK SLP106 DENSITY ALT 3600FT",2025-09-09 18:09:17.580017,2025-09-09 14:09:17.580062
"CYHD","Dryden Rgnl, ON, CA",2025-09-09 18:00:00,2025-09-09 14:00:00,"VFR",20,11,NA,7,NA,9,1015.7,"METAR CYHD 091800Z AUTO VRB07KT 9SM CLR 20/11 A2999 RMK SLP164 DENSITY ALT 2200FT",2025-09-09 18:09:17.586713,2025-09-09 14:09:17.58676
"CYHM","Hamilton/Munro Intl, ON, CA",2025-09-09 18:00:00,2025-09-09 14:00:00,"VFR",21,8,230,6,NA,15,1024.8,"METAR CYHM 091800Z 23006KT 150V250 15SM SCT055 SCT220 21/08 A3026 RMK CU3CI1 CI TR SLP250 DENSITY ALT 1400FT",2025-09-09 18:09:17.593414,2025-09-09 14:09:17.593458
"CYAM","Sault Ste Marie Arpt, ON, CA",2025-09-09 18:00:00,2025-09-09 14:00:00,"VFR",19,12,210,7,NA,20,1019.7,"METAR CYAM 091800Z 21007KT 20SM FEW024 FEW069 BKN098 BKN110 OVC250 19/12 A3011 RMK CU1AC2ACC3AS2CS1 CU TR ACC N MOV E SLP201 DENSITY ALT 1100FT",2025-09-09 18:09:17.600085,2025-09-09 14:09:17.60013
"CYAZ","Tofino Arpt, BC, CA",2025-09-09 18:00:00,2025-09-09 14:00:00,"VFR",15,15,190,3,NA,15,1014.6,"METAR CYAZ 091800Z 19003KT 140V210 15SM BCFG FEW001 15/15 A2996 RMK SF1 VIS LWR ALG SHR SLP148",2025-09-09 18:09:17.606802,2025-09-09 14:09:17.606847
"CYBK","Baker Lake Arpt, NU, CA",2025-09-09 18:00:00,2025-09-09 14:00:00,"VFR",7,1,220,5,NA,20,1016.3,"METAR CYBK 091800Z 22005KT 150V240 20SM SCT021 BKN075 07/01 A3001 RMK SC4AC2 SLP166",2025-09-09 18:09:17.613403,2025-09-09 14:09:17.613447
"CYCD","Nanaimo Arpt, BC, CA",2025-09-09 18:00:00,2025-09-09 14:00:00,"VFR",21,14,360,8,NA,20,1014.6,"METAR CYCD 091800Z 36008KT 340V070 20SM FEW035 FEW046 SCT150 21/14 A2996 RMK SC1SC1AC1 SLP147 DENSITY ALT 800FT",2025-09-09 18:09:17.620066,2025-09-09 14:09:17.620113
"CYCO","Coppermine/Kugluktuk Arpt, NU, CA",2025-09-09 18:00:00,2025-09-09 14:00:00,"MVFR",11,7,20,4,NA,5,1007.9,"METAR CYCO 091800Z 02004KT 5SM FU FEW160 SCT210 11/07 A2976 RMK AS1CS2 SLP080",2025-09-09 18:09:17.626659,2025-09-09 14:09:17.626707
"CYDP","Nain Arpt, NL, CA",2025-09-09 18:00:00,2025-09-09 14:00:00,"VFR",13,2,300,18,26,15,1016.7,"METAR CYDP 091800Z 30018G26KT 15SM FEW054 13/02 A3002 RMK SC3 SLP169",2025-09-09 18:09:17.633222,2025-09-09 14:09:17.633271
"CYKF","Waterloo Intl, ON, CA",2025-09-09 18:00:00,2025-09-09 14:00:00,"VFR",21,7,250,5,NA,9,1024.5,"METAR CYKF 091800Z AUTO 25005KT 170V260 9SM SCT060 21/07 A3025 RMK SLP249 DENSITY ALT 1700FT",2025-09-09 18:09:17.642247,2025-09-09 14:09:17.642292
"CYQK","Kenora Arpt, ON, CA",2025-09-09 17:00:00,2025-09-09 13:00:00,"VFR",20,9,0,0,NA,20,1016,"METAR CYQK 091700Z 00000KT 20SM FEW240 20/09 A3000 RMK CI1 CI TR SLP164 DENSITY ALT 2200FT",2025-09-09 18:09:17.64893,2025-09-09 14:09:17.648996
"CYQB","Quebec/Lesage Intl, QC, CA",2025-09-09 18:00:00,2025-09-09 14:00:00,"VFR",19,8,260,6,NA,30,1027.9,"METAR CYQB 091800Z 26006KT 170V280 30SM FEW052 FEW100 SCT250 19/08 A3035 RMK SC2AC1CI1 AC TR SLP280",2025-09-09 18:09:18.929407,2025-09-09 14:09:18.929454
"CYXP","Pangnirtung Arpt, NU, CA",2025-09-09 18:00:00,2025-09-09 14:00:00,"VFR",7,0,240,18,29,15,1004.1,"METAR CYXP 091800Z 24018G29KT 15SM SCT043 07/00 A2965 RMK SC4 SLP045",2025-09-09 18:09:18.936209,2025-09-09 14:09:18.936259
"CYVC","La Ronge Arpt, SK, CA",2025-09-09 18:00:00,2025-09-09 14:00:00,"VFR",17,10,100,7,NA,15,1016.7,"METAR CYVC 091800Z 10007KT 070V130 15SM SKC 17/10 A3002 RMK SLP176 DENSITY ALT 1700FT",2025-09-09 18:09:18.942944,2025-09-09 14:09:18.943008
"CYVO","Val D'Or Arpt, QC, CA",2025-09-09 18:00:00,2025-09-09 14:00:00,"VFR",15,8,180,10,15,15,1021.4,"METAR CYVO 091800Z 18010G15KT 15SM OVC074 15/08 A3016 RMK AC8 SLP226",2025-09-09 18:09:18.949651,2025-09-09 14:09:18.949694
"CYVQ","Norman Wells Arpt, NT, CA",2025-09-09 18:00:00,2025-09-09 14:00:00,"VFR",13,12,300,7,NA,NA,1005.8,"METAR CYVQ 091800Z 30007KT 10SM -RA FEW005 SCT021 BKN051 OVC070 13/12 A2970 RMK ST1SC4SC2AC2 ST TR FU SLP061",2025-09-09 18:09:18.95923,2025-09-09 14:09:18.959275
"CYLK","Lutselke Arpt, NT, CA",2025-09-09 18:00:00,2025-09-09 14:00:00,"VFR",17,6,110,6,NA,25,1008.5,"METAR CYLK 091800Z 11006KT 060V150 25SM SCT063 SCT110 BKN210 17/06 A2978 RMK SC3AC1CS2 FU SLP092 DENSITY ALT 1100FT",2025-09-09 18:09:18.965859,2025-09-09 14:09:18.965903
"CYKJ","Key Lake Arpt, SK, CA",2025-09-09 18:00:00,2025-09-09 14:00:00,"VFR",16,8,180,6,17,9,1015.7,"METAR CYKJ 091800Z AUTO 18006G17KT 110V200 9SM CLR 16/08 A2999 RMK SLP173 DENSITY ALT 2200FT",2025-09-09 18:09:18.97253,2025-09-09 14:09:18.972576
"CYTE","Cape Dorset Arpt, NU, CA",2025-09-09 18:00:00,2025-09-09 14:00:00,"VFR",7,3,320,6,NA,15,1012.6,"METAR CYTE 091800Z 32006KT 15SM SCT025 BKN044 07/03 A2990 RMK SC3SC4 SLP131",2025-09-09 18:09:18.979269,2025-09-09 14:09:18.979313
"CYHA","Quaqtaq Arpt, QC, CA",2025-09-09 18:00:00,2025-09-09 14:00:00,"VFR",8,2,330,10,NA,15,1013.6,"METAR CYHA 091800Z 33010KT 15SM BKN035 08/02 A2993 RMK SC6 SLP139",2025-09-09 18:09:18.98588,2025-09-09 14:09:18.985925
"CYCO","Coppermine/Kugluktuk Arpt, NU, CA",2025-09-09 18:00:00,2025-09-09 14:00:00,"MVFR",11,7,20,4,NA,5,1007.9,"METAR CYCO 091800Z 02004KT 5SM FU FEW160 SCT210 11/07 A2976 RMK AS1CS2 SLP080",2025-09-09 18:09:18.992498,2025-09-09 14:09:18.992542
"CYBC","Baie Comeau Arpt, QC, CA",2025-09-09 18:00:00,2025-09-09 14:00:00,"VFR",15,7,220,11,NA,9,1027.2,"METAR CYBC 091800Z AUTO 22011KT 9SM CLR 15/07 A3033 RMK SLP275",2025-09-09 18:09:18.999154,2025-09-09 14:09:18.9992
"CYGV","Havre St Pierre Arpt, QC, CA",2025-09-09 18:00:00,2025-09-09 14:00:00,"VFR",14,4,250,17,22,9,1026.5,"METAR CYGV 091800Z AUTO 25017G22KT 9SM CLR 14/04 A3031 RMK SLP268",2025-09-09 18:09:19.005854,2025-09-09 14:09:19.005899
"CYRJ","Roberval Arpt, QC, CA",2025-09-09 18:00:00,2025-09-09 14:00:00,"VFR",16,6,210,9,16,40,1026.2,"METAR CYRJ 091800Z 21009G16KT 180V250 40SM BKN150 BKN240 16/06 A3030 RMK AC5CI1 SLP268",2025-09-09 18:09:19.014925,2025-09-09 14:09:19.014989
"CYMT","Chibougamau Arpt, QC, CA",2025-09-09 18:00:00,2025-09-09 14:00:00,"VFR",13,7,190,14,25,9,1022.4,"METAR CYMT 091800Z AUTO 19014G25KT 9SM OVC046 13/07 A3019 RMK SLP236",2025-09-09 18:09:19.021476,2025-09-09 14:09:19.021522
"CYFB","Iqaluit Arpt, NU, CA",2025-09-09 18:00:00,2025-09-09 14:00:00,"MVFR",8,3,320,15,NA,30,1010.2,"METAR CYFB 091800Z 32015KT 30SM BKN022 08/03 A2983 RMK SC7 SLP105",2025-09-09 18:09:19.02814,2025-09-09 14:09:19.028185
"CYCK","Chatham/Kent Arpt, ON, CA",2025-09-09 18:00:00,2025-09-09 14:00:00,"VFR",22,6,180,8,NA,9,1023.8,"METAR CYCK 091800Z AUTO 18008KT 9SM CLR 22/06 A3023 RMK SLP239 DENSITY ALT 1300FT",2025-09-09 18:09:19.034792,2025-09-09 14:09:19.034837
"CYDQ","Dawson Creek Arpt, BC, CA",2025-09-09 18:00:00,2025-09-09 14:00:00,"VFR",24,4,270,16,21,9,1008.9,"METAR CYDQ 091800Z AUTO 27016G21KT 9SM CLR 24/04 A2979 RMK SLP092 DENSITY ALT 3800FT",2025-09-09 18:09:19.04137,2025-09-09 14:09:19.041415
"CYPC","Paulatuk Arpt, NT, CA",2025-09-09 18:00:00,2025-09-09 14:00:00,"VFR",7,6,340,2,NA,15,1005.5,"METAR CYPC 091800Z 34002KT 15SM FEW190 FEW250 07/06 A2969 RMK AC1CS1 DIST TCU TOP SW SLP057",2025-09-09 18:09:19.048078,2025-09-09 14:09:19.048123
"CYGL","La Grande Riviere Arpt, QC, CA",2025-09-09 18:00:00,2025-09-09 14:00:00,"VFR",12,10,220,7,NA,8,1013.6,"METAR CYGL 091800Z 22007KT 8SM -RA FEW020 OVC057 12/10 A2993 RMK SC1SC7 SLP145",2025-09-09 18:09:19.054619,2025-09-09 14:09:19.054663
"KHPN","White Plains/Westchester Cnty, NY, US",2025-09-09 17:56:00,2025-09-09 13:56:00,"VFR",21.7,8.3,100,9,NA,NA,1026.8,"METAR KHPN 091756Z 10009KT 10SM FEW040 22/08 A3032 RMK AO2 SLP266 T02170083 10217 20150 58008",2025-09-09 18:09:19.06126,2025-09-09 14:09:19.061307
"KPHL","Philadelphia Intl, PA, US",2025-09-09 17:54:00,2025-09-09 13:54:00,"VFR",24.4,11.7,70,9,NA,NA,1025.5,"METAR KPHL 091754Z 07009KT 10SM SCT050 BKN330 24/12 A3028 RMK AO2 SLP252 T02440117 10250 20172 58010 $",2025-09-09 18:09:19.068082,2025-09-09 14:09:19.06813
"KSYR","Syracuse/Hancock Intl, NY, US",2025-09-09 17:54:00,2025-09-09 13:54:00,"VFR",22.2,8.3,NA,3,NA,NA,1026.2,"METAR KSYR 091754Z VRB03KT 10SM FEW040 FEW070 SCT250 22/08 A3030 RMK AO2 SLP259 T02220083 10228 20083 58021",2025-09-09 18:09:19.077442,2025-09-09 14:09:19.077488
"KRIC","Richmond Intl, VA, US",2025-09-09 17:54:00,2025-09-09 13:54:00,"VFR",22.8,14.4,40,11,18,NA,1023.1,"METAR KRIC 091754Z 04011G18KT 10SM SCT032 BKN044 23/14 A3021 RMK AO2 SLP236 T02280144 10233 20128 58008",2025-09-09 18:09:19.084207,2025-09-09 14:09:19.084253
"KBOS","Boston/Logan Intl, MA, US",2025-09-09 17:54:00,2025-09-09 13:54:00,"VFR",20,13.3,70,9,NA,NA,1028.5,"METAR KBOS 091754Z 07009KT 10SM FEW040 FEW250 20/13 A3037 RMK AO2 SLP283 T02000133 10206 20144 58007",2025-09-09 18:09:19.090954,2025-09-09 14:09:19.091021
"KBWI","Baltimore-Washington Intl, MD, US",2025-09-09 17:54:00,2025-09-09 13:54:00,"VFR",23.3,10.6,60,9,NA,NA,1024.8,"METAR KBWI 091754Z 06009KT 10SM FEW046 SCT250 23/11 A3026 RMK AO2 SLP246 T02330106 10239 20133 58011",2025-09-09 18:09:19.097672,2025-09-09 14:09:19.097719
"KROC","Rochester Intl Arpt, NY, US",2025-09-09 17:54:00,2025-09-09 13:54:00,"VFR",22.8,6.7,0,0,NA,NA,1025.5,"METAR KROC 091754Z 00000KT 10SM FEW036 23/07 A3028 RMK AO2 SLP258 T02280067 10233 20083 56019 $",2025-09-09 18:09:19.104389,2025-09-09 14:09:19.104435
"KBUF","Buffalo-Niagara Intl, NY, US",2025-09-09 17:54:00,2025-09-09 13:54:00,"VFR",22.2,6.7,NA,4,NA,NA,1025.1,"METAR KBUF 091754Z VRB04KT 10SM FEW065 FEW260 22/07 A3027 RMK AO2 SLP251 FU ALF T02220067 10228 20111 57016 $",2025-09-09 18:09:19.111275,2025-09-09 14:09:19.111323
"KDCA","Washington/Reagan-National Arpt, VA, US",2025-09-09 17:52:00,2025-09-09 13:52:00,"VFR",24.4,10,100,10,NA,NA,1024.5,"METAR KDCA 091752Z 10010KT 10SM FEW050 SCT250 24/10 A3025 RMK AO2 SLP242 T02440100 10244 20156 58014",2025-09-09 18:09:19.11792,2025-09-09 14:09:19.117967
"KIAD","Washington/Dulles Intl, VA, US",2025-09-09 17:52:00,2025-09-09 13:52:00,"VFR",23.9,8.3,100,7,19,NA,1024.5,"METAR KIAD 091752Z 10007G19KT 10SM FEW045 FEW250 24/08 A3025 RMK AO2 SLP243 T02390083 10244 20128 58014",2025-09-09 18:09:19.124725,2025-09-09 14:09:19.12477
"KJFK","New York/JF Kennedy Intl, NY, US",2025-09-09 17:51:00,2025-09-09 13:51:00,"VFR",22.8,11.7,120,12,20,NA,1026.5,"METAR KJFK 091751Z 12012G20KT 10SM FEW030 SCT050 BKN250 23/12 A3031 RMK AO2 SLP262 T02280117 10228 20161 58010 $",2025-09-09 18:09:19.133963,2025-09-09 14:09:19.134031
"KLGA","New York/La Guardia Arpt, NY, US",2025-09-09 17:51:00,2025-09-09 13:51:00,"VFR",21.1,10.6,40,14,NA,NA,1026.5,"METAR KLGA 091751Z 04014KT 10SM FEW035 BKN250 21/11 A3031 RMK AO2 SLP263 T02110106 10217 20161 58009",2025-09-09 18:09:19.140704,2025-09-09 14:09:19.140749
"KEWR","Newark Intl, NJ, US",2025-09-09 17:51:00,2025-09-09 13:51:00,"VFR",23.3,10,50,5,NA,NA,1026.2,"METAR KEWR 091751Z 05005KT 10SM FEW045 BKN250 23/10 A3030 RMK AO2 SLP261 T02330100 10233 20156 58010 $",2025-09-09 18:09:19.147545,2025-09-09 14:09:19.147591
"KALB","Albany Intl, NY, US",2025-09-09 17:51:00,2025-09-09 13:51:00,"VFR",22.2,8.9,190,4,NA,NA,1026.8,"METAR KALB 091751Z 19004KT 10SM FEW055 FEW250 22/09 A3032 RMK AO2 SLP267 T02220089 10228 20094 58021",2025-09-09 18:09:19.154292,2025-09-09 14:09:19.154339
"KPVD","Providence/Green Mem, RI, US",2025-09-09 17:51:00,2025-09-09 13:51:00,"VFR",22.2,8.9,50,10,NA,NA,1027.5,"METAR KPVD 091751Z 05010KT 10SM FEW040 FEW250 22/09 A3034 RMK AO2 SLP276 T02220089 10228 20111 58008",2025-09-09 18:09:19.161054,2025-09-09 14:09:19.161101
"KPIT","Pittsburgh Intl, PA, US",2025-09-09 17:51:00,2025-09-09 13:51:00,"VFR",22.2,5,NA,4,NA,NA,1024.1,"METAR KPIT 091751Z VRB04KT 10SM FEW250 22/05 A3024 RMK AO2 SLP246 T02220050 10222 20083 58020 $",2025-09-09 18:09:19.16783,2025-09-09 14:09:19.167878
"KORF","Norfolk Intl, VA, US",2025-09-09 17:51:00,2025-09-09 13:51:00,"MVFR",22.8,17.8,40,17,26,NA,1021.1,"METAR KORF 091751Z 04017G26KT 10SM SCT021 OVC027 23/18 A3015 RMK AO2 PK WND 03029/1659 SLP207 T02280178 10233 20200 58007",2025-09-09 18:09:19.174558,2025-09-09 14:09:19.174602
"KBDL","Hartford/Bradley Intl, CT, US",2025-09-09 17:51:00,2025-09-09 13:51:00,"VFR",22.8,7.8,100,4,NA,NA,1027.2,"METAR KBDL 091751Z 10004KT 10SM FEW050 FEW250 23/08 A3033 RMK AO2 SLP270 T02280078 10228 20106 58015",2025-09-09 18:09:19.181202,2025-09-09 14:09:19.181248
"KBED","Bedford/Hanscom Fld, MA, US",2025-09-09 17:51:00,2025-09-09 13:51:00,"VFR",21.7,8.3,120,10,16,NA,1027.5,"METAR KBED 091751Z 12010G16KT 10SM CLR 22/08 A3034 RMK AO2 SLP288 T02170083 10222 20100 58011 $",2025-09-09 18:09:19.187945,2025-09-09 14:09:19.188013
"KSWF","Newburgh/Stewart Intl, NY, US",2025-09-09 17:45:00,2025-09-09 13:45:00,"VFR",22,9,100,10,NA,NA,1026.8,"METAR KSWF 091745Z 10010KT 10SM FEW050 22/09 A3032",2025-09-09 18:09:19.1973,2025-09-09 14:09:19.197345
"KPBI","Palm Beach Intl, FL, US",2025-09-09 18:05:00,2025-09-09 14:05:00,"MVFR",26.7,23.9,120,17,NA,6,1014.3,"SPECI KPBI 091805Z 12017KT 6SM TSRA BR SCT020 BKN030CB BKN250 27/24 A2995 RMK AO2 WSHFT 1745 RAB00 OCNL LTGICCG E-SE TS E-SE MOV NE P0003 T02670239 $",2025-09-09 18:09:20.403827,2025-09-09 14:09:20.403872
"KMIA","Miami Intl, FL, US",2025-09-09 18:03:00,2025-09-09 14:03:00,"LIFR",23.9,23.9,350,3,NA,0.75,1015,"SPECI KMIA 091803Z 35003KT 3/4SM +TSRA BR SCT005 OVC014CB 24/24 A2997 RMK AO2 OCNL LTGICCG OHD TS OHD MOV NE P0023 T02390239 RVRNO $",2025-09-09 18:09:20.410533,2025-09-09 14:09:20.410578
"KFSD","Sioux Falls/Foss Fld, SD, US",2025-09-09 17:56:00,2025-09-09 13:56:00,"MVFR",18.9,16.7,210,5,NA,NA,1015.3,"METAR KFSD 091756Z 21005KT 10SM BKN012 BKN150 19/17 A2998 RMK AO2 SLP150 60005 T01890167 10194 20161 58001",2025-09-09 18:09:20.417228,2025-09-09 14:09:20.417274
"KSDF","Louisville Intl, KY, US",2025-09-09 17:56:00,2025-09-09 13:56:00,"VFR",25.6,7.8,NA,3,NA,NA,1021.4,"METAR KSDF 091756Z VRB03KT 10SM FEW060 FEW350 26/08 A3016 RMK AO2 SLP209 T02560078 10256 20133 58015",2025-09-09 18:09:20.424044,2025-09-09 14:09:20.42409
"KJAX","Jacksonville Intl, FL, US",2025-09-09 17:56:00,2025-09-09 13:56:00,"MVFR",26.7,22.2,30,16,24,NA,1017,"METAR KJAX 091756Z 03016G24KT 10SM BKN014 BKN110 OVC250 27/22 A3003 RMK AO2 PK WND 04026/1724 SLP168 60001 T02670222 10272 20222 58002 $",2025-09-09 18:09:20.433115,2025-09-09 14:09:20.433186
"KCHS","Charleston Intl, SC, US",2025-09-09 17:56:00,2025-09-09 13:56:00,"VFR",26.1,13.9,360,9,16,NA,1019,"METAR KCHS 091756Z 36009G16KT 10SM BKN200 26/14 A3009 RMK AO2 SLP189 T02610139 10261 20178 58007",2025-09-09 18:09:20.439824,2025-09-09 14:09:20.439869
"KDAY","Dayton/Cox Intl, OH, US",2025-09-09 17:56:00,2025-09-09 13:56:00,"VFR",23.3,5.6,150,4,NA,NA,1023.1,"METAR KDAY 091756Z 15004KT 10SM FEW250 23/06 A3021 RMK AO2 SLP226 T02330056 10233 20100 58012",2025-09-09 18:09:20.44659,2025-09-09 14:09:20.446635
"KCLT","Charlotte/Douglas Intl, NC, US",2025-09-09 17:55:00,2025-09-09 13:55:00,"VFR",23,8,20,12,19,NA,1022.4,"METAR KCLT 091755Z 02012G19KT 10SM FEW050 FEW250 23/08 A3019",2025-09-09 18:09:20.453454,2025-09-09 14:09:20.453499
"KFWA","Fort Wayne Intl, IN, US",2025-09-09 17:54:00,2025-09-09 13:54:00,"VFR",23.9,7.2,150,8,NA,NA,1022.8,"METAR KFWA 091754Z 15008KT 10SM BKN250 24/07 A3020 RMK AO2 SLP226 T02390072 10239 20072 58013",2025-09-09 18:09:20.460275,2025-09-09 14:09:20.46032
"KDSM","Des Moines Intl, IA, US",2025-09-09 17:54:00,2025-09-09 13:54:00,"VFR",19.4,12.2,NA,5,NA,NA,1018,"METAR KDSM 091754Z VRB05KT 10SM FEW075 SCT100 BKN150 BKN200 19/12 A3006 RMK AO2 SLP175 T01940122 10194 20144 50005",2025-09-09 18:09:20.46716,2025-09-09 14:09:20.467206
"KSBN","South Bend Rgnl, IN, US",2025-09-09 17:54:00,2025-09-09 13:54:00,"VFR",22.2,7.2,200,11,NA,NA,1022.4,"METAR KSBN 091754Z 20011KT 10SM CLR 22/07 A3019 RMK AO2 SLP224 T02220072 10222 20072 58010",2025-09-09 18:09:20.473959,2025-09-09 14:09:20.474026
"KMEM","Memphis Intl, TN, US",2025-09-09 17:54:00,2025-09-09 13:54:00,"VFR",27.8,16.7,NA,4,NA,NA,1018.7,"METAR KMEM 091754Z VRB04KT 10SM FEW038 SCT044 SCT065 28/17 A3008 RMK AO2 SLP184 T02780167 10294 20167 58009 $",2025-09-09 18:09:20.480921,2025-09-09 14:09:20.480991
"KGSO","Greensboro Intl, NC, US",2025-09-09 17:54:00,2025-09-09 13:54:00,"VFR",22.8,7.2,50,12,NA,NA,1022.8,"METAR KGSO 091754Z 05012KT 10SM FEW250 23/07 A3020 RMK AO2 SLP220 T02280072 10228 20122 58017",2025-09-09 18:09:20.487797,2025-09-09 14:09:20.487844
"KLNK","Lincoln Arpt, NE, US",2025-09-09 17:54:00,2025-09-09 13:54:00,"MVFR",22.8,15.6,220,9,NA,NA,1015.7,"METAR KLNK 091754Z 22009KT 10SM BKN028 OVC040 23/16 A2999 RMK AO2 SLP148 T02280156 10233 20172 56007",2025-09-09 18:09:20.497046,2025-09-09 14:09:20.497092
"KIND","Indianapolis Intl, IN, US",2025-09-09 17:54:00,2025-09-09 13:54:00,"VFR",24.4,7.2,140,8,NA,NA,1022.1,"METAR KIND 091754Z 14008KT 10SM BKN250 24/07 A3018 RMK AO2 SLP216 T02440072 10244 20117 58011",2025-09-09 18:09:20.503882,2025-09-09 14:09:20.503926
"KMDW","Chicago/Midway Intl, IL, US",2025-09-09 17:53:00,2025-09-09 13:53:00,"VFR",22.8,5,190,8,15,NA,1021.1,"METAR KMDW 091753Z 19008G15KT 10SM BKN250 23/05 A3015 RMK AO2 SLP205 T02280050 10233 20128 58011 $",2025-09-09 18:09:20.510736,2025-09-09 14:09:20.510785
"KMSP","Minneapolis-St Paul Intl, MN, US",2025-09-09 17:53:00,2025-09-09 13:53:00,"MVFR",20,13.9,200,7,NA,NA,1015,"METAR KMSP 091753Z 20007KT 10SM OVC023 20/14 A2997 RMK AO2 SLP146 T02000139 10200 20183 50002",2025-09-09 18:09:20.51753,2025-09-09 14:09:20.517575
"KFLL","Ft Lauderdale-Hollywood Intl, FL, US",2025-09-09 17:53:00,2025-09-09 13:53:00,"VFR",26.1,23.9,150,8,NA,NA,1014.3,"METAR KFLL 091753Z 15008KT 10SM -TSRA FEW025CB SCT050 OVC080 26/24 A2995 RMK AO2 RAE1659B42 SLP142 OCNL LTGICCG OHD-S-W TS OHD-S-W MOV NE P0000 60001 T02610239 10306 20256 58002",2025-09-09 18:09:20.524395,2025-09-09 14:09:20.52445
"KRSW","Ft Myers/SW Florida Intl, FL, US",2025-09-09 17:53:00,2025-09-09 13:53:00,"VFR",30,25,140,8,NA,NA,1013.6,"METAR KRSW 091753Z 14008KT 10SM SCT021 30/25 A2993 RMK AO1 SLP131 T03000250 10306 20244 56011",2025-09-09 18:09:20.531244,2025-09-09 14:09:20.531291
"KTPA","Tampa Intl Arpt, FL, US",2025-09-09 17:53:00,2025-09-09 13:53:00,"VFR",27.8,24.4,60,3,NA,NA,1014.3,"METAR KTPA 091753Z 06003KT 10SM FEW012 BKN050 BKN110 28/24 A2995 RMK AO2 SLP142 OCNL LTGIC DSNT S-SW CB DSNT S-SW 60000 T02780244 10283 20250 58008",2025-09-09 18:09:20.538076,2025-09-09 14:09:20.538128
"KDTW","Detroit/Metro Wayne Cnty, MI, US",2025-09-09 17:53:00,2025-09-09 13:53:00,"VFR",22.8,6.1,0,0,NA,NA,1023.5,"METAR KDTW 091753Z 00000KT 10SM FEW065 FEW250 23/06 A3022 RMK AO2 SLP233 T02280061 10233 20106 58012 $",2025-09-09 18:09:20.545129,2025-09-09 14:09:20.545177
"KLIT","Little Rock/Clinton Natl, AR, US",2025-09-09 17:53:00,2025-09-09 13:53:00,"VFR",26.7,14.4,150,5,NA,NA,1019,"METAR KLIT 091753Z 15005KT 10SM FEW250 27/14 A3009 RMK AO2 SLP188 T02670144 10267 20139 58008",2025-09-09 18:09:20.554967,2025-09-09 14:09:20.555036
"KHSV","Huntsville Intl, AL, US",2025-09-09 17:53:00,2025-09-09 13:53:00,"VFR",26.1,13.9,NA,4,NA,NA,1020.7,"METAR KHSV 091753Z VRB04KT 10SM FEW047 26/14 A3014 RMK AO2 SLP200 T02610139 10261 20178 58012 $",2025-09-09 18:09:20.562038,2025-09-09 14:09:20.562087
"KGRR","Grand Rapids Intl, MI, US",2025-09-09 17:53:00,2025-09-09 13:53:00,"VFR",22.2,6.1,200,8,NA,NA,1022.4,"METAR KGRR 091753Z 20008KT 10SM BKN250 22/06 A3019 RMK AO2 SLP225 T02220061 10222 20078 58010",2025-09-09 18:09:20.569072,2025-09-09 14:09:20.569119
"KMYR","Myrtle Beach Intl, SC, US",2025-09-09 17:53:00,2025-09-09 13:53:00,"VFR",25,17.2,360,15,NA,NA,1019.4,"METAR KMYR 091753Z 36015KT 10SM CLR 25/17 A3010 RMK AO2 SLP194 T02500172 10250 20183 58010 $",2025-09-09 18:09:20.576145,2025-09-09 14:09:20.576192
"KSAV","Savannah Intl, GA, US",2025-09-09 17:53:00,2025-09-09 13:53:00,"VFR",27.2,15.6,30,9,18,NA,1018.7,"METAR KSAV 091753Z 03009G18KT 360V060 10SM BKN250 27/16 A3008 RMK AO2 SLP184 T02720156 10278 20183 58013",2025-09-09 18:09:20.583041,2025-09-09 14:09:20.58309
"KBHM","Birmingham Intl, AL, US",2025-09-09 17:53:00,2025-09-09 13:53:00,"VFR",27.8,12.8,110,7,NA,NA,1020.7,"METAR KBHM 091753Z 11007KT 10SM FEW250 28/13 A3014 RMK AO2 SLP199 T02780128 10278 20189 58013",2025-09-09 18:09:20.590039,2025-09-09 14:09:20.590087
"KMCI","Kansas City Intl, MO, US",2025-09-09 17:53:00,2025-09-09 13:53:00,"VFR",19.4,15,200,6,NA,NA,1017.4,"METAR KMCI 091753Z 20006KT 10SM SCT016 BKN110 19/15 A3004 RMK AO2 LTG DSNT S AND SW SLP166 60014 T01940150 10194 20144 56009 $",2025-09-09 18:09:20.596913,2025-09-09 14:09:20.596959
"KEYW","Key West Intl, FL, US",2025-09-09 17:53:00,2025-09-09 13:53:00,"VFR",31.1,26.7,190,10,NA,NA,1013.6,"METAR KEYW 091753Z 19010KT 10SM SCT024 31/27 A2993 RMK AO2 SLP140 T03110267 10311 20289 58011",2025-09-09 18:09:20.603706,2025-09-09 14:09:20.603752
"KMCO","Orlando Intl, FL, US",2025-09-09 17:53:00,2025-09-09 13:53:00,"VFR",30,23.3,0,0,NA,NA,1014,"METAR KMCO 091753Z 00000KT 10SM BKN032 BKN055 BKN160 30/23 A2994 RMK AO2 SLP136 T03000233 10300 20244 58012 $",2025-09-09 18:09:20.613439,2025-09-09 14:09:20.6135
"KBNA","Nashville Intl, TN, US",2025-09-09 17:53:00,2025-09-09 13:53:00,"VFR",27.2,12.2,350,3,NA,NA,1021.1,"METAR KBNA 091753Z 35003KT 10SM SCT055 27/12 A3015 RMK AO2 SLP203 T02720122 10278 20139 58014 $",2025-09-09 18:09:20.620651,2025-09-09 14:09:20.620697
"KCVG","Cincinnati Intl, KY, US",2025-09-09 17:52:00,2025-09-09 13:52:00,"VFR",23.3,7.8,140,4,NA,NA,1022.4,"METAR KCVG 091752Z 14004KT 10SM FEW065 SCT250 23/08 A3019 RMK AO2 SLP216 T02330078 10239 20133 58011",2025-09-09 18:09:20.627587,2025-09-09 14:09:20.627635
"KMLI","Moline/Quad City Intl, IL, US",2025-09-09 17:52:00,2025-09-09 13:52:00,"VFR",23.3,8.9,160,8,NA,NA,1019.4,"METAR KMLI 091752Z 16008KT 10SM CLR 23/09 A3010 RMK AO2 SLP191 T02330089 10244 20100 56012",2025-09-09 18:09:20.634519,2025-09-09 14:09:20.634566
"KOMA","Omaha/Eppley Fld, NE, US",2025-09-09 17:52:00,2025-09-09 13:52:00,"VFR",23.9,16.1,190,8,NA,NA,1015.7,"METAR KOMA 091752Z 19008KT 10SM SCT024 24/16 A2999 RMK AO2 SLP148 T02390161 10239 20161 58004",2025-09-09 18:09:20.641406,2025-09-09 14:09:20.641454
"KATL","Atlanta/Hartsfield-Jackson Intl, GA, US",2025-09-09 17:52:00,2025-09-09 13:52:00,"VFR",25.6,12.8,50,9,15,NA,1021.4,"METAR KATL 091752Z 05009G15KT 10SM FEW200 FEW250 26/13 A3016 RMK SLP206 T02560128 10256 20167 58017",2025-09-09 18:09:20.648324,2025-09-09 14:09:20.648368
"KORD","Chicago/O'Hare Intl, IL, US",2025-09-09 17:51:00,2025-09-09 13:51:00,"VFR",22.2,6.1,0,0,NA,NA,1020.7,"METAR KORD 091751Z 00000KT 10SM BKN250 22/06 A3014 RMK AO2 SLP204 T02220061 10222 20117 58012",2025-09-09 18:09:20.655153,2025-09-09 14:09:20.655201
"KCLE","Cleveland/Hopkins Intl, OH, US",2025-09-09 17:51:00,2025-09-09 13:51:00,"VFR",23.3,6.7,NA,6,NA,NA,1023.1,"METAR KCLE 091751Z VRB06KT 10SM CLR 23/07 A3021 RMK AO2 SLP244 T02330067 10239 20089 58015",2025-09-09 18:09:20.661936,2025-09-09 14:09:20.662002
"KCMH","Columbus/Glenn Intl, OH, US",2025-09-09 17:51:00,2025-09-09 13:51:00,"VFR",23.9,7.8,NA,4,NA,NA,1023.1,"METAR KCMH 091751Z VRB04KT 10SM FEW250 24/08 A3021 RMK AO2 SLP226 T02390078 10239 20094 58014",2025-09-09 18:09:20.668873,2025-09-09 14:09:20.668917
"KSTL","St Louis/Lambert Intl, MO, US",2025-09-09 17:51:00,2025-09-09 13:51:00,"VFR",25.6,7.2,190,5,NA,NA,1020.1,"METAR KSTL 091751Z 19005KT 10SM SCT150 SCT200 BKN250 26/07 A3012 RMK AO2 SLP193 T02560072 10261 20128 58010",2025-09-09 18:09:20.678733,2025-09-09 14:09:20.678797
"KRDU","Raleigh-Durham Intl, NC, US",2025-09-09 17:51:00,2025-09-09 13:51:00,"VFR",23.3,13.3,40,8,17,NA,1022.1,"METAR KRDU 091751Z 04008G17KT 10SM SCT036 SCT250 23/13 A3018 RMK AO2 SLP218 T02330133 10233 20133 58013",2025-09-09 18:09:20.685696,2025-09-09 14:09:20.685742
"KMFE","McAllen/Miller Intl, TX, US",2025-09-09 17:58:00,2025-09-09 13:58:00,"VFR",31.1,22.8,10,16,22,NA,1015,"SPECI KMFE 091758Z 01016G22KT 10SM BKN035 31/23 A2997 RMK AO2 T03110228 $",2025-09-09 18:09:21.838467,2025-09-09 14:09:21.838512
"KBZN","Bozeman/Gallatin Fld, MT, US",2025-09-09 17:56:00,2025-09-09 13:56:00,"VFR",21.1,5.6,270,6,NA,NA,1018,"METAR KBZN 091756Z 27006KT 10SM CLR 21/06 A3006 RMK AO2 SLP153 T02110056 10211 20072 53001",2025-09-09 18:09:21.845318,2025-09-09 14:09:21.845364
"KEGE","Eagle Cnty Rgnl, CO, US",2025-09-09 17:56:00,2025-09-09 13:56:00,"VFR",21.1,2.8,230,4,NA,NA,1023.5,"METAR KEGE 091756Z 23004KT 10SM CLR 21/03 A3022 RMK AO2 LTG DSNT N SLP161 60000 T02110028 10211 20083 58020 $",2025-09-09 18:09:21.851966,2025-09-09 14:09:21.852034
"KLRD","Laredo Intl, TX, US",2025-09-09 17:56:00,2025-09-09 13:56:00,"VFR",31.7,18.9,NA,4,NA,NA,1016,"METAR KLRD 091756Z VRB04KT 10SM CLR 32/19 A3000 RMK AO2 SLP155 T03170189 10322 20233 58005 $",2025-09-09 18:09:21.859,2025-09-09 14:09:21.859051
"KSLC","Salt Lake City Intl, UT, US",2025-09-09 17:54:00,2025-09-09 13:54:00,"VFR",27.8,3.9,170,15,25,NA,1014,"METAR KSLC 091754Z 17015G25KT 10SM FEW095 FEW140 BKN230 28/04 A2994 RMK AO2 SLP081 T02780039 10278 20222 58002 $",2025-09-09 18:09:21.86814,2025-09-09 14:09:21.868186
"KCOS","Colorado Spring Arpt, CO, US",2025-09-09 17:54:00,2025-09-09 13:54:00,"VFR",26.1,5,210,5,NA,NA,1021.8,"METAR KCOS 091754Z 21005KT 10SM SCT110 SCT250 26/05 A3017 RMK AO2 SLP127 T02610050 10261 20106 57008 $",2025-09-09 18:09:21.874887,2025-09-09 14:09:21.87493
"KEUG","Eugene/Mahlon Sweet Fld, OR, US",2025-09-09 17:54:00,2025-09-09 13:54:00,"VFR",18.3,15,160,4,NA,NA,1014.6,"METAR KEUG 091754Z 16004KT 10SM FEW014 BKN034 OVC045 18/15 A2996 RMK AO2 SLP143 T01830150 10189 20161 53004",2025-09-09 18:09:21.881652,2025-09-09 14:09:21.881711
"KDFW","Dallas-Ft Worth Intl, TX, US",2025-09-09 17:53:00,2025-09-09 13:53:00,"VFR",27.2,13.3,NA,3,NA,NA,1017.7,"METAR KDFW 091753Z VRB03KT 10SM CLR 27/13 A3005 RMK AO2 SLP167 T02720133 10278 20178 58011 $",2025-09-09 18:09:21.888402,2025-09-09 14:09:21.888449
"KMFR","Medford/Rogue Valley Intl, OR, US",2025-09-09 17:53:00,2025-09-09 13:53:00,"VFR",18.3,14.4,350,3,NA,NA,1014.3,"METAR KMFR 091753Z 35003KT 10SM SCT014 OVC085 18/14 A2995 RMK AO2 SLP135 60000 T01830144 10183 20156 58000 $",2025-09-09 18:09:21.895087,2025-09-09 14:09:21.895134
"KMSO","Missoula Intl, MT, US",2025-09-09 17:53:00,2025-09-09 13:53:00,"VFR",16.7,7.2,140,3,NA,NA,1015.7,"METAR KMSO 091753Z 14003KT 10SM CLR 17/07 A2999 RMK AO2 SLP144 T01670072 10167 20083 58000",2025-09-09 18:09:21.901826,2025-09-09 14:09:21.90187
"KHOU","Houston/Hobby Arpt, TX, US",2025-09-09 17:53:00,2025-09-09 13:53:00,"VFR",29.4,14.4,50,8,NA,NA,1016.7,"METAR KHOU 091753Z 05008KT 10SM CLR 29/14 A3002 RMK AO2 SLP169 T02940144 10294 20206 58002",2025-09-09 18:09:21.908456,2025-09-09 14:09:21.908501
"KIDA","Idaho Falls Rgnl, ID, US",2025-09-09 17:53:00,2025-09-09 13:53:00,"VFR",23.3,7.8,290,4,NA,NA,1016.3,"METAR KIDA 091753Z 29004KT 10SM CLR 23/08 A3001 RMK AO2 SLP129 T02330078 10233 20089 58004",2025-09-09 18:09:21.915257,2025-09-09 14:09:21.915304
"KPUB","Pueblo Mem Arpt, CO, US",2025-09-09 17:53:00,2025-09-09 13:53:00,"VFR",28.9,6.1,200,6,NA,NA,1018.4,"METAR KPUB 091753Z 20006KT 10SM CLR 29/06 A3007 RMK AO2 SLP112 T02890061 10289 20122 58011 $",2025-09-09 18:09:21.924478,2025-09-09 14:09:21.924523
"KBFI","Seattle/Boeing Fld, WA, US",2025-09-09 17:53:00,2025-09-09 13:53:00,"VFR",17.8,13.9,60,4,NA,NA,1014.6,"METAR KBFI 091753Z 06004KT 10SM FEW016 SCT044 18/14 A2996 RMK AO2 SLP144 T01780139 10178 20150 50003",2025-09-09 18:09:21.931129,2025-09-09 14:09:21.931175
"KAMA","Amarillo Intl Arpt, TX, US",2025-09-09 17:53:00,2025-09-09 13:53:00,"VFR",30,16.1,210,13,23,NA,1017.7,"METAR KAMA 091753Z 21013G23KT 10SM CLR 30/16 A3005 RMK AO2 SLP121 60000 T03000161 10300 20183 58014",2025-09-09 18:09:21.937867,2025-09-09 14:09:21.937912
"KBOI","Boise Arpt, ID, US",2025-09-09 17:53:00,2025-09-09 13:53:00,"VFR",23.3,5,300,7,NA,NA,1012.6,"METAR KBOI 091753Z 30007KT 10SM CLR 23/05 A2990 RMK AO2 SLP098 T02330050 10239 20156 50000",2025-09-09 18:09:21.944635,2025-09-09 14:09:21.944682
"KLAW","Lawton-Fort Sill Rgnl, OK, US",2025-09-09 17:53:00,2025-09-09 13:53:00,"VFR",29.4,14.4,180,12,19,NA,1016.7,"METAR KLAW 091753Z 18012G19KT 10SM CLR 29/14 A3002 RMK AO2 SLP155 T02940144 10294 20161 58013",2025-09-09 18:09:21.95154,2025-09-09 14:09:21.951585
"KAUS","Austin/Bergstrom Intl, TX, US",2025-09-09 17:53:00,2025-09-09 13:53:00,"VFR",30,13.9,40,6,NA,NA,1017,"METAR KAUS 091753Z 04006KT 10SM CLR 30/14 A3003 RMK AO2 SLP161 T03000139 10300 20150 58008",2025-09-09 18:09:21.958386,2025-09-09 14:09:21.958436
"KLBB","Lubbock Intl Arpt, TX, US",2025-09-09 17:53:00,2025-09-09 13:53:00,"VFR",29.4,17.2,160,8,NA,NA,1018.7,"METAR KLBB 091753Z 16008KT 10SM FEW075 FEW110 29/17 A3008 RMK AO2 SLP131 ACC DSNT E-SE T02940172 10294 20194 58002",2025-09-09 18:09:21.965121,2025-09-09 14:09:21.965167
"KBRO","Brownsville Intl, TX, US",2025-09-09 17:53:00,2025-09-09 13:53:00,"VFR",31.7,25.6,30,11,NA,NA,1014,"METAR KBRO 091753Z 03011KT 10SM FEW027 BKN035 OVC095 32/26 A2994 RMK AO2 RAB1656E31 SLP138 P0000 60004 T03170256 10328 20256 58003",2025-09-09 18:09:21.971837,2025-09-09 14:09:21.971882
"KHLN","Helena Rgnl, MT, US",2025-09-09 17:53:00,2025-09-09 13:53:00,"VFR",19.4,6.1,70,3,NA,NA,1016,"METAR KHLN 091753Z 07003KT 10SM CLR 19/06 A3000 RMK AO2 SLP152 T01940061 10200 20100 56010",2025-09-09 18:09:21.981018,2025-09-09 14:09:21.981068
"KSEA","Seattle-Tacoma Intl, WA, US",2025-09-09 17:53:00,2025-09-09 13:53:00,"VFR",17.8,13.9,20,7,NA,NA,1015,"METAR KSEA 091753Z 02007KT 10SM FEW012 BKN038 BKN100 BKN250 18/14 A2997 RMK AO2 SLP153 T01780139 10183 20144 50003 $",2025-09-09 18:09:21.987717,2025-09-09 14:09:21.987763
"KPDX","Portland Intl, OR, US",2025-09-09 17:53:00,2025-09-09 13:53:00,"VFR",20,13.3,310,4,NA,9,1014,"METAR KPDX 091753Z 31004KT 9SM FEW025 SCT110 BKN250 20/13 A2994 RMK AO2 SLP137 T02000133 10200 20178 50001",2025-09-09 18:09:21.994424,2025-09-09 14:09:21.99447
"KDAL","Dallas/Love Fld, TX, US",2025-09-09 17:53:00,2025-09-09 13:53:00,"VFR",27.8,13.9,100,4,NA,NA,1018,"METAR KDAL 091753Z 10004KT 10SM CLR 28/14 A3006 RMK AO2 SLP172 T02780139 10278 20178 58010",2025-09-09 18:09:22.001201,2025-09-09 14:09:22.001248
"KASE","Aspen/Pitkin Cnty, CO, US",2025-09-09 17:53:00,2025-09-09 13:53:00,"VFR",22.8,2.2,130,7,NA,NA,1024.8,"METAR KASE 091753Z 13007KT 100V170 10SM FEW090 23/02 A3026 RMK AO2 LTG DSNT E SLP125 60000 T02280022 10228 20083 58012",2025-09-09 18:09:22.008057,2025-09-09 14:09:22.008104
"KBIL","Billings/Logan Intl, MT, US",2025-09-09 17:53:00,2025-09-09 13:53:00,"VFR",23.9,7.2,0,0,NA,NA,1016.7,"METAR KBIL 091753Z 00000KT 10SM FEW100 SCT220 24/07 A3002 RMK AO2 SLP132 T02390072 10239 20122 58005",2025-09-09 18:09:22.014785,2025-09-09 14:09:22.014829
"KIAH","Houston/Bush Intl, TX, US",2025-09-09 17:53:00,2025-09-09 13:53:00,"VFR",30,12.8,360,6,NA,NA,1017,"METAR KIAH 091753Z 36006KT 10SM CLR 30/13 A3003 RMK AO2 SLP167 T03000128 10300 20178 58005",2025-09-09 18:09:22.021473,2025-09-09 14:09:22.021518
"KICT","Wichita/Eisenhower Arpt, KS, US",2025-09-09 17:53:00,2025-09-09 13:53:00,"VFR",25.6,15.6,160,11,NA,NA,1016,"METAR KICT 091753Z 16011KT 10SM FEW190 SCT250 26/16 A3000 RMK AO2 SLP148 T02560156 10256 20150 50001 $",2025-09-09 18:09:22.028256,2025-09-09 14:09:22.028302
"KTUL","Tulsa Intl Arpt, OK, US",2025-09-09 17:53:00,2025-09-09 13:53:00,"VFR",26.7,12.8,170,12,19,NA,1017.4,"METAR KTUL 091753Z 17012G19KT 10SM FEW070 FEW090 SCT200 27/13 A3004 RMK AO2 SLP168 CB DSNT N MOV SE T02670128 10267 20161 58012",2025-09-09 18:09:22.035121,2025-09-09 14:09:22.03517
"KDEN","Denver Intl, CO, US",2025-09-09 17:53:00,2025-09-09 13:53:00,"VFR",26.7,3.9,0,0,NA,NA,1019.4,"METAR KDEN 091753Z 00000KT 10SM FEW100 SCT140 BKN220 27/04 A3010 RMK AO2 SLP109 T02670039 10267 20156 58005",2025-09-09 18:09:22.044868,2025-09-09 14:09:22.044912
"KGJT","Grand Junction Rgnl, CO, US",2025-09-09 17:53:00,2025-09-09 13:53:00,"VFR",21.7,10.6,50,8,NA,6,1018,"METAR KGJT 091753Z 05008KT 6SM TSGR FEW038 SCT049 BKN100 22/11 A3006 RMK AO2 RAB22E42GRB42 TSB21E44B51 SLP114 P0016 60016 T02170106 10261 20150 55008",2025-09-09 18:09:22.051625,2025-09-09 14:09:22.051669
"KAFW","Fort Worth/Alliance Arpt, TX, US",2025-09-09 17:53:00,2025-09-09 13:53:00,"VFR",27.8,14.4,190,4,NA,NA,1018,"METAR KAFW 091753Z 19004KT 10SM CLR 28/14 A3006 RMK AO2 SLP166 T02780144 10283 20183 58008",2025-09-09 18:09:22.058429,2025-09-09 14:09:22.058474
"KGEG","Spokane Intl, WA, US",2025-09-09 17:53:00,2025-09-09 13:53:00,"VFR",23.9,8.9,310,5,NA,NA,1013.3,"METAR KGEG 091753Z 31005KT 10SM FEW110 FEW160 FEW200 24/09 A2992 RMK AO2 SLP115 60002 T02390089 10244 20167 58002 $",2025-09-09 18:09:22.065225,2025-09-09 14:09:22.065275
"KGTF","Great Falls Intl, MT, US",2025-09-09 17:53:00,2025-09-09 13:53:00,"VFR",23.3,6.1,60,5,NA,NA,1015.7,"METAR KGTF 091753Z 06005KT 10SM SCT110 23/06 A2999 RMK AO2 SLP127 T02330061 10233 20072 58006 $",2025-09-09 18:09:22.072065,2025-09-09 14:09:22.07211
"KOKC","Oklahoma City/Will Rogers Intl, OK, US",2025-09-09 17:52:00,2025-09-09 13:52:00,"VFR",27.2,14.4,180,13,23,NA,1017,"METAR KOKC 091752Z 18013G23KT 10SM SCT250 27/14 A3003 RMK AO2 SLP156 T02720144 10272 20156 58014",2025-09-09 18:09:22.078852,2025-09-09 14:09:22.078898
"KHRL","Harlingen/Valley Intl, TX, US",2025-09-09 17:52:00,2025-09-09 13:52:00,"VFR",30,24.4,60,13,NA,NA,1014.3,"METAR KHRL 091752Z 06013KT 10SM SCT065 SCT075 BKN090 30/24 A2995 RMK AO2 RAB05E29 SLP141 P0009 60009 T03000244 10317 20233 58001",2025-09-09 18:09:22.085721,2025-09-09 14:09:22.085768
"KABI","Abilene Rgnl, TX, US",2025-09-09 17:52:00,2025-09-09 13:52:00,"VFR",29.4,16.7,180,6,15,NA,1018,"METAR KABI 091752Z 18006G15KT 10SM CLR 29/17 A3006 RMK AO2 SLP153 T02940167 10300 20172 58005 $",2025-09-09 18:09:22.09254,2025-09-09 14:09:22.092587
"KSAT","San Antonio Intl, TX, US",2025-09-09 17:51:00,2025-09-09 13:51:00,"VFR",28.3,14.4,0,0,NA,NA,1017.7,"METAR KSAT 091751Z 00000KT 10SM CLR 28/14 A3005 RMK AO2 SLP156 T02830144 10289 20183 58003",2025-09-09 18:09:22.102151,2025-09-09 14:09:22.102197
"KELP","El Paso Intl, TX, US",2025-09-09 17:51:00,2025-09-09 13:51:00,"VFR",32.8,12.2,210,6,NA,NA,1018.4,"METAR KELP 091751Z 21006KT 10SM FEW075 33/12 A3007 RMK AO2 SLP102 CB DSNT NE T03280122 10328 20228 58004",2025-09-09 18:09:22.109252,2025-09-09 14:09:22.109311
"KACT","Waco Rgnl, TX, US",2025-09-09 17:51:00,2025-09-09 13:51:00,"VFR",27.8,15,NA,3,NA,NA,1018,"METAR KACT 091751Z VRB03KT 10SM CLR 28/15 A3006 RMK AO2 SLP173 T02780150 10283 20156 58007",2025-09-09 18:09:22.116441,2025-09-09 14:09:22.116488
"KSFO","San Francisco Intl, CA, US",2025-09-09 17:56:00,2025-09-09 13:56:00,"VFR",20.6,16.7,240,6,NA,NA,1014,"METAR KSFO 091756Z 24006KT 10SM FEW006 SCT022 BKN037 21/17 A2994 RMK AO2 RAB08E22 SLP140 P0000 60002 T02060167 10206 20178 58001 $",2025-09-09 18:09:23.420706,2025-09-09 14:09:23.420751
"KRNO","Reno/Tahoe Intl, NV, US",2025-09-09 17:55:00,2025-09-09 13:55:00,"VFR",17.8,4.4,NA,3,NA,NA,1016.3,"METAR KRNO 091755Z VRB03KT 10SM FEW070 BKN200 18/04 A3001 RMK AO2 SLP119 T01780044 10178 20144 58006",2025-09-09 18:09:23.427735,2025-09-09 14:09:23.427784
"PHOG","Kahului Arpt, HI, US",2025-09-09 17:54:00,2025-09-09 13:54:00,"VFR",27.2,21.1,20,9,NA,NA,1015.7,"METAR PHOG 091754Z 02009KT 10SM FEW030 SCT045 27/21 A2999 RMK AO2 SLP159 T02720211 10272 20239 53009",2025-09-09 18:09:23.434569,2025-09-09 14:09:23.434613
"KSAF","Santa Fe Cnty Muni, NM, US",2025-09-09 17:53:00,2025-09-09 13:53:00,"VFR",26.7,5,NA,NA,NA,NA,1023.5,"METAR KSAF 091753Z 10SM CLR 27/05 A3022 RMK AO2 SLP138 T02670050 10267 20122 58004",2025-09-09 18:09:23.441297,2025-09-09 14:09:23.441342
"KSTS","Santa Rosa/Schulz Arpt, CA, US",2025-09-09 17:53:00,2025-09-09 13:53:00,"IFR",19.4,16.7,170,4,NA,2.5,1013.6,"METAR KSTS 091753Z 17004KT 2 1/2SM -RA BKN014 BKN024 OVC034 19/17 A2993 RMK AO2 RAB51 SLP129 P0000 60008 T01940167 10200 20172 58002",2025-09-09 18:09:23.450722,2025-09-09 14:09:23.450768
"KBUR","Burbank/Bob Hope Arpt, CA, US",2025-09-09 17:53:00,2025-09-09 13:53:00,"VFR",22.8,15,NA,6,NA,NA,1014.6,"METAR KBUR 091753Z VRB06KT 10SM CLR 23/15 A2996 RMK AO2 SLP133 T02280150 10228 20172 50001",2025-09-09 18:09:23.458068,2025-09-09 14:09:23.458117
"KOAK","Oakland Intl, CA, US",2025-09-09 17:53:00,2025-09-09 13:53:00,"VFR",20.6,16.7,190,8,NA,NA,1014.3,"METAR KOAK 091753Z 19008KT 10SM FEW014 SCT020 BKN038 BKN250 21/17 A2995 RMK AO2 RAB14E23 SLP142 P0000 60002 T02060167 10206 20183 58001",2025-09-09 18:09:23.465113,2025-09-09 14:09:23.465161
"KONT","Ontario Intl, CA, US",2025-09-09 17:53:00,2025-09-09 13:53:00,"VFR",23.3,12.8,0,0,NA,NA,1014.6,"METAR KONT 091753Z 00000KT 10SM CLR 23/13 A2996 RMK AO2 SLP130 T02330128 10239 20172 58002 $",2025-09-09 18:09:23.471877,2025-09-09 14:09:23.471925
"KTUS","Tucson Intl Arpt, AZ, US",2025-09-09 17:53:00,2025-09-09 13:53:00,"VFR",33.3,14.4,180,4,NA,NA,1015.3,"METAR KTUS 091753Z 18004KT 10SM CLR 33/14 A2998 RMK AO2 SLP095 T03330144 10333 20244 58007",2025-09-09 18:09:23.47862,2025-09-09 14:09:23.478666
"KSBA","Santa Barbara Muni, CA, US",2025-09-09 17:53:00,2025-09-09 13:53:00,"VFR",21.7,17.2,150,9,NA,NA,1014,"METAR KSBA 091753Z 15009KT 10SM CLR 22/17 A2994 RMK AO2 SLP138 T02170172 10217 20139 53005 $",2025-09-09 18:09:23.485474,2025-09-09 14:09:23.485519
"KPSP","Palm Springs Intl, CA, US",2025-09-09 17:53:00,2025-09-09 13:53:00,"VFR",35,0.6,150,5,NA,NA,1010.2,"METAR KPSP 091753Z 15005KT 10SM CLR 35/01 A2983 RMK AO2 SLP095 T03500006 10350 20228 58001",2025-09-09 18:09:23.49216,2025-09-09 14:09:23.492205
"KLAX","Los Angeles Intl, CA, US",2025-09-09 17:53:00,2025-09-09 13:53:00,"VFR",23.3,15.6,150,5,NA,NA,1014.3,"METAR KLAX 091753Z 15005KT 10SM FEW009 FEW025 23/16 A2995 RMK AO2 SLP140 T02330156 10233 20189 50002 $",2025-09-09 18:09:23.498892,2025-09-09 14:09:23.498943
"KSJC","San Jose Intl Arpt, CA, US",2025-09-09 17:53:00,2025-09-09 13:53:00,"MVFR",22.8,14.4,0,0,NA,NA,1014,"METAR KSJC 091753Z 00000KT 10SM FEW010 BKN030 BKN045 23/14 A2994 RMK AO2 RAE1657 SLP139 P0000 60000 T02280144 10228 20183 58002",2025-09-09 18:09:23.508426,2025-09-09 14:09:23.508472
"KLGB","Long Beach Arpt, CA, US",2025-09-09 17:53:00,2025-09-09 13:53:00,"VFR",22.2,15.6,200,4,NA,NA,1014,"METAR KLGB 091753Z COR 10SM 20004KT FEW022 22/16 A2994 RMK AO2 SLP139 T02220156 10222 20189 50002",2025-09-09 18:09:23.515266,2025-09-09 14:09:23.515311
"KSNA","Santa Ana/Wayne Arpt, CA, US",2025-09-09 17:53:00,2025-09-09 13:53:00,"VFR",22.2,15.6,NA,5,NA,NA,1014.3,"METAR KSNA 091753Z VRB05KT 10SM SCT024 22/16 A2995 RMK AO2 SLP140 T02220156 10228 20194 50001",2025-09-09 18:09:23.522205,2025-09-09 14:09:23.522251
"PHNL","Honolulu Intl, HI, US",2025-09-09 17:53:00,2025-09-09 13:53:00,"VFR",27.2,20.6,60,12,17,NA,1015.7,"METAR PHNL 091753Z 06012G17KT 10SM FEW024 SCT040 27/21 A2999 RMK AO2 SLP156 60001 T02720206 10272 20250 52010",2025-09-09 18:09:23.529159,2025-09-09 14:09:23.529206
"KABQ","Albuquerque Intl, NM, US",2025-09-09 17:52:00,2025-09-09 13:52:00,"VFR",27.8,8.9,230,5,NA,NA,1022.1,"METAR KABQ 091752Z 23005KT 10SM FEW070 BKN120 28/09 A3018 RMK AO2 SLP132 T02780089 10278 20172 58004 $",2025-09-09 18:09:23.535954,2025-09-09 14:09:23.53602
"KSMO","Santa Monica Muni, CA, US",2025-09-09 17:51:00,2025-09-09 13:51:00,"VFR",22.8,16.7,210,6,NA,NA,1014.3,"METAR KSMO 091751Z 21006KT 10SM SCT024 23/17 A2995 RMK AO2 SLP140 T02280167 10228 20189 50001",2025-09-09 18:09:23.542703,2025-09-09 14:09:23.542748
"KPHX","Phoenix/Sky Harbor Intl, AZ, US",2025-09-09 17:51:00,2025-09-09 13:51:00,"VFR",36.7,13.9,NA,4,NA,NA,1010.2,"METAR KPHX 091751Z VRB04KT 10SM FEW100 37/14 A2983 RMK AO2 SLP078 T03670139 10372 20300 58004",2025-09-09 18:09:23.549462,2025-09-09 14:09:23.549508
"KSAN","San Diego Intl Arpt, CA, US",2025-09-09 17:51:00,2025-09-09 13:51:00,"VFR",21.7,15,NA,5,NA,NA,1015.3,"METAR KSAN 091751Z VRB05KT 10SM SCT022 22/15 A2998 RMK AO2 SLP151 T02170150 10222 20200 55000",2025-09-09 18:09:23.556261,2025-09-09 14:09:23.556307
