"icao","site","observed_utc","observed_local","flight_category","temp_c","dewpoint_c","wind_dir_deg","wind_kts","gust_kts","vis_sm","altimeter_hpa","raw_text","fetched_at_utc","fetched_at_local"
"CBBC","Bella Bella Arpt, BC, CA",2025-09-16 22:00:00,"2025-09-16 15:00:00","VFR",25,11,360,3,NA,9,1010.2,"METAR CBBC 162200Z AUTO 36003KT 330V110 9SM CLR 25/11 A2983 RMK SLP102 DENSITY ALT 1400FT",2025-09-16 22:41:34.359309,2025-09-16 18:41:34.359359
"CYAZ","Tofino Arpt, BC, CA",2025-09-16 22:00:00,"2025-09-16 15:00:00","VFR",18,14,160,13,NA,15,1013,"METAR CYAZ 162200Z 16013KT 15SM SKC 18/14 A2991 RMK SLP132 DENSITY ALT 500FT",2025-09-16 22:41:49.269836,2025-09-16 18:41:49.269895
"CYBD","Bella Coola Arpt, BC, CA",2025-09-16 22:00:00,"2025-09-16 15:00:00","VFR",25,11,290,5,NA,15,1011.3,"METAR CYBD 162200Z 29005KT 15SM SKC 25/11 A2986 RMK HZ SLP112 DENSITY ALT 1400FT",2025-09-16 22:41:49.276526,2025-09-16 18:41:49.27657
"CYAT","Attawapisket Arpt, ON, CA",2025-09-16 22:00:00,"2025-09-16 18:00:00","VFR",29,18,220,9,NA,9,1010.6,"METAR CYAT 162200Z AUTO 22009KT 9SM CLR 29/18 A2984 RMK SLP106 DENSITY ALT 1700FT",2025-09-16 22:41:49.283187,2025-09-16 18:41:49.283242
"CYAW","Shearwater(AFB), NS, CA",2025-09-16 22:00:00,"2025-09-16 22:00:00","VFR",20,14,80,2,NA,15,1024.1,"METAR CYAW 162200Z 08002KT 15SM FEW045 FEW250 20/14 A3024 RMK CF1CI1 DENSITY ALT 579FT SLP242",2025-09-16 22:41:49.291742,2025-09-16 18:41:49.291816
"CYAH","La Grande IV Arpt, QC, CA",2025-09-16 22:00:00,"2025-09-16 18:00:00","VFR",22,15,220,10,15,9,1016.3,"METAR CYAH 162200Z AUTO 22010G15KT 9SM BKN043 22/15 A3001 RMK SLP171 DENSITY ALT 2000FT",2025-09-16 22:41:49.300131,2025-09-16 18:41:49.300189
"CYAM","Sault Ste Marie Arpt, ON, CA",2025-09-16 22:00:00,"2025-09-16 18:00:00","VFR",25,16,170,4,NA,20,1022.1,"METAR CYAM 162200Z 17004KT 140V200 20SM FEW060 BKN100 25/16 A3018 RMK SC1AS6 SC TR SLP222 DENSITY ALT 1700FT",2025-09-16 22:41:49.308414,2025-09-16 18:41:49.308472
"CYAY","St Anthony Arpt, NL, CA",2025-09-16 22:00:00,"2025-09-16 19:30:00","VFR",8,4,130,10,NA,9,1020.1,"METAR CYAY 162200Z AUTO 13010KT 9SM SCT150 BKN200 08/04 A3012 RMK SLP203",2025-09-16 22:41:49.316581,2025-09-16 18:41:49.316638
"CYBB","Pelly Bay/Kugaaruk Arpt, NU, CA",2025-09-16 22:00:00,"2025-09-16 16:00:00","VFR",2,-3,20,10,NA,15,1026.5,"METAR CYBB 162200Z 02010KT 15SM SKC 02/M03 A3031 RMK SLP268",2025-09-16 22:41:49.324676,2025-09-16 18:41:49.324732
"CYBC","Baie Comeau Arpt, QC, CA",2025-09-16 22:00:00,"2025-09-16 18:00:00","VFR",15,10,210,4,NA,9,1023.8,"METAR CYBC 162200Z AUTO 21004KT 9SM CLR 15/10 A3023 RMK SLP239",2025-09-16 22:41:49.332825,2025-09-16 18:41:49.332882
"CYLW","Kelowna Arpt, BC, CA",2025-09-16 22:34:00,"2025-09-16 15:34:00","MVFR",27,11,180,4,NA,5,1020.1,"SPECI CYLW 162234Z AUTO 18004KT 120V230 5SM HZ CLR 27/11 A3012 RMK SLP198 DENSITY ALT 2900FT",2025-09-16 22:41:50.550159,2025-09-16 18:41:50.550205
"CYHI","Ulukhaktok/Holman Arpt, NT, CA",2025-09-16 22:32:00,"2025-09-16 16:32:00","VFR",3,1,110,16,22,15,1024.5,"SPECI CYHI 162232Z 11016G22KT 15SM SCT010 BKN041 OVC066 03/01 A3025 RMK ST4SC3AS1 CIG RAG SLP248",2025-09-16 22:41:50.556725,2025-09-16 18:41:50.556769
"CYCY","Cylde River Arpt, NU, CA",2025-09-16 22:29:00,"2025-09-16 18:29:00","VFR",0,-1,310,7,NA,6,1020.1,"SPECI CYCY 162229Z AUTO 31007KT 6SM -SN BKN048 BKN066 OVC090 00/M01 A3012 RMK SLP203",2025-09-16 22:41:50.563443,2025-09-16 18:41:50.563488
"CYEV","Inuvik/Zubko Arpt, NT, CA",2025-09-16 22:22:00,"2025-09-16 16:22:00","MVFR",11,8,160,6,NA,15,1014.3,"SPECI CYEV 162222Z 16006KT 15SM BKN017 BKN034 11/08 A2995 RMK SC6SC1 SLP148",2025-09-16 22:41:50.569982,2025-09-16 18:41:50.57003
"CYHE","Hope Rgnl Airpark, BC, CA",2025-09-16 22:01:00,"2025-09-16 15:01:00","VFR",32,12,120,7,NA,7,1013.6,"SPECI CYHE 162201Z AUTO 12007KT 7SM CLR 32/12 A2993 RMK ICE MISG SLP137 DENSITY ALT 2100FT",2025-09-16 22:41:50.576531,2025-09-16 18:41:50.576574
"CYER","Ft Severn Arpt, ON, CA",2025-09-16 22:00:00,"2025-09-16 18:00:00","VFR",24,19,230,9,16,9,1004.1,"METAR CYER 162200Z AUTO 23009G16KT 9SM FEW034 SCT055 BKN069 OVC087 24/19 A2965 RMK SLP042 DENSITY ALT 1500FT",2025-09-16 22:41:50.58305,2025-09-16 18:41:50.5831
"CYKP","Ogoki Post, ON, CA",2025-09-16 22:00:00,"2025-09-16 18:00:00","VFR",30,18,210,10,22,9,1011.6,"METAR CYKP 162200Z AUTO 21010G22KT 180V250 9SM CLR 30/18 A2987 RMK SLP109 DENSITY ALT 2500FT",2025-09-16 22:41:50.589613,2025-09-16 18:41:50.589657
"CYDQ","Dawson Creek Arpt, BC, CA",2025-09-16 22:00:00,"2025-09-16 15:00:00","VFR",26,2,120,5,NA,9,1020.1,"METAR CYDQ 162200Z AUTO 12005KT 100V180 9SM CLR 26/02 A3012 RMK SLP211 DENSITY ALT 3700FT",2025-09-16 22:41:50.596282,2025-09-16 18:41:50.596333
"CYFC","Fredericton Intl, NB, CA",2025-09-16 22:00:00,"2025-09-16 19:00:00","VFR",22,13,110,2,NA,6,1023.8,"METAR CYFC 162200Z AUTO 11002KT 6SM HZ CLR 22/13 A3023 RMK SLP240 DENSITY ALT 600FT",2025-09-16 22:41:50.602761,2025-09-16 18:41:50.602821
"CYKF","Waterloo Intl, ON, CA",2025-09-16 22:00:00,"2025-09-16 18:00:00","VFR",24,11,100,10,NA,9,1022.4,"METAR CYKF 162200Z AUTO 10010KT 9SM CLR 24/11 A3019 RMK SLP226 DENSITY ALT 2100FT",2025-09-16 22:41:50.60925,2025-09-16 18:41:50.609293
"CYGP","Gaspé Arpt, QC, CA",2025-09-16 22:00:00,"2025-09-16 18:00:00","VFR",15,9,70,7,NA,15,1023.5,"METAR CYGP 162200Z 07007KT 15SM SCT230 15/09 A3022 RMK CI4 CONTRAILS SLP237",2025-09-16 22:41:50.615725,2025-09-16 18:41:50.615769
"CYGW","Kuujjuarapik Arpt, QC, CA",2025-09-16 22:00:00,"2025-09-16 18:00:00","VFR",25,17,190,12,20,9,1009.9,"METAR CYGW 162200Z AUTO 19012G20KT 9SM CLR 25/17 A2982 RMK SLP100 DENSITY ALT 1300FT",2025-09-16 22:41:50.622185,2025-09-16 18:41:50.622229
"CYBX","Blanc Sablon Arpt, QC, CA",2025-09-16 22:00:00,"2025-09-16 18:00:00","VFR",11,7,230,7,NA,15,1020.4,"METAR CYBX 162200Z 23007KT 15SM BKN046 BKN058 11/07 A3013 RMK SC5SC2 SLP206",2025-09-16 22:41:50.628624,2025-09-16 18:41:50.62867
"CYDC","Princeton Arpt, BC, CA",2025-09-16 22:00:00,"2025-09-16 22:00:00","VFR",29,6,90,12,17,20,1019,"METAR CYDC 162200Z 09012G17KT 20SM SCT260 29/06 A3009 RMK CS3 SLP182 DENSITY ALT 4200FT",2025-09-16 22:41:50.635215,2025-09-16 18:41:50.635257
"CYFO","Flin Flon Arpto, MB, CA",2025-09-16 22:00:00,"2025-09-16 17:00:00","MVFR",18,16,330,8,NA,13,1017.7,"METAR CYFO 162200Z 33008KT 13SM -RA OVC022 18/16 A3005 RMK SC8 SLP184 DENSITY ALT 1500FT",2025-09-16 22:41:50.641654,2025-09-16 18:41:50.641699
"CYHK","Gjoa Haven Arpt, NU, CA",2025-09-16 22:00:00,"2025-09-16 16:00:00","VFR",2,-1,60,7,NA,15,1028.2,"METAR CYHK 162200Z 06007KT 15SM FEW014 FEW090 02/M01 A3036 RMK SC1AC1 AC TR SLP288",2025-09-16 22:41:50.648142,2025-09-16 18:41:50.648186
"CYKD","Aklavik Arpt, NT, CA",2025-09-16 22:00:00,"2025-09-16 16:00:00","VFR",10,6,NA,2,NA,15,1014.3,"METAR CYKD 162200Z VRB02KT 15SM SCT015 SCT045 10/06 A2995 RMK SC3SC1 SLP144",2025-09-16 22:41:50.654727,2025-09-16 18:41:50.654772
"CYLK","Lutselke Arpt, NT, CA",2025-09-16 22:00:00,"2025-09-16 16:00:00","MVFR",11,9,260,6,NA,25,1022.1,"METAR CYLK 162200Z 26006KT 25SM OVC013 11/09 A3018 RMK SC8 SLP230",2025-09-16 22:41:50.673172,2025-09-16 18:41:50.673215
"CYBL","Campbell River Arpt, BC, CA",2025-09-16 22:00:00,"2025-09-16 15:00:00","VFR",22,13,90,10,NA,30,1015,"METAR CYBL 162200Z 09010KT 30SM SKC 22/13 A2997 RMK SLP153 DENSITY ALT 1200FT",2025-09-16 22:41:50.679657,2025-09-16 18:41:50.6797
"CYKY","Kindersley Arpt, SK, CA",2025-09-16 22:00:00,"2025-09-16 16:00:00","VFR",23,6,350,11,17,15,1023.5,"METAR CYKY 162200Z 35011G17KT 290V010 15SM SKC 23/06 A3022 RMK SLP237 DENSITY ALT 3400FT",2025-09-16 22:41:50.686251,2025-09-16 18:41:50.686295
"CYBQ","Tadoule Lake Arpt, MB, CA",2025-09-16 22:00:00,"2025-09-16 17:00:00","MVFR",13,9,10,9,NA,9,1019,"METAR CYBQ 162200Z AUTO 01009KT 9SM OVC019 13/09 A3009 RMK SLP201",2025-09-16 22:41:50.692689,2025-09-16 18:41:50.692732
"CYCD","Nanaimo Arpt, BC, CA",2025-09-16 22:00:00,"2025-09-16 15:00:00","VFR",27,13,160,7,NA,30,1015,"METAR CYCD 162200Z 16007KT 30SM FEW240 27/13 A2997 RMK CI1 CI TR SLP150 DENSITY ALT 1500FT",2025-09-16 22:41:50.700506,2025-09-16 18:41:50.700552
"CYCK","Chatham/Kent Arpt, ON, CA",2025-09-16 22:00:00,"2025-09-16 18:00:00","VFR",25,16,130,8,NA,9,1021.1,"METAR CYCK 162200Z AUTO 13008KT 9SM CLR 25/16 A3015 RMK SLP213 DENSITY ALT 1700FT",2025-09-16 22:41:50.707162,2025-09-16 18:41:50.707206
"CYBW","Calgary/Springbank Arpt, AB, CA",2025-09-16 22:00:00,"2025-09-16 22:00:00","VFR",24,9,170,8,NA,9,1025.5,"METAR CYBW 162200Z AUTO 17008KT 120V180 9SM CLR 24/09 A3028 RMK SLP256 DENSITY ALT 5500FT",2025-09-16 22:41:50.713663,2025-09-16 18:41:50.713706
"CYEG","Edmonton Intl Arpt, AB, CA",2025-09-16 22:00:00,"2025-09-16 16:00:00","VFR",24,2,10,3,NA,20,1024.1,"METAR CYEG 162200Z 01003KT 310V070 20SM FEW250 24/02 A3024 RMK CI1 CONTRAILS SLP253 DENSITY ALT 3600FT",2025-09-16 22:41:50.720067,2025-09-16 18:41:50.720114
"CYFB","Iqaluit Arpt, NU, CA",2025-09-16 22:00:00,"2025-09-16 18:00:00","VFR",8,4,320,7,NA,30,1015.3,"METAR CYFB 162200Z 32007KT 30SM SCT025 SCT250 08/04 A2998 RMK SC3CI1 CI TR SLP158",2025-09-16 22:41:50.726463,2025-09-16 18:41:50.726505
"CYGL","La Grande Riviere Arpt, QC, CA",2025-09-16 22:00:00,"2025-09-16 18:00:00","VFR",24,16,210,12,18,15,1014.6,"METAR CYGL 162200Z 21012G18KT 15SM SKC 24/16 A2996 RMK HAZY SLP151 DENSITY ALT 1800FT",2025-09-16 22:41:50.732865,2025-09-16 18:41:50.73291
"CYHZ","Halifax/Stanfield Intl, NS, CA",2025-09-16 22:00:00,"2025-09-16 19:00:00","VFR",19,12,30,3,NA,15,1024.5,"METAR CYHZ 162200Z 03003KT 15SM FEW250 19/12 A3025 RMK CI1 CI TR SLP245 DENSITY ALT 800FT",2025-09-16 22:41:50.739237,2025-09-16 18:41:50.73928
"CYGR","Îles de la Madeleine Arpt, QC, CA",2025-09-16 22:00:00,"2025-09-16 19:00:00","VFR",14,9,350,4,NA,20,1024.8,"METAR CYGR 162200Z 35004KT 20SM FEW025 BKN270 14/09 A3026 RMK CF1CI6 CF TR SLP250",2025-09-16 22:41:50.745669,2025-09-16 18:41:50.745713
"CYHD","Dryden Rgnl, ON, CA",2025-09-16 22:00:00,"2025-09-16 17:00:00","VFR",27,14,240,14,19,9,1015.3,"METAR CYHD 162200Z AUTO 24014G19KT 9SM CLR 27/14 A2998 RMK SLP155 DENSITY ALT 3000FT",2025-09-16 22:41:50.752072,2025-09-16 18:41:50.752118
"CYIV","Island Lake Arpt, MB, CA",2025-09-16 22:00:00,"2025-09-16 17:00:00","MVFR",14,13,330,19,29,9,1011.6,"METAR CYIV 162200Z AUTO 33019G29KT 9SM -RA BKN010 OVC014 14/13 A2987 RMK SLP124 DENSITY ALT 1000FT",2025-09-16 22:41:50.758525,2025-09-16 18:41:50.758569
"CYKJ","Key Lake Arpt, SK, CA",2025-09-16 22:00:00,"2025-09-16 16:00:00","MVFR",14,13,310,8,NA,9,1022.1,"METAR CYKJ 162200Z AUTO 31008KT 9SM OVC010 14/13 A3018 RMK SLP234",2025-09-16 22:41:50.76497,2025-09-16 18:41:50.765014
"CYLD","Chapleau Arpt, ON, CA",2025-09-16 22:00:00,"2025-09-16 18:00:00","VFR",25,14,240,6,NA,15,1022.1,"METAR CYLD 162200Z 24006KT 200V260 15SM SKC 25/14 A3018 RMK SLP227 DENSITY ALT 2700FT",2025-09-16 22:41:50.771407,2025-09-16 18:41:50.771451
"CYLJ","Meadow Lake Arpt, SK, CA",2025-09-16 22:00:00,"2025-09-16 16:00:00","VFR",18,11,20,6,NA,15,1023.8,"METAR CYLJ 162200Z 02006KT 15SM BKN031 18/11 A3023 RMK SC6 SLP247 DENSITY ALT 2000FT",2025-09-16 22:41:50.778077,2025-09-16 18:41:50.778123
"CYMA","Mayo Arpt, YT, CA",2025-09-16 22:00:00,"2025-09-16 15:00:00","VFR",16,2,140,8,15,20,1010.9,"METAR CYMA 162200Z 14008G15KT 080V160 20SM FEW055TCU BKN130 16/02 A2985 RMK TCU1AC6 SLP125 DENSITY ALT 2300FT",2025-09-16 22:41:50.784658,2025-09-16 18:41:50.784712
"CYBU","Nipawin(AUTO), SK, CA",2025-09-16 22:00:00,"2025-09-16 22:00:00","VFR",21,12,310,13,NA,9,1020.1,"METAR CYBU 162200Z AUTO 31013KT 9SM SCT044 BKN050 21/12 A3012 RMK SLP206 DENSITY ALT 2100FT",2025-09-16 22:41:50.79134,2025-09-16 18:41:50.791386
"CYCQ","Chetwynd Arpt, BC, CA",2025-09-16 22:00:00,"2025-09-16 15:00:00","VFR",25,5,70,6,NA,35,1018.7,"METAR CYCQ 162200Z 07006KT 060V120 35SM FEW150 BKN230 BKN250 25/05 A3008 RMK AC1CI5CI1 SLP199 DENSITY ALT 3500FT",2025-09-16 22:41:50.809964,2025-09-16 18:41:50.810009
"CYCX","Gagetown (MIL), NB, CA",2025-09-16 22:00:00,"2025-09-16 22:00:00","VFR",22,11,0,0,NA,15,1024.5,"METAR CYCX 162200Z 00000KT 15SM FEW240 22/11 A3025 RMK CI1 DENSITY ALT 852FT SLP242",2025-09-16 22:41:50.816572,2025-09-16 18:41:50.816614
"CYDA","Dawson Arpt, YT, CA",2025-09-16 22:00:00,"2025-09-16 15:00:00","VFR",15,4,80,4,NA,20,1009.6,"METAR CYDA 162200Z 08004KT 350V130 20SM SCT055 BKN230 15/04 A2981 RMK SC4CI3 SLP112 DENSITY ALT 1600FT",2025-09-16 22:41:50.822981,2025-09-16 18:41:50.823025
"CYDF","Deer Lake Arpt, NL, CA",2025-09-16 22:00:00,"2025-09-16 19:30:00","VFR",13,8,280,4,NA,15,1022.1,"METAR CYDF 162200Z 28004KT 250V330 15SM FEW040 SCT240 13/08 A3018 RMK SC1CI3 SLP222",2025-09-16 22:41:50.82942,2025-09-16 18:41:50.829463
"CYFS","Fort Simpson Arpt, NT, CA",2025-09-16 22:00:00,"2025-09-16 16:00:00","VFR",17,11,120,4,NA,15,1017.4,"METAR CYFS 162200Z 12004KT 070V150 15SM BKN130 BKN150 BKN250 BKN280 17/11 A3004 RMK AC5AC1CC2CI1 AC TR CI TR SLP181 DENSITY ALT 800FT",2025-09-16 22:41:50.835961,2025-09-16 18:41:50.836007
"CYDB","Burwash Arpt, YT, CA",2025-09-16 22:00:00,"2025-09-16 15:00:00","VFR",12,3,110,15,21,15,1007.9,"METAR CYDB 162200Z 11015G21KT 15SM OVC250 12/03 A2976 RMK CS8 SLP101 DENSITY ALT 3100FT",2025-09-16 22:41:50.842527,2025-09-16 18:41:50.842571
"CYCO","Coppermine/Kugluktuk Arpt, NU, CA",2025-09-16 22:00:00,"2025-09-16 16:00:00","VFR",5,3,80,10,NA,15,1021.1,"METAR CYCO 162200Z 08010KT 15SM FEW006 SCT023 OVC110 05/03 A3015 RMK SF1SC3AC5 SF TR SLP214",2025-09-16 22:41:50.848989,2025-09-16 18:41:50.849031
"CYJF","Fort Liard Arpt, NT, CA",2025-09-16 22:00:00,"2025-09-16 16:00:00","VFR",18,12,NA,2,NA,15,1017.4,"METAR CYJF 162200Z VRB02KT 15SM FEW170 BKN220 18/12 A3004 RMK AC1CI5 LAST STFD OBS/NXT 171400Z SLP178 DENSITY ALT 1200FT",2025-09-16 22:41:50.855508,2025-09-16 18:41:50.855554
"CYLC","Kimmirut Arpt, NU, CA",2025-09-16 22:00:00,"2025-09-16 18:00:00","VFR",7,3,240,10,NA,15,1015.3,"METAR CYLC 162200Z 24010KT 15SM FEW025 07/03 A2998 RMK SC1 LSTSTFD OBS/NXT 171200Z SLP158",2025-09-16 22:41:50.861981,2025-09-16 18:41:50.862024
"CYCP","Blue River Arpt, BC, CA",2025-09-16 22:00:00,"2025-09-16 22:00:00","VFR",25,11,30,3,NA,15,1021.4,"METAR CYCP 162200Z 03003KT 010V110 15SM FEW080 25/11 A3016 RMK CU1 HZ ALQDS SLP218 DENSITY ALT 3700FT",2025-09-16 22:41:50.868406,2025-09-16 18:41:50.86845
"CYGV","Havre St Pierre Arpt, QC, CA",2025-09-16 22:00:00,"2025-09-16 18:00:00","VFR",12,8,260,8,15,9,1022.4,"METAR CYGV 162200Z AUTO 26008G15KT 9SM CLR 12/08 A3019 RMK SLP228",2025-09-16 22:41:50.874929,2025-09-16 18:41:50.874974
"CYBK","Baker Lake Arpt, NU, CA",2025-09-16 22:00:00,"2025-09-16 17:00:00","VFR",7,1,90,5,NA,20,1024.1,"METAR CYBK 162200Z 09005KT 20SM FEW025 BKN075 BKN120 07/01 A3024 RMK SC1AC6AC1 SC TR SLP245",2025-09-16 22:41:50.881439,2025-09-16 18:41:50.881489
"CYBR","Brandon Arpt, MB, CA",2025-09-16 22:00:00,"2025-09-16 17:00:00","VFR",24,14,310,13,19,15,1018.7,"METAR CYBR 162200Z 31013G19KT 15SM SCT060 SCT250 24/14 A3008 RMK SC4CI2 SLP189 DENSITY ALT 2600FT",2025-09-16 22:41:50.888077,2025-09-16 18:41:50.888124
"CYEN","Estevan Arpt, SK, CA",2025-09-16 22:00:00,"2025-09-16 16:00:00","VFR",24,15,300,11,NA,9,1021.1,"METAR CYEN 162200Z AUTO 30011KT 9SM CLR 24/15 A3015 RMK SLP215 DENSITY ALT 3100FT",2025-09-16 22:41:50.894686,2025-09-16 18:41:50.894729
"CYLL","Lloydminster Arpt, AB, CA",2025-09-16 22:00:00,"2025-09-16 16:00:00","VFR",20,8,350,8,NA,15,1024.1,"METAR CYLL 162200Z 35008KT 310V030 15SM FEW180 FEW260 20/08 A3024 RMK AC1CI1 AC TR CI TR SLP252 DENSITY ALT 3000FT",2025-09-16 22:41:50.90125,2025-09-16 18:41:50.901294
"CYGK","Kingston Arpt, ON, CA",2025-09-16 22:00:00,"2025-09-16 18:00:00","VFR",25,11,100,7,NA,15,1022.4,"METAR CYGK 162200Z 10007KT 15SM SCT240 25/11 A3019 RMK CI4 SLP226 DENSITY ALT 1200FT",2025-09-16 22:41:50.907865,2025-09-16 18:41:50.90791
"CYHM","Hamilton/Munro Intl, ON, CA",2025-09-16 22:00:00,"2025-09-16 18:00:00","VFR",22,12,50,10,NA,15,1022.4,"METAR CYHM 162200Z 05010KT 15SM FEW240 22/12 A3019 RMK CI1 SLP227 DENSITY ALT 1500FT",2025-09-16 22:41:50.91433,2025-09-16 18:41:50.914374
"CYLH","Lansdowne House Arpt, ON, CA",2025-09-16 22:00:00,"2025-09-16 18:00:00","VFR",28,15,240,15,24,9,1010.2,"METAR CYLH 162200Z AUTO 24015G24KT 9SM SCT071 28/15 A2983 RMK SLP105 DENSITY ALT 2600FT",2025-09-16 22:41:50.92082,2025-09-16 18:41:50.92087
"CYCA","Cartwright Arpt, NL, CA",2025-09-16 22:00:00,"2025-09-16 19:00:00","VFR",9,7,200,5,NA,9,1018,"METAR CYCA 162200Z AUTO 20005KT 9SM OVC046 09/07 A3006 RMK SLP182",2025-09-16 22:41:50.92727,2025-09-16 18:41:50.927313
"CYHU","Montreal/St Hubert, QC, CA",2025-09-16 22:00:00,"2025-09-16 18:00:00","VFR",23,13,40,4,NA,9,1023.1,"METAR CYHU 162200Z AUTO 04004KT 9SM CLR 23/13 A3021 RMK SLP234 DENSITY ALT 700FT",2025-09-16 22:41:50.933751,2025-09-16 18:41:50.933795
"CYIO","Pond Inlet Arpt, NU, CA",2025-09-16 22:00:00,"2025-09-16 18:00:00","VFR",1,-3,0,0,NA,35,1020.7,"METAR CYIO 162200Z 00000KT 35SM FEW023 FEW046 SCT160 01/M03 A3014 RMK SC1SC1AC1 SLP215",2025-09-16 22:41:50.952018,2025-09-16 18:41:50.952064
"CYKA","Kamloops Arpt, BC, CA",2025-09-16 22:00:00,"2025-09-16 15:00:00","VFR",31,10,100,12,19,40,1017.4,"METAR CYKA 162200Z 10012G19KT 40SM FEW250 31/10 A3004 RMK CI1 SLP172 DENSITY ALT 3200FT",2025-09-16 22:41:50.958432,2025-09-16 18:41:50.958475
"CYDN","Dauphin Arpt, MB, CA",2025-09-16 22:00:00,"2025-09-16 17:00:00","VFR",22,15,340,10,18,9,1017.7,"METAR CYDN 162200Z AUTO 34010G18KT 9SM SCT040 BKN081 22/15 A3005 RMK SLP179 DENSITY ALT 2000FT",2025-09-16 22:41:50.96488,2025-09-16 18:41:50.964926
"CYDP","Nain Arpt, NL, CA",2025-09-16 22:00:00,"2025-09-16 19:00:00","VFR",8,8,80,3,NA,15,1014,"METAR CYDP 162200Z 08003KT 070V180 15SM -RA FEW010 OVC045 08/08 A2994 RMK SF1SC8 TR SF SLP141",2025-09-16 22:41:50.971482,2025-09-16 18:41:50.971526
"CYEK","Arviat/Eskimo Pt Arpt, NU, CA",2025-09-16 22:00:00,"2025-09-16 17:00:00","IFR",6,5,40,18,26,15,1020.4,"METAR CYEK 162200Z 04018G26KT 15SM OVC008 06/05 A3013 RMK SC8 LAST STFD OBS/NXT 171200Z SLP204",2025-09-16 22:41:50.978153,2025-09-16 18:41:50.978196
"CYFR","Fort Resolution Arpt, NT, CA",2025-09-16 22:00:00,"2025-09-16 16:00:00","VFR",15,10,170,4,NA,15,1021.4,"METAR CYFR 162200Z 17004KT 15SM FEW024 FEW090 FEW260 BKN280 15/10 A3016 RMK SC1AC1CI1CS4 SC TR CC ASOCTD FU PRSNT LAST STFD OBS/NXT171400Z SLP220",2025-09-16 22:41:50.984784,2025-09-16 18:41:50.984848
"CYGE","Golden Arpt, BC, CA",2025-09-16 22:00:00,"2025-09-16 22:00:00","VFR",23,13,140,5,NA,20,1024.8,"METAR CYGE 162200Z 14005KT 100V200 20SM FEW055 SCT065 23/13 A3026 RMK CF1CU2 SLP247 DENSITY ALT 3800FT",2025-09-16 22:41:50.991232,2025-09-16 18:41:50.991276
"CYGH","Fort Good Hope Arpt, NT, CA",2025-09-16 22:00:00,"2025-09-16 16:00:00","VFR",12,8,340,3,NA,25,1014.6,"METAR CYGH 162200Z 34003KT 310V010 25SM FEW015 BKN230 12/08 A2996 RMK SC1CS7 SC TR SLP153",2025-09-16 22:41:50.997672,2025-09-16 18:41:50.997715
"CYBG","Bagotville(MIL), QC, CA",2025-09-16 22:00:00,"2025-09-16 18:00:00","VFR",21,12,280,2,NA,25,1023.5,"METAR CYBG 162200Z 28002KT 25SM SCT250 21/12 A3022 RMK CI3 DENSITY ALT 1139FT SLP239",2025-09-16 22:41:51.004189,2025-09-16 18:41:51.004256
"CYCG","Castlegar Rgnl, BC, CA",2025-09-16 22:00:00,"2025-09-16 15:00:00","VFR",27,12,360,6,NA,15,1022.1,"METAR CYCG 162200Z 36006KT 310V010 15SM FEW060 27/12 A3018 RMK CU1 SLP218 DENSITY ALT 3100FT",2025-09-16 22:41:51.010744,2025-09-16 18:41:51.010788
"CYCB","Cambridge Bay Arpt, NU, CA",2025-09-16 22:00:00,"2025-09-16 16:00:00","MVFR",3,-1,70,12,NA,15,1027.5,"METAR CYCB 162200Z 07012KT 15SM BKN021 BKN170 03/M01 A3034 RMK SC5AC2 SLP278",2025-09-16 22:41:51.017189,2025-09-16 18:41:51.017234
"CYHY","Hay River/Carter Arpt, NT, CA",2025-09-16 22:00:00,"2025-09-16 16:00:00","VFR",20,8,180,6,NA,15,1020.1,"METAR CYHY 162200Z 18006KT 15SM FEW160 SCT210 BKN240 20/08 A3012 RMK AC1CC2CI2 SLP207 DENSITY ALT 1000FT",2025-09-16 22:41:51.023568,2025-09-16 18:41:51.023612
"CYET","Edson Arpt, AB, CA",2025-09-16 22:00:00,"2025-09-16 16:00:00","VFR",24,10,110,6,NA,9,1022.8,"METAR CYET 162200Z AUTO 11006KT 080V180 9SM CLR 24/10 A3020 RMK SLP235 DENSITY ALT 4500FT",2025-09-16 22:41:51.030004,2025-09-16 18:41:51.030048
"CYDL","Dease Lake Arpt, BC, CA",2025-09-16 22:00:00,"2025-09-16 15:00:00","VFR",15,7,20,4,NA,9,1014.6,"METAR CYDL 162200Z AUTO 02004KT 300V050 9SM BKN100 OVC130 15/07 A2996 RMK SLP150 DENSITY ALT 3300FT",2025-09-16 22:41:51.036377,2025-09-16 18:41:51.036419
"CYPH","Inukjuak Arpt, QC, CA",2025-09-16 22:38:00,"2025-09-16 18:38:00","VFR",12,11,160,20,26,6,1007.5,"SPECI CYPH 162238Z AUTO 16020G26KT 6SM -RA BR BKN076 OVC099 12/11 A2975 RMK LTNG DIST S PRESFR PCPN 2.8MM PAST HR SLP077",2025-09-16 22:41:52.386131,2025-09-16 18:41:52.386175
"CYQZ","Quesnel Arpt, BC, CA",2025-09-16 22:34:00,"2025-09-16 15:34:00","MVFR",29,10,190,7,NA,5,1015,"SPECI CYQZ 162234Z AUTO 19007KT 110V210 5SM HZ CLR 29/10 A2997 RMK SLP156 DENSITY ALT 3700FT",2025-09-16 22:41:52.392932,2025-09-16 18:41:52.392976
"CYRL","Red Lake Arpt, ON, CA",2025-09-16 22:34:00,"2025-09-16 17:34:00","VFR",19,17,300,6,NA,15,1015.3,"SPECI CYRL 162234Z 30006KT 15SM -SHRA SCT021 BKN040TCU BKN090 19/17 A2998 RMK SC3TCU3AC1 SLP156 DENSITY ALT 2100FT",2025-09-16 22:41:52.399166,2025-09-16 18:41:52.399209
"CYVM","Broughton Isl/Qikiqtarjuaq Arpt, NU, CA",2025-09-16 22:32:00,"2025-09-16 18:32:00","MVFR",2,1,20,8,NA,9,1018.7,"SPECI CYVM 162232Z AUTO 02008KT 9SM OVC010 02/01 A3008 RMK SLP189",2025-09-16 22:41:52.405467,2025-09-16 18:41:52.405508
"CYVP","Kuujjuaq Arpt, QC, CA",2025-09-16 22:30:00,"2025-09-16 18:30:00","LIFR",9,9,60,3,NA,8,1015,"SPECI CYVP 162230Z 06003KT 8SM -DZ VCFG OVC003 09/09 A2997 RMK FG1ST7 VIS S-NE 1 1/2 SLP153",2025-09-16 22:41:52.411928,2025-09-16 18:41:52.411974
"CYTE","Cape Dorset Arpt, NU, CA",2025-09-16 22:22:00,"2025-09-16 18:22:00","VFR",5,2,50,8,NA,9,1017.4,"SPECI CYTE 162222Z AUTO 05008KT 010V070 9SM SCT023 05/02 A3004 RMK SLP179",2025-09-16 22:41:52.418331,2025-09-16 18:41:52.418376
"CYQD","The Pas Arpt, MB, CA",2025-09-16 22:22:00,"2025-09-16 17:22:00","VFR",19,16,300,11,NA,9,1017.4,"SPECI CYQD 162222Z AUTO 30011KT 9SM SCT024 OVC034 19/16 A3004 RMK SLP180 DENSITY ALT 1500FT",2025-09-16 22:41:52.424689,2025-09-16 18:41:52.424731
"CYRV","Revelstoke Arpt, BC, CA",2025-09-16 22:21:00,"2025-09-16 15:21:00","IFR",25,14,170,6,NA,2,1021.4,"SPECI CYRV 162221Z AUTO 17006KT 110V180 2SM HZ CLR 25/14 A3016 RMK VIS VRB 5/8-3 SLP216 DENSITY ALT 2700FT",2025-09-16 22:41:52.431076,2025-09-16 18:41:52.43112
"CYSB","Sudbury Arpt, ON, CA",2025-09-16 22:00:00,"2025-09-16 18:00:00","VFR",24,10,240,6,NA,20,1023.1,"METAR CYSB 162200Z 24006KT 20SM SKC 24/10 A3021 RMK SLP233 DENSITY ALT 2200FT",2025-09-16 22:41:52.437479,2025-09-16 18:41:52.437524
"CYWH","Victoria Harbour Arpt, BC, CA",2025-09-16 22:00:00,"2025-09-16 15:00:00","VFR",24,13,10,6,NA,15,1014,"METAR CYWH 162200Z 01006KT 340V050 15SM FEW230 24/13 A2994 RMK CI2 SLP142 DENSITY ALT 1100FT",2025-09-16 22:41:52.443973,2025-09-16 18:41:52.444024
"CYPX","Puvungnituq Arpt, QC, CA",2025-09-16 22:00:00,"2025-09-16 18:00:00","IFR",10,NA,60,11,NA,9,1011.3,"METAR CYPX 162200Z AUTO 06011KT 9SM -RA OVC006 10/ A2986 RMK PCPN 0.5MM PAST HR DP MISG SLP115",2025-09-16 22:41:52.450374,2025-09-16 18:41:52.450416
"CYSK","Sanikiluaq Arpt, QC, CA",2025-09-16 22:00:00,"2025-09-16 18:00:00","IFR",14,12,210,20,25,15,1007.9,"METAR CYSK 162200Z 21020G25KT 15SM BKN005 14/12 A2976 RMK SF7 LAST STFD OBS/NXT 171200Z SLP080",2025-09-16 22:41:52.456775,2025-09-16 18:41:52.456837
"CYWK","Wabush Lake Arpt, NL, CA",2025-09-16 22:00:00,"2025-09-16 19:00:00","VFR",18,11,250,6,NA,15,1017.7,"METAR CYWK 162200Z 25006KT 15SM BKN220 18/11 A3005 RMK CI5 SLP193 DENSITY ALT 2500FT",2025-09-16 22:41:52.463144,2025-09-16 18:41:52.463187
"CYPA","Prince Albert Arpt, SK, CA",2025-09-16 22:00:00,"2025-09-16 16:00:00","VFR",18,11,330,10,17,15,1022.1,"METAR CYPA 162200Z 33010G17KT 15SM FEW028 SCT270 18/11 A3018 RMK CU2CI2 SLP231 DENSITY ALT 1800FT",2025-09-16 22:41:52.469527,2025-09-16 18:41:52.46957
"CYPY","Fort Chipewyan Arpt, AB, CA",2025-09-16 22:00:00,"2025-09-16 16:00:00","VFR",16,10,260,5,NA,9,1023.1,"METAR CYPY 162200Z AUTO 26005KT 9SM CLR 16/10 A3021 RMK SLP241",2025-09-16 22:41:52.476126,2025-09-16 18:41:52.476176
"CYQL","Lethbridge Cnty Arpt, AB, CA",2025-09-16 22:00:00,"2025-09-16 16:00:00","VFR",24,7,20,7,NA,25,1025.1,"METAR CYQL 162200Z 02007KT 360V070 25SM FEW060 FEW250 24/07 A3027 RMK CU1CI1 CU TR SLP250 DENSITY ALT 4400FT",2025-09-16 22:41:52.482618,2025-09-16 18:41:52.482662
"CYOO","Oshawa Arpt, ON, CA",2025-09-16 22:00:00,"2025-09-16 18:00:00","VFR",22,12,140,6,NA,9,1022.4,"METAR CYOO 162200Z AUTO 14006KT 9SM CLR 22/12 A3019 RMK SLP227 DENSITY ALT 1200FT",2025-09-16 22:41:52.489114,2025-09-16 18:41:52.489158
"CYPO","Peawanuck Arpt, ON, CA",2025-09-16 22:00:00,"2025-09-16 18:00:00","VFR",29,17,230,10,15,9,1005.2,"METAR CYPO 162200Z AUTO 23010G15KT 9SM SCT110 29/17 A2968 RMK SLP049 DENSITY ALT 2100FT",2025-09-16 22:41:52.495473,2025-09-16 18:41:52.495519
"CYQA","Muskoka Arpt, ON, CA",2025-09-16 22:00:00,"2025-09-16 18:00:00","VFR",25,11,330,6,NA,9,1022.1,"METAR CYQA 162200Z AUTO 33006KT 9SM CLR 25/11 A3018 RMK SLP224 DENSITY ALT 2100FT",2025-09-16 22:41:52.501864,2025-09-16 18:41:52.501909
"CYQK","Kenora Arpt, ON, CA",2025-09-16 22:00:00,"2025-09-16 17:00:00","VFR",24,17,210,12,NA,20,1016,"METAR CYQK 162200Z CCA 21012KT 20SM SCT024 24/17 A3000 RMK CU4 TCU EMBD SLP161 DENSITY ALT 2600FT",2025-09-16 22:41:52.508248,2025-09-16 18:41:52.508291
"CYRB","Resolute Bay Arpt, NU, CA",2025-09-16 22:00:00,"2025-09-16 17:00:00","VFR",0,-3,320,12,NA,30,1027.9,"METAR CYRB 162200Z 32012KT 30SM SKC M00/M03 A3035 RMK SLP286",2025-09-16 22:41:52.526594,2025-09-16 18:41:52.526637
"CYRQ","Trois-Rivières, QC, CA",2025-09-16 22:00:00,"2025-09-16 18:00:00","VFR",23,11,110,3,NA,9,1023.8,"METAR CYRQ 162200Z AUTO 11003KT 9SM CLR 23/11 A3023 RMK SLP240 DENSITY ALT 800FT",2025-09-16 22:41:52.532832,2025-09-16 18:41:52.532878
"CYSC","Sherbrooke Arpt, QC, CA",2025-09-16 22:00:00,"2025-09-16 18:00:00","VFR",24,12,290,2,NA,9,1023.5,"METAR CYSC 162200Z AUTO 29002KT 9SM FEW250 24/12 A3022 RMK SLP238 DENSITY ALT 1700FT",2025-09-16 22:41:52.539196,2025-09-16 18:41:52.539238
"CYVO","Val D'Or Arpt, QC, CA",2025-09-16 22:00:00,"2025-09-16 18:00:00","VFR",24,8,210,6,NA,15,1022.8,"METAR CYVO 162200Z 21006KT 15SM FEW270 24/08 A3020 RMK CI2 SLP235 DENSITY ALT 2100FT",2025-09-16 22:41:52.545523,2025-09-16 18:41:52.545567
"CYPQ","Peterborough Muni, ON, CA",2025-09-16 22:00:00,"2025-09-16 18:00:00","VFR",26,11,110,2,NA,9,1022.1,"METAR CYPQ 162200Z AUTO 11002KT 9SM CLR 26/11 A3018 RMK SLP225 DENSITY ALT 1700FT",2025-09-16 22:41:52.551947,2025-09-16 18:41:52.551989
"CYRJ","Roberval Arpt, QC, CA",2025-09-16 22:00:00,"2025-09-16 18:00:00","VFR",18,11,120,2,NA,40,1023.5,"METAR CYRJ 162200Z 12002KT 40SM FEW230 18/11 A3022 RMK CI1 CI TR SLP239 DENSITY ALT 800FT",2025-09-16 22:41:52.558292,2025-09-16 18:41:52.558334
"CYWA","Petawawa Arpt, ON, CA",2025-09-16 22:00:00,"2025-09-16 18:00:00","VFR",23,10,120,4,NA,15,1023.1,"METAR CYWA 162200Z 12004KT 15SM FEW240 23/10 A3021 RMK CI1 DENSITY ALT 1347FT SLP233",2025-09-16 22:41:52.564605,2025-09-16 18:41:52.564648
"CYOD","Cold Lake (Mil), AB, CA",2025-09-16 22:00:00,"2025-09-16 16:00:00","VFR",18,10,180,3,NA,15,1024.8,"METAR CYOD 162200Z 18003KT 130V220 15SM FEW250 18/10 A3026 RMK CI1 DENSITY ALT 2361FT SLP259",2025-09-16 22:41:52.570908,2025-09-16 18:41:52.570951
"CYQV","Yorkton Muni, SK, CA",2025-09-16 22:00:00,"2025-09-16 16:00:00","VFR",24,14,340,9,15,9,1019,"METAR CYQV 162200Z AUTO 34009G15KT 9SM FEW055 24/14 A3009 RMK SLP196 DENSITY ALT 2900FT",2025-09-16 22:41:52.577302,2025-09-16 18:41:52.577345
"CYUX","Hall Beach Arpt, NU, CA",2025-09-16 22:00:00,"2025-09-16 18:00:00","VFR",1,-2,360,14,NA,15,1021.4,"METAR CYUX 162200Z 36014KT 15SM BKN036 BKN250 01/M02 A3016 RMK SC5CI1 SLP214",2025-09-16 22:41:52.583658,2025-09-16 18:41:52.583701
"CYPD","Port Hawkesbury Arpt, NS, CA",2025-09-16 22:00:00,"2025-09-16 19:00:00","VFR",15,9,320,6,NA,9,1024.5,"METAR CYPD 162200Z AUTO 32006KT 9SM CLR 15/09 A3025 RMK SLP247",2025-09-16 22:41:52.590118,2025-09-16 18:41:52.590162
"CYMH","Mary's Harbor Arpt, NL, CA",2025-09-16 22:00:00,"2025-09-16 19:30:00","VFR",6,5,130,4,NA,9,1020.1,"METAR CYMH 162200Z AUTO 13004KT 9SM BKN055 06/05 A3012 RMK SLP202",2025-09-16 22:41:52.5965,2025-09-16 18:41:52.596542
"CYOW","Ottawa/Cartier Intl, ON, CA",2025-09-16 22:00:00,"2025-09-16 18:00:00","VFR",24,11,60,7,NA,15,1023.1,"METAR CYOW 162200Z 06007KT 15SM FEW200 SCT250 24/11 A3021 RMK CI1CI3 CI TR SLP233 DENSITY ALT 1200FT",2025-09-16 22:41:52.602885,2025-09-16 18:41:52.60293
"CYPL","Pickle Lake Arpt, ON, CA",2025-09-16 22:00:00,"2025-09-16 17:00:00","VFR",26,15,250,18,29,9,1013,"METAR CYPL 162200Z AUTO 25018G29KT 9SM BKN050 BKN060 26/15 A2991 RMK SLP131 DENSITY ALT 2900FT",2025-09-16 22:41:52.609228,2025-09-16 18:41:52.60927
"CYQG","Windsor Intl, ON, CA",2025-09-16 22:00:00,"2025-09-16 18:00:00","VFR",27,13,80,6,NA,9,1021.4,"METAR CYQG 162200Z AUTO 08006KT 9SM CLR 27/13 A3016 RMK SLP213 DENSITY ALT 1900FT",2025-09-16 22:41:52.615567,2025-09-16 18:41:52.61561
"CYQM","Moncton Intl, NB, CA",2025-09-16 22:00:00,"2025-09-16 19:00:00","VFR",17,11,30,6,NA,15,1025.1,"METAR CYQM 162200Z 03006KT 15SM FEW220 SCT250 17/11 A3027 RMK CI1CI3 SLP254",2025-09-16 22:41:52.62191,2025-09-16 18:41:52.621955
"CYQQ","Comox(MIL), BC, CA",2025-09-16 22:00:00,"2025-09-16 15:00:00","VFR",21,12,100,5,NA,20,1015.3,"METAR CYQQ 162200Z 10005KT 20SM FEW250 21/12 A2998 RMK CI1 DENSITY ALT 939FT SLP152",2025-09-16 22:41:52.628232,2025-09-16 18:41:52.628274
"CYQX","Gander Intl Arpt, NL, CA",2025-09-16 22:00:00,"2025-09-16 19:30:00","VFR",7,5,330,5,NA,15,1021.8,"METAR CYQX 162200Z 33005KT 15SM FEW020 SCT150 SCT240 07/05 A3017 RMK SC2AS1CI1 AS TR CI TR SLP224",2025-09-16 22:41:52.634694,2025-09-16 18:41:52.634747
"CYQY","Sydney Arpt, NS, CA",2025-09-16 22:00:00,"2025-09-16 19:00:00","VFR",15,11,10,9,NA,15,1023.8,"METAR CYQY 162200Z 01009KT 15SM SCT023 BKN240 15/11 A3023 RMK SC3CI3 SLP241",2025-09-16 22:41:52.641039,2025-09-16 18:41:52.641084
"CYSJ","Saint John Arpt, NB, CA",2025-09-16 22:00:00,"2025-09-16 19:00:00","VFR",19,9,150,3,NA,15,1024.8,"METAR CYSJ 162200Z 15003KT 15SM FEW270 19/09 A3026 RMK CI2 SLP250 DENSITY ALT 600FT",2025-09-16 22:41:52.659155,2025-09-16 18:41:52.659201
"CYTL","Big Trout Lake Arpt, ON, CA",2025-09-16 22:00:00,"2025-09-16 17:00:00","VFR",21,16,260,9,17,9,1007.9,"METAR CYTL 162200Z AUTO 26009G17KT 9SM FEW033 BKN048 OVC060 21/16 A2976 RMK SLP084 DENSITY ALT 1800FT",2025-09-16 22:41:52.665522,2025-09-16 18:41:52.665564
"CYUL","Montreal/Trudeau Intl, QC, CA",2025-09-16 22:00:00,"2025-09-16 18:00:00","VFR",24,12,160,3,NA,30,1023.1,"METAR CYUL 162200Z 16003KT 150V210 30SM FEW250 24/12 A3021 RMK CI2 SLP232 DENSITY ALT 900FT",2025-09-16 22:41:52.67178,2025-09-16 18:41:52.671843
"CYUY","Rouyn/Noranda Arpt, QC, CA",2025-09-16 22:00:00,"2025-09-16 18:00:00","VFR",25,12,230,8,NA,15,1022.1,"METAR CYUY 162200Z 23008KT 15SM FEW280 25/12 A3018 RMK CI2 SLP226 DENSITY ALT 2100FT",2025-09-16 22:41:52.678142,2025-09-16 18:41:52.678185
"CYVR","Vancouver Intl, BC, CA",2025-09-16 22:00:00,"2025-09-16 15:00:00","VFR",22,16,280,5,NA,30,1015,"METAR CYVR 162200Z 28005KT 30SM FEW220 22/16 A2997 RMK CI1 CI TR SLP152 DENSITY ALT 800FT",2025-09-16 22:41:52.684625,2025-09-16 18:41:52.684672
"CYWG","Winnipeg Intl Arpt, MB, CA",2025-09-16 22:00:00,"2025-09-16 17:00:00","VFR",23,14,310,11,18,15,1016.7,"METAR CYWG 162200Z 31011G18KT 15SM FEW035 SCT060 BKN080 BKN240 23/14 A3002 RMK CU1SC4AC3CI1 CU TR CI TR TCU ASOCTD SLP170 DENSITY ALT 1800FT",2025-09-16 22:41:52.691078,2025-09-16 18:41:52.691125
"CYVQ","Norman Wells Arpt, NT, CA",2025-09-16 22:00:00,"2025-09-16 16:00:00","VFR",14,9,160,5,NA,30,1014.6,"METAR CYVQ 162200Z 16005KT 30SM FEW030 FEW100 FEW150 BKN220 14/09 A2996 RMK SC1AC1AC1CI4 SC TR SLP152",2025-09-16 22:41:52.697528,2025-09-16 18:41:52.697572
"CYVT","Buffalo Narrows Arpt, SK, CA",2025-09-16 22:00:00,"2025-09-16 16:00:00","MVFR",15,10,310,8,19,9,1023.8,"METAR CYVT 162200Z AUTO 31008G19KT 9SM OVC027 15/10 A3023 RMK SLP250",2025-09-16 22:41:52.703938,2025-09-16 18:41:52.703982
"CYVV","Wiarton Arpt, ON, CA",2025-09-16 22:00:00,"2025-09-16 18:00:00","VFR",22,13,40,7,NA,15,1023.1,"METAR CYVV 162200Z 04007KT 15SM FEW250 22/13 A3021 RMK CI1 SLP233 DENSITY ALT 1400FT",2025-09-16 22:41:52.710353,2025-09-16 18:41:52.710397
"CYPC","Paulatuk Arpt, NT, CA",2025-09-16 22:00:00,"2025-09-16 16:00:00","VFR",10,3,150,7,NA,15,1018.4,"METAR CYPC 162200Z 15007KT 070V170 15SM FEW030 SCT200 10/03 A3007 RMK SC1CC3 SC TR SLP185",2025-09-16 22:41:52.716771,2025-09-16 18:41:52.716833
"CYWL","Williams Lake Rgnl, BC, CA",2025-09-16 22:00:00,"2025-09-16 15:00:00","VFR",27,7,110,19,26,15,1018,"METAR CYWL 162200Z 11019G26KT 15SM BKN230 27/07 A3006 RMK CI6 SLP178 DENSITY ALT 5000FT",2025-09-16 22:41:52.723281,2025-09-16 18:41:52.723324
"CYPR","Prince Rupert Arpt, BC, CA",2025-09-16 22:00:00,"2025-09-16 15:00:00",NA,24,9,160,5,NA,NA,1008.9,"METAR CYPR 162200Z AUTO 16005KT 130V210 CLR 24/09 A2979 RMK WX MISG VIS MISG SLP089 DENSITY ALT 1400FT",2025-09-16 22:41:52.729936,2025-09-16 18:41:52.72998
"CYPW","Powell River Arpt, BC, CA",2025-09-16 22:00:00,"2025-09-16 15:00:00","VFR",24,13,100,8,NA,30,1015.7,"METAR CYPW 162200Z 10008KT 050V130 30SM SKC 24/13 A2999 RMK HZ DIST W SLP159 DENSITY ALT 1600FT",2025-09-16 22:41:52.736515,2025-09-16 18:41:52.73656
"CYQF","Red Deer Rgnl, AB, CA",2025-09-16 22:00:00,"2025-09-16 16:00:00","VFR",25,8,170,9,NA,9,1024.5,"METAR CYQF 162200Z AUTO 17009KT 100V270 9SM CLR 25/08 A3025 RMK SLP254 DENSITY ALT 4400FT",2025-09-16 22:41:52.743054,2025-09-16 18:41:52.743098
"CYQH","Watson Lake Arpt, YT, CA",2025-09-16 22:00:00,"2025-09-16 15:00:00","VFR",17,9,100,10,NA,20,1016,"METAR CYQH 162200Z 10010KT 20SM SCT096 BKN150 17/09 A3000 RMK AC4AC3 SLP175 DENSITY ALT 2900FT",2025-09-16 22:41:52.74957,2025-09-16 18:41:52.749613
"CYQI","Yarmouth Arpt, NS, CA",2025-09-16 22:00:00,"2025-09-16 19:00:00","VFR",17,11,290,8,NA,15,1024.1,"METAR CYQI 162200Z 29008KT 15SM SCT250 17/11 A3024 RMK CS3 CLD HGT EST SLP242",2025-09-16 22:41:52.756094,2025-09-16 18:41:52.756138
"CYQR","Regina Intl Arpt, SK, CA",2025-09-16 22:00:00,"2025-09-16 16:00:00","VFR",24,13,310,14,NA,NA,1020.7,"METAR CYQR 162200Z 31014KT 10SM FEW044 24/13 A3014 RMK CU2 HZ SLP213 DENSITY ALT 3200FT",2025-09-16 22:41:52.762759,2025-09-16 18:41:52.762819
"CYQT","Thunder Bay Intl, ON, CA",2025-09-16 22:00:00,"2025-09-16 18:00:00","VFR",27,20,180,8,NA,20,1016.7,"METAR CYQT 162200Z 18008KT 20SM FEW030TCU FEW120 SCT260 27/20 A3002 RMK TCU1AC1CI1 CB TOP DIST NW SLP168 DENSITY ALT 2100FT",2025-09-16 22:41:52.769397,2025-09-16 18:41:52.769443
"CYQU","Grande Prairie Arpt, AB, CA",2025-09-16 22:00:00,"2025-09-16 16:00:00","VFR",25,4,110,6,NA,25,1021.1,"METAR CYQU 162200Z 11006KT 070V140 25SM SCT230 25/04 A3015 RMK CI3 SLP221 DENSITY ALT 3600FT",2025-09-16 22:41:52.776021,2025-09-16 18:41:52.776066
"CYQW","North Battleford Arpt, SK, CA",2025-09-16 22:00:00,"2025-09-16 16:00:00","VFR",20,9,340,11,18,9,1024.1,"METAR CYQW 162200Z AUTO 34011G18KT 9SM CLR 20/09 A3024 RMK SLP249 DENSITY ALT 2500FT",2025-09-16 22:41:52.795927,2025-09-16 18:41:52.795973
"CYRA","Gameti/Rae Lakes Arpt, NT, CA",2025-09-16 22:00:00,"2025-09-16 16:00:00","VFR",14,9,120,6,NA,15,1018,"METAR CYRA 162200Z 12006KT 15SM FEW022 SCT210 14/09 A3006 RMK SC3CI1 SLP190",2025-09-16 22:41:52.802833,2025-09-16 18:41:52.802879
"CYSF","Stony Rapids Arpt, SK, CA",2025-09-16 22:00:00,"2025-09-16 16:00:00","MVFR",18,13,350,4,NA,9,1021.1,"METAR CYSF 162200Z AUTO 35004KT 330V040 9SM BKN030 OVC037 18/13 A3015 RMK SLP217 DENSITY ALT 1100FT",2025-09-16 22:41:52.809222,2025-09-16 18:41:52.809264
"CYSM","Fort Smith Arpt, NT, CA",2025-09-16 22:00:00,"2025-09-16 16:00:00","VFR",16,9,NA,2,NA,15,1022.4,"METAR CYSM 162200Z VRB02KT 15SM FEW028 BKN260 16/09 A3019 RMK CF1CI6 CF TR SLP233",2025-09-16 22:41:52.817245,2025-09-16 18:41:52.81729
"CYSN","St Catharines/Niagara Arpt, ON, CA",2025-09-16 22:00:00,"2025-09-16 18:00:00","VFR",24,12,60,8,NA,15,1021.8,"METAR CYSN 162200Z 06008KT 15SM FEW250 24/12 A3017 RMK CI1 SLP219 DENSITY ALT 1200FT",2025-09-16 22:41:52.825378,2025-09-16 18:41:52.825423
"CYTH","Thompson Arpt, MB, CA",2025-09-16 22:00:00,"2025-09-16 17:00:00","MVFR",16,11,330,12,NA,15,1015.7,"METAR CYTH 162200Z 33012KT 310V010 15SM OVC025 16/11 A2999 RMK SC8 SLP165",2025-09-16 22:41:52.832123,2025-09-16 18:41:52.832168
"CYTS","Timmins/Power Arpt, ON, CA",2025-09-16 22:00:00,"2025-09-16 18:00:00","VFR",25,12,180,9,NA,15,1021.1,"METAR CYTS 162200Z 18009KT 15SM FEW250 25/12 A3015 RMK CI1 CI TR SLP215 DENSITY ALT 2100FT",2025-09-16 22:41:52.8387,2025-09-16 18:41:52.838743
"CYUB","Tuktoyaktuk Arpt, NT, CA",2025-09-16 22:00:00,"2025-09-16 16:00:00","MVFR",10,7,160,8,NA,15,1014.3,"METAR CYUB 162200Z 16008KT 15SM BKN017 10/07 A2995 RMK SC7 SLP146",2025-09-16 22:41:52.845229,2025-09-16 18:41:52.845274
"CYVC","La Ronge Arpt, SK, CA",2025-09-16 22:00:00,"2025-09-16 16:00:00","MVFR",18,13,300,12,NA,15,1021.8,"METAR CYVC 162200Z 30012KT 15SM BKN030 18/13 A3017 RMK SC5 SLP227 DENSITY ALT 1700FT",2025-09-16 22:41:52.851853,2025-09-16 18:41:52.8519
"CYMJ","Moose Jaw Arpt(CFB), SK, CA",2025-09-16 22:00:00,"2025-09-16 16:00:00","VFR",25,12,300,12,19,8,1021.4,"METAR CYMJ 162200Z 30012G19KT 8SM FEW040 BKN300 25/12 A3016 RMK CU2CI4 DENSITY ALT 3521FT FU SLP214",2025-09-16 22:41:52.858427,2025-09-16 18:41:52.858471
"CYMM","Fort McMurray Arpt, AB, CA",2025-09-16 22:00:00,"2025-09-16 16:00:00","VFR",19,9,360,3,NA,9,1023.5,"METAR CYMM 162200Z AUTO 36003KT 290V050 9SM CLR 19/09 A3022 RMK SLP246 DENSITY ALT 1700FT",2025-09-16 22:41:52.86506,2025-09-16 18:41:52.865105
"CYMO","Moosonee Arpt, ON, CA",2025-09-16 22:00:00,"2025-09-16 18:00:00","VFR",28,20,210,10,NA,9,1014.6,"METAR CYMO 162200Z AUTO 21010KT 9SM CLR 28/20 A2996 RMK SLP148 DENSITY ALT 1500FT",2025-09-16 22:41:52.871622,2025-09-16 18:41:52.871665
"CYMT","Chibougamau Arpt, QC, CA",2025-09-16 22:00:00,"2025-09-16 18:00:00","VFR",22,10,200,6,NA,9,1022.1,"METAR CYMT 162200Z AUTO 20006KT 9SM CLR 22/10 A3018 RMK SLP229 DENSITY ALT 2100FT",2025-09-16 22:41:52.878296,2025-09-16 18:41:52.878339
"CYND","Gatineau/Ottawa Exec, QC, CA",2025-09-16 22:00:00,"2025-09-16 18:00:00","VFR",25,11,100,5,NA,15,1023.1,"METAR CYND 162200Z 10005KT 15SM FEW230 25/11 A3021 RMK CC2 SLP231 DENSITY ALT 1100FT",2025-09-16 22:41:52.884988,2025-09-16 18:41:52.885033
"CYNE","Norway House Arpt, MB, CA",2025-09-16 22:00:00,"2025-09-16 17:00:00","VFR",20,14,340,5,NA,9,1015,"METAR CYNE 162200Z AUTO 34005KT 300V010 9SM FEW026 20/14 A2997 RMK SLP153 DENSITY ALT 1500FT",2025-09-16 22:41:52.891708,2025-09-16 18:41:52.89175
"CYNM","Matagami Arpt, QC, CA",2025-09-16 22:00:00,"2025-09-16 18:00:00","VFR",24,15,210,8,NA,9,1020.4,"METAR CYNM 162200Z AUTO 21008KT 180V270 9SM CLR 24/15 A3013 RMK SLP212 DENSITY ALT 2000FT",2025-09-16 22:41:52.898358,2025-09-16 18:41:52.898402
"CYOJ","High Level Arpt, AB, CA",2025-09-16 22:00:00,"2025-09-16 16:00:00","VFR",20,10,140,8,NA,15,1020.4,"METAR CYOJ 162200Z 14008KT 15SM SCT140 SCT260 20/10 A3013 RMK AC3CI1 SLP216 DENSITY ALT 1700FT",2025-09-16 22:41:52.904982,2025-09-16 18:41:52.905026
"CYOY","Valcartier Arpt, QC, CA",2025-09-16 22:00:00,"2025-09-16 22:00:00","VFR",23,11,290,2,NA,15,1024.1,"METAR CYOY 162200Z 29002KT 15SM FEW250 23/11 A3024 RMK CI2 DENSITY ALT 1404FT SLP243",2025-09-16 22:41:52.911593,2025-09-16 18:41:52.911637
"CYPE","Peace River Arpt, AB, CA",2025-09-16 22:00:00,"2025-09-16 16:00:00","VFR",24,4,110,3,NA,9,1021.4,"METAR CYPE 162200Z AUTO 11003KT 080V190 9SM CLR 24/04 A3016 RMK SLP226 DENSITY ALT 3100FT",2025-09-16 22:41:52.918119,2025-09-16 18:41:52.918163
"CYPG","Portage la Prairie/Southport Arpt, MB, CA",2025-09-16 22:00:00,"2025-09-16 17:00:00","VFR",24,16,340,8,NA,15,1017.4,"METAR CYPG 162200Z 34008KT 280V360 15SM FEW050 BKN080 BKN220 24/16 A3004 RMK CU2AC4CI1 DENSITY ALT 2226FT SLP171",2025-09-16 22:41:52.924573,2025-09-16 18:41:52.924617
"CYTZ","Toronto/Bishop Arpt, ON, CA",2025-09-16 22:00:00,"2025-09-16 18:00:00","VFR",21,16,70,5,NA,9,1022.1,"METAR CYTZ 162200Z AUTO 07005KT 9SM CLR 21/16 A3018 RMK SLP223 DENSITY ALT 700FT",2025-09-16 22:41:52.942679,2025-09-16 18:41:52.942722
"CYTR","Trenton(MIL), ON, CA",2025-09-16 22:00:00,"2025-09-16 18:00:00","VFR",22,15,230,8,NA,15,1022.4,"METAR CYTR 162200Z 23008KT 15SM FEW250 22/15 A3019 RMK CI1 DENSITY ALT 1064FT SLP224",2025-09-16 22:41:52.948936,2025-09-16 18:41:52.948979
"CYNA","Natashquan Arpt, QC, CA",2025-09-16 22:00:00,"2025-09-16 18:00:00","VFR",13,9,260,10,NA,9,1022.1,"METAR CYNA 162200Z AUTO 26010KT 9SM FEW160 13/09 A3018 RMK SLP221",2025-09-16 22:41:52.955207,2025-09-16 18:41:52.955248
"CYRT","Rankin Inlet Arpt, NU, CA",2025-09-16 22:00:00,"2025-09-16 17:00:00","MVFR",5,3,30,12,18,15,1022.4,"METAR CYRT 162200Z 03012G18KT 15SM BKN015 BKN090 05/03 A3019 RMK SC6AC1 SLP228",2025-09-16 22:41:52.961532,2025-09-16 18:41:52.961575
"CYUT","Repulse Bay Arpt, NU, CA",2025-09-16 22:00:00,"2025-09-16 17:00:00","MVFR",2,-3,350,11,NA,15,1023.8,"METAR CYUT 162200Z 35011KT 15SM BKN020 BKN150 02/M03 A3023 RMK SC5AC2 LAST STFD OBS/NXT 171200Z SLP241",2025-09-16 22:41:52.967982,2025-09-16 18:41:52.968024
"CYWE","Wekweètì Arpt, NT, CA",2025-09-16 22:00:00,"2025-09-16 16:00:00","MVFR",11,7,220,6,NA,9,1019.7,"METAR CYWE 162200Z AUTO 22006KT 9SM OVC018 11/07 A3011 RMK SLP216",2025-09-16 22:41:52.974374,2025-09-16 18:41:52.974417
"CYWJ","Déline Arpt, NT, CA",2025-09-16 22:00:00,"2025-09-16 16:00:00","VFR",13,8,70,3,NA,20,1016,"METAR CYWJ 162200Z 07003KT 020V130 20SM SCT010 13/08 A3000 RMK SC4 SLP172",2025-09-16 22:41:52.980736,2025-09-16 18:41:52.980779
"CYVL","Colville Lake, NT, CA",2025-09-16 22:00:00,"2025-09-16 16:00:00","MVFR",9,6,150,8,NA,9,1016,"METAR CYVL 162200Z AUTO 15008KT 9SM OVC014 09/06 A3000 RMK SLP174",2025-09-16 22:41:52.987152,2025-09-16 18:41:52.987196
"CYMX","Montreal/Mirabel Arpt, QC, CA",2025-09-16 22:00:00,"2025-09-16 18:00:00","VFR",23,11,80,4,NA,25,1023.5,"METAR CYMX 162200Z 08004KT 25SM SCT240 23/11 A3022 RMK CI3 SLP236 DENSITY ALT 1000FT",2025-09-16 22:41:52.993518,2025-09-16 18:41:52.993561
"CYQB","Quebec/Lesage Intl, QC, CA",2025-09-16 22:00:00,"2025-09-16 18:00:00","VFR",22,12,NA,2,NA,30,1023.8,"METAR CYQB 162200Z VRB02KT 30SM BKN250 22/12 A3023 RMK CI5 SLP241 DENSITY ALT 800FT",2025-09-16 22:41:53.00002,2025-09-16 18:41:53.000064
"CZUM","Churchill Falls Arpt, NL, CA",2025-09-16 22:39:00,"2025-09-16 19:39:00",NA,11,9,160,3,NA,9,1017.4,"SPECI CZUM 162239Z AUTO 16003KT 9SM -RA 11/09 A3004 RMK CLD MISG SLP189",2025-09-16 22:41:54.527321,2025-09-16 18:41:54.527365
"K08D","Stanley Muni, ND, US",2025-09-16 22:35:00,"2025-09-16 22:35:00","VFR",24,13,340,4,NA,NA,1022.1,"METAR K08D 162235Z AUTO 34004KT 10SM CLR 24/13 A3018 RMK AO2",2025-09-16 22:41:54.533788,2025-09-16 18:41:54.533852
"K06D","Rolla Muni, ND, US",2025-09-16 22:35:00,"2025-09-16 22:35:00","VFR",24,11,310,11,NA,NA,1020.4,"METAR K06D 162235Z AUTO 31011KT 10SM CLR 24/11 A3013 RMK AO2",2025-09-16 22:41:54.540195,2025-09-16 18:41:54.54024
"K0F2","Bowie Muni, TX, US",2025-09-16 22:35:00,"2025-09-16 22:35:00","VFR",33.3,14.6,150,3,NA,NA,1018,"METAR K0F2 162235Z AUTO 15003KT 10SM CLR 33/15 A3006 RMK AO2 T03330146",2025-09-16 22:41:54.546579,2025-09-16 18:41:54.546625
"K0E0","Moriarty Muni, NM, US",2025-09-16 22:35:00,"2025-09-16 22:35:00","VFR",25.9,4.7,160,16,NA,NA,1024.5,"METAR K0E0 162235Z AUTO 16016KT 10SM CLR 26/05 A3025 RMK AO2 LTG DSNT SE AND S T02590047",2025-09-16 22:41:54.552973,2025-09-16 18:41:54.553018
"K06C","Schaumburg Rgnl, IL, US",2025-09-16 22:35:00,"2025-09-16 22:35:00","VFR",26.6,13.6,60,6,NA,NA,1021.4,"METAR K06C 162235Z AUTO 06006KT 10SM CLR 27/14 A3016 RMK AO2 T02660136",2025-09-16 22:41:54.570672,2025-09-16 18:41:54.570745
"CZSJ","Sandy Lake Arpt, ON, CA",2025-09-16 22:33:00,"2025-09-16 17:33:00","IFR",19,19,260,5,NA,9,1009.9,"SPECI CZSJ 162233Z AUTO 26005KT 240V300 9SM -RA BKN009 BKN033 19/19 A2982 RMK SLP103 DENSITY ALT 1800FT",2025-09-16 22:41:54.577566,2025-09-16 18:41:54.577611
"CYYQ","Churchill Arpt, MB, CA",2025-09-16 22:18:00,"2025-09-16 17:18:00","IFR",9,9,30,21,27,4,1015.3,"SPECI CYYQ 162218Z 03021G27KT 4SM -DZ BR OVC005 09/09 A2998 RMK ST8 SLP155",2025-09-16 22:41:54.583819,2025-09-16 18:41:54.583869
"K0D8","Gettysburg Muni, SD, US",2025-09-16 22:15:00,"2025-09-16 22:15:00","VFR",7,-3,310,9,NA,NA,1020.7,"METAR K0D8 162215Z AUTO 31009KT 10SM CLR 07/M03 A3014 RMK A01",2025-09-16 22:41:54.590273,2025-09-16 18:41:54.590318
"K05U","Eureka Arpt, NV, US",2025-09-16 22:15:00,"2025-09-16 15:15:00","VFR",25,-10,40,6,NA,NA,1024.8,"METAR K05U 162215Z AUTO 04006KT 10SM CLR 25/M10 A3026 RMK A01",2025-09-16 22:41:54.596721,2025-09-16 18:41:54.596765
"K0A9","Elizabethton Muni, TN, US",2025-09-16 22:15:00,"2025-09-16 22:15:00","VFR",22,17,0,0,NA,NA,1020.1,"METAR K0A9 162215Z AUTO 00000KT 10SM CLR 22/17 A3012 RMK AO2",2025-09-16 22:41:54.603198,2025-09-16 18:41:54.603245
"CZFA","Faro Arpt, YT, CA",2025-09-16 22:07:00,"2025-09-16 15:07:00","VFR",13,5,110,11,18,30,1012.6,"SPECI CZFA 162207Z 11011G18KT 30SM -RA BKN060 OVC073 13/05 A2990 RMK SC5AC3 SLP150 DENSITY ALT 2800FT",2025-09-16 22:41:54.609577,2025-09-16 18:41:54.609619
"CYXZ","Wawa Arpt, ON, CA",2025-09-16 22:00:00,"2025-09-16 18:00:00","VFR",21,14,250,5,NA,15,1021.8,"METAR CYXZ 162200Z 25005KT 200V280 15SM SKC 21/14 A3017 RMK SLP222 DENSITY ALT 1600FT",2025-09-16 22:41:54.615946,2025-09-16 18:41:54.615989
"CYYU","Kapuskasing Arpt, ON, CA",2025-09-16 22:00:00,"2025-09-16 18:00:00","VFR",27,18,230,12,NA,15,1018.7,"METAR CYYU 162200Z 23012KT 15SM SKC 27/18 A3008 RMK SLP190 DENSITY ALT 2200FT",2025-09-16 22:41:54.622303,2025-09-16 18:41:54.622347
"CYYW","Armstrong Arpt, ON, CA",2025-09-16 22:00:00,"2025-09-16 18:00:00","VFR",29,17,250,9,19,9,1014,"METAR CYYW 162200Z AUTO 25009G19KT 190V270 9SM CLR 29/17 A2994 RMK SLP128 DENSITY ALT 3000FT",2025-09-16 22:41:54.628589,2025-09-16 18:41:54.628632
"CYXY","Whitehorse Arpt, YT, CA",2025-09-16 22:00:00,"2025-09-16 15:00:00","VFR",12,6,150,6,NA,40,1011.3,"METAR CYXY 162200Z 15006KT 40SM BKN033 OVC100 12/06 A2986 RMK SC7AC1 SLP134 DENSITY ALT 2600FT",2025-09-16 22:41:54.634973,2025-09-16 18:41:54.635016
"CYZX","Greenwood (MIL), NS, CA",2025-09-16 22:00:00,"2025-09-16 19:00:00","VFR",21,10,360,5,NA,15,1024.1,"METAR CYZX 162200Z 36005KT 15SM SCT250 21/10 A3024 RMK CI3 DENSITY ALT 651FT SLP241",2025-09-16 22:41:54.641293,2025-09-16 18:41:54.641337
"CYZY","Mackenzie Arpt, BC, CA",2025-09-16 22:00:00,"2025-09-16 22:00:00","VFR",21,8,320,3,NA,9,1018.7,"METAR CYZY 162200Z AUTO 32003KT 250V340 9SM CLR 21/08 A3008 RMK SLP199 DENSITY ALT 3400FT",2025-09-16 22:41:54.647629,2025-09-16 18:41:54.647672
"CZBF","Bathurst Arpt, NB, CA",2025-09-16 22:00:00,"2025-09-16 19:00:00","VFR",19,8,0,0,NA,9,1024.8,"METAR CZBF 162200Z AUTO 00000KT 9SM CLR 19/08 A3026 RMK SLP249 DENSITY ALT 400FT",2025-09-16 22:41:54.653971,2025-09-16 18:41:54.654016
"CYXE","Saskatoon/Diefenbaker Intl, SK, CA",2025-09-16 22:00:00,"2025-09-16 16:00:00","VFR",23,10,330,10,16,15,1021.8,"METAR CYXE 162200Z 33010G16KT 280V360 15SM BKN050 23/10 A3017 RMK CU5 SLP226 DENSITY ALT 2700FT",2025-09-16 22:41:54.660291,2025-09-16 18:41:54.660334
"CYXJ","Fort St John/N Peace Rgnl, BC, CA",2025-09-16 22:00:00,"2025-09-16 15:00:00","VFR",25,3,160,6,NA,60,1020.4,"METAR CYXJ 162200Z 16006KT 100V200 60SM FEW180 BKN210 25/03 A3013 RMK AC2CI4 SLP213 DENSITY ALT 3700FT",2025-09-16 22:41:54.666638,2025-09-16 18:41:54.666682
"CYXR","Earlton Arpt, ON, CA",2025-09-16 22:00:00,"2025-09-16 18:00:00","VFR",25,11,150,7,NA,9,1021.8,"METAR CYXR 162200Z AUTO 15007KT 9SM CLR 25/11 A3017 RMK SLP222 DENSITY ALT 1900FT",2025-09-16 22:41:54.673013,2025-09-16 18:41:54.673055
"CYXS","Prince George Arpt, BC, CA",2025-09-16 22:00:00,"2025-09-16 15:00:00","VFR",25,10,330,8,NA,9,1016.7,"METAR CYXS 162200Z AUTO 33008KT 9SM CLR 25/10 A3002 RMK SLP176 DENSITY ALT 3900FT",2025-09-16 22:41:54.679382,2025-09-16 18:41:54.679425
"CYYF","Penticton Rgnl, BC, CA",2025-09-16 22:00:00,"2025-09-16 15:00:00","VFR",28,12,140,10,16,15,1019.7,"METAR CYYF 162200Z 14010G16KT 15SM FEW230 28/12 A3011 RMK CI2 SLP194 DENSITY ALT 2700FT",2025-09-16 22:41:54.685762,2025-09-16 18:41:54.685823
"CYYG","Charlottetown Arpt, PE, CA",2025-09-16 22:00:00,"2025-09-16 19:00:00","VFR",15,10,360,4,NA,15,1025.1,"METAR CYYG 162200Z 36004KT 15SM BKN250 15/10 A3027 RMK CI6 SLP255",2025-09-16 22:41:54.692177,2025-09-16 18:41:54.69222
"CYYN","Swift Current Arpt, SK, CA",2025-09-16 22:00:00,"2025-09-16 16:00:00","VFR",24,9,330,10,22,9,1023.5,"METAR CYYN 162200Z AUTO 33010G22KT 280V350 9SM CLR 24/09 A3022 RMK SLP233 DENSITY ALT 4000FT",2025-09-16 22:41:54.710548,2025-09-16 18:41:54.710605
"CYYH","Taloyoak Arpt, NU, CA",2025-09-16 22:00:00,"2025-09-16 16:00:00","VFR",4,-3,290,5,NA,20,1027.5,"METAR CYYH 162200Z 29005KT 20SM FEW220 04/M03 A3034 RMK CI1 CI TR SLP277",2025-09-16 22:41:54.716831,2025-09-16 18:41:54.716878
"CYZW","Teslin Arpt, YT, CA",2025-09-16 22:00:00,"2025-09-16 15:00:00","VFR",11,9,50,5,NA,NA,1014,"METAR CYZW 162200Z 05005KT 10SM -SHRA OVC070 11/09 A2994 RMK AC8 SLP164",2025-09-16 22:41:54.723202,2025-09-16 18:41:54.723246
"CZMD","Muskrat Dam Arpt, ON, CA",2025-09-16 22:00:00,"2025-09-16 17:00:00",NA,21,17,220,13,NA,9,1008.5,"METAR CZMD 162200Z AUTO 22013KT 9SM 21/17 A2978 RMK CLD MISG SLP089 DENSITY ALT 2000FT",2025-09-16 22:41:54.729513,2025-09-16 18:41:54.729557
"CYZE","Gore Bay/Manitoulin Arpt, ON, CA",2025-09-16 22:00:00,"2025-09-16 18:00:00","VFR",21,14,190,7,NA,9,1023.1,"METAR CYZE 162200Z AUTO 19007KT 9SM CLR 21/14 A3021 RMK SLP234 DENSITY ALT 1200FT",2025-09-16 22:41:54.73605,2025-09-16 18:41:54.736093
"CYXX","Abbotsford Intl, BC, CA",2025-09-16 22:00:00,"2025-09-16 15:00:00","VFR",29,15,320,3,NA,30,1014.6,"METAR CYXX 162200Z 32003KT 290V080 30SM FEW240 29/15 A2996 RMK CI2 SLP145 DENSITY ALT 1900FT",2025-09-16 22:41:54.742396,2025-09-16 18:41:54.742439
"CYYR","Goose Bay Arpt, NL, CA",2025-09-16 22:00:00,"2025-09-16 19:00:00","VFR",11,10,230,7,NA,12,1018,"METAR CYYR 162200Z 23007KT 12SM -RA BKN050 OVC060 11/10 A3006 RMK SC5SC3 DENSITY ALT -283FT SLP183",2025-09-16 22:41:54.748713,2025-09-16 18:41:54.748755
"CYYT","St Johns Intl, NL, CA",2025-09-16 22:00:00,"2025-09-16 19:30:00","VFR",9,6,360,13,NA,15,1020.1,"METAR CYYT 162200Z 36013KT 15SM FEW020 BKN033 BKN240 09/06 A3012 RMK SC1SC5CI1 SLP207",2025-09-16 22:41:54.755084,2025-09-16 18:41:54.755127
"CYZF","Yellowknife Arpt, NT, CA",2025-09-16 22:00:00,"2025-09-16 16:00:00","VFR",13,11,170,9,16,15,1020.7,"METAR CYZF 162200Z 17009G16KT 15SM FEW012 OVC190 13/11 A3014 RMK SF2AC6 SLP217",2025-09-16 22:41:54.761494,2025-09-16 18:41:54.761537
"CYZV","Sept-Îles Arpt, QC, CA",2025-09-16 22:00:00,"2025-09-16 18:00:00","VFR",14,8,230,3,NA,30,1023.1,"METAR CYZV 162200Z 23003KT 30SM SCT250 14/08 A3021 RMK CI3 SLP232",2025-09-16 22:41:54.767833,2025-09-16 18:41:54.76788
"CYXH","Medicine Hat Arpt, AB, CA",2025-09-16 22:00:00,"2025-09-16 16:00:00","VFR",25,0,340,6,NA,30,1024.1,"METAR CYXH 162200Z 34006KT 300V020 30SM FEW270 25/M00 A3024 RMK CI1 SLP241 DENSITY ALT 3800FT",2025-09-16 22:41:54.774442,2025-09-16 18:41:54.774486
"CYXN","Whale Cove Arpt, NU, CA",2025-09-16 22:00:00,"2025-09-16 17:00:00","MVFR",5,3,40,16,NA,NA,1021.8,"METAR CYXN 162200Z 04016KT 10SM BKN010 BKN100 05/03 A3017 RMK SC6AC1 AC TR VIS NW 4 LAST STFD OBS/NEXT 171200Z SLP221",2025-09-16 22:41:54.780908,2025-09-16 18:41:54.780952
"CYXP","Pangnirtung Arpt, NU, CA",2025-09-16 22:00:00,"2025-09-16 18:00:00","MVFR",3,2,250,8,NA,15,1017.7,"METAR CYXP 162200Z 25008KT 15SM -RA FEW009 OVC021 03/02 A3005 RMK ST2ST7 LAST STFD OBS/NXT 171100Z SLP179",2025-09-16 22:41:54.787262,2025-09-16 18:41:54.787306
"CYXQ","Beaver Creek Arpt, YT, CA",2025-09-16 22:00:00,"2025-09-16 15:00:00","VFR",10,4,60,5,NA,25,1008.2,"METAR CYXQ 162200Z 06005KT 340V090 25SM FEW050 OVC250 10/04 A2977 RMK CU1CI7 /LAST STFD OBS/NXT 171600Z/ SLP109",2025-09-16 22:41:54.793648,2025-09-16 18:41:54.793691
"CYYB","North Bay/Garland Arpt, ON, CA",2025-09-16 22:00:00,"2025-09-16 18:00:00","VFR",23,12,280,4,NA,30,1023.5,"METAR CYYB 162200Z 28004KT 240V300 30SM FEW280 23/12 A3022 RMK CI2 SLP237 DENSITY ALT 2200FT",2025-09-16 22:41:54.800012,2025-09-16 18:41:54.800057
"CYYE","Fort Nelson Arpt, BC, CA",2025-09-16 22:00:00,"2025-09-16 15:00:00","VFR",18,10,150,4,NA,30,1018.7,"METAR CYYE 162200Z 15004KT 080V200 30SM SCT150 BKN200 18/10 A3008 RMK AC3CI2 SLP197 DENSITY ALT 1700FT",2025-09-16 22:41:54.806387,2025-09-16 18:41:54.80643
"CYYY","Mont Joli Arpt, QC, CA",2025-09-16 22:00:00,"2025-09-16 18:00:00","VFR",18,10,0,0,NA,30,1023.8,"METAR CYYY 162200Z 00000KT 30SM SCT240 18/10 A3023 RMK CI3 SLP240",2025-09-16 22:41:54.812745,2025-09-16 18:41:54.812788
"CYZH","Slave Lake Arpt, AB, CA",2025-09-16 22:00:00,"2025-09-16 16:00:00","VFR",23,7,130,7,NA,9,1022.8,"METAR CYZH 162200Z AUTO 13007KT 020V130 9SM CLR 23/07 A3020 RMK SLP237 DENSITY ALT 3000FT",2025-09-16 22:41:54.819091,2025-09-16 18:41:54.819136
"CYZP","Sandspit Arpt, BC, CA",2025-09-16 22:00:00,"2025-09-16 15:00:00","VFR",16,14,140,21,27,9,1006.5,"METAR CYZP 162200Z AUTO 14021G27KT 9SM CLR 16/14 A2972 RMK SLP065 DENSITY ALT 400FT",2025-09-16 22:41:54.825507,2025-09-16 18:41:54.82555
"CYZS","Coral Harbour Arpt, NU, CA",2025-09-16 22:00:00,"2025-09-16 17:00:00","VFR",4,0,30,10,NA,15,1020.4,"METAR CYZS 162200Z 03010KT 15SM FEW017 BKN170 BKN210 04/00 A3013 RMK SC2AC5CI1 CI TR SLP211",2025-09-16 22:41:54.843822,2025-09-16 18:41:54.843871
"CYZT","Port Hardy Arpt, BC, CA",2025-09-16 22:00:00,"2025-09-16 15:00:00","VFR",23,13,120,12,20,20,1010.9,"METAR CYZT 162200Z 12012G20KT 20SM SKC 23/13 A2985 RMK SLP109 DENSITY ALT 1200FT",2025-09-16 22:41:54.850084,2025-09-16 18:41:54.850126
"CZFN","Fort Norman Arpt, NT, CA",2025-09-16 22:00:00,"2025-09-16 16:00:00","VFR",16,9,10,9,NA,15,1014.6,"METAR CZFN 162200Z 01009KT 15SM FEW037 FEW150 BKN250 16/09 A2996 RMK CU1AC1CI6 CU TR AC TR SLP154",2025-09-16 22:41:54.856352,2025-09-16 18:41:54.856397
"CZPC","Pincher Creek Arpt, AB, CA",2025-09-16 22:00:00,"2025-09-16 16:00:00","VFR",22,10,NA,3,NA,9,1026.2,"METAR CZPC 162200Z AUTO VRB03KT 9SM CLR 22/10 A3030 RMK SLP257 DENSITY ALT 5200FT",2025-09-16 22:41:54.862742,2025-09-16 18:41:54.862788
"CYYJ","Victoria Intl, BC, CA",2025-09-16 22:00:00,"2025-09-16 15:00:00","VFR",25,13,50,6,NA,30,1014.6,"METAR CYYJ 162200Z 05006KT 30SM FEW250 25/13 A2996 RMK CI1 CI TR SLP147 DENSITY ALT 1200FT",2025-09-16 22:41:54.86923,2025-09-16 18:41:54.869276
"CZST","Stewart Arpt, BC, CA",2025-09-16 22:00:00,"2025-09-16 15:00:00","VFR",17,15,NA,2,NA,15,1011.6,"METAR CZST 162200Z VRB02KT 15SM BKN120 17/15 A2987 RMK AC7 SLP118 DENSITY ALT 300FT",2025-09-16 22:41:54.875704,2025-09-16 18:41:54.875748
"CZMT","Masset Arpt, BC, CA",2025-09-16 22:00:00,"2025-09-16 15:00:00","VFR",20,11,140,16,28,15,1006.9,"METAR CZMT 162200Z 14016G28KT 15SM FEW030 FEW170 FEW220 SCT260 20/11 A2973 RMK CU1AC1CC1CI3 CU TR CC TR SLP068 DENSITY ALT 800FT",2025-09-16 22:41:54.882068,2025-09-16 18:41:54.882112
"CYXU","London Intl, ON, CA",2025-09-16 22:00:00,"2025-09-16 18:00:00","VFR",27,14,110,7,NA,15,1021.8,"METAR CYXU 162200Z 11007KT 15SM FEW060 SCT250 27/14 A3017 RMK SC1CI2 SLP215 DENSITY ALT 2200FT",2025-09-16 22:41:54.888534,2025-09-16 18:41:54.888577
"CYZU","Whitecourt Arpt, AB, CA",2025-09-16 22:00:00,"2025-09-16 16:00:00","VFR",24,9,140,14,19,15,1023.1,"METAR CYZU 162200Z 14014G19KT 15SM FEW240 24/09 A3021 RMK CI1 SLP240 DENSITY ALT 3900FT",2025-09-16 22:41:54.89508,2025-09-16 18:41:54.895122
"CYYZ","Toronto/Pearson Intl, ON, CA",2025-09-16 22:00:00,"2025-09-16 18:00:00","VFR",23,11,130,7,NA,15,1022.4,"METAR CYYZ 162200Z 13007KT 15SM FEW180 FEW250 23/11 A3019 RMK AC1CI1 AC TR CI TR SLP224 DENSITY ALT 1300FT",2025-09-16 22:41:54.901453,2025-09-16 18:41:54.901497
"CYXC","Cranbrook Intl, BC, CA",2025-09-16 22:00:00,"2025-09-16 16:00:00","VFR",20,12,100,3,NA,25,1026.2,"METAR CYXC 162200Z 10003KT 060V170 25SM FEW040 20/12 A3030 RMK CU1 SLP264 DENSITY ALT 4000FT",2025-09-16 22:41:54.907885,2025-09-16 18:41:54.907936
"CYYD","Smithers Arpt, BC, CA",2025-09-16 22:00:00,"2025-09-16 15:00:00","VFR",21,9,NA,2,NA,25,1014.3,"METAR CYYD 162200Z VRB02KT 25SM SKC 21/09 A2995 RMK SLP145 DENSITY ALT 2900FT",2025-09-16 22:41:54.91434,2025-09-16 18:41:54.914384
"CYZR","Sarnia/Hadfield Arpt, ON, CA",2025-09-16 22:00:00,"2025-09-16 18:00:00","VFR",21,16,10,9,NA,9,1022.1,"METAR CYZR 162200Z AUTO 01009KT 9SM CLR 21/16 A3018 RMK SLP223 DENSITY ALT 1100FT",2025-09-16 22:41:54.920685,2025-09-16 18:41:54.920727
"CYYC","Calgary Intl, AB, CA",2025-09-16 22:00:00,"2025-09-16 16:00:00","VFR",24,6,190,5,NA,15,1024.8,"METAR CYYC 162200Z 19005KT 15SM SKC 24/06 A3026 RMK SLP252 DENSITY ALT 5100FT",2025-09-16 22:41:54.927019,2025-09-16 18:41:54.927063
"CZVL","Edmonton/Villenueve Arpt, AB, CA",2025-09-16 22:00:00,"2025-09-16 22:00:00","VFR",23,3,120,5,NA,9,1023.8,"METAR CZVL 162200Z AUTO 12005KT 110V200 9SM CLR 23/03 A3023 RMK SLP247 DENSITY ALT 3400FT",2025-09-16 22:41:54.933336,2025-09-16 18:41:54.933381
"CYXT","Terrace Arpt, BC, CA",2025-09-16 22:00:00,"2025-09-16 15:00:00","VFR",19,12,10,6,NA,20,1012.3,"METAR CYXT 162200Z 01006KT 350V090 20SM FEW200 19/12 A2989 RMK CC1 CC TR SLP128 DENSITY ALT 1400FT",2025-09-16 22:41:54.93983,2025-09-16 18:41:54.939883
"CYXL","Sioux Lookout Arpt, ON, CA",2025-09-16 22:00:00,"2025-09-16 17:00:00","VFR",27,13,270,9,NA,15,1015,"METAR CYXL 162200Z 27009KT 230V300 15SM FEW055 FEW100 FEW250 27/13 A2997 RMK CU1AC1CI1 AC TR SLP152 DENSITY ALT 2900FT",2025-09-16 22:41:54.946208,2025-09-16 18:41:54.946251
"K11R","Brenham Muni, TX, US",2025-09-16 22:35:00,"2025-09-16 22:35:00","VFR",33.1,16.7,0,0,NA,NA,1017,"METAR K11R 162235Z AUTO 00000KT 10SM SCT070 33/17 A3003 RMK AO2 T03310167",2025-09-16 22:41:56.133464,2025-09-16 18:41:56.133512
"K1V6","Canon City/Fremont Cnty Arpt, CO, US",2025-09-16 22:35:00,"2025-09-16 16:35:00","VFR",25,5,310,18,22,7,1020.7,"METAR K1V6 162235Z AUTO 31018G22KT 7SM SCT120 25/05 A3014 RMK AO2 LTG DSNT ALQS",2025-09-16 22:41:56.140051,2025-09-16 18:41:56.140094
"K1B9","Mansfield Muni, MA, US",2025-09-16 22:35:00,"2025-09-16 22:35:00","VFR",17.5,11.6,0,0,NA,NA,1024.1,"METAR K1B9 162235Z AUTO 00000KT 10SM BKN220 18/12 A3024 RMK AO2 T01750116 $",2025-09-16 22:41:56.146443,2025-09-16 18:41:56.146491
"K1F0","Ardmore/Downtown Exec, OK, US",2025-09-16 22:35:00,"2025-09-16 17:35:00","VFR",33.5,16.7,160,7,NA,NA,1018,"METAR K1F0 162235Z AUTO 16007KT 10SM CLR 33/17 A3006 RMK AO2 T03350167",2025-09-16 22:41:56.152876,2025-09-16 18:41:56.152921
"K1R8","Bay Minette Muni, AL, US",2025-09-16 22:35:00,"2025-09-16 22:35:00","VFR",31,11,50,4,NA,NA,1017.4,"METAR K1R8 162235Z AUTO 05004KT 10SM CLR 31/11 A3004 RMK AO2",2025-09-16 22:41:56.159357,2025-09-16 18:41:56.159403
"K19S","Sublette Muni, KS, US",2025-09-16 22:35:00,"2025-09-16 22:35:00","VFR",NA,NA,160,8,NA,NA,1018.4,"METAR K19S 162235Z AUTO 16008KT 10SM CLR A3007 RMK AO2",2025-09-16 22:41:56.165856,2025-09-16 18:41:56.165904
"K14Y","Long Prairie Muni, MN, US",2025-09-16 22:35:00,"2025-09-16 22:35:00","VFR",26,18,200,4,NA,NA,1018.7,"METAR K14Y 162235Z AUTO 20004KT 10SM CLR 26/18 A3008 RMK AO2",2025-09-16 22:41:56.172298,2025-09-16 18:41:56.172342
"K1R7","Brookhaven/Lincoln Cnty Arpt, MS, US",2025-09-16 22:35:00,"2025-09-16 22:35:00","VFR",30,21,0,0,NA,NA,1017.4,"METAR K1R7 162235Z AUTO 00000KT 10SM CLR 30/21 A3004 RMK A01 TSNO",2025-09-16 22:41:56.178789,2025-09-16 18:41:56.178856
"K0VG","Jonesville/Lee Cnty, VA, US",2025-09-16 22:35:00,"2025-09-16 22:35:00","VFR",24,19,60,4,NA,NA,1019.7,"METAR K0VG 162235Z AUTO 06004KT 10SM BKN120 24/19 A3011 RMK AO2",2025-09-16 22:41:56.185253,2025-09-16 18:41:56.185297
"K15M","Iuka Arpt, MS, US",2025-09-16 22:35:00,"2025-09-16 22:35:00","VFR",28,21.8,0,0,NA,9,1017.7,"METAR K15M 162235Z AUTO 00000KT 9SM CLR 28/22 A3005 RMK AO2 T02800218 $",2025-09-16 22:41:56.191714,2025-09-16 18:41:56.191756
"K1H2","Effingham Cnty, IL, US",2025-09-16 22:35:00,"2025-09-16 22:35:00","VFR",31.7,12,0,0,NA,NA,1019,"METAR K1H2 162235Z AUTO 00000KT 10SM CLR 32/12 A3009 RMK AO2 T03170120",2025-09-16 22:41:56.198467,2025-09-16 18:41:56.198512
"K1A5","Franklin/Macon Cnty, NC, US",2025-09-16 22:35:00,"2025-09-16 22:35:00","VFR",24.8,15.2,320,4,NA,NA,1021.4,"METAR K1A5 162235Z AUTO 32004KT 10SM SCT075 BKN090 25/15 A3016 RMK AO2 T02480152",2025-09-16 22:41:56.205025,2025-09-16 18:41:56.205071
"K0R4","Vidalia/Concordia Arpt, LA, US",2025-09-16 22:35:00,"2025-09-16 22:35:00","VFR",24,19,350,3,NA,NA,1018.4,"METAR K0R4 162235Z AUTO 35003KT 10SM CLR 24/19 A3007 RMK AO2 LTG DSNT SW T02400190",2025-09-16 22:41:56.211451,2025-09-16 18:41:56.211496
"K0V4","Brookneal/Campbell Cnty, VA, US",2025-09-16 22:35:00,"2025-09-16 22:35:00","VFR",17,14,60,7,NA,NA,1020.7,"METAR K0V4 162235Z AUTO 06007KT 10SM SCT034 SCT046 OVC055 17/14 A3014 RMK AO1",2025-09-16 22:41:56.217918,2025-09-16 18:41:56.217967
"K13K","Eureka Muni, KS, US",2025-09-16 22:35:00,"2025-09-16 22:35:00","VFR",30.4,18.6,140,8,NA,NA,1019,"METAR K13K 162235Z AUTO 14008KT 10SM CLR 30/19 A3009 RMK AO2 T03040186",2025-09-16 22:41:56.224273,2025-09-16 18:41:56.224317
"K1A9","Prattville Arpt, AL, US",2025-09-16 22:35:00,"2025-09-16 22:35:00","VFR",NA,NA,0,0,NA,NA,1017.7,"METAR K1A9 162235Z AUTO 00000KT 10SM SCT120 A3005 RMK AO2",2025-09-16 22:41:56.230637,2025-09-16 18:41:56.230681
"K18A","Canon/Franklin Cnty, GA, US",2025-09-16 22:35:00,"2025-09-16 22:35:00","VFR",20.4,19.5,190,5,NA,NA,1019.7,"METAR K18A 162235Z AUTO 19005KT 10SM SCT070 SCT120 20/20 A3011 RMK AO2 LTG DSNT W P0008 T02040195",2025-09-16 22:41:56.237049,2025-09-16 18:41:56.237094
"K1A6","Middlesboro/Bell Cnty, KY, US",2025-09-16 22:35:00,"2025-09-16 22:35:00","VFR",26.6,16.3,0,0,NA,NA,1019.4,"METAR K1A6 162235Z AUTO 00000KT 10SM CLR 27/16 A3010 RMK AO2 T02660163",2025-09-16 22:41:56.243544,2025-09-16 18:41:56.243588
"K10G","Millersburg/Holmes Cnty, OH, US",2025-09-16 22:35:00,"2025-09-16 22:35:00","VFR",26,13,0,0,NA,NA,1021.1,"METAR K10G 162235Z AUTO 00000KT 10SM CLR 26/13 A3015 RMK AO2",2025-09-16 22:41:56.249982,2025-09-16 18:41:56.250027
"K0S9","Port Townsend/Jefferson Cnty, WA, US",2025-09-16 22:35:00,"2025-09-16 15:35:00","VFR",30,10,100,10,15,NA,1013.3,"METAR K0S9 162235Z AUTO 10010G15KT 10SM CLR 30/10 A2992 RMK AO2",2025-09-16 22:41:56.268402,2025-09-16 18:41:56.26845
"K0W3","Churchville/Hartford Cnty, MD, US",2025-09-16 22:35:00,"2025-09-16 22:35:00","VFR",17.1,17.1,340,4,NA,7,1020.1,"METAR K0W3 162235Z AUTO 34004KT 7SM SCT055 BKN070 BKN100 17/17 A3012 RMK AO2 RAB2156E2215 P0000 T01710171 $",2025-09-16 22:41:56.275008,2025-09-16 18:41:56.275056
"K17J","Donaldsonville Muni, GA, US",2025-09-16 22:35:00,"2025-09-16 22:35:00","VFR",31,13,80,6,NA,NA,1018.4,"METAR K17J 162235Z AUTO 08006KT 10SM CLR 31/13 A3007 RMK AO2",2025-09-16 22:41:56.281476,2025-09-16 18:41:56.28153
"K0R0","Columbia/Marion Cnty, MS, US",2025-09-16 22:15:00,"2025-09-16 22:15:00",NA,29,21,260,4,NA,NA,1018.4,"METAR K0R0 162215Z AUTO 26004KT SCT060 29/21 A3007 RMK AO2 LTG DSNT SW",2025-09-16 22:41:56.287889,2025-09-16 18:41:56.287934
"K1D8","Redfield Muni, SD, US",2025-09-16 22:15:00,"2025-09-16 22:15:00","VFR",27,19,320,6,NA,NA,1019,"METAR K1D8 162215Z AUTO 32006KT 10SM CLR 27/19 A3009 RMK AO2",2025-09-16 22:41:56.294418,2025-09-16 18:41:56.294464
"K1D1","Milbank Muni, SD, US",2025-09-16 22:15:00,"2025-09-16 22:15:00","VFR",28,17,10,6,NA,NA,1018.4,"METAR K1D1 162215Z AUTO 01006KT 10SM CLR 28/17 A3007 RMK AO2",2025-09-16 22:41:56.300926,2025-09-16 18:41:56.300972
"K1U7","Paris/Bear Lake Cnty Arpt, ID, US",2025-09-16 22:15:00,"2025-09-16 22:15:00","VFR",21,1,300,14,19,NA,1024.5,"METAR K1U7 162215Z AUTO 30014G19KT 10SM CLR 21/01 A3025 RMK A01",2025-09-16 22:41:56.307361,2025-09-16 18:41:56.307405
"K0J4","Florala Muni, AL, US",2025-09-16 21:58:00,"2025-09-16 21:58:00","VFR",32.2,11.1,NA,4,NA,NA,1018.4,"METAR K0J4 162158Z AUTO VRB04KT 10SM CLR 32/11 A3007 RMK AO2 SLP178 T03220111 $",2025-09-16 22:41:56.313787,2025-09-16 18:41:56.313851
"K1M4","Haleyville/Posey Fld, AL, US",2025-09-16 21:56:00,"2025-09-16 21:56:00","VFR",29.4,20,0,0,NA,NA,1019,"METAR K1M4 162156Z AUTO 00000KT 10SM CLR 29/20 A3009 RMK AO2 SLP948 T02940200 $",2025-09-16 22:41:56.32048,2025-09-16 18:41:56.320524
"K12N","Andover/Aeroflex Arpt, NJ, US",2025-09-16 21:54:00,"2025-09-16 21:54:00",NA,22.8,13.9,0,0,NA,NA,1022.8,"METAR K12N 162154Z AUTO 00000KT 23/14 A3020 RMK AO1 SLP221 T02280139",2025-09-16 22:41:56.326786,2025-09-16 18:41:56.326856
"K2G4","Oakland/Garrett Cnty, MD, US",2025-09-16 22:35:00,"2025-09-16 22:35:00","VFR",19,9,NA,4,NA,NA,1023.1,"METAR K2G4 162235Z AUTO VRB04KT 10SM BKN120 19/09 A3021 RMK AO2",2025-09-16 22:41:57.478612,2025-09-16 18:41:57.478657
"K24J","Live Oak/Suwannee Cnty, FL, US",2025-09-16 22:35:00,"2025-09-16 22:35:00","VFR",31,13,40,5,NA,NA,1017.7,"METAR K24J 162235Z AUTO 04005KT 10SM CLR 31/13 A3005 RMK A01",2025-09-16 22:41:57.485252,2025-09-16 18:41:57.485296
"K35A","Union/Union Cnty, SC, US",2025-09-16 22:35:00,"2025-09-16 22:35:00","VFR",21.7,18.3,0,0,NA,NA,1020.4,"METAR K35A 162235Z AUTO 00000KT 10SM SCT110 22/18 A3013 RMK A02 T02170183",2025-09-16 22:41:57.491735,2025-09-16 18:41:57.491779
"K21D","Lake Elmo Arpt, MN, US",2025-09-16 22:35:00,"2025-09-16 22:35:00","VFR",30,19,200,6,NA,NA,1018.7,"METAR K21D 162235Z AUTO 20006KT 10SM CLR 30/19 A3008 RMK AO2",2025-09-16 22:41:57.49825,2025-09-16 18:41:57.498296
"K2D5","Oakes Muni, ND, US",2025-09-16 22:35:00,"2025-09-16 22:35:00",NA,27,15,300,5,NA,NA,1019.4,"METAR K2D5 162235Z AUTO 30005KT CLR 27/15 A3010 RMK AO2",2025-09-16 22:41:57.504628,2025-09-16 18:41:57.504671
"K3F3","Mansfield/Williams Arpt, LA, US",2025-09-16 22:35:00,"2025-09-16 22:35:00","VFR",33.8,19.2,60,10,NA,NA,1018,"METAR K3F3 162235Z AUTO 06010KT 10SM CLR 34/19 A3006 RMK AO2 T03380192",2025-09-16 22:41:57.51105,2025-09-16 18:41:57.511097
"K2IS","Clewistown/Airglades Arpt, FL, US",2025-09-16 22:35:00,"2025-09-16 22:35:00",NA,23.5,22.2,130,16,27,NA,1017.7,"METAR K2IS 162235Z AUTO 13016G27KT TS 23/22 A3005 RMK AO2 LTG DSNT ALQDS P0033 PWINO T02350222",2025-09-16 22:41:57.517394,2025-09-16 18:41:57.517437
"K2R9","Kenedy/Karnes Cnty, TX, US",2025-09-16 22:35:00,"2025-09-16 22:35:00","VFR",33.4,15,110,10,NA,NA,1016.7,"METAR K2R9 162235Z AUTO 11010KT 10SM CLR 33/15 A3002 RMK AO2 T03340150",2025-09-16 22:41:57.523814,2025-09-16 18:41:57.523867
"K3AU","Augusta Muni, KS, US",2025-09-16 22:35:00,"2025-09-16 22:35:00","VFR",31,14,160,8,NA,NA,1018.4,"METAR K3AU 162235Z AUTO 16008KT 10SM CLR 31/14 A3007 RMK AO2",2025-09-16 22:41:57.542333,2025-09-16 18:41:57.542377
"K36K","Lakin/Kearney Cnty, KS, US",2025-09-16 22:35:00,"2025-09-16 22:35:00","VFR",26,17,210,13,20,NA,1018.4,"METAR K36K 162235Z AUTO 21013G20KT 10SM CLR 26/17 A3007 RMK AO2",2025-09-16 22:41:57.548642,2025-09-16 18:41:57.548687
"K2G9","Somerset Cnty Arpt, PA, US",2025-09-16 22:35:00,"2025-09-16 22:35:00","VFR",21,10,90,5,NA,NA,1022.8,"METAR K2G9 162235Z AUTO 09005KT 10SM BKN095 21/10 A3020 RMK AO2",2025-09-16 22:41:57.555004,2025-09-16 18:41:57.555048
"K24A","Sylva/Jackson Cnty, NC, US",2025-09-16 22:35:00,"2025-09-16 22:35:00","VFR",19.8,16.2,0,0,NA,NA,1022.1,"METAR K24A 162235Z AUTO 00000KT 10SM TS SCT028 SCT038 BKN060 20/16 A3018 RMK AO2 LTG DSNT SE AND NW T01980162",2025-09-16 22:41:57.561409,2025-09-16 18:41:57.561453
"K2M8","Millington/Baker Arpt, TN, US",2025-09-16 22:35:00,"2025-09-16 22:35:00","VFR",NA,NA,NA,NA,NA,NA,1016.3,"METAR K2M8 162235Z AUTO 10SM CLR A3001 RMK AO2 FZRANO $",2025-09-16 22:41:57.567975,2025-09-16 18:41:57.56802
"K2R2","Indianapolis/Hendrick Cnty, IN, US",2025-09-16 22:35:00,"2025-09-16 22:35:00",NA,27.1,12,10,5,NA,NA,1020.1,"METAR K2R2 162235Z AUTO 01005KT CLR 27/12 A3012 RMK AO2 T02710120 PWINO TSNO $",2025-09-16 22:41:57.574409,2025-09-16 18:41:57.574452
"K20V","Kremmling/McElroy Fld, CO, US",2025-09-16 22:35:00,"2025-09-16 22:35:00","VFR",12,6,10,11,18,NA,1026.8,"METAR K20V 162235Z AUTO 01011G18KT 10SM -TSRA SCT048 BKN075 12/06 A3032 RMK AO2 P0012 LTG DSNT ALQS",2025-09-16 22:41:57.580904,2025-09-16 18:41:57.580959
"K22N","Lehighton/Arner Mem, PA, US",2025-09-16 22:35:00,"2025-09-16 22:35:00","VFR",22,11,0,0,NA,NA,1022.1,"METAR K22N 162235Z AUTO 00000KT 10SM CLR 22/11 A3018 RMK AO2",2025-09-16 22:41:57.587338,2025-09-16 18:41:57.587384
"K27K","Georgetown/Scott Cnty, KY, US",2025-09-16 22:35:00,"2025-09-16 22:35:00","VFR",27,12.4,70,6,NA,NA,1018.4,"METAR K27K 162235Z AUTO 07006KT 10SM CLR 27/12 A3007 RMK AO2 T02700124 $",2025-09-16 22:41:57.593929,2025-09-16 18:41:57.593979
"K2C8","Cavalier Muni, ND, US",2025-09-16 22:35:00,"2025-09-16 22:35:00","VFR",26,18,280,9,NA,8,1017.7,"METAR K2C8 162235Z AUTO 28009KT 8SM CLR 26/18 A3005 RMK AO2",2025-09-16 22:41:57.600287,2025-09-16 18:41:57.60033
"K2V5","Wray Muni, CO, US",2025-09-16 22:35:00,"2025-09-16 22:35:00","VFR",32,8,210,10,16,NA,1016.3,"METAR K2V5 162235Z AUTO 21010G16KT 10SM SCT095 32/08 A3001 RMK AO2 LTG DSNT NE",2025-09-16 22:41:57.606785,2025-09-16 18:41:57.606851
"K2I0","Madisonville Muni, KY, US",2025-09-16 22:35:00,"2025-09-16 22:35:00","VFR",32.1,11,10,8,NA,NA,1017.7,"METAR K2I0 162235Z AUTO 01008KT 10SM CLR 32/11 A3005 RMK AO2 T03210110",2025-09-16 22:41:57.613251,2025-09-16 18:41:57.613296
"K20U","Beach Arpt, ND, US",2025-09-16 22:35:00,"2025-09-16 22:35:00",NA,24,10,350,4,NA,NA,1022.4,"METAR K20U 162235Z AUTO 35004KT 10SM 24/10 A3019 RMK AO2 TSNO",2025-09-16 22:41:57.619701,2025-09-16 18:41:57.619746
"K33N","Dover/Cheswold Arpk, DE, US",2025-09-16 22:15:00,"2025-09-16 22:15:00","VFR",19,14,40,12,18,9,1018.7,"METAR K33N 162215Z AUTO 04012G18KT 9SM OVC041 19/14 A3008 RMK A01",2025-09-16 22:41:57.62614,2025-09-16 18:41:57.626184
"K2A0","Dayton/Anton Arpt, TN, US",2025-09-16 22:15:00,"2025-09-16 22:15:00","VFR",29,17,270,7,NA,NA,1017.7,"METAR K2A0 162215Z AUTO 27007KT 10SM CLR 29/17 A3005 RMK A01",2025-09-16 22:41:57.632594,2025-09-16 18:41:57.632638
"K2G2","Steubenville/Jefferson Cnty, OH, US",2025-09-16 22:15:00,"2025-09-16 22:15:00","VFR",26,10,150,4,NA,NA,1020.7,"METAR K2G2 162215Z AUTO 15004KT 10SM CLR 26/10 A3014 RMK A01",2025-09-16 22:41:57.639094,2025-09-16 18:41:57.639139
"K2M2","Lawrenceburg/Lawrence Cnty, TN, US",2025-09-16 22:15:00,"2025-09-16 22:15:00","VFR",30,15,210,3,NA,8,1018,"METAR K2M2 162215Z AUTO 21003KT 8SM CLR 30/15 A3006 RMK A01",2025-09-16 22:41:57.645433,2025-09-16 18:41:57.645474
"K2V6","Yuma Muni, CO, US",2025-09-16 22:14:00,"2025-09-16 22:14:00","VFR",31,7,220,14,NA,NA,1017,"METAR K2V6 162214Z AUTO 22014KT 10SM SCT095 31/07 A3003 RMK AO2",2025-09-16 22:41:57.651857,2025-09-16 18:41:57.651905
"K2J5","Millen Arpt, GA, US",2025-09-16 22:10:00,"2025-09-16 22:10:00","VFR",NA,NA,0,0,NA,NA,1018.7,"METAR K2J5 162210Z AUTO 00000KT 10SM CLR A3008 RMK AO2",2025-09-16 22:41:57.658297,2025-09-16 18:41:57.658342
"K40U","Manila Arpt, UT, US",2025-09-16 22:35:00,"2025-09-16 22:35:00","VFR",17,6.4,70,7,NA,NA,1025.1,"METAR K40U 162235Z AUTO 07007KT 10SM CLR 17/06 A3027 RMK AO2 T01700064",2025-09-16 22:41:59.244569,2025-09-16 18:41:59.244614
"K3T5","LaGrange/Fayette Rgnl, TX, US",2025-09-16 22:35:00,"2025-09-16 22:35:00","VFR",34,14,100,7,NA,NA,1016.3,"METAR K3T5 162235Z AUTO 10007KT 10SM CLR 34/14 A3001 RMK AO2 T03400140 $",2025-09-16 22:41:59.251145,2025-09-16 18:41:59.251189
"K4F2","Carthage/Panola Cnty, TX, US",2025-09-16 22:35:00,"2025-09-16 22:35:00","VFR",33.2,18.7,340,5,NA,NA,1017,"METAR K4F2 162235Z AUTO 34005KT 10SM CLR 33/19 A3003 RMK AO2 T03320187",2025-09-16 22:41:59.25789,2025-09-16 18:41:59.257938
"K3LF","Litchfield Muni, IL, US",2025-09-16 22:35:00,"2025-09-16 22:35:00","VFR",31.3,10.7,20,5,NA,NA,1019.4,"METAR K3LF 162235Z AUTO 02005KT 10SM CLR 31/11 A3010 RMK AO2 T03130107",2025-09-16 22:41:59.264385,2025-09-16 18:41:59.264429
"K4A9","Fort Payne/Isbell Fld, AL, US",2025-09-16 22:35:00,"2025-09-16 22:35:00","VFR",28.9,16.3,310,3,NA,NA,1018.7,"METAR K4A9 162235Z AUTO 31003KT 10SM CLR 29/16 A3008 RMK AO2 T02890163",2025-09-16 22:41:59.270899,2025-09-16 18:41:59.270945
"K3R7","Jennings Arpt, LA, US",2025-09-16 22:35:00,"2025-09-16 22:35:00","VFR",29.6,19.5,NA,NA,NA,NA,1017,"METAR K3R7 162235Z AUTO 10SM VCTS CLR 30/20 A3003 RMK AO2 LTG DSNT SE THRU SW T02960195",2025-09-16 22:41:59.27747,2025-09-16 18:41:59.277516
"K4M9","Corning Muni, AR, US",2025-09-16 22:35:00,"2025-09-16 22:35:00","VFR",35,21,30,6,NA,NA,1016.7,"METAR K4M9 162235Z AUTO 03006KT 10SM CLR 35/21 A3002 RMK A01",2025-09-16 22:41:59.284057,2025-09-16 18:41:59.284102
"K4V1","Walsenburg/Spanish Peaks Arfld, CO, US",2025-09-16 22:35:00,"2025-09-16 22:35:00","VFR",22,5,50,13,NA,NA,1022.4,"METAR K4V1 162235Z AUTO 05013KT 10SM SCT110 22/05 A3019 RMK AO2 LTG DSNT ALQDS",2025-09-16 22:41:59.290608,2025-09-16 18:41:59.290652
"K3K7","Leoti/Hoard Mem, KS, US",2025-09-16 22:35:00,"2025-09-16 22:35:00","VFR",29,15,170,19,28,NA,1017,"METAR K3K7 162235Z AUTO 17019G28KT 10SM CLR 29/15 A3003 RMK AO2 PK WND 17028/28",2025-09-16 22:41:59.297163,2025-09-16 18:41:59.297208
"K4V0","Rangely Arpt, CO, US",2025-09-16 22:35:00,"2025-09-16 22:35:00","VFR",20,4.3,30,15,21,NA,1023.5,"METAR K4V0 162235Z AUTO 03015G21KT 10SM SCT110 20/04 A3022 RMK AO2 LTG DSNT SE AND NW T02000043",2025-09-16 22:41:59.303668,2025-09-16 18:41:59.303712
"K46D","Carrington Muni, ND, US",2025-09-16 22:35:00,"2025-09-16 22:35:00","MVFR",27,16,300,7,NA,5,1019.7,"METAR K46D 162235Z AUTO 30007KT 5SM HZ SCT014 27/16 A3011 RMK A01",2025-09-16 22:41:59.310071,2025-09-16 18:41:59.310113
"K4M3","Carlisle Muni, AR, US",2025-09-16 22:35:00,"2025-09-16 22:35:00",NA,33,17,20,4,10,NA,1015.3,"METAR K4M3 162235Z AUTO 02004G10KT 10SM 33/17 A2998 RMK A01",2025-09-16 22:41:59.316548,2025-09-16 18:41:59.316593
"K3U3","Anaconda/Bowman Fld, MT, US",2025-09-16 22:35:00,"2025-09-16 22:35:00","VFR",18,8.5,50,9,NA,NA,1027.9,"METAR K3U3 162235Z AUTO 05009KT 10SM OVC090 18/09 A3035 RMK AO2 T01800085 $",2025-09-16 22:41:59.32302,2025-09-16 18:41:59.323064
"K42J","Keystone Airpark, FL, US",2025-09-16 22:35:00,"2025-09-16 22:35:00","VFR",29,18,90,11,NA,NA,1018,"METAR K42J 162235Z AUTO 09011KT 10SM CLR 29/18 A3006 RMK A01",2025-09-16 22:41:59.329438,2025-09-16 18:41:59.329483
"K4O4","Idabel/McCurtain Rgnl, OK, US",2025-09-16 22:35:00,"2025-09-16 22:35:00","VFR",34,18,250,6,NA,NA,1017.4,"METAR K4O4 162235Z AUTO 25006KT 10SM CLR 34/18 A3004 RMK AO2",2025-09-16 22:41:59.335901,2025-09-16 18:41:59.335947
"K4A6","Scottsboro Muni, AL, US",2025-09-16 22:35:00,"2025-09-16 22:35:00","MVFR",30,17,30,4,NA,4,1018,"METAR K4A6 162235Z AUTO 03004KT 4SM HZ BKN100 30/17 A3006 RMK AO2",2025-09-16 22:41:59.342273,2025-09-16 18:41:59.342317
"K4R5","La Pointe/Madeline Isl Arpt, WI, US",2025-09-16 22:35:00,"2025-09-16 22:35:00","VFR",28,18.5,220,6,NA,NA,1017.4,"METAR K4R5 162235Z AUTO 22006KT 10SM OVC110 28/19 A3004 RMK AO2 T02800185",2025-09-16 22:41:59.348697,2025-09-16 18:41:59.348741
"K3K3","Syracuse/Hamilton Cnty, KS, US",2025-09-16 22:35:00,"2025-09-16 22:35:00","VFR",30,14,140,17,27,NA,1017,"METAR K3K3 162235Z AUTO 14017G27KT 10SM BKN080 BKN100 30/14 A3003 RMK AO2 PK WND 14028/56",2025-09-16 22:41:59.367638,2025-09-16 18:41:59.367684
"K49A","Ellijay/Gilmer Cnty, GA, US",2025-09-16 22:35:00,"2025-09-16 22:35:00","VFR",24,20,0,0,NA,NA,1020.4,"METAR K49A 162235Z AUTO 00000KT 10SM OVC110 24/20 A3013 RMK AO2",2025-09-16 22:41:59.374356,2025-09-16 18:41:59.3744
"K48A","Cochran Arpt, GA, US",2025-09-16 22:35:00,"2025-09-16 22:35:00","VFR",29.1,14.8,20,6,NA,NA,1018.7,"METAR K48A 162235Z AUTO 02006KT 10SM CLR 29/15 A3008 RMK AO2 T02910148",2025-09-16 22:41:59.381028,2025-09-16 18:41:59.381077
"K48I","Sutton/Braxton Cnty, WV, US",2025-09-16 22:35:00,"2025-09-16 22:35:00","VFR",23.5,11.5,0,0,NA,9,1020.4,"METAR K48I 162235Z AUTO 00000KT 9SM OVC085 23/12 A3013 RMK AO2 T02350115",2025-09-16 22:41:59.387695,2025-09-16 18:41:59.387738
"K4S2","Hood River/Jernstedt Arfld, OR, US",2025-09-16 22:35:00,"2025-09-16 22:35:00","VFR",28,7,120,7,NA,NA,1017.7,"METAR K4S2 162235Z AUTO 12007KT 10SM CLR 28/07 A3005 RMK AO2",2025-09-16 22:41:59.394576,2025-09-16 18:41:59.394622
"K4I3","Mount Vernon/Knox Cnty, OH, US",2025-09-16 22:23:00,"2025-09-16 22:23:00","VFR",27,12,NA,4,NA,NA,1020.4,"METAR K4I3 162223Z VRB04KT 10SM CLR 27/12 A3013 RMK AO2",2025-09-16 22:41:59.401361,2025-09-16 18:41:59.401405
"K3W7","Electric City/Grand Coulee Arpt, WA, US",2025-09-16 22:15:00,"2025-09-16 15:15:00","VFR",27,11,40,9,NA,NA,1021.1,"METAR K3W7 162215Z AUTO 04009KT 10SM CLR 27/11 A3015 RMK AO2",2025-09-16 22:41:59.407988,2025-09-16 18:41:59.408034
"K49B","Sturgis Muni, SD, US",2025-09-16 22:15:00,"2025-09-16 22:15:00","VFR",20,13,30,7,NA,NA,1023.1,"METAR K49B 162215Z AUTO 03007KT 10SM FEW100 20/13 A3021 RMK AO2",2025-09-16 22:41:59.414582,2025-09-16 18:41:59.414626
"K46U","Alpine Arpt, WY, US",2025-09-16 22:15:00,"2025-09-16 22:15:00","VFR",19,3,300,10,NA,NA,1024.8,"METAR K46U 162215Z AUTO 30010KT 10SM BKN090 19/03 A3026 RMK A01",2025-09-16 22:41:59.421183,2025-09-16 18:41:59.421229
"K42A","Melbourne Muni, AR, US",2025-09-16 22:15:00,"2025-09-16 22:15:00","VFR",NA,NA,50,4,10,NA,1017,"METAR K42A 162215Z AUTO 05004G10KT 10SM CLR A3003 RMK AO2",2025-09-16 22:41:59.427794,2025-09-16 18:41:59.427871
"K3S8","Grants Pass Arpt, OR, US",2025-09-16 22:15:00,"2025-09-16 15:15:00","VFR",33,5,NA,3,NA,NA,1014.6,"METAR K3S8 162215Z AUTO VRB03KT 10SM CLR 33/05 A2996 RMK AO2",2025-09-16 22:41:59.434596,2025-09-16 18:41:59.434641
"K4S1","Gold Beach Muni, OR, US",2025-09-16 22:14:00,"2025-09-16 15:14:00","MVFR",18,15,200,8,NA,3,1015,"METAR K4S1 162214Z AUTO 20008KT 3SM HZ FEW004 18/15 A2997 RMK AO2",2025-09-16 22:41:59.441179,2025-09-16 18:41:59.441224
"K5H4","Harvey Muni, ND, US",2025-09-16 22:35:00,"2025-09-16 22:35:00","VFR",26,15,330,6,NA,NA,1020.7,"METAR K5H4 162235Z AUTO 33006KT 10SM CLR 26/15 A3014 RMK AO2",2025-09-16 22:42:00.59126,2025-09-16 18:42:00.591305
"K6S2","Florence Muni, OR, US",2025-09-16 22:35:00,"2025-09-16 15:35:00","VFR",24,12,220,8,NA,NA,1014.6,"METAR K6S2 162235Z AUTO 22008KT 10SM CLR 24/12 A2996 RMK AO2",2025-09-16 22:42:00.597861,2025-09-16 18:42:00.597905
"K57C","East Troy Muni, WI, US",2025-09-16 22:35:00,"2025-09-16 22:35:00","VFR",25.9,14.8,120,4,NA,NA,1021.8,"METAR K57C 162235Z AUTO 12004KT 10SM CLR 26/15 A3017 RMK AO2 T02590148",2025-09-16 22:42:00.60431,2025-09-16 18:42:00.604355
"K5A9","Warm Springs/Roosevelt Muni, GA, US",2025-09-16 22:35:00,"2025-09-16 22:35:00","VFR",28.6,14.8,150,3,NA,NA,1019,"METAR K5A9 162235Z AUTO 15003KT 10SM CLR 29/15 A3009 RMK AO2 T02860148",2025-09-16 22:42:00.61071,2025-09-16 18:42:00.610755
"K5A6","Winona/Montgomery Cnty, MS, US",2025-09-16 22:35:00,"2025-09-16 22:35:00","VFR",29.1,20.8,180,5,NA,NA,1016.7,"METAR K5A6 162235Z AUTO 18005KT 10SM CLR 29/21 A3002 RMK AO2 T02910208",2025-09-16 22:42:00.617177,2025-09-16 18:42:00.617222
"K6B9","Skaneateles Arpt, NY, US",2025-09-16 22:35:00,"2025-09-16 22:35:00","VFR",22,16,360,4,NA,NA,1022.4,"METAR K6B9 162235Z AUTO 36004KT 10SM CLR 22/16 A3019 RMK AO2",2025-09-16 22:42:00.623634,2025-09-16 18:42:00.623678
"K54J","DeFuniak Springs Muni, FL, US",2025-09-16 22:35:00,"2025-09-16 22:35:00","VFR",30.3,13.6,50,3,NA,NA,1018,"METAR K54J 162235Z AUTO 05003KT 10SM SCT090 30/14 A3006 RMK AO2 T03030136",2025-09-16 22:42:00.642184,2025-09-16 18:42:00.642229
"K6L4","Logan Cnty, WV, US",2025-09-16 22:35:00,"2025-09-16 22:35:00","VFR",22,13,0,0,NA,NA,1020.7,"METAR K6L4 162235Z AUTO 00000KT 10SM CLR 22/13 A3014 RMK AO2",2025-09-16 22:42:00.648504,2025-09-16 18:42:00.648549
"K5C1","Boerne/Stage Fld, TX, US",2025-09-16 22:35:00,"2025-09-16 22:35:00","VFR",31,13,80,6,NA,NA,1018.7,"METAR K5C1 162235Z AUTO 08006KT 10SM SCT070 SCT085 31/13 A3008 RMK AO1",2025-09-16 22:42:00.65492,2025-09-16 18:42:00.654963
"K5R8","DeQuincey Ind Arpk, LA, US",2025-09-16 22:35:00,"2025-09-16 22:35:00","VFR",33,17.9,0,0,NA,NA,1016.7,"METAR K5R8 162235Z AUTO 00000KT 10SM SCT095 33/18 A3002 RMK AO2 T03300179",2025-09-16 22:42:00.661286,2025-09-16 18:42:00.661331
"K6A1","Butler Muni, GA, US",2025-09-16 22:35:00,"2025-09-16 22:35:00","VFR",29.5,14.7,60,3,NA,NA,1019,"METAR K6A1 162235Z AUTO 06003KT 10SM CLR 30/15 A3009 RMK AO2 T02950147",2025-09-16 22:42:00.667786,2025-09-16 18:42:00.667851
"K6I2","Lebanon-Springfield/Hoerter Fld, KY, US",2025-09-16 22:35:00,"2025-09-16 22:35:00","VFR",30,12,10,8,NA,NA,1018.7,"METAR K6I2 162235Z AUTO 01008KT 340V040 10SM CLR 30/12 A3008 RMK AO2",2025-09-16 22:42:00.67425,2025-09-16 18:42:00.674296
"K66R","Columbus/Well Arpt, TX, US",2025-09-16 22:35:00,"2025-09-16 22:35:00","VFR",32.2,17.4,130,4,NA,NA,1017,"METAR K66R 162235Z AUTO 13004KT 10SM CLR 32/17 A3003 RMK AO2 T03220174",2025-09-16 22:42:00.680749,2025-09-16 18:42:00.680794
"K6R3","Cleveland Muni, TX, US",2025-09-16 22:35:00,"2025-09-16 22:35:00","VFR",31.2,19.9,0,0,NA,NA,1017,"METAR K6R3 162235Z AUTO 00000KT 10SM CLR 31/20 A3003 RMK AO2 T03120199",2025-09-16 22:42:00.687238,2025-09-16 18:42:00.687283
"K6S0","Big Timber Arpt, MT, US",2025-09-16 22:15:00,"2025-09-16 22:15:00","VFR",15,9,300,6,NA,NA,1027.5,"METAR K6S0 162215Z AUTO 30006KT 10SM FEW070 BKN095 15/09 A3034 RMK A01",2025-09-16 22:42:00.693733,2025-09-16 18:42:00.693777
"K5T9","Maverick County Arpt, TX, US",2025-09-16 22:15:00,"2025-09-16 17:15:00","VFR",33,17,NA,4,NA,NA,1016,"METAR K5T9 162215Z AUTO VRB04KT 10SM FEW065 33/17 A3000 RMK A01",2025-09-16 22:42:00.700596,2025-09-16 18:42:00.700639
"K65S","Bonners Ferry/Boundary Cnty, ID, US",2025-09-16 22:15:00,"2025-09-16 22:15:00","MVFR",22,13,0,0,NA,3,1024.5,"METAR K65S 162215Z AUTO 00000KT 3SM HZ CLR 22/13 A3025 RMK AO2",2025-09-16 22:42:00.706972,2025-09-16 18:42:00.707016
"K6E5","De Smet/Wilder Arpt, SD, US",2025-09-16 22:15:00,"2025-09-16 22:15:00","VFR",NA,NA,350,4,NA,NA,1019.4,"METAR K6E5 162215Z AUTO 35004KT 10SM CLR A3010 RMK AO2",2025-09-16 22:42:00.713438,2025-09-16 18:42:00.713484
"K7W6","Engelhard/Hyde Cnty, NC, US",2025-09-16 22:35:00,"2025-09-16 22:35:00","MVFR",18.5,15.9,280,11,NA,NA,1015.3,"METAR K7W6 162235Z AUTO 28011KT 10SM OVC015 19/16 A2998 RMK AO2 T01850159",2025-09-16 22:42:01.85478,2025-09-16 18:42:01.854844
"K8B0","Rangeley/Bean Muni, ME, US",2025-09-16 22:35:00,"2025-09-16 22:35:00","VFR",19,11,0,0,NA,NA,1025.8,"METAR K8B0 162235Z AUTO 00000KT 10SM CLR 19/11 A3029 RMK AO2",2025-09-16 22:42:01.861372,2025-09-16 18:42:01.861417
"K8W2","New Market Arpt, VA, US",2025-09-16 22:35:00,"2025-09-16 22:35:00","VFR",20.1,13,90,4,NA,NA,1021.1,"METAR K8W2 162235Z AUTO 09004KT 10SM OVC090 20/13 A3015 RMK AO1 T02010130",2025-09-16 22:42:01.867844,2025-09-16 18:42:01.867893
"K79S","Fort Benton Arpt, MT, US",2025-09-16 22:35:00,"2025-09-16 22:35:00","VFR",24.3,10.6,360,5,NA,NA,1023.8,"METAR K79S 162235Z AUTO 36005KT 10SM CLR 24/11 A3023 RMK AO2 T02430106",2025-09-16 22:42:01.874321,2025-09-16 18:42:01.874366
"K7L2","Linton Muni, ND, US",2025-09-16 22:35:00,"2025-09-16 22:35:00","VFR",26,13,260,5,NA,NA,1021.1,"METAR K7L2 162235Z AUTO 26005KT 10SM CLR 26/13 A3015 RMK AO2",2025-09-16 22:42:01.88089,2025-09-16 18:42:01.880934
"K81R","San Saba Muni, TX, US",2025-09-16 22:35:00,"2025-09-16 22:35:00","VFR",31.7,12.9,130,9,NA,NA,1018.7,"METAR K81R 162235Z AUTO 13009KT 10SM CLR 32/13 A3008 RMK AO2 PWINO T03170129",2025-09-16 22:42:01.899926,2025-09-16 18:42:01.899971
"K96D","Walhalla Muni, ND, US",2025-09-16 22:35:00,"2025-09-16 22:35:00","VFR",26,16,NA,NA,NA,NA,1017.7,"METAR K96D 162235Z AUTO 10SM FEW060 SCT070 26/16 A3005 RMK AO2",2025-09-16 22:42:01.906723,2025-09-16 18:42:01.906766
"K77S","Creswell/Hobby Fld, OR, US",2025-09-16 22:35:00,"2025-09-16 22:35:00","VFR",33,11,10,7,NA,NA,1012.6,"METAR K77S 162235Z AUTO 01007KT 10SM CLR 33/11 A2990 RMK A01",2025-09-16 22:42:01.913099,2025-09-16 18:42:01.913142
"K9A4","Courtland(AAF), AL, US",2025-09-16 22:35:00,"2025-09-16 22:35:00","VFR",31,15,270,4,NA,NA,1018.4,"METAR K9A4 162235Z AUTO 27004KT 10SM CLR 31/15 A3007 RMK AO2",2025-09-16 22:42:01.919516,2025-09-16 18:42:01.919558
"K82V","Pine Bluffs Muni, WY, US",2025-09-16 22:35:00,"2025-09-16 22:35:00",NA,18,8,40,10,NA,NA,1022.8,"METAR K82V 162235Z AUTO 04010KT 10SM 18/08 A3020 RMK AO2 LTG DSNT W",2025-09-16 22:42:01.925993,2025-09-16 18:42:01.926039
"K74V","Roosevelt Muni, UT, US",2025-09-16 22:35:00,"2025-09-16 16:35:00","VFR",23,4,0,0,NA,NA,1022.1,"METAR K74V 162235Z AUTO 00000KT 10SM CLR 23/04 A3018 RMK AO2",2025-09-16 22:42:01.932444,2025-09-16 18:42:01.932487
"K82C","Mauston/New Lisbon Arpt, WI, US",2025-09-16 22:35:00,"2025-09-16 22:35:00","VFR",27.6,23.2,0,0,NA,NA,1020.7,"METAR K82C 162235Z AUTO 00000KT 10SM CLR 28/23 A3014 RMK AO2 T02760232",2025-09-16 22:42:01.938901,2025-09-16 18:42:01.938947
"K8T6","George West/Live Oak Cnty, TX, US",2025-09-16 22:35:00,"2025-09-16 22:35:00","VFR",32,20,160,11,NA,NA,1016,"METAR K8T6 162235Z AUTO 16011KT 10SM BKN100 32/20 A3000 RMK AO2",2025-09-16 22:42:01.94533,2025-09-16 18:42:01.945375
"K8V7","Springfield Muni, CO, US",2025-09-16 22:15:00,"2025-09-16 22:15:00","VFR",20,11,280,26,33,8,1019.4,"METAR K8V7 162215Z AUTO 28026G33KT 8SM -TSRA FEW004 SCT043 BKN065 20/11 A3010 RMK AO2",2025-09-16 22:42:01.951752,2025-09-16 18:42:01.951795
"K8A3","Livingston Muni, TN, US",2025-09-16 22:15:00,"2025-09-16 22:15:00","VFR",20,18,220,5,NA,NA,1019.4,"METAR K8A3 162215Z AUTO 22005KT 10SM FEW075 FEW090 BKN110 20/18 A3010 RMK A01",2025-09-16 22:42:01.958229,2025-09-16 18:42:01.958273
"K7S0","Ronan Aprt, MT, US",2025-09-16 22:15:00,"2025-09-16 22:15:00","VFR",22,12,NA,5,NA,NA,1025.5,"METAR K7S0 162215Z AUTO VRB05KT 10SM CLR 22/12 A3028 RMK A01",2025-09-16 22:42:01.964711,2025-09-16 18:42:01.964756
"K8D3","Sisseton Muni, SD, US",2025-09-16 21:56:00,"2025-09-16 21:56:00",NA,27.2,18.3,340,8,NA,NA,1018,"METAR K8D3 162156Z AUTO 34008KT 27/18 A3006 RMK AO1 SLP161 T02720183",2025-09-16 22:42:01.971286,2025-09-16 18:42:01.971329
"K79J","Andalusia/Benton Fld, AL, US",2025-09-16 21:56:00,"2025-09-16 21:56:00","VFR",32.8,12.8,40,6,NA,NA,1017.7,"METAR K79J 162156Z AUTO 04006KT 10SM BKN085 33/13 A3005 RMK AO2 SLP170 T03280128 TSNO",2025-09-16 22:42:01.98101,2025-09-16 18:42:01.981056
"KADH","Ada Muni, OK, US",2025-09-16 22:35:00,"2025-09-16 17:35:00","VFR",34,19,110,5,NA,NA,1018.4,"METAR KADH 162235Z AUTO 11005KT 10SM CLR 34/19 A3007 RMK AO2",2025-09-16 22:42:03.408435,2025-09-16 18:42:03.40848
"KAID","Anderson Muni, IN, US",2025-09-16 22:35:00,"2025-09-16 18:35:00","VFR",28.3,9.9,30,5,NA,NA,1019.7,"METAR KAID 162235Z AUTO 03005KT 10SM CLR 28/10 A3011 RMK AO2 T02830099",2025-09-16 22:42:03.415234,2025-09-16 18:42:03.415279
"KAMN","Alma/Gratiot Communi, MI, US",2025-09-16 22:35:00,"2025-09-16 18:35:00","VFR",25,13,90,3,NA,NA,1022.1,"METAR KAMN 162235Z AUTO 09003KT 10SM CLR 25/13 A3018 RMK AO2",2025-09-16 22:42:03.434218,2025-09-16 18:42:03.434263
"KAFO","Afton Muni, WY, US",2025-09-16 22:35:00,"2025-09-16 16:35:00","VFR",18,2,350,7,NA,NA,1025.1,"METAR KAFO 162235Z AUTO 35007KT 10SM BKN085 18/02 A3027 RMK AO2",2025-09-16 22:42:03.440643,2025-09-16 18:42:03.440687
"KADU","Audubon Cnty Arpt, IA, US",2025-09-16 22:35:00,"2025-09-16 22:35:00","LIFR",28,21,0,0,NA,NA,1019,"METAR KADU 162235Z AUTO 00000KT 10SM BKN002 BKN024 OVC065 28/21 A3009 RMK AO2 PWINO",2025-09-16 22:42:03.447177,2025-09-16 18:42:03.447219
"KANW","Ainsworth Muni, NE, US",2025-09-16 22:35:00,"2025-09-16 17:35:00","IFR",15.6,13.6,330,25,34,2.5,1023.8,"METAR KANW 162235Z AUTO 33025G34KT 2 1/2SM -TSRA SCT009 SCT037 OVC048 16/14 A3023 RMK AO2 VIS 1/4V5 LTG DSNT ALQS T01560136",2025-09-16 22:42:03.453668,2025-09-16 18:42:03.453722
"KASJ","Ahoskie/Tri Cnty, NC, US",2025-09-16 22:35:00,"2025-09-16 22:35:00","IFR",16,16,300,6,NA,NA,1017,"METAR KASJ 162235Z AUTO 30006KT 10SM -DZ OVC008 16/16 A3003 RMK AO2 T01600160",2025-09-16 22:42:03.46025,2025-09-16 18:42:03.460294
"KASL","Marshall/Harrison Cnty, TX, US",2025-09-16 22:35:00,"2025-09-16 17:35:00","VFR",34,19.1,320,6,NA,NA,1016.3,"METAR KASL 162235Z AUTO 32006KT 10SM CLR 34/19 A3001 RMK AO2 T03400191 $",2025-09-16 22:42:03.466839,2025-09-16 18:42:03.466887
"KANK","Salida/Alexander Fld, CO, US",2025-09-16 22:35:00,"2025-09-16 16:35:00","VFR",18,4.4,NA,3,NA,NA,1025.5,"METAR KANK 162235Z AUTO VRB03KT 10SM VCTS FEW035 SCT090 BKN120 BKN150 OVC170 18/04 A3028 RMK AO2 WSHFT 2221 T01800044",2025-09-16 22:42:03.473408,2025-09-16 18:42:03.473452
"KANQ","Angola/Tri-State Arpt, IN, US",2025-09-16 22:35:00,"2025-09-16 18:35:00","VFR",28,13,0,0,NA,NA,1021.1,"METAR KANQ 162235Z AUTO 00000KT 10SM CLR 28/13 A3015 RMK AO2",2025-09-16 22:42:03.480047,2025-09-16 18:42:03.480091
"KAGO","Magnolia Muni, AR, US",2025-09-16 22:35:00,"2025-09-16 17:35:00","VFR",32,22,230,3,NA,NA,1016,"METAR KAGO 162235Z AUTO 23003KT 10SM CLR 32/22 A3000 RMK A01",2025-09-16 22:42:03.48666,2025-09-16 18:42:03.486704
"KALM","Alamogordo/White Sands Rgnl, NM, US",2025-09-16 22:35:00,"2025-09-16 16:35:00","VFR",29,11,190,9,NA,NA,1019.4,"METAR KALM 162235Z AUTO 19009KT 10SM FEW120 29/11 A3010 RMK AO2 LTG DSNT W-NE",2025-09-16 22:42:03.493317,2025-09-16 18:42:03.493361
"KARW","Beaufort Cnty, GA, US",2025-09-16 22:35:00,"2025-09-16 18:35:00","VFR",27,13,0,0,NA,NA,1018.4,"METAR KARW 162235Z AUTO 00000KT 10SM CLR 27/13 A3007 RMK AO2",2025-09-16 22:42:03.499872,2025-09-16 18:42:03.499919
"KACJ","Americus/Carter Rgnl, GA, US",2025-09-16 22:35:00,"2025-09-16 22:35:00","VFR",28.9,15,90,3,NA,NA,1017.7,"METAR KACJ 162235Z AUTO 09003KT 10SM CLR 29/15 A3005 RMK AO2 T02890150",2025-09-16 22:42:03.506368,2025-09-16 18:42:03.506414
"KAJG","Mount Carmel Muni, IL, US",2025-09-16 22:35:00,"2025-09-16 22:35:00","VFR",31.5,14,10,6,NA,NA,1018.4,"METAR KAJG 162235Z AUTO 01006KT 10SM CLR 32/14 A3007 RMK AO2 T03150140",2025-09-16 22:42:03.512936,2025-09-16 18:42:03.512982
"K9Y1","Killdeer/Dunn Cnty, ND, US",2025-09-16 22:35:00,"2025-09-16 22:35:00","VFR",25,15,70,4,NA,NA,1021.4,"METAR K9Y1 162235Z AUTO 07004KT 10SM SCT060 SCT070 25/15 A3016 RMK AO2",2025-09-16 22:42:03.519446,2025-09-16 18:42:03.51949
"KACP","Oakdale/Parish Arpt, LA, US",2025-09-16 22:35:00,"2025-09-16 22:35:00","VFR",29,23,0,0,NA,NA,1017,"METAR KACP 162235Z AUTO 00000KT 10SM SCT070 SCT110 29/23 A3003 RMK AO2",2025-09-16 22:42:03.525928,2025-09-16 18:42:03.525973
"KAJR","Cornelia/Habersham Cnty, GA, US",2025-09-16 22:35:00,"2025-09-16 22:35:00","VFR",26.1,15.7,70,7,NA,NA,1019.4,"METAR KAJR 162235Z AUTO 07007KT 030V090 10SM SCT085 26/16 A3010 RMK AO2 T02610157",2025-09-16 22:42:03.532386,2025-09-16 18:42:03.53243
"KAAA","Lincoln/Logan Cnty, IL, US",2025-09-16 22:35:00,"2025-09-16 22:35:00","VFR",31.5,12.6,50,5,NA,NA,1019.4,"METAR KAAA 162235Z AUTO 05005KT 10SM CLR 32/13 A3010 RMK AO2 T03150126",2025-09-16 22:42:03.538871,2025-09-16 18:42:03.538917
"KAHQ","Wahoo Muni, NE, US",2025-09-16 22:35:00,"2025-09-16 22:35:00","VFR",31.6,16.5,130,4,NA,NA,1017.7,"METAR KAHQ 162235Z AUTO 13004KT 10SM CLR 32/17 A3005 RMK AO2 T03160165",2025-09-16 22:42:03.545343,2025-09-16 18:42:03.545387
"KARM","Wharton Rgnl, TX, US",2025-09-16 22:35:00,"2025-09-16 17:35:00","VFR",32.9,17.1,110,13,NA,7,1017,"METAR KARM 162235Z AUTO 11013KT 7SM SCT065 33/17 A3003 RMK AO2 T03290171 TSNO",2025-09-16 22:42:03.563753,2025-09-16 18:42:03.56383
"KAEL","Albert Lea Muni, MN, US",2025-09-16 22:35:00,"2025-09-16 17:35:00","VFR",26,19,170,8,NA,NA,1020.4,"METAR KAEL 162235Z AUTO 17008KT 10SM CLR 26/19 A3013 RMK AO2 TSNO",2025-09-16 22:42:03.570709,2025-09-16 18:42:03.570758
"KAIO","Atlantic Muni, IA, US",2025-09-16 22:35:00,"2025-09-16 17:35:00","VFR",32,18,0,0,NA,NA,1018,"METAR KAIO 162235Z AUTO 00000KT 10SM CLR 32/18 A3006 RMK AO2",2025-09-16 22:42:03.577349,2025-09-16 18:42:03.577395
"KACB","Bellaire/Antrim Cnty, MI, US",2025-09-16 22:35:00,"2025-09-16 18:35:00","VFR",25.2,16,0,0,NA,NA,1022.1,"METAR KACB 162235Z AUTO 00000KT 10SM CLR 25/16 A3018 RMK AO2 T02520160",2025-09-16 22:42:03.583942,2025-09-16 18:42:03.583987
"KAPY","Zapata Cnty, TX, US",2025-09-16 22:35:00,"2025-09-16 22:35:00","VFR",33,15.7,110,8,14,NA,1016,"METAR KAPY 162235Z AUTO 11008G14KT 10SM BKN110 33/16 A3000 RMK AO2 T03300157",2025-09-16 22:42:03.590498,2025-09-16 18:42:03.590547
"KAAS","Campbellsville/Taylor Cnty, KY, US",2025-09-16 22:35:00,"2025-09-16 22:35:00","VFR",28,13,0,0,NA,NA,1020.1,"METAR KAAS 162235Z AUTO 00000KT 10SM CLR 28/13 A3012 RMK AO1",2025-09-16 22:42:03.597108,2025-09-16 18:42:03.597154
"KAIK","Aiken Muni, GA, US",2025-09-16 22:35:00,"2025-09-16 18:35:00","VFR",26.1,12.8,350,4,NA,NA,1019.4,"METAR KAIK 162235Z AUTO 35004KT 10SM CLR 26/13 A3010 RMK AO2 T02610128",2025-09-16 22:42:03.603629,2025-09-16 18:42:03.603674
"KAEJ","Buena Vista/Central Colorado Rgnl, CO, US",2025-09-16 22:35:00,"2025-09-16 22:35:00",NA,16.1,3.5,130,7,NA,NA,1027.9,"METAR KAEJ 162235Z AUTO 13007KT TS BKN095 16/04 A3035 RMK AO2 LTG DSNT W THRU N T01610035",2025-09-16 22:42:03.610097,2025-09-16 18:42:03.610141
"KA39","Ak-Chin Rgnl, AZ, US",2025-09-16 22:35:00,"2025-09-16 22:35:00","VFR",38,11,270,4,NA,NA,1011.9,"METAR KA39 162235Z AUTO 27004KT 10SM CLR 38/11 A2988 RMK AO2",2025-09-16 22:42:03.616501,2025-09-16 18:42:03.616546
"KADC","Wadena Muni, MN, US",2025-09-16 22:35:00,"2025-09-16 22:35:00","VFR",27,18,290,4,NA,NA,1018.4,"METAR KADC 162235Z AUTO 29004KT 10SM CLR 27/18 A3007 RMK AO2",2025-09-16 22:42:03.623034,2025-09-16 18:42:03.62308
"KAQO","Llano Muni, TX, US",2025-09-16 22:35:00,"2025-09-16 22:35:00","VFR",34,12,130,7,NA,NA,1018.4,"METAR KAQO 162235Z AUTO 13007KT 10SM CLR 34/12 A3007 RMK AO2",2025-09-16 22:42:03.629487,2025-09-16 18:42:03.629532
"KASN","Talladega Muni, AL, US",2025-09-16 22:35:00,"2025-09-16 17:35:00","VFR",31,15,350,3,NA,NA,1017.4,"METAR KASN 162235Z AUTO 35003KT 10SM FEW080 31/15 A3004 RMK AO2",2025-09-16 22:42:03.636082,2025-09-16 18:42:03.636127
"K9V9","Chamberlain Muni, SD, US",2025-09-16 22:35:00,"2025-09-16 22:35:00","VFR",25.5,15.1,350,4,NA,NA,1021.1,"METAR K9V9 162235Z AUTO 35004KT 10SM CLR 26/15 A3015 RMK AO2 T02550151",2025-09-16 22:42:03.642578,2025-09-16 18:42:03.642623
"KACQ","Waseca Muni, MN, US",2025-09-16 22:35:00,"2025-09-16 22:35:00","VFR",27,20,170,5,NA,NA,1019.7,"METAR KACQ 162235Z AUTO 17005KT 10SM CLR 27/20 A3011 RMK AO2 LTG DSNT S PWINO",2025-09-16 22:42:03.649015,2025-09-16 18:42:03.64906
"KARV","Woodruff/Lakeland Arpt, WI, US",2025-09-16 22:35:00,"2025-09-16 17:35:00","VFR",26.2,18.9,190,7,NA,NA,1021.1,"METAR KARV 162235Z AUTO 19007KT 10SM CLR 26/19 A3015 RMK AO2 T02620189",2025-09-16 22:42:03.655414,2025-09-16 18:42:03.655458
"KAJZ","Delta/Blake Fld, CO, US",2025-09-16 22:35:00,"2025-09-16 22:35:00","VFR",28.5,0.8,0,0,NA,NA,1019.4,"METAR KAJZ 162235Z AUTO 00000KT 10SM RA SCT044 SCT070 SCT120 29/01 A3010 RMK AO2 LTG DSNT ALQS T02850008",2025-09-16 22:42:03.661883,2025-09-16 18:42:03.66193
"KAFK","Nebraska City Muni, NE, US",2025-09-16 22:35:00,"2025-09-16 22:35:00","VFR",30.7,19,170,4,NA,NA,1018.4,"METAR KAFK 162235Z AUTO 17004KT 10SM CLR 31/19 A3007 RMK AO2 T03070190",2025-09-16 22:42:03.668404,2025-09-16 18:42:03.668453
"KALX","Alexander City/Russell Fld, AL, US",2025-09-16 22:35:00,"2025-09-16 17:35:00","VFR",28.4,17.1,0,0,NA,NA,1018.4,"METAR KALX 162235Z AUTO 00000KT 10SM CLR 28/17 A3007 RMK AO2 T02840171",2025-09-16 22:42:03.675013,2025-09-16 18:42:03.675059
"KAQX","Allendale Cnty Arpt, SC, US",2025-09-16 22:35:00,"2025-09-16 22:35:00","VFR",29,11,0,0,NA,NA,1017.7,"METAR KAQX 162235Z AUTO 00000KT 10SM CLR 29/11 A3005 RMK AO2",2025-09-16 22:42:03.681627,2025-09-16 18:42:03.681672
"KAIG","Antigo/Langlade Cnty, WI, US",2025-09-16 22:35:00,"2025-09-16 22:35:00","VFR",25.9,16.2,180,5,NA,NA,1022.1,"METAR KAIG 162235Z AUTO 18005KT 10SM CLR 26/16 A3018 RMK AO2 T02590162",2025-09-16 22:42:03.701669,2025-09-16 18:42:03.701717
"KAIT","Aitkin Muni, MN, US",2025-09-16 22:35:00,"2025-09-16 22:35:00","VFR",29,18,250,6,NA,NA,1017.7,"METAR KAIT 162235Z AUTO 25006KT 10SM CLR 29/18 A3005 RMK AO2",2025-09-16 22:42:03.708467,2025-09-16 18:42:03.70851
"KAQP","Appleton Muni, MN, US",2025-09-16 22:33:00,"2025-09-16 22:33:00","VFR",31,18,0,0,NA,NA,1017.7,"METAR KAQP 162233Z AUTO 00000KT 10SM CLR 31/18 A3005 RMK AO2 TSNO",2025-09-16 22:42:03.714963,2025-09-16 18:42:03.715008
"KACZ","Wallace/Henderson Fld, NC, US",2025-09-16 22:30:00,"2025-09-16 22:30:00","VFR",20.5,15.9,310,7,NA,NA,1018.4,"METAR KACZ 162230Z AUTO 31007KT 10SM SCT029 OVC055 21/16 A3007 RMK AO2 T02050159",2025-09-16 22:42:03.721344,2025-09-16 18:42:03.721389
"K9L2","Edwards AF Aux North, CA, US",2025-09-16 22:25:00,"2025-09-16 22:25:00","VFR",36,10,220,6,15,7,1014.6,"SPECI K9L2 162225Z AUTO 22006G15KT 7SM CLR 36/10 A2996 RMK AO2 SLP121",2025-09-16 22:42:03.727821,2025-09-16 18:42:03.727873
"KAFF","Air Force Academy Arfld, CO, US",2025-09-16 22:20:00,"2025-09-16 16:20:00","VFR",15,9,40,13,NA,NA,1024.5,"SPECI KAFF 162220Z 04013KT 10SM SCT065 BKN095 BKN130 15/09 A3025 RMK AO2A TS MOVD NE SLP194",2025-09-16 22:42:03.734294,2025-09-16 18:42:03.734338
"K9S2","Scobey Arpt, MT, US",2025-09-16 22:15:00,"2025-09-16 22:15:00","VFR",25,11,340,7,NA,NA,1022.1,"METAR K9S2 162215Z AUTO 34007KT 10SM CLR 25/11 A3018 RMK AO2",2025-09-16 22:42:03.740715,2025-09-16 18:42:03.74076
"K9S9","Lexington Arpt, OR, US",2025-09-16 22:15:00,"2025-09-16 22:15:00","VFR",25,9,10,11,NA,NA,1021.1,"METAR K9S9 162215Z AUTO 01011KT 10SM CLR 25/09 A3015 RMK AO2",2025-09-16 22:42:03.747274,2025-09-16 18:42:03.747318
"KAKQ","Norfolk Muni, VA, US",2025-09-16 22:14:00,"2025-09-16 22:14:00","MVFR",16.7,15.6,NA,5,NA,6,1016.7,"SPECI KAKQ 162214Z AUTO VRB05KT 6SM -RA BR OVC010 17/16 A3002 RMK AO2 RAB2157 CIG 007V013 P0000 T01670156",2025-09-16 22:42:03.753693,2025-09-16 18:42:03.753737
"KALO","Waterloo Rgnl, IA, US",2025-09-16 22:10:00,"2025-09-16 17:10:00","VFR",23.9,16.7,160,9,NA,NA,1019.7,"SPECI KALO 162210Z 16009KT 10SM FEW048 24/17 A3011 RMK AO2 LTG DSNT SE-W T02390167",2025-09-16 22:42:03.760152,2025-09-16 18:42:03.760195
"KADT","Atwood/Rollins Cnty, KS, US",2025-09-16 22:10:00,"2025-09-16 22:10:00","VFR",29.9,12.5,130,24,35,NA,1017.4,"METAR KADT 162210Z AUTO 13024G35KT 10SM CLR 30/13 A3004 RMK AO2 LTG DSNT N AND NE T02990125",2025-09-16 22:42:03.766655,2025-09-16 18:42:03.766701
"KALS","Alamosa/Bergman Fld, CO, US",2025-09-16 21:59:00,"2025-09-16 15:59:00","VFR",25,2.8,220,16,24,NA,1024.5,"SPECI KALS 162159Z AUTO 22016G24KT 10SM BKN090 BKN110 25/03 A3025 RMK AO2 WSHFT 2139 T02500028",2025-09-16 22:42:03.773141,2025-09-16 18:42:03.773186
"KARG","Walnut Ridge Rgnl, AR, US",2025-09-16 21:56:00,"2025-09-16 16:56:00","VFR",35,16.1,20,5,NA,NA,1016.7,"METAR KARG 162156Z AUTO 02005KT 10SM CLR 35/16 A3002 RMK AO2 SLP164 T03500161 $",2025-09-16 22:42:03.779852,2025-09-16 18:42:03.7799
"KART","Watertown Intl, NY, US",2025-09-16 21:56:00,"2025-09-16 17:56:00","VFR",25,12.2,340,5,NA,NA,1022.1,"METAR KART 162156Z AUTO 34005KT 10SM CLR 25/12 A3018 RMK AO2 SLP216 T02500122",2025-09-16 22:42:03.786546,2025-09-16 18:42:03.786591
"KAND","Anderson Rgnl, SC, US",2025-09-16 21:56:00,"2025-09-16 17:56:00","VFR",22.8,15,90,6,NA,NA,1019.7,"METAR KAND 162156Z AUTO 09006KT 10SM SCT060 OVC110 23/15 A3011 RMK AO2 SLP189 T02280150",2025-09-16 22:42:03.793214,2025-09-16 18:42:03.793259
"KAIZ","Kaiser/Lee Fine Mem, MO, US",2025-09-16 21:56:00,"2025-09-16 16:56:00","VFR",33.3,16.1,70,6,NA,NA,1019,"METAR KAIZ 162156Z AUTO 07006KT 10SM CLR 33/16 A3009 RMK AO2 LTG DSNT W SLP178 T03330161",2025-09-16 22:42:03.79975,2025-09-16 18:42:03.799795
"KASH","Nashua/Boire Fld, NH, US",2025-09-16 21:56:00,"2025-09-16 17:56:00","VFR",21.7,10,110,6,NA,NA,1024.8,"METAR KASH 162156Z 11006KT 10SM SCT050 22/10 A3026 RMK AO2 SLP247 T02170100 PNO $",2025-09-16 22:42:03.806293,2025-09-16 18:42:03.806337
"KAFJ","Washington Cnty Arpt, PA, US",2025-09-16 21:56:00,"2025-09-16 17:56:00","VFR",26.7,11.1,90,6,NA,NA,1021.8,"METAR KAFJ 162156Z AUTO 09006KT 10SM CLR 27/11 A3017 RMK AO2 SLP210 T02670111 $",2025-09-16 22:42:03.812886,2025-09-16 18:42:03.812937
"KANJ","Sault Ste Marie Muni, MI, US",2025-09-16 21:55:00,"2025-09-16 21:55:00","VFR",23.9,15.6,110,5,NA,NA,1022.1,"METAR KANJ 162155Z AUTO 11005KT 10SM CLR 24/16 A3018 RMK AO2 SLP218 T02390156",2025-09-16 22:42:03.819351,2025-09-16 18:42:03.819396
"KADW","Andrews AFB, MD, US",2025-09-16 21:55:00,"2025-09-16 17:55:00","VFR",16.6,14.1,350,14,NA,NA,1019,"METAR KADW 162155Z 35014KT 10SM OVC043 17/14 A3009 RMK AO2A RAB2055E15DZB24E35RAB35E36 SLP195 P0001 T01660141 TSNO $",2025-09-16 22:42:03.838875,2025-09-16 18:42:03.838924
"KAST","Astoria Rgnl, OR, US",2025-09-16 21:55:00,"2025-09-16 14:55:00","VFR",23.9,11.1,240,16,23,NA,1013,"METAR KAST 162155Z AUTO 24016G23KT 10SM CLR 24/11 A2991 RMK AO2 SLP127 T02390111 $",2025-09-16 22:42:03.845459,2025-09-16 18:42:03.845502
"KAAT","Alturas Muni, CA, US",2025-09-16 21:55:00,"2025-09-16 21:55:00","VFR",29.4,-1.1,140,9,14,NA,1020.4,"METAR KAAT 162155Z AUTO 14009G14KT 10SM CLR 29/M01 A3013 RMK AO2 SLP166 T02941011",2025-09-16 22:42:03.851781,2025-09-16 18:42:03.851857
"KAKR","Akron/Fulton Intl, OH, US",2025-09-16 21:54:00,"2025-09-16 17:54:00","VFR",27.8,11.1,50,4,NA,NA,1020.4,"METAR KAKR 162154Z AUTO 05004KT 10SM CLR 28/11 A3013 RMK AO2 SLP197 T02780111 $",2025-09-16 22:42:03.858283,2025-09-16 18:42:03.858328
"KAAO","Wichita/Jabara Arpt, KS, US",2025-09-16 21:54:00,"2025-09-16 21:54:00","VFR",31.7,17.2,160,8,NA,NA,1018.4,"METAR KAAO 162154Z AUTO 16008KT 10SM CLR 32/17 A3007 RMK AO2 SLP170 T03170172",2025-09-16 22:42:03.864821,2025-09-16 18:42:03.864872
"KAPC","Napa Cnty Arpt, CA, US",2025-09-16 21:54:00,"2025-09-16 14:54:00","VFR",28.9,15.6,200,9,NA,NA,1013.3,"METAR KAPC 162154Z 20009KT 10SM CLR 29/16 A2992 RMK AO2 SLP123 T02890156",2025-09-16 22:42:03.871297,2025-09-16 18:42:03.871343
"KACY","Atlantic City Intl, NJ, US",2025-09-16 21:54:00,"2025-09-16 17:54:00","MVFR",17.8,14.4,40,10,NA,4,1019.7,"METAR KACY 162154Z 04010KT 4SM -RA BKN046 OVC065 18/14 A3011 RMK AO2 PK WND 04029/2133 RAB32 SLP196 P0002 T01780144 $",2025-09-16 22:42:03.877737,2025-09-16 18:42:03.877779
"KAPN","Alpena Cnty Rgnl, MI, US",2025-09-16 21:54:00,"2025-09-16 17:54:00","VFR",21.7,13.3,110,7,NA,NA,1023.5,"METAR KAPN 162154Z AUTO 11007KT 10SM CLR 22/13 A3022 RMK AO2 SLP233 T02170133",2025-09-16 22:42:03.884438,2025-09-16 18:42:03.884482
"KAKH","Gastonia Muni, NC, US",2025-09-16 21:54:00,"2025-09-16 21:54:00","VFR",25.6,14.4,0,0,NA,NA,1019,"METAR KAKH 162154Z AUTO 00000KT 10SM SCT050 26/14 A3009 RMK AO2 SLP184 T02560144",2025-09-16 22:42:03.891064,2025-09-16 18:42:03.891109
"KALI","Alice Intl, TX, US",2025-09-16 21:53:00,"2025-09-16 16:53:00","VFR",31.7,20,NA,NA,NA,NA,1016.3,"METAR KALI 162153Z AUTO 10SM FEW110 32/20 A3001 RMK AO2 SLP159 T03170200",2025-09-16 22:42:03.89755,2025-09-16 18:42:03.897594
"KALW","Walla Walla Rgnl, WA, US",2025-09-16 21:53:00,"2025-09-16 14:53:00","VFR",25,9.4,340,5,NA,NA,1020.1,"METAR KALW 162153Z 34005KT 10SM CLR 25/09 A3012 RMK AO2 SLP197 T02500094",2025-09-16 22:42:03.904053,2025-09-16 18:42:03.904098
"KAMW","Ames Muni, IA, US",2025-09-16 21:53:00,"2025-09-16 16:53:00","VFR",29.4,18.3,130,7,NA,NA,1019.4,"METAR KAMW 162153Z AUTO 13007KT 10SM CLR 29/18 A3010 RMK AO2 SLP184 T02940183",2025-09-16 22:42:03.910485,2025-09-16 18:42:03.91053
"KANB","Anniston Metro, AL, US",2025-09-16 21:53:00,"2025-09-16 16:53:00","VFR",30.6,14.4,210,5,NA,NA,1018.4,"METAR KANB 162153Z AUTO 21005KT 10SM FEW120 31/14 A3007 RMK AO2 SLP174 T03060144",2025-09-16 22:42:03.916978,2025-09-16 18:42:03.917023
"KAAF","Apalachicola Muni, FL, US",2025-09-16 21:53:00,"2025-09-16 17:53:00","VFR",28.3,18.3,130,6,NA,NA,1017.4,"METAR KAAF 162153Z AUTO 13006KT 10SM CLR 28/18 A3004 RMK AO2 SLP172 T02830183",2025-09-16 22:42:03.923448,2025-09-16 18:42:03.923491
"KAOH","Lima/Allen Cnty, OH, US",2025-09-16 21:53:00,"2025-09-16 17:53:00","VFR",28.9,10.6,40,4,NA,NA,1020.1,"METAR KAOH 162153Z AUTO 04004KT 10SM CLR 29/11 A3012 RMK AO2 SLP195 T02890106",2025-09-16 22:42:03.929883,2025-09-16 18:42:03.929929
"KASD","Slidell Arpt, LA, US",2025-09-16 21:53:00,"2025-09-16 21:53:00","VFR",31.1,17.8,170,6,NA,NA,1016.7,"METAR KASD 162153Z AUTO 17006KT 10SM CLR 31/18 A3002 RMK AO2 SLP164 T03110178",2025-09-16 22:42:03.936384,2025-09-16 18:42:03.936428
"KABY","Albany/SW Georgia Rgnl, GA, US",2025-09-16 21:53:00,"2025-09-16 17:53:00","VFR",32.2,14.4,360,5,NA,NA,1018.4,"METAR KABY 162153Z 36005KT 10SM SCT070 32/14 A3007 RMK AO2 SLP180 T03220144",2025-09-16 22:42:03.942845,2025-09-16 18:42:03.942893
"KAGC","Pittsburgh/Allegheny Cnty, PA, US",2025-09-16 21:53:00,"2025-09-16 17:53:00","VFR",25.6,10.6,100,4,NA,NA,1020.7,"METAR KAGC 162153Z 10004KT 10SM CLR 26/11 A3014 RMK AO2 SLP203 T02560106",2025-09-16 22:42:03.949257,2025-09-16 18:42:03.949301
"KARA","New Iberia/Acadiana Rgnl, LA, US",2025-09-16 21:53:00,"2025-09-16 16:53:00","VFR",33.9,18.9,NA,4,NA,NA,1016.3,"METAR KARA 162153Z VRB04KT 10SM FEW070 SCT100 34/19 A3001 RMK AO2 LTG DSNT NE SLP160 T03390189",2025-09-16 22:42:03.955751,2025-09-16 18:42:03.955798
"KAGS","Augusta Rgnl, GA, US",2025-09-16 21:53:00,"2025-09-16 17:53:00","VFR",28.3,15,50,3,NA,NA,1017.7,"METAR KAGS 162153Z 05003KT 10SM CLR 28/15 A3005 RMK AO2 SLP175 T02830150",2025-09-16 22:42:03.974908,2025-09-16 18:42:03.974955
"KAMG","Alma/Bacon Cnty, GA, US",2025-09-16 21:53:00,"2025-09-16 21:53:00","VFR",30,12.8,NA,4,NA,NA,1018,"METAR KAMG 162153Z AUTO VRB04KT 10SM CLR 30/13 A3006 RMK AO2 SLP178 T03000128",2025-09-16 22:42:03.981676,2025-09-16 18:42:03.98172
"KAIA","Alliance Muni, NE, US",2025-09-16 21:53:00,"2025-09-16 15:53:00","VFR",13.3,11.7,350,8,NA,NA,1020.4,"METAR KAIA 162153Z AUTO 35008KT 10SM -RA FEW047 FEW075 BKN100 13/12 A3013 RMK AO2 PK WND 07026/2114 LTG DSNT NE AND E RAEMMB25 TSE07B17E32 SLP179 T01330117 PNO $",2025-09-16 22:42:03.988293,2025-09-16 18:42:03.988337
"KACV","Arcata Arpt, CA, US",2025-09-16 21:53:00,"2025-09-16 14:53:00","VFR",20,15.6,290,5,NA,NA,1015.3,"METAR KACV 162153Z AUTO 29005KT 10SM CLR 20/16 A2998 RMK AO2 SLP155 T02000156",2025-09-16 22:42:03.994895,2025-09-16 18:42:03.994941
"KABR","Aberdeen Rgnl, SD, US",2025-09-16 21:53:00,"2025-09-16 16:53:00","VFR",27.2,16.1,30,4,NA,NA,1018.4,"METAR KABR 162153Z AUTO 03004KT 10SM CLR 27/16 A3007 RMK AO2 SLP178 T02720161",2025-09-16 22:42:04.001467,2025-09-16 18:42:04.001511
"KAEX","Alexandria Intl, LA, US",2025-09-16 21:53:00,"2025-09-16 16:53:00","VFR",33.9,18.9,20,7,NA,9,1016,"METAR KAEX 162153Z 02007KT 9SM CLR 34/19 A3000 RMK AO2 LTG DSNT S SLP163 T03390189",2025-09-16 22:42:04.007911,2025-09-16 18:42:04.007957
"KARB","Ann Arbor Muni, MI, US",2025-09-16 21:53:00,"2025-09-16 17:53:00","VFR",27.2,11.7,NA,3,NA,NA,1021.1,"METAR KARB 162153Z VRB03KT 10SM CLR 27/12 A3015 RMK AO2 SLP208 T02720117",2025-09-16 22:42:04.01487,2025-09-16 18:42:04.014916
"KASE","Aspen/Pitkin Cnty, CO, US",2025-09-16 21:53:00,"2025-09-16 15:53:00","VFR",20,0.6,120,8,16,NA,1024.8,"METAR KASE 162153Z 12008G16KT 10SM CLR 20/01 A3026 RMK AO2 LTG DSNT S AND W SLP139 T02000006",2025-09-16 22:42:04.021378,2025-09-16 18:42:04.021422
"KAKO","Akron/Plains Rgnl, CO, US",2025-09-16 21:53:00,"2025-09-16 15:53:00","VFR",27.2,11.7,70,8,NA,NA,1019,"METAR KAKO 162153Z AUTO 07008KT 10SM CLR 27/12 A3009 RMK AO2 SLP131 T02720117",2025-09-16 22:42:04.027888,2025-09-16 18:42:04.027933
"KACK","Nantucket Mem Arpt, MA, US",2025-09-16 21:53:00,"2025-09-16 17:53:00","VFR",18.3,12.2,80,10,NA,NA,1023.5,"METAR KACK 162153Z 08010KT 10SM CLR 18/12 A3022 RMK AO2 SLP234 T01830122",2025-09-16 22:42:04.034323,2025-09-16 18:42:04.034369
"KAFW","Fort Worth/Alliance Arpt, TX, US",2025-09-16 21:53:00,"2025-09-16 16:53:00","VFR",34.4,15,NA,3,NA,NA,1017.4,"METAR KAFW 162153Z VRB03KT 10SM SCT075 34/15 A3004 RMK AO2 SLP156 T03440150",2025-09-16 22:42:04.040885,2025-09-16 18:42:04.040931
"KAPF","Naples Muni, FL, US",2025-09-16 21:53:00,"2025-09-16 17:53:00","VFR",30.6,23.3,280,8,NA,NA,1015.7,"METAR KAPF 162153Z 28008KT 10SM CLR 31/23 A2999 RMK AO2 SLP154 T03060233 $",2025-09-16 22:42:04.047323,2025-09-16 18:42:04.047367
"KADG","Adrian/Lenawee Cnty, MI, US",2025-09-16 21:53:00,"2025-09-16 17:53:00","VFR",27.8,11.7,70,6,NA,NA,1021.4,"METAR KADG 162153Z AUTO 07006KT 10SM CLR 28/12 A3016 RMK AO2 SLP209 T02780117",2025-09-16 22:42:04.05377,2025-09-16 18:42:04.053843
"KAOO","Altoona/Blair Cnty, PA, US",2025-09-16 21:53:00,"2025-09-16 17:53:00","VFR",23.3,10,90,5,NA,NA,1021.8,"METAR KAOO 162153Z AUTO 09005KT 10SM FEW055 23/10 A3017 RMK AO2 SLP214 T02330100",2025-09-16 22:42:04.060347,2025-09-16 18:42:04.060392
"KAPA","Denver/Centennial Arpt, CO, US",2025-09-16 21:53:00,"2025-09-16 15:53:00","VFR",20.6,5.6,310,14,22,NA,1023.8,"METAR KAPA 162153Z 31014G22KT 10SM FEW029 SCT070 BKN090 BKN220 21/06 A3023 RMK AO2 RAB18E52 SLP183 OCNL LTGICCG DSNT SE-S CB DSNT SE-S MOV NE P0000 T02060056",2025-09-16 22:42:04.066885,2025-09-16 18:42:04.066931
"KAMA","Amarillo Intl Arpt, TX, US",2025-09-16 21:53:00,"2025-09-16 16:53:00","VFR",28.9,11.1,180,14,26,NA,1020.7,"METAR KAMA 162153Z 18014G26KT 10SM FEW075 29/11 A3014 RMK AO2 PK WND 19027/2115 SLP154 T02890111",2025-09-16 22:42:04.073488,2025-09-16 18:42:04.073534
"KAFN","Jaffrey Muni, NH, US",2025-09-16 21:52:00,"2025-09-16 17:52:00","VFR",20,11.1,0,0,NA,NA,1025.1,"METAR KAFN 162152Z AUTO 00000KT 10SM CLR 20/11 A3027 RMK AO2 SLP256 T02000111",2025-09-16 22:42:04.080318,2025-09-16 18:42:04.080367
"KABI","Abilene Rgnl, TX, US",2025-09-16 21:52:00,"2025-09-16 16:52:00","VFR",33.3,13.3,90,13,21,NA,1018.7,"METAR KABI 162152Z 09013G21KT 050V120 10SM FEW080 33/13 A3008 RMK AO2 SLP159 T03330133",2025-09-16 22:42:04.087073,2025-09-16 18:42:04.087118
"KARR","Aurora Muni, IL, US",2025-09-16 21:52:00,"2025-09-16 16:52:00","VFR",29.4,13.3,80,5,NA,8,1020.7,"METAR KARR 162152Z 08005KT 8SM CLR 29/13 A3014 RMK AO2 SLP201 T02940133",2025-09-16 22:42:04.093649,2025-09-16 18:42:04.093692
"KABQ","Albuquerque Intl, NM, US",2025-09-16 21:52:00,"2025-09-16 15:52:00","VFR",28.3,12.2,200,15,NA,NA,1021.8,"METAR KABQ 162152Z 20015KT 10SM FEW070 SCT120 SCT250 29/12 A3017 RMK AO2 SLP137 VIRGA NW CB DSNT E-SE AND NW T02830122 $",2025-09-16 22:42:04.11297,2025-09-16 18:42:04.113023
"KAHN","Athens/Epps Arpt, GA, US",2025-09-16 21:51:00,"2025-09-16 17:51:00","VFR",27.2,16.7,0,0,NA,NA,1018.7,"METAR KAHN 162151Z 00000KT 10SM SCT050 27/17 A3008 RMK AO2 SLP180 T02720167",2025-09-16 22:42:04.119418,2025-09-16 18:42:04.119463
"KABE","Allentown/Lehigh Valley Intl, PA, US",2025-09-16 21:51:00,"2025-09-16 17:51:00","VFR",22.8,11.7,110,11,NA,NA,1021.8,"METAR KABE 162151Z 11011KT 10SM BKN120 23/12 A3017 RMK AO2 SLP215 T02280117 $",2025-09-16 22:42:04.125926,2025-09-16 18:42:04.12597
"KALB","Albany Intl, NY, US",2025-09-16 21:51:00,"2025-09-16 17:51:00","VFR",25,13.3,0,0,NA,NA,1022.4,"METAR KALB 162151Z 00000KT 10SM SCT055 SCT200 BKN250 25/13 A3019 RMK AO2 SLP223 T02500133",2025-09-16 22:42:04.13236,2025-09-16 18:42:04.132405
"KACT","Waco Rgnl, TX, US",2025-09-16 21:51:00,"2025-09-16 16:51:00","VFR",33.9,16.1,0,0,NA,NA,1017.7,"METAR KACT 162151Z 00000KT 10SM CLR 34/16 A3005 RMK AO2 SLP169 T03390161",2025-09-16 22:42:04.138865,2025-09-16 18:42:04.138911
"KALN","Alton/St Louis Rgnl, IL, US",2025-09-16 21:50:00,"2025-09-16 16:50:00","VFR",32,13,NA,5,NA,NA,1018.4,"METAR KALN 162150Z VRB05KT 10SM CLR 32/13 A3007",2025-09-16 22:42:04.145382,2025-09-16 18:42:04.145426
"KADM","Ardmore Muni, OK, US",2025-09-16 21:50:00,"2025-09-16 16:50:00","VFR",34,15,0,0,NA,NA,1017.7,"METAR KADM 162150Z 00000KT 10SM CLR 34/15 A3005",2025-09-16 22:42:04.151859,2025-09-16 18:42:04.151905
"KANE","Blaine/Anoka Cnty, MN, US",2025-09-16 21:49:00,"2025-09-16 21:49:00","VFR",33,17,220,7,NA,NA,1018,"METAR KANE 162149Z 22007KT 10SM CLR 33/17 A3006",2025-09-16 22:42:04.158313,2025-09-16 18:42:04.158357
"KASG","Springdale Muni, AR, US",2025-09-16 21:48:00,"2025-09-16 16:48:00","VFR",33,24,340,12,NA,NA,1019.7,"METAR KASG 162148Z 34012KT 10SM CLR 33/24 A3011",2025-09-16 22:42:04.164744,2025-09-16 18:42:04.164788
"KADS","Dallas/Addison Arpt, TX, US",2025-09-16 21:47:00,"2025-09-16 16:47:00","VFR",35,16,270,3,NA,NA,1017.7,"METAR KADS 162147Z 27003KT 10SM SCT080 35/16 A3005",2025-09-16 22:42:04.171221,2025-09-16 18:42:04.171266
"KAEG","Albuquerque/Double Eagle Arpt, NM, US",2025-09-16 21:47:00,"2025-09-16 21:47:00","VFR",28,7,230,13,17,NA,1023.1,"METAR KAEG 162147Z 23013G17KT 10SM SCT110 28/07 A3021 RMK SHRA DSNT SW-NW",2025-09-16 22:42:04.177796,2025-09-16 18:42:04.177872
"KAUH","Aurora/Potter Fld, NE, US",2025-09-16 22:35:00,"2025-09-16 22:35:00","VFR",30.6,19.3,150,6,NA,NA,1018.4,"METAR KAUH 162235Z AUTO 15006KT 10SM CLR 31/19 A3007 RMK AO2 T03060193",2025-09-16 22:42:05.891166,2025-09-16 18:42:05.891212
"KBJI","Bemidji Municip, MN, US",2025-09-16 22:35:00,"2025-09-16 17:35:00","VFR",27.4,15.8,260,8,NA,NA,1018.4,"METAR KBJI 162235Z AUTO 26008KT 10SM CLR 27/16 A3007 RMK AO2 T02740158",2025-09-16 22:42:05.897854,2025-09-16 18:42:05.897901
"KBQK","Brunswick/Golden Isles Arpt, GA, US",2025-09-16 22:35:00,"2025-09-16 18:35:00","VFR",26.2,18,120,9,NA,NA,1019,"METAR KBQK 162235Z AUTO 12009KT 10SM CLR 26/18 A3009 RMK AO2 T02620180",2025-09-16 22:42:05.926796,2025-09-16 18:42:05.926865
"KBCK","Black River Falls Arpt, WI, US",2025-09-16 22:35:00,"2025-09-16 22:35:00","VFR",28,20,0,0,NA,NA,1020.1,"METAR KBCK 162235Z AUTO 00000KT 10SM CLR 28/20 A3012 RMK AO2 T02800200",2025-09-16 22:42:05.934059,2025-09-16 18:42:05.934105
"KASW","Warsaw Muni, IN, US",2025-09-16 22:35:00,"2025-09-16 22:35:00","VFR",26.4,12.5,10,4,NA,NA,1020.7,"METAR KASW 162235Z AUTO 01004KT 10SM CLR 26/12 A3014 RMK AO2 T02640125",2025-09-16 22:42:05.94052,2025-09-16 18:42:05.940564
"KBPG","Big Springs/McMahon , TX, US",2025-09-16 22:35:00,"2025-09-16 17:35:00","VFR",31.2,12,160,6,NA,NA,1019.4,"METAR KBPG 162235Z AUTO 16006KT 10SM SCT110 31/12 A3010 RMK AO2 T03120120",2025-09-16 22:42:05.946915,2025-09-16 18:42:05.946959
"KBFR","Bedford/Grissom Arpt, IN, US",2025-09-16 22:35:00,"2025-09-16 18:35:00",NA,28,14,340,3,NA,NA,1019.4,"METAR KBFR 162235Z AUTO 34003KT 10SM 28/14 A3010 RMK AO2",2025-09-16 22:42:05.953497,2025-09-16 18:42:05.953543
"KBMT","Beaumont Muni, TX, US",2025-09-16 22:35:00,"2025-09-16 17:35:00","VFR",33.2,16.4,170,3,NA,NA,1016.3,"METAR KBMT 162235Z AUTO 17003KT 10SM SCT070 SCT080 33/16 A3001 RMK AO2 T03320164",2025-09-16 22:42:05.960069,2025-09-16 18:42:05.960116
"KBBD","Brady/Curtis Fld, TX, US",2025-09-16 22:35:00,"2025-09-16 17:35:00","VFR",31,11,150,7,13,NA,1018.7,"METAR KBBD 162235Z AUTO 15007G13KT 120V180 10SM SCT085 31/11 A3008 RMK AO2",2025-09-16 22:42:05.966751,2025-09-16 18:42:05.966797
"KAXV","Wapakoneta/Armstrong Arpt, OH, US",2025-09-16 22:35:00,"2025-09-16 18:35:00","VFR",27,11,0,0,NA,NA,1020.1,"METAR KAXV 162235Z AUTO 00000KT 10SM CLR 27/11 A3012 RMK AO2",2025-09-16 22:42:05.973396,2025-09-16 18:42:05.973443
"KBAX","Bad Axe/Huron Cnty, MI, US",2025-09-16 22:35:00,"2025-09-16 22:35:00","VFR",21.2,10.6,50,4,NA,NA,1023.1,"METAR KBAX 162235Z AUTO 05004KT 10SM CLR 21/11 A3021 RMK AO2 T02120106",2025-09-16 22:42:05.98008,2025-09-16 18:42:05.980125
"KBBB","Benson Muni, MN, US",2025-09-16 22:35:00,"2025-09-16 17:35:00","VFR",28,20,350,4,NA,9,1017.7,"METAR KBBB 162235Z AUTO 35004KT 9SM CLR 28/20 A3005 RMK AO2",2025-09-16 22:42:05.986714,2025-09-16 18:42:05.986759
"KBDH","Willmar Muni, MN, US",2025-09-16 22:35:00,"2025-09-16 17:35:00","VFR",29,19,310,7,NA,NA,1018,"METAR KBDH 162235Z AUTO 31007KT 10SM CLR 29/19 A3006 RMK AO2",2025-09-16 22:42:05.99346,2025-09-16 18:42:05.993507
"KAYS","Waycross/Ware Cnty, GA, US",2025-09-16 22:35:00,"2025-09-16 18:35:00",NA,29.2,13.2,80,4,NA,NA,1018.4,"METAR KAYS 162235Z AUTO 08004KT CLR 29/13 A3007 RMK AO2 T02920132 PWINO",2025-09-16 22:42:06.00008,2025-09-16 18:42:06.000124
"KAWG","Washington Muni, IA, US",2025-09-16 22:35:00,"2025-09-16 22:35:00","VFR",32,16,90,5,NA,NA,1019,"METAR KAWG 162235Z AUTO 09005KT 10SM CLR 32/16 A3009 RMK AO2",2025-09-16 22:42:06.00685,2025-09-16 18:42:06.006898
"KBAM","Battle Mountain Arpt, NV, US",2025-09-16 22:35:00,"2025-09-16 15:35:00","VFR",27,-4,140,3,NA,NA,1022.4,"METAR KBAM 162235Z AUTO 14003KT 10SM CLR 27/M04 A3019 RMK AO1",2025-09-16 22:42:06.013583,2025-09-16 18:42:06.013628
"KBDU","Boulder Muni, CO, US",2025-09-16 22:35:00,"2025-09-16 16:35:00","VFR",15,15,280,5,NA,NA,1023.1,"METAR KBDU 162235Z AUTO 28005KT 10SM CLR 15/15 A3021 RMK AO2 LTG DSNT ALQDS",2025-09-16 22:42:06.0206,2025-09-16 18:42:06.02065
"KAXH","Houston/SW Arpt, TX, US",2025-09-16 22:35:00,"2025-09-16 22:35:00","VFR",32.5,18.3,120,6,NA,NA,1017.4,"METAR KAXH 162235Z AUTO 12006KT 10SM CLR 33/18 A3004 RMK AO2 T03250183",2025-09-16 22:42:06.027287,2025-09-16 18:42:06.027333
"KAVC","Mecklenburg/Brunswick Rgnl, VA, US",2025-09-16 22:35:00,"2025-09-16 22:35:00","MVFR",16.6,16.3,350,12,17,NA,1021.1,"METAR KAVC 162235Z AUTO 35012G17KT 10SM SCT008 BKN011 OVC070 17/16 A3015 RMK AO2 P0001 T01660163",2025-09-16 22:42:06.034001,2025-09-16 18:42:06.034049
"KBBP","Bennettsville/Marlboro Jetport, SC, US",2025-09-16 22:35:00,"2025-09-16 18:35:00","VFR",26,11,330,6,14,NA,1018.4,"METAR KBBP 162235Z AUTO 33006G14KT 10SM CLR 26/11 A3007 RMK AO2",2025-09-16 22:42:06.040743,2025-09-16 18:42:06.040791
"KBCB","Blacksburg/VA Tech Montgomery Exec, VA, US",2025-09-16 22:35:00,"2025-09-16 18:35:00","VFR",18.2,14,0,0,NA,NA,1022.8,"METAR KBCB 162235Z AUTO 00000KT 10SM SCT070 BKN110 18/14 A3020 RMK AO2 T01820140 PWINO",2025-09-16 22:42:06.047335,2025-09-16 18:42:06.04738
"KBKN","Blackwell/Tonkawa Muni, OK, US",2025-09-16 22:35:00,"2025-09-16 22:35:00","VFR",34,16,130,8,NA,9,1017.7,"METAR KBKN 162235Z AUTO 13008KT 9SM CLR 34/16 A3005 RMK AO2",2025-09-16 22:42:06.066681,2025-09-16 18:42:06.066728
"KBRY","Bardstown/Samuel Fld, KY, US",2025-09-16 22:35:00,"2025-09-16 18:35:00","VFR",31,11.4,360,6,NA,NA,1017.7,"METAR KBRY 162235Z AUTO 36006KT 10SM CLR 31/11 A3005 RMK AO2 T03100114",2025-09-16 22:42:06.074067,2025-09-16 18:42:06.074113
"KBGE","Bainbridge/Decatur Cnty, GA, US",2025-09-16 22:35:00,"2025-09-16 18:35:00","VFR",31.4,14.1,100,8,NA,NA,1018,"METAR KBGE 162235Z AUTO 10008KT 10SM CLR 31/14 A3006 RMK AO2 T03140141",2025-09-16 22:42:06.080658,2025-09-16 18:42:06.080703
"KBHC","Baxley Muni, GA, US",2025-09-16 22:35:00,"2025-09-16 22:35:00","VFR",31,12,0,0,NA,NA,1018.4,"METAR KBHC 162235Z AUTO 00000KT 10SM CLR 31/12 A3007 RMK AO2 PNO",2025-09-16 22:42:06.087184,2025-09-16 18:42:06.087227
"KAXA","Algona Muni, IA, US",2025-09-16 22:35:00,"2025-09-16 17:35:00","IFR",20,19,200,6,NA,2,1020.4,"METAR KAXA 162235Z AUTO 20006KT 2SM BR BKN025 BKN030 OVC041 20/19 A3013 RMK A01",2025-09-16 22:42:06.093657,2025-09-16 18:42:06.093702
"KAVQ","Tucson/Marana Rgnl, AZ, US",2025-09-16 22:35:00,"2025-09-16 15:35:00","VFR",37,11,330,9,NA,NA,1012.3,"METAR KAVQ 162235Z AUTO 33009KT 10SM CLR 37/11 A2989 RMK AO2 LTG DSNT NE AND E",2025-09-16 22:42:06.100334,2025-09-16 18:42:06.100379
"KBKD","Breckenridge/Stephens Cnty, TX, US",2025-09-16 22:35:00,"2025-09-16 17:35:00",NA,34.4,11.3,160,8,15,NA,1017.7,"METAR KBKD 162235Z AUTO 16008G15KT SCT090 34/11 A3005 RMK AO2 T03440113",2025-09-16 22:42:06.106842,2025-09-16 18:42:06.106889
"KATS","Artesia Muni, NM, US",2025-09-16 22:35:00,"2025-09-16 16:35:00","VFR",30,12,180,12,NA,NA,1020.4,"METAR KATS 162235Z AUTO 18012KT 10SM CLR 30/12 A3013 RMK AO2",2025-09-16 22:42:06.113399,2025-09-16 18:42:06.113444
"KBDG","Blanding Muni, UT, US",2025-09-16 22:35:00,"2025-09-16 16:35:00","VFR",27.5,-7.7,260,7,NA,NA,1021.8,"METAR KBDG 162235Z AUTO 26007KT 230V290 10SM CLR 27/M08 A3017 RMK AO2 T02751077",2025-09-16 22:42:06.119998,2025-09-16 18:42:06.120042
"KAXX","Angel Fire Arpt, NM, US",2025-09-16 22:35:00,"2025-09-16 16:35:00","VFR",18.4,2.7,270,14,24,NA,1029.5,"METAR KAXX 162235Z AUTO 27014G24KT 240V300 10SM SCT070 SCT080 18/03 A3040 RMK AO2 T01840027",2025-09-16 22:42:06.126446,2025-09-16 18:42:06.126492
"KBNW","Boone Muni, IA, US",2025-09-16 22:35:00,"2025-09-16 17:35:00","VFR",30,19,160,5,NA,NA,1019,"METAR KBNW 162235Z AUTO 16005KT 10SM CLR 30/19 A3009 RMK AO2",2025-09-16 22:42:06.132939,2025-09-16 18:42:06.132984
"KBTA","Blair Muni, NE, US",2025-09-16 22:35:00,"2025-09-16 22:35:00","VFR",28.5,19.5,90,4,NA,NA,1018.4,"METAR KBTA 162235Z AUTO 09004KT 10SM SCT065 29/20 A3007 RMK AO2 T02850195",2025-09-16 22:42:06.139506,2025-09-16 18:42:06.13955
"KBMC","Brigham City Arpt, UT, US",2025-09-16 22:35:00,"2025-09-16 16:35:00","VFR",25,0,300,6,NA,NA,1022.1,"METAR KBMC 162235Z AUTO 30006KT 10SM CLR 25/00 A3018 RMK AO2",2025-09-16 22:42:06.14605,2025-09-16 18:42:06.146097
"KAUM","Austin Muni, MN, US",2025-09-16 22:35:00,"2025-09-16 17:35:00","VFR",26,20,190,7,NA,NA,1020.7,"METAR KAUM 162235Z AUTO 19007KT 10SM VCTS CLR 26/20 A3014 RMK AO2 LTG DSNT SE",2025-09-16 22:42:06.152661,2025-09-16 18:42:06.152706
"KBIJ","Blakely/Early Cnty, GA, US",2025-09-16 22:35:00,"2025-09-16 22:35:00","VFR",30,15,0,0,NA,NA,1018,"METAR KBIJ 162235Z AUTO 00000KT 10SM CLR 30/15 A3006 RMK AO2",2025-09-16 22:42:06.159153,2025-09-16 18:42:06.159203
"KAUN","Auburn Muni, CA, US",2025-09-16 22:35:00,"2025-09-16 15:35:00","VFR",33,7,230,7,NA,NA,1015.7,"METAR KAUN 162235Z AUTO 23007KT 10SM CLR 33/07 A2999 RMK A01",2025-09-16 22:42:06.165663,2025-09-16 18:42:06.165711
"KAZC","Colorado City Muni, AZ, US",2025-09-16 22:35:00,"2025-09-16 22:35:00","VFR",31,-2,240,12,15,NA,1021.8,"METAR KAZC 162235Z AUTO 24012G15KT 10SM CLR 31/M02 A3017 RMK AO2",2025-09-16 22:42:06.172313,2025-09-16 18:42:06.172358
"KBNL","Barnwell Cnty, SC, US",2025-09-16 22:35:00,"2025-09-16 18:35:00","VFR",28,13,350,7,NA,NA,1018.4,"METAR KBNL 162235Z AUTO 35007KT 10SM CLR 28/13 A3007 RMK AO2",2025-09-16 22:42:06.178964,2025-09-16 18:42:06.17901
"KBEC","Wichita/Beech Factory Arpt, KS, US",2025-09-16 22:35:00,"2025-09-16 17:35:00","VFR",30.6,17.6,150,9,NA,NA,1018.4,"METAR KBEC 162235Z AUTO 15009KT 10SM CLR 31/18 A3007 RMK AO2 T03060176",2025-09-16 22:42:06.185606,2025-09-16 18:42:06.185652
"KBKF","Buckley SFB, CO, US",2025-09-16 22:23:00,"2025-09-16 16:23:00","VFR",23,6,320,9,NA,NA,1022.4,"SPECI KBKF 162223Z 32009KT 10SM VCTS SCT070 BKN140 BKN200 23/06 A3019 RMK AO2A SLP159",2025-09-16 22:42:06.205274,2025-09-16 18:42:06.205323
"KBTN","Britton Muni, SD, US",2025-09-16 22:15:00,"2025-09-16 17:15:00","VFR",27,17,350,5,NA,9,1018.7,"METAR KBTN 162215Z AUTO 35005KT 9SM CLR 27/17 A3008 RMK AO2",2025-09-16 22:42:06.21245,2025-09-16 18:42:06.212495
"KBOW","Bartow Muni, FL, US",2025-09-16 22:15:00,"2025-09-16 18:15:00",NA,25,23,120,12,17,NA,1017.4,"METAR KBOW 162215Z AUTO 12012G17KT VCTS 25/23 A3004 RMK AO2 LTG DSNT ALQDS PWINO",2025-09-16 22:42:06.21906,2025-09-16 18:42:06.219103
"KBDN","Bend Muni, OR, US",2025-09-16 22:15:00,"2025-09-16 22:15:00","VFR",28,2,320,6,NA,NA,1019.7,"METAR KBDN 162215Z AUTO 32006KT 10SM CLR 28/02 A3011 RMK AO2",2025-09-16 22:42:06.225516,2025-09-16 18:42:06.225559
"KAVK","Alva Muni, OK, US",2025-09-16 22:15:00,"2025-09-16 22:15:00","VFR",NA,NA,160,11,NA,NA,1017.7,"METAR KAVK 162215Z AUTO 16011KT 10SM CLR A3005 RMK A01",2025-09-16 22:42:06.232059,2025-09-16 18:42:06.232103
"KBFA","Boyne Falls Arpt, MI, US",2025-09-16 22:15:00,"2025-09-16 22:15:00","VFR",26,16,340,5,NA,NA,1022.1,"METAR KBFA 162215Z AUTO 34005KT 10SM CLR 26/16 A3018 RMK AO2",2025-09-16 22:42:06.238616,2025-09-16 18:42:06.238661
"KBGF","Winchester Muni, TN, US",2025-09-16 22:15:00,"2025-09-16 22:15:00","VFR",28,17,NA,NA,NA,NA,1018.7,"METAR KBGF 162215Z AUTO 10SM CLR 28/17 A3008 RMK A01",2025-09-16 22:42:06.245185,2025-09-16 18:42:06.24523
"KAXS","Altus/Quartz Mtn Rgnl, OK, US",2025-09-16 22:15:00,"2025-09-16 17:15:00","VFR",34,13,220,8,NA,NA,1017.4,"METAR KAXS 162215Z AUTO 22008KT 10SM CLR 34/13 A3004 RMK AO2",2025-09-16 22:42:06.251635,2025-09-16 18:42:06.251679
"KBQP","Morehouse Mem Arpt, LA, US",2025-09-16 22:10:00,"2025-09-16 22:10:00",NA,23.5,22,0,0,NA,NA,1016.3,"METAR KBQP 162210Z AUTO 00000KT 24/22 A3001 RMK AO2 T02350220 PWINO",2025-09-16 22:42:06.25808,2025-09-16 18:42:06.258123
"KBJC","Rocky Mtn Metro, CO, US",2025-09-16 21:59:00,"2025-09-16 15:59:00","VFR",21,4,210,4,NA,NA,1024.5,"METAR KBJC 162159Z 21004KT 10SM BKN060 OVC110 21/04 A3025 RMK TSB2110Z FREQ LTGCGCCIC S-NW TS MOV E",2025-09-16 22:42:06.264617,2025-09-16 18:42:06.264662
"KBLM","Farmingdale/Monmouth Exec, NJ, US",2025-09-16 21:56:00,"2025-09-16 17:56:00","VFR",19.4,14.4,50,14,18,NA,1022.1,"METAR KBLM 162156Z AUTO 05014G18KT 10SM CLR 19/14 A3018 RMK AO2 SLP220 T01940144",2025-09-16 22:42:06.271125,2025-09-16 18:42:06.271169
"KAWO","Arlington Muni, WA, US",2025-09-16 21:56:00,"2025-09-16 21:56:00","VFR",31.1,12.2,NA,4,NA,9,1014.6,"METAR KAWO 162156Z AUTO VRB04KT 9SM CLR 31/12 A2996 RMK AO2 SLP149 T03110122",2025-09-16 22:42:06.277662,2025-09-16 18:42:06.277707
"KBIH","Bishop Rgnl, CA, US",2025-09-16 21:56:00,"2025-09-16 14:56:00","VFR",32.8,1.1,160,13,22,NA,1018,"METAR KBIH 162156Z AUTO 16013G22KT 10SM CLR 33/01 A3006 RMK AO2 SLP133 T03280011",2025-09-16 22:42:06.284187,2025-09-16 18:42:06.284235
"KBHB","Bar Harbor/Hancock Cnty, ME, US",2025-09-16 21:56:00,"2025-09-16 17:56:00","VFR",19.4,12.2,220,4,NA,NA,1024.8,"METAR KBHB 162156Z AUTO 22004KT 10SM CLR 19/12 A3026 RMK AO2 SLP247 T01940122",2025-09-16 22:42:06.290767,2025-09-16 18:42:06.290829
"KBOK","Brookings/State Arpt, OR, US",2025-09-16 21:56:00,"2025-09-16 14:56:00","VFR",22.8,13.9,170,5,NA,7,1015.7,"METAR KBOK 162156Z AUTO 17005KT 7SM CLR 23/14 A2999 RMK AO2 SLP152 T02280139",2025-09-16 22:42:06.297255,2025-09-16 18:42:06.297299
"KBTP","Pittsburgh/Butler Rgnl, PA, US",2025-09-16 21:56:00,"2025-09-16 17:56:00","VFR",26.1,11.1,60,3,NA,NA,1021.1,"METAR KBTP 162156Z AUTO 06003KT 10SM CLR 26/11 A3015 RMK AO2 SLP211 T02610111",2025-09-16 22:42:06.303783,2025-09-16 18:42:06.303849
"KBMI","Bloomington Rgnl, IL, US",2025-09-16 21:56:00,"2025-09-16 16:56:00","VFR",31.1,12.8,70,7,NA,NA,1020.4,"METAR KBMI 162156Z 07007KT 10SM CLR 31/13 A3013 RMK AO2 SLP197 T03110128",2025-09-16 22:42:06.310301,2025-09-16 18:42:06.310346
"KAUO","Auburn Univ Arpt, AL, US",2025-09-16 21:56:00,"2025-09-16 16:56:00","VFR",29.4,15.6,130,4,NA,NA,1018.7,"METAR KAUO 162156Z AUTO 13004KT 10SM OVC070 29/16 A3008 RMK AO2 SLP175 T02940156 $",2025-09-16 22:42:06.31679,2025-09-16 18:42:06.316856
"KBID","Block Island Arpt, RI, US",2025-09-16 21:56:00,"2025-09-16 17:56:00","VFR",17.8,13.9,80,9,NA,NA,1023.8,"METAR KBID 162156Z AUTO 08009KT 10SM CLR 18/14 A3023 RMK AO2 SLP236 T01780139 PNO $",2025-09-16 22:42:06.323345,2025-09-16 18:42:06.32339
"KBJJ","Wooster/Wayne Cnty, OH, US",2025-09-16 21:56:00,"2025-09-16 17:56:00","VFR",27.2,12.2,90,4,NA,NA,1020.7,"METAR KBJJ 162156Z AUTO 09004KT 10SM CLR 27/12 A3014 RMK AO2 SLP202 T02720122",2025-09-16 22:42:06.342259,2025-09-16 18:42:06.342308
"KBIX","Biloxi/Keesler AFB, MS, US",2025-09-16 21:55:00,"2025-09-16 16:55:00","VFR",30.8,19.1,150,8,NA,NA,1016.3,"METAR KBIX 162155Z AUTO 15008KT 10SM CLR 31/19 A3001 RMK AO2 SLP165 T03080191",2025-09-16 22:42:06.349698,2025-09-16 18:42:06.349746
"KBAB","Beale AFB, CA, US",2025-09-16 21:55:00,"2025-09-16 14:55:00","VFR",35.5,8.3,310,5,NA,NA,1012.6,"METAR KBAB 162155Z AUTO 31005KT 10SM CLR 36/08 A2990 RMK AO2 SLP127 T03550083 $",2025-09-16 22:42:06.356449,2025-09-16 18:42:06.356494
"KBIF","Biggs(AAF), TX, US",2025-09-16 21:55:00,"2025-09-16 15:55:00","VFR",31.7,10.4,100,17,NA,NA,1018.4,"METAR KBIF 162155Z AUTO 10017KT 10SM FEW120 32/10 A3007 RMK AO2 LTG DSNT SE SLP113 T03170104 $",2025-09-16 22:42:06.362909,2025-09-16 18:42:06.362957
"KBKT","Blackstone/Perkinson(AAF), VA, US",2025-09-16 21:55:00,"2025-09-16 17:55:00","IFR",16.7,15.9,350,11,16,6,1019,"METAR KBKT 162155Z AUTO 35011G16KT 6SM -RA BR OVC007 17/16 A3009 RMK AO2 SLP191 P0002 T01670159",2025-09-16 22:42:06.369363,2025-09-16 18:42:06.369406
"KBLV","Belleville/Scott AFB, IL, US",2025-09-16 21:55:00,"2025-09-16 16:55:00","VFR",33.5,14,40,6,NA,NA,1017.4,"METAR KBLV 162155Z AUTO 04006KT 10SM CLR 34/14 A3004 RMK AO2 SLP171 T03350140",2025-09-16 22:42:06.375991,2025-09-16 18:42:06.376036
"KBAD","Barksdale AFB, LA, US",2025-09-16 21:55:00,"2025-09-16 16:55:00","VFR",35.4,17.6,340,3,NA,NA,1016.3,"METAR KBAD 162155Z AUTO 34003KT 10SM CLR 35/18 A3001 RMK AO2 SLP164 T03540176 CHINO RWY15 $",2025-09-16 22:42:06.382558,2025-09-16 18:42:06.382602
"KAVL","Asheville Muni, NC, US",2025-09-16 21:54:00,"2025-09-16 17:54:00","VFR",21.7,15.6,330,9,16,NA,1021.4,"METAR KAVL 162154Z 33009G16KT 10SM OVC100 22/16 A3016 RMK AO2 SLP192 T02170156",2025-09-16 22:42:06.389219,2025-09-16 18:42:06.389272
"KBTV","Burlington Intl, VT, US",2025-09-16 21:54:00,"2025-09-16 17:54:00","VFR",23.9,13.3,360,4,NA,NA,1023.1,"METAR KBTV 162154Z 36004KT 10SM FEW250 24/13 A3021 RMK AO2 SLP230 T02390133",2025-09-16 22:42:06.395754,2025-09-16 18:42:06.395814
"KAVP","Wilkes-Barre Scranton Intl, PA, US",2025-09-16 21:54:00,"2025-09-16 17:54:00","VFR",22.8,12.2,NA,6,14,NA,1022.1,"METAR KAVP 162154Z VRB06G14KT 10SM CLR 23/12 A3018 RMK AO2 SLP215 T02280122",2025-09-16 22:42:06.402316,2025-09-16 18:42:06.402361
"KBFL","Bakersfield/Meadows Arpt, CA, US",2025-09-16 21:54:00,"2025-09-16 14:54:00","VFR",37.2,11.1,290,11,NA,NA,1011.3,"METAR KBFL 162154Z 29011KT 10SM CLR 37/11 A2986 RMK AO2 SLP104 T03720111",2025-09-16 22:42:06.408815,2025-09-16 18:42:06.408865
"KBOS","Boston/Logan Intl, MA, US",2025-09-16 21:54:00,"2025-09-16 17:54:00","VFR",18.3,13.3,60,7,NA,NA,1024.8,"METAR KBOS 162154Z 06007KT 10SM SCT160 SCT220 BKN250 18/13 A3026 RMK AO2 SLP246 T01830133",2025-09-16 22:42:06.41526,2025-09-16 18:42:06.415304
"KAUW","Wausau Downtown, WI, US",2025-09-16 21:54:00,"2025-09-16 16:54:00","VFR",28.3,17.2,190,6,NA,NA,1021.1,"METAR KAUW 162154Z AUTO 19006KT 10SM CLR 28/17 A3015 RMK AO2 SLP209 T02830172",2025-09-16 22:42:06.421787,2025-09-16 18:42:06.421852
"KBRD","Brainerd/Lakes Rgnl, MN, US",2025-09-16 21:53:00,"2025-09-16 16:53:00","VFR",28.9,17.8,260,10,NA,NA,1018,"METAR KBRD 162153Z AUTO 26010KT 10SM CLR 29/18 A3006 RMK AO2 SLP173 T02890178 $",2025-09-16 22:42:06.428264,2025-09-16 18:42:06.428309
"KBOI","Boise Arpt, ID, US",2025-09-16 21:53:00,"2025-09-16 15:53:00","VFR",26.7,3.3,NA,3,NA,NA,1021.8,"METAR KBOI 162153Z VRB03KT 10SM CLR 27/03 A3017 RMK AO2 SLP198 T02670033",2025-09-16 22:42:06.434781,2025-09-16 18:42:06.434845
"KBGM","Binghamton Arpt, NY, US",2025-09-16 21:53:00,"2025-09-16 17:53:00","VFR",22.8,11.7,60,5,NA,NA,1022.8,"METAR KBGM 162153Z 06005KT 10SM CLR 23/12 A3020 RMK AO2 SLP222 T02280117",2025-09-16 22:42:06.441275,2025-09-16 18:42:06.441321
"KBFF","Scottsbluff/Western Nebraska Rgnl, NE, US",2025-09-16 21:53:00,"2025-09-16 15:53:00","VFR",19.4,11.1,50,9,NA,NA,1021.8,"METAR KBFF 162153Z AUTO 05009KT 10SM CLR 19/11 A3017 RMK AO2 SLP189 T01940111",2025-09-16 22:42:06.447715,2025-09-16 18:42:06.44776
"KBPI","Big Piney Arpt, WY, US",2025-09-16 21:53:00,"2025-09-16 15:53:00","VFR",17.2,-2.8,10,5,NA,NA,1026.2,"METAR KBPI 162153Z AUTO 01005KT 10SM BKN085 OVC110 17/M03 A3030 RMK AO2 SLP204 T01721028",2025-09-16 22:42:06.45431,2025-09-16 18:42:06.454356
"KBKV","Brooksville-Tampa Bay Rgnl, FL, US",2025-09-16 21:53:00,"2025-09-16 21:53:00","VFR",30.6,19.4,340,7,NA,NA,1016.7,"METAR KBKV 162153Z 34007KT 10SM BKN055 BKN070 31/19 A3002 RMK AO2 SLP164 T03060194",2025-09-16 22:42:06.460744,2025-09-16 18:42:06.460789
"KBNA","Nashville Intl, TN, US",2025-09-16 21:53:00,"2025-09-16 16:53:00","VFR",25.6,18.3,270,4,NA,NA,1018.4,"METAR KBNA 162153Z 27004KT 10SM FEW040 BKN075 BKN120 BKN250 26/18 A3007 RMK AO2 RAB37E50 SLP177 P0002 T02560183 $",2025-09-16 22:42:06.467223,2025-09-16 18:42:06.467268
"KBPT","Beaumont/SE Texas Rgnl, TX, US",2025-09-16 21:53:00,"2025-09-16 16:53:00","VFR",33.9,18.9,130,6,NA,NA,1016.3,"METAR KBPT 162153Z 13006KT 10SM SCT064 34/19 A3001 RMK AO2 SLP162 T03390189",2025-09-16 22:42:06.48733,2025-09-16 18:42:06.487389
"KBRL","Burlington/SE Iowa Rgnl, IA, US",2025-09-16 21:53:00,"2025-09-16 16:53:00","VFR",32.2,16.1,40,5,NA,NA,1019.4,"METAR KBRL 162153Z AUTO 04005KT 10SM CLR 32/16 A3010 RMK AO2 SLP186 T03220161",2025-09-16 22:42:06.494288,2025-09-16 18:42:06.494331
"KAZO","Kalamazoo Intl, MI, US",2025-09-16 21:53:00,"2025-09-16 17:53:00","VFR",26.7,11.7,NA,5,NA,NA,1021.8,"METAR KAZO 162153Z VRB05KT 10SM CLR 27/12 A3017 RMK AO2 SLP216 T02670117",2025-09-16 22:42:06.500902,2025-09-16 18:42:06.500948
"KBMG","Bloomington/Monroe Cnty, IN, US",2025-09-16 21:53:00,"2025-09-16 17:53:00","VFR",30.6,13.3,330,3,NA,NA,1019.4,"METAR KBMG 162153Z 33003KT 10SM CLR 31/13 A3010 RMK AO2 SLP185 T03060133",2025-09-16 22:42:06.507469,2025-09-16 18:42:06.507513
"KBDE","Baudette Intl, MN, US",2025-09-16 21:53:00,"2025-09-16 16:53:00","VFR",26.7,15,250,10,NA,NA,1016.7,"METAR KBDE 162153Z AUTO 25010KT 10SM CLR 27/15 A3002 RMK AO2 SLP165 T02670150",2025-09-16 22:42:06.514026,2025-09-16 18:42:06.514073
"KBGR","Bangor Intl Arpt, ME, US",2025-09-16 21:53:00,"2025-09-16 17:53:00","VFR",21.7,11.1,310,3,NA,NA,1024.5,"METAR KBGR 162153Z 31003KT 10SM FEW250 22/11 A3025 RMK AO2 SLP240 T02170111 $",2025-09-16 22:42:06.52056,2025-09-16 18:42:06.520606
"KBLI","Bellingham Intl, WA, US",2025-09-16 21:53:00,"2025-09-16 14:53:00","VFR",25.6,15,260,3,NA,NA,1015,"METAR KBLI 162153Z 26003KT 10SM CLR 26/15 A2997 RMK AO2 SLP154 T02560150",2025-09-16 22:42:06.527021,2025-09-16 18:42:06.527066
"KBTR","Baton Rouge/Ryan Fld, LA, US",2025-09-16 21:53:00,"2025-09-16 16:53:00","VFR",28.3,20,310,6,NA,NA,1017,"METAR KBTR 162153Z 31006KT 10SM BKN060 28/20 A3003 RMK AO2 LTG DSNT SW SLP167 T02830200",2025-09-16 22:42:06.533478,2025-09-16 18:42:06.533522
"KBRO","Brownsville Intl, TX, US",2025-09-16 21:53:00,"2025-09-16 16:53:00","VFR",32.8,21.1,40,10,NA,NA,1015,"METAR KBRO 162153Z 04010KT 10SM CLR 33/21 A2997 RMK AO2 SLP148 T03280211",2025-09-16 22:42:06.539969,2025-09-16 18:42:06.540016
"KBKL","Cleveland/Burke Lakefront Arpt, OH, US",2025-09-16 21:53:00,"2025-09-16 17:53:00","VFR",22.2,17.2,20,10,NA,NA,1020.7,"METAR KBKL 162153Z 02010KT 10SM CLR 22/17 A3014 RMK AO2 SLP204 T02220172",2025-09-16 22:42:06.546443,2025-09-16 18:42:06.546488
"KBTL","Battle Creek/Kellogg Fld Arpt, MI, US",2025-09-16 21:53:00,"2025-09-16 17:53:00","VFR",26.1,11.1,40,5,NA,NA,1022.1,"METAR KBTL 162153Z 04005KT 10SM CLR 26/11 A3018 RMK AO2 SLP215 T02610111",2025-09-16 22:42:06.552929,2025-09-16 18:42:06.552974
"KBIL","Billings/Logan Intl, MT, US",2025-09-16 21:53:00,"2025-09-16 15:53:00","VFR",19.4,10,350,8,NA,NA,1025.1,"METAR KBIL 162153Z 35008KT 10SM BKN036 19/10 A3027 RMK AO2 SLP236 OCNL LTG DSNT NW-N CB SHRA DSNT E-S W-N T01940100",2025-09-16 22:42:06.559425,2025-09-16 18:42:06.55947
"KBTM","Butte/Mooney Arpt, MT, US",2025-09-16 21:53:00,"2025-09-16 15:53:00","MVFR",11.7,8.3,210,10,NA,4,1029.2,"METAR KBTM 162153Z AUTO 21010KT 4SM -RA BKN042 BKN049 OVC060 12/08 A3039 RMK AO2 RAB26 SLP270 P0001 T01170083",2025-09-16 22:42:06.565864,2025-09-16 18:42:06.56591
"KBPK","Mountain Home/Baxter Cnty, AR, US",2025-09-16 21:53:00,"2025-09-16 16:53:00","VFR",32.8,12.2,100,5,NA,NA,1017.7,"METAR KBPK 162153Z AUTO 10005KT 10SM CLR 33/12 A3005 RMK AO2 SLP166 T03280122 PWINO",2025-09-16 22:42:06.572329,2025-09-16 18:42:06.572374
"KBKE","Baker Muni, OR, US",2025-09-16 21:53:00,"2025-09-16 14:53:00","VFR",25,7.2,280,7,NA,NA,1022.8,"METAR KBKE 162153Z AUTO 28007KT 10SM CLR 25/07 A3020 RMK AO2 SLP215 T02500072",2025-09-16 22:42:06.578905,2025-09-16 18:42:06.57895
"KBIV","Holland/Tulip City Arpt, MI, US",2025-09-16 21:53:00,"2025-09-16 21:53:00","VFR",24.4,12.2,310,8,NA,NA,1022.1,"METAR KBIV 162153Z AUTO 31008KT 10SM CLR 24/12 A3018 RMK AO2 SLP218 T02440122",2025-09-16 22:42:06.585528,2025-09-16 18:42:06.585573
"KBFI","Seattle/Boeing Fld, WA, US",2025-09-16 21:53:00,"2025-09-16 14:53:00","VFR",30,10.6,NA,5,NA,NA,1014,"METAR KBFI 162153Z VRB05KT 10SM CLR 30/11 A2994 RMK AO2 SLP138 T03000106",2025-09-16 22:42:06.592177,2025-09-16 18:42:06.592223
"KBHM","Birmingham Intl, AL, US",2025-09-16 21:53:00,"2025-09-16 16:53:00","VFR",32.2,12.8,10,5,NA,NA,1018.7,"METAR KBHM 162153Z 01005KT 10SM FEW050 BKN120 32/13 A3008 RMK AO2 SLP176 T03220128",2025-09-16 22:42:06.598749,2025-09-16 18:42:06.598794
"KBAF","Westfield/Barnes Muni, MA, US",2025-09-16 21:53:00,"2025-09-16 17:53:00","VFR",21.7,10.6,90,4,NA,NA,1023.5,"METAR KBAF 162153Z 09004KT 10SM CLR 22/11 A3022 RMK AO2 SLP233 T02170106",2025-09-16 22:42:06.605311,2025-09-16 18:42:06.605356
"KBMQ","Burnet Muni, TX, US",2025-09-16 21:53:00,"2025-09-16 21:53:00","VFR",32.2,12.8,120,4,NA,NA,1019,"METAR KBMQ 162153Z AUTO 12004KT 10SM CLR 32/13 A3009 RMK AO2 SLP170 T03220128",2025-09-16 22:42:06.624646,2025-09-16 18:42:06.624697
"KBNO","Burns Muni, OR, US",2025-09-16 21:53:00,"2025-09-16 14:53:00","VFR",25,0,110,11,22,NA,1023.1,"METAR KBNO 162153Z AUTO 11011G22KT 080V150 10SM CLR 25/00 A3021 RMK AO2 SLP209 T02500000",2025-09-16 22:42:06.631598,2025-09-16 18:42:06.631643
"KAUS","Austin/Bergstrom Intl, TX, US",2025-09-16 21:53:00,"2025-09-16 16:53:00","VFR",33.3,14.4,90,9,NA,NA,1016.7,"METAR KAUS 162153Z 09009KT 10SM SCT090 BKN110 BKN250 33/14 A3002 RMK AO2 SLP156 T03330144",2025-09-16 22:42:06.638043,2025-09-16 18:42:06.638086
"KBBW","Broken Bow Muni, NE, US",2025-09-16 21:53:00,"2025-09-16 16:53:00","VFR",28.9,16.7,110,11,19,NA,1018.4,"METAR KBBW 162153Z AUTO 11011G19KT 10SM -RA CLR 29/17 A3007 RMK AO2 RAB15 SLP165 P0000 T02890167",2025-09-16 22:42:06.644525,2025-09-16 18:42:06.64457
"KBEH","Benton Harbor/SW Michigan Rgnl, MI, US",2025-09-16 21:53:00,"2025-09-16 17:53:00","VFR",23.3,14.4,360,3,NA,NA,1021.8,"METAR KBEH 162153Z AUTO 36003KT 10SM CLR 23/14 A3017 RMK AO2 SLP215 T02330144",2025-09-16 22:42:06.651008,2025-09-16 18:42:06.651055
"KBFD","Bradford Rgnl, PA, US",2025-09-16 21:53:00,"2025-09-16 17:53:00","VFR",24.4,9.4,70,6,NA,NA,1022.4,"METAR KBFD 162153Z AUTO 07006KT 10SM CLR 24/09 A3019 RMK AO2 SLP215 T02440094",2025-09-16 22:42:06.657495,2025-09-16 18:42:06.657539
"KBFM","Mobile/Downtown Arpt, AL, US",2025-09-16 21:53:00,"2025-09-16 16:53:00","VFR",30,17.8,180,7,NA,NA,1017.7,"METAR KBFM 162153Z 18007KT 10SM CLR 30/18 A3005 RMK AO2 SLP175 T03000178",2025-09-16 22:42:06.663963,2025-09-16 18:42:06.664007
"KBCE","Bryce Canyon Arpt, UT, US",2025-09-16 21:53:00,"2025-09-16 15:53:00","VFR",23.3,-2.8,320,15,25,NA,1027.2,"METAR KBCE 162153Z AUTO 32015G25KT 10SM CLR 23/M03 A3033 RMK AO2 PK WND 30028/2134 SLP175 T02331028",2025-09-16 22:42:06.670423,2025-09-16 18:42:06.670468
"KAXN","Alexandria/Chandler Fld, MN, US",2025-09-16 21:53:00,"2025-09-16 16:53:00","VFR",27.2,18.9,220,7,NA,NA,1019,"METAR KAXN 162153Z AUTO 22007KT 10SM CLR 27/19 A3009 RMK AO2 SLP184 T02720189",2025-09-16 22:42:06.676942,2025-09-16 18:42:06.676988
"KASX","Ashland/Kennedy Mem Arpt, WI, US",2025-09-16 21:53:00,"2025-09-16 16:53:00","VFR",28.9,19.4,170,7,NA,NA,1018,"METAR KASX 162153Z AUTO 17007KT 10SM CLR 29/19 A3006 RMK AO2 SLP177 T02890194 $",2025-09-16 22:42:06.683624,2025-09-16 18:42:06.68367
"KATY","Watertown Rgnl, SD, US",2025-09-16 21:53:00,"2025-09-16 16:53:00","VFR",26.7,16.7,230,4,NA,NA,1019,"METAR KATY 162153Z AUTO 23004KT 10SM CLR 27/17 A3009 RMK AO2 SLP181 T02670167",2025-09-16 22:42:06.69033,2025-09-16 18:42:06.690375
"KAUG","Augusta/State Arpt, ME, US",2025-09-16 21:53:00,"2025-09-16 17:53:00","VFR",23.3,13.3,NA,3,NA,NA,1024.5,"METAR KAUG 162153Z AUTO VRB03KT 10SM CLR 23/13 A3025 RMK AO2 SLP245 T02330133 PWINO $",2025-09-16 22:42:06.696989,2025-09-16 18:42:06.697036
"KATL","Atlanta/Hartsfield-Jackson Intl, GA, US",2025-09-16 21:52:00,"2025-09-16 17:52:00","VFR",29.4,13.9,10,5,NA,NA,1019,"METAR KATL 162152Z 01005KT 10SM FEW060 SCT120 SCT250 29/14 A3009 RMK AO2 SLP179 OCNL LTGICCG DSNT SW-W CB DSNT S SW-W MOV S T02940139 $",2025-09-16 22:42:06.70371,2025-09-16 18:42:06.703757
"KBML","Berlin Muni, NH, US",2025-09-16 21:52:00,"2025-09-16 17:52:00","VFR",23.3,10.6,150,5,NA,NA,1024.1,"METAR KBML 162152Z AUTO 15005KT 10SM CLR 23/11 A3024 RMK AO2 SLP244 T02330106 $",2025-09-16 22:42:06.710454,2025-09-16 18:42:06.710503
"KBLF","Bluefield/Mercer Cnty, WV, US",2025-09-16 21:52:00,"2025-09-16 17:52:00","VFR",18.3,9.4,0,0,NA,NA,1022.8,"METAR KBLF 162152Z AUTO 00000KT 10SM OVC100 18/09 A3020 RMK AO2 SLP200 T01830094",2025-09-16 22:42:06.717002,2025-09-16 18:42:06.717047
"KBDR","Bridgeport/Sikorsky Mem, CT, US",2025-09-16 21:52:00,"2025-09-16 17:52:00","VFR",21.7,14.4,90,12,NA,NA,1023.1,"METAR KBDR 162152Z 09012KT 10SM CLR 22/14 A3021 RMK AO2 SLP229 T02170144 $",2025-09-16 22:42:06.723495,2025-09-16 18:42:06.723541
"KBLH","Blythe Arpt, CA, US",2025-09-16 21:52:00,"2025-09-16 14:52:00","VFR",40,7.2,NA,6,NA,NA,1010.2,"METAR KBLH 162152Z AUTO VRB06KT 10SM FEW110 40/07 A2983 RMK AO2 SLP092 T04000072",2025-09-16 22:42:06.730069,2025-09-16 18:42:06.730114
"KBIS","Bismarck Arpt, ND, US",2025-09-16 21:52:00,"2025-09-16 16:52:00","VFR",27.8,12.8,200,3,NA,NA,1020.4,"METAR KBIS 162152Z AUTO 20003KT 10SM CLR 28/13 A3013 RMK AO2 SLP194 T02780128",2025-09-16 22:42:06.736575,2025-09-16 18:42:06.73662
"KBLU","Blue Canyon/Nyack Arpt, CA, US",2025-09-16 21:52:00,"2025-09-16 14:52:00","VFR",25,2.8,180,7,17,NA,1024.1,"METAR KBLU 162152Z AUTO 18007G17KT 150V210 10SM CLR 25/03 A3024 RMK AO2 SLP140 T02500028 TSNO",2025-09-16 22:42:06.743149,2025-09-16 18:42:06.743194
"KBAZ","New Braunfels Muni, TX, US",2025-09-16 21:51:00,"2025-09-16 21:51:00","VFR",33.9,13.3,150,4,NA,NA,1016.7,"METAR KBAZ 162151Z COR 15004KT 10SM CLR 34/13 A3002 RMK AO2 SLP156 T03390133",2025-09-16 22:42:06.763247,2025-09-16 18:42:06.763294
"KAVX","Avalon/Catalina Arpt, CA, US",2025-09-16 21:51:00,"2025-09-16 14:51:00","VFR",28.9,10,260,6,NA,NA,1015.7,"METAR KAVX 162151Z AUTO 26006KT 10SM CLR 29/10 A2999 RMK AO2 SLP120 T02890100 $",2025-09-16 22:42:06.770282,2025-09-16 18:42:06.770326
"KBGD","Borger/Hutchinson Cnty, TX, US",2025-09-16 21:51:00,"2025-09-16 16:51:00","VFR",31.1,11.7,160,13,24,NA,1019,"METAR KBGD 162151Z AUTO 16013G24KT 10SM SCT080 BKN095 31/12 A3009 RMK AO2 SLP149 T03110117",2025-09-16 22:42:06.776749,2025-09-16 18:42:06.776794
"KBED","Bedford/Hanscom Fld, MA, US",2025-09-16 21:51:00,"2025-09-16 17:51:00","VFR",19.4,7.2,100,6,NA,NA,1024.5,"METAR KBED 162151Z 10006KT 10SM CLR 19/07 A3025 RMK AO2 SLP255 T01940072",2025-09-16 22:42:06.78334,2025-09-16 18:42:06.783386
"KBHK","Baker Muni, MT, US",2025-09-16 21:51:00,"2025-09-16 21:51:00","VFR",23.3,10.6,220,8,NA,NA,1023.5,"METAR KBHK 162151Z AUTO 22008KT 10SM BKN055 OVC110 23/11 A3022 RMK AO2 SLP219 T02330106",2025-09-16 22:42:06.789898,2025-09-16 18:42:06.789954
"KBDL","Hartford/Bradley Intl, CT, US",2025-09-16 21:51:00,"2025-09-16 17:51:00","VFR",22.2,10,100,8,NA,NA,1023.5,"METAR KBDL 162151Z 10008KT 10SM FEW120 FEW180 BKN220 BKN250 22/10 A3022 RMK AO2 SLP233 T02220100 $",2025-09-16 22:42:06.79644,2025-09-16 18:42:06.796486
"KBKW","Beckley/Raleigh Cnty, WV, US",2025-09-16 21:51:00,"2025-09-16 17:51:00","VFR",20.6,8.3,50,3,NA,NA,1022.1,"METAR KBKW 162151Z AUTO 05003KT 10SM CLR 21/08 A3018 RMK AO2 SLP198 T02060083",2025-09-16 22:42:06.802964,2025-09-16 18:42:06.80301
"KBAK","Columbus Muni, IN, US",2025-09-16 21:45:00,"2025-09-16 17:45:00","VFR",30,10,320,5,NA,NA,1019,"METAR KBAK 162145Z 32005KT 10SM CLR 30/10 A3009",2025-09-16 22:42:06.809456,2025-09-16 18:42:06.8095
"KBBG","Branson Arpt, MO, US",2025-09-16 21:45:00,"2025-09-16 16:45:00","VFR",26,18,0,0,NA,NA,1019.7,"METAR KBBG 162145Z 00000KT 10SM BKN045 26/18 A3011",2025-09-16 22:42:06.815979,2025-09-16 18:42:06.816026
"KATW","Appleton/Outagamie Cnty, WI, US",2025-09-16 21:45:00,"2025-09-16 16:45:00","VFR",29,15,NA,5,NA,NA,1021.8,"METAR KATW 162145Z VRB05KT 10SM CLR 29/15 A3017",2025-09-16 22:42:06.82253,2025-09-16 18:42:06.822577
"KCHO","Charlottesville/Albemarle Arpt, VA, US",2025-09-16 22:38:00,"2025-09-16 18:38:00","VFR",15.6,12.8,360,6,NA,NA,1021.1,"SPECI KCHO 162238Z 36006KT 10SM -RA SCT027 SCT033 OVC060 16/13 A3015 RMK AO2 P0001 T01560128 $",2025-09-16 22:42:08.830394,2025-09-16 18:42:08.830439
"KBXK","Buckeye Muni, AZ, US",2025-09-16 22:35:00,"2025-09-16 15:35:00","VFR",39,10,NA,5,NA,NA,1010.2,"METAR KBXK 162235Z AUTO VRB05KT 10SM CLR 39/10 A2983 RMK AO2",2025-09-16 22:42:08.837168,2025-09-16 18:42:08.837212
"KCCA","Clinton Muni, AR, US",2025-09-16 22:35:00,"2025-09-16 22:35:00","VFR",35,14,NA,4,NA,NA,1016.3,"METAR KCCA 162235Z AUTO VRB04KT 10SM CLR 35/14 A3001 RMK AO2",2025-09-16 22:42:08.843846,2025-09-16 18:42:08.843893
"KCHK","Chickasha Muni, OK, US",2025-09-16 22:35:00,"2025-09-16 17:35:00","VFR",33.5,15.7,160,8,NA,NA,1017,"METAR KCHK 162235Z AUTO 16008KT 10SM CLR 33/16 A3003 RMK AO2 LTG DSNT SW T03350157",2025-09-16 22:42:08.850298,2025-09-16 18:42:08.850343
"KCKF","Cordele/Crisp Cnty, GA, US",2025-09-16 22:35:00,"2025-09-16 22:35:00","VFR",29.9,14.4,40,4,NA,NA,1019,"METAR KCKF 162235Z AUTO 04004KT 10SM CLR 30/14 A3009 RMK AO2 T02990144",2025-09-16 22:42:08.869723,2025-09-16 18:42:08.869771
"KCCO","Newnan/Coweta Cnty, GA, US",2025-09-16 22:35:00,"2025-09-16 22:35:00","VFR",27.5,15.3,320,5,NA,NA,1020.1,"METAR KCCO 162235Z AUTO 32005KT 10SM CLR 28/15 A3012 RMK AO2 T02750153",2025-09-16 22:42:08.876927,2025-09-16 18:42:08.876972
"KCAD","Cadillac/Wexford Cnty, MI, US",2025-09-16 22:35:00,"2025-09-16 18:35:00","VFR",26,12,110,7,NA,NA,1022.1,"METAR KCAD 162235Z AUTO 11007KT 10SM CLR 26/12 A3018 RMK AO2",2025-09-16 22:42:08.883359,2025-09-16 18:42:08.883404
"KCBG","Cambridge Muni, MN, US",2025-09-16 22:35:00,"2025-09-16 22:35:00","VFR",31,18.6,NA,5,NA,NA,1017.7,"METAR KCBG 162235Z AUTO VRB05KT 10SM CLR 31/19 A3005 RMK AO2 T03100186",2025-09-16 22:42:08.890029,2025-09-16 18:42:08.890075
"KCFE","Buffalo Muni, MN, US",2025-09-16 22:35:00,"2025-09-16 22:35:00","VFR",32,20,270,4,NA,NA,1017.4,"METAR KCFE 162235Z AUTO 27004KT 10SM CLR 32/20 A3004 RMK AO2",2025-09-16 22:42:08.896531,2025-09-16 18:42:08.896575
"KCFJ","Crawfordsville Muni, IN, US",2025-09-16 22:35:00,"2025-09-16 22:35:00","VFR",26,6.8,30,4,NA,NA,1020.4,"METAR KCFJ 162235Z AUTO 03004KT 10SM CLR 26/07 A3013 RMK AO2 T02600068",2025-09-16 22:42:08.903089,2025-09-16 18:42:08.903134
"KCKC","Grand Marais Muni, MN, US",2025-09-16 22:35:00,"2025-09-16 17:35:00","VFR",23,18,0,0,NA,NA,1019,"METAR KCKC 162235Z AUTO 00000KT 10SM CLR 23/18 A3009 RMK AO2",2025-09-16 22:42:08.90952,2025-09-16 18:42:08.909565
"KCMR","Williams/Clark Fld, AZ, US",2025-09-16 22:35:00,"2025-09-16 22:35:00","VFR",27,-2,280,16,NA,NA,1025.1,"METAR KCMR 162235Z AUTO 28016KT 10SM CLR 27/M02 A3027 RMK AO2",2025-09-16 22:42:08.91595,2025-09-16 18:42:08.915995
"KCNB","Canby Muni, MN, US",2025-09-16 22:35:00,"2025-09-16 22:35:00","VFR",30.6,16.2,350,3,NA,NA,1018.4,"METAR KCNB 162235Z AUTO 35003KT 10SM CLR 31/16 A3007 RMK AO2 T03060162",2025-09-16 22:42:08.922439,2025-09-16 18:42:08.922484
"KCFS","Tuscola Area Arpt, MI, US",2025-09-16 22:35:00,"2025-09-16 18:35:00","VFR",24,12,80,5,NA,NA,1022.1,"METAR KCFS 162235Z AUTO 08005KT 10SM CLR 24/12 A3018 RMK AO2",2025-09-16 22:42:08.928852,2025-09-16 18:42:08.928899
"KCKZ","Perkasie/Pennridge Arpt, PA, US",2025-09-16 22:35:00,"2025-09-16 22:35:00","VFR",20,13,50,7,NA,NA,1021.8,"METAR KCKZ 162235Z AUTO 05007KT 10SM CLR 20/13 A3017 RMK AO2",2025-09-16 22:42:08.935308,2025-09-16 18:42:08.935354
"KCLS","Chehalis-Centralia Arpt, WA, US",2025-09-16 22:35:00,"2025-09-16 15:35:00","VFR",33,4,160,8,NA,9,1013.3,"METAR KCLS 162235Z AUTO 16008KT 9SM CLR 33/04 A2992 RMK AO2",2025-09-16 22:42:08.941698,2025-09-16 18:42:08.94174
"KBYY","Bay City Muni, TX, US",2025-09-16 22:35:00,"2025-09-16 17:35:00","VFR",31.4,21.2,110,8,NA,NA,1016,"METAR KBYY 162235Z AUTO 11008KT 10SM CLR 31/21 A3000 RMK AO2 T03140212",2025-09-16 22:42:08.94818,2025-09-16 18:42:08.948226
"KBVS","Burlington/Skagit Rgnl, WA, US",2025-09-16 22:35:00,"2025-09-16 15:35:00","VFR",27,15,NA,4,NA,NA,1014.6,"METAR KBVS 162235Z AUTO VRB04KT 10SM CLR 27/15 A2996 RMK A01",2025-09-16 22:42:08.954796,2025-09-16 18:42:08.95487
"KC09","Morris Muni, IL, US",2025-09-16 22:35:00,"2025-09-16 22:35:00","VFR",28.3,14.6,80,7,NA,NA,1020.4,"METAR KC09 162235Z AUTO 08007KT 10SM CLR 28/15 A3013 RMK AO2 T02830146",2025-09-16 22:42:08.961343,2025-09-16 18:42:08.961388
"KCDH","Camden/Harrell Fld, AR, US",2025-09-16 22:35:00,"2025-09-16 17:35:00","VFR",24,20,310,3,NA,9,1016.3,"METAR KCDH 162235Z AUTO 31003KT 9SM -DZ CLR 24/20 A3001 RMK AO2",2025-09-16 22:42:08.967858,2025-09-16 18:42:08.967905
"KBXA","Bogalusa/Carr Arfld, LA, US",2025-09-16 22:35:00,"2025-09-16 17:35:00","VFR",26.6,23.6,0,0,NA,NA,1017.4,"METAR KBXA 162235Z AUTO 00000KT 10SM SCT120 27/24 A3004 RMK AO2 T02660236",2025-09-16 22:42:08.974313,2025-09-16 18:42:08.974359
"KBVN","Albion Muni, NE, US",2025-09-16 22:35:00,"2025-09-16 22:35:00","VFR",29.7,18.7,150,6,NA,NA,1018.7,"METAR KBVN 162235Z AUTO 15006KT 10SM CLR 30/19 A3008 RMK AO2 T02970187",2025-09-16 22:42:08.980795,2025-09-16 18:42:08.98086
"KCDI","Cambridg Muni, OH, US",2025-09-16 22:35:00,"2025-09-16 22:35:00","VFR",27.9,10.6,60,5,NA,NA,1020.1,"METAR KCDI 162235Z AUTO 06005KT 10SM SCT080 28/11 A3012 RMK AO2 T02790106",2025-09-16 22:42:08.987307,2025-09-16 18:42:08.987354
"KCGC","Crystal River Arpt, FL, US",2025-09-16 22:35:00,"2025-09-16 22:35:00","VFR",NA,NA,20,4,NA,NA,1017,"METAR KCGC 162235Z AUTO 02004KT 10SM SCT055 SCT065 A3003 RMK AO2",2025-09-16 22:42:09.006382,2025-09-16 18:42:09.00643
"KCKM","Clarksdale/Fletcher Fld, MS, US",2025-09-16 22:35:00,"2025-09-16 17:35:00",NA,NA,NA,90,5,NA,NA,1016.3,"METAR KCKM 162235Z AUTO 09005KT 10SM A3001 RMK A01",2025-09-16 22:42:09.013365,2025-09-16 18:42:09.013409
"KCLW","Clearwater Air Park, FL, US",2025-09-16 22:35:00,"2025-09-16 18:35:00","VFR",28,20,340,8,NA,NA,1016.7,"METAR KCLW 162235Z AUTO 34008KT 10SM SCT055 SCT075 28/20 A3002 RMK AO2",2025-09-16 22:42:09.020068,2025-09-16 18:42:09.020112
"KC62","Kendallville Muni, IN, US",2025-09-16 22:35:00,"2025-09-16 22:35:00","VFR",26.1,12.9,40,5,NA,NA,1021.4,"METAR KC62 162235Z AUTO 04005KT 10SM CLR 26/12 A3016 RMK AO2 T02610129",2025-09-16 22:42:09.026511,2025-09-16 18:42:09.026555
"KBXM","Brunswick Exec, ME, US",2025-09-16 22:35:00,"2025-09-16 18:35:00","VFR",18,16,190,4,NA,NA,1025.5,"METAR KBXM 162235Z AUTO 19004KT 10SM CLR 18/16 A3028 RMK AO2",2025-09-16 22:42:09.032986,2025-09-16 18:42:09.03303
"KBWD","Brownwood Muni, TX, US",2025-09-16 22:35:00,"2025-09-16 17:35:00","VFR",33.5,12.7,130,9,NA,NA,1018,"METAR KBWD 162235Z AUTO 13009KT 10SM FEW085 34/13 A3006 RMK AO2 T03350127 $",2025-09-16 22:42:09.03955,2025-09-16 18:42:09.039595
"KCBK","Colby/Shaltz Fld, KS, US",2025-09-16 22:35:00,"2025-09-16 17:35:00","VFR",30.6,12.8,150,21,28,NA,1016.3,"METAR KCBK 162235Z AUTO 15021G28KT 10SM OVC090 31/13 A3001 RMK AO2 T03060128",2025-09-16 22:42:09.046006,2025-09-16 18:42:09.046052
"KCFD","Bryan/Coulter Fld, TX, US",2025-09-16 22:35:00,"2025-09-16 17:35:00","VFR",33.7,16.9,80,6,NA,NA,1017.7,"METAR KCFD 162235Z AUTO 08006KT 10SM CLR 34/17 A3005 RMK AO2 T03370169",2025-09-16 22:42:09.052386,2025-09-16 18:42:09.052432
"KCJR","Culpeper Rgnl, VA, US",2025-09-16 22:35:00,"2025-09-16 22:35:00","VFR",16.8,14,360,5,NA,NA,1021.4,"METAR KCJR 162235Z AUTO 36005KT 10SM -RA OVC044 17/14 A3016 RMK AO2 LTG DSNT SE T01680140",2025-09-16 22:42:09.058786,2025-09-16 18:42:09.058851
"KC29","Middleton Muni, WI, US",2025-09-16 22:35:00,"2025-09-16 22:35:00","VFR",28.6,11.3,70,4,NA,NA,1021.4,"METAR KC29 162235Z AUTO 07004KT 10SM CLR 29/11 A3016 RMK AO1 T02860113",2025-09-16 22:42:09.065305,2025-09-16 18:42:09.06535
"KCCY","Charles City/NE Iowa Rgnl, IA, US",2025-09-16 22:35:00,"2025-09-16 17:35:00","VFR",26,19,280,17,26,NA,1020.4,"METAR KCCY 162235Z AUTO 28017G26KT 10SM FEW055 SCT075 SCT120 26/19 A3013 RMK AO2",2025-09-16 22:42:09.071708,2025-09-16 18:42:09.071755
"KCDN","Camden/Woodward Fld, SC, US",2025-09-16 22:35:00,"2025-09-16 18:35:00","VFR",27,13,10,7,NA,NA,1018.4,"METAR KCDN 162235Z AUTO 01007KT 10SM CLR 27/13 A3007 RMK AO2",2025-09-16 22:42:09.078193,2025-09-16 18:42:09.078237
"KCKI","Kingstree/Williamsburg Rgnl, SC, US",2025-09-16 22:35:00,"2025-09-16 22:35:00","VFR",26,10,0,0,NA,NA,1017.7,"METAR KCKI 162235Z AUTO 00000KT 10SM CLR 26/10 A3005 RMK AO2",2025-09-16 22:42:09.084664,2025-09-16 18:42:09.084709
"KCKN","Crookston Muni, MN, US",2025-09-16 22:35:00,"2025-09-16 17:35:00","VFR",28,17,280,8,NA,NA,1017.7,"METAR KCKN 162235Z AUTO 28008KT 10SM CLR 28/17 A3005 RMK AO2",2025-09-16 22:42:09.091172,2025-09-16 18:42:09.091218
"KCMD","Culman Rgnl, AL, US",2025-09-16 22:35:00,"2025-09-16 22:35:00","VFR",30,14,0,0,NA,NA,1018.7,"METAR KCMD 162235Z AUTO 00000KT 10SM FEW110 30/14 A3008 RMK AO2",2025-09-16 22:42:09.097655,2025-09-16 18:42:09.097699
"KBUU","Burlington Muni, WI, US",2025-09-16 22:35:00,"2025-09-16 22:35:00","VFR",25.6,13.2,110,6,NA,NA,1021.8,"METAR KBUU 162235Z AUTO 11006KT 10SM CLR 26/13 A3017 RMK AO2 T02560132 PWINO",2025-09-16 22:42:09.104243,2025-09-16 18:42:09.104288
"KBWP","Breckenridge-Wahpeton/Stern Arpt, ND, US",2025-09-16 22:35:00,"2025-09-16 17:35:00","VFR",29,14,340,9,NA,NA,1017.7,"METAR KBWP 162235Z AUTO 34009KT 10SM CLR 29/14 A3005 RMK AO2",2025-09-16 22:42:09.110719,2025-09-16 18:42:09.110764
"KC75","Lacon/Marshall Cnty, IL, US",2025-09-16 22:35:00,"2025-09-16 22:35:00","VFR",30.4,10.6,30,3,NA,NA,1019.7,"METAR KC75 162235Z AUTO 03003KT 10SM CLR 30/11 A3011 RMK AO2 T03040106",2025-09-16 22:42:09.1172,2025-09-16 18:42:09.117245
"KCIN","Carroll/Neu Arpt, IA, US",2025-09-16 22:35:00,"2025-09-16 17:35:00","VFR",30,18,170,7,NA,9,1018.7,"METAR KCIN 162235Z AUTO 17007KT 9SM CLR 30/18 A3008 RMK AO2",2025-09-16 22:42:09.123627,2025-09-16 18:42:09.123671
"KBWW","Bowman Rgnl, ND, US",2025-09-16 22:35:00,"2025-09-16 16:35:00","VFR",24,12,230,15,NA,NA,1022.8,"METAR KBWW 162235Z AUTO 23015KT 10SM BKN065 BKN075 24/12 A3020 RMK AO2",2025-09-16 22:42:09.143214,2025-09-16 18:42:09.143263
"KC35","Reedsburg Muni, WI, US",2025-09-16 22:35:00,"2025-09-16 22:35:00","VFR",29.3,16.7,0,0,NA,NA,1020.7,"METAR KC35 162235Z AUTO 00000KT 10SM CLR 29/17 A3014 RMK AO2 T02930167 PWINO",2025-09-16 22:42:09.150166,2025-09-16 18:42:09.15021
"KCBF","Council Bluffs Muni, IA, US",2025-09-16 22:35:00,"2025-09-16 17:35:00","VFR",30,19,130,4,NA,NA,1018,"METAR KCBF 162235Z AUTO 13004KT 10SM CLR 30/19 A3006 RMK AO2",2025-09-16 22:42:09.15659,2025-09-16 18:42:09.156634
"KC65","Plymouth Muni, IN, US",2025-09-16 22:35:00,"2025-09-16 18:35:00","VFR",22,17,0,0,NA,NA,1021.1,"METAR KC65 162235Z AUTO 00000KT 10SM CLR 22/17 A3015 RMK A01",2025-09-16 22:42:09.163034,2025-09-16 18:42:09.16308
"KCAV","Clarion Muni, IA, US",2025-09-16 22:35:00,"2025-09-16 22:35:00","VFR",26,18,20,7,NA,NA,1020.1,"METAR KCAV 162235Z AUTO 02007KT 10SM CLR 26/18 A3012 RMK A01",2025-09-16 22:42:09.169535,2025-09-16 18:42:09.16958
"KCIR","Cairo Rgnl, IL, US",2025-09-16 22:35:00,"2025-09-16 17:35:00","VFR",33.8,17.1,0,0,NA,NA,1017.4,"METAR KCIR 162235Z AUTO 00000KT 10SM CLR 34/17 A3004 RMK AO2 T03380171",2025-09-16 22:42:09.176091,2025-09-16 18:42:09.176135
"KCKP","Cherokee Cnty, IA, US",2025-09-16 22:35:00,"2025-09-16 22:35:00","VFR",28,20,190,3,NA,NA,1018.4,"METAR KCKP 162235Z AUTO 19003KT 10SM CLR 28/20 A3007 RMK AO2 LTG DSNT NE AND SE",2025-09-16 22:42:09.182523,2025-09-16 18:42:09.182569
"KCLI","Clintonville Muni, WI, US",2025-09-16 22:35:00,"2025-09-16 17:35:00","VFR",28,15.8,180,5,NA,NA,1021.4,"METAR KCLI 162235Z AUTO 18005KT 10SM CLR 28/16 A3016 RMK AO2 T02800158",2025-09-16 22:42:09.189051,2025-09-16 18:42:09.189097
"KCBE","Cumberland Arpt, MD, US",2025-09-16 22:35:00,"2025-09-16 18:35:00","VFR",24.3,10.9,120,7,NA,NA,1022.1,"METAR KCBE 162235Z AUTO 12007KT 090V160 10SM OVC080 24/11 A3018 RMK AO2 T02430109",2025-09-16 22:42:09.195494,2025-09-16 18:42:09.19554
"KCGE","Cambridge/Dorchester Rgnl, MD, US",2025-09-16 22:35:00,"2025-09-16 18:35:00","MVFR",17,16,10,11,NA,NA,1018,"METAR KCGE 162235Z AUTO 01011KT 10SM BKN014 BKN021 OVC028 17/16 A3006 RMK A01",2025-09-16 22:42:09.20198,2025-09-16 18:42:09.202026
"KCGS","College Park Arpt, MD, US",2025-09-16 22:35:00,"2025-09-16 18:35:00","VFR",16.3,13.9,350,6,NA,NA,1020.4,"METAR KCGS 162235Z AUTO 35006KT 10SM OVC046 16/14 A3013 RMK AO2 T01630139",2025-09-16 22:42:09.20865,2025-09-16 18:42:09.208695
"KCLK","Clinton Rgnl, OK, US",2025-09-16 22:35:00,"2025-09-16 17:35:00","VFR",31,13,150,11,16,NA,1018.7,"METAR KCLK 162235Z AUTO 15011G16KT 10SM CLR 31/13 A3008 RMK AO2",2025-09-16 22:42:09.215276,2025-09-16 18:42:09.215322
"KCIU","Chippewa Cnty Intl, MI, US",2025-09-16 22:17:00,"2025-09-16 18:17:00","VFR",24,14,190,4,NA,NA,1022.8,"SPECI KCIU 162217Z AUTO 19004KT 10SM FEW002 24/14 A3020 RMK AO2",2025-09-16 22:42:09.221835,2025-09-16 18:42:09.221883
"KC08","Westcliffe/Silver West Arpt, CO, US",2025-09-16 22:15:00,"2025-09-16 22:15:00","VFR",18,0,10,11,21,NA,1027.9,"METAR KC08 162215Z AUTO 01011G21KT 10SM BKN100 18/M00 A3035 RMK AO2 LTG DSNT E-SW",2025-09-16 22:42:09.228362,2025-09-16 18:42:09.228406
"KC83","Byron Arpt, CA, US",2025-09-16 22:15:00,"2025-09-16 22:15:00","VFR",34,11,NA,4,NA,9,1012.6,"METAR KC83 162215Z AUTO VRB04KT 9SM CLR 34/11 A2990 RMK AO2",2025-09-16 22:42:09.234916,2025-09-16 18:42:09.23496
"KCCB","Upland/Cable Arpt, CA, US",2025-09-16 22:15:00,"2025-09-16 15:15:00","VFR",35,13,250,10,NA,NA,1013.6,"METAR KCCB 162215Z AUTO 25010KT 10SM CLR 35/13 A2993 RMK AO2",2025-09-16 22:42:09.241485,2025-09-16 18:42:09.241531
"KCEY","Murray/Oakley Fld, KY, US",2025-09-16 22:15:00,"2025-09-16 17:15:00","VFR",33,16,310,4,NA,NA,1017.4,"METAR KCEY 162215Z AUTO 31004KT 10SM SCT080 BKN120 33/16 A3004 RMK A01",2025-09-16 22:42:09.247996,2025-09-16 18:42:09.248042
"KCEC","Crescent City/McNama, CA, US",2025-09-16 21:56:00,"2025-09-16 14:56:00","VFR",20,15.6,200,6,NA,NA,1015.3,"METAR KCEC 162156Z AUTO 20006KT 10SM CLR 20/16 A2998 RMK AO2 SLP153 T02000156",2025-09-16 22:42:09.254459,2025-09-16 18:42:09.254503
"KBZN","Bozeman/Gallatin Fld, MT, US",2025-09-16 21:56:00,"2025-09-16 15:56:00","VFR",16.7,8.9,NA,5,NA,NA,1027.5,"METAR KBZN 162156Z VRB05KT 10SM BKN070 BKN110 17/09 A3034 RMK AO2 SLP258 T01670089",2025-09-16 22:42:09.260992,2025-09-16 18:42:09.261036
"KCIC","Chico Muni, CA, US",2025-09-16 21:56:00,"2025-09-16 14:56:00","VFR",34,7,180,7,NA,NA,1013.6,"METAR KCIC 162156Z 18007KT 10SM CLR 34/07 A2993",2025-09-16 22:42:09.280483,2025-09-16 18:42:09.280532
"KBVX","Batesville Rgnl, AR, US",2025-09-16 21:56:00,"2025-09-16 16:56:00","MVFR",35,17.8,60,7,NA,3,1017,"METAR KBVX 162156Z AUTO 06007KT 020V090 3SM HZ CLR 35/18 A3003 RMK AO2 SLP166 T03500178",2025-09-16 22:42:09.287483,2025-09-16 18:42:09.287526
"KCGZ","Casa Granda Muni, AZ, US",2025-09-16 21:56:00,"2025-09-16 14:56:00","VFR",37.8,11.1,300,8,NA,NA,1011.9,"METAR KCGZ 162156Z AUTO 30008KT 10SM CLR 38/11 A2988 RMK AO2 SLP100 T03780111 $",2025-09-16 22:42:09.29396,2025-09-16 18:42:09.294005
"KCHS","Charleston Intl, SC, US",2025-09-16 21:56:00,"2025-09-16 17:56:00","VFR",27.8,12.8,340,6,NA,NA,1017.7,"METAR KCHS 162156Z 34006KT 10SM FEW250 28/13 A3005 RMK AO2 SLP176 T02780128",2025-09-16 22:42:09.300496,2025-09-16 18:42:09.300544
"KCAE","Columbia Metro, SC, US",2025-09-16 21:56:00,"2025-09-16 17:56:00","VFR",27.2,13.3,290,8,NA,NA,1018,"METAR KCAE 162156Z 29008KT 10SM BKN120 27/13 A3006 RMK AO2 SLP177 T02720133",2025-09-16 22:42:09.307066,2025-09-16 18:42:09.307112
"KCBM","Columbus AFB, MS, US",2025-09-16 21:55:00,"2025-09-16 16:55:00","VFR",34.1,15.5,0,0,NA,NA,1015.3,"METAR KCBM 162155Z 00000KT 10SM SCT070 34/16 A2998 RMK AO2A LTG DSNT W SLP152 T03410155 $",2025-09-16 22:42:09.313644,2025-09-16 18:42:09.313689
"KCMA","Camarillo Arpt, CA, US",2025-09-16 21:55:00,"2025-09-16 21:55:00","VFR",27.8,15,250,7,NA,NA,1013,"METAR KCMA 162155Z 25007KT 10SM CLR 28/15 A2991 RMK AO2 SLP134 T02780150",2025-09-16 22:42:09.320157,2025-09-16 18:42:09.320203
"KCMY","Sparta/Ft McCoy Arpt, WI, US",2025-09-16 21:55:00,"2025-09-16 16:55:00","VFR",30.1,19.1,0,0,NA,NA,1019.7,"METAR KCMY 162155Z AUTO 00000KT 10SM CLR 30/19 A3011 RMK AO2 SLP195 T03010191",2025-09-16 22:42:09.326613,2025-09-16 18:42:09.326657
"KBYS","Bicycle Lake (AAF), CA, US",2025-09-16 21:55:00,"2025-09-16 14:55:00","VFR",35.3,5.6,180,6,NA,NA,1014.6,"METAR KBYS 162155Z AUTO 18006KT 10SM CLR 35/06 A2996 RMK AO2 SLP116 T03530056 $",2025-09-16 22:42:09.333151,2025-09-16 18:42:09.333197
"KCAO","Clayton Muni, NM, US",2025-09-16 21:55:00,"2025-09-16 15:55:00","VFR",28.3,10,180,17,26,NA,1021.1,"METAR KCAO 162155Z AUTO 18017G26KT 10SM FEW110 28/10 A3015 RMK AO2 PK WND 19027/2136 SLP141 T02830100",2025-09-16 22:42:09.339628,2025-09-16 18:42:09.339674
"KCEF","Chicopee/Westover AFB, MA, US",2025-09-16 21:55:00,"2025-09-16 17:55:00","VFR",21.7,10.2,80,3,NA,NA,1022.4,"METAR KCEF 162155Z 08003KT 10SM BKN120 BKN180 OVC250 22/10 A3019 RMK AO2A SLP226 T02170102",2025-09-16 22:42:09.346203,2025-09-16 18:42:09.346248
"KBWI","Baltimore-Washington Intl, MD, US",2025-09-16 21:54:00,"2025-09-16 17:54:00","VFR",16.1,14.4,340,8,NA,9,1020.1,"METAR KBWI 162154Z 34008KT 9SM -RA FEW030 BKN050 OVC090 16/14 A3012 RMK AO2 SLP199 P0017 T01610144 $",2025-09-16 22:42:09.352644,2025-09-16 18:42:09.352688
"KCAR","Caribou Muni, ME, US",2025-09-16 21:54:00,"2025-09-16 17:54:00","VFR",21.1,11.1,0,0,NA,NA,1024.5,"METAR KCAR 162154Z AUTO 00000KT 10SM CLR 21/11 A3025 RMK AO2 SLP247 T02110111",2025-09-16 22:42:09.359329,2025-09-16 18:42:09.359375
"KCEU","Clemson/Oconee Cnty, SC, US",2025-09-16 21:54:00,"2025-09-16 17:54:00","VFR",21.7,17.8,0,0,NA,NA,1020.1,"METAR KCEU 162154Z AUTO 00000KT 10SM FEW060 FEW090 SCT110 22/18 A3012 RMK AO2 SLP191 T02170178",2025-09-16 22:42:09.366065,2025-09-16 18:42:09.366111
"KBUF","Buffalo-Niagara Intl, NY, US",2025-09-16 21:54:00,"2025-09-16 17:54:00","VFR",25,13.3,50,12,18,NA,1021.8,"METAR KBUF 162154Z 05012G18KT 10SM FEW060 FEW290 25/13 A3017 RMK AO2 SLP216 T02500133",2025-09-16 22:42:09.372863,2025-09-16 18:42:09.372911
"KBUY","Burlington/Alamance Rgnl, NC, US",2025-09-16 21:54:00,"2025-09-16 21:54:00",NA,21.7,10.6,360,8,NA,NA,1019.7,"METAR KBUY 162154Z AUTO 36008KT OVC055 22/11 A3011 RMK AO2 SLP192 T02170106",2025-09-16 22:42:09.379392,2025-09-16 18:42:09.379437
"KCEW","Crestview/Sikes Arpt, FL, US",2025-09-16 21:53:00,"2025-09-16 16:53:00","VFR",32.8,12.2,0,0,NA,NA,1018,"METAR KCEW 162153Z AUTO 00000KT 10SM BKN080 33/12 A3006 RMK AO2 SLP177 T03280122",2025-09-16 22:42:09.386046,2025-09-16 18:42:09.386093
"KCMX","Houghton Cnty Mem, MI, US",2025-09-16 21:53:00,"2025-09-16 17:53:00","VFR",27.2,18.9,120,4,NA,NA,1019,"METAR KCMX 162153Z AUTO 12004KT 10SM CLR 27/19 A3009 RMK AO2 SLP185 T02720189",2025-09-16 22:42:09.392638,2025-09-16 18:42:09.392684
"KCLL","College Station/Easterwood Arpt, TX, US",2025-09-16 21:53:00,"2025-09-16 16:53:00","VFR",33.9,16.7,NA,3,NA,NA,1017,"METAR KCLL 162153Z VRB03KT 10SM CLR 34/17 A3003 RMK AO2 SLP164 T03390167",2025-09-16 22:42:09.399333,2025-09-16 18:42:09.399379
"KBVO","Bartlesville Muni, OK, US",2025-09-16 21:53:00,"2025-09-16 16:53:00","VFR",33.3,17.8,100,5,NA,NA,1018.4,"METAR KBVO 162153Z AUTO 10005KT 10SM CLR 33/18 A3007 RMK AO2 SLP170 T03330178",2025-09-16 22:42:09.418796,2025-09-16 18:42:09.418865
"KBYG","Buffalo/Johnson Cnty, WY, US",2025-09-16 21:53:00,"2025-09-16 15:53:00","VFR",16.7,6.1,320,3,NA,NA,1025.5,"METAR KBYG 162153Z AUTO 32003KT 10SM SCT047 OVC060 17/06 A3028 RMK AO2 SLP223 T01670061",2025-09-16 22:42:09.425904,2025-09-16 18:42:09.425949
"KCEZ","Cortez/Montezuma Cnt, CO, US",2025-09-16 21:53:00,"2025-09-16 15:53:00","VFR",27.2,-2.2,230,11,22,NA,1022.4,"METAR KCEZ 162153Z AUTO 23011G22KT 10SM CLR 27/M02 A3019 RMK AO2 SLP154 T02721022",2025-09-16 22:42:09.432415,2025-09-16 18:42:09.432459
"KCDW","Caldwell/Essex Cnty, NJ, US",2025-09-16 21:53:00,"2025-09-16 17:53:00","VFR",21.1,12.2,90,8,NA,NA,1022.8,"METAR KCDW 162153Z 09008KT 10SM CLR 21/12 A3020 RMK AO2 SLP232 T02110122",2025-09-16 22:42:09.439038,2025-09-16 18:42:09.439084
"KCDS","Childress Muni, TX, US",2025-09-16 21:53:00,"2025-09-16 16:53:00","VFR",32.2,14.4,170,6,NA,NA,1018.7,"METAR KCDS 162153Z AUTO 17006KT 10SM CLR 32/14 A3008 RMK AO2 SLP160 T03220144",2025-09-16 22:42:09.445639,2025-09-16 18:42:09.445685
"KBUR","Burbank/Bob Hope Arpt, CA, US",2025-09-16 21:53:00,"2025-09-16 14:53:00","VFR",35,13.9,170,5,NA,NA,1013,"METAR KBUR 162153Z 17005KT 10SM CLR 35/14 A2991 RMK AO2 SLP113 T03500139",2025-09-16 22:42:09.452232,2025-09-16 18:42:09.452277
"KBVY","Beverly Muni, MA, US",2025-09-16 21:53:00,"2025-09-16 17:53:00","VFR",18.3,10,110,3,NA,NA,1024.8,"METAR KBVY 162153Z 11003KT 10SM CLR 18/10 A3026 RMK AO2 SLP241 T01830100",2025-09-16 22:42:09.458918,2025-09-16 18:42:09.458963
"KCKB","Clarksburg/NC West Virginia Arpt, WV, US",2025-09-16 21:53:00,"2025-09-16 17:53:00","VFR",24.4,9.4,60,8,NA,NA,1020.7,"METAR KCKB 162153Z AUTO 06008KT 10SM FEW060 SCT075 24/09 A3014 RMK AO2 SLPNO T02440094",2025-09-16 22:42:09.465563,2025-09-16 18:42:09.46561
"KCAG","Craig-Moffat Arpt, CO, US",2025-09-16 21:53:00,"2025-09-16 15:53:00","VFR",20,2.2,340,11,17,NA,1024.8,"METAR KCAG 162153Z AUTO 34011G17KT 10SM SCT070 20/02 A3026 RMK AO2 SLP193 T02000022",2025-09-16 22:42:09.472276,2025-09-16 18:42:09.472322
"KBYI","Burley Muni, ID, US",2025-09-16 21:53:00,"2025-09-16 15:53:00","VFR",22.8,3.9,40,5,NA,NA,1023.8,"METAR KBYI 162153Z AUTO 04005KT 10SM CLR 23/04 A3023 RMK AO2 SLP210 T02280039",2025-09-16 22:42:09.478935,2025-09-16 18:42:09.478981
"KBWG","Bowling Green/Warren Cnty, KY, US",2025-09-16 21:53:00,"2025-09-16 16:53:00","VFR",32.8,14.4,50,11,17,NA,1017.4,"METAR KBWG 162153Z AUTO 05011G17KT 10SM FEW075 33/14 A3004 RMK AO2 SLP167 T03280144",2025-09-16 22:42:09.485529,2025-09-16 18:42:09.485574
"KCDR","Chadron Muni, NE, US",2025-09-16 21:53:00,"2025-09-16 15:53:00","VFR",15.6,12.8,NA,3,NA,NA,1022.4,"METAR KCDR 162153Z AUTO VRB03KT 10SM CLR 16/13 A3019 RMK AO2 SLP215 T01560128",2025-09-16 22:42:09.49218,2025-09-16 18:42:09.492226
"KCGI","Cape Girardeau Rgnl, MO, US",2025-09-16 21:53:00,"2025-09-16 16:53:00","VFR",33.3,15,360,4,NA,NA,1017,"METAR KCGI 162153Z 36004KT 10SM FEW075 33/15 A3003 RMK AO2 SLP164 T03330150 $",2025-09-16 22:42:09.498731,2025-09-16 18:42:09.498778
"KCHA","Chattanooga Metro, TN, US",2025-09-16 21:53:00,"2025-09-16 17:53:00","VFR",29.4,15,NA,4,NA,NA,1018.4,"METAR KCHA 162153Z VRB04KT 10SM FEW055 SCT130 SCT250 29/15 A3007 RMK AO2 SLP175 T02940150 $",2025-09-16 22:42:09.505442,2025-09-16 18:42:09.505486
"KCMI","Champaign/Willard Arpt, IL, US",2025-09-16 21:53:00,"2025-09-16 16:53:00","VFR",31.7,11.1,50,4,NA,NA,1019.7,"METAR KCMI 162153Z 05004KT 10SM CLR 32/11 A3011 RMK AO2 SLP192 T03170111",2025-09-16 22:42:09.512023,2025-09-16 18:42:09.51207
"KCCR","Concord/Buchanan Fld, CA, US",2025-09-16 21:53:00,"2025-09-16 14:53:00","VFR",32.8,11.7,320,8,NA,NA,1012.6,"METAR KCCR 162153Z 32008KT 10SM CLR 33/12 A2990 RMK AO2 SLP113 T03280117",2025-09-16 22:42:09.518614,2025-09-16 18:42:09.518658
"KCLM","Port Angeles Intl, WA, US",2025-09-16 21:53:00,"2025-09-16 14:53:00","VFR",21.7,11.7,70,5,NA,NA,1014.6,"METAR KCLM 162153Z AUTO 07005KT 10SM CLR 22/12 A2996 RMK AO2 SLP146 T02170117",2025-09-16 22:42:09.525202,2025-09-16 18:42:09.525246
"KCDC","Cedar City Muni, UT, US",2025-09-16 21:53:00,"2025-09-16 15:53:00","VFR",26.7,-0.6,NA,NA,NA,NA,1022.8,"METAR KCDC 162153Z AUTO 10SM CLR 27/M01 A3020 RMK AO2 SLP158 T02671006",2025-09-16 22:42:09.531713,2025-09-16 18:42:09.531759
"KCLT","Charlotte/Douglas Intl, NC, US",2025-09-16 21:52:00,"2025-09-16 17:52:00","VFR",25,14.4,0,0,NA,NA,1019.4,"METAR KCLT 162152Z 00000KT 10SM FEW050 SCT085 BKN150 BKN250 25/14 A3010 RMK AO2 SLP199 T02500144",2025-09-16 22:42:09.538281,2025-09-16 18:42:09.538326
"KCFV","Coffeyville Muni, KS, US",2025-09-16 21:52:00,"2025-09-16 16:52:00","VFR",32.8,17.8,140,6,NA,NA,1018,"METAR KCFV 162152Z AUTO 14006KT 10SM CLR 33/18 A3006 RMK AO2 LTG DSNT NE SLP171 T03280178",2025-09-16 22:42:09.557512,2025-09-16 18:42:09.557561
"KCID","Cedar Rapids/E Iowa Arpt, IA, US",2025-09-16 21:52:00,"2025-09-16 16:52:00","VFR",31.1,15.6,150,5,NA,NA,1019.7,"METAR KCID 162152Z 15005KT 10SM CLR 31/16 A3011 RMK AO2 SLP191 T03110156",2025-09-16 22:42:09.564471,2025-09-16 18:42:09.564516
"KCKV","Clarksville/Outlaw Fld, TN, US",2025-09-16 21:52:00,"2025-09-16 16:52:00","VFR",31.7,14.4,20,7,NA,NA,1017.4,"METAR KCKV 162152Z AUTO 02007KT 10SM BKN090 BKN110 32/14 A3004 RMK AO2 LTG DSNT S AND SW SLP166 T03170144",2025-09-16 22:42:09.570998,2025-09-16 18:42:09.571043
"KCAK","Akron/Canton Rgnl, OH, US",2025-09-16 21:51:00,"2025-09-16 17:51:00","VFR",27.8,10.6,NA,3,NA,NA,1020.7,"METAR KCAK 162151Z VRB03KT 10SM FEW070 BKN250 28/11 A3014 RMK AO2 SLP197 T02780106",2025-09-16 22:42:09.577602,2025-09-16 18:42:09.577647
"KCLE","Cleveland/Hopkins Intl, OH, US",2025-09-16 21:51:00,"2025-09-16 17:51:00","VFR",22.8,16.1,10,7,NA,NA,1020.7,"METAR KCLE 162151Z 01007KT 10SM FEW120 SCT250 23/16 A3014 RMK AO2 SLP218 T02280161 $",2025-09-16 22:42:09.584141,2025-09-16 18:42:09.584186
"KCMH","Columbus/Glenn Intl, OH, US",2025-09-16 21:51:00,"2025-09-16 17:51:00","VFR",28.9,10.6,90,3,NA,NA,1019.4,"METAR KCMH 162151Z 09003KT 10SM SCT080 BKN250 29/11 A3010 RMK AO2 SLP187 T02890106",2025-09-16 22:42:09.590734,2025-09-16 18:42:09.59078
"KBVI","Beaver Falls Arpt, PA, US",2025-09-16 21:47:00,"2025-09-16 17:47:00","VFR",28,8,0,0,NA,NA,1021.1,"METAR KBVI 162147Z 00000KT 10SM SCT070 28/08 A3015",2025-09-16 22:42:09.597328,2025-09-16 18:42:09.597373
"KCHD","Chandler Muni, AZ, US",2025-09-16 21:47:00,"2025-09-16 21:47:00","VFR",39,10,290,10,NA,NA,1011.3,"METAR KCHD 162147Z 29010KT 10SM FEW100 SCT150 39/10 A2986",2025-09-16 22:42:09.603855,2025-09-16 18:42:09.603902
"KCGF","Cleveland/Cuyahoga Cnty, OH, US",2025-09-16 21:45:00,"2025-09-16 17:45:00","VFR",25,14,30,6,NA,NA,1021.1,"METAR KCGF 162145Z 03006KT 10SM CLR 25/14 A3015",2025-09-16 22:42:09.61037,2025-09-16 18:42:09.610415
"KCWF","Chenault Intl, LA, US",2025-09-16 22:36:00,"2025-09-16 17:36:00","VFR",27,21,130,6,NA,NA,1016.7,"SPECI KCWF 162236Z 13006KT 10SM SCT065 27/21 A3002 RMK TSE36.",2025-09-16 22:42:11.055562,2025-09-16 18:42:11.055607
"KDKR","Crockett/Houston Cnty, TX, US",2025-09-16 22:35:00,"2025-09-16 22:35:00","VFR",33,17,0,0,NA,NA,1016.7,"METAR KDKR 162235Z AUTO 00000KT 10SM CLR 33/17 A3002 RMK AO2",2025-09-16 22:42:11.062409,2025-09-16 18:42:11.062454
"KCQW","Cheraw Muni, SC, US",2025-09-16 22:35:00,"2025-09-16 18:35:00","VFR",26,11,80,6,NA,NA,1018.4,"METAR KCQW 162235Z AUTO 08006KT 10SM CLR 26/11 A3007 RMK AO2",2025-09-16 22:42:11.06928,2025-09-16 18:42:11.069324
"KDKB","DeKalb/Taylor Muni, IL, US",2025-09-16 22:35:00,"2025-09-16 22:35:00","VFR",27.9,13.6,100,6,NA,NA,1021.4,"METAR KDKB 162235Z AUTO 10006KT 10SM CLR 28/14 A3016 RMK AO2 T02790136",2025-09-16 22:42:11.076002,2025-09-16 18:42:11.076047
"KCVB","Castroville Muni, TX, US",2025-09-16 22:35:00,"2025-09-16 22:35:00","VFR",33,14,120,6,14,NA,1017,"METAR KCVB 162235Z AUTO 12006G14KT 10SM SCT080 SCT100 33/14 A3003 RMK AO2",2025-09-16 22:42:11.09556,2025-09-16 18:42:11.095634
"KD25","Manitowish Waters Arpt, WI, US",2025-09-16 22:35:00,"2025-09-16 22:35:00","VFR",25.9,19.4,170,6,NA,NA,1020.7,"METAR KD25 162235Z AUTO 17006KT 10SM CLR 26/19 A3014 RMK AO2 T02590194",2025-09-16 22:42:11.103116,2025-09-16 18:42:11.103162
"KCTZ","Clinton/Sampson Cnty, NC, US",2025-09-16 22:35:00,"2025-09-16 18:35:00","VFR",20.6,16.9,340,6,NA,NA,1019,"METAR KCTZ 162235Z AUTO 34006KT 10SM OVC055 21/17 A3009 RMK AO2 T02060169",2025-09-16 22:42:11.109908,2025-09-16 18:42:11.109953
"KD09","Bottineau Muni, ND, US",2025-09-16 22:35:00,"2025-09-16 22:35:00","VFR",26,14,320,11,NA,NA,1019.7,"METAR KD09 162235Z AUTO 32011KT 10SM CLR 26/14 A3011 RMK AO2",2025-09-16 22:42:11.116228,2025-09-16 18:42:11.116273
"KCZT","Carrizo Springs Arpt, TX, US",2025-09-16 22:35:00,"2025-09-16 17:35:00","VFR",35,15,NA,NA,NA,NA,1016.7,"METAR KCZT 162235Z AUTO 10SM SCT100 35/15 A3002 RMK AO2",2025-09-16 22:42:11.122661,2025-09-16 18:42:11.122714
"KCTJ","Carrollton/W Georgia Rgnl, GA, US",2025-09-16 22:35:00,"2025-09-16 22:35:00","VFR",27,14.8,340,6,NA,NA,1021.1,"METAR KCTJ 162235Z AUTO 34006KT 10SM SCT065 SCT075 SCT110 27/15 A3015 RMK AO2 T02700148",2025-09-16 22:42:11.129092,2025-09-16 18:42:11.129136
"KCSQ","Creston Muni, IA, US",2025-09-16 22:35:00,"2025-09-16 17:35:00","VFR",24,19,310,3,NA,8,1020.1,"METAR KCSQ 162235Z AUTO 31003KT 8SM -RA FEW070 FEW080 FEW100 24/19 A3012 RMK AO2",2025-09-16 22:42:11.135427,2025-09-16 18:42:11.135471
"KCNC","Chariton Muni, IA, US",2025-09-16 22:35:00,"2025-09-16 22:35:00","VFR",30,20,330,6,NA,NA,1019,"METAR KCNC 162235Z AUTO 33006KT 10SM CLR 30/20 A3009 RMK AO2",2025-09-16 22:42:11.141896,2025-09-16 18:42:11.14195
"KDCM","Chester Muni, SC, US",2025-09-16 22:35:00,"2025-09-16 22:35:00","VFR",22,15,290,3,NA,NA,1019.7,"METAR KDCM 162235Z AUTO 29003KT 10SM CLR 22/15 A3011 RMK AO2",2025-09-16 22:42:11.148361,2025-09-16 18:42:11.148406
"KCPU","San Andreas/Calaveras Cnty, CA, US",2025-09-16 22:35:00,"2025-09-16 22:35:00","VFR",35.2,5.3,300,8,NA,NA,1014.6,"METAR KCPU 162235Z AUTO 30008KT 10SM CLR 35/05 A2996 RMK AO2 T03520053",2025-09-16 22:42:11.154841,2025-09-16 18:42:11.154889
"KCWV","Claxton/Evans Cnty, GA, US",2025-09-16 22:35:00,"2025-09-16 22:35:00","VFR",27,18,NA,NA,NA,NA,1018.4,"METAR KCWV 162235Z AUTO 10SM FEW080 27/18 A3007 RMK AO2",2025-09-16 22:42:11.161288,2025-09-16 18:42:11.161332
"KCXU","Camilla/Mitchell Cnty, GA, US",2025-09-16 22:35:00,"2025-09-16 22:35:00","VFR",30,17,NA,3,NA,NA,1018,"METAR KCXU 162235Z AUTO VRB03KT 10SM FEW080 SCT090 30/17 A3006 RMK AO2",2025-09-16 22:42:11.167797,2025-09-16 18:42:11.167864
"KCPT","Cleburne Muni, TX, US",2025-09-16 22:35:00,"2025-09-16 22:35:00","VFR",33.1,13.2,160,8,NA,NA,1016.3,"METAR KCPT 162235Z AUTO 16008KT 10SM CLR 33/13 A3001 RMK AO2 T03310132 $",2025-09-16 22:42:11.174346,2025-09-16 18:42:11.174391
"KD55","Langdon/Roberts Fld, ND, US",2025-09-16 22:35:00,"2025-09-16 22:35:00","VFR",25,13,300,12,18,NA,1019.4,"METAR KD55 162235Z AUTO 30012G18KT 10SM BKN060 25/13 A3010 RMK AO2",2025-09-16 22:42:11.180965,2025-09-16 18:42:11.181012
"KDCY","Washington/Daviess Cnty, IN, US",2025-09-16 22:35:00,"2025-09-16 22:35:00","VFR",30.1,13.6,40,6,NA,NA,1018.7,"METAR KDCY 162235Z AUTO 04006KT 10SM CLR 30/14 A3008 RMK AO2 T03010136",2025-09-16 22:42:11.187516,2025-09-16 18:42:11.187562
"KCXE","Chase City Muni, VA, US",2025-09-16 22:35:00,"2025-09-16 22:35:00","VFR",16,15.7,330,5,NA,7,1020.1,"METAR KCXE 162235Z AUTO 33005KT 7SM SCT016 BKN080 OVC100 16/16 A3012 RMK AO1 P0002 T01600157",2025-09-16 22:42:11.193986,2025-09-16 18:42:11.19403
"KCSB","Cambridge Muni, NE, US",2025-09-16 22:35:00,"2025-09-16 22:35:00",NA,26,18,70,10,NA,NA,1016,"METAR KCSB 162235Z AUTO 07010KT 10SM VCTS 26/18 A3000 RMK AO2 LTG DSNT ALQDS",2025-09-16 22:42:11.200438,2025-09-16 18:42:11.200483
"KCUH","Cushing Muni, OK, US",2025-09-16 22:35:00,"2025-09-16 17:35:00","VFR",32.7,15.1,170,5,NA,NA,1017.7,"METAR KCUH 162235Z AUTO 17005KT 10SM CLR 33/15 A3005 RMK AO2 T03270151",2025-09-16 22:42:11.207035,2025-09-16 18:42:11.207081
"KCVH","Hollister Muni, CA, US",2025-09-16 22:35:00,"2025-09-16 15:35:00","VFR",29,12,250,19,NA,NA,1013,"METAR KCVH 162235Z AUTO 25019KT 10SM CLR 29/12 A2991 RMK A01",2025-09-16 22:42:11.213518,2025-09-16 18:42:11.213562
"KCPK","Chesapeake Rgnl, VA, US",2025-09-16 22:35:00,"2025-09-16 22:35:00","MVFR",17.2,16.1,310,8,18,NA,1013.6,"METAR KCPK 162235Z AUTO 31008G18KT 280V340 10SM OVC011 17/16 A2993 RMK AO2 LTG DSNT NE T01720161",2025-09-16 22:42:11.231758,2025-09-16 18:42:11.231821
"KD95","Lapeer/Dumont Arpt, MI, US",2025-09-16 22:35:00,"2025-09-16 22:35:00","VFR",25,9,50,3,NA,NA,1022.4,"METAR KD95 162235Z AUTO 05003KT 10SM CLR 25/09 A3019 RMK AO2",2025-09-16 22:42:11.238916,2025-09-16 18:42:11.238963
"KDBN","Dublin/Barron Arpt, GA, US",2025-09-16 22:35:00,"2025-09-16 18:35:00","VFR",28.6,16.1,NA,3,NA,NA,1018.7,"METAR KDBN 162235Z AUTO VRB03KT 10SM CLR 29/16 A3008 RMK AO2 T02860161 $",2025-09-16 22:42:11.245842,2025-09-16 18:42:11.245889
"KCVX","Charlevoix Muni, MI, US",2025-09-16 22:35:00,"2025-09-16 22:35:00","VFR",23,14,330,3,NA,NA,1022.1,"METAR KCVX 162235Z AUTO 33003KT 10SM CLR 23/14 A3018 RMK AO2",2025-09-16 22:42:11.252444,2025-09-16 18:42:11.252489
"KD39","Sauk Center Muni, MN, US",2025-09-16 22:35:00,"2025-09-16 22:35:00","VFR",27.5,18.1,270,5,NA,NA,1018.7,"METAR KD39 162235Z AUTO 27005KT 10SM CLR 28/18 A3008 RMK AO2 T02750181",2025-09-16 22:42:11.259059,2025-09-16 18:42:11.259103
"KD50","Crosby Muni, ND, US",2025-09-16 22:35:00,"2025-09-16 22:35:00","VFR",24,14,320,5,NA,NA,1021.8,"METAR KD50 162235Z AUTO 32005KT 10SM CLR 24/14 A3017 RMK AO2",2025-09-16 22:42:11.265651,2025-09-16 18:42:11.265696
"KD60","Tioga Muni, ND, US",2025-09-16 22:35:00,"2025-09-16 17:35:00","VFR",24,13,350,10,NA,NA,1022.4,"METAR KD60 162235Z AUTO 35010KT 10SM CLR 24/13 A3019 RMK AO2",2025-09-16 22:42:11.272132,2025-09-16 18:42:11.272177
"KD57","Glen Ullin Rgnl, ND, US",2025-09-16 22:35:00,"2025-09-16 22:35:00","VFR",27,11,0,0,NA,NA,1020.1,"METAR KD57 162235Z AUTO 00000KT 10SM FEW070 SCT090 27/11 A3012 RMK AO2",2025-09-16 22:42:11.278621,2025-09-16 18:42:11.278666
"KCWC","Wichita Falls/Kickapoo Arpt, TX, US",2025-09-16 22:35:00,"2025-09-16 17:35:00","VFR",34.1,14.8,140,11,NA,NA,1017.7,"METAR KCWC 162235Z AUTO 14011KT 110V200 10SM CLR 34/15 A3005 RMK AO2 LTG DSNT N T03410148",2025-09-16 22:42:11.285151,2025-09-16 18:42:11.285196
"KCOQ","Cloquet/Carlton Cnty, MN, US",2025-09-16 22:35:00,"2025-09-16 22:35:00","VFR",29,18,NA,NA,NA,NA,1017.4,"METAR KCOQ 162235Z AUTO 10SM CLR 29/18 A3004 RMK AO2 TSNO",2025-09-16 22:42:11.291662,2025-09-16 18:42:11.291706
"KDLL","Baraboo-Dells Arpt, WI, US",2025-09-16 22:35:00,"2025-09-16 22:35:00","VFR",30.9,16.7,130,5,NA,NA,1020.7,"METAR KDLL 162235Z AUTO 13005KT 10SM CLR 31/17 A3014 RMK AO2 T03090167",2025-09-16 22:42:11.298183,2025-09-16 18:42:11.298227
"KCQM","Cook Muni, MN, US",2025-09-16 22:35:00,"2025-09-16 22:35:00","VFR",27,21,NA,6,NA,NA,1017,"METAR KCQM 162235Z AUTO VRB06KT 10SM FEW039 BKN050 27/21 A3003 RMK AO2 LTG DSNT E AND S",2025-09-16 22:42:11.304688,2025-09-16 18:42:11.304733
"KCOM","Coleman Muni, TX, US",2025-09-16 22:35:00,"2025-09-16 17:35:00","VFR",33.4,9.9,170,7,15,NA,1018.7,"METAR KCOM 162235Z AUTO 17007G15KT 10SM CLR 33/10 A3008 RMK AO2 T03340099 PWINO",2025-09-16 22:42:11.311235,2025-09-16 18:42:11.31128
"KCZL","Calhoun/Tom David Fld, GA, US",2025-09-16 22:35:00,"2025-09-16 22:35:00",NA,30,17,10,6,NA,NA,1018.4,"METAR KCZL 162235Z AUTO 01006KT FEW120 30/17 A3007 RMK AO2 PWINO",2025-09-16 22:42:11.317766,2025-09-16 18:42:11.317831
"KDEH","Decorah Muni, IA, US",2025-09-16 22:35:00,"2025-09-16 17:35:00","VFR",27,21,0,0,NA,NA,1020.4,"METAR KDEH 162235Z AUTO 00000KT 10SM CLR 27/21 A3013 RMK AO2",2025-09-16 22:42:11.324287,2025-09-16 18:42:11.324331
"KCTY","Cross City Arpt, FL, US",2025-09-16 22:35:00,"2025-09-16 18:35:00","VFR",30,18,310,2,NA,NA,1017,"METAR KCTY 162235Z AUTO 31002KT 10SM FEW080 30/18 A3003 RMK AO2",2025-09-16 22:42:11.330775,2025-09-16 18:42:11.330841
"KCPC","Whiteville/Columbus Cnty, NC, US",2025-09-16 22:35:00,"2025-09-16 22:35:00","VFR",22.6,14.5,30,4,NA,NA,1019,"METAR KCPC 162235Z AUTO 03004KT 10SM BKN075 23/15 A3009 RMK AO2 T02260145",2025-09-16 22:42:11.337285,2025-09-16 18:42:11.33734
"KCPR","Casper/Natrona Cnty, WY, US",2025-09-16 22:27:00,"2025-09-16 16:27:00","VFR",16.7,7.8,70,18,NA,NA,1024.1,"SPECI KCPR 162227Z 07018KT 10SM VCTS FEW060 OVC085 17/08 A3024 RMK AO2 PK WND 08026/2224 WSHFT 2152 LTG DSNT W RAB17E26 P0000 T01670078",2025-09-16 22:42:11.343749,2025-09-16 18:42:11.343794
"KCSV","Crossville/Whitson Fld, TN, US",2025-09-16 22:21:00,"2025-09-16 17:21:00","VFR",22.8,19.4,NA,NA,NA,8,1021.4,"SPECI KCSV 162221Z AUTO 8SM VCTS -RA FEW044 SCT070 BKN110 23/19 A3016 RMK AO2 LTG DSNT NW-E RAB13 P0000 T02280194",2025-09-16 22:42:11.350249,2025-09-16 18:42:11.350294
"KCSM","Clinton/Sherman Arpt, OK, US",2025-09-16 22:19:00,"2025-09-16 17:19:00","VFR",31.1,15,120,19,NA,NA,1018.7,"SPECI KCSM 162219Z 12019KT 10SM FEW080 31/15 A3008 RMK AO2 WSHFT 2159 T03110150",2025-09-16 22:42:11.368685,2025-09-16 18:42:11.368734
"KCOS","Colorado Spring Arpt, CO, US",2025-09-16 22:19:00,"2025-09-16 16:19:00","VFR",17.8,6.7,330,15,24,NA,1024.5,"SPECI KCOS 162219Z 33015G24KT 10SM FEW070 BKN100 BKN200 18/07 A3025 RMK AO2 WSHFT 2148 RAE05 TSE19 CB DSNT N-SE MOV NE P0000 T01780067",2025-09-16 22:42:11.375833,2025-09-16 18:42:11.375883
"KCXP","Carson City Arpt, NV, US",2025-09-16 22:15:00,"2025-09-16 15:15:00","VFR",29,-1,60,10,NA,NA,1021.4,"METAR KCXP 162215Z AUTO 06010KT 10SM CLR 29/M01 A3016 RMK AO2",2025-09-16 22:42:11.382425,2025-09-16 18:42:11.382469
"KDEN","Denver Intl, CO, US",2025-09-16 22:15:00,"2025-09-16 16:15:00","VFR",22.2,7.2,320,20,28,NA,1022.1,"SPECI KDEN 162215Z 32020G28KT 10SM -TSRA FEW040 SCT065CB BKN120 BKN200 22/07 A3018 RMK AO2 PK WND 32028/2213 WSHFT 2155 RAB2159 TSB2155 CONS LTGICCCCG VC N-E-S TS VC N-E-S MOV NE P0000 T02220072",2025-09-16 22:42:11.38886,2025-09-16 18:42:11.388909
"KDKX","Knoxville/Downtown Aprt, TN, US",2025-09-16 22:15:00,"2025-09-16 22:15:00","VFR",28,18,230,4,NA,NA,1018.4,"METAR KDKX 162215Z AUTO 23004KT 10SM BKN110 28/18 A3007 RMK A01",2025-09-16 22:42:11.395332,2025-09-16 18:42:11.395377
"KDED","Deland Muni, FL, US",2025-09-16 22:15:00,"2025-09-16 22:15:00","VFR",28,18.7,30,10,NA,NA,1018.4,"METAR KDED 162215Z AUTO 03010KT 10SM CLR 28/19 A3007 RMK AO2 T02800187",2025-09-16 22:42:11.401834,2025-09-16 18:42:11.401882
"KCOI","Cocoa/Merritt Isl Arpt, FL, US",2025-09-16 22:15:00,"2025-09-16 18:15:00","LIFR",26,24,360,18,NA,0.5,1017.4,"METAR KCOI 162215Z AUTO 36018KT 1/2SM +RA BR OVC023 26/24 A3004 RMK AO2 LTG DSNT S",2025-09-16 22:42:11.408254,2025-09-16 18:42:11.408297
"KCRX","Corinth/Turner Fld, MS, US",2025-09-16 22:15:00,"2025-09-16 17:15:00","VFR",29,21,0,0,NA,NA,1017.4,"METAR KCRX 162215Z AUTO 00000KT 10SM SCT110 29/21 A3004 RMK AO2",2025-09-16 22:42:11.414666,2025-09-16 18:42:11.414711
"KCQB","Chandler Muni, OK, US",2025-09-16 22:10:00,"2025-09-16 22:10:00","VFR",32,16.8,130,6,NA,NA,1018.7,"METAR KCQB 162210Z AUTO 13006KT 10SM CLR 32/17 A3008 RMK AO2 T03200168",2025-09-16 22:42:11.421228,2025-09-16 18:42:11.421275
"KCXW","Conway/Cantrell Fld, AR, US",2025-09-16 22:10:00,"2025-09-16 22:10:00","VFR",34,24,310,5,NA,9,1016,"METAR KCXW 162210Z AUTO 31005KT 9SM CLR 34/24 A3000 RMK A01",2025-09-16 22:42:11.427602,2025-09-16 18:42:11.427645
"KD73","Monroe/Walton Cnty, GA, US",2025-09-16 22:10:00,"2025-09-16 22:10:00","VFR",28.1,14.6,NA,NA,NA,NA,1019.4,"METAR KD73 162210Z AUTO 10SM CLR 28/15 A3010 RMK AO2 T02810146",2025-09-16 22:42:11.434085,2025-09-16 18:42:11.434131
"KDAA","Fort Belvoir/Davison(AAF), VA, US",2025-09-16 22:09:00,"2025-09-16 18:09:00","VFR",16,14,340,5,NA,NA,1019.4,"SPECI KDAA 162209Z 34005KT 10SM SCT035 BKN044 16/14 A3010 RMK AO2A RAE07DZB07E08RAB08E09 SLP195 TSNO $",2025-09-16 22:42:11.44052,2025-09-16 18:42:11.440575
"KCOF","Cocoa Beach/Patrick(AFB), FL, US",2025-09-16 22:08:00,"2025-09-16 18:08:00","VFR",29,23,50,9,NA,NA,1016,"SPECI KCOF 162208Z AUTO 05009KT 10SM -RA CLR 29/23 A3000 RMK AO2 LTG DSNT SW-W RAB2155E01DZB01E02RAB08 TSB2155E01 SLP163 $",2025-09-16 22:42:11.447039,2025-09-16 18:42:11.447083
"KD07","Faith Muni, SD, US",2025-09-16 21:56:00,"2025-09-16 21:56:00",NA,21.1,14.4,260,4,NA,NA,NA,"METAR KD07 162156Z AUTO 26004KT 21/14 RMK AO1 SLPNO T02110144 $",2025-09-16 22:42:11.453488,2025-09-16 18:42:11.453532
"KCVN","Clovis Muni, NM, US",2025-09-16 21:56:00,"2025-09-16 15:56:00","VFR",27.8,12.2,170,14,21,NA,1022.1,"METAR KCVN 162156Z AUTO 17014G21KT 10SM CLR 28/12 A3018 RMK AO2 SLP181 T02780122 $",2025-09-16 22:42:11.460057,2025-09-16 18:42:11.460102
"KDAY","Dayton/Cox Intl, OH, US",2025-09-16 21:56:00,"2025-09-16 17:56:00","VFR",28.9,10.6,90,7,NA,NA,1019.7,"METAR KDAY 162156Z 09007KT 10SM SCT080 BKN250 29/11 A3011 RMK AO2 SLP191 T02890106",2025-09-16 22:42:11.466582,2025-09-16 18:42:11.466627
"KCOE","Coeur DAlene Arpt, ID, US",2025-09-16 21:56:00,"2025-09-16 14:56:00","VFR",25.6,12.2,20,6,NA,NA,1023.1,"METAR KCOE 162156Z AUTO 02006KT 10SM CLR 26/12 A3021 RMK AO2 SLP236 T02560122 PNO $",2025-09-16 22:42:11.473061,2025-09-16 18:42:11.473107
"KCWI","Clinton Muni, IA, US",2025-09-16 21:56:00,"2025-09-16 16:56:00","VFR",31.1,15,80,7,NA,NA,1020.4,"METAR KCWI 162156Z AUTO 08007KT 10SM CLR 31/15 A3013 RMK AO2 SLP200 T03110150",2025-09-16 22:42:11.479553,2025-09-16 18:42:11.479597
"KCXY","Harrisburg/Capital City Arpt, PA, US",2025-09-16 21:56:00,"2025-09-16 17:56:00","VFR",22.8,13.3,130,8,NA,NA,1021.1,"METAR KCXY 162156Z 13008KT 10SM BKN080 BKN110 23/13 A3015 RMK AO2 SLP208 T02280133",2025-09-16 22:42:11.485986,2025-09-16 18:42:11.48603
"KCVO","Corvallis Muni, OR, US",2025-09-16 21:56:00,"2025-09-16 14:56:00","VFR",31.1,8.9,NA,4,NA,7,1013.3,"METAR KCVO 162156Z VRB04KT 7SM CLR 31/09 A2992 RMK AO2 SLP135 T03110089",2025-09-16 22:42:11.505346,2025-09-16 18:42:11.505393
"KDIJ","Driggs/Reed Mem, ID, US",2025-09-16 21:56:00,"2025-09-16 21:56:00","VFR",17.8,3.9,320,9,NA,NA,1027.2,"METAR KDIJ 162156Z AUTO 32009KT 10SM FEW050 SCT080 18/04 A3033 RMK AO2 SLP243 T01780039 $",2025-09-16 22:42:11.512542,2025-09-16 18:42:11.512589
"KCOD","Cody/Yellowstone Rgnl, WY, US",2025-09-16 21:56:00,"2025-09-16 15:56:00","VFR",16.7,7.2,10,10,NA,NA,1026.8,"METAR KCOD 162156Z AUTO 01010KT 10SM FEW037 17/07 A3032 RMK AO2 LTG DSNT S SLP249 T01670072",2025-09-16 22:42:11.519107,2025-09-16 18:42:11.51915
"KCTB","Cut Bank Muni, MT, US",2025-09-16 21:56:00,"2025-09-16 15:56:00","VFR",22.2,6.7,0,0,NA,NA,1026.2,"METAR KCTB 162156Z AUTO 00000KT 10SM FEW060 22/07 A3030 RMK AO2 SLP240 T02220067",2025-09-16 22:42:11.525691,2025-09-16 18:42:11.525737
"KDLH","Duluth Intl Arpt, MN, US",2025-09-16 21:55:00,"2025-09-16 16:55:00","VFR",28.3,19.4,200,11,NA,NA,1017.7,"METAR KDLH 162155Z 20011KT 10SM FEW030 FEW070 28/19 A3005 RMK AO2 SLP173 T02830194 $",2025-09-16 22:42:11.532207,2025-09-16 18:42:11.532253
"KDLF","Laughlin AFB, TX, US",2025-09-16 21:55:00,"2025-09-16 16:55:00","VFR",33.6,15.1,110,11,19,NA,1016,"METAR KDLF 162155Z AUTO 11011G19KT 10SM CLR 34/15 A3000 RMK AO2 SLP145 T03360151 $",2025-09-16 22:42:11.538727,2025-09-16 18:42:11.538774
"KCNW","Waco/Texas State Tech Arpt, TX, US",2025-09-16 21:55:00,"2025-09-16 16:55:00","VFR",33,14,100,6,NA,NA,1018,"METAR KCNW 162155Z 10006KT 10SM SCT070 33/14 A3006",2025-09-16 22:42:11.545524,2025-09-16 18:42:11.545569
"KCNK","Concordia/Blosser Muni, KS, US",2025-09-16 21:55:00,"2025-09-16 16:55:00","VFR",31.7,16.1,170,10,NA,NA,1018,"METAR KCNK 162155Z AUTO 17010KT 10SM CLR 32/16 A3006 RMK AO2 SLP162 T03170161",2025-09-16 22:42:11.552068,2025-09-16 18:42:11.552113
"KCVS","Clovis/Cannon AFB, NM, US",2025-09-16 21:55:00,"2025-09-16 15:55:00","VFR",29.5,12,180,17,21,NA,1021.1,"METAR KCVS 162155Z AUTO 18017G21KT 10SM FEW065 30/12 A3015 RMK AO2 SLP145 T02950120 $",2025-09-16 22:42:11.558567,2025-09-16 18:42:11.558611
"KDDH","Bennington/Morse State Arpt, VT, US",2025-09-16 21:54:00,"2025-09-16 21:54:00","VFR",21.7,12.8,140,7,NA,NA,1023.5,"METAR KDDH 162154Z AUTO 14007KT 10SM CLR 22/13 A3022 RMK AO2 SLP231 T02170128 $",2025-09-16 22:42:11.565061,2025-09-16 18:42:11.565105
"KCRW","Charleston/Yeager Arpt, WV, US",2025-09-16 21:54:00,"2025-09-16 17:54:00","VFR",26.7,8.9,20,9,15,NA,1019.7,"METAR KCRW 162154Z 02009G15KT 10SM FEW065 SCT080 27/09 A3011 RMK AO2 SLP190 T02670089",2025-09-16 22:42:11.571558,2025-09-16 18:42:11.571605
"KDEC","Decatur Arpt, IL, US",2025-09-16 21:54:00,"2025-09-16 16:54:00","VFR",33.3,10.6,40,4,NA,NA,1019.4,"METAR KDEC 162154Z 04004KT 10SM CLR 33/11 A3010 RMK AO2 SLP187 T03330106",2025-09-16 22:42:11.578112,2025-09-16 18:42:11.578157
"KCOU","Columbia Rgnl, MO, US",2025-09-16 21:54:00,"2025-09-16 16:54:00","VFR",32.2,16.1,70,7,NA,NA,1019,"METAR KCOU 162154Z 07007KT 10SM CLR 32/16 A3009 RMK AO2 SLP181 T03220161 $",2025-09-16 22:42:11.584742,2025-09-16 18:42:11.584786
"KCRG","Jacksonville/Executive at Craig Arpt, FL, US",2025-09-16 21:53:00,"2025-09-16 17:53:00","VFR",27.8,17.2,80,7,NA,NA,1018.4,"METAR KCRG 162153Z 08007KT 10SM CLR 28/17 A3007 RMK AO2 SLP182 T02780172",2025-09-16 22:42:11.591305,2025-09-16 18:42:11.59135
"KCNY","Moab/Canyonland Fld, UT, US",2025-09-16 21:53:00,"2025-09-16 15:53:00","VFR",29.4,-2.8,280,12,21,NA,1018,"METAR KCNY 162153Z AUTO 28012G21KT 10SM CLR 29/M03 A3006 RMK AO2 SLP121 T02941028",2025-09-16 22:42:11.597866,2025-09-16 18:42:11.597913
"KCNO","Chino Arpt, CA, US",2025-09-16 21:53:00,"2025-09-16 14:53:00","VFR",38.3,13.9,290,9,NA,NA,1012.3,"METAR KCNO 162153Z 29009KT 10SM CLR 38/14 A2989 RMK AO2 SLP115 T03830139",2025-09-16 22:42:11.604379,2025-09-16 18:42:11.604424
"KDHT","Dalhart Muni, TX, US",2025-09-16 21:53:00,"2025-09-16 16:53:00","VFR",30,10,190,16,25,NA,1019.7,"METAR KDHT 162153Z AUTO 19016G25KT 10SM CLR 30/10 A3011 RMK AO2 PK WND 18037/2103 LTG DSNT E AND SE SLP140 T03000100",2025-09-16 22:42:11.610926,2025-09-16 18:42:11.610971
"KDAB","Daytona Beach Intl, FL, US",2025-09-16 21:53:00,"2025-09-16 17:53:00","VFR",28.3,18.9,60,13,NA,NA,1018,"METAR KDAB 162153Z 06013KT 10SM FEW037 FEW100 SCT200 28/19 A3006 RMK AO2 SLP178 T02830189",2025-09-16 22:42:11.617382,2025-09-16 18:42:11.617426
"KDGW","Douglas/Converse Cnty, WY, US",2025-09-16 21:53:00,"2025-09-16 15:53:00","VFR",17.2,8.3,80,9,NA,NA,1025.1,"METAR KDGW 162153Z AUTO 08009KT 10SM BKN080 OVC095 17/08 A3027 RMK AO2 SLP216 T01720083",2025-09-16 22:42:11.623894,2025-09-16 18:42:11.623941
"KDAN","Danville Rgnl, VA, US",2025-09-16 21:53:00,"2025-09-16 17:53:00","VFR",20,11.7,50,10,NA,NA,1020.7,"METAR KDAN 162153Z AUTO 05010KT 10SM OVC055 20/12 A3014 RMK AO2 SLP197 T02000117",2025-09-16 22:42:11.643165,2025-09-16 18:42:11.643214
"KDET","Detroit/C Young Arpt, MI, US",2025-09-16 21:53:00,"2025-09-16 17:53:00","VFR",27.8,11.7,100,7,NA,NA,1021.4,"METAR KDET 162153Z 10007KT 10SM CLR 28/12 A3016 RMK AO2 SLP210 T02780117",2025-09-16 22:42:11.650378,2025-09-16 18:42:11.650425
"KDHN","Dothan Rgnl, AL, US",2025-09-16 21:53:00,"2025-09-16 16:53:00","VFR",32.2,14.4,NA,3,NA,NA,1019,"METAR KDHN 162153Z VRB03KT 10SM FEW075 32/14 A3009 RMK AO1 SLP182 T03220144",2025-09-16 22:42:11.656877,2025-09-16 18:42:11.656923
"KCUT","Custer Cnty Arpt, SD, US",2025-09-16 21:53:00,"2025-09-16 21:53:00","VFR",12.8,10,10,6,NA,NA,1025.8,"METAR KCUT 162153Z AUTO 01006KT 10SM FEW080 13/10 A3029 RMK AO2 RAE03 SLP218 P0000 T01280100",2025-09-16 22:42:11.663309,2025-09-16 18:42:11.663357
"KDBQ","Dubuque Rgnl, IA, US",2025-09-16 21:53:00,"2025-09-16 16:53:00","VFR",29.4,16.7,100,8,NA,NA,1021.1,"METAR KDBQ 162153Z 10008KT 10SM CLR 29/17 A3015 RMK AO2 SLP204 T02940167",2025-09-16 22:42:11.669911,2025-09-16 18:42:11.669957
"KDKK","Dunkirk/Chautauqua Cnty, NY, US",2025-09-16 21:53:00,"2025-09-16 17:53:00","VFR",24.4,14.4,340,8,NA,NA,1021.8,"METAR KDKK 162153Z AUTO 34008KT 10SM CLR 24/14 A3017 RMK AO2 SLP215 T02440144",2025-09-16 22:42:11.676428,2025-09-16 18:42:11.676473
"KDFW","Dallas-Ft Worth Intl, TX, US",2025-09-16 21:53:00,"2025-09-16 16:53:00","VFR",33.9,15,0,0,NA,NA,1017.4,"METAR KDFW 162153Z 00000KT 10SM FEW070 34/15 A3004 RMK AO2 SLP162 T03390150",2025-09-16 22:42:11.682931,2025-09-16 18:42:11.682976
"KCUB","Columbia/Downtown Arpt, SC, US",2025-09-16 21:53:00,"2025-09-16 17:53:00","VFR",27.2,13.9,300,8,NA,NA,1018.4,"METAR KCUB 162153Z AUTO 30008KT 10SM FEW120 27/14 A3007 RMK AO2 SLP180 T02720139",2025-09-16 22:42:11.689389,2025-09-16 18:42:11.689434
"KDEQ","De Queen/Helms Arpt, AR, US",2025-09-16 21:53:00,"2025-09-16 21:53:00","VFR",32.2,22.2,0,0,NA,NA,1016.7,"METAR KDEQ 162153Z AUTO 00000KT 10SM CLR 32/22 A3002 RMK AO2 LTG DSNT E SLP161 T03220222",2025-09-16 22:42:11.695969,2025-09-16 18:42:11.696013
"KCYS","Cheyenne Rgnl, WY, US",2025-09-16 21:53:00,"2025-09-16 15:53:00","VFR",16.7,7.2,60,13,22,NA,1024.1,"METAR KCYS 162153Z 06013G22KT 10SM CLR 17/07 A3024 RMK AO2 RAB21E36 PRESRR SLP177 P0000 T01670072",2025-09-16 22:42:11.702572,2025-09-16 18:42:11.702618
"KDAL","Dallas/Love Fld, TX, US",2025-09-16 21:53:00,"2025-09-16 16:53:00","VFR",33.9,15,170,4,NA,NA,1017.4,"METAR KDAL 162153Z 17004KT 10SM FEW080 34/15 A3004 RMK AO2 SLP165 MDT CU DSNT N-NE S-SW T03390150",2025-09-16 22:42:11.709199,2025-09-16 18:42:11.709244
"KCRS","Corsicana Muni, TX, US",2025-09-16 21:53:00,"2025-09-16 16:53:00","VFR",33.9,17.2,0,0,NA,NA,1018,"METAR KCRS 162153Z AUTO 00000KT 10SM CLR 34/17 A3006 RMK AO2 SLP173 T03390172",2025-09-16 22:42:11.715851,2025-09-16 18:42:11.7159
"KCPS","St Louis/Downtown Arpt, IL, US",2025-09-16 21:53:00,"2025-09-16 16:53:00","VFR",32.8,13.9,NA,5,NA,NA,1018,"METAR KCPS 162153Z VRB05KT 10SM CLR 33/14 A3006 RMK AO2 SLP175 T03280139",2025-09-16 22:42:11.722503,2025-09-16 18:42:11.722549
"KCNM","Carlsbad/Cavern City Air Term, NM, US",2025-09-16 21:53:00,"2025-09-16 15:53:00","VFR",31.7,12.2,120,10,21,NA,1019.4,"METAR KCNM 162153Z AUTO 12010G21KT 10SM CLR 32/12 A3010 RMK AO2 SLP136 T03170122",2025-09-16 22:42:11.729298,2025-09-16 18:42:11.729344
"KDEW","Deer Park Arpt, WA, US",2025-09-16 21:53:00,"2025-09-16 21:53:00","VFR",25.6,11.7,10,8,NA,NA,1023.1,"METAR KDEW 162153Z AUTO 01008KT 10SM CLR 26/12 A3021 RMK AO2 SLP223 T02560117",2025-09-16 22:42:11.736122,2025-09-16 18:42:11.736167
"KCXO","Conroe/Executive Arpt, TX, US",2025-09-16 21:53:00,"2025-09-16 16:53:00","VFR",33.9,19.4,NA,3,NA,NA,1017,"METAR KCXO 162153Z VRB03KT 10SM FEW080 34/19 A3003 RMK AO2 SLP166 T03390194",2025-09-16 22:42:11.742862,2025-09-16 18:42:11.742915
"KCRE","North Myrtle Beach/Grand Strand Arpt, SC, US",2025-09-16 21:53:00,"2025-09-16 17:53:00","VFR",23.9,15,10,6,NA,NA,1017.7,"METAR KCRE 162153Z 01006KT 10SM BKN055 24/15 A3005 RMK AO1 SLP177 T02390150 $",2025-09-16 22:42:11.749659,2025-09-16 18:42:11.749703
"KDFI","Defiance Mem Arpt, OH, US",2025-09-16 21:53:00,"2025-09-16 17:53:00","VFR",27.2,15,100,6,NA,NA,1020.4,"METAR KDFI 162153Z AUTO 10006KT 10SM CLR 27/15 A3013 RMK AO2 SLP202 T02720150 $",2025-09-16 22:42:11.756292,2025-09-16 18:42:11.756338
"KCRQ","Carlsbad/Palomar Arpt, CA, US",2025-09-16 21:53:00,"2025-09-16 14:53:00","VFR",26.1,17.8,290,6,NA,NA,1012.3,"METAR KCRQ 162153Z 29006KT 10SM CLR 26/18 A2989 RMK AO2 SLP120 T02610178 $",2025-09-16 22:42:11.762939,2025-09-16 18:42:11.762986
"KCOT","Cotulla/LaSalle Cnty, TX, US",2025-09-16 21:53:00,"2025-09-16 16:53:00","VFR",33.9,16.7,140,12,17,NA,1016.3,"METAR KCOT 162153Z AUTO 14012G17KT 10SM SCT110 34/17 A3001 RMK AO2 SLP153 T03390167",2025-09-16 22:42:11.782169,2025-09-16 18:42:11.782218
"KCQX","Chatham Muni, MA, US",2025-09-16 21:52:00,"2025-09-16 21:52:00","VFR",18.9,12.8,80,7,NA,NA,1024.1,"METAR KCQX 162152Z AUTO 08007KT 10SM CLR 19/13 A3024 RMK AO2 SLP241 T01890128",2025-09-16 22:42:11.789209,2025-09-16 18:42:11.789254
"KCVG","Cincinnati Intl, KY, US",2025-09-16 21:52:00,"2025-09-16 17:52:00","VFR",29.4,11.1,50,7,NA,NA,1019.4,"METAR KCVG 162152Z 05007KT 10SM FEW070 SCT250 29/11 A3010 RMK AO2 SLP181 T02940111",2025-09-16 22:42:11.795715,2025-09-16 18:42:11.795758
"KDDC","Dodge City Arpt, KS, US",2025-09-16 21:52:00,"2025-09-16 16:52:00","VFR",30.6,16.7,160,15,24,6,1018.4,"METAR KDDC 162152Z AUTO 16015G24KT 6SM HZ CLR 31/17 A3007 RMK AO2 PK WND 16026/2053 SLP150 T03060167",2025-09-16 22:42:11.802169,2025-09-16 18:42:11.802212
"KCNU","Chanute/Johnson Arpt, KS, US",2025-09-16 21:52:00,"2025-09-16 16:52:00","VFR",32.2,16.1,0,0,NA,NA,1018.7,"METAR KCNU 162152Z AUTO 00000KT 10SM CLR 32/16 A3008 RMK AO2 LTG DSNT NE-SE SLP175 T03220161",2025-09-16 22:42:11.808692,2025-09-16 18:42:11.808738
"KDCA","Washington/Reagan-National Arpt, VA, US",2025-09-16 21:52:00,"2025-09-16 17:52:00","VFR",16.7,14.4,350,13,NA,NA,1020.4,"METAR KDCA 162152Z 35013KT 10SM FEW015 OVC048 17/14 A3013 RMK AO2 WSHFT 2057 RAE49 SLP203 P0019 T01670144",2025-09-16 22:42:11.8152,2025-09-16 18:42:11.815246
"KCRP","Corpus Christi Intl, TX, US",2025-09-16 21:51:00,"2025-09-16 16:51:00","VFR",31.7,20,110,11,NA,NA,1016.3,"METAR KCRP 162151Z 11011KT 10SM FEW035 FEW045 FEW060 SCT130 BKN250 32/20 A3001 RMK AO2 SLP161 CB DSNT E SE S MOV W TCU DSNT E SE SW W-NW T03170200",2025-09-16 22:42:11.821604,2025-09-16 18:42:11.821649
"KCON","Concord Muni, NH, US",2025-09-16 21:51:00,"2025-09-16 17:51:00","VFR",21.1,11.1,130,5,NA,NA,1024.8,"METAR KCON 162151Z AUTO 13005KT 10SM CLR 21/11 A3026 RMK AO2 SLP247 T02110111 $",2025-09-16 22:42:11.828137,2025-09-16 18:42:11.828183
"KDAW","Rochester/Skyhaven Arpt, NH, US",2025-09-16 21:51:00,"2025-09-16 21:51:00","VFR",20,11.7,160,3,NA,NA,1024.8,"METAR KDAW 162151Z AUTO 16003KT 10SM CLR 20/12 A3026 RMK AO2 SLP245 T02000117 $",2025-09-16 22:42:11.83478,2025-09-16 18:42:11.834845
"KCSG","Columbus Arpt, GA, US",2025-09-16 21:51:00,"2025-09-16 17:51:00","VFR",31.1,12.8,30,4,NA,NA,1017.7,"METAR KCSG 162151Z 03004KT 10SM CLR 31/13 A3005 RMK AO2 SLP172 T03110128 $",2025-09-16 22:42:11.841338,2025-09-16 18:42:11.841382
"KCWA","Mosinee/C Wisconsin Arpt, WI, US",2025-09-16 21:50:00,"2025-09-16 16:50:00","VFR",28,18,200,7,NA,NA,1021.4,"METAR KCWA 162150Z 20007KT 10SM CLR 28/18 A3016",2025-09-16 22:42:11.847815,2025-09-16 18:42:11.847866
"KDAG","Barstow/Daggett Cnty, CA, US",2025-09-16 21:50:00,"2025-09-16 14:50:00","VFR",35.6,10,0,0,NA,NA,1014,"METAR KDAG 162150Z AUTO 00000KT 10SM CLR 36/10 A2994 RMK AO2 SLP110 T03560100",2025-09-16 22:42:11.854409,2025-09-16 18:42:11.854455
"KDPL","Kenansville/Duplin Arpt, NC, US",2025-09-16 22:40:00,"2025-09-16 22:40:00","MVFR",20,16,350,10,NA,NA,1018.7,"METAR KDPL 162240Z AUTO 35010KT 10SM OVC028 20/16 A3008 RMK AO2",2025-09-16 22:42:14.187148,2025-09-16 18:42:14.187194
"KELP","El Paso Intl, TX, US",2025-09-16 22:37:00,"2025-09-16 16:37:00","VFR",28.3,12.8,140,18,25,NA,1019,"SPECI KELP 162237Z 14018G25KT 10SM BKN080 BKN130 BKN250 28/13 A3009 RMK AO2 PK WND 14032/2211 TSE36 OCNL LTGCG DSNT E CB DSNT E VCSH S SHRA DSNT E T02830128 $",2025-09-16 22:42:14.193796,2025-09-16 18:42:14.193862
"KE11","Andrews Cnty, TX, US",2025-09-16 22:35:00,"2025-09-16 22:35:00","VFR",29.9,11.5,160,11,NA,NA,1020.7,"METAR KE11 162235Z AUTO 16011KT 10SM SCT075 BKN100 30/12 A3014 RMK AO2 T02990115",2025-09-16 22:42:14.213539,2025-09-16 18:42:14.213591
"KEHA","Elkhart/Morton Cnty, KS, US",2025-09-16 22:35:00,"2025-09-16 22:35:00","VFR",29,12.4,160,19,25,NA,1019.4,"METAR KEHA 162235Z AUTO 16019G25KT 10SM SCT090 29/12 A3010 RMK AO2 T02900124",2025-09-16 22:42:14.220663,2025-09-16 18:42:14.220706
"KDTA","Delta Muni, UT, US",2025-09-16 22:35:00,"2025-09-16 16:35:00","VFR",26,-3,320,7,17,NA,1022.1,"METAR KDTA 162235Z AUTO 32007G17KT 280V020 10SM CLR 26/M03 A3018 RMK AO1",2025-09-16 22:42:14.227176,2025-09-16 18:42:14.227221
"KDUC","Duncan/Halliburton Fld, OK, US",2025-09-16 22:35:00,"2025-09-16 17:35:00","VFR",33,15,140,6,NA,NA,1018.4,"METAR KDUC 162235Z AUTO 14006KT 10SM CLR 33/15 A3007 RMK AO2 LTG DSNT W",2025-09-16 22:42:14.233851,2025-09-16 18:42:14.233899
"KDQH","Douglas Muni, GA, US",2025-09-16 22:35:00,"2025-09-16 22:35:00","VFR",30,12.6,10,4,NA,NA,1019,"METAR KDQH 162235Z AUTO 01004KT 10SM CLR 30/13 A3009 RMK AO2 T03000126",2025-09-16 22:42:14.240449,2025-09-16 18:42:14.240495
"KDUH","Toledo/Suburban Arpt, MI, US",2025-09-16 22:35:00,"2025-09-16 22:35:00","VFR",25.2,15,0,0,NA,NA,1021.1,"METAR KDUH 162235Z AUTO 00000KT 10SM CLR 25/15 A3015 RMK AO2 T02520150",2025-09-16 22:42:14.247167,2025-09-16 18:42:14.247211
"KDYT","Duluth/Sky Harbor Arpt, MN, US",2025-09-16 22:35:00,"2025-09-16 22:35:00","VFR",19,17,360,5,NA,NA,1016.7,"METAR KDYT 162235Z AUTO 36005KT 10SM CLR 19/17 A3002 RMK AO2",2025-09-16 22:42:14.253678,2025-09-16 18:42:14.253721
"KEDJ","Bellefontaine Rgnl, OH, US",2025-09-16 22:35:00,"2025-09-16 22:35:00","VFR",27,0,0,0,NA,NA,1020.7,"METAR KEDJ 162235Z AUTO 00000KT 10SM CLR 27/M00 A3014 RMK A01",2025-09-16 22:42:14.260273,2025-09-16 18:42:14.260318
"KEFK","Newport/Northeast Kingdom Intl, VT, US",2025-09-16 22:35:00,"2025-09-16 18:35:00","VFR",20.5,11.4,320,3,NA,NA,1024.1,"METAR KEFK 162235Z AUTO 32003KT 10SM CLR 21/11 A3024 RMK AO2 T02050114",2025-09-16 22:42:14.266958,2025-09-16 18:42:14.267003
"KELO","Ely Muni, MN, US",2025-09-16 22:35:00,"2025-09-16 17:35:00","VFR",27,14,180,4,NA,NA,1016.7,"METAR KELO 162235Z AUTO 18004KT 10SM TS CLR 27/14 A3002 RMK AO2 LTG DSNT ALQDS",2025-09-16 22:42:14.273469,2025-09-16 18:42:14.273513
"KDRM","Drummond Island Arpt, MI, US",2025-09-16 22:35:00,"2025-09-16 18:35:00","VFR",20.6,12.7,170,3,NA,NA,1023.1,"METAR KDRM 162235Z AUTO 17003KT 10SM CLR 21/13 A3021 RMK AO2 T02060127",2025-09-16 22:42:14.280018,2025-09-16 18:42:14.280066
"KDXX","Madison/Lac Qui Parle Cnty, MN, US",2025-09-16 22:35:00,"2025-09-16 22:35:00","VFR",29,15,0,0,NA,NA,1018.4,"METAR KDXX 162235Z AUTO 00000KT 10SM CLR 29/15 A3007 RMK AO2",2025-09-16 22:42:14.286565,2025-09-16 18:42:14.286609
"KDLO","Delano Muni, CA, US",2025-09-16 22:35:00,"2025-09-16 22:35:00",NA,35.6,4.5,360,6,NA,NA,1011.3,"METAR KDLO 162235Z AUTO 36006KT 10SM 36/05 A2986 RMK AO2 T03560045",2025-09-16 22:42:14.293119,2025-09-16 18:42:14.293163
"KDRI","Deridder/Beauregard Rgnl, LA, US",2025-09-16 22:35:00,"2025-09-16 17:35:00","VFR",32.5,17.7,270,6,NA,NA,1016.7,"METAR KDRI 162235Z AUTO 27006KT 10SM VCTS CLR 33/18 A3002 RMK AO2 T03250177 $",2025-09-16 22:42:14.29967,2025-09-16 18:42:14.299714
"KEDC","Austin/Executive Arpt, TX, US",2025-09-16 22:35:00,"2025-09-16 22:35:00","VFR",34,14,100,8,14,7,1016.7,"METAR KEDC 162235Z AUTO 10008G14KT 7SM SCT080 BKN095 34/14 A3002 RMK AO2",2025-09-16 22:42:14.306148,2025-09-16 18:42:14.306191
"KEDN","Enterprise Muni, AL, US",2025-09-16 22:35:00,"2025-09-16 17:35:00","VFR",31.5,13.2,90,4,NA,NA,1017.7,"METAR KEDN 162235Z AUTO 09004KT 10SM SCT080 BKN090 32/13 A3005 RMK AO1 T03150132",2025-09-16 22:42:14.312695,2025-09-16 18:42:14.31274
"KEFT","Monroe Muni, WI, US",2025-09-16 22:35:00,"2025-09-16 22:35:00","VFR",28.7,12.5,100,3,NA,NA,1020.7,"METAR KEFT 162235Z AUTO 10003KT 10SM CLR 29/13 A3014 RMK AO2 T02870125",2025-09-16 22:42:14.319202,2025-09-16 18:42:14.319257
"KEKM","Elkhart Muni, IN, US",2025-09-16 22:35:00,"2025-09-16 18:35:00","VFR",27.1,10.5,40,5,NA,NA,1021.1,"METAR KEKM 162235Z AUTO 04005KT 10SM CLR 27/10 A3015 RMK AO2 T02710105 $",2025-09-16 22:42:14.32569,2025-09-16 18:42:14.325736
"KE16","San Martin Arpt, CA, US",2025-09-16 22:35:00,"2025-09-16 22:35:00","VFR",35,11,130,8,NA,NA,1012.6,"METAR KE16 162235Z AUTO 13008KT 10SM -RA CLR 35/11 A2990 RMK AO2",2025-09-16 22:42:14.332211,2025-09-16 18:42:14.332257
"KEAN","Wheatland/Phifer Fld, WY, US",2025-09-16 22:35:00,"2025-09-16 16:35:00","VFR",20.7,5.8,50,9,NA,NA,1023.5,"METAR KEAN 162235Z AUTO 05009KT 10SM CLR 21/06 A3022 RMK AO2 LTG DSNT SW AND NW T02070058",2025-09-16 22:42:14.352188,2025-09-16 18:42:14.352235
"KDNN","Dalton Muni, GA, US",2025-09-16 22:35:00,"2025-09-16 18:35:00","VFR",28.7,17.2,NA,4,NA,NA,1018,"METAR KDNN 162235Z AUTO VRB04KT 10SM FEW070 OVC130 29/17 A3006 RMK AO2 T02870172",2025-09-16 22:42:14.359065,2025-09-16 18:42:14.359109
"KECS","Newcastle/Mondell Arpt, WY, US",2025-09-16 22:35:00,"2025-09-16 16:35:00","VFR",18,8,330,3,NA,NA,1024.5,"METAR KECS 162235Z AUTO 33003KT 10SM CLR 18/08 A3025 RMK AO2",2025-09-16 22:42:14.365505,2025-09-16 18:42:14.36555
"KDNV","Danville/Vermillion Rgnl, IL, US",2025-09-16 22:35:00,"2025-09-16 17:35:00","VFR",28.1,11,30,5,NA,NA,1020.4,"METAR KDNV 162235Z AUTO 03005KT 10SM CLR 28/11 A3013 RMK AO2 T02810110",2025-09-16 22:42:14.372261,2025-09-16 18:42:14.372306
"KDZB","Marble Falls/Horseshoe Bay Arpt, TX, US",2025-09-16 22:35:00,"2025-09-16 22:35:00",NA,33.9,12.1,140,4,NA,NA,1018,"METAR KDZB 162235Z AUTO 14004KT CLR 34/12 A3006 RMK AO2 T03390121 PWINO",2025-09-16 22:42:14.378927,2025-09-16 18:42:14.378971
"KEKX","Elizabethtown/Addington Fld, KY, US",2025-09-16 22:35:00,"2025-09-16 18:35:00","VFR",28.6,12.6,10,4,NA,NA,1018.4,"METAR KEKX 162235Z AUTO 01004KT 10SM CLR 29/13 A3007 RMK AO2 T02860126",2025-09-16 22:42:14.385507,2025-09-16 18:42:14.385551
"KDZJ","Blairsville Arpt, GA, US",2025-09-16 22:35:00,"2025-09-16 22:35:00","VFR",22.9,16.5,0,0,NA,NA,1021.1,"METAR KDZJ 162235Z AUTO 00000KT 10SM SCT110 23/17 A3015 RMK AO2 T02290165",2025-09-16 22:42:14.392064,2025-09-16 18:42:14.39211
"KDUA","Durant/Eaker Fld, OK, US",2025-09-16 22:35:00,"2025-09-16 17:35:00","VFR",34,17,NA,3,NA,NA,1018.4,"METAR KDUA 162235Z AUTO VRB03KT 10SM FEW070 34/17 A3007 RMK AO2",2025-09-16 22:42:14.398714,2025-09-16 18:42:14.398761
"KDLZ","Delaware Muni, OH, US",2025-09-16 22:35:00,"2025-09-16 22:35:00","VFR",28,11,NA,4,NA,NA,1020.1,"METAR KDLZ 162235Z AUTO VRB04KT 10SM CLR 28/11 A3012 RMK AO2",2025-09-16 22:42:14.405443,2025-09-16 18:42:14.405487
"KELK","Elk City Rgnl, OK, US",2025-09-16 22:35:00,"2025-09-16 17:35:00","VFR",32.6,13.8,200,5,NA,NA,1018,"METAR KELK 162235Z AUTO 20005KT 10SM CLR 33/14 A3006 RMK AO2 T03260138 $",2025-09-16 22:42:14.411964,2025-09-16 18:42:14.412009
"KDVO","Novato/Gnoss Fld, CA, US",2025-09-16 22:35:00,"2025-09-16 15:35:00","VFR",37,17,360,7,NA,NA,1013,"METAR KDVO 162235Z AUTO 36007KT 10SM CLR 37/17 A2991 RMK AO2",2025-09-16 22:42:14.418521,2025-09-16 18:42:14.418564
"KDYB","Summerville Arpt, SC, US",2025-09-16 22:35:00,"2025-09-16 22:35:00","VFR",28,15,0,0,NA,NA,1017.7,"METAR KDYB 162235Z AUTO 00000KT 10SM CLR 28/15 A3005 RMK AO2",2025-09-16 22:42:14.425066,2025-09-16 18:42:14.425111
"KEGT","Wellington Muni, KS, US",2025-09-16 22:35:00,"2025-09-16 22:35:00","VFR",29.6,19,120,5,NA,NA,1018,"METAR KEGT 162235Z AUTO 12005KT 10SM SCT080 30/19 A3006 RMK AO2 T02960190",2025-09-16 22:42:14.431623,2025-09-16 18:42:14.431679
"KEIK","Erie Muni, CO, US",2025-09-16 22:35:00,"2025-09-16 22:35:00","VFR",20.3,11,NA,4,NA,NA,1021.8,"METAR KEIK 162235Z AUTO VRB04KT 10SM CLR 20/11 A3017 RMK AO2 LTG DSNT SE AND W - NE RAB2207E2217 P0000 T02030110",2025-09-16 22:42:14.438353,2025-09-16 18:42:14.438397
"KE57","Denver City Arpt, TX, US",2025-09-16 22:35:00,"2025-09-16 22:35:00","VFR",30,10,140,13,NA,NA,1020.7,"METAR KE57 162235Z AUTO 14013KT 10SM SCT070 30/10 A3014 RMK AO2",2025-09-16 22:42:14.444894,2025-09-16 18:42:14.44494
"KDUX","Dumas/Moore Cnty, TX, US",2025-09-16 22:35:00,"2025-09-16 22:35:00","MVFR",20.9,14.5,70,8,32,3,1020.4,"METAR KDUX 162235Z AUTO 07008G32KT 3SM -RA SCT007 SCT011 BKN018 21/15 A3013 RMK AO2 P0015 T02090145",2025-09-16 22:42:14.451363,2025-09-16 18:42:14.451405
"KE38","Alpine/Casparis Muni, TX, US",2025-09-16 22:35:00,"2025-09-16 17:35:00","VFR",27,11.4,120,9,15,NA,1023.8,"METAR KE38 162235Z AUTO 12009G15KT 10SM CLR 27/11 A3023 RMK AO2 T02700114",2025-09-16 22:42:14.457959,2025-09-16 18:42:14.458005
"KE41","Big Lake/Reagan Cnty, TX, US",2025-09-16 22:35:00,"2025-09-16 22:35:00","VFR",30.6,12,170,10,15,NA,1020.1,"METAR KE41 162235Z AUTO 17010G15KT 10SM SCT070 BKN085 31/12 A3012 RMK AO2 T03060120",2025-09-16 22:42:14.464541,2025-09-16 18:42:14.464587
"KEGV","Eagle River/Union Arpt, WI, US",2025-09-16 22:35:00,"2025-09-16 17:35:00","VFR",26.1,16.9,200,3,NA,NA,1021.4,"METAR KEGV 162235Z AUTO 20003KT 10SM CLR 26/17 A3016 RMK AO2 T02610169",2025-09-16 22:42:14.487204,2025-09-16 18:42:14.487264
"KDNS","Denison Muni, IA, US",2025-09-16 22:35:00,"2025-09-16 17:35:00","VFR",30,19,150,7,13,NA,1018.7,"METAR KDNS 162235Z AUTO 15007G13KT 10SM FEW065 30/19 A3008 RMK AO2",2025-09-16 22:42:14.494492,2025-09-16 18:42:14.49454
"KEBG","Edinburg/S Texas Intl, TX, US",2025-09-16 22:35:00,"2025-09-16 22:35:00","VFR",32,20,50,11,NA,NA,1015,"METAR KEBG 162235Z AUTO 05011KT 020V080 10SM FEW055 FEW065 SCT085 32/20 A2997 RMK AO2",2025-09-16 22:42:14.501595,2025-09-16 18:42:14.501642
"KECU","Rocksprings/Edwards Cnty, TX, US",2025-09-16 22:35:00,"2025-09-16 22:35:00","VFR",29,15,130,4,NA,NA,1021.4,"METAR KECU 162235Z AUTO 13004KT 10SM FEW055 FEW090 29/15 A3016 RMK AO2",2025-09-16 22:42:14.508491,2025-09-16 18:42:14.508535
"KDYA","Demopolis Muni, AL, US",2025-09-16 22:35:00,"2025-09-16 22:35:00","VFR",32.9,13,60,3,NA,NA,1016.7,"METAR KDYA 162235Z AUTO 06003KT 10SM CLR 33/13 A3002 RMK AO2 T03290130",2025-09-16 22:42:14.515065,2025-09-16 18:42:14.515109
"KEHO","Shelby/Cleveland Cnty, NC, US",2025-09-16 22:35:00,"2025-09-16 22:35:00","VFR",21.7,16,260,3,NA,NA,1019.7,"METAR KEHO 162235Z AUTO 26003KT 10SM BKN110 22/16 A3011 RMK AO2 T02170160",2025-09-16 22:42:14.521675,2025-09-16 18:42:14.521719
"KEMM","Kemmerer Muni, WY, US",2025-09-16 22:35:00,"2025-09-16 16:35:00",NA,19,-6,330,14,23,NA,1026.5,"METAR KEMM 162235Z AUTO 33014G23KT 10SM 19/M06 A3031 RMK AO2",2025-09-16 22:42:14.52821,2025-09-16 18:42:14.528256
"KDMW","Westminster/Carroll Cnty Rgnl, MD, US",2025-09-16 22:35:00,"2025-09-16 22:35:00","MVFR",17,14,0,0,NA,4,1021.4,"METAR KDMW 162235Z AUTO 00000KT 4SM RA SCT019 SCT032 BKN065 17/14 A3016 RMK AO2 LTG DSNT SE P0009",2025-09-16 22:42:14.534646,2025-09-16 18:42:14.534688
"KEDE","Edenton/Northeast Rgnl, NC, US",2025-09-16 22:35:00,"2025-09-16 18:35:00","MVFR",18.9,17.1,320,12,17,NA,1016,"METAR KEDE 162235Z AUTO 32012G17KT 10SM OVC012 19/17 A3000 RMK AO2 T01890171",2025-09-16 22:42:14.541176,2025-09-16 18:42:14.54122
"KDMA","Tucson/Davis AFB, AZ, US",2025-09-16 22:32:00,"2025-09-16 15:32:00","VFR",36,10,310,5,NA,NA,1013.6,"SPECI KDMA 162232Z AUTO 31005KT 10SM TS CLR 36/10 A2993 RMK AO2 TSB32 SLP084 $",2025-09-16 22:42:14.54766,2025-09-16 18:42:14.547704
"KDTL","Detroit Lakes Arpt, MN, US",2025-09-16 22:27:00,"2025-09-16 17:27:00","VFR",28,15,290,7,12,NA,1018.4,"METAR KDTL 162227Z 29007G12KT 10SM CLR 28/15 A3007 RMK AO2",2025-09-16 22:42:14.554183,2025-09-16 18:42:14.554228
"KDOV","Dover AFB, DE, US",2025-09-16 22:22:00,"2025-09-16 18:22:00","VFR",19,14,20,13,NA,NA,1018,"SPECI KDOV 162222Z 02013KT 10SM OVC037 19/14 A3006 RMK AO2A DZE2155DZB08E11RAB11E22 SLP183",2025-09-16 22:42:14.5607,2025-09-16 18:42:14.560745
"KE01","Monahans/Hurd Mem, TX, US",2025-09-16 22:15:00,"2025-09-16 17:15:00","VFR",33,13,170,12,21,NA,1018.4,"METAR KE01 162215Z AUTO 17012G21KT 10SM SCT075 SCT085 33/13 A3007 RMK AO2",2025-09-16 22:42:14.567208,2025-09-16 18:42:14.567253
"KDWA","Davis/Yolo Cnty, CA, US",2025-09-16 22:15:00,"2025-09-16 22:15:00","VFR",36,9,NA,4,NA,9,1013.3,"METAR KDWA 162215Z AUTO VRB04KT 9SM UP CLR 36/09 A2992 RMK AO2",2025-09-16 22:42:14.573705,2025-09-16 18:42:14.57375
"KEDU","Davis/University Arpt, CA, US",2025-09-16 22:15:00,"2025-09-16 22:15:00","VFR",34,9,0,0,NA,NA,1013,"METAR KEDU 162215Z AUTO 00000KT 10SM CLR 34/09 A2991 RMK AO1",2025-09-16 22:42:14.580281,2025-09-16 18:42:14.580326
"KE77","San Manuel Arpt, AZ, US",2025-09-16 22:15:00,"2025-09-16 22:15:00",NA,33,12,100,8,21,NA,1018.4,"METAR KE77 162215Z AUTO 10008G21KT 10SM 33/12 A3007 RMK AO2 LTG DSNT NE-S",2025-09-16 22:42:14.58689,2025-09-16 18:42:14.586936
"KDRP","Colt/Delta Rgnl, AR, US",2025-09-16 22:15:00,"2025-09-16 22:15:00","VFR",34,18,60,6,NA,9,1016,"METAR KDRP 162215Z AUTO 06006KT 9SM CLR 34/18 A3000 RMK AO2",2025-09-16 22:42:14.593504,2025-09-16 18:42:14.593549
"KDVK","Danville/Powell Fld, KY, US",2025-09-16 22:10:00,"2025-09-16 22:10:00","VFR",27,14,120,7,NA,NA,1019.4,"METAR KDVK 162210Z AUTO 12007KT 10SM SCT080 BKN085 27/14 A3010 RMK AO2",2025-09-16 22:42:14.600143,2025-09-16 18:42:14.600187
"KEKS","Ennis/Big Sky Arpt, MT, US",2025-09-16 22:10:00,"2025-09-16 22:10:00","VFR",17,9,340,14,20,NA,1028.9,"METAR KEKS 162210Z AUTO 34014G20KT 10SM FEW041 SCT055 BKN065 17/09 A3038 RMK AO2",2025-09-16 22:42:14.606713,2025-09-16 18:42:14.606759
"KDPG","Dugway Prvg Grounds, UT, US",2025-09-16 22:00:00,"2025-09-16 16:00:00","VFR",25.6,-6.2,280,8,NA,45,1022.4,"METAR KDPG 162200Z 28008KT 45SM FEW220 26/M06 A3019 RMK SLP179 T02561062",2025-09-16 22:42:14.625349,2025-09-16 18:42:14.625412
"KEKO","Elko Rgnl, NV, US",2025-09-16 21:56:00,"2025-09-16 14:56:00","VFR",24.4,-7.8,0,0,NA,NA,1023.5,"METAR KEKO 162156Z AUTO 00000KT 10SM CLR 24/M08 A3022 RMK AO2 SLP197 T02441078",2025-09-16 22:42:14.632905,2025-09-16 18:42:14.632952
"KEAU","Eau Claire/Chippewa Valley Rgnl, WI, US",2025-09-16 21:56:00,"2025-09-16 16:56:00","VFR",29.4,20.6,140,10,NA,NA,1019.4,"METAR KEAU 162156Z 14010KT 10SM CLR 29/21 A3010 RMK AO2 SLP187 T02940206",2025-09-16 22:42:14.640087,2025-09-16 18:42:14.640133
"KEAR","Kearney Rgnl, NE, US",2025-09-16 21:56:00,"2025-09-16 16:56:00","VFR",29.4,17.8,120,7,NA,NA,1018.4,"METAR KEAR 162156Z AUTO 12007KT 10SM CLR 29/18 A3007 RMK AO2 SLP165 T02940178",2025-09-16 22:42:14.647079,2025-09-16 18:42:14.647126
"KEGE","Eagle Cnty Rgnl, CO, US",2025-09-16 21:56:00,"2025-09-16 15:56:00","VFR",22.2,1.1,250,8,NA,NA,1023.5,"METAR KEGE 162156Z 25008KT 210V290 10SM CLR 22/01 A3022 RMK AO2 LTG DSNT ALQDS TSE31RAE11 SLP173 P0000 T02220011 $",2025-09-16 22:42:14.653583,2025-09-16 18:42:14.653627
"KEEN","Keene/Hopkins Arpt, NH, US",2025-09-16 21:56:00,"2025-09-16 17:56:00","VFR",22.2,11.7,0,0,NA,NA,1024.1,"METAR KEEN 162156Z AUTO 00000KT 10SM CLR 22/12 A3024 RMK AO2 SLP243 T02220117 $",2025-09-16 22:42:14.660107,2025-09-16 18:42:14.660151
"KELZ","Wellsville/Tarantine Fld, NY, US",2025-09-16 21:56:00,"2025-09-16 17:56:00","VFR",23.3,10.6,60,4,NA,NA,1023.5,"METAR KELZ 162156Z AUTO 06004KT 10SM CLR 23/11 A3022 RMK AO2 SLP226 T02330106 $",2025-09-16 22:42:14.666606,2025-09-16 18:42:14.666653
"KDWU","Ashland Rgnl, KY, US",2025-09-16 21:56:00,"2025-09-16 21:56:00","VFR",27.2,15.6,0,0,NA,NA,1019.4,"METAR KDWU 162156Z AUTO 00000KT 10SM CLR 27/16 A3010 RMK AO2 SLP191 T02720156",2025-09-16 22:42:14.673146,2025-09-16 18:42:14.673192
"KEED","Needles Arpt, CA, US",2025-09-16 21:56:00,"2025-09-16 14:56:00","VFR",41.1,11.7,NA,NA,NA,NA,1010.9,"METAR KEED 162156Z AUTO 10SM CLR 41/12 A2985 RMK AO2 SLP073 T04110117",2025-09-16 22:42:14.679729,2025-09-16 18:42:14.679774
"KEKQ","Monticello/Wayne Cnty, KY, US",2025-09-16 21:56:00,"2025-09-16 21:56:00","VFR",28.9,15,40,5,NA,NA,1019,"METAR KEKQ 162156Z AUTO 04005KT 10SM CLR 29/15 A3009 RMK AO2 SLP180 T02890150 PNO $",2025-09-16 22:42:14.686329,2025-09-16 18:42:14.686374
"KDVL","Devils Lake Rgnl, ND, US",2025-09-16 21:56:00,"2025-09-16 16:56:00","VFR",25.6,14.4,280,7,NA,NA,1019.7,"METAR KDVL 162156Z AUTO 28007KT 10SM CLR 26/14 A3011 RMK AO2 SLP197 T02560144",2025-09-16 22:42:14.692892,2025-09-16 18:42:14.692937
"KEDW","Edwards AFB, CA, US",2025-09-16 21:55:00,"2025-09-16 14:55:00","VFR",35.2,6.4,20,3,NA,70,1014.6,"METAR KEDW 162155Z 02003KT 70SM FEW080 35/06 A2996 RMK AO2A SLP122 T03520064 $",2025-09-16 22:42:14.699343,2025-09-16 18:42:14.699388
"KEGI","Eglin AFB/Duke Fld, FL, US",2025-09-16 21:55:00,"2025-09-16 16:55:00","VFR",30.6,12.9,240,4,NA,NA,1017,"METAR KEGI 162155Z AUTO 24004KT 10SM CLR 31/13 A3003 RMK AO2 SLP169 T03060129 $",2025-09-16 22:42:14.705927,2025-09-16 18:42:14.705972
"KEAT","Wenatchee/Pangborn Mem, WA, US",2025-09-16 21:55:00,"2025-09-16 14:55:00","VFR",25,9.4,0,0,NA,NA,1021.1,"METAR KEAT 162155Z AUTO 00000KT 10SM CLR 25/09 A3015 RMK AO2 SLP203 T02500094",2025-09-16 22:42:14.712442,2025-09-16 18:42:14.712487
"KECG","Elizabeth City Rgnl, NC, US",2025-09-16 21:54:00,"2025-09-16 17:54:00","MVFR",17.8,16.1,300,16,24,NA,1014.3,"METAR KECG 162154Z 30016G24KT 10SM OVC012 18/16 A2995 RMK AO2 PK WND 28027/2131 SLP140 T01780161",2025-09-16 22:42:14.719034,2025-09-16 18:42:14.71908
"KDSV","Dansville Muni, NY, US",2025-09-16 21:54:00,"2025-09-16 17:54:00","VFR",28.3,12.2,40,6,NA,NA,1021.4,"METAR KDSV 162154Z AUTO 04006KT 10SM CLR 28/12 A3016 RMK AO2 SLP219 T02830122",2025-09-16 22:42:14.725555,2025-09-16 18:42:14.7256
"KEFD","Houston/Ellington Arpt, TX, US",2025-09-16 21:54:00,"2025-09-16 16:54:00","VFR",33,19,100,10,NA,NA,1016.3,"METAR KEFD 162154Z 10010KT 10SM CLR 33/19 A3001",2025-09-16 22:42:14.732063,2025-09-16 18:42:14.732109
"KDSM","Des Moines Intl, IA, US",2025-09-16 21:54:00,"2025-09-16 16:54:00","VFR",28.3,17.8,170,6,NA,NA,1019.4,"METAR KDSM 162154Z 17006KT 10SM FEW060 BKN200 OVC250 28/18 A3010 RMK AO2 SLP185 CB DSNT N-S MOV UNKN TCU DSNT W T02830178",2025-09-16 22:42:14.73861,2025-09-16 18:42:14.738655
"KDYL","Doylestown Arpt, PA, US",2025-09-16 21:54:00,"2025-09-16 17:54:00","VFR",21.1,12.8,50,6,NA,NA,1021.4,"METAR KDYL 162154Z AUTO 05006KT 10SM FEW110 21/13 A3016 RMK AO2 SLP211 T02110128",2025-09-16 22:42:14.745109,2025-09-16 18:42:14.745154
"KDWH","Houston/Hooks Mem, TX, US",2025-09-16 21:53:00,"2025-09-16 16:53:00","VFR",32.8,17.8,NA,3,NA,NA,1016.7,"METAR KDWH 162153Z VRB03KT 10SM CLR 33/18 A3002 RMK AO2 SLP164 T03280178",2025-09-16 22:42:14.751704,2025-09-16 18:42:14.75175
"KDRT","Del Rio Intl, TX, US",2025-09-16 21:53:00,"2025-09-16 16:53:00","VFR",33.3,15.6,140,12,17,NA,1016.7,"METAR KDRT 162153Z AUTO 14012G17KT 10SM SCT065 33/16 A3002 RMK AO2 SLP155 T03330156",2025-09-16 22:42:14.771797,2025-09-16 18:42:14.771867
"KDRO","Durango/La Plata Cnty, CO, US",2025-09-16 21:53:00,"2025-09-16 15:53:00","VFR",26.1,-1.1,270,8,19,NA,1024.1,"METAR KDRO 162153Z AUTO 27008G19KT 10SM CLR 26/M01 A3024 RMK AO2 SLP160 T02611011",2025-09-16 22:42:14.779015,2025-09-16 18:42:14.779062
"KDNL","Augusta/Daniel Fld, GA, US",2025-09-16 21:53:00,"2025-09-16 17:53:00","VFR",27.8,14.4,NA,4,NA,NA,1018.7,"METAR KDNL 162153Z AUTO VRB04KT 10SM CLR 28/14 A3008 RMK AO2 SLP181 T02780144",2025-09-16 22:42:14.78626,2025-09-16 18:42:14.786306
"KDTS","Destin Arpt, FL, US",2025-09-16 21:53:00,"2025-09-16 16:53:00","VFR",28.9,15.6,190,6,NA,NA,1017.4,"METAR KDTS 162153Z 19006KT 10SM CLR 29/16 A3004 RMK AO2 SLP173 T02890156",2025-09-16 22:42:14.792904,2025-09-16 18:42:14.792952
"KEMP","Emporia Muni, KS, US",2025-09-16 21:53:00,"2025-09-16 16:53:00","VFR",31.1,17.8,190,5,NA,NA,1018.7,"METAR KEMP 162153Z AUTO 19005KT 10SM CLR 31/18 A3008 RMK AO2 SLP177 T03110178",2025-09-16 22:42:14.799532,2025-09-16 18:42:14.799577
"KDMO","Sedalia Mem, MO, US",2025-09-16 21:53:00,"2025-09-16 16:53:00","VFR",32.2,18.3,60,5,NA,NA,1019.4,"METAR KDMO 162153Z AUTO 06005KT 10SM CLR 32/18 A3010 RMK AO2 LTG DSNT SW RAE27 SLP184 P0002 T03220183 $",2025-09-16 22:42:14.806187,2025-09-16 18:42:14.806231
"KDVT","Phoenix/Deer Valley Arpt, AZ, US",2025-09-16 21:53:00,"2025-09-16 14:53:00","VFR",38.3,10.6,230,7,NA,NA,1011.6,"METAR KDVT 162153Z 23007KT 10SM CLR 38/11 A2987 RMK AO2 SLP086 T03830106",2025-09-16 22:42:14.812782,2025-09-16 18:42:14.812846
"KDLS","The Dalles Muni, OR, US",2025-09-16 21:53:00,"2025-09-16 14:53:00","VFR",28.9,10,80,13,NA,NA,1017.7,"METAR KDLS 162153Z AUTO 08013KT 10SM CLR 29/10 A3005 RMK AO2 SLP175 T02890100",2025-09-16 22:42:14.819353,2025-09-16 18:42:14.819397
"KDLN","Dillon Arpt, MT, US",2025-09-16 21:53:00,"2025-09-16 15:53:00","VFR",17.8,7.2,50,11,17,NA,1027.2,"METAR KDLN 162153Z AUTO 05011G17KT 10SM BKN060 BKN090 18/07 A3033 RMK AO2 SLP240 T01780072",2025-09-16 22:42:14.825906,2025-09-16 18:42:14.825952
"KDTW","Detroit/Metro Wayne Cnty, MI, US",2025-09-16 21:53:00,"2025-09-16 17:53:00","VFR",27.2,12.2,100,5,NA,NA,1021.4,"METAR KDTW 162153Z 10005KT 10SM FEW050 FEW250 27/12 A3016 RMK AO2 SLP208 T02720122 $",2025-09-16 22:42:14.832474,2025-09-16 18:42:14.832517
"KDTN","Shreveport/Downtown Arpt, LA, US",2025-09-16 21:53:00,"2025-09-16 16:53:00","VFR",35,18.3,310,3,NA,NA,1016.7,"METAR KDTN 162153Z AUTO 31003KT 10SM CLR 35/18 A3002 RMK AO2 SLP162 T03500183",2025-09-16 22:42:14.83918,2025-09-16 18:42:14.839225
"KECP","Panama City/NW Florida Beaches Intl, FL, US",2025-09-16 21:53:00,"2025-09-16 16:53:00","VFR",30,18.3,190,9,NA,NA,1017.4,"METAR KECP 162153Z 19009KT 10SM SCT085 30/18 A3004 RMK AO2 SLP181 T03000183",2025-09-16 22:42:14.845874,2025-09-16 18:42:14.845923
"KEET","Alabaster/Shelby Cnty, AL, US",2025-09-16 21:53:00,"2025-09-16 21:53:00","VFR",32.8,13.3,160,5,NA,NA,1018,"METAR KEET 162153Z AUTO 16005KT 10SM CLR 33/13 A3006 RMK AO2 SLP172 T03280133 $",2025-09-16 22:42:14.852583,2025-09-16 18:42:14.852628
"KDRA","Mercury/Desert Rock, NV, US",2025-09-16 21:53:00,"2025-09-16 14:53:00","VFR",33.9,6.1,260,8,NA,NA,1017.7,"METAR KDRA 162153Z AUTO 26008KT 10SM CLR 34/06 A3005 RMK AO2 SLP128 T03390061",2025-09-16 22:42:14.859315,2025-09-16 18:42:14.859359
"KDUJ","Du Bois Rgnl, PA, US",2025-09-16 21:53:00,"2025-09-16 17:53:00","VFR",25.6,9.4,80,5,NA,NA,1021.4,"METAR KDUJ 162153Z AUTO 08005KT 10SM CLR 26/09 A3016 RMK AO2 SLP203 T02560094",2025-09-16 22:42:14.866042,2025-09-16 18:42:14.866088
"KELM","Elmira-Corning Rgnl, NY, US",2025-09-16 21:53:00,"2025-09-16 17:53:00","VFR",25,12.2,70,7,NA,NA,1021.4,"METAR KELM 162153Z 07007KT 10SM CLR 25/12 A3016 RMK AO2 SLP212 T02500122",2025-09-16 22:42:14.872725,2025-09-16 18:42:14.87277
"KELY","Ely/Yelland Fld, NV, US",2025-09-16 21:53:00,"2025-09-16 14:53:00","VFR",25.6,-6.1,NA,3,NA,NA,1024.5,"METAR KELY 162153Z AUTO VRB03KT 10SM CLR 26/M06 A3025 RMK AO2 SLP153 T02561061",2025-09-16 22:42:14.879418,2025-09-16 18:42:14.879463
"KEEO","Meeker Arpt, CO, US",2025-09-16 21:53:00,"2025-09-16 21:53:00","VFR",20.6,1.7,0,0,NA,NA,1023.8,"METAR KEEO 162153Z AUTO 00000KT 10SM CLR 21/02 A3023 RMK AO2 SLP163 T02060017",2025-09-16 22:42:14.886013,2025-09-16 18:42:14.886057
"KELN","Ellensburg/Bowers Fld, WA, US",2025-09-16 21:53:00,"2025-09-16 14:53:00","VFR",25,7.2,150,11,NA,NA,1021.4,"METAR KELN 162153Z AUTO 15011KT 10SM CLR 25/07 A3016 RMK AO2 SLP206 T02500072",2025-09-16 22:42:14.892596,2025-09-16 18:42:14.892643
"KDMN","Deming Muni, NM, US",2025-09-16 21:53:00,"2025-09-16 15:53:00","VFR",31.7,8.9,150,6,NA,NA,1019.4,"METAR KDMN 162153Z AUTO 15006KT 10SM CLR 32/09 A3010 RMK AO2 LTG DSNT SW SLP113 T03170089",2025-09-16 22:42:14.912245,2025-09-16 18:42:14.912293
"KDTO","Denton Muni, TX, US",2025-09-16 21:53:00,"2025-09-16 21:53:00","VFR",33.9,15.6,210,5,NA,NA,1017.7,"METAR KDTO 162153Z 21005KT 10SM CLR 34/16 A3005 RMK AO2 SLP167 T03390156",2025-09-16 22:42:14.919289,2025-09-16 18:42:14.919335
"KDXR","Danbury Muni, CT, US",2025-09-16 21:53:00,"2025-09-16 17:53:00","VFR",20.6,12.8,170,4,NA,NA,1023.8,"METAR KDXR 162153Z 17004KT 10SM CLR 21/13 A3023 RMK AO2 SLP234 T02060128",2025-09-16 22:42:14.926346,2025-09-16 18:42:14.926393
"KDPA","Dupage Cnty Arpt, IL, US",2025-09-16 21:52:00,"2025-09-16 16:52:00","VFR",27.8,13.9,90,8,NA,NA,1021.1,"METAR KDPA 162152Z 09008KT 10SM CLR 28/14 A3015 RMK AO2 SLP204 T02780139",2025-09-16 22:42:14.93295,2025-09-16 18:42:14.932994
"KDVN","Davenport Muni, IA, US",2025-09-16 21:52:00,"2025-09-16 16:52:00","VFR",31.7,16.1,70,4,NA,NA,1020.4,"METAR KDVN 162152Z AUTO 07004KT 10SM CLR 32/16 A3013 RMK AO2 SLP195 T03170161",2025-09-16 22:42:14.93949,2025-09-16 18:42:14.939538
"KEKN","Elkins Arpt, WV, US",2025-09-16 21:51:00,"2025-09-16 17:51:00","VFR",23.9,10,NA,NA,NA,NA,1021.8,"METAR KEKN 162151Z AUTO 10SM FEW080 BKN110 24/10 A3017 RMK AO2 SLP210 T02390100",2025-09-16 22:42:14.946018,2025-09-16 18:42:14.946063
"KFFA","Kill Devil Hill/First Flight Arpt, NC, US",2025-09-16 22:40:00,"2025-09-16 18:40:00","MVFR",18.3,16.9,270,12,18,NA,1013.6,"METAR KFFA 162240Z AUTO 27012G18KT 10SM OVC011 18/17 A2993 RMK AO2 T01830169",2025-09-16 22:42:18.477638,2025-09-16 18:42:18.477681
"KFME","Fort Meade/Tipton Fld, MD, US",2025-09-16 22:39:00,"2025-09-16 18:39:00","VFR",16,14,340,6,NA,NA,1020.7,"METAR KFME 162239Z AUTO 34006KT 10SM OVC046 16/14 A3014 RMK AO1",2025-09-16 22:42:18.484269,2025-09-16 18:42:18.484314
"KFKR","Frankfort Muni, IN, US",2025-09-16 22:35:00,"2025-09-16 22:35:00","VFR",NA,NA,50,4,NA,NA,1019.7,"METAR KFKR 162235Z AUTO 05004KT 10SM CLR A3011 RMK AO2",2025-09-16 22:42:18.490745,2025-09-16 18:42:18.490789
"KF17","Center Muni, TX, US",2025-09-16 22:35:00,"2025-09-16 22:35:00","VFR",31,18,310,5,NA,NA,1017.4,"METAR KF17 162235Z AUTO 31005KT 10SM CLR 31/18 A3004 RMK AO2",2025-09-16 22:42:18.497199,2025-09-16 18:42:18.497255
"KF05","Vernon/Wilbarger Cnty, TX, US",2025-09-16 22:35:00,"2025-09-16 17:35:00","VFR",35,13.3,190,8,NA,NA,1017.7,"METAR KF05 162235Z AUTO 19008KT 10SM CLR 35/13 A3005 RMK AO2 LTG DSNT NE AND E T03500133",2025-09-16 22:42:18.503658,2025-09-16 18:42:18.503702
"KENL","Centralia Muni, IL, US",2025-09-16 22:35:00,"2025-09-16 17:35:00","VFR",33.6,11.8,40,3,NA,NA,1018,"METAR KENL 162235Z AUTO 04003KT 10SM CLR 34/12 A3006 RMK AO2 T03360118",2025-09-16 22:42:18.510083,2025-09-16 18:42:18.510128
"KFBR","Fort Bridger Arpt, WY, US",2025-09-16 22:35:00,"2025-09-16 16:35:00","VFR",22.1,-6.6,320,13,18,NA,1026.5,"METAR KFBR 162235Z AUTO 32013G18KT 10SM BKN090 22/M07 A3031 RMK AO2 T02211066",2025-09-16 22:42:18.516516,2025-09-16 18:42:18.51656
"KEYF","Elizabethtown/Brown Fld, NC, US",2025-09-16 22:35:00,"2025-09-16 22:35:00","VFR",21.4,14.5,10,5,NA,NA,1019,"METAR KEYF 162235Z AUTO 01005KT 10SM OVC055 21/15 A3009 RMK AO2 T02140145",2025-09-16 22:42:18.522956,2025-09-16 18:42:18.523001
"KFBL","Faribault Muni, MN, US",2025-09-16 22:35:00,"2025-09-16 17:35:00","VFR",NA,NA,170,4,NA,NA,1019,"METAR KFBL 162235Z AUTO 17004KT 10SM CLR A3009 RMK AO2",2025-09-16 22:42:18.541279,2025-09-16 18:42:18.541341
"KEVU","Maryville/NW Missouri Rgnl, MO, US",2025-09-16 22:35:00,"2025-09-16 22:35:00","VFR",32.8,18.3,150,8,NA,NA,1018.7,"METAR KEVU 162235Z AUTO 15008KT 10SM CLR 32/18 A3008 RMK AO2 LTG DSNT SE T03280183",2025-09-16 22:42:18.548473,2025-09-16 18:42:18.548519
"KEMV","Emporia Muni, VA, US",2025-09-16 22:35:00,"2025-09-16 22:35:00","IFR",16,15.1,290,10,14,7,1018.7,"METAR KEMV 162235Z AUTO 29010G14KT 7SM -RA BKN009 OVC015 16/15 A3008 RMK AO2 P0002 T01600151",2025-09-16 22:42:18.555254,2025-09-16 18:42:18.555299
"KF70","Murrieta/French Valley Arpt, CA, US",2025-09-16 22:35:00,"2025-09-16 15:35:00","VFR",38,13,230,9,NA,NA,1012.6,"METAR KF70 162235Z AUTO 23009KT 10SM CLR 38/13 A2990 RMK AO2",2025-09-16 22:42:18.562095,2025-09-16 18:42:18.562139
"KFKA","Preston/Fillmore Cnty, MN, US",2025-09-16 22:35:00,"2025-09-16 22:35:00","VFR",27,23,170,4,NA,NA,1020.4,"METAR KFKA 162235Z AUTO 17004KT 10SM CLR 27/23 A3013 RMK AO2 LTG DSNT SW",2025-09-16 22:42:18.568405,2025-09-16 18:42:18.568448
"KF46","Rockwall Muni, TX, US",2025-09-16 22:35:00,"2025-09-16 22:35:00","VFR",32.6,16.9,0,0,NA,NA,1017.7,"METAR KF46 162235Z AUTO 00000KT 10SM CLR 33/17 A3005 RMK AO2 T03260169",2025-09-16 22:42:18.574862,2025-09-16 18:42:18.574908
"KFFM","Fergus Falls/Mickelson Fld, MN, US",2025-09-16 22:35:00,"2025-09-16 17:35:00","VFR",29,16,340,9,NA,NA,1018.4,"METAR KFFM 162235Z AUTO 34009KT 10SM CLR 29/16 A3007 RMK AO2",2025-09-16 22:42:18.581272,2025-09-16 18:42:18.581318
"KEQA","El Dorado/Thomas Mem, KS, US",2025-09-16 22:35:00,"2025-09-16 17:35:00","VFR",32,16,170,6,NA,NA,1018.7,"METAR KEQA 162235Z AUTO 17006KT 10SM CLR 32/16 A3008 RMK AO2",2025-09-16 22:42:18.587708,2025-09-16 18:42:18.587752
"KETC","Tarboro/Edgecombe Arpt, NC, US",2025-09-16 22:35:00,"2025-09-16 22:35:00","IFR",17.4,15.9,300,6,NA,2.5,1018.4,"METAR KETC 162235Z AUTO 30006KT 2 1/2SM BR OVC013 17/16 A3007 RMK AO2 T01740159",2025-09-16 22:42:18.594161,2025-09-16 18:42:18.594205
"KFKN","Franklin/Rose Arpt, VA, US",2025-09-16 22:35:00,"2025-09-16 18:35:00","IFR",16.3,14.7,310,10,NA,NA,1016.3,"METAR KFKN 162235Z AUTO 31010KT 10SM -DZ OVC008 16/15 A3001 RMK AO2 LTG DSNT NE T01630147",2025-09-16 22:42:18.600607,2025-09-16 18:42:18.600652
"KFFL","Fairfield Muni, IA, US",2025-09-16 22:35:00,"2025-09-16 17:35:00","VFR",32,15,170,5,NA,NA,1019,"METAR KFFL 162235Z AUTO 17005KT 10SM CLR 32/15 A3009 RMK A01",2025-09-16 22:42:18.607105,2025-09-16 18:42:18.607148
"KEZS","Shawano Muni, WI, US",2025-09-16 22:35:00,"2025-09-16 22:35:00",NA,28.8,13.7,170,3,NA,NA,1021.1,"METAR KEZS 162235Z AUTO 17003KT 29/14 A3015 RMK AO2 T02880137 PWINO",2025-09-16 22:42:18.61349,2025-09-16 18:42:18.613532
"KERV","Kerrville Muni, TX, US",2025-09-16 22:35:00,"2025-09-16 17:35:00","VFR",30.7,13.4,160,6,NA,NA,NA,"METAR KERV 162235Z AUTO 16006KT 10SM SCT075 31/13 RMK AO2 T03070134",2025-09-16 22:42:18.619924,2025-09-16 18:42:18.619969
"KERY","Newberry/Luce Cnty, MI, US",2025-09-16 22:35:00,"2025-09-16 22:35:00","VFR",23,15,180,6,NA,NA,1021.8,"METAR KERY 162235Z AUTO 18006KT 10SM CLR 23/15 A3017 RMK AO2",2025-09-16 22:42:18.62638,2025-09-16 18:42:18.626425
"KFMM","Fort Morgan Muni, CO, US",2025-09-16 22:35:00,"2025-09-16 22:35:00","VFR",25,12,360,13,NA,NA,1019,"METAR KFMM 162235Z AUTO 36013KT 10SM CLR 25/12 A3009 RMK AO2 LTG DSNT S AND SW",2025-09-16 22:42:18.632861,2025-09-16 18:42:18.632908
"KF44","Athens Muni, TX, US",2025-09-16 22:35:00,"2025-09-16 22:35:00","VFR",33,18,40,3,NA,NA,1017,"METAR KF44 162235Z AUTO 04003KT 10SM SCT065 33/18 A3003 RMK AO2",2025-09-16 22:42:18.639406,2025-09-16 18:42:18.639451
"KF00","Bonham/Jones Fld, TX, US",2025-09-16 22:35:00,"2025-09-16 22:35:00","VFR",33,16,310,3,NA,NA,1017.7,"METAR KF00 162235Z AUTO 31003KT 10SM CLR 33/16 A3005 RMK AO2",2025-09-16 22:42:18.6459,2025-09-16 18:42:18.645947
"KEXX","Lexington/Davidson Cnty, NC, US",2025-09-16 22:35:00,"2025-09-16 22:35:00","VFR",22.5,10,30,5,NA,NA,1020.4,"METAR KEXX 162235Z AUTO 03005KT 10SM OVC090 23/10 A3013 RMK AO2 T02250100",2025-09-16 22:42:18.652338,2025-09-16 18:42:18.652383
"KEOK","Keokuk Muni, IA, US",2025-09-16 22:35:00,"2025-09-16 17:35:00","VFR",30,17,360,4,NA,NA,1019,"METAR KEOK 162235Z AUTO 36004KT 10SM CLR 30/17 A3009 RMK A01",2025-09-16 22:42:18.658763,2025-09-16 18:42:18.658823
"KFFX","Fremont Muni, MI, US",2025-09-16 22:35:00,"2025-09-16 22:35:00","VFR",26,14,270,8,NA,NA,1021.4,"METAR KFFX 162235Z AUTO 27008KT 10SM CLR 26/14 A3016 RMK AO2",2025-09-16 22:42:18.677444,2025-09-16 18:42:18.677504
"KFDW","Winnsboro/Fairfield Cnty, SC, US",2025-09-16 22:35:00,"2025-09-16 22:35:00","VFR",23,15,320,5,NA,NA,1018.7,"METAR KFDW 162235Z AUTO 32005KT 10SM OVC110 23/15 A3008 RMK AO1",2025-09-16 22:42:18.685045,2025-09-16 18:42:18.685094
"KFET","Fremont Muni, NE, US",2025-09-16 22:35:00,"2025-09-16 17:35:00","VFR",32.1,17.5,150,8,NA,NA,1018,"METAR KFET 162235Z AUTO 15008KT 10SM CLR 32/18 A3006 RMK AO2 T03210175",2025-09-16 22:42:18.692051,2025-09-16 18:42:18.692097
"KEOE","Newberry Muni, SC, US",2025-09-16 22:35:00,"2025-09-16 22:35:00","VFR",25,13,280,4,NA,NA,1020.1,"METAR KEOE 162235Z AUTO 28004KT 10SM CLR 25/13 A3012 RMK AO2",2025-09-16 22:42:18.698949,2025-09-16 18:42:18.699004
"KEZF","Fredericksburg/Shannon Aprt, VA, US",2025-09-16 22:35:00,"2025-09-16 22:35:00","MVFR",NA,NA,340,7,NA,NA,1020.1,"METAR KEZF 162235Z AUTO 34007KT 300V010 10SM -RA BKN010 BKN029 OVC045 A3012 RMK AO2 P0019",2025-09-16 22:42:18.705378,2025-09-16 18:42:18.705421
"KFKS","Frankfort/Dow Mem, MI, US",2025-09-16 22:35:00,"2025-09-16 22:35:00","VFR",24,14,NA,1,NA,NA,1021.8,"METAR KFKS 162235Z AUTO VRB01KT 10SM CLR 24/14 A3017 RMK AO2",2025-09-16 22:42:18.711952,2025-09-16 18:42:18.711998
"KEVM","Eveleth Muni, MN, US",2025-09-16 22:35:00,"2025-09-16 17:35:00","VFR",28.5,19,240,9,15,NA,1017.7,"METAR KEVM 162235Z AUTO 24009G15KT 10SM SCT065 29/19 A3005 RMK AO2 LTG DSNT NE T02850190",2025-09-16 22:42:18.718461,2025-09-16 18:42:18.718507
"KETB","West Bend Muni, WI, US",2025-09-16 22:35:00,"2025-09-16 17:35:00","VFR",26,15,130,6,NA,NA,1021.8,"METAR KETB 162235Z AUTO 13006KT 10SM CLR 26/15 A3017 RMK AO2",2025-09-16 22:42:18.725024,2025-09-16 18:42:18.725068
"KFOA","Flora Muni, IL, US",2025-09-16 22:35:00,"2025-09-16 22:35:00","VFR",32,15,30,6,NA,NA,1018.4,"METAR KFOA 162235Z AUTO 03006KT 10SM CLR 32/15 A3007 RMK AO2",2025-09-16 22:42:18.731471,2025-09-16 18:42:18.731517
"KETH","Wheaton Muni, MN, US",2025-09-16 22:33:00,"2025-09-16 22:33:00","VFR",28,18,310,3,NA,NA,1018.7,"METAR KETH 162233Z AUTO 31003KT 10SM CLR 28/18 A3008 RMK AO2",2025-09-16 22:42:18.737903,2025-09-16 18:42:18.737949
"KFCI","Richmond/Chesterfield Cnty, VA, US",2025-09-16 22:32:00,"2025-09-16 22:32:00","IFR",16,16,350,8,NA,NA,1018.7,"SPECI KFCI 162232Z AUTO 35008KT 10SM -RA OVC008 16/16 A3008 RMK AO2 CIG 007V014 PNO $",2025-09-16 22:42:18.744323,2025-09-16 18:42:18.744367
"KFNL","Fort Collins/N Colorado Rgnl, CO, US",2025-09-16 22:30:00,"2025-09-16 16:30:00","VFR",19,11,230,4,NA,NA,1023.8,"SPECI KFNL 162230Z 23004KT 10SM -TSRA BKN060 BKN075 OVC090 19/11 A3023 RMK AO2 LTG DSNT W-N TSE17B24RAB07 P0000 $",2025-09-16 22:42:18.750728,2025-09-16 18:42:18.750772
"KFDR","Frederick Rgnl, OK, US",2025-09-16 22:30:00,"2025-09-16 17:30:00","VFR",31.1,15,110,10,NA,NA,1016.7,"SPECI KFDR 162230Z AUTO 11010KT 10SM VCTS FEW080 OVC110 31/15 A3002 RMK AO2 LTG DSNT E TSE00 T03110150",2025-09-16 22:42:18.757151,2025-09-16 18:42:18.757197
"KFCH","Fresno/Chandler Exec, CA, US",2025-09-16 22:26:12,"2025-09-16 15:26:12","VFR",36,7,0,0,NA,NA,1012.6,"METAR KFCH 162340Z AUTO 00000KT 10SM CLR 36/07 A2990 RMK A01",2025-09-16 22:42:18.763592,2025-09-16 18:42:18.763636
"KETN","Eastland Muni, TX, US",2025-09-16 22:20:00,"2025-09-16 17:20:00","VFR",32.4,11,160,9,18,NA,1018.4,"METAR KETN 162220Z AUTO 16009G18KT 10SM SCT120 32/11 A3007 RMK AO2 T03240110",2025-09-16 22:42:18.770135,2025-09-16 18:42:18.77018
"KFGX","Flemingsburg Arpt, KY, US",2025-09-16 22:15:00,"2025-09-16 22:15:00","VFR",27.5,10.9,90,4,NA,NA,1019.7,"METAR KFGX 162215Z AUTO 09004KT 10SM CLR 28/11 A3011 RMK AO2 T02750109",2025-09-16 22:42:18.776691,2025-09-16 18:42:18.776735
"KF45","North Palm Beach Cnty, FL, US",2025-09-16 22:10:00,"2025-09-16 22:10:00","VFR",27,26,0,0,NA,NA,1016.3,"METAR KF45 162210Z AUTO 00000KT 10SM CLR 27/26 A3001 RMK AO2 LTG DSNT SW",2025-09-16 22:42:18.783288,2025-09-16 18:42:18.783333
"KEWN","New Bern/Coastal Carolina Rgnl, NC, US",2025-09-16 22:03:00,"2025-09-16 18:03:00","MVFR",20,15.6,340,9,NA,NA,1017.7,"SPECI KEWN 162203Z 34009KT 10SM BKN023 OVC034 20/16 A3005 RMK AO2 T02000156 PNO $",2025-09-16 22:42:18.789931,2025-09-16 18:42:18.789979
"KEUF","Eufaula/Weedon Fld, AL, US",2025-09-16 21:58:00,"2025-09-16 16:58:00","VFR",31.1,13.9,90,3,NA,NA,1018,"METAR KEUF 162158Z AUTO 09003KT 10SM CLR 31/14 A3006 RMK AO1 SLP176 T03110139",2025-09-16 22:42:18.796499,2025-09-16 18:42:18.796544
"KFLG","Flagstaff/Pulliam Arpt, AZ, US",2025-09-16 21:57:00,"2025-09-16 14:57:00","VFR",25,0,250,8,23,NA,1026.2,"METAR KFLG 162157Z 25008G23KT 10SM FEW095 25/00 A3030 RMK AO2 PK WND 30029/2120 SLP167 T02500000",2025-09-16 22:42:18.815635,2025-09-16 18:42:18.815697
"KEUL","Caldwell Ind Arpt, ID, US",2025-09-16 21:56:00,"2025-09-16 21:56:00","VFR",26.7,5.6,90,3,NA,NA,1021.4,"METAR KEUL 162156Z AUTO 09003KT 10SM CLR 27/06 A3016 RMK AO2 SLP201 T02670056",2025-09-16 22:42:18.823205,2025-09-16 18:42:18.823253
"KENV","Wendover Arpt, UT, US",2025-09-16 21:56:00,"2025-09-16 15:56:00","VFR",26.1,-2.2,130,8,NA,NA,1023.1,"METAR KENV 162156Z AUTO 13008KT 10SM CLR 26/M02 A3021 RMK AO2 SLP200 T02611022",2025-09-16 22:42:18.830125,2025-09-16 18:42:18.830171
"KFKL","Franklin/Lamberton Fld, PA, US",2025-09-16 21:56:00,"2025-09-16 17:56:00","VFR",27.2,11.7,NA,3,NA,NA,1021.8,"METAR KFKL 162156Z AUTO VRB03KT 10SM FEW065 27/12 A3017 RMK AO2 SLP210 T02720117",2025-09-16 22:42:18.837056,2025-09-16 18:42:18.837104
"KESC","Escanaba/Delta Cnty, MI, US",2025-09-16 21:56:00,"2025-09-16 17:56:00","VFR",22.8,18.3,140,9,NA,NA,1021.4,"METAR KESC 162156Z AUTO 14009KT 10SM CLR 23/18 A3016 RMK AO2 SLP216 T02280183",2025-09-16 22:42:18.843477,2025-09-16 18:42:18.843522
"KFMH","Otis ANGB, MA, US",2025-09-16 21:56:00,"2025-09-16 17:56:00","VFR",18,12,60,10,NA,NA,1024.5,"METAR KFMH 162156Z 06010KT 10SM CLR 18/12 A3025",2025-09-16 22:42:18.849909,2025-09-16 18:42:18.849955
"KFAM","Farmington Rgnl, MO, US",2025-09-16 21:56:00,"2025-09-16 16:56:00","VFR",33.3,11.7,NA,6,NA,NA,1018.7,"METAR KFAM 162156Z AUTO VRB06KT 10SM CLR 33/12 A3008 RMK AO2 SLPNO T03330117 $",2025-09-16 22:42:18.856411,2025-09-16 18:42:18.856458
"KFLP","Flippin/Marion Cnty, AR, US",2025-09-16 21:56:00,"2025-09-16 16:56:00","VFR",36.1,14.4,10,10,14,NA,1017.7,"METAR KFLP 162156Z AUTO 01010G14KT 10SM FEW085 36/14 A3005 RMK AO2 SLP167 T03610144 $",2025-09-16 22:42:18.86292,2025-09-16 18:42:18.862965
"KEWK","Newton City Arpt, KS, US",2025-09-16 21:56:00,"2025-09-16 16:56:00","VFR",31.1,17.8,160,13,NA,NA,1019,"METAR KEWK 162156Z AUTO 16013KT 10SM CLR 31/18 A3009 RMK AO2 SLP172 T03110178 $",2025-09-16 22:42:18.869357,2025-09-16 18:42:18.869401
"KFFO","Wright Patterson AFB, OH, US",2025-09-16 21:55:00,"2025-09-16 17:55:00","VFR",30.4,9.3,160,4,NA,NA,1019,"METAR KFFO 162155Z AUTO 16004KT 10SM CLR 30/09 A3009 RMK AO2 SLP187 T03040093",2025-09-16 22:42:18.87579,2025-09-16 18:42:18.875855
"KFCS","Fort Carson/Butts AAF, CO, US",2025-09-16 21:55:00,"2025-09-16 15:55:00","VFR",22.2,3.8,320,4,NA,NA,1021.4,"METAR KFCS 162155Z AUTO 32004KT 10SM VCTS BKN100 OVC130 22/04 A3016 RMK AO2 TSB05E20 SLP169 T02220038 $",2025-09-16 22:42:18.882249,2025-09-16 18:42:18.882293
"KEND","Enid/Vance AFB, OK, US",2025-09-16 21:55:00,"2025-09-16 16:55:00","VFR",32.3,18.1,170,12,NA,NA,1016.7,"METAR KEND 162155Z AUTO 17012KT 10SM CLR 32/18 A3002 RMK AO2 SLP153 T03230181 $",2025-09-16 22:42:18.88867,2025-09-16 18:42:18.888715
"KFHU","Fort Huachuca/Libby AAF, AZ, US",2025-09-16 21:55:00,"2025-09-16 14:55:00","VFR",29.4,12.7,130,17,25,NA,1020.7,"METAR KFHU 162155Z AUTO 13017G25KT 10SM CLR 29/13 A3014 RMK AO2 SLP132 T02940127",2025-09-16 22:42:18.895158,2025-09-16 18:42:18.895203
"KFAF","Fort Eustis/Felker AAF, VA, US",2025-09-16 21:55:00,"2025-09-16 17:55:00","VFR",18.2,16.3,360,10,18,NA,1014.3,"METAR KFAF 162155Z 36010G18KT 330V030 10SM -RA SCT012 18/16 A2995 RMK RAE21RAB25 SLP146 P0007 T01820163 $",2025-09-16 22:42:18.901632,2025-09-16 18:42:18.901675
"KFBG","Fort Bragg/Simmons AAF, NC, US",2025-09-16 21:55:00,"2025-09-16 17:55:00","VFR",23.6,13.7,20,9,NA,NA,1018,"METAR KFBG 162155Z AUTO 02009KT 10SM OVC060 24/14 A3006 RMK AO2 SLP181 T02360137",2025-09-16 22:42:18.908174,2025-09-16 18:42:18.908219
"KEUG","Eugene/Mahlon Sweet Fld, OR, US",2025-09-16 21:54:00,"2025-09-16 14:54:00","VFR",31.7,8.3,NA,3,NA,NA,1013.3,"METAR KEUG 162154Z VRB03KT 10SM FEW030 32/08 A2992 RMK AO2 SLP130 HZ FEW030 T03170083 $",2025-09-16 22:42:18.914686,2025-09-16 18:42:18.914731
"KEVV","Evansville Rgnl, IN, US",2025-09-16 21:54:00,"2025-09-16 16:54:00","VFR",33.3,12.8,40,8,NA,NA,1018,"METAR KEVV 162154Z 04008KT 10SM CLR 33/13 A3006 RMK AO2 SLP174 T03330128 $",2025-09-16 22:42:18.921225,2025-09-16 18:42:18.92127
"KFFZ","Mesa/Falcon Fld, AZ, US",2025-09-16 21:54:00,"2025-09-16 14:54:00","VFR",38.3,10.6,290,8,NA,NA,1011.3,"METAR KFFZ 162154Z 29008KT 10SM CLR 38/11 A2986 RMK AO2 SLP083 T03830106",2025-09-16 22:42:18.927686,2025-09-16 18:42:18.927731
"KFIG","Clearfield/Lawrence Arpt, PA, US",2025-09-16 21:54:00,"2025-09-16 21:54:00","VFR",25.6,10,80,4,NA,NA,1021.4,"METAR KFIG 162154Z AUTO 08004KT 10SM CLR 26/10 A3016 RMK AO2 SLP209 T02560100",2025-09-16 22:42:18.934172,2025-09-16 18:42:18.934216
"KFNT","Flint/Bishop Intl, MI, US",2025-09-16 21:53:00,"2025-09-16 17:53:00","VFR",26.1,10.6,NA,5,NA,NA,1022.1,"METAR KFNT 162153Z VRB05KT 10SM CLR 26/11 A3018 RMK AO2 SLP217 T02610106 $",2025-09-16 22:42:18.952597,2025-09-16 18:42:18.952666
"KFLO","Florence Rgnl, SC, US",2025-09-16 21:53:00,"2025-09-16 17:53:00","VFR",27.8,11.1,360,8,NA,NA,1017.7,"METAR KFLO 162153Z 36008KT 10SM CLR 28/11 A3005 RMK AO2 SLP174 T02780111",2025-09-16 22:42:18.960229,2025-09-16 18:42:18.960277
"KFDY","Findlay Arpt, OH, US",2025-09-16 21:53:00,"2025-09-16 17:53:00","VFR",28.3,15.6,60,8,NA,NA,1020.4,"METAR KFDY 162153Z AUTO 06008KT 10SM CLR 28/16 A3013 RMK AO2 SLP194 T02830156",2025-09-16 22:42:18.967202,2025-09-16 18:42:18.967249
"KFMN","Farmington/Four Corners Rgnl, NM, US",2025-09-16 21:53:00,"2025-09-16 15:53:00","VFR",28.9,-0.6,310,7,16,NA,1021.1,"METAR KFMN 162153Z 31007G16KT 10SM CLR 29/M01 A3015 RMK AO2 SLP151 T02891006 $",2025-09-16 22:42:18.974342,2025-09-16 18:42:18.97439
"KFMY","Fort Myers/Page Fld, FL, US",2025-09-16 21:53:00,"2025-09-16 17:53:00","VFR",31.7,20.6,NA,NA,NA,NA,1015.3,"METAR KFMY 162153Z 10SM CLR 32/21 A2998 RMK AO2 SLP155 T03170206",2025-09-16 22:42:18.980913,2025-09-16 18:42:18.980958
"KESF","Alexandria/Esler Rgnl, LA, US",2025-09-16 21:53:00,"2025-09-16 16:53:00","VFR",33.3,18.3,360,4,NA,NA,1016,"METAR KESF 162153Z AUTO 36004KT 10SM CLR 33/18 A3000 RMK AO2 LTG DSNT NE AND E SLP155 T03330183",2025-09-16 22:42:18.987667,2025-09-16 18:42:18.987715
"KFCM","Eden Prairie/Flying, MN, US",2025-09-16 21:53:00,"2025-09-16 16:53:00","VFR",32.2,17.8,230,7,NA,NA,1017.7,"METAR KFCM 162153Z 23007KT 10SM CLR 32/18 A3005 RMK AO2 SLP169 T03220178",2025-09-16 22:42:18.994385,2025-09-16 18:42:18.99443
"KFAT","Fresno/Yosemite Intl, CA, US",2025-09-16 21:53:00,"2025-09-16 14:53:00","VFR",36.1,7.2,0,0,NA,NA,1012.3,"METAR KFAT 162153Z 00000KT 10SM FEW060 FEW100 36/07 A2989 RMK AO2 SLP118 FU FEW100 T03610072",2025-09-16 22:42:19.001004,2025-09-16 18:42:19.001049
"KEPH","Ephrata Muni, WA, US",2025-09-16 21:53:00,"2025-09-16 14:53:00","VFR",27.8,10,NA,NA,NA,NA,1020.7,"METAR KEPH 162153Z AUTO 10SM CLR 28/10 A3014 RMK AO2 SLP200 T02780100",2025-09-16 22:42:19.007538,2025-09-16 18:42:19.007582
"KFNB","Falls City/Brenner Fld, NE, US",2025-09-16 21:53:00,"2025-09-16 21:53:00","VFR",32.8,16.7,170,7,NA,NA,1018,"METAR KFNB 162153Z AUTO 17007KT 10SM CLR 33/17 A3006 RMK AO2 SLP169 T03280167",2025-09-16 22:42:19.014064,2025-09-16 18:42:19.014109
"KENW","Kenosha Rgnl, WI, US",2025-09-16 21:53:00,"2025-09-16 16:53:00","VFR",25,16,80,7,NA,NA,1022.1,"METAR KENW 162153Z 08007KT 10SM CLR 25/16 A3018",2025-09-16 22:42:19.020669,2025-09-16 18:42:19.020715
"KFFC","Peachtree City/Falcon Fld, GA, US",2025-09-16 21:53:00,"2025-09-16 21:53:00","VFR",29.4,14.4,280,4,NA,NA,1018.7,"METAR KFFC 162153Z AUTO 28004KT 10SM FEW065 SCT085 29/14 A3008 RMK AO2 LTG DSNT N AND NW SLP181 T02940144",2025-09-16 22:42:19.027407,2025-09-16 18:42:19.027453
"KEWB","New Bedford Rgnl, MA, US",2025-09-16 21:53:00,"2025-09-16 17:53:00","VFR",18.9,11.7,70,6,NA,NA,1023.8,"METAR KEWB 162153Z 07006KT 10SM CLR 19/12 A3023 RMK AO2 SLP236 T01890117",2025-09-16 22:42:19.034023,2025-09-16 18:42:19.034068
"KFAR","Fargo/Hector Intl, ND, US",2025-09-16 21:53:00,"2025-09-16 16:53:00","VFR",29.4,12.8,270,11,NA,NA,1017.7,"METAR KFAR 162153Z 27011KT 10SM CLR 29/13 A3005 RMK AO2 SLP172 T02940128 $",2025-09-16 22:42:19.040503,2025-09-16 18:42:19.040549
"KEYE","Indianapolis/Eagle Creek Aprt, IN, US",2025-09-16 21:53:00,"2025-09-16 21:53:00","VFR",28.3,9.4,330,7,NA,NA,1019.7,"METAR KEYE 162153Z AUTO 33007KT 10SM CLR 28/09 A3011 RMK AO2 SLP190 T02830094",2025-09-16 22:42:19.046998,2025-09-16 18:42:19.047043
"KEVW","Evanston/Uinta Cnty, WY, US",2025-09-16 21:53:00,"2025-09-16 15:53:00","VFR",20.6,-2.2,280,8,NA,NA,1025.8,"METAR KEVW 162153Z AUTO 28008KT 260V330 10SM BKN090 OVC110 21/M02 A3029 RMK AO2 SLP178 T02061022",2025-09-16 22:42:19.053477,2025-09-16 18:42:19.053521
"KFFT","Frankfort/Capital City Arpt, KY, US",2025-09-16 21:53:00,"2025-09-16 17:53:00",NA,NA,NA,NA,NA,NA,NA,1018.4,"METAR KFFT 162153Z AUTO A3007 RMK AO2 SLPNO PWINO",2025-09-16 22:42:19.059901,2025-09-16 18:42:19.059946
"KFLD","Fond Du Lac Cnty Arpt, WI, US",2025-09-16 21:53:00,"2025-09-16 16:53:00","VFR",27.2,16.7,160,5,NA,NA,1021.4,"METAR KFLD 162153Z AUTO 16005KT 10SM CLR 27/17 A3016 RMK AO2 SLP210 T02720167",2025-09-16 22:42:19.066462,2025-09-16 18:42:19.066509
"KFLL","Ft Lauderdale-Hollywood Intl, FL, US",2025-09-16 21:53:00,"2025-09-16 17:53:00","VFR",27.2,23.3,0,0,NA,NA,1015.7,"METAR KFLL 162153Z 00000KT 10SM FEW022 SCT070 SCT120 BKN180 OVC250 27/23 A2999 RMK AO2 RAE15 SLP154 P0000 T02720233",2025-09-16 22:42:19.073017,2025-09-16 18:42:19.073063
"KEYW","Key West Intl, FL, US",2025-09-16 21:53:00,"2025-09-16 17:53:00","VFR",31.1,25,20,4,NA,NA,1015.3,"METAR KEYW 162153Z 02004KT 10SM FEW032 31/25 A2998 RMK AO2 SLP159 T03110250",2025-09-16 22:42:19.092215,2025-09-16 18:42:19.092287
"KEQY","Charlotte-Monroe Exec, NC, US",2025-09-16 21:53:00,"2025-09-16 21:53:00","VFR",26.1,11.7,350,6,NA,NA,1018.7,"METAR KEQY 162153Z AUTO 35006KT 10SM OVC085 26/12 A3008 RMK AO2 SLP190 T02610117",2025-09-16 22:42:19.100433,2025-09-16 18:42:19.100483
"KFAY","Fayetteville Rgnl, NC, US",2025-09-16 21:53:00,"2025-09-16 17:53:00","VFR",23.3,13.3,10,7,NA,NA,1018.7,"METAR KFAY 162153Z 01007KT 10SM FEW060 OVC075 23/13 A3008 RMK AO2 SLP179 T02330133",2025-09-16 22:42:19.107564,2025-09-16 18:42:19.107612
"KFHR","Friday Harbor Arpt, WA, US",2025-09-16 21:53:00,"2025-09-16 14:53:00","VFR",25.6,12.2,50,9,NA,NA,1014.6,"METAR KFHR 162153Z AUTO 05009KT 10SM CLR 26/12 A2996 RMK AO2 SLP145 T02560122",2025-09-16 22:42:19.114599,2025-09-16 18:42:19.114646
"KFIT","Fitchburg Muni, MA, US",2025-09-16 21:52:00,"2025-09-16 21:52:00","VFR",21.1,9.4,140,9,NA,NA,1024.8,"METAR KFIT 162152Z AUTO 14009KT 10SM CLR 21/09 A3026 RMK AO2 SLP246 T02110094",2025-09-16 22:42:19.121126,2025-09-16 18:42:19.121173
"KEST","Estherville Muni, IA, US",2025-09-16 21:52:00,"2025-09-16 16:52:00","VFR",32.8,15,220,6,NA,NA,1018.7,"METAR KEST 162152Z AUTO 22006KT 10SM CLR 33/15 A3008 RMK AO2 LTG DSNT E-S SLP176 T03280150",2025-09-16 22:42:19.127646,2025-09-16 18:42:19.127693
"KERI","Erie Intl, PA, US",2025-09-16 21:51:00,"2025-09-16 17:51:00","VFR",24.4,13.3,20,9,NA,NA,1021.4,"METAR KERI 162151Z 02009KT 10SM CLR 24/13 A3016 RMK AO2 SLP211 T02440133",2025-09-16 22:42:19.134172,2025-09-16 18:42:19.134216
"KEWR","Newark Intl, NJ, US",2025-09-16 21:51:00,"2025-09-16 17:51:00","VFR",22.8,9.4,70,9,18,NA,1022.4,"METAR KEWR 162151Z 07009G18KT 10SM FEW050 SCT140 BKN180 BKN250 23/09 A3019 RMK AO2 SLP222 T02280094 $",2025-09-16 22:42:19.140616,2025-09-16 18:42:19.140662
"KFDK","Frederick Muni, MD, US",2025-09-16 21:47:00,"2025-09-16 17:47:00","VFR",22,16,90,10,NA,NA,1021.1,"METAR KFDK 162147Z 09010KT 10SM BKN050 22/16 A3015",2025-09-16 22:42:19.147149,2025-09-16 18:42:19.147194
"KEVB","New Smyrna Beach Muni, FL, US",2025-09-16 21:47:00,"2025-09-16 21:47:00","VFR",28,23,40,14,21,NA,1017.7,"METAR KEVB 162147Z 04014G21KT 10SM SCT040 28/23 A3005",2025-09-16 22:42:19.153658,2025-09-16 18:42:19.153704
"KESN","Easton Muni, MD, US",2025-09-16 21:45:00,"2025-09-16 17:45:00","MVFR",17,17,10,7,NA,4,1018.4,"METAR KESN 162145Z 01007KT 4SM -RA BR BKN043 17/17 A3007",2025-09-16 22:42:19.160084,2025-09-16 18:42:19.160129
"KGEV","Jefferson/Ashe Cnty, NC, US",2025-09-16 22:40:00,"2025-09-16 22:40:00","VFR",17.5,11.8,70,3,NA,NA,1022.8,"METAR KGEV 162240Z AUTO 07003KT 10SM CLR 18/12 A3020 RMK AO2 T01750118",2025-09-16 22:42:25.947845,2025-09-16 18:42:25.947892
"KGGP","Logansport/Cass Cnty, IN, US",2025-09-16 22:36:00,"2025-09-16 22:36:00","VFR",27,13,0,0,NA,NA,1020.7,"METAR KGGP 162236Z AUTO 00000KT 10SM CLR 27/13 A3014 RMK AO2",2025-09-16 22:42:25.954373,2025-09-16 18:42:25.954417
"KGRN","Gordon Muni, NE, US",2025-09-16 22:35:00,"2025-09-16 16:35:00","VFR",14.5,12.3,80,7,NA,NA,1021.8,"METAR KGRN 162235Z AUTO 08007KT 10SM CLR 15/12 A3017 RMK AO2 LTG DSNT E T01450123",2025-09-16 22:42:25.960819,2025-09-16 18:42:25.960868
"KGCM","Claremore Rgnl, OK, US",2025-09-16 22:35:00,"2025-09-16 22:35:00","VFR",33,20,160,3,NA,NA,1017.7,"METAR KGCM 162235Z AUTO 16003KT 10SM CLR 33/20 A3005 RMK AO2 LTG DSNT N",2025-09-16 22:42:25.979211,2025-09-16 18:42:25.979258
"KFSE","Fosston Muni, MN, US",2025-09-16 22:35:00,"2025-09-16 22:35:00",NA,27,12,290,7,NA,NA,1018.4,"METAR KFSE 162235Z AUTO 29007KT 10SM 27/12 A3007 RMK AO2",2025-09-16 22:42:25.986225,2025-09-16 18:42:25.986273
"KGAF","Grafton/Hutson Fld, ND, US",2025-09-16 22:35:00,"2025-09-16 22:35:00","VFR",27,15,300,11,NA,NA,1018,"METAR KGAF 162235Z AUTO 30011KT 10SM CLR 27/15 A3006 RMK AO2",2025-09-16 22:42:25.993057,2025-09-16 18:42:25.993102
"KFSW","Fort Madison Muni, IA, US",2025-09-16 22:35:00,"2025-09-16 17:35:00","VFR",31,16,340,3,NA,NA,1019.4,"METAR KFSW 162235Z AUTO 34003KT 10SM CLR 31/16 A3010 RMK AO2",2025-09-16 22:42:25.999688,2025-09-16 18:42:25.999733
"KGDJ","Granbury Muni, TX, US",2025-09-16 22:35:00,"2025-09-16 22:35:00",NA,34.1,13,180,5,NA,NA,1018,"METAR KGDJ 162235Z AUTO 18005KT CLR 34/13 A3006 RMK AO2 T03410130 PWINO",2025-09-16 22:42:26.006049,2025-09-16 18:42:26.006094
"KGGF","Grant Muni, NE, US",2025-09-16 22:35:00,"2025-09-16 22:35:00","VFR",16,16,60,14,25,7,1017.7,"METAR KGGF 162235Z AUTO 06014G25KT 7SM VCTS RA FEW009 FEW055 BKN100 16/16 A3005 RMK AO2 LTG DSNT ALQDS",2025-09-16 22:42:26.012434,2025-09-16 18:42:26.012476
"KFWC","Fairfield Muni, IL, US",2025-09-16 22:35:00,"2025-09-16 22:35:00","VFR",32,12.8,0,0,NA,NA,1018,"METAR KFWC 162235Z AUTO 00000KT 10SM SCT075 32/13 A3006 RMK AO2 T03200128",2025-09-16 22:42:26.018814,2025-09-16 18:42:26.018867
"KGMJ","Grove Muni, OK, US",2025-09-16 22:35:00,"2025-09-16 22:35:00","VFR",33,19,NA,3,NA,NA,1018.4,"METAR KGMJ 162235Z AUTO VRB03KT 10SM SCT110 33/19 A3007 RMK AO2 TSNO",2025-09-16 22:42:26.025308,2025-09-16 18:42:26.025351
"KFOM","Fillmore Muni, UT, US",2025-09-16 22:35:00,"2025-09-16 16:35:00","VFR",25,0,NA,4,NA,NA,1022.8,"METAR KFOM 162235Z AUTO VRB04KT 10SM CLR 25/M00 A3020 RMK AO2",2025-09-16 22:42:26.032055,2025-09-16 18:42:26.032099
"KFXY","Forest City Muni, IA, US",2025-09-16 22:35:00,"2025-09-16 17:35:00","VFR",21,17,170,3,NA,NA,1020.7,"METAR KFXY 162235Z AUTO 17003KT 10SM CLR 21/17 A3014 RMK AO2",2025-09-16 22:42:26.038495,2025-09-16 18:42:26.038538
"KFSO","Highgate/Franklin Cnty, VT, US",2025-09-16 22:35:00,"2025-09-16 22:35:00","VFR",21.6,12.8,0,0,NA,NA,1023.5,"METAR KFSO 162235Z AUTO 00000KT 10SM CLR 22/13 A3022 RMK AO2 T02160128",2025-09-16 22:42:26.045125,2025-09-16 18:42:26.04517
"KGBG","Galesburg Muni, IL, US",2025-09-16 22:35:00,"2025-09-16 17:35:00","VFR",30.4,11.8,120,4,NA,NA,1020.1,"METAR KGBG 162235Z AUTO 12004KT 10SM CLR 30/12 A3012 RMK AO2 T03040118",2025-09-16 22:42:26.05159,2025-09-16 18:42:26.051634
"KGLW","Glasgow Muni, KY, US",2025-09-16 22:35:00,"2025-09-16 17:35:00","VFR",30.5,13.7,30,5,NA,NA,1018.4,"METAR KGLW 162235Z AUTO 03005KT 10SM CLR 31/14 A3007 RMK AO2 T03050137",2025-09-16 22:42:26.058103,2025-09-16 18:42:26.058147
"KGLY","Clinton Mem, MO, US",2025-09-16 22:35:00,"2025-09-16 22:35:00","VFR",32,15,0,0,NA,9,1018,"METAR KGLY 162235Z AUTO 00000KT 9SM CLR 32/15 A3006 RMK AO2",2025-09-16 22:42:26.064538,2025-09-16 18:42:26.06458
"KGWB","Auburn/De Kalb Cnty, IN, US",2025-09-16 22:35:00,"2025-09-16 22:35:00","VFR",28,14,100,4,NA,NA,1020.4,"METAR KGWB 162235Z AUTO 10004KT 10SM CLR 28/14 A3013 RMK AO2",2025-09-16 22:42:26.071077,2025-09-16 18:42:26.071121
"KFSK","Fort Scott Muni, KS, US",2025-09-16 22:35:00,"2025-09-16 17:35:00","VFR",23.7,19.4,230,6,NA,NA,1019,"METAR KFSK 162235Z AUTO 23006KT 10SM SCT085 BKN110 24/19 A3009 RMK AO2 T02370194",2025-09-16 22:42:26.077603,2025-09-16 18:42:26.077647
"KFRR","Front Royal/Warren Cnty, VA, US",2025-09-16 22:35:00,"2025-09-16 18:35:00","VFR",17.8,11.8,0,0,NA,NA,1021.4,"METAR KFRR 162235Z AUTO 00000KT 10SM BKN060 OVC080 18/12 A3016 RMK AO2 T01780118",2025-09-16 22:42:26.084067,2025-09-16 18:42:26.084114
"KGAO","Galliano/Miller Arpt, LA, US",2025-09-16 22:35:00,"2025-09-16 22:35:00","VFR",28.9,18.7,140,4,NA,NA,1017.7,"METAR KGAO 162235Z AUTO 14004KT 10SM SCT090 BKN110 29/19 A3005 RMK AO2 T02890187",2025-09-16 22:42:26.090588,2025-09-16 18:42:26.090632
"KGOP","Gatesville Muni, TX, US",2025-09-16 22:35:00,"2025-09-16 22:35:00","VFR",33,17,NA,4,NA,NA,1018,"METAR KGOP 162235Z AUTO VRB04KT 10SM CLR 33/17 A3006 RMK AO2",2025-09-16 22:42:26.097116,2025-09-16 18:42:26.097161
"KGHG","Marshfield Muni, MA, US",2025-09-16 22:35:00,"2025-09-16 22:35:00","VFR",18,14,50,5,NA,NA,1024.5,"METAR KGHG 162235Z AUTO 05005KT 10SM CLR 18/14 A3025 RMK AO2",2025-09-16 22:42:26.116159,2025-09-16 18:42:26.116205
"KGNT","Grants-Milan Muni, NM, US",2025-09-16 22:35:00,"2025-09-16 16:35:00","VFR",24,4,190,14,22,NA,1024.8,"METAR KGNT 162235Z AUTO 19014G22KT 150V230 10SM VCTS BKN100 OVC120 24/04 A3026 RMK AO2 LTG DSNT SE AND S T02400040",2025-09-16 22:42:26.123117,2025-09-16 18:42:26.123163
"KFPK","Charotte/Beach Fld, MI, US",2025-09-16 22:35:00,"2025-09-16 22:35:00","VFR",25,13,20,5,NA,NA,1021.8,"METAR KFPK 162235Z AUTO 02005KT 10SM CLR 25/13 A3017 RMK AO2",2025-09-16 22:42:26.129971,2025-09-16 18:42:26.130018
"KFRH","French Lick Muni, IN, US",2025-09-16 22:35:00,"2025-09-16 18:35:00","VFR",27,13,50,3,NA,NA,1019.4,"METAR KFRH 162235Z AUTO 05003KT 10SM CLR 27/13 A3010 RMK AO1",2025-09-16 22:42:26.136532,2025-09-16 18:42:26.136575
"KGGI","Grinnell Rgnl, IA, US",2025-09-16 22:35:00,"2025-09-16 22:35:00","VFR",26.3,21.1,310,6,NA,NA,1020.1,"METAR KGGI 162235Z AUTO 31006KT 10SM RA SCT032 BKN047 OVC050 26/21 A3012 RMK AO2 T02630211",2025-09-16 22:42:26.142919,2025-09-16 18:42:26.142964
"KGDB","Granite Falls Muni, MN, US",2025-09-16 22:35:00,"2025-09-16 22:35:00","VFR",30.1,17.6,240,3,NA,NA,1018,"METAR KGDB 162235Z AUTO 24003KT 10SM CLR 30/18 A3006 RMK AO2 T03010176",2025-09-16 22:42:26.149482,2025-09-16 18:42:26.149527
"KGHW","Glenwood Muni, MN, US",2025-09-16 22:35:00,"2025-09-16 22:35:00","VFR",27,19,250,5,NA,NA,1019,"METAR KGHW 162235Z AUTO 25005KT 10SM CLR 27/19 A3009 RMK AO2",2025-09-16 22:42:26.155908,2025-09-16 18:42:26.155955
"KFVX","Farmville Muni, VA, US",2025-09-16 22:35:00,"2025-09-16 22:35:00","VFR",17.6,17.3,0,0,NA,7,1020.1,"METAR KFVX 162235Z AUTO 00000KT 7SM RA SCT026 OVC049 18/17 A3012 RMK AO2 P0001 T01760173",2025-09-16 22:42:26.162274,2025-09-16 18:42:26.162318
"KFSD","Sioux Falls/Foss Fld, SD, US",2025-09-16 22:35:00,"2025-09-16 17:35:00","VFR",30,16.7,210,10,21,NA,1018.7,"SPECI KFSD 162235Z 21010G21KT 10SM TSRAGR SCT070CB SCT150 BKN250 30/17 A3008 RMK AO2 RAB24GRB30 TSB20 OCNL LTGIC OHD TS OHD MOV N GR LESS THAN 1/4 P0000 T03000167",2025-09-16 22:42:26.168762,2025-09-16 18:42:26.168824
"KGPM","Grand Prairie Muni, TX, US",2025-09-16 22:35:00,"2025-09-16 22:35:00","VFR",33.1,12.3,0,0,NA,NA,1017.7,"METAR KGPM 162235Z AUTO 00000KT 10SM CLR 33/12 A3005 RMK AO2 T03310123",2025-09-16 22:42:26.175195,2025-09-16 18:42:26.17524
"KGPH","Mosby/Midwest Air Center, MO, US",2025-09-16 22:35:00,"2025-09-16 22:35:00","VFR",29,16,40,7,NA,NA,1018.7,"METAR KGPH 162235Z AUTO 04007KT 10SM CLR 29/16 A3008 RMK AO2",2025-09-16 22:42:26.181671,2025-09-16 18:42:26.181715
"KGGE","Georgetown Cnty, SC, US",2025-09-16 22:35:00,"2025-09-16 18:35:00","VFR",25,11,340,3,NA,NA,1018,"METAR KGGE 162235Z AUTO 34003KT 10SM CLR 25/11 A3006 RMK AO2",2025-09-16 22:42:26.188132,2025-09-16 18:42:26.188176
"KGNB","Granby/Grand Cnty, CO, US",2025-09-16 22:35:00,"2025-09-16 22:35:00","VFR",15.2,2.8,250,14,NA,NA,1028.5,"METAR KGNB 162235Z AUTO 25014KT 10SM -TSRA SCT060 BKN080 OVC110 15/03 A3037 RMK AO2 LTG DSNT SE THRU NW T01520028",2025-09-16 22:42:26.194572,2025-09-16 18:42:26.194616
"KGVT","Greenville/Majors Arpt, TX, US",2025-09-16 22:35:00,"2025-09-16 17:35:00","VFR",33,17,180,5,NA,NA,1017.7,"METAR KGVT 162235Z AUTO 18005KT 10SM SCT070 33/17 A3005 RMK AO2",2025-09-16 22:42:26.20113,2025-09-16 18:42:26.201176
"KFZG","Fitzgerald Muni, GA, US",2025-09-16 22:35:00,"2025-09-16 22:35:00","VFR",29.1,15.1,70,4,NA,NA,1019,"METAR KFZG 162235Z AUTO 07004KT 10SM CLR 29/15 A3009 RMK AO2 T02910151",2025-09-16 22:42:26.207709,2025-09-16 18:42:26.207754
"KFYJ","West Point/Middle Peninsula Arpt, VA, US",2025-09-16 22:35:00,"2025-09-16 22:35:00","MVFR",16.3,15.6,NA,NA,NA,NA,1017,"METAR KFYJ 162235Z AUTO 10SM BKN010 BKN019 OVC026 16/16 A3003 RMK AO1 P0002 T01630156",2025-09-16 22:42:26.214364,2025-09-16 18:42:26.214408
"KGVE","Gordonsville Muni, VA, US",2025-09-16 22:35:00,"2025-09-16 18:35:00","VFR",15.8,13.1,360,3,NA,NA,NA,"METAR KGVE 162235Z AUTO 36003KT 10SM OVC050 16/13 RMK AO1 T01580131",2025-09-16 22:42:26.220848,2025-09-16 18:42:26.220894
"KGED","Georgetown/Sussex Cnty, DE, US",2025-09-16 22:34:00,"2025-09-16 18:34:00","IFR",17.8,16.7,40,14,22,2,1018,"SPECI KGED 162234Z AUTO 04014G22KT 2SM -RA BR OVC016 18/17 A3006 RMK AO2 LTG DSNT S RAB2155 P0002 T01780167",2025-09-16 22:42:26.227252,2025-09-16 18:42:26.227295
"KFOZ","Bigfork Muni, MN, US",2025-09-16 22:33:00,"2025-09-16 22:33:00","VFR",27,19,220,5,NA,NA,1019.4,"METAR KFOZ 162233Z AUTO 22005KT 10SM SCT041 SCT080 27/19 A3010 RMK AO2",2025-09-16 22:42:26.233738,2025-09-16 18:42:26.233783
"KFRM","Fairmont Muni, MN, US",2025-09-16 22:31:00,"2025-09-16 17:31:00","VFR",26,20,NA,6,NA,NA,1019.4,"SPECI KFRM 162231Z AUTO VRB06KT 10SM -RA FEW041 SCT060 BKN070 26/20 A3010 RMK AO2 LTG DSNT S AND SW TSB09E25RAB03 P0007",2025-09-16 22:42:26.253082,2025-09-16 18:42:26.25313
"KFQD","Rutherfordton/Marchman Fld, NC, US",2025-09-16 22:30:00,"2025-09-16 22:30:00","VFR",20,17,0,0,NA,NA,1020.4,"METAR KFQD 162230Z AUTO 00000KT 10SM BKN120 20/17 A3013 RMK AO2 PNO",2025-09-16 22:42:26.260078,2025-09-16 18:42:26.260124
"KGNC","Seminole/Gaines Cnty, TX, US",2025-09-16 22:15:00,"2025-09-16 22:15:00","VFR",30.4,12.1,110,12,NA,NA,1022.1,"METAR KGNC 162215Z AUTO 11012KT 10SM SCT075 BKN090 30/12 A3018 RMK AO2 T03040121",2025-09-16 22:42:26.266913,2025-09-16 18:42:26.266959
"KGCD","John Day/Grant Cnty, OR, US",2025-09-16 22:15:00,"2025-09-16 15:15:00","VFR",26,4.4,0,0,NA,NA,1022.1,"METAR KGCD 162215Z AUTO 00000KT 10SM CLR 26/04 A3018 RMK AO2 T02600044",2025-09-16 22:42:26.273471,2025-09-16 18:42:26.273515
"KFYE","Somerville/Fayette Cnty, TN, US",2025-09-16 22:15:00,"2025-09-16 22:15:00","VFR",34,14,0,0,NA,NA,1016.3,"METAR KFYE 162215Z AUTO 00000KT 10SM CLR 34/14 A3001 RMK A01",2025-09-16 22:42:26.279891,2025-09-16 18:42:26.279937
"KFOT","Fortuna/Rohnerville Arpt, CA, US",2025-09-16 22:15:00,"2025-09-16 22:15:00","VFR",19,17,300,14,NA,9,1015,"METAR KFOT 162215Z AUTO 30014KT 9SM CLR 19/17 A2997 RMK AO1",2025-09-16 22:42:26.286243,2025-09-16 18:42:26.286286
"KFYM","Fayetteville Muni, TN, US",2025-09-16 22:15:00,"2025-09-16 17:15:00","VFR",30,17,0,0,NA,NA,1018.7,"METAR KFYM 162215Z AUTO 00000KT 10SM CLR 30/17 A3008 RMK A01",2025-09-16 22:42:26.292637,2025-09-16 18:42:26.29268
"KGOO","Grass Valley/Nevada Cnty, CA, US",2025-09-16 22:15:00,"2025-09-16 22:15:00","VFR",30,5,0,0,10,NA,1019,"METAR KGOO 162215Z AUTO 00000G10KT 10SM CLR 30/05 A3009 RMK A01",2025-09-16 22:42:26.299146,2025-09-16 18:42:26.299191
"KGNG","Gooding Muni, ID, US",2025-09-16 22:15:00,"2025-09-16 16:15:00","VFR",24,6,NA,4,NA,NA,1023.8,"METAR KGNG 162215Z AUTO VRB04KT 10SM CLR 24/06 A3023 RMK AO2",2025-09-16 22:42:26.305604,2025-09-16 18:42:26.30565
"KGKT","Gatlinburg-Pigeon Forge Arpt, TN, US",2025-09-16 22:15:00,"2025-09-16 18:15:00","VFR",25,20,70,5,NA,NA,1019,"METAR KGKT 162215Z AUTO 07005KT 10SM BKN050 BKN060 25/20 A3009 RMK A01",2025-09-16 22:42:26.312062,2025-09-16 18:42:26.312107
"KGCY","Greeneville/Greene Cnty, TN, US",2025-09-16 22:15:00,"2025-09-16 18:15:00","VFR",25,17,0,0,NA,NA,1019.4,"METAR KGCY 162215Z AUTO 00000KT 10SM SCT034 SCT042 BKN100 25/17 A3010 RMK A01",2025-09-16 22:42:26.31856,2025-09-16 18:42:26.318604
"KGIF","Winter Haven Rgnl, FL, US",2025-09-16 22:13:00,"2025-09-16 18:13:00","VFR",25.6,23.3,140,13,21,9,1017.4,"SPECI KGIF 162213Z AUTO 14013G21KT 9SM VCTS SCT047 BKN070 OVC100 26/23 A3004 RMK AO1 LTG DSNT NE AND SE AND W T02560233",2025-09-16 22:42:26.324945,2025-09-16 18:42:26.32499
"KFTY","Atlanta/Fulton Cnty, GA, US",2025-09-16 22:11:00,"2025-09-16 18:11:00","VFR",27.8,15.6,70,3,NA,NA,1019,"SPECI KFTY 162211Z 07003KT 10SM CLR 28/16 A3009 RMK AO2 T02780156 $",2025-09-16 22:42:26.331392,2025-09-16 18:42:26.331437
"KGUY","Guymon Muni, OK, US",2025-09-16 22:10:00,"2025-09-16 17:10:00","VFR",22.8,17.2,200,5,NA,NA,1018,"SPECI KGUY 162210Z AUTO 20005KT 10SM -RA FEW047 SCT070 BKN090 23/17 A3006 RMK AO2 PK WND 22030/2154 LTG DSNT NE AND E RAB2154 TSE04 P0010 T02280172",2025-09-16 22:42:26.337888,2025-09-16 18:42:26.337937
"KGSB","Goldsboro/Johnson AFB, NC, US",2025-09-16 22:10:00,"2025-09-16 18:10:00","VFR",21,15,330,8,NA,NA,1018,"SPECI KGSB 162210Z 33008KT 10SM FEW022 SCT030 OVC043 21/15 A3006 RMK AO2A SLP182 $",2025-09-16 22:42:26.344342,2025-09-16 18:42:26.344386
"KGJT","Grand Junction Rgnl, CO, US",2025-09-16 22:08:00,"2025-09-16 16:08:00","VFR",28.9,-0.6,270,4,NA,NA,1018,"SPECI KGJT 162208Z 27004KT 10SM CLR 29/M01 A3006 RMK AO2 LTG DSNT NW T02891006",2025-09-16 22:42:26.350788,2025-09-16 18:42:26.350852
"KGLH","Greenville/Mid Delta Arpt, MS, US",2025-09-16 22:01:00,"2025-09-16 17:01:00","VFR",32.8,18.3,70,15,23,NA,1016,"SPECI KGLH 162201Z 07015G23KT 10SM CLR 33/18 A3000 RMK AO2 WSHFT 2141 T03280183",2025-09-16 22:42:26.357253,2025-09-16 18:42:26.3573
"KGTR","Golden Triangle Arpt, MS, US",2025-09-16 21:56:00,"2025-09-16 16:56:00","VFR",32.8,17.2,110,7,NA,NA,1017,"METAR KGTR 162156Z 11007KT 10SM SCT120 33/17 A3003 RMK AO2 SLP168 T03280172",2025-09-16 22:42:26.363698,2025-09-16 18:42:26.363742
"KGRD","Greenwood Cnty, GA, US",2025-09-16 21:56:00,"2025-09-16 17:56:00","VFR",23.9,15.6,10,4,NA,NA,1020.1,"METAR KGRD 162156Z AUTO 01004KT 10SM OVC095 24/16 A3012 RMK AO2 SLP192 T02390156",2025-09-16 22:42:26.370207,2025-09-16 18:42:26.370253
"KGON","Groton-New London Arpt, CT, US",2025-09-16 21:56:00,"2025-09-16 17:56:00","VFR",18.3,13.9,90,11,NA,NA,1023.1,"METAR KGON 162156Z 09011KT 10SM CLR 18/14 A3021 RMK AO2 SLP229 T01830139",2025-09-16 22:42:26.389616,2025-09-16 18:42:26.389665
"KGDV","Glendive/Dawson Arpt, MT, US",2025-09-16 21:56:00,"2025-09-16 15:56:00","VFR",25.6,10,100,3,NA,NA,1022.1,"METAR KGDV 162156Z AUTO 10003KT 10SM CLR 26/10 A3018 RMK AO2 SLP208 T02560100 TSNO $",2025-09-16 22:42:26.396695,2025-09-16 18:42:26.396741
"KGAD","Gadsden/NE Alabama Rgnl, AL, US",2025-09-16 21:56:00,"2025-09-16 16:56:00",NA,31.7,15,NA,4,NA,NA,1018.4,"METAR KGAD 162156Z AUTO VRB04KT CLR 32/15 A3007 RMK AO2 SLP182 T03170150 PWINO $",2025-09-16 22:42:26.403588,2025-09-16 18:42:26.403636
"KGPZ","Grand Rapids/Itasca Cnty, MN, US",2025-09-16 21:56:00,"2025-09-16 16:56:00","VFR",27.8,18.9,270,7,NA,NA,1018.4,"METAR KGPZ 162156Z AUTO 27007KT 10SM FEW048 28/19 A3007 RMK AO2 SLP177 T02780189",2025-09-16 22:42:26.410099,2025-09-16 18:42:26.410144
"KFOD","Fort Dodge Rgnl, IA, US",2025-09-16 21:56:00,"2025-09-16 16:56:00","VFR",23.9,20,0,0,NA,NA,1020.1,"METAR KFOD 162156Z AUTO 00000KT 10SM CLR 24/20 A3012 RMK AO2 LTG DSNT ALQDS TSB11E41RAE12 SLP206 P0000 T02390200 $",2025-09-16 22:42:26.41655,2025-09-16 18:42:26.416595
"KGUC","Gunnison Arpt, CO, US",2025-09-16 21:56:00,"2025-09-16 15:56:00","VFR",21.1,3.3,110,8,NA,NA,1026.2,"METAR KGUC 162156Z AUTO 11008KT 10SM CLR 21/03 A3030 RMK AO2 LTG DSNT NW-NE SLP190 T02110033 $",2025-09-16 22:42:26.422981,2025-09-16 18:42:26.423024
"KGAI","Gaithersburg/Montgomery Cnty, MD, US",2025-09-16 21:56:00,"2025-09-16 17:56:00","MVFR",16.1,NA,NA,3,NA,4,1022.1,"METAR KGAI 162156Z AUTO VRB03KT 4SM +RA FEW020 BKN037 OVC075 16/ A3018 RMK AO2 SLP232 T0161 PNO $",2025-09-16 22:42:26.429396,2025-09-16 18:42:26.429439
"KGBD","Great Bend Muni, KS, US",2025-09-16 21:56:00,"2025-09-16 16:56:00","VFR",33.3,15.6,150,19,NA,NA,1017.4,"METAR KGBD 162156Z AUTO 15019KT 10SM FEW075 33/16 A3004 RMK AO2 SLP154 T03330156 $",2025-09-16 22:42:26.435813,2025-09-16 18:42:26.435864
"KGTU","Georgetown Muni, TX, US",2025-09-16 21:56:00,"2025-09-16 21:56:00","VFR",35,14.4,90,8,18,NA,1018,"METAR KGTU 162156Z 09008G18KT 10SM BKN085 BKN110 35/14 A3006 RMK AO2 SLP170 T03500144",2025-09-16 22:42:26.442202,2025-09-16 18:42:26.442246
"KGPI","Kalispell/Glacier Park Intl, MT, US",2025-09-16 21:55:00,"2025-09-16 15:55:00",NA,24.4,11.1,NA,NA,NA,NA,1024.8,"METAR KGPI 162155Z CLR 24/11 A3026 RMK AO2 SLP240 T02440111",2025-09-16 22:42:26.448567,2025-09-16 18:42:26.448609
"KGRK","Killeen-Ft Hood Rgnl, TX, US",2025-09-16 21:55:00,"2025-09-16 16:55:00","VFR",33.2,14.7,90,6,NA,NA,1018,"METAR KGRK 162155Z AUTO 09006KT 10SM CLR 33/15 A3006 RMK AO2 SLP166 T03320147",2025-09-16 22:42:26.454996,2025-09-16 18:42:26.45504
"KGRF","Fort Lewis/Gray AAF, WA, US",2025-09-16 21:55:00,"2025-09-16 14:55:00","VFR",32,8.9,290,5,NA,NA,1013,"METAR KGRF 162155Z AUTO 29005KT 10SM CLR 32/09 A2991 RMK AO2 SLP131 T03200089 $",2025-09-16 22:42:26.461396,2025-09-16 18:42:26.461439
"KGFA","Malmstrom AFB, MT, US",2025-09-16 21:55:00,"2025-09-16 15:55:00","VFR",22.4,11.8,20,9,NA,NA,1025.1,"METAR KGFA 162155Z 02009KT 10SM BKN049 OVC060 22/12 A3027 RMK AO2A SLP241 T02240118 $",2025-09-16 22:42:26.467944,2025-09-16 18:42:26.46799
"KFWS","Fort Worth/Spinks Arpt, TX, US",2025-09-16 21:55:00,"2025-09-16 21:55:00","VFR",34,14,140,6,NA,NA,1018,"METAR KFWS 162155Z 14006KT 10SM SCT080 34/14 A3006",2025-09-16 22:42:26.474424,2025-09-16 18:42:26.47447
"KFTK","Fort Knox/Godman AAF, KY, US",2025-09-16 21:55:00,"2025-09-16 17:55:00","VFR",29.9,14.4,330,5,NA,NA,1017.7,"METAR KFTK 162155Z AUTO 33005KT 10SM CLR 30/14 A3005 RMK AO2 SLP171 T02990144",2025-09-16 22:42:26.480946,2025-09-16 18:42:26.481004
"KGUS","Peru/Grissom ARB, IN, US",2025-09-16 21:55:00,"2025-09-16 17:55:00","VFR",28.8,11.8,70,6,NA,NA,1019.4,"METAR KGUS 162155Z AUTO 07006KT 10SM CLR 29/12 A3010 RMK AO2 SLP191 T02880118 PNO $",2025-09-16 22:42:26.487402,2025-09-16 18:42:26.487446
"KGTB","Ft Drum/Wheeler AAF, NY, US",2025-09-16 21:55:00,"2025-09-16 21:55:00","VFR",25.8,12.6,20,6,NA,NA,1021.4,"METAR KGTB 162155Z AUTO 02006KT 10SM CLR 26/13 A3016 RMK AO2 SLP211 T02580126",2025-09-16 22:42:26.493927,2025-09-16 18:42:26.493973
"KGCK","Garden City Rgnl, KS, US",2025-09-16 21:54:00,"2025-09-16 16:54:00","VFR",28.3,16.1,160,10,NA,NA,1017.7,"METAR KGCK 162154Z 16010KT 10SM CLR 28/16 A3005 RMK AO2 SLP144 T02830161",2025-09-16 22:42:26.500365,2025-09-16 18:42:26.500409
"KFZY","Fulton/Oswego Cnty, NY, US",2025-09-16 21:54:00,"2025-09-16 21:54:00","VFR",23.3,13.9,360,5,NA,NA,1022.1,"METAR KFZY 162154Z AUTO 36005KT 10SM CLR 23/14 A3018 RMK AO2 SLP220 T02330139",2025-09-16 22:42:26.506834,2025-09-16 18:42:26.50688
"KGSO","Greensboro Intl, NC, US",2025-09-16 21:54:00,"2025-09-16 17:54:00","VFR",21.7,11.7,360,5,NA,NA,1020.1,"METAR KGSO 162154Z 36005KT 10SM SCT055 BKN090 BKN170 BKN250 22/12 A3012 RMK AO2 SLP191 T02170117",2025-09-16 22:42:26.525646,2025-09-16 18:42:26.525693
"KFWA","Fort Wayne Intl, IN, US",2025-09-16 21:54:00,"2025-09-16 17:54:00","VFR",28.3,13.9,60,5,NA,NA,1020.4,"METAR KFWA 162154Z 06005KT 10SM FEW060 SCT250 28/14 A3013 RMK AO2 SLP199 T02830139",2025-09-16 22:42:26.532458,2025-09-16 18:42:26.532504
"KGCN","Grand Canyon Park Arpt, AZ, US",2025-09-16 21:54:00,"2025-09-16 14:54:00","VFR",26.1,-8.3,250,10,24,NA,1025.1,"METAR KGCN 162154Z 25010G24KT 10SM CLR 26/M08 A3027 RMK AO2 PK WND 25030/2107 SLP173 T02611083",2025-09-16 22:42:26.539225,2025-09-16 18:42:26.539268
"KGCC","Gillette/Campbell Cnty, WY, US",2025-09-16 21:53:00,"2025-09-16 15:53:00","VFR",18.9,8.3,NA,5,NA,NA,1025.1,"METAR KGCC 162153Z AUTO VRB05KT 10SM FEW075 19/08 A3027 RMK AO2 SLP230 T01890083",2025-09-16 22:42:26.545644,2025-09-16 18:42:26.545687
"KGLD","Goodland/Renner Fld, KS, US",2025-09-16 21:53:00,"2025-09-16 15:53:00","VFR",30.6,11.1,190,18,33,NA,1016,"METAR KGLD 162153Z AUTO 19018G33KT 10SM FEW085 31/11 A3000 RMK AO2 PK WND 19033/2148 SLP115 T03060111",2025-09-16 22:42:26.552109,2025-09-16 18:42:26.552154
"KGOK","Guthrie-Edmond Rgnl, OK, US",2025-09-16 21:53:00,"2025-09-16 16:53:00",NA,32.8,17.2,170,5,NA,NA,1018,"METAR KGOK 162153Z AUTO 17005KT 10SM 33/17 A3006 RMK AO2 SLP167 T03280172 $",2025-09-16 22:42:26.55849,2025-09-16 18:42:26.558533
"KGRB","Green Bay/Straubel Intl, WI, US",2025-09-16 21:53:00,"2025-09-16 16:53:00","VFR",28.3,15,210,6,NA,NA,1021.1,"METAR KGRB 162153Z 21006KT 10SM CLR 28/15 A3015 RMK AO2 SLP208 T02830150 $",2025-09-16 22:42:26.5649,2025-09-16 18:42:26.564945
"KGSP","Greenville-Spartanburg Intl, SC, US",2025-09-16 21:53:00,"2025-09-16 17:53:00","VFR",21.1,15.6,0,0,NA,NA,1020.1,"METAR KGSP 162153Z 00000KT 10SM FEW060 BKN110 21/16 A3012 RMK AO2 SLP190 T02110156",2025-09-16 22:42:26.57129,2025-09-16 18:42:26.571334
"KGUP","Gallup Muni, NM, US",2025-09-16 21:53:00,"2025-09-16 15:53:00","VFR",27.2,2.8,260,8,20,NA,1023.8,"METAR KGUP 162153Z AUTO 26008G20KT 10SM FEW095 27/03 A3023 RMK AO2 PK WND 28028/2141 SLP092 T02720028",2025-09-16 22:42:26.577636,2025-09-16 18:42:26.57768
"KGVL","Gainesville/Gilmer Mem, GA, US",2025-09-16 21:53:00,"2025-09-16 17:53:00","VFR",27.8,15,290,7,NA,NA,1020.1,"METAR KGVL 162153Z AUTO 29007KT 10SM CLR 28/15 A3012 RMK AO2 SLP183 T02780150 $",2025-09-16 22:42:26.584041,2025-09-16 18:42:26.584087
"KGEZ","Shelbyville Muni, IN, US",2025-09-16 21:53:00,"2025-09-16 21:53:00","VFR",28.9,12.8,340,5,NA,NA,1019,"METAR KGEZ 162153Z AUTO 34005KT 10SM CLR 29/13 A3009 RMK AO2 SLP184 T02890128",2025-09-16 22:42:26.590502,2025-09-16 18:42:26.590546
"KFOE","Topeka/Forbes Fld, KS, US",2025-09-16 21:53:00,"2025-09-16 16:53:00","VFR",32.2,17.8,180,7,NA,NA,1018.4,"METAR KFOE 162153Z 18007KT 10SM CLR 32/18 A3007 RMK AO2 SLP172 T03220178",2025-09-16 22:42:26.596958,2025-09-16 18:42:26.597004
"KFRG","Farmingdale/Republic Arpt, NY, US",2025-09-16 21:53:00,"2025-09-16 17:53:00","VFR",21.1,10.6,60,7,NA,NA,1022.8,"METAR KFRG 162153Z 06007KT 10SM CLR 21/11 A3020 RMK AO2 SLP225 T02110106",2025-09-16 22:42:26.603395,2025-09-16 18:42:26.603439
"KFWN","Sussex Arpt, NJ, US",2025-09-16 21:53:00,"2025-09-16 21:53:00","VFR",23.3,14.4,70,4,NA,NA,1022.1,"METAR KFWN 162153Z AUTO 07004KT 10SM FEW043 23/14 A3018 RMK AO2 SLP219 T02330144",2025-09-16 22:42:26.609871,2025-09-16 18:42:26.609917
"KFXE","Ft Lauderdale Exec, FL, US",2025-09-16 21:53:00,"2025-09-16 17:53:00","VFR",28.3,22.8,0,0,NA,NA,1016,"METAR KFXE 162153Z 00000KT 10SM FEW050 SCT090 28/23 A3000 RMK AO2 SLP160 T02830228 $",2025-09-16 22:42:26.616341,2025-09-16 18:42:26.616385
"KGFK","Grand Forks Intl, ND, US",2025-09-16 21:53:00,"2025-09-16 16:53:00","VFR",27.8,15.6,280,9,NA,NA,1017.4,"METAR KGFK 162153Z 28009KT 10SM FEW110 FEW250 28/16 A3004 RMK AO2 SLP171 T02780156",2025-09-16 22:42:26.622815,2025-09-16 18:42:26.622865
"KGFL","Glens Falls/Warren Cnty, NY, US",2025-09-16 21:53:00,"2025-09-16 17:53:00","VFR",24.4,12.2,330,3,NA,NA,1022.4,"METAR KGFL 162153Z AUTO 33003KT 10SM CLR 24/12 A3019 RMK AO2 SLP224 T02440122",2025-09-16 22:42:26.629269,2025-09-16 18:42:26.629314
"KGKJ","Meadville Arpt, PA, US",2025-09-16 21:53:00,"2025-09-16 17:53:00","VFR",25,13.3,10,10,NA,NA,1021.8,"METAR KGKJ 162153Z AUTO 01010KT 10SM CLR 25/13 A3017 RMK AO2 SLP209 T02500133",2025-09-16 22:42:26.635729,2025-09-16 18:42:26.635774
"KFYV","Fayetteville/Drake Fld, AR, US",2025-09-16 21:53:00,"2025-09-16 16:53:00","VFR",32.2,20,330,7,NA,NA,1019.4,"METAR KFYV 162153Z 33007KT 10SM CLR 32/20 A3010 RMK AO2 LTG DSNT NE-SE SLP178 T03220200",2025-09-16 22:42:26.642479,2025-09-16 18:42:26.642525
"KFPR","Ft Pierce/Treasure Coast Intl, FL, US",2025-09-16 21:53:00,"2025-09-16 17:53:00","VFR",29.4,22.8,90,8,NA,NA,1016.3,"METAR KFPR 162153Z 09008KT 10SM CLR 29/23 A3001 RMK AO2 SLP161 T02940228",2025-09-16 22:42:26.661835,2025-09-16 18:42:26.661885
"KFSM","Fort Smith Rgnl, AR, US",2025-09-16 21:53:00,"2025-09-16 16:53:00","VFR",26.7,19.4,280,3,NA,NA,1017.7,"METAR KFSM 162153Z 28003KT 10SM FEW047 BKN110 27/19 A3005 RMK AO2 PK WND 31031/2056 WSHFT 2040 LTG DSNT SE RAE52 TSE16 SLP172 P0029 T02670194",2025-09-16 22:42:26.668731,2025-09-16 18:42:26.668776
"KFTW","Fort Worth/Meacham Intl, TX, US",2025-09-16 21:53:00,"2025-09-16 16:53:00","VFR",33.9,13.3,150,4,NA,NA,1017.4,"METAR KFTW 162153Z 15004KT 10SM CLR 34/13 A3004 RMK AO2 SLP161 T03390133 $",2025-09-16 22:42:26.675454,2025-09-16 18:42:26.675499
"KGGG","Longview/Gregg Cnty, TX, US",2025-09-16 21:53:00,"2025-09-16 16:53:00","VFR",33.3,19.4,NA,4,NA,NA,1017,"METAR KGGG 162153Z VRB04KT 10SM CLR 33/19 A3003 RMK AO2 SLP163 T03330194 $",2025-09-16 22:42:26.6821,2025-09-16 18:42:26.682145
"KFUL","Fullerton Muni, CA, US",2025-09-16 21:53:00,"2025-09-16 14:53:00","VFR",33.9,15.6,210,8,NA,NA,1011.6,"METAR KFUL 162153Z 21008KT 10SM CLR 34/16 A2987 RMK AO2 SLP112 T03390156",2025-09-16 22:42:26.688491,2025-09-16 18:42:26.688537
"KGEG","Spokane Intl, WA, US",2025-09-16 21:53:00,"2025-09-16 14:53:00","VFR",24.4,10.6,80,9,NA,NA,1022.4,"METAR KGEG 162153Z 08009KT 10SM CLR 24/11 A3019 RMK AO2 SLP217 T02440106 $",2025-09-16 22:42:26.69491,2025-09-16 18:42:26.694955
"KGTF","Great Falls Intl, MT, US",2025-09-16 21:53:00,"2025-09-16 15:53:00","VFR",21.7,10.6,NA,3,NA,NA,1025.8,"METAR KGTF 162153Z VRB03KT 10SM SCT044 BKN060 22/11 A3029 RMK AO2 SLP242 T02170106",2025-09-16 22:42:26.70139,2025-09-16 18:42:26.701434
"KGRR","Grand Rapids Intl, MI, US",2025-09-16 21:53:00,"2025-09-16 17:53:00","VFR",26.7,12.8,90,7,NA,NA,1022.1,"METAR KGRR 162153Z 09007KT 050V120 10SM BKN250 27/13 A3018 RMK AO2 SLP217 T02670128",2025-09-16 22:42:26.707751,2025-09-16 18:42:26.707795
"KGMU","Greenville/Downtown Arpt, SC, US",2025-09-16 21:53:00,"2025-09-16 17:53:00","VFR",23.3,13.9,0,0,NA,NA,1020.1,"METAR KGMU 162153Z 00000KT 10SM SCT100 23/14 A3012 RMK AO2 SLP192 T02330139",2025-09-16 22:42:26.714319,2025-09-16 18:42:26.714363
"KGLR","Gaylord Rgnl, MI, US",2025-09-16 21:53:00,"2025-09-16 17:53:00","VFR",25.6,12.2,50,5,NA,NA,1023.1,"METAR KGLR 162153Z AUTO 05005KT 10SM CLR 26/12 A3021 RMK AO2 SLP227 T02560122",2025-09-16 22:42:26.720721,2025-09-16 18:42:26.720767
"KFVE","Frenchville/N Aroostook Rgnl, ME, US",2025-09-16 21:53:00,"2025-09-16 17:53:00","VFR",20.6,8.9,130,3,NA,NA,1024.8,"METAR KFVE 162153Z AUTO 13003KT 10SM CLR 21/09 A3026 RMK AO2 SLP245 T02060089",2025-09-16 22:42:26.727142,2025-09-16 18:42:26.727186
"KFOK","Westhampton/Gabreski Arpt, NY, US",2025-09-16 21:53:00,"2025-09-16 17:53:00","VFR",20,13.9,80,5,NA,NA,1023.5,"METAR KFOK 162153Z 08005KT 10SM CLR 20/14 A3022 RMK AO2 SLP231 T02000139",2025-09-16 22:42:26.733577,2025-09-16 18:42:26.733621
"KFST","Fort Stockton/Pecos Cnty, TX, US",2025-09-16 21:53:00,"2025-09-16 16:53:00","VFR",31.7,12.2,120,15,23,NA,1019.4,"METAR KFST 162153Z AUTO 12015G23KT 10SM BKN065 32/12 A3010 RMK AO2 SLP141 T03170122",2025-09-16 22:42:26.74,2025-09-16 18:42:26.740044
"KGKY","Arlington Muni, TX, US",2025-09-16 21:53:00,"2025-09-16 21:53:00","VFR",35,13.9,0,0,NA,NA,1017.4,"METAR KGKY 162153Z 00000KT 10SM SCT085 35/14 A3004 RMK AO2 SLP164 T03500139",2025-09-16 22:42:26.746523,2025-09-16 18:42:26.746567
"KGRI","Grand Island Rgnl, NE, US",2025-09-16 21:53:00,"2025-09-16 16:53:00","VFR",31.7,15.6,140,11,NA,NA,1018.4,"METAR KGRI 162153Z 14011KT 10SM CLR 32/16 A3007 RMK AO2 SLP171 T03170156",2025-09-16 22:42:26.753,2025-09-16 18:42:26.753045
"KGGW","Glasgow Intl Arpt, MT, US",2025-09-16 21:53:00,"2025-09-16 15:53:00","VFR",25.6,10,50,9,NA,NA,1022.1,"METAR KGGW 162153Z AUTO 05009KT 010V080 10SM CLR 26/10 A3018 RMK AO2 SLP215 T02560100 TSNO ",2025-09-16 22:42:26.75948,2025-09-16 18:42:26.759526
"KGAG","Gage Arpt, OK, US",2025-09-16 21:53:00,"2025-09-16 16:53:00","VFR",31.7,16.1,150,14,NA,NA,1018.4,"METAR KGAG 162153Z AUTO 15014KT 10SM CLR 32/16 A3007 RMK AO2 SLP154 T03170161",2025-09-16 22:42:26.766125,2025-09-16 18:42:26.766171
"KGEY","Greybull/South Big Horn Arpt, WY, US",2025-09-16 21:53:00,"2025-09-16 15:53:00","VFR",21.7,6.1,340,11,NA,NA,1023.8,"METAR KGEY 162153Z AUTO 34011KT 10SM CLR 22/06 A3023 RMK AO2 SLP221 T02170061",2025-09-16 22:42:26.772688,2025-09-16 18:42:26.772733
"KGSH","Goshen Muni, IN, US",2025-09-16 21:53:00,"2025-09-16 17:53:00","VFR",27.8,11.7,0,0,NA,NA,1020.7,"METAR KGSH 162153Z AUTO 00000KT 10SM CLR 28/12 A3014 RMK AO2 SLP203 T02780117",2025-09-16 22:42:26.790936,2025-09-16 18:42:26.790999
"KGEU","Glendale Muni, AZ, US",2025-09-16 21:51:00,"2025-09-16 21:51:00","VFR",40,9,220,10,NA,NA,1009.6,"METAR KGEU 162151Z 22010KT 10SM SCT100 40/09 A2981",2025-09-16 22:42:26.798509,2025-09-16 18:42:26.798556
"KGIC","Grangeville/Idaho Cnty, ID, US",2025-09-16 21:40:00,"2025-09-16 14:40:00","VFR",22,11,80,3,NA,NA,1024.1,"METAR KGIC 162140Z AUTO 08003KT 10SM CLR 22/11 A3024 RMK AO1",2025-09-16 22:42:26.805391,2025-09-16 18:42:26.805449
"KFSI","Fort Sill/Post AAF, OK, US",2025-09-16 21:22:00,"2025-09-16 16:22:00","VFR",34,15,0,0,NA,NA,1017,"SPECI KFSI 162122Z 00000KT 10SM TS FEW080 34/15 A3003 RMK AO2 TSB22 SLP158 $",2025-09-16 22:42:26.812207,2025-09-16 18:42:26.812256
"KHRJ","Erwin/Harnett Rgnl, NC, US",2025-09-16 22:40:00,"2025-09-16 22:40:00","VFR",21.1,14,20,7,NA,NA,1019.7,"METAR KHRJ 162240Z AUTO 02007KT 10SM OVC060 21/14 A3011 RMK AO2 T02110140",2025-09-16 22:42:29.285797,2025-09-16 18:42:29.285863
"KHSB","Harrisburg/Raleigh Arpt, IL, US",2025-09-16 22:35:00,"2025-09-16 17:35:00","VFR",32.5,13.8,NA,NA,NA,NA,1017.7,"METAR KHSB 162235Z 10SM CLR 33/14 A3005 RMK AO2 T03250138",2025-09-16 22:42:29.292554,2025-09-16 18:42:29.292599
"KHAI","Three Rivers Muni, MI, US",2025-09-16 22:35:00,"2025-09-16 18:35:00","VFR",26,12,NA,3,NA,NA,1021.4,"METAR KHAI 162235Z AUTO VRB03KT 10SM CLR 26/12 A3016 RMK AO2",2025-09-16 22:42:29.299174,2025-09-16 18:42:29.299218
"KHHF","Canadian/Hemphill Cnty, TX, US",2025-09-16 22:35:00,"2025-09-16 22:35:00","VFR",30.5,15.5,160,9,NA,NA,1018.4,"METAR KHHF 162235Z AUTO 16009KT 10SM CLR 31/16 A3007 RMK AO2 T03050155",2025-09-16 22:42:29.305733,2025-09-16 18:42:29.305778
"KHHW","Hugo/Stamper Muni, OK, US",2025-09-16 22:35:00,"2025-09-16 17:35:00","VFR",32,17,0,0,NA,NA,1017.7,"METAR KHHW 162235Z AUTO 00000KT 10SM CLR 32/17 A3005 RMK AO2",2025-09-16 22:42:29.312356,2025-09-16 18:42:29.3124
"KGWR","Gwinner Muni, ND, US",2025-09-16 22:35:00,"2025-09-16 22:35:00","VFR",27,13,320,6,NA,NA,1019,"METAR KGWR 162235Z AUTO 32006KT 10SM CLR 27/13 A3009 RMK A01",2025-09-16 22:42:29.318867,2025-09-16 18:42:29.318915
"KHDC","Hammond/Northshore Rgnl, LA, US",2025-09-16 22:35:00,"2025-09-16 22:35:00","VFR",29.1,20.8,20,3,NA,NA,1016.7,"METAR KHDC 162235Z AUTO 02003KT 10SM SCT044 SCT060 BKN095 29/21 A3002 RMK AO2 LTG DSNT NE T02910208",2025-09-16 22:42:29.325366,2025-09-16 18:42:29.32541
"KHDE","Holdrege/Brewster Fld, NE, US",2025-09-16 22:35:00,"2025-09-16 17:35:00","VFR",28.6,18.2,140,6,NA,NA,1017.4,"METAR KHDE 162235Z AUTO 14006KT 10SM CLR 29/18 A3004 RMK AO2 LTG DSNT W T02860182",2025-09-16 22:42:29.331823,2025-09-16 18:42:29.331872
"KHII","Lake Havasu City Arpt, AZ, US",2025-09-16 22:35:00,"2025-09-16 15:35:00","VFR",40,6,NA,4,NA,NA,1010.2,"METAR KHII 162235Z AUTO VRB04KT 10SM CLR 40/06 A2983 RMK AO2",2025-09-16 22:42:29.338382,2025-09-16 18:42:29.338428
"KHNR","Harlan Muni, IA, US",2025-09-16 22:35:00,"2025-09-16 22:35:00","VFR",27,21,0,0,NA,NA,1018.4,"METAR KHNR 162235Z AUTO 00000KT 10SM CLR 27/21 A3007 RMK A01",2025-09-16 22:42:29.344815,2025-09-16 18:42:29.344865
"KHQG","Hugoton Muni, KS, US",2025-09-16 22:35:00,"2025-09-16 22:35:00","VFR",30,13,180,16,23,NA,1018.4,"METAR KHQG 162235Z AUTO 18016G23KT 10SM CLR 30/13 A3007 RMK AO2 TSNO",2025-09-16 22:42:29.365055,2025-09-16 18:42:29.365106
"KHFY","Greenwood Muni, IN, US",2025-09-16 22:35:00,"2025-09-16 22:35:00","VFR",28.7,12.4,60,3,NA,NA,1019.7,"METAR KHFY 162235Z AUTO 06003KT 10SM CLR 29/12 A3011 RMK AO2 T02870124",2025-09-16 22:42:29.372403,2025-09-16 18:42:29.372451
"KHSP","Hot Springs/Ingalls Fld, VA, US",2025-09-16 22:35:00,"2025-09-16 18:35:00","VFR",14.7,10,20,5,NA,NA,1023.5,"METAR KHSP 162235Z AUTO 02005KT 10SM SCT049 OVC060 15/10 A3022 RMK AO2 T01470100",2025-09-16 22:42:29.379592,2025-09-16 18:42:29.379639
"KHYX","Saginaw Cnty Arpt, MI, US",2025-09-16 22:35:00,"2025-09-16 22:35:00","VFR",23,12,20,11,NA,NA,1022.1,"METAR KHYX 162235Z AUTO 02011KT 10SM CLR 23/12 A3018 RMK AO2",2025-09-16 22:42:29.386613,2025-09-16 18:42:29.386657
"KHSG","Thermopolis/Hot Springs Cnty, WY, US",2025-09-16 22:35:00,"2025-09-16 16:35:00","VFR",19.6,4.4,340,7,14,NA,1024.8,"METAR KHSG 162235Z AUTO 34007G14KT 10SM SCT050 BKN075 BKN095 20/04 A3026 RMK AO2 LTG DSNT N SE AND S T01960044",2025-09-16 22:42:29.393256,2025-09-16 18:42:29.393301
"KHQU","Thomson/McDuffie Cnty, GA, US",2025-09-16 22:35:00,"2025-09-16 22:35:00","VFR",28,15,0,0,NA,NA,1020.7,"METAR KHQU 162235Z AUTO 00000KT 10SM CLR 28/15 A3014 RMK AO2",2025-09-16 22:42:29.400056,2025-09-16 18:42:29.400101
"KGYL","Glencoe Muni, MN, US",2025-09-16 22:35:00,"2025-09-16 22:35:00","VFR",32.3,16.6,230,3,NA,NA,1017.7,"METAR KGYL 162235Z AUTO 23003KT 10SM CLR 32/17 A3005 RMK AO2 T03230166",2025-09-16 22:42:29.406734,2025-09-16 18:42:29.40678
"KHEG","Jacksonville/Herlong Arpt, FL, US",2025-09-16 22:35:00,"2025-09-16 22:35:00","VFR",28,14,80,7,NA,NA,1019,"METAR KHEG 162235Z AUTO 08007KT 10SM CLR 28/14 A3009 RMK AO2 TSNO",2025-09-16 22:42:29.413453,2025-09-16 18:42:29.413497
"KHRX","Hereford Muni, TX, US",2025-09-16 22:35:00,"2025-09-16 22:35:00","VFR",29.3,10.4,200,13,20,NA,1021.4,"METAR KHRX 162235Z AUTO 20013G20KT 10SM CLR 29/10 A3016 RMK AO2 T02930104 TSNO",2025-09-16 22:42:29.420181,2025-09-16 18:42:29.420227
"KHEQ","Holyoke Arpt, CO, US",2025-09-16 22:35:00,"2025-09-16 22:35:00","MVFR",18,15,40,14,22,NA,1019,"METAR KHEQ 162235Z AUTO 04014G22KT 10SM -RA SCT007 SCT013 BKN018 18/15 A3009 RMK AO2 P0003 LTG DSNT ALQDS",2025-09-16 22:42:29.426797,2025-09-16 18:42:29.426863
"KHBV","Hebbronville/Hogg Cnty, TX, US",2025-09-16 22:35:00,"2025-09-16 22:35:00","VFR",30.4,18.2,110,9,NA,NA,1016.3,"METAR KHBV 162235Z AUTO 11009KT 080V160 10SM CLR 30/18 A3001 RMK AO2 T03040182",2025-09-16 22:42:29.433421,2025-09-16 18:42:29.433466
"KHAE","Hannibal Rgnl, MO, US",2025-09-16 22:35:00,"2025-09-16 22:35:00","VFR",32,15,0,0,NA,NA,1019.4,"METAR KHAE 162235Z AUTO 00000KT 10SM CLR 32/15 A3010 RMK AO2",2025-09-16 22:42:29.44007,2025-09-16 18:42:29.440114
"KHAF","Half Moon Bay Arpt, CA, US",2025-09-16 22:35:00,"2025-09-16 15:35:00","IFR",18,17,320,10,NA,6,1015,"METAR KHAF 162235Z AUTO 32010KT 6SM BR BKN006 18/17 A2997 RMK AO2",2025-09-16 22:42:29.446583,2025-09-16 18:42:29.446625
"KHCO","Hallock Muni, MN, US",2025-09-16 22:35:00,"2025-09-16 22:35:00","VFR",27,15,300,11,14,NA,1017.4,"METAR KHCO 162235Z AUTO 30011G14KT 10SM CLR 27/15 A3004 RMK AO2",2025-09-16 22:42:29.453259,2025-09-16 18:42:29.453305
"KHFJ","Monett Muni, MO, US",2025-09-16 22:35:00,"2025-09-16 22:35:00","VFR",28,19,300,3,NA,NA,1019,"METAR KHFJ 162235Z AUTO 30003KT 10SM VCTS CLR 28/19 A3009 RMK AO2 LTG DSNT E AND SE",2025-09-16 22:42:29.45983,2025-09-16 18:42:29.459882
"KHLX","Hillsville/Twin Cnty, VA, US",2025-09-16 22:35:00,"2025-09-16 22:35:00","VFR",16,11,0,0,NA,NA,1022.1,"METAR KHLX 162235Z AUTO 00000KT 10SM OVC090 16/11 A3018 RMK AO2",2025-09-16 22:42:29.466389,2025-09-16 18:42:29.466434
"KHOE","Homerville Arpt, GA, US",2025-09-16 22:35:00,"2025-09-16 22:35:00","VFR",28.3,16.2,0,0,NA,NA,1018.4,"METAR KHOE 162235Z AUTO 00000KT 10SM CLR 28/16 A3007 RMK AO2 T02830162",2025-09-16 22:42:29.473076,2025-09-16 18:42:29.473124
"KHWY","Warrenton/Fauquier Arpt, VA, US",2025-09-16 22:35:00,"2025-09-16 22:35:00","VFR",16.3,14.2,360,6,NA,7,1021.1,"METAR KHWY 162235Z AUTO 36006KT 7SM RA SCT024 BKN031 OVC048 16/14 A3015 RMK AO2 LTG DSNT E P0005 T01630142",2025-09-16 22:42:29.479635,2025-09-16 18:42:29.479679
"KHCR","Heber City Muni, UT, US",2025-09-16 22:35:00,"2025-09-16 22:35:00","VFR",23.9,-0.6,220,10,NA,NA,1022.4,"METAR KHCR 162235Z AUTO 22010KT 10SM CLR 24/M01 A3019 RMK AO2 T02391006 $",2025-09-16 22:42:29.486339,2025-09-16 18:42:29.486384
"KHPT","Hampton Muni, IA, US",2025-09-16 22:35:00,"2025-09-16 17:35:00","LIFR",22,17,80,22,32,0.5,1021.1,"METAR KHPT 162235Z AUTO 08022G32KT 1/2SM +RA BKN003 BKN024 OVC060 22/17 A3015 RMK AO2 P0040",2025-09-16 22:42:29.505976,2025-09-16 18:42:29.506024
"KHYW","Conway/Horry Cnty, SC, US",2025-09-16 22:35:00,"2025-09-16 22:35:00","VFR",25,12,0,0,NA,NA,1018,"METAR KHYW 162235Z AUTO 00000KT 10SM CLR 25/12 A3006 RMK AO2",2025-09-16 22:42:29.513169,2025-09-16 18:42:29.513217
"KGWW","Goldsboro/Wayne Muni, NC, US",2025-09-16 22:35:00,"2025-09-16 22:35:00","VFR",19,14.4,340,5,15,NA,1019,"METAR KGWW 162235Z AUTO 34005G15KT 10SM SCT024 OVC042 19/14 A3009 RMK AO2 T01900144",2025-09-16 22:42:29.520226,2025-09-16 18:42:29.520272
"KHJH","Hebron Muni, NE, US",2025-09-16 22:35:00,"2025-09-16 22:35:00","VFR",30.2,16.6,160,3,NA,NA,1018,"METAR KHJH 162235Z AUTO 16003KT 10SM SCT080 30/17 A3006 RMK AO2 T03020166",2025-09-16 22:42:29.526849,2025-09-16 18:42:29.526896
"KGYB","Giddings/Lee Cnty, TX, US",2025-09-16 22:35:00,"2025-09-16 22:35:00","VFR",34.2,14.2,90,10,NA,NA,1018.4,"METAR KGYB 162235Z AUTO 09010KT 10SM SCT080 34/14 A3007 RMK AO2 T03420142",2025-09-16 22:42:29.533362,2025-09-16 18:42:29.53341
"KHCD","Hutchinson/Butler Fld, MN, US",2025-09-16 22:35:00,"2025-09-16 22:35:00",NA,31.5,17.9,250,3,NA,NA,1018.4,"METAR KHCD 162235Z AUTO 25003KT 10SM 32/18 A3007 RMK AO2 T03150179",2025-09-16 22:42:29.539854,2025-09-16 18:42:29.539902
"KHMN","Holloman AFB, NM, US",2025-09-16 22:34:00,"2025-09-16 16:34:00","VFR",29,12,120,6,NA,NA,1020.1,"SPECI KHMN 162234Z 12006KT 10SM -TSRA FEW050 BKN070CB BKN120 29/12 A3012 RMK RAE26DZB26 SLP129 $",2025-09-16 22:42:29.546307,2025-09-16 18:42:29.546351
"KHEF","Manassas Rgnl, VA, US",2025-09-16 22:34:00,"2025-09-16 18:34:00","MVFR",16,15,10,8,NA,8,1021.1,"SPECI KHEF 162234Z 01008KT 8SM -RA FEW008 BKN014 OVC022 16/15 A3015 RMK AO2 P0009",2025-09-16 22:42:29.552661,2025-09-16 18:42:29.552704
"KHNZ","Oxford-Henderson Arpt, NC, US",2025-09-16 22:30:00,"2025-09-16 22:30:00","MVFR",16,12.5,340,5,NA,NA,1020.1,"METAR KHNZ 162230Z AUTO 34005KT 10SM OVC021 16/13 A3012 RMK AO2 T01600125",2025-09-16 22:42:29.55912,2025-09-16 18:42:29.559166
"KHBR","Hobart Muni, OK, US",2025-09-16 22:26:00,"2025-09-16 17:26:00","IFR",25,17.8,230,19,35,1.5,1019,"SPECI KHBR 162226Z AUTO 23019G35KT 1 1/2SM VCTS +RA FEW050 BKN085 OVC100 25/18 A3009 RMK AO2 PK WND 10036/2154 WSHFT 2212 RAB13 TSE19 PRESRR P0021 T02500178 $",2025-09-16 22:42:29.565536,2025-09-16 18:42:29.56558
"KHMZ","Bedford Arpt, PA, US",2025-09-16 22:15:00,"2025-09-16 22:15:00","VFR",23.5,9.4,110,7,NA,NA,1021.4,"METAR KHMZ 162215Z AUTO 11007KT 10SM SCT060 OVC120 24/09 A3016 RMK AO2 T02350094",2025-09-16 22:42:29.572069,2025-09-16 18:42:29.572115
"KHZD","Huntingdon/Carroll Cnty, TN, US",2025-09-16 22:15:00,"2025-09-16 22:15:00","VFR",34,14,0,0,NA,NA,1016.7,"METAR KHZD 162215Z AUTO 00000KT 10SM CLR 34/14 A3002 RMK A01",2025-09-16 22:42:29.578619,2025-09-16 18:42:29.578666
"KGZN","Cisco/Simmons Mem, TX, US",2025-09-16 22:15:00,"2025-09-16 22:15:00","VFR",32,11,120,7,15,NA,1018,"METAR KGZN 162215Z AUTO 12007G15KT 10SM CLR 32/11 A3006 RMK AO2",2025-09-16 22:42:29.585202,2025-09-16 18:42:29.585247
"KHLB","Batesville Arpt, IN, US",2025-09-16 22:15:00,"2025-09-16 18:15:00","VFR",28,14,0,0,NA,NA,1019.4,"METAR KHLB 162215Z AUTO 00000KT 10SM CLR 28/14 A3010 RMK A01",2025-09-16 22:42:29.591873,2025-09-16 18:42:29.591921
"KGZS","Pulaski/Abernathy Fld, TN, US",2025-09-16 22:15:00,"2025-09-16 22:15:00","VFR",31,18,0,0,NA,NA,1018,"METAR KGZS 162215Z AUTO 00000KT 10SM CLR 31/18 A3006 RMK A01",2025-09-16 22:42:29.59845,2025-09-16 18:42:29.598495
"KHVS","Hartsville Rgnl, SC, US",2025-09-16 22:15:00,"2025-09-16 18:15:00","VFR",27,10,20,6,NA,NA,1018,"METAR KHVS 162215Z AUTO 02006KT 10SM CLR 27/10 A3006 RMK AO2",2025-09-16 22:42:29.605004,2025-09-16 18:42:29.605051
"KHSD","Oklahoma City/Sundance Arpt, OK, US",2025-09-16 22:15:00,"2025-09-16 22:15:00","VFR",32,16,140,5,NA,NA,1018,"METAR KHSD 162215Z AUTO 14005KT 10SM CLR 32/16 A3006 RMK A01",2025-09-16 22:42:29.611514,2025-09-16 18:42:29.61156
"KHTH","Hawthorne Muni, NV, US",2025-09-16 22:15:00,"2025-09-16 15:15:00","VFR",29,-2,310,8,NA,NA,1020.1,"METAR KHTH 162215Z AUTO 31008KT 10SM CLR 29/M02 A3012 RMK A01",2025-09-16 22:42:29.617967,2025-09-16 18:42:29.618011
"KHVC","Hopkinsville/Christian Cnty, KY, US",2025-09-16 22:15:00,"2025-09-16 22:15:00","VFR",32,15,10,5,NA,NA,1017.4,"METAR KHVC 162215Z AUTO 01005KT 10SM SCT080 32/15 A3004 RMK AO2",2025-09-16 22:42:29.624486,2025-09-16 18:42:29.624532
"KHVE","Hanksville Arpt, UT, US",2025-09-16 22:10:00,"2025-09-16 16:10:00","VFR",31,-3,160,5,NA,NA,1018.4,"METAR KHVE 162210Z AUTO 16005KT 10SM CLR 31/M03 A3007 RMK AO2",2025-09-16 22:42:29.644619,2025-09-16 18:42:29.644666
"KHOU","Houston/Hobby Arpt, TX, US",2025-09-16 22:06:00,"2025-09-16 17:06:00","VFR",33.3,19.4,140,10,NA,NA,1016.3,"SPECI KHOU 162206Z 14010KT 10SM TS SCT055CB SCT100 33/19 A3001 RMK AO2 TSB06 OCNL LTGICCG NW TS NW MOV STNRY SHRA N-NE T03330194",2025-09-16 22:42:29.651553,2025-09-16 18:42:29.651598
"KHOT","Hot Springs Mem, AR, US",2025-09-16 22:00:00,"2025-09-16 17:00:00","VFR",32.8,18.3,320,5,NA,NA,1017,"SPECI KHOT 162200Z AUTO 32005KT 10SM FEW070 33/18 A3003 RMK AO2 LTG DSNT NW T03280183",2025-09-16 22:42:29.658442,2025-09-16 18:42:29.658485
"KHYI","San Marcos Muni, TX, US",2025-09-16 21:56:00,"2025-09-16 21:56:00","VFR",33.3,15,20,4,NA,NA,1017.4,"METAR KHYI 162156Z 02004KT 10SM CLR 33/15 A3004 RMK AO2 SLP166 T03330150",2025-09-16 22:42:29.664939,2025-09-16 18:42:29.664984
"KHDN","Hayden/Yampa Valley Arpt, CO, US",2025-09-16 21:56:00,"2025-09-16 15:56:00","VFR",17.8,3.3,290,8,NA,NA,1025.8,"METAR KHDN 162156Z AUTO 29008KT 10SM SCT070 BKN085 18/03 A3029 RMK AO2 SLP200 T01780033 $",2025-09-16 22:42:29.671422,2025-09-16 18:42:29.671467
"KHPN","White Plains/Westchester Cnty, NY, US",2025-09-16 21:56:00,"2025-09-16 17:56:00","VFR",20,11.1,100,7,NA,NA,1023.1,"METAR KHPN 162156Z 10007KT 10SM SCT040 20/11 A3021 RMK AO2 SLP226 T02000111",2025-09-16 22:42:29.677905,2025-09-16 18:42:29.67795
"KHWV","Brookhaven Arpt, NY, US",2025-09-16 21:56:00,"2025-09-16 17:56:00","VFR",20,11.1,NA,4,NA,NA,1022.8,"METAR KHWV 162156Z AUTO VRB04KT 10SM CLR 20/11 A3020 RMK AO2 SLP228 T02000111",2025-09-16 22:42:29.684393,2025-09-16 18:42:29.684437
"KHYA","Hyannis/Barnstable Muni, MA, US",2025-09-16 21:56:00,"2025-09-16 17:56:00","VFR",18.9,10.6,80,5,NA,NA,1023.5,"METAR KHYA 162156Z 08005KT 10SM CLR 19/11 A3022 RMK AO2 SLP234 T01890106",2025-09-16 22:42:29.690845,2025-09-16 18:42:29.690891
"KGXY","Greeley/Weld Cnty Arpt, CO, US",2025-09-16 21:56:00,"2025-09-16 15:56:00","VFR",23.3,8.9,60,9,NA,NA,1022.4,"METAR KGXY 162156Z AUTO 06009KT 10SM CLR 23/09 A3019 RMK AO2 LTG DSNT NW SLP197 T02330089 $",2025-09-16 22:42:29.697276,2025-09-16 18:42:29.69732
"KHND","Henderson Exec, NV, US",2025-09-16 21:56:00,"2025-09-16 14:56:00","VFR",36.7,-1.7,220,6,NA,NA,1016,"METAR KHND 162156Z 22006KT 10SM CLR 37/M02 A3000 RMK AO2 SLP143 T03671017 $",2025-09-16 22:42:29.703694,2025-09-16 18:42:29.703738
"KHEZ","Natchez/Adams Cnty, MS, US",2025-09-16 21:56:00,"2025-09-16 16:56:00","VFR",25.6,18.9,360,4,NA,7,1017.7,"METAR KHEZ 162156Z AUTO 36004KT 7SM CLR 26/19 A3005 RMK AO2 LTG DSNT SW AND W TSE07 SLP173 T02560189 $",2025-09-16 22:42:29.710036,2025-09-16 18:42:29.71008
"KHYS","Hays Rgnl, KS, US",2025-09-16 21:56:00,"2025-09-16 16:56:00","VFR",33.3,13.3,180,16,NA,NA,1017,"METAR KHYS 162156Z AUTO 18016KT 10SM CLR 33/13 A3003 RMK AO2 LTG DSNT NE SLP151 T03330133 $",2025-09-16 22:42:29.716541,2025-09-16 18:42:29.716586
"KHNB","Huntingburg Arpt, IN, US",2025-09-16 21:56:00,"2025-09-16 17:56:00","VFR",30,14.4,40,7,NA,NA,1018.7,"METAR KHNB 162156Z AUTO 04007KT 10SM CLR 30/14 A3008 RMK AO2 SLP181 T03000144",2025-09-16 22:42:29.723004,2025-09-16 18:42:29.723048
"KHON","Huron Rgnl, SD, US",2025-09-16 21:55:00,"2025-09-16 16:55:00","VFR",26.7,16.1,NA,3,NA,NA,1019,"METAR KHON 162155Z AUTO VRB03KT 10SM CLR 27/16 A3009 RMK AO2 SLP184 T02670161",2025-09-16 22:42:29.729538,2025-09-16 18:42:29.729583
"KHLR","Killeen/Ft Hood AAF, TX, US",2025-09-16 21:55:00,"2025-09-16 16:55:00","VFR",33.3,15.7,120,4,NA,NA,1017.7,"METAR KHLR 162155Z AUTO 12004KT 10SM CLR 33/16 A3005 RMK AO2 SLP165 T03330157",2025-09-16 22:42:29.736004,2025-09-16 18:42:29.73605
"KHST","Homestead AFB, FL, US",2025-09-16 21:55:00,"2025-09-16 17:55:00","VFR",29.9,24.3,20,5,NA,NA,1015.3,"METAR KHST 162155Z 02005KT 10SM FEW030 BKN200 30/24 A2998 RMK LTG DSNT W DZB2055E06DZB33 SLP156 P0000 T02990243",2025-09-16 22:42:29.742486,2025-09-16 18:42:29.742531
"KHRT","Ft Walton Beach/Hurlburt Fld, FL, US",2025-09-16 21:55:00,"2025-09-16 21:55:00","VFR",29.8,14.3,150,8,NA,NA,1017,"METAR KHRT 162155Z 15008KT 10SM FEW050 30/14 A3003 RMK AO2A SLP167 T02980143 $",2025-09-16 22:42:29.748999,2025-09-16 18:42:29.749043
"KHFF","Mackall(AAF), NC, US",2025-09-16 21:55:00,"2025-09-16 17:55:00","VFR",26.1,11.4,20,9,NA,NA,1018,"METAR KHFF 162155Z AUTO 02009KT 10SM CLR 26/11 A3006 RMK AO2 SLP179 T02610114 $",2025-09-16 22:42:29.755424,2025-09-16 18:42:29.755469
"KHIF","Ogden/Hill AFB, UT, US",2025-09-16 21:55:00,"2025-09-16 15:55:00","VFR",23.8,-1.2,280,5,NA,NA,1023.1,"METAR KHIF 162155Z AUTO 28005KT 10SM CLR 24/M01 A3021 RMK AO2 SLP180 T02381012",2025-09-16 22:42:29.773982,2025-09-16 18:42:29.774045
"KHOP","Fort Campbell, KY, US",2025-09-16 21:55:00,"2025-09-16 16:55:00","VFR",31.8,16.5,20,7,NA,NA,1016.7,"METAR KHOP 162155Z AUTO 02007KT 10SM CLR 32/17 A3002 RMK AO2 LTG DSNT S-SW RAB28E41DZB41E45 SLP162 P0000 T03180165",2025-09-16 22:42:29.781769,2025-09-16 18:42:29.781835
"KHWD","Hayward Exec, CA, US",2025-09-16 21:54:00,"2025-09-16 14:54:00","VFR",27.2,15.6,290,10,NA,NA,1013.3,"METAR KHWD 162154Z 29010KT 10SM CLR 27/16 A2992 RMK AO2 SLP142 T02720156",2025-09-16 22:42:29.788685,2025-09-16 18:42:29.78873
"KHKA","Blytheville Muni, AR, US",2025-09-16 21:53:00,"2025-09-16 16:53:00","MVFR",35,13.9,40,5,NA,5,1016.3,"METAR KHKA 162153Z AUTO 04005KT 5SM HZ CLR 35/14 A3001 RMK AO2 SLP158 T03500139 $",2025-09-16 22:42:29.795405,2025-09-16 18:42:29.79545
"KHIB","Hibbing/Chisholm Arpt, MN, US",2025-09-16 21:53:00,"2025-09-16 16:53:00","VFR",28.3,17.8,220,7,NA,NA,1017.4,"METAR KHIB 162153Z AUTO 22007KT 10SM BKN055 BKN070 28/18 A3004 RMK AO2 SLP169 T02830178 $",2025-09-16 22:42:29.801718,2025-09-16 18:42:29.801761
"KHIO","Portland/Hillsboro Arpt, OR, US",2025-09-16 21:53:00,"2025-09-16 14:53:00","VFR",31.1,9.4,90,10,NA,NA,1013.3,"METAR KHIO 162153Z 09010KT 10SM CLR 31/09 A2992 RMK AO2 SLP127 T03110094",2025-09-16 22:42:29.808207,2025-09-16 18:42:29.808252
"KHHR","Hawthorne Muni, CA, US",2025-09-16 21:53:00,"2025-09-16 14:53:00","VFR",27.2,17.2,270,11,NA,NA,1012.6,"METAR KHHR 162153Z 27011KT 10SM CLR 27/17 A2990 RMK AO2 SLP125 T02720172",2025-09-16 22:42:29.814649,2025-09-16 18:42:29.814693
"KHFD","Hartford/Brainard Arpt, CT, US",2025-09-16 21:53:00,"2025-09-16 17:53:00","VFR",22.2,11.1,70,4,NA,NA,1023.1,"METAR KHFD 162153Z 07004KT 10SM CLR 22/11 A3021 RMK AO2 SLP230 T02220111",2025-09-16 22:42:29.82107,2025-09-16 18:42:29.821115
"KHSV","Huntsville Intl, AL, US",2025-09-16 21:53:00,"2025-09-16 16:53:00","VFR",32.8,16.1,270,5,NA,NA,1018,"METAR KHSV 162153Z 27005KT 10SM SCT120 33/16 A3006 RMK AO2 SLP171 T03280161 $",2025-09-16 22:42:29.827487,2025-09-16 18:42:29.827533
"KHRO","Harrison/Boone Cnty, AR, US",2025-09-16 21:53:00,"2025-09-16 16:53:00","VFR",28.9,16.7,320,4,NA,NA,1019,"METAR KHRO 162153Z AUTO 32004KT 10SM CLR 29/17 A3009 RMK AO2 LTG DSNT SW AND W SLP175 T02890167 $",2025-09-16 22:42:29.833988,2025-09-16 18:42:29.834033
"KHBG","Hattiesburg/Chain Muni, MS, US",2025-09-16 21:53:00,"2025-09-16 16:53:00","VFR",33.3,17.2,NA,5,NA,NA,1017,"METAR KHBG 162153Z AUTO VRB05KT 10SM CLR 33/17 A3003 RMK AO2 SLP165 T03330172",2025-09-16 22:42:29.840454,2025-09-16 18:42:29.840501
"KHLC","Hill City Muni, KS, US",2025-09-16 21:53:00,"2025-09-16 16:53:00","VFR",31.1,13.3,160,10,19,NA,1016.7,"METAR KHLC 162153Z AUTO 16010G19KT 10SM CLR 31/13 A3002 RMK AO2 LTG DSNT NE AND E SLP144 T03110133",2025-09-16 22:42:29.846901,2025-09-16 18:42:29.846946
"KHYR","Hayward Muni, WI, US",2025-09-16 21:53:00,"2025-09-16 16:53:00","VFR",28.3,19.4,190,12,NA,NA,1019.4,"METAR KHYR 162153Z AUTO 19012KT 10SM CLR 28/19 A3010 RMK AO2 SLP187 T02830194 $",2025-09-16 22:42:29.853331,2025-09-16 18:42:29.853375
"KHVN","New Haven/Tweed Arpt, CT, US",2025-09-16 21:53:00,"2025-09-16 17:53:00","VFR",21.7,15.6,110,10,19,NA,1023.5,"METAR KHVN 162153Z 11010G19KT 10SM CLR 22/16 A3022 RMK AO2 SLP231 T02170156",2025-09-16 22:42:29.859825,2025-09-16 18:42:29.859875
"KHLG","Wheeling/Ohio Cnty, WV, US",2025-09-16 21:53:00,"2025-09-16 17:53:00","VFR",25.6,10.6,80,6,NA,NA,1020.7,"METAR KHLG 162153Z 08006KT 10SM CLR 26/11 A3014 RMK AO2 SLP203 T02560106",2025-09-16 22:42:29.866304,2025-09-16 18:42:29.866348
"KHGR","Hagerstown Rgnl, MD, US",2025-09-16 21:53:00,"2025-09-16 17:53:00","VFR",22.2,13.3,90,5,NA,NA,1021.4,"METAR KHGR 162153Z 09005KT 10SM OVC080 22/13 A3016 RMK AO2 RAB22E23 SLP217 P0000 T02220133",2025-09-16 22:42:29.872787,2025-09-16 18:42:29.872852
"KHUF","Terre Haute/Hulman Fld, IN, US",2025-09-16 21:53:00,"2025-09-16 17:53:00","VFR",30.6,13.9,30,9,NA,NA,1019,"METAR KHUF 162153Z 03009KT 10SM CLR 31/14 A3009 RMK AO2 SLP186 T03060139",2025-09-16 22:42:29.879318,2025-09-16 18:42:29.879363
"KHVR","Havre/City Arpt, MT, US",2025-09-16 21:53:00,"2025-09-16 15:53:00","VFR",23.9,12.8,280,5,NA,NA,1024.1,"METAR KHVR 162153Z AUTO 28005KT 10SM SCT110 24/13 A3024 RMK AO2 SLP235 T02390128",2025-09-16 22:42:29.88588,2025-09-16 18:42:29.885926
"KHQM","Hoquiam/Bowerman Arpt, WA, US",2025-09-16 21:53:00,"2025-09-16 14:53:00","VFR",30,11.7,100,10,NA,NA,1013,"METAR KHQM 162153Z AUTO 10010KT 10SM CLR 30/12 A2991 RMK AO2 SLP130 T03000117",2025-09-16 22:42:29.892355,2025-09-16 18:42:29.892401
"KGWO","Greenwood/Leflore Arpt, MS, US",2025-09-16 21:53:00,"2025-09-16 16:53:00","VFR",30.6,18.9,80,5,NA,NA,1016.3,"METAR KGWO 162153Z AUTO 08005KT 10SM FEW060 31/19 A3001 RMK AO2 SLP160 T03060189",2025-09-16 22:42:29.912214,2025-09-16 18:42:29.912259
"KHAO","Hamilton/Butler Cnty, OH, US",2025-09-16 21:53:00,"2025-09-16 17:53:00","VFR",28.3,13.3,80,6,NA,NA,1019.4,"METAR KHAO 162153Z AUTO 08006KT 10SM CLR 28/13 A3010 RMK AO2 SLP189 T02830133",2025-09-16 22:42:29.919179,2025-09-16 18:42:29.919225
"KHLN","Helena Rgnl, MT, US",2025-09-16 21:53:00,"2025-09-16 15:53:00","VFR",20.6,10,340,10,NA,NA,1025.8,"METAR KHLN 162153Z 34010KT 10SM FEW120 21/10 A3029 RMK AO2 LTG DSNT SE SLP253 T02060100 $",2025-09-16 22:42:29.926024,2025-09-16 18:42:29.92607
"KHKS","Jackson/Hawkins Fld, MS, US",2025-09-16 21:53:00,"2025-09-16 16:53:00","VFR",31.1,19.4,300,6,NA,NA,1017,"METAR KHKS 162153Z 30006KT 10SM CLR 31/19 A3003 RMK AO2 LTG DSNT E SLP161 T03110194 $",2025-09-16 22:42:29.932652,2025-09-16 18:42:29.932694
"KHSI","Hastings Muni, NE, US",2025-09-16 21:53:00,"2025-09-16 16:53:00","VFR",31.1,16.1,160,10,NA,NA,1018.7,"METAR KHSI 162153Z AUTO 16010KT 10SM CLR 31/16 A3008 RMK AO2 SLP167 T03110161",2025-09-16 22:42:29.939032,2025-09-16 18:42:29.939077
"KHRI","Hermiston Muni, OR, US",2025-09-16 21:53:00,"2025-09-16 14:53:00","VFR",25.6,10.6,20,4,NA,NA,1019.4,"METAR KHRI 162153Z AUTO 02004KT 10SM CLR 26/11 A3010 RMK AO2 SLP191 T02560106",2025-09-16 22:42:29.94551,2025-09-16 18:42:29.945554
"KHJO","Hanford Muni, CA, US",2025-09-16 21:53:00,"2025-09-16 21:53:00","VFR",36.1,11.1,NA,3,NA,NA,1012.3,"METAR KHJO 162153Z AUTO VRB03KT 10SM CLR 36/11 A2989 RMK AO2 SLP120 T03610111",2025-09-16 22:42:29.952044,2025-09-16 18:42:29.952091
"KHTL","Houghton Lake/Blodgett Mem, MI, US",2025-09-16 21:53:00,"2025-09-16 17:53:00","VFR",26.1,12.2,0,0,NA,NA,1022.8,"METAR KHTL 162153Z AUTO 00000KT 10SM CLR 26/12 A3020 RMK AO2 SLP228 T02610122",2025-09-16 22:42:29.958448,2025-09-16 18:42:29.958493
"KHKY","Hickory Rgnl, NC, US",2025-09-16 21:53:00,"2025-09-16 17:53:00","VFR",24.4,13.3,40,5,NA,NA,1019.7,"METAR KHKY 162153Z 04005KT 10SM BKN065 OVC080 24/13 A3011 RMK AO2 SLP176 T02440133",2025-09-16 22:42:29.964883,2025-09-16 18:42:29.964928
"KHUL","Houlton Intl, ME, US",2025-09-16 21:53:00,"2025-09-16 18:53:00","VFR",20.6,13.3,0,0,NA,NA,1024.1,"METAR KHUL 162153Z AUTO 00000KT 10SM CLR 21/13 A3024 RMK AO2 SLP241 T02060133",2025-09-16 22:42:29.971338,2025-09-16 18:42:29.971384
"KHEI","Hettinger Muni, ND, US",2025-09-16 21:53:00,"2025-09-16 21:53:00","VFR",23.9,12.8,170,9,NA,NA,1022.4,"METAR KHEI 162153Z AUTO 17009KT 10SM CLR 24/13 A3019 RMK AO2 SLP214 T02390128",2025-09-16 22:42:29.977735,2025-09-16 18:42:29.977778
"KGZH","Evergreen/Middleton Fld, AL, US",2025-09-16 21:53:00,"2025-09-16 21:53:00","VFR",32.8,12.2,80,7,14,NA,1017.7,"METAR KGZH 162153Z AUTO 08007G14KT 10SM CLR 33/12 A3005 RMK AO2 SLP173 T03280122",2025-09-16 22:42:29.984202,2025-09-16 18:42:29.984246
"KHWO","Hollywood/North Perry Aprt, FL, US",2025-09-16 21:53:00,"2025-09-16 17:53:00","VFR",27.8,22.8,0,0,NA,NA,1016,"METAR KHWO 162153Z 00000KT 10SM CLR 28/23 A3000 RMK AO2 SLP157 T02780228 $",2025-09-16 22:42:29.990706,2025-09-16 18:42:29.990751
"KHIE","Mt Washington Rgnl, NH, US",2025-09-16 21:52:00,"2025-09-16 17:52:00","VFR",25.6,11.1,20,3,NA,NA,1023.8,"METAR KHIE 162152Z AUTO 02003KT 10SM SCT060 26/11 A3023 RMK AO2 SLP239 T02560111",2025-09-16 22:42:29.997174,2025-09-16 18:42:29.997218
"KHRL","Harlingen/Valley Intl, TX, US",2025-09-16 21:52:00,"2025-09-16 16:52:00","VFR",32.8,18.9,50,13,19,NA,1015.3,"METAR KHRL 162152Z 05013G19KT 10SM CLR 33/19 A2998 RMK AO2 SLP150 T03280189",2025-09-16 22:42:30.003659,2025-09-16 18:42:30.003703
"KHUT","Hutchinson Muni, KS, US",2025-09-16 21:52:00,"2025-09-16 16:52:00","VFR",32.2,16.7,180,10,20,NA,1018,"METAR KHUT 162152Z 18010G20KT 10SM CLR 32/17 A3006 RMK AO2 SLP154 T03220167",2025-09-16 22:42:30.010131,2025-09-16 18:42:30.010177
"KHTS","Huntington/Ferguson Fld, WV, US",2025-09-16 21:51:00,"2025-09-16 17:51:00","VFR",27.8,12.2,0,0,NA,NA,1019.4,"METAR KHTS 162151Z 00000KT 10SM CLR 28/12 A3010 RMK AO2 SLP186 T02780122",2025-09-16 22:42:30.016578,2025-09-16 18:42:30.016624
"KHDO","Hondo Muni, TX, US",2025-09-16 21:51:00,"2025-09-16 21:51:00","VFR",32.8,15.6,130,9,NA,NA,1017.7,"METAR KHDO 162151Z AUTO 13009KT 10SM CLR 33/16 A3005 RMK AO2 SLP159 T03280156",2025-09-16 22:42:30.023041,2025-09-16 18:42:30.023087
"KHSE","Hatteras/Mitchell Fld, NC, US",2025-09-16 21:51:00,"2025-09-16 17:51:00","MVFR",19.4,16.7,300,9,20,NA,1015.3,"METAR KHSE 162151Z AUTO 30009G20KT 10SM OVC016 19/17 A2998 RMK AO2 SLP153 T01940167 $",2025-09-16 22:42:30.029653,2025-09-16 18:42:30.029699
"KHXD","Hilton Head Arpt, SC, US",2025-09-16 21:50:00,"2025-09-16 17:50:00","VFR",26,17,0,0,NA,NA,1018.7,"METAR KHXD 162150Z 00000KT 10SM CLR 26/17 A3008",2025-09-16 22:42:30.120216,2025-09-16 18:42:30.12027
"KHOB","Hobbs Arpt, NM, US",2025-09-16 21:50:00,"2025-09-16 15:50:00","VFR",30,11,150,15,NA,NA,1020.7,"METAR KHOB 162150Z 15015KT 10SM SCT070 BKN090 30/11 A3014",2025-09-16 22:42:30.126721,2025-09-16 18:42:30.126764
"KHQZ","Mesquite Metro, TX, US",2025-09-16 21:50:00,"2025-09-16 21:50:00","VFR",36,14,130,5,NA,NA,1017.7,"METAR KHQZ 162150Z 13005KT 10SM SCT070 36/14 A3005",2025-09-16 22:42:30.133218,2025-09-16 18:42:30.133261
"KHSA","Bay St Louis/Stennis Intl, MS, US",2025-09-16 21:50:00,"2025-09-16 21:50:00","VFR",28,19,220,4,NA,NA,1017,"METAR KHSA 162150Z 22004KT 10SM SCT050 28/19 A3003",2025-09-16 22:42:30.139543,2025-09-16 18:42:30.139598
"KGYY","Gary Intl, IN, US",2025-09-16 21:50:00,"2025-09-16 16:50:00","VFR",26,17,NA,5,NA,NA,1021.8,"METAR KGYY 162150Z VRB05KT 10SM CLR 26/17 A3017",2025-09-16 22:42:30.145903,2025-09-16 18:42:30.145959
"KHUM","Houma/Terrebonne Arpt, LA, US",2025-09-16 21:47:00,"2025-09-16 16:47:00","VFR",31,21,170,6,NA,7,1017.4,"METAR KHUM 162147Z 17006KT 7SM SCT050 31/21 A3004",2025-09-16 22:42:30.152219,2025-09-16 18:42:30.152261
"KGYR","Phoenix/Goodyear Muni, AZ, US",2025-09-16 21:47:00,"2025-09-16 14:47:00","VFR",39,12,NA,5,NA,NA,1010.9,"METAR KGYR 162147Z VRB05KT 10SM FEW110 SCT160 39/12 A2985",2025-09-16 22:42:30.15871,2025-09-16 18:42:30.158756
"KGYH","Greenville/Donaldson Fld, SC, US",2025-09-16 21:47:00,"2025-09-16 17:47:00","VFR",23,15,NA,4,NA,NA,1020.1,"METAR KGYH 162147Z VRB04KT 10SM BKN055 BKN100 23/15 A3012",2025-09-16 22:42:30.165391,2025-09-16 18:42:30.165436
"KJNX","Smithfield/Johnston Rgnl, NC, US",2025-09-16 22:40:00,"2025-09-16 22:40:00","VFR",21,16,10,4,NA,NA,1019,"METAR KJNX 162240Z AUTO 01004KT 10SM OVC045 21/16 A3009 RMK AO2",2025-09-16 22:42:31.676965,2025-09-16 18:42:31.677011
"KI69","Batavia/Clermont Cnty, OH, US",2025-09-16 22:36:00,"2025-09-16 22:36:00","VFR",28.5,11.9,40,3,NA,NA,1019.4,"METAR KI69 162236Z AUTO 04003KT 10SM CLR 29/12 A3010 RMK AO1 T02850119",2025-09-16 22:42:31.683867,2025-09-16 18:42:31.683915
"KI95","Kenton/Hardin Cnty, OH, US",2025-09-16 22:35:00,"2025-09-16 22:35:00","VFR",27,13,30,3,NA,NA,1019.7,"METAR KI95 162235Z AUTO 03003KT 10SM CLR 27/13 A3011 RMK A01",2025-09-16 22:42:31.690475,2025-09-16 18:42:31.690519
"KIJX","Jacksonville Muni, IL, US",2025-09-16 22:35:00,"2025-09-16 22:35:00","VFR",31.2,10.3,10,3,NA,NA,1019,"METAR KIJX 162235Z AUTO 01003KT 10SM CLR 31/10 A3009 RMK AO2 T03120103",2025-09-16 22:42:31.697103,2025-09-16 18:42:31.697149
"KIKV","Ankeny Rgnl, IA, US",2025-09-16 22:35:00,"2025-09-16 22:35:00","VFR",29,20,0,0,NA,NA,1019.4,"METAR KIKV 162235Z AUTO 00000KT 10SM CLR 29/20 A3010 RMK AO2",2025-09-16 22:42:31.703773,2025-09-16 18:42:31.703839
"KISQ","Manistique/Schoolcraft Cnty, MI, US",2025-09-16 22:35:00,"2025-09-16 18:35:00",NA,20.5,17.2,170,5,NA,NA,1021.8,"METAR KISQ 162235Z AUTO 17005KT 21/17 A3017 RMK AO2 T02050172 PWINO",2025-09-16 22:42:31.710281,2025-09-16 18:42:31.710325
"KI35","Harlan/Guthrie Mem, KY, US",2025-09-16 22:35:00,"2025-09-16 22:35:00","VFR",23.8,18.5,0,0,NA,NA,1020.1,"METAR KI35 162235Z AUTO 00000KT 10SM CLR 24/19 A3012 RMK AO2 T02380185",2025-09-16 22:42:31.728645,2025-09-16 18:42:31.728689
"KI74","Urbana/Grimes Fld, OH, US",2025-09-16 22:35:00,"2025-09-16 22:35:00","VFR",28,11,130,3,NA,NA,1020.1,"METAR KI74 162235Z AUTO 13003KT 10SM CLR 28/11 A3012 RMK AO2",2025-09-16 22:42:31.734973,2025-09-16 18:42:31.735017
"KJFX","Jasper/Walker Cnty, AL, US",2025-09-16 22:35:00,"2025-09-16 22:35:00","VFR",32,14,0,0,NA,NA,1018,"METAR KJFX 162235Z AUTO 00000KT 10SM BKN120 32/14 A3006 RMK AO2 LTG DSNT S",2025-09-16 22:42:31.741282,2025-09-16 18:42:31.741325
"KJYO","Leesburg Exec, VA, US",2025-09-16 22:35:00,"2025-09-16 22:35:00","IFR",17,16,NA,NA,NA,2.5,1021.8,"METAR KJYO 162235Z AUTO 2 1/2SM RA BKN029 OVC037 17/16 A3017 RMK AO2 VIS 2V5 P0004",2025-09-16 22:42:31.747478,2025-09-16 18:42:31.74752
"KJMR","Mora Muni, MN, US",2025-09-16 22:35:00,"2025-09-16 22:35:00",NA,30,19,210,8,NA,NA,1018.7,"METAR KJMR 162235Z AUTO 21008KT 10SM 30/19 A3008 RMK AO2",2025-09-16 22:42:31.753684,2025-09-16 18:42:31.753727
"KIKG","Kingsville/Kleberg Cnty, TX, US",2025-09-16 22:35:00,"2025-09-16 22:35:00","VFR",30.4,20.7,80,10,NA,NA,1016.7,"METAR KIKG 162235Z AUTO 08010KT 10SM BKN085 30/21 A3002 RMK AO2 T03040207",2025-09-16 22:42:31.75999,2025-09-16 18:42:31.760037
"KI63","Mt Sterling Muni, IL, US",2025-09-16 22:35:00,"2025-09-16 22:35:00","VFR",31,14.5,100,8,NA,NA,1019.4,"METAR KI63 162235Z AUTO 10008KT 10SM CLR 31/15 A3010 RMK AO2 T03100145",2025-09-16 22:42:31.766352,2025-09-16 18:42:31.766398
"KI75","Osceola Muni, IA, US",2025-09-16 22:35:00,"2025-09-16 22:35:00","VFR",26.1,20.3,160,3,NA,NA,1019.4,"METAR KI75 162235Z AUTO 16003KT 10SM CLR 26/20 A3010 RMK AO2 T02610203",2025-09-16 22:42:31.772775,2025-09-16 18:42:31.772844
"KJXI","Gilmer/Stephens Fld, TX, US",2025-09-16 22:35:00,"2025-09-16 22:35:00","VFR",32.7,15.4,0,0,NA,NA,1017.4,"METAR KJXI 162235Z AUTO 00000KT 10SM CLR 33/15 A3004 RMK AO2 T03270154",2025-09-16 22:42:31.779182,2025-09-16 18:42:31.779226
"KIER","Natchitoches Rgnl, LA, US",2025-09-16 22:35:00,"2025-09-16 22:35:00","VFR",29.1,21.3,0,0,NA,NA,1016.3,"METAR KIER 162235Z AUTO 00000KT 10SM SCT070 SCT090 29/21 A3001 RMK AO2 T02910213",2025-09-16 22:42:31.785496,2025-09-16 18:42:31.785546
"KIBM","Kimball Muni, NE, US",2025-09-16 22:35:00,"2025-09-16 22:35:00","VFR",18.2,11.6,350,9,NA,NA,1022.4,"METAR KIBM 162235Z AUTO 35009KT 10SM CLR 18/12 A3019 RMK AO2 T01820116",2025-09-16 22:42:31.791958,2025-09-16 18:42:31.792003
"KJWY","Midlothian/Mid-Way Rgnl, TX, US",2025-09-16 22:35:00,"2025-09-16 22:35:00","VFR",33.6,14.7,160,6,NA,NA,1018,"METAR KJWY 162235Z AUTO 16006KT 10SM SCT085 34/15 A3006 RMK AO2 T03360147 $",2025-09-16 22:42:31.798411,2025-09-16 18:42:31.798455
"KIGQ","Chicago/Lansing Muni, IL, US",2025-09-16 22:35:00,"2025-09-16 22:35:00","VFR",24.7,13.9,30,7,NA,NA,1021.4,"METAR KIGQ 162235Z AUTO 03007KT 10SM CLR 25/14 A3016 RMK AO2 T02470139 TSNO",2025-09-16 22:42:31.804783,2025-09-16 18:42:31.804849
"KHZE","Hazen/Mercer Cnty, ND, US",2025-09-16 22:35:00,"2025-09-16 22:35:00","VFR",27,11,350,4,NA,9,1020.7,"METAR KHZE 162235Z AUTO 35004KT 9SM CLR 27/11 A3014 RMK AO2",2025-09-16 22:42:31.811105,2025-09-16 18:42:31.811147
"KJKJ","Moorhead Muni, MN, US",2025-09-16 22:35:00,"2025-09-16 22:35:00","VFR",29,12,280,6,NA,NA,1018,"METAR KJKJ 162235Z AUTO 28006KT 10SM CLR 29/12 A3006 RMK AO2",2025-09-16 22:42:31.8175,2025-09-16 18:42:31.817544
"KIZA","Santa Ynez Arpt, CA, US",2025-09-16 22:35:00,"2025-09-16 15:35:00","VFR",35,12,220,9,14,NA,1011.9,"METAR KIZA 162235Z AUTO 22009G14KT 190V250 10SM CLR 35/12 A2988 RMK AO2",2025-09-16 22:42:31.823878,2025-09-16 18:42:31.823922
"KIRS","Sturgis/Kirsh Muni, MI, US",2025-09-16 22:35:00,"2025-09-16 18:35:00","VFR",26,12,10,5,NA,NA,1021.4,"METAR KIRS 162235Z AUTO 01005KT 10SM CLR 26/12 A3016 RMK AO2",2025-09-16 22:42:31.830235,2025-09-16 18:42:31.830279
"KJSV","Sallisaw Muni, OK, US",2025-09-16 22:35:00,"2025-09-16 22:35:00","VFR",34,19,340,4,NA,NA,1017.7,"METAR KJSV 162235Z AUTO 34004KT 10SM CLR 34/19 A3005 RMK AO2",2025-09-16 22:42:31.836763,2025-09-16 18:42:31.836823
"KJFZ","Tazewell Cnty, VA, US",2025-09-16 22:35:00,"2025-09-16 22:35:00","VFR",18.5,12.1,60,3,NA,NA,1022.4,"METAR KJFZ 162235Z AUTO 06003KT 10SM OVC110 19/12 A3019 RMK AO2 T01850121",2025-09-16 22:42:31.843214,2025-09-16 18:42:31.843257
"KI23","Washington Court House/Fayette Cnty, OH, US",2025-09-16 22:35:00,"2025-09-16 22:35:00","VFR",28,9,70,5,NA,NA,1019.7,"METAR KI23 162235Z AUTO 07005KT 10SM SCT080 28/09 A3011 RMK AO1",2025-09-16 22:42:31.862078,2025-09-16 18:42:31.862123
"KJYG","St James Muni, MN, US",2025-09-16 22:35:00,"2025-09-16 22:35:00","VFR",33,18,NA,3,NA,NA,1017.7,"METAR KJYG 162235Z AUTO VRB03KT 10SM CLR 33/18 A3005 RMK AO2 LTG DSNT S",2025-09-16 22:42:31.868578,2025-09-16 18:42:31.868623
"KIXA","Halifax/Northampton Rgnl, NC, US",2025-09-16 22:35:00,"2025-09-16 22:35:00","MVFR",16,16,340,10,NA,NA,1018,"METAR KIXA 162235Z AUTO 34010KT 10SM OVC012 16/16 A3006 RMK AO2",2025-09-16 22:42:31.874974,2025-09-16 18:42:31.875021
"KIPJ","Lincolnton/Lincoln Cnty, NC, US",2025-09-16 22:35:00,"2025-09-16 22:35:00","VFR",22.4,18.4,0,0,NA,NA,1019.7,"METAR KIPJ 162235Z AUTO 00000KT 10SM BKN070 OVC090 22/18 A3011 RMK AO2 T02240184",2025-09-16 22:42:31.881339,2025-09-16 18:42:31.881382
"KIOB","Mount Sterling/Montgomery Cnty, KY, US",2025-09-16 22:35:00,"2025-09-16 22:35:00","VFR",26,14,0,0,NA,NA,1020.1,"METAR KIOB 162235Z AUTO 00000KT 10SM CLR 26/14 A3012 RMK AO2 PWINO",2025-09-16 22:42:31.887747,2025-09-16 18:42:31.887792
"KJSO","Jacksonvil0e/Cherokee Cnty, TX, US",2025-09-16 22:35:00,"2025-09-16 17:35:00","VFR",32.3,19.1,250,3,NA,8,1016.7,"METAR KJSO 162235Z AUTO 25003KT 8SM CLR 32/19 A3002 RMK AO2 T03230191",2025-09-16 22:42:31.894085,2025-09-16 18:42:31.89413
"KIDP","Independence Muni, KS, US",2025-09-16 22:35:00,"2025-09-16 17:35:00","VFR",32,19,200,4,NA,NA,1018.4,"METAR KIDP 162235Z AUTO 20004KT 10SM CLR 32/19 A3007 RMK AO2",2025-09-16 22:42:31.900489,2025-09-16 18:42:31.900532
"KI67","Harrison/West Arpt, OH, US",2025-09-16 22:35:00,"2025-09-16 22:35:00","VFR",28,13,0,0,NA,NA,1018.7,"METAR KI67 162235Z AUTO 00000KT 10SM CLR 28/13 A3008 RMK AO1",2025-09-16 22:42:31.906846,2025-09-16 18:42:31.906892
"KJYL","Sylvania/Plantation Arpk, GA, US",2025-09-16 22:35:00,"2025-09-16 22:35:00",NA,29.3,13.2,0,0,NA,NA,1018.7,"METAR KJYL 162235Z AUTO 00000KT 10SM 29/13 A3008 RMK AO2 T02930132",2025-09-16 22:42:31.913228,2025-09-16 18:42:31.913271
"KJOT","Joliet Rgnl, IL, US",2025-09-16 22:35:00,"2025-09-16 17:35:00","VFR",27.5,14,60,10,NA,NA,1021.1,"METAR KJOT 162235Z AUTO 06010KT 10SM CLR 28/14 A3015 RMK AO2 T02750140",2025-09-16 22:42:31.919522,2025-09-16 18:42:31.919567
"KICL","Clarinda/Schenck Fld, IA, US",2025-09-16 22:35:00,"2025-09-16 17:35:00","VFR",32,18,170,7,NA,NA,1019,"METAR KICL 162235Z AUTO 17007KT 10SM CLR 32/18 A3009 RMK AO2",2025-09-16 22:42:31.925867,2025-09-16 18:42:31.925912
"KJES","Jesup/Wayne Cnty, GA, US",2025-09-16 22:35:00,"2025-09-16 22:35:00","VFR",30,15,0,0,NA,NA,1019.4,"METAR KJES 162235Z AUTO 00000KT 10SM CLR 30/15 A3010 RMK AO2",2025-09-16 22:42:31.93215,2025-09-16 18:42:31.932193
"KJAS","Jasper/Bell Fld, TX, US",2025-09-16 22:35:00,"2025-09-16 17:35:00","VFR",32,21,10,7,NA,NA,1016.7,"METAR KJAS 162235Z AUTO 01007KT 10SM CLR 32/21 A3002 RMK AO2",2025-09-16 22:42:31.938472,2025-09-16 18:42:31.938516
"KJYR","York Muni, NE, US",2025-09-16 22:35:00,"2025-09-16 22:35:00","VFR",31,17,170,8,13,NA,1018,"METAR KJYR 162235Z AUTO 17008G13KT 10SM CLR 31/17 A3006 RMK AO2",2025-09-16 22:42:31.944759,2025-09-16 18:42:31.944816
"KHZL","Hazleton Muni, PA, US",2025-09-16 22:35:00,"2025-09-16 18:35:00","VFR",NA,NA,0,0,NA,NA,1024.1,"METAR KHZL 162235Z AUTO 00000KT 10SM CLR A3024 RMK AO2 LTG DSNT S",2025-09-16 22:42:31.951071,2025-09-16 18:42:31.951113
"KIIY","Washington/Wilkes Cnty, GA, US",2025-09-16 22:35:00,"2025-09-16 22:35:00","VFR",27.4,17.5,0,0,NA,NA,1019.4,"METAR KIIY 162235Z AUTO 00000KT 10SM CLR 27/18 A3010 RMK AO2 T02740175",2025-09-16 22:42:31.95734,2025-09-16 18:42:31.957384
"KI68","Lebanon/Warren Cnty, OH, US",2025-09-16 22:35:00,"2025-09-16 22:35:00","VFR",29,14,50,5,NA,NA,1019,"METAR KI68 162235Z AUTO 05005KT 10SM CLR 29/14 A3009 RMK AO2",2025-09-16 22:42:31.96365,2025-09-16 18:42:31.963693
"KHZX","McGregor/Iverson Arpt, MN, US",2025-09-16 22:35:00,"2025-09-16 22:35:00","VFR",30,17,220,5,NA,NA,1017.7,"METAR KHZX 162235Z AUTO 22005KT 10SM CLR 30/17 A3005 RMK AO2",2025-09-16 22:42:31.970012,2025-09-16 18:42:31.970056
"KIFA","Iowa Falls Muni, IA, US",2025-09-16 22:35:00,"2025-09-16 17:35:00","VFR",28,18,150,9,NA,NA,1019.7,"METAR KIFA 162235Z AUTO 15009KT 10SM SCT060 SCT070 28/18 A3011 RMK AO2 T02800180",2025-09-16 22:42:31.976346,2025-09-16 18:42:31.976392
"KINJ","Hillsboro Muni, TX, US",2025-09-16 22:35:00,"2025-09-16 22:35:00","VFR",34.3,15.6,170,8,NA,NA,1017.7,"METAR KINJ 162235Z AUTO 17008KT 140V200 10SM SCT085 34/16 A3005 RMK AO2 T03430156",2025-09-16 22:42:31.994193,2025-09-16 18:42:31.994237
"KI16","Pineville/Kee Fld, WV, US",2025-09-16 22:35:00,"2025-09-16 22:35:00","VFR",20.2,15.7,NA,NA,NA,NA,1022.8,"METAR KI16 162235Z AUTO 10SM CLR 20/16 A3020 RMK AO2 T02020157",2025-09-16 22:42:32.000495,2025-09-16 18:42:32.000539
"KJWG","Watonga Rgnl, OK, US",2025-09-16 22:35:00,"2025-09-16 22:35:00","VFR",31.5,15.8,130,9,NA,NA,1019,"METAR KJWG 162235Z AUTO 13009KT 10SM CLR 31/16 A3009 RMK AO2 T03150158",2025-09-16 22:42:32.006785,2025-09-16 18:42:32.006849
"KI40","Coshocton/Downing Arpt, OH, US",2025-09-16 22:35:00,"2025-09-16 22:35:00","VFR",27,11,70,4,NA,NA,1020.7,"METAR KI40 162235Z AUTO 07004KT 10SM SCT080 27/11 A3014 RMK AO2",2025-09-16 22:42:32.013104,2025-09-16 18:42:32.013149
"KIIB","Independence Muni, IA, US",2025-09-16 22:35:00,"2025-09-16 22:35:00","VFR",27.6,18.7,160,6,NA,NA,1021.1,"METAR KIIB 162235Z AUTO 16006KT 10SM CLR 28/19 A3015 RMK AO2 T02760187",2025-09-16 22:42:32.019323,2025-09-16 18:42:32.019367
"KJZI","Charleston Exec, SC, US",2025-09-16 22:35:00,"2025-09-16 22:35:00","VFR",28,15,0,0,NA,NA,1018,"METAR KJZI 162235Z AUTO 00000KT 10SM CLR 28/15 A3006 RMK AO2",2025-09-16 22:42:32.02563,2025-09-16 18:42:32.025677
"KJGG","Williamsburg-Jamestown Arpt, VA, US",2025-09-16 22:35:00,"2025-09-16 22:35:00","MVFR",NA,NA,360,12,23,4,1015.7,"METAR KJGG 162235Z AUTO 36012G23KT 310V020 4SM -RA BKN011 BKN020 OVC027 A2999 RMK AO2 P0004 $",2025-09-16 22:42:32.032266,2025-09-16 18:42:32.03231
"KJDD","Mineola/Wood Cnty, TX, US",2025-09-16 22:35:00,"2025-09-16 22:35:00","VFR",33.4,17.2,280,3,NA,9,1017,"METAR KJDD 162235Z AUTO 28003KT 9SM CLR 33/17 A3003 RMK AO2 T03340172 $",2025-09-16 22:42:32.038498,2025-09-16 18:42:32.03854
"KIDI","Indiana/Stewart Arpt, PA, US",2025-09-16 22:35:00,"2025-09-16 18:35:00","VFR",25,10,60,4,NA,NA,1021.4,"METAR KIDI 162235Z AUTO 06004KT 10SM CLR 25/10 A3016 RMK A01",2025-09-16 22:42:32.044814,2025-09-16 18:42:32.044863
"KJLN","Joplin Rgnl, MO, US",2025-09-16 22:24:00,"2025-09-16 17:24:00","VFR",24,19,0,0,NA,NA,1019.4,"SPECI KJLN 162224Z 00000KT 10SM BKN100 24/19 A3010 RMK TSE18",2025-09-16 22:42:32.051105,2025-09-16 18:42:32.05115
"KIML","Imperial Muni, NE, US",2025-09-16 22:20:00,"2025-09-16 16:20:00","VFR",18.3,14.4,NA,NA,NA,NA,1019,"SPECI KIML 162220Z AUTO 10SM -TSRA FEW050 BKN090 BKN110 18/14 A3009 RMK AO2 LTG DSNT ALQDS TSB14 PRESRR P0000 T01830144",2025-09-16 22:42:32.057382,2025-09-16 18:42:32.057427
"KIMS","Madison Muni, IN, US",2025-09-16 22:18:00,"2025-09-16 18:18:00","VFR",NA,NA,10,3,NA,NA,1019.7,"METAR KIMS 162218Z 01003KT 10SM CLR A3011 RMK AO1",2025-09-16 22:42:32.063786,2025-09-16 18:42:32.063857
"KIKK","Kankakee Arpt, IL, US",2025-09-16 22:17:00,"2025-09-16 17:17:00","VFR",28,13,40,8,NA,NA,1021.1,"METAR KIKK 162217Z AUTO 04008KT 10SM CLR 28/13 A3015 RMK AO2",2025-09-16 22:42:32.070149,2025-09-16 18:42:32.070192
"KJVY","Jeffersonville/Clark Rgnl, IN, US",2025-09-16 22:15:00,"2025-09-16 22:15:00","VFR",31,15,360,8,NA,7,1017.7,"METAR KJVY 162215Z AUTO 36008KT 7SM BKN075 31/15 A3005 RMK AO2",2025-09-16 22:42:32.076469,2025-09-16 18:42:32.076511
"KIMM","Immokalee Rgnl, FL, US",2025-09-16 22:15:00,"2025-09-16 18:15:00","VFR",29,25,130,5,NA,NA,1016.3,"METAR KIMM 162215Z AUTO 13005KT 10SM FEW060 FEW080 29/25 A3001 RMK AO2",2025-09-16 22:42:32.082838,2025-09-16 18:42:32.082885
"KISM","Kissimmee Muni, FL, US",2025-09-16 22:15:00,"2025-09-16 18:15:00","VFR",27,23,80,15,NA,NA,1017,"SPECI KISM 162215Z 08015KT 10SM VCTS -RA SCT037 OVC048 27/23 A3003 RMK AO2 LTG DSNT SE-W TSB09RAB2158 P0000 $",2025-09-16 22:42:32.089214,2025-09-16 18:42:32.089267
"KHZR","New Roads/False River Rgnl, LA, US",2025-09-16 22:15:00,"2025-09-16 22:15:00",NA,NA,NA,0,0,NA,NA,1016.7,"METAR KHZR 162215Z AUTO 00000KT A3002 RMK AO2 LTG DSNT E PWINO",2025-09-16 22:42:32.095478,2025-09-16 18:42:32.095519
"KJAU","Jacksboro/Campbell Cnty, TN, US",2025-09-16 22:10:00,"2025-09-16 22:10:00",NA,27,18,220,5,NA,NA,1018,"METAR KJAU 162210Z AUTO 22005KT 10SM 27/18 A3006 RMK A01",2025-09-16 22:42:32.10195,2025-09-16 18:42:32.101994
"KIAD","Washington/Dulles Intl, VA, US",2025-09-16 22:10:00,"2025-09-16 18:10:00","IFR",16.7,15,20,7,NA,2,1021.1,"SPECI KIAD 162210Z 02007KT 2SM +RA BR BKN020 OVC039 17/15 A3015 RMK AO2 P0008 T01670150",2025-09-16 22:42:32.108275,2025-09-16 18:42:32.108317
"KJHW","Jamestown/Chautauqua Cnty, NY, US",2025-09-16 21:56:00,"2025-09-16 17:56:00","VFR",23.9,12.2,350,9,NA,NA,1022.8,"METAR KJHW 162156Z AUTO 35009KT 10SM CLR 24/12 A3020 RMK AO2 SLP225 T02390122",2025-09-16 22:42:32.126576,2025-09-16 18:42:32.12662
"KINW","Winslow/Lindberg Rgnl, AZ, US",2025-09-16 21:56:00,"2025-09-16 14:56:00","VFR",32.2,5,240,14,20,NA,1020.1,"METAR KINW 162156Z AUTO 24014G20KT 10SM SCT100 32/05 A3012 RMK AO2 LTG DSNT SE SLP126 T03220050",2025-09-16 22:42:32.132888,2025-09-16 18:42:32.132933
"KJMS","Jamestown Rgnl, ND, US",2025-09-16 21:56:00,"2025-09-16 16:56:00","VFR",27.8,15.6,320,5,NA,NA,1019.4,"METAR KJMS 162156Z AUTO 32005KT 10SM CLR 28/16 A3010 RMK AO2 SLP185 T02780156",2025-09-16 22:42:32.139222,2025-09-16 18:42:32.139267
"KJXN","Jackson Cnty, MI, US",2025-09-16 21:56:00,"2025-09-16 17:56:00","VFR",27.2,8.9,10,5,NA,NA,1022.1,"METAR KJXN 162156Z 01005KT 10SM CLR 27/09 A3018 RMK AO2 SLP215 T02720089",2025-09-16 22:42:32.145462,2025-09-16 18:42:32.145504
"KISO","Kinston Rgnl, NC, US",2025-09-16 21:56:00,"2025-09-16 17:56:00","MVFR",20,16,330,7,NA,NA,1018.4,"METAR KISO 162156Z 33007KT 10SM SCT022 BKN030 OVC037 20/16 A3007",2025-09-16 22:42:32.151714,2025-09-16 18:42:32.151757
"KISP","Islip/Macarthur Arpt, NY, US",2025-09-16 21:56:00,"2025-09-16 17:56:00","VFR",21.7,8.3,70,9,NA,NA,1022.8,"METAR KISP 162156Z 07009KT 10SM FEW050 BKN170 BKN250 22/08 A3020 RMK SLP225 T02170083",2025-09-16 22:42:32.158025,2025-09-16 18:42:32.15807
"KJAX","Jacksonville Intl, FL, US",2025-09-16 21:56:00,"2025-09-16 17:56:00","VFR",28.9,15,80,9,NA,NA,1018,"METAR KJAX 162156Z 08009KT 10SM FEW050 SCT250 29/15 A3006 RMK AO2 SLP179 T02890150 $",2025-09-16 22:42:32.164368,2025-09-16 18:42:32.16441
"KIWD","Ironwood/Iron Cnty, MI, US",2025-09-16 21:56:00,"2025-09-16 16:56:00","VFR",27.8,19.4,200,5,NA,NA,1019.7,"METAR KIWD 162156Z AUTO 20005KT 10SM CLR 28/19 A3011 RMK AO2 SLP189 T02780194",2025-09-16 22:42:32.170707,2025-09-16 18:42:32.170754
"KJAC","Jackson Hole Arpt, WY, US",2025-09-16 21:56:00,"2025-09-16 15:56:00","VFR",17.2,2.2,NA,4,NA,NA,1026.2,"METAR KJAC 162156Z VRB04KT 10SM SCT070 17/02 A3030 RMK AO2 SLP242 T01720022",2025-09-16 22:42:32.177107,2025-09-16 18:42:32.177151
"KINS","Indian Springs/Creech AFB, NV, US",2025-09-16 21:55:00,"2025-09-16 14:55:00","VFR",34.1,-4.9,110,4,NA,NA,1016.7,"METAR KINS 162155Z AUTO 11004KT 10SM CLR 34/M05 A3002 RMK AO2 SLP114 T03411049 $",2025-09-16 22:42:32.183518,2025-09-16 18:42:32.183562
"KIAB","McConnell AFB, KS, US",2025-09-16 21:55:00,"2025-09-16 16:55:00","VFR",31,19,140,9,NA,NA,1019,"METAR KIAB 162155Z 14009KT 10SM FEW060 31/19 A3009 RMK SLPNO WND DATA ESTMD ALSTG ESTMD RVRNO",2025-09-16 22:42:32.189943,2025-09-16 18:42:32.18999
"KIRK","Kirksville Rgnl, MO, US",2025-09-16 21:55:00,"2025-09-16 16:55:00","VFR",31.1,17.8,130,3,NA,NA,1020.1,"METAR KIRK 162155Z AUTO 13003KT 10SM CLR 31/18 A3012 RMK AO2 SLP193 T03110178",2025-09-16 22:42:32.196342,2025-09-16 18:42:32.196386
"KJKA","Gulf Shores/Edwards Arpt, AL, US",2025-09-16 21:55:00,"2025-09-16 16:55:00","VFR",29,16,140,10,NA,NA,1017.4,"METAR KJKA 162155Z 14010KT 10SM CLR 29/16 A3004",2025-09-16 22:42:32.202678,2025-09-16 18:42:32.202721
"KILN","Wilmington Arpt, OH, US",2025-09-16 21:54:00,"2025-09-16 17:54:00","VFR",27.2,10,70,5,NA,NA,1019.7,"METAR KILN 162154Z AUTO 07005KT 10SM FEW080 27/10 A3011 RMK AO2 SLP190 T02720100",2025-09-16 22:42:32.209036,2025-09-16 18:42:32.209079
"KIMT","Iron Mountain/Ford Aprt, MI, US",2025-09-16 21:54:00,"2025-09-16 16:54:00","VFR",27.8,18.3,170,6,NA,NA,1020.7,"METAR KIMT 162154Z AUTO 17006KT 10SM CLR 28/18 A3014 RMK AO2 SLP206 T02780183",2025-09-16 22:42:32.215382,2025-09-16 18:42:32.215425
"KIPT","Williamsport Rgnl, PA, US",2025-09-16 21:54:00,"2025-09-16 17:54:00","VFR",25.6,12.2,120,7,NA,NA,1020.4,"METAR KIPT 162154Z 12007KT 10SM CLR 26/12 A3013 RMK AO2 SLP201 T02560122",2025-09-16 22:42:32.221895,2025-09-16 18:42:32.22194
"KJST","Johnstown/Murtha Arpt, PA, US",2025-09-16 21:54:00,"2025-09-16 17:54:00","VFR",21.7,9.4,80,6,NA,NA,1022.4,"METAR KJST 162154Z AUTO 08006KT 10SM CLR 22/09 A3019 RMK AO2 SLP216 T02170094",2025-09-16 22:42:32.228248,2025-09-16 18:42:32.228292
"KINT","Winston-Salem/Reynolds Arpt, NC, US",2025-09-16 21:54:00,"2025-09-16 17:54:00","VFR",21.1,9.4,10,4,NA,NA,1020.7,"METAR KINT 162154Z 01004KT 10SM BKN080 BKN120 21/09 A3014 RMK AO2 SLP200 T02110094",2025-09-16 22:42:32.23465,2025-09-16 18:42:32.234692
"KINL","International Falls/Einarson Fld, MN, US",2025-09-16 21:54:00,"2025-09-16 16:54:00","VFR",28.3,16.7,NA,3,NA,NA,1016.3,"METAR KINL 162154Z AUTO VRB03KT 10SM CLR 28/17 A3001 RMK AO2 SLP158 T02830167 $",2025-09-16 22:42:32.241087,2025-09-16 18:42:32.241131
"KIZG","Fryeburg/Eastern Slopes Rgnl, ME, US",2025-09-16 21:54:00,"2025-09-16 17:54:00","VFR",23.9,11.7,140,5,NA,NA,1024.5,"METAR KIZG 162154Z AUTO 14005KT 10SM CLR 24/12 A3025 RMK AO2 SLP244 T02390117",2025-09-16 22:42:32.25919,2025-09-16 18:42:32.259235
"KJAN","Jackson/Evers Intl, MS, US",2025-09-16 21:54:00,"2025-09-16 16:54:00","VFR",32.8,19.4,10,5,NA,NA,1017,"METAR KJAN 162154Z 01005KT 10SM FEW060TCU SCT100 BKN250 33/19 A3003 RMK AO2 SLP165 CB DSNT SE-S TCU E T03280194",2025-09-16 22:42:32.265469,2025-09-16 18:42:32.265512
"KISW","Wisconsin Rapids/S Wood Cnty, WI, US",2025-09-16 21:54:00,"2025-09-16 16:54:00","VFR",28.9,17.2,230,5,NA,NA,1021.1,"METAR KISW 162154Z AUTO 23005KT 10SM CLR 29/17 A3015 RMK AO2 SLP206 T02890172",2025-09-16 22:42:32.271723,2025-09-16 18:42:32.271765
"KIND","Indianapolis Intl, IN, US",2025-09-16 21:54:00,"2025-09-16 17:54:00","VFR",28.9,10,330,6,NA,NA,1019.4,"METAR KIND 162154Z 33006KT 10SM FEW075 BKN300 29/10 A3010 RMK AO2 SLP188 T02890100",2025-09-16 22:42:32.278113,2025-09-16 18:42:32.278156
"KIWI","Wiscasset Arpt, ME, US",2025-09-16 21:53:00,"2025-09-16 17:53:00","VFR",21.7,12.8,180,4,NA,NA,1025.1,"METAR KIWI 162153Z AUTO 18004KT 10SM CLR 22/13 A3027 RMK AO2 SLP251 T02170128",2025-09-16 22:42:32.284328,2025-09-16 18:42:32.284371
"KIAG","Niagara Falls Intl, NY, US",2025-09-16 21:53:00,"2025-09-16 17:53:00","VFR",24.4,12.2,40,8,NA,NA,1022.1,"METAR KIAG 162153Z 04008KT 10SM CLR 24/12 A3018 RMK AO2 SLP218 T02440122",2025-09-16 22:42:32.290647,2025-09-16 18:42:32.290694
"KICT","Wichita/Eisenhower Arpt, KS, US",2025-09-16 21:53:00,"2025-09-16 16:53:00","VFR",31.7,18.9,150,9,NA,NA,1018.4,"METAR KICT 162153Z 15009KT 10SM FEW065 FEW250 32/19 A3007 RMK AO2 SLP166 CB DSNT SE MOV NE ACC DSNT S-NW T03170189",2025-09-16 22:42:32.297076,2025-09-16 18:42:32.297121
"KJEF","Jefferson City Mem, MO, US",2025-09-16 21:53:00,"2025-09-16 16:53:00","VFR",32.8,15.6,60,7,NA,NA,1018,"METAR KJEF 162153Z 06007KT 10SM CLR 33/16 A3006 RMK AO2 SLP164 T03280156",2025-09-16 22:42:32.303365,2025-09-16 18:42:32.303409
"KJKL","Jackson/Carroll Arpt, KY, US",2025-09-16 21:53:00,"2025-09-16 21:53:00","VFR",22.8,16.1,0,0,NA,NA,1020.1,"METAR KJKL 162153Z AUTO 00000KT 10SM CLR 23/16 A3012 RMK AO2 SLP188 T02280161 $",2025-09-16 22:42:32.309752,2025-09-16 18:42:32.309795
"KICR","Winner/Wiley Fld, SD, US",2025-09-16 21:53:00,"2025-09-16 21:53:00","VFR",21.7,16.7,320,6,NA,NA,1021.1,"METAR KICR 162153Z AUTO 32006KT 10SM CLR 22/17 A3015 RMK AO2 SLP198 T02170167",2025-09-16 22:42:32.31614,2025-09-16 18:42:32.316184
"KIPL","Imperial Cnty Arpt, CA, US",2025-09-16 21:53:00,"2025-09-16 14:53:00","VFR",39.4,13.9,NA,NA,NA,NA,1009.2,"METAR KIPL 162153Z AUTO 10SM CLR 39/14 A2980 RMK AO2 SLP090 T03940139",2025-09-16 22:42:32.322488,2025-09-16 18:42:32.322532
"KIDA","Idaho Falls Rgnl, ID, US",2025-09-16 21:53:00,"2025-09-16 15:53:00","VFR",20,5.6,350,9,NA,NA,1025.1,"METAR KIDA 162153Z 35009KT 10SM OVC085 20/06 A3027 RMK AO2 SLP228 T02000056",2025-09-16 22:42:32.328897,2025-09-16 18:42:32.328943
"KIAH","Houston/Bush Intl, TX, US",2025-09-16 21:53:00,"2025-09-16 16:53:00","VFR",33.9,17.2,40,5,NA,NA,1016.7,"METAR KIAH 162153Z 04005KT 10SM FEW070 FEW100 34/17 A3002 RMK AO2 SLP163 SHRA DSNT S T03390172 $",2025-09-16 22:42:32.335183,2025-09-16 18:42:32.335227
"KITR","Burlington/Kit Carson Cnty, CO, US",2025-09-16 21:53:00,"2025-09-16 21:53:00","VFR",31.1,8.9,170,20,29,NA,1017.4,"METAR KITR 162153Z AUTO 17020G29KT 10SM CLR 31/09 A3004 RMK AO2 PK WND 18029/2149 SLP118 T03110089",2025-09-16 22:42:32.341488,2025-09-16 18:42:32.341535
"KILM","Wilmington Intl, NC, US",2025-09-16 21:53:00,"2025-09-16 17:53:00","VFR",21.7,16.1,330,12,NA,NA,1017.7,"METAR KILM 162153Z 33012KT 10SM SCT031 BKN039 OVC046 22/16 A3005 RMK AO2 SLP177 T02170161",2025-09-16 22:42:32.347817,2025-09-16 18:42:32.347867
"KJER","Jerome Cnty Arpt, ID, US",2025-09-16 21:53:00,"2025-09-16 21:53:00","VFR",22.8,5,160,4,NA,NA,1023.8,"METAR KJER 162153Z AUTO 16004KT 10SM CLR 23/05 A3023 RMK AO2 SLP214 T02280050",2025-09-16 22:42:32.354153,2025-09-16 18:42:32.354196
"KIXD","Olathe/New Century Arpt, KS, US",2025-09-16 21:53:00,"2025-09-16 16:53:00","VFR",32.2,18.3,180,6,NA,NA,1019,"METAR KIXD 162153Z 18006KT 10SM CLR 32/18 A3009 RMK AO2 SLP177 T03220183",2025-09-16 22:42:32.360477,2025-09-16 18:42:32.36052
"KHZY","Ashtabula/NE Ohio Rgnl, OH, US",2025-09-16 21:53:00,"2025-09-16 17:53:00","VFR",25,14.4,10,4,NA,NA,1021.4,"METAR KHZY 162153Z AUTO 01004KT 10SM CLR 25/14 A3016 RMK AO2 SLP209 T02500144 $",2025-09-16 22:42:32.366902,2025-09-16 18:42:32.366946
"KJBR","Jonesboro Muni, AR, US",2025-09-16 21:53:00,"2025-09-16 16:53:00","VFR",35,15,NA,NA,NA,NA,1016.3,"METAR KJBR 162153Z AUTO 10SM CLR 35/15 A3001 RMK AO2 SLP160 T03500150 $",2025-09-16 22:42:32.373321,2025-09-16 18:42:32.373365
"KIEN","Pine Ridge Strip, SD, US",2025-09-16 21:52:00,"2025-09-16 15:52:00","VFR",14.4,12.8,300,4,NA,NA,1021.8,"METAR KIEN 162152Z AUTO 30004KT 10SM FEW120 14/13 A3017 RMK AO2 LTG DSNT SE RAB21E28 SLP204 P0000 T01440128 $",2025-09-16 22:42:32.391739,2025-09-16 18:42:32.391782
"KIOW","Iowa City Muni, IA, US",2025-09-16 21:52:00,"2025-09-16 16:52:00","VFR",32.2,16.7,160,5,NA,NA,1019.7,"METAR KIOW 162152Z AUTO 16005KT 10SM CLR 32/17 A3011 RMK AO2 SLP192 T03220167",2025-09-16 22:42:32.398199,2025-09-16 18:42:32.398245
"KIJD","Willimantic/Windham Arpt, CT, US",2025-09-16 21:52:00,"2025-09-16 21:52:00","VFR",21.1,10,70,6,NA,NA,1023.8,"METAR KIJD 162152Z AUTO 07006KT 10SM CLR 21/10 A3023 RMK AO2 SLP236 T02110100",2025-09-16 22:42:32.404639,2025-09-16 18:42:32.404686
"KILG","Wilmington/New Castle Arpt, DE, US",2025-09-16 21:51:00,"2025-09-16 17:51:00","VFR",22.2,12.8,60,13,NA,NA,1020.4,"METAR KILG 162151Z 06013KT 10SM BKN060 BKN090 22/13 A3013 RMK AO2 SLP202 T02220128",2025-09-16 22:42:32.411027,2025-09-16 18:42:32.411071
"KJFK","New York/JF Kennedy Intl, NY, US",2025-09-16 21:51:00,"2025-09-16 17:51:00","VFR",21.1,12.2,100,9,NA,NA,1022.4,"METAR KJFK 162151Z 10009KT 10SM FEW045 FEW180 SCT210 BKN250 21/12 A3019 RMK AO2 SLP223 T02110122 $",2025-09-16 22:42:32.417322,2025-09-16 18:42:32.417366
"KIGM","Kingman Arpt, AZ, US",2025-09-16 21:51:00,"2025-09-16 14:51:00","VFR",32.8,2.2,260,9,21,NA,1018.4,"METAR KIGM 162151Z AUTO 26009G21KT 10SM CLR 33/02 A3007 RMK AO2 PK WND 30028/2140 SLP113 T03280022",2025-09-16 22:42:32.423692,2025-09-16 18:42:32.423738
"KJCT","Junction/Kimble Cnty, TX, US",2025-09-16 21:51:00,"2025-09-16 16:51:00","VFR",31.7,14.4,120,9,NA,NA,1019,"METAR KJCT 162151Z AUTO 12009KT 10SM SCT080 32/14 A3009 RMK AO2 SLP152 T03170144",2025-09-16 22:42:32.430105,2025-09-16 18:42:32.430152
"KIWA","Phoenix/Mesa Gateway Arpt, AZ, US",2025-09-16 21:50:00,"2025-09-16 14:50:00","VFR",38,11,310,10,15,NA,1011.9,"METAR KIWA 162150Z 31010G15KT 10SM SCT100 38/11 A2988 RMK TCU DSNT N-SE",2025-09-16 22:42:32.436471,2025-09-16 18:42:32.436514
"KJQF","Concord Rgnl, NC, US",2025-09-16 21:50:00,"2025-09-16 17:50:00","VFR",26,11,70,9,NA,NA,1020.1,"METAR KJQF 162150Z 07009KT 10SM BKN070 26/11 A3012",2025-09-16 22:42:32.442787,2025-09-16 18:42:32.442851
"KJWN","Nashville/Tune Arpt, TN, US",2025-09-16 21:50:00,"2025-09-16 21:50:00","VFR",25,19,140,8,17,7,1017,"SPECI KJWN 162150Z 14008G17KT 7SM FEW065 FEW080 SCT090 25/19 A3003",2025-09-16 22:42:32.449121,2025-09-16 18:42:32.449163
"KJDN","Jordan Arpt, MT, US",2025-09-16 21:48:00,"2025-09-16 15:48:00",NA,24.4,10.6,40,10,NA,NA,1022.4,"METAR KJDN 162148Z AUTO 04010KT 24/11 A3019 RMK AO1 SLP216 T02440106",2025-09-16 22:42:32.455523,2025-09-16 18:42:32.455565
"KIFP","Bullhead City Intl, AZ, US",2025-09-16 21:47:00,"2025-09-16 14:47:00",NA,40,3,NA,NA,NA,NA,1010.2,"METAR KIFP 162147Z 0000KT CLR 40/03 A2983",2025-09-16 22:42:32.461779,2025-09-16 18:42:32.46184
"KJVL","Janesville/S Wisconsin Rgnl, WI, US",2025-09-16 21:45:00,"2025-09-16 16:45:00","VFR",29,14,NA,6,NA,NA,1021.1,"METAR KJVL 162145Z VRB06KT 10SM SCT250 29/14 A3015",2025-09-16 22:42:32.468277,2025-09-16 18:42:32.46832
"KLCH","Lake Charles Rgnl, LA, US",2025-09-16 22:39:00,"2025-09-16 17:39:00","MVFR",27.8,20,100,11,20,4,1017,"SPECI KLCH 162239Z 10011G20KT 4SM VCTS -RA FEW042 BKN065 BKN080 28/20 A3003 RMK AO2 WSHFT 2206 LTG DSNT N AND E RAB29 TSB12E39 P0010 T02780200",2025-09-16 22:42:34.016773,2025-09-16 18:42:34.016834
"KLAR","Laramie Rgnl, WY, US",2025-09-16 22:39:00,"2025-09-16 16:39:00",NA,7.8,5.6,360,16,22,NA,1027.5,"SPECI KLAR 162239Z AUTO 36016G22KT 10SM -TSRA 08/06 A3034 RMK AO2 LTG DSNT N-SE RAB13B19B27 TSE27 P0029 T00780056 $",2025-09-16 22:42:34.0233,2025-09-16 18:42:34.023345
"KLIC","Limon Muni, CO, US",2025-09-16 22:38:00,"2025-09-16 16:38:00","VFR",22.2,8.9,270,15,23,NA,1021.8,"SPECI KLIC 162238Z AUTO 27015G23KT 10SM SCT080 BKN110 22/09 A3017 RMK AO2 LTG DSNT S-NW T02220089 $",2025-09-16 22:42:34.041024,2025-09-16 18:42:34.041067
"KLBL","Liberal/Mid America Rgnl, KS, US",2025-09-16 22:37:00,"2025-09-16 17:37:00","VFR",28,16,160,12,NA,NA,1018.7,"SPECI KLBL 162237Z AUTO 16012KT 10SM VCTS -RA FEW033 SCT060 28/16 A3008 RMK AO2 TSB06E21B31RAB33 PNO $",2025-09-16 22:42:34.047293,2025-09-16 18:42:34.047337
"KK82","Smith Center Arpt, KS, US",2025-09-16 22:35:00,"2025-09-16 22:35:00","VFR",26.3,18.8,130,9,NA,NA,1018,"METAR KK82 162235Z AUTO 13009KT 10SM CLR 26/19 A3006 RMK AO2 T02630188",2025-09-16 22:42:34.053503,2025-09-16 18:42:34.053545
"KLNC","Lancaster Arpt, TX, US",2025-09-16 22:35:00,"2025-09-16 22:35:00",NA,34.7,14.9,180,5,NA,NA,1017.7,"METAR KLNC 162235Z AUTO 18005KT BKN080 BKN090 35/15 A3005 RMK AO2 T03470149 PWINO",2025-09-16 22:42:34.059611,2025-09-16 18:42:34.059652
"KLRU","Las Cruces Intl, NM, US",2025-09-16 22:35:00,"2025-09-16 16:35:00","VFR",30.2,7.5,210,3,NA,NA,1019.7,"METAR KLRU 162235Z AUTO 21003KT 10SM SCT085 30/08 A3011 RMK AO2 T03020075",2025-09-16 22:42:34.065784,2025-09-16 18:42:34.065848
"KLQK","Pickens Cnty, SC, US",2025-09-16 22:35:00,"2025-09-16 18:35:00","VFR",21,19.8,0,0,NA,NA,1019.7,"METAR KLQK 162235Z AUTO 00000KT 10SM BKN120 21/20 A3011 RMK AO2 T02100198",2025-09-16 22:42:34.072083,2025-09-16 18:42:34.072129
"KK83","Sabetha Muni, KS, US",2025-09-16 22:35:00,"2025-09-16 22:35:00","VFR",30.9,17.6,170,5,NA,NA,1019,"METAR KK83 162235Z AUTO 17005KT 10SM CLR 31/18 A3009 RMK AO2 T03090176",2025-09-16 22:42:34.078396,2025-09-16 18:42:34.07844
"KLJF","Litchfield Muni, MN, US",2025-09-16 22:35:00,"2025-09-16 22:35:00","VFR",31,17,300,4,NA,NA,1017.7,"METAR KLJF 162235Z AUTO 30004KT 10SM CLR 31/17 A3005 RMK AO2",2025-09-16 22:42:34.084744,2025-09-16 18:42:34.084789
"KLCG","Wayne Muni, NE, US",2025-09-16 22:35:00,"2025-09-16 22:35:00","VFR",30.1,19.5,190,7,NA,NA,1018,"METAR KLCG 162235Z AUTO 19007KT 10SM CLR 30/20 A3006 RMK AO2 T03010195",2025-09-16 22:42:34.091077,2025-09-16 18:42:34.09112
"KLHM","Lincoln Rgnl, CA, US",2025-09-16 22:35:00,"2025-09-16 22:35:00","VFR",35,9,300,3,NA,NA,1012.6,"METAR KLHM 162235Z AUTO 30003KT 10SM CLR 35/09 A2990 RMK AO1",2025-09-16 22:42:34.09737,2025-09-16 18:42:34.097413
"KL35","Big Bear City Arpt, CA, US",2025-09-16 22:35:00,"2025-09-16 15:35:00","VFR",22,7,260,6,NA,NA,1026.5,"METAR KL35 162235Z AUTO 26006KT 10SM BKN065 OVC080 22/07 A3031 RMK AO2",2025-09-16 22:42:34.103687,2025-09-16 18:42:34.10373
"KLNL","Land OLakes Arpt, WI, US",2025-09-16 22:35:00,"2025-09-16 22:35:00","VFR",25.8,17,200,3,NA,NA,1021.8,"METAR KLNL 162235Z AUTO 20003KT 10SM CLR 26/17 A3017 RMK AO2 T02580170",2025-09-16 22:42:34.109978,2025-09-16 18:42:34.110021
"KLDM","Ludington/Mason Cnty, MI, US",2025-09-16 22:35:00,"2025-09-16 18:35:00","VFR",25,15,280,4,NA,NA,1021.8,"METAR KLDM 162235Z AUTO 28004KT 10SM CLR 25/15 A3017 RMK AO2",2025-09-16 22:42:34.116268,2025-09-16 18:42:34.116311
"KLHB","Hearne Muni, TX, US",2025-09-16 22:35:00,"2025-09-16 22:35:00","VFR",35,17,80,5,NA,NA,1016.7,"METAR KLHB 162235Z AUTO 08005KT 10SM FEW075 35/17 A3002 RMK AO2",2025-09-16 22:42:34.122597,2025-09-16 18:42:34.12264
"KLKR","Lancaster Cnty, SC, US",2025-09-16 22:35:00,"2025-09-16 22:35:00","VFR",27,14,NA,4,NA,NA,1018.7,"METAR KLKR 162235Z AUTO VRB04KT 10SM FEW060 27/14 A3008 RMK AO2",2025-09-16 22:42:34.12897,2025-09-16 18:42:34.129014
"KLRY","Harrisonville/Smith, MO, US",2025-09-16 22:35:00,"2025-09-16 22:35:00","VFR",31,16,0,0,NA,NA,1020.1,"METAR KLRY 162235Z AUTO 00000KT 10SM CLR 31/16 A3012 RMK AO2 LTG DSNT N",2025-09-16 22:42:34.135236,2025-09-16 18:42:34.13528
"KL08","Borrego Springs Arpt, CA, US",2025-09-16 22:35:00,"2025-09-16 15:35:00","VFR",39,8,140,11,NA,NA,1009.6,"METAR KL08 162235Z AUTO 14011KT 10SM CLR 39/08 A2981 RMK AO2",2025-09-16 22:42:34.141576,2025-09-16 18:42:34.14162
"KLHZ","Louisburg/Franklin Cnty, NC, US",2025-09-16 22:35:00,"2025-09-16 18:35:00","MVFR",17,14,330,7,NA,NA,1020.4,"METAR KLHZ 162235Z AUTO 33007KT 10SM OVC020 17/14 A3013 RMK AO2",2025-09-16 22:42:34.147933,2025-09-16 18:42:34.147979
"KLLN","Levelland Muni, TX, US",2025-09-16 22:35:00,"2025-09-16 22:35:00","VFR",28,13,170,11,17,NA,1021.8,"METAR KLLN 162235Z AUTO 17011G17KT 10SM CLR 28/13 A3017 RMK AO2",2025-09-16 22:42:34.154324,2025-09-16 18:42:34.154369
"KLRO","Mt Pleasant Rgnl, SC, US",2025-09-16 22:35:00,"2025-09-16 22:35:00","VFR",27,14,0,0,NA,NA,1017.7,"METAR KLRO 162235Z AUTO 00000KT 10SM CLR 27/14 A3005 RMK AO2",2025-09-16 22:42:34.172099,2025-09-16 18:42:34.172145
"KK88","Iola/Allen Cnty, KS, US",2025-09-16 22:35:00,"2025-09-16 22:35:00","VFR",31,18,100,10,15,9,1018.4,"METAR KK88 162235Z AUTO 10010G15KT 9SM CLR 31/18 A3007 RMK AO2 LTG DSNT SE",2025-09-16 22:42:34.178344,2025-09-16 18:42:34.178394
"KLAM","Los Alamos Arpt, NM, US",2025-09-16 22:35:00,"2025-09-16 16:35:00","VFR",22.2,4.9,30,8,NA,8,1025.5,"METAR KLAM 162235Z AUTO 03008KT 8SM SCT080 BKN100 BKN130 22/05 A3028 RMK AO2 T02220049 $",2025-09-16 22:42:34.184544,2025-09-16 18:42:34.184585
"KLKP","Lake Placid Arpt, NY, US",2025-09-16 22:35:00,"2025-09-16 18:35:00","VFR",20,10,50,5,NA,NA,1024.5,"METAR KLKP 162235Z AUTO 05005KT 10SM CLR 20/10 A3025 RMK AO2",2025-09-16 22:42:34.190779,2025-09-16 18:42:34.19084
"KLNA","Lantana/Palm Beach Cnty, FL, US",2025-09-16 22:35:00,"2025-09-16 18:35:00","VFR",29.9,21.3,90,5,NA,NA,1017,"METAR KLNA 162235Z AUTO 09005KT 10SM CLR 30/21 A3003 RMK AO2 T02990213",2025-09-16 22:42:34.197071,2025-09-16 18:42:34.197116
"KLCQ","Lake City/Gateway Arpt, FL, US",2025-09-16 22:35:00,"2025-09-16 18:35:00","VFR",29,13,50,3,NA,NA,1018,"METAR KLCQ 162235Z AUTO 05003KT 10SM CLR 29/13 A3006 RMK AO2",2025-09-16 22:42:34.203423,2025-09-16 18:42:34.203468
"KLNN","Willoughby/Lake Cnty Exec, OH, US",2025-09-16 22:35:00,"2025-09-16 18:35:00","VFR",23,10.2,10,6,NA,NA,1021.1,"METAR KLNN 162235Z AUTO 01006KT 10SM CLR 23/10 A3015 RMK AO1 T02300102",2025-09-16 22:42:34.209785,2025-09-16 18:42:34.209849
"KLNP","Wise/Lonesome Pine Arpt, VA, US",2025-09-16 22:35:00,"2025-09-16 18:35:00","VFR",20,15,20,5,NA,NA,1022.8,"METAR KLNP 162235Z AUTO 02005KT 10SM SCT120 20/15 A3020 RMK AO2",2025-09-16 22:42:34.216166,2025-09-16 18:42:34.216211
"KLOM","Philadelphia/Wings Field Arpt, PA, US",2025-09-16 22:35:00,"2025-09-16 18:35:00","VFR",19.8,12.4,50,7,NA,NA,1021.4,"METAR KLOM 162235Z AUTO 05007KT 10SM CLR 20/12 A3016 RMK AO2 T01980124",2025-09-16 22:42:34.222623,2025-09-16 18:42:34.222667
"KLBO","Lebanon/Jones Arpt, MO, US",2025-09-16 22:35:00,"2025-09-16 22:35:00","VFR",32,17,90,4,NA,NA,1019.7,"METAR KLBO 162235Z AUTO 09004KT 10SM CLR 32/17 A3011 RMK AO2 LTG DSNT SW",2025-09-16 22:42:34.228963,2025-09-16 18:42:34.229007
"KLRJ","Le Mars Muni, IA, US",2025-09-16 22:35:00,"2025-09-16 17:35:00","VFR",31,19,220,5,NA,NA,1017.4,"METAR KLRJ 162235Z AUTO 22005KT 10SM CLR 31/19 A3004 RMK AO2",2025-09-16 22:42:34.235261,2025-09-16 18:42:34.235305
"KLKU","Louisa/Freeman Fld, VA, US",2025-09-16 22:35:00,"2025-09-16 18:35:00","VFR",15.5,14.2,20,7,NA,NA,1021.1,"METAR KLKU 162235Z AUTO 02007KT 350V050 10SM SCT011 OVC047 15/14 A3015 RMK AO2 LTG DSNT E T01550142",2025-09-16 22:42:34.241601,2025-09-16 18:42:34.241645
"KLMO","Longmont/Brand Arpt, CO, US",2025-09-16 22:35:00,"2025-09-16 22:35:00","VFR",22,8,240,7,NA,7,1023.1,"METAR KLMO 162235Z AUTO 24007KT 7SM SCT031 SCT047 SCT055 22/08 A3021 RMK AO2 T02200080",2025-09-16 22:42:34.247901,2025-09-16 18:42:34.247944
"KLFI","Langley AFB, VA, US",2025-09-16 22:27:00,"2025-09-16 18:27:00","IFR",18,16,10,18,27,2.5,1013.6,"SPECI KLFI 162227Z 01018G27KT 2 1/2SM +RA BR SCT007 18/16 A2993 RMK AO2A VIS 2 1/2V3 VIS 1 1/2 RWY26 SLP142 $",2025-09-16 22:42:34.254245,2025-09-16 18:42:34.254286
"KLSB","Lordsburg Muni, NM, US",2025-09-16 22:15:00,"2025-09-16 16:15:00","VFR",31,10,150,5,15,NA,1018.7,"METAR KLSB 162215Z AUTO 15005G15KT 10SM SCT080 31/10 A3008 RMK AO2 LTG DSNT E",2025-09-16 22:42:34.260556,2025-09-16 18:42:34.260599
"KK62","Falmouth/Snyder Arpt, KY, US",2025-09-16 22:15:00,"2025-09-16 22:15:00","VFR",28,11,80,4,NA,NA,1019,"METAR KK62 162215Z AUTO 08004KT 10SM BKN080 28/11 A3009 RMK AO2",2025-09-16 22:42:34.26688,2025-09-16 18:42:34.266925
"KLMS","Louisville/Winston Cnty, MS, US",2025-09-16 22:15:00,"2025-09-16 17:15:00","VFR",27,23,230,5,NA,NA,1018.4,"METAR KLMS 162215Z AUTO 23005KT 10SM CLR 27/23 A3007 RMK AO2",2025-09-16 22:42:34.27328,2025-09-16 18:42:34.273338
"KLAW","Lawton-Fort Sill Rgnl, OK, US",2025-09-16 22:06:00,"2025-09-16 17:06:00","VFR",31.1,15,240,8,23,NA,1018.4,"SPECI KLAW 162206Z 24008G23KT 200V280 10SM VCTS BKN085 31/15 A3007 RMK AO2 LTG DSNT SW TSE00 T03110150",2025-09-16 22:42:34.279732,2025-09-16 18:42:34.279776
"KLGD","La Grande/Union Cnty, OR, US",2025-09-16 21:56:00,"2025-09-16 14:56:00","VFR",27.2,5.6,NA,6,14,NA,1021.8,"METAR KLGD 162156Z AUTO VRB06G14KT 10SM CLR 27/06 A3017 RMK AO2 SLP207 T02720056 $",2025-09-16 22:42:34.286275,2025-09-16 18:42:34.286321
"KLCI","Laconia Muni, NH, US",2025-09-16 21:56:00,"2025-09-16 17:56:00","VFR",21.1,12.8,180,6,NA,NA,1024.5,"METAR KLCI 162156Z AUTO 18006KT 10SM CLR 21/13 A3025 RMK AO2 SLP245 T02110128",2025-09-16 22:42:34.304382,2025-09-16 18:42:34.304425
"KKLS","Kelso/Longview Arpt, WA, US",2025-09-16 21:56:00,"2025-09-16 14:56:00","VFR",32.2,8.3,150,11,18,NA,1013.6,"METAR KKLS 162156Z AUTO 15011G18KT 10SM CLR 32/08 A2993 RMK AO2 SLP138 T03220083",2025-09-16 22:42:34.310731,2025-09-16 18:42:34.310775
"KLAS","Las Vegas/Reid Intl, NV, US",2025-09-16 21:56:00,"2025-09-16 14:56:00","VFR",36.7,-1.7,NA,4,NA,NA,1015,"METAR KLAS 162156Z VRB04KT 10SM CLR 37/M02 A2997 RMK AO2 SLP120 T03671017",2025-09-16 22:42:34.317091,2025-09-16 18:42:34.317135
"KLRD","Laredo Intl, TX, US",2025-09-16 21:56:00,"2025-09-16 16:56:00","VFR",33.3,18.3,80,8,15,NA,1016,"METAR KLRD 162156Z 08008G15KT 10SM CLR 33/18 A3000 RMK AO2 SLP156 T03330183 $",2025-09-16 22:42:34.32331,2025-09-16 18:42:34.323354
"KLBT","Lumberton Muni, NC, US",2025-09-16 21:56:00,"2025-09-16 17:56:00","VFR",25,12.8,10,11,NA,NA,1018,"METAR KLBT 162156Z AUTO 01011KT 10SM FEW060 25/13 A3006 RMK AO2 SLP179 T02500128",2025-09-16 22:42:34.329572,2025-09-16 18:42:34.329615
"KLNR","Lone Rock/Tri Cnty Rgnl, WI, US",2025-09-16 21:56:00,"2025-09-16 16:56:00","VFR",30.6,17.2,160,5,NA,NA,1020.4,"METAR KLNR 162156Z AUTO 16005KT 10SM CLR 31/17 A3013 RMK AO2 SLP193 T03060172",2025-09-16 22:42:34.335883,2025-09-16 18:42:34.335928
"KLEW","Auburn-Lewiston Muni, ME, US",2025-09-16 21:56:00,"2025-09-16 17:56:00","VFR",22.2,12.2,160,6,NA,NA,1024.8,"METAR KLEW 162156Z AUTO 16006KT 10SM CLR 22/12 A3026 RMK AO2 SLP252 T02220122",2025-09-16 22:42:34.342206,2025-09-16 18:42:34.34225
"KLRF","Little Rock AFB, AR, US",2025-09-16 21:55:00,"2025-09-16 16:55:00","VFR",32.5,21,290,4,NA,NA,1016,"METAR KLRF 162155Z AUTO 29004KT 10SM FEW190 33/21 A3000 RMK AO2 SLP158 T03250210",2025-09-16 22:42:34.348522,2025-09-16 18:42:34.348567
"KLHW","Ft Stewart/Mid Coast Rgnl, GA, US",2025-09-16 21:55:00,"2025-09-16 17:55:00","VFR",29.3,12.2,360,4,NA,NA,1017,"METAR KLHW 162155Z 36004KT 10SM CLR 29/12 A3003 RMK AO2A SLP172 T02930122 $",2025-09-16 22:42:34.354824,2025-09-16 18:42:34.354872
"KLCK","Columbus/Rickenbacker Intl, OH, US",2025-09-16 21:55:00,"2025-09-16 17:55:00","VFR",28.9,10.4,110,3,NA,NA,1019.4,"METAR KLCK 162155Z AUTO 11003KT 10SM CLR 29/10 A3010 RMK AO2 T02890104",2025-09-16 22:42:34.361158,2025-09-16 18:42:34.361202
"KLLJ","Challis Arpt, ID, US",2025-09-16 21:55:00,"2025-09-16 15:55:00","VFR",21.1,3.9,NA,NA,NA,NA,1026.2,"METAR KLLJ 162155Z AUTO 10SM CLR 21/04 A3030 RMK AO2 SLP222 T02110039",2025-09-16 22:42:34.367433,2025-09-16 18:42:34.367478
"KLNK","Lincoln Arpt, NE, US",2025-09-16 21:54:00,"2025-09-16 16:54:00","VFR",32.2,17.2,180,10,NA,NA,1018,"METAR KLNK 162154Z 18010KT 10SM CLR 32/17 A3006 RMK AO2 SLP165 T03220172",2025-09-16 22:42:34.373749,2025-09-16 18:42:34.373793
"KLAF","Lafayette/Purdue Univ Arpt, IN, US",2025-09-16 21:54:00,"2025-09-16 17:54:00","VFR",28.3,11.1,60,5,NA,NA,1020.1,"METAR KLAF 162154Z 06005KT 10SM CLR 28/11 A3012 RMK AO2 SLP194 T02830111",2025-09-16 22:42:34.380066,2025-09-16 18:42:34.380109
"KLEX","Lexington/Blue Grass Aprt, KY, US",2025-09-16 21:54:00,"2025-09-16 17:54:00","VFR",28.9,10.6,30,10,NA,NA,1018.7,"METAR KLEX 162154Z 03010KT 10SM CLR 29/11 A3008 RMK AO2 SLP178 T02890106 $",2025-09-16 22:42:34.38638,2025-09-16 18:42:34.386423
"KLEE","Leesburg Muni, FL, US",2025-09-16 21:53:00,"2025-09-16 17:53:00","VFR",30,20,80,11,16,NA,1017,"METAR KLEE 162153Z AUTO 08011G16KT 10SM CLR 30/20 A3003 RMK AO2 SLP169 T03000200",2025-09-16 22:42:34.39265,2025-09-16 18:42:34.392694
"KLBF","N Platte/Lee Bird Fld, NE, US",2025-09-16 21:53:00,"2025-09-16 16:53:00","VFR",27.2,17.2,120,14,22,NA,1017.7,"METAR KLBF 162153Z AUTO 12014G22KT 10SM CLR 27/17 A3005 RMK AO2 PK WND 10029/2119 LTG DSNT W AND NW SLP151 T02720172",2025-09-16 22:42:34.398961,2025-09-16 18:42:34.399005
"KLIT","Little Rock/Clinton Natl, AR, US",2025-09-16 21:53:00,"2025-09-16 16:53:00","VFR",32.2,18.9,340,3,NA,NA,1016.3,"METAR KLIT 162153Z 34003KT 10SM FEW055 SCT120 32/19 A3001 RMK AO2 SLP161 T03220189",2025-09-16 22:42:34.405328,2025-09-16 18:42:34.405373
"KLNS","Lancaster Arpt, PA, US",2025-09-16 21:53:00,"2025-09-16 17:53:00","VFR",21.1,12.2,80,9,NA,NA,1021.4,"METAR KLNS 162153Z 08009KT 10SM BKN110 21/12 A3016 RMK AO2 RAB04E13 SLP211 P0000 T02110122 $",2025-09-16 22:42:34.411759,2025-09-16 18:42:34.41182
"KLBX","Angleton/Texas Gulf Coast Rgnl, TX, US",2025-09-16 21:53:00,"2025-09-16 16:53:00","VFR",32.2,20,130,10,NA,NA,1017.4,"METAR KLBX 162153Z AUTO 13010KT 10SM CLR 32/20 A3004 RMK AO2 SLP171 T03220200",2025-09-16 22:42:34.418318,2025-09-16 18:42:34.418362
"KLAN","Lansing/Capital City Arpt, MI, US",2025-09-16 21:53:00,"2025-09-16 17:53:00","VFR",26.1,11.1,30,5,NA,NA,1022.1,"METAR KLAN 162153Z 03005KT 10SM CLR 26/11 A3018 RMK AO2 SLP219 T02610111",2025-09-16 22:42:34.435993,2025-09-16 18:42:34.436037
"KLAX","Los Angeles Intl, CA, US",2025-09-16 21:53:00,"2025-09-16 14:53:00","VFR",24.4,17.8,270,12,NA,NA,1013,"METAR KLAX 162153Z 27012KT 10SM FEW060 FEW120 24/18 A2991 RMK AO2 SLP127 T02440178",2025-09-16 22:42:34.442193,2025-09-16 18:42:34.442235
"KLOU","Louisville/Bowman Fld, KY, US",2025-09-16 21:53:00,"2025-09-16 17:53:00","VFR",31.1,12.8,350,8,NA,NA,1018,"METAR KLOU 162153Z 35008KT 10SM CLR 31/13 A3006 RMK AO2 SLP174 T03110128",2025-09-16 22:42:34.448441,2025-09-16 18:42:34.448486
"KLKV","Lakeview/Lake Cnty, OR, US",2025-09-16 21:53:00,"2025-09-16 14:53:00","VFR",27.2,-0.6,0,0,NA,9,1022.4,"METAR KLKV 162153Z AUTO 00000KT 9SM CLR 27/M01 A3019 RMK AO2 SLP191 T02721006",2025-09-16 22:42:34.454695,2025-09-16 18:42:34.454736
"KLND","Lander/Hunt Fld, WY, US",2025-09-16 21:53:00,"2025-09-16 15:53:00","VFR",18.3,2.8,NA,3,NA,NA,1024.8,"METAR KLND 162153Z AUTO VRB03KT 10SM CLR 18/03 A3026 RMK AO2 SLP207 T01830028",2025-09-16 22:42:34.461092,2025-09-16 18:42:34.461135
"KLBB","Lubbock Intl Arpt, TX, US",2025-09-16 21:53:00,"2025-09-16 16:53:00","VFR",30.6,15.6,190,10,19,NA,1021.1,"METAR KLBB 162153Z 19010G19KT 10SM FEW060 SCT250 31/16 A3015 RMK AO2 SLP157 T03060156",2025-09-16 22:42:34.467563,2025-09-16 18:42:34.467607
"KLAA","Lamar Muni, CO, US",2025-09-16 21:53:00,"2025-09-16 15:53:00","VFR",31.7,11.7,180,16,28,NA,1016.7,"METAR KLAA 162153Z AUTO 18016G28KT 10SM CLR 32/12 A3002 RMK AO2 PK WND 17035/2106 LTG DSNT S SLP116 T03170117",2025-09-16 22:42:34.47389,2025-09-16 18:42:34.473934
"KLGB","Long Beach Arpt, CA, US",2025-09-16 21:53:00,"2025-09-16 14:53:00","VFR",32.2,15.6,280,8,NA,NA,1011.9,"METAR KLGB 162153Z 28008KT 10SM CLR 32/16 A2988 RMK AO2 SLP117 T03220156 $",2025-09-16 22:42:34.480184,2025-09-16 18:42:34.480228
"KLPR","Elyria/Lorain Cnty, OH, US",2025-09-16 21:53:00,"2025-09-16 21:53:00","VFR",26.1,15,30,7,NA,NA,1021.1,"METAR KLPR 162153Z AUTO 03007KT 10SM -RA CLR 26/15 A3015 RMK AO2 SLP206 P0000 T02610150",2025-09-16 22:42:34.486505,2025-09-16 18:42:34.486549
"KLFK","Lufkin/Angelina Cnty, TX, US",2025-09-16 21:53:00,"2025-09-16 16:53:00","VFR",32.8,18.9,180,3,NA,NA,1017,"METAR KLFK 162153Z AUTO 18003KT 10SM BKN065 33/19 A3003 RMK AO2 SLP166 T03280189",2025-09-16 22:42:34.492836,2025-09-16 18:42:34.492884
"KLMT","Klamath Falls Intl, OR, US",2025-09-16 21:53:00,"2025-09-16 14:53:00","VFR",26.7,3.3,130,3,NA,NA,1020.4,"METAR KLMT 162153Z AUTO 13003KT 10SM CLR 27/03 A3013 RMK AO2 SLP165 T02670033",2025-09-16 22:42:34.499166,2025-09-16 18:42:34.499209
"KLEB","Lebanon Muni, NH, US",2025-09-16 21:53:00,"2025-09-16 17:53:00","VFR",23.9,13.3,160,7,NA,NA,1023.1,"METAR KLEB 162153Z 16007KT 10SM CLR 24/13 A3021 RMK AO2 SLP225 T02390133",2025-09-16 22:42:34.505463,2025-09-16 18:42:34.505507
"KLOZ","London-Corbin Arpt, KY, US",2025-09-16 21:53:00,"2025-09-16 17:53:00","VFR",26.1,15.6,0,0,NA,NA,1019,"METAR KLOZ 162153Z AUTO 00000KT 10SM CLR 26/16 A3009 RMK AO2 SLP180 T02610156 $",2025-09-16 22:42:34.511775,2025-09-16 18:42:34.511837
"KLFT","Lafayette Rgnl, LA, US",2025-09-16 21:53:00,"2025-09-16 16:53:00","VFR",31.1,20,50,3,NA,NA,1016.3,"METAR KLFT 162153Z 05003KT 10SM SCT120 31/20 A3001 RMK AO2 LTG DSNT W SLP162 T03110200",2025-09-16 22:42:34.518087,2025-09-16 18:42:34.518131
"KLHQ","Lancaster/Fairfield Cnty, OH, US",2025-09-16 21:53:00,"2025-09-16 21:53:00","VFR",26.7,11.7,90,4,NA,NA,1020.1,"METAR KLHQ 162153Z AUTO 09004KT 10SM SCT075 27/12 A3012 RMK AO2 SLP193 T02670117",2025-09-16 22:42:34.524396,2025-09-16 18:42:34.52444
"KLOL","Lovelock/Derby Fld, NV, US",2025-09-16 21:53:00,"2025-09-16 14:53:00","VFR",28.3,-1.7,NA,5,NA,NA,1020.4,"METAR KLOL 162153Z AUTO VRB05KT 10SM CLR 28/M02 A3013 RMK AO2 SLP171 T02831017",2025-09-16 22:42:34.530746,2025-09-16 18:42:34.53079
"KLGA","New York/La Guardia Arpt, NY, US",2025-09-16 21:51:00,"2025-09-16 17:51:00","VFR",21.7,7.8,70,9,NA,NA,1022.4,"METAR KLGA 162151Z 07009KT 10SM FEW050 FEW130 SCT180 BKN250 22/08 A3019 RMK AO2 SLP223 T02170078 $",2025-09-16 22:42:34.537112,2025-09-16 18:42:34.537156
"KLGU","Logan/Cache Arpt, UT, US",2025-09-16 21:51:00,"2025-09-16 15:51:00","VFR",23.3,1.7,350,6,NA,NA,1022.4,"METAR KLGU 162151Z AUTO 35006KT 10SM CLR 23/02 A3019 RMK AO2 SLP187 T02330017",2025-09-16 22:42:34.543506,2025-09-16 18:42:34.543552
"KLPC","Lompoc Arpt, CA, US",2025-09-16 21:51:00,"2025-09-16 14:51:00","VFR",21.7,16.1,270,14,NA,NA,1014,"METAR KLPC 162151Z AUTO 27014KT 10SM CLR 22/16 A2994 RMK AO2 SLP138 T02170161 $",2025-09-16 22:42:34.549998,2025-09-16 18:42:34.550043
"KLAL","Lakeland/Linder Intl, FL, US",2025-09-16 21:50:00,"2025-09-16 17:50:00","VFR",27,24,0,0,NA,NA,1016.7,"METAR KLAL 162150Z 00000KT 10SM BKN050 27/24 A3002",2025-09-16 22:42:34.56748,2025-09-16 18:42:34.567522
"KLBE","Latrobe/Palmer Rgnl, PA, US",2025-09-16 21:50:00,"2025-09-16 17:50:00","VFR",26,11,60,4,NA,NA,1021.1,"METAR KLBE 162150Z 06004KT 10SM SCT070 26/11 A3015",2025-09-16 22:42:34.573702,2025-09-16 18:42:34.573745
"KLOT","Romeoville/Lewis Univ Arpt, IL, US",2025-09-16 21:45:00,"2025-09-16 16:45:00","VFR",28,15,60,9,NA,NA,1021.4,"METAR KLOT 162145Z 06009KT 10SM CLR 28/15 A3016",2025-09-16 22:42:34.579934,2025-09-16 18:42:34.579981
"KLDJ","Linden Arpt, NJ, US",2025-09-16 21:15:00,"2025-09-16 17:15:00","VFR",23.1,7.8,100,10,17,NA,1022.4,"METAR KLDJ 162115Z AUTO 10010G17KT 10SM CLR 23/08 A3019 RMK AO2 T02310078",2025-09-16 22:42:34.586229,2025-09-16 18:42:34.586272
"KMCK","McCook Muni, NE, US",2025-09-16 22:37:00,"2025-09-16 17:37:00","LIFR",18.3,15.6,160,11,17,0.75,1017.7,"SPECI KMCK 162237Z AUTO 16011G17KT 3/4SM +TSRA OVC026 18/16 A3005 RMK AO2 PK WND 30039/2202 WSHFT 2200 LTG DSNT ALQDS P0143 T01830156",2025-09-16 22:42:36.131068,2025-09-16 18:42:36.13111
"KMFV","Melfa/Accomack Cnty, VA, US",2025-09-16 22:35:00,"2025-09-16 18:35:00","IFR",17.6,16.6,30,13,22,7,1013,"METAR KMFV 162235Z AUTO 03013G22KT 7SM RA OVC008 18/17 A2991 RMK AO2 LTG DSNT NE AND E P0004 T01760166",2025-09-16 22:42:36.137369,2025-09-16 18:42:36.13741
"KMDD","Midland Airpark, TX, US",2025-09-16 22:35:00,"2025-09-16 17:35:00","VFR",31.3,11.2,160,11,NA,NA,1019.7,"METAR KMDD 162235Z AUTO 16011KT 10SM SCT100 31/11 A3011 RMK AO2 T03130112",2025-09-16 22:42:36.143677,2025-09-16 18:42:36.143721
"KMAW","Malden Rgnl, MO, US",2025-09-16 22:35:00,"2025-09-16 17:35:00","VFR",35,13,10,3,NA,NA,1017,"METAR KMAW 162235Z AUTO 01003KT 10SM CLR 35/13 A3003 RMK AO1",2025-09-16 22:42:36.149969,2025-09-16 18:42:36.150012
"KLZZ","Lampasas Arpt, TX, US",2025-09-16 22:35:00,"2025-09-16 22:35:00","VFR",33,14,120,9,NA,NA,1018,"METAR KLZZ 162235Z AUTO 12009KT 10SM FEW080 33/14 A3006 RMK AO2",2025-09-16 22:42:36.15624,2025-09-16 18:42:36.156282
"KLUD","Decatur Muni, TX, US",2025-09-16 22:35:00,"2025-09-16 22:35:00","VFR",33.3,13.8,150,3,NA,7,1018,"METAR KLUD 162235Z AUTO 15003KT 7SM CLR 33/14 A3006 RMK AO2 T03330138",2025-09-16 22:42:36.162431,2025-09-16 18:42:36.162473
"KMDZ","Medford/Taylor Cnty, WI, US",2025-09-16 22:35:00,"2025-09-16 17:35:00","VFR",26.1,17.5,180,4,NA,NA,1021.1,"METAR KMDZ 162235Z AUTO 18004KT 10SM CLR 26/18 A3015 RMK AO2 T02610175 PWINO",2025-09-16 22:42:36.168664,2025-09-16 18:42:36.168708
"KLXY","Mexia/Limestone Cnty, TX, US",2025-09-16 22:35:00,"2025-09-16 22:35:00","VFR",32.1,15.2,0,0,NA,NA,1018,"METAR KLXY 162235Z AUTO 00000KT 10SM CLR 32/15 A3006 RMK AO2 T03210152 TSNO",2025-09-16 22:42:36.174972,2025-09-16 18:42:36.175016
"KLVL","Lawrenceville Muni, VA, US",2025-09-16 22:35:00,"2025-09-16 18:35:00","IFR",16.6,15.7,320,7,NA,2,1019,"METAR KLVL 162235Z AUTO 32007KT 2SM OVC006 17/16 A3009 RMK AO1 P0004 T01660157",2025-09-16 22:42:36.181265,2025-09-16 18:42:36.181308
"KMEZ","Mena Intermountain Muni, AR, US",2025-09-16 22:35:00,"2025-09-16 22:35:00","VFR",31.4,18.7,260,4,NA,NA,1018,"METAR KMEZ 162235Z AUTO 26004KT 10SM CLR 31/19 A3006 RMK AO2 T03140187",2025-09-16 22:42:36.187663,2025-09-16 18:42:36.187708
"KLUM","Menomenie Muni, WI, US",2025-09-16 22:35:00,"2025-09-16 22:35:00","VFR",29.7,21.2,140,7,NA,NA,1019,"METAR KLUM 162235Z AUTO 14007KT 10SM CLR 30/21 A3009 RMK AO2 LTG DSNT S T02970212 PWINO",2025-09-16 22:42:36.194095,2025-09-16 18:42:36.194141
"KM40","Aberdeen/Monroe Cnty, MS, US",2025-09-16 22:35:00,"2025-09-16 22:35:00","VFR",31,19,NA,4,NA,NA,1017.4,"METAR KM40 162235Z AUTO VRB04KT 10SM CLR 31/19 A3004 RMK AO2",2025-09-16 22:42:36.211982,2025-09-16 18:42:36.212026
"KMBY","Moberly/Bradley Arpt, MO, US",2025-09-16 22:35:00,"2025-09-16 17:35:00","VFR",32,14,0,0,NA,NA,1019.7,"METAR KMBY 162235Z AUTO 00000KT 10SM CLR 32/14 A3011 RMK AO2",2025-09-16 22:42:36.218409,2025-09-16 18:42:36.218451
"KMCD","Mackinac Isl Arpt, MI, US",2025-09-16 22:35:00,"2025-09-16 18:35:00","VFR",20,14,120,7,NA,NA,1022.4,"METAR KMCD 162235Z AUTO 12007KT 10SM CLR 20/14 A3019 RMK AO2",2025-09-16 22:42:36.224645,2025-09-16 18:42:36.224688
"KLWA","South Haven Rgnl, MI, US",2025-09-16 22:35:00,"2025-09-16 22:35:00","VFR",24,14,350,7,NA,NA,1021.4,"METAR KLWA 162235Z AUTO 35007KT 10SM CLR 24/14 A3016 RMK AO2",2025-09-16 22:42:36.230869,2025-09-16 18:42:36.230913
"KLVN","Lakeville/Airlake Arpt, MN, US",2025-09-16 22:35:00,"2025-09-16 22:35:00","VFR",29,20,180,3,NA,NA,1018.7,"METAR KLVN 162235Z AUTO 18003KT 10SM CLR 29/20 A3008 RMK AO2",2025-09-16 22:42:36.237083,2025-09-16 18:42:36.237127
"KMGC","Michigan City Muni, IN, US",2025-09-16 22:35:00,"2025-09-16 17:35:00","VFR",22,14,10,5,NA,NA,1022.1,"METAR KMGC 162235Z AUTO 01005KT 10SM CLR 22/14 A3018 RMK AO2",2025-09-16 22:42:36.243377,2025-09-16 18:42:36.243421
"KM30","Metropolis Muni, IL, US",2025-09-16 22:35:00,"2025-09-16 22:35:00","VFR",32,16.1,0,0,NA,NA,1017.4,"METAR KM30 162235Z AUTO 00000KT 10SM CLR 32/16 A3004 RMK AO2 T03200161",2025-09-16 22:42:36.24969,2025-09-16 18:42:36.249734
"KLXL","Little Falls/Morrison Cnty, MN, US",2025-09-16 22:35:00,"2025-09-16 22:35:00","VFR",28,16,240,4,NA,NA,1018,"METAR KLXL 162235Z AUTO 24004KT 10SM CLR 28/16 A3006 RMK AO2",2025-09-16 22:42:36.256105,2025-09-16 18:42:36.25615
"KLUL","Laurel/Hesler-Noble Fld, MS, US",2025-09-16 22:35:00,"2025-09-16 17:35:00","VFR",30.6,17.7,120,6,NA,NA,1016.7,"METAR KLUL 162235Z AUTO 12006KT 10SM CLR 31/18 A3002 RMK A02 T03060177",2025-09-16 22:42:36.262421,2025-09-16 18:42:36.262464
"KLYO","Lyons/Rice Cnty, KS, US",2025-09-16 22:35:00,"2025-09-16 17:35:00","VFR",31,17.6,170,11,NA,NA,1018.4,"METAR KLYO 162235Z AUTO 17011KT 10SM CLR 31/18 A3007 RMK AO2 T03100176",2025-09-16 22:42:36.268699,2025-09-16 18:42:36.268743
"KMDQ","Huntsville/Sharp Fld, AL, US",2025-09-16 22:35:00,"2025-09-16 22:35:00","VFR",30.5,10.5,240,4,NA,NA,1018.4,"METAR KMDQ 162235Z AUTO 24004KT 10SM SCT100 31/10 A3007 RMK A02 T03050105",2025-09-16 22:42:36.275106,2025-09-16 18:42:36.275151
"KMCX","Monticello/White Cnty, IN, US",2025-09-16 22:35:00,"2025-09-16 22:35:00","VFR",27.6,10.1,360,7,NA,NA,1020.4,"METAR KMCX 162235Z AUTO 36007KT 10SM CLR 28/10 A3013 RMK AO2 T02760101",2025-09-16 22:42:36.28153,2025-09-16 18:42:36.281575
"KMCZ","Williamston/Martin Cnty, NC, US",2025-09-16 22:35:00,"2025-09-16 22:35:00","IFR",17.1,16.5,300,8,NA,2.5,1017.7,"METAR KMCZ 162235Z AUTO 30008KT 2 1/2SM BR OVC007 17/17 A3005 RMK AO2 T01710165",2025-09-16 22:42:36.287923,2025-09-16 18:42:36.287967
"KLXN","Lexington/Kelly Fld, NE, US",2025-09-16 22:35:00,"2025-09-16 17:35:00","VFR",26.3,17.6,0,0,NA,NA,1018.4,"METAR KLXN 162235Z AUTO 00000KT 10SM SCT065 BKN080 OVC100 26/18 A3007 RMK AO2 LTG DSNT SW T02630176",2025-09-16 22:42:36.294237,2025-09-16 18:42:36.294281
"KM21","Greenville/Muhlenberg Cnty, KY, US",2025-09-16 22:35:00,"2025-09-16 22:35:00","VFR",31.5,15.7,80,6,NA,NA,1017.7,"METAR KM21 162235Z AUTO 08006KT 10SM CLR 32/16 A3005 RMK AO2 T03150157",2025-09-16 22:42:36.300563,2025-09-16 18:42:36.300607
"KLUX","Laurens Cnty, SC, US",2025-09-16 22:35:00,"2025-09-16 22:35:00","VFR",21,15,0,0,NA,NA,1019.4,"METAR KLUX 162235Z AUTO 00000KT 10SM CLR 21/15 A3010 RMK AO2",2025-09-16 22:42:36.306849,2025-09-16 18:42:36.306894
"KM25","Mayfield/Grave Cnty, KY, US",2025-09-16 22:35:00,"2025-09-16 22:35:00","VFR",31.3,16.3,350,7,NA,NA,1017,"METAR KM25 162235Z AUTO 35007KT 10SM CLR 31/16 A3003 RMK AO2 T03130163",2025-09-16 22:42:36.313293,2025-09-16 18:42:36.313336
"KLVS","Las Vegas Muni, NM, US",2025-09-16 22:25:00,"2025-09-16 16:25:00","VFR",15.6,11.1,140,13,NA,NA,1026.5,"SPECI KLVS 162225Z AUTO 14013KT 10SM SCT027 SCT050 BKN095 16/11 A3031 RMK AO2 WSHFT 2156 LTG DSNT SE RAE25 TSE25 P0015 T01560111",2025-09-16 22:42:36.319716,2025-09-16 18:42:36.319759
"KMCW","Mason City Muni, IA, US",2025-09-16 22:20:00,"2025-09-16 17:20:00","VFR",19.4,16.1,120,9,NA,NA,1020.7,"SPECI KMCW 162220Z AUTO 12009KT 10SM -RA FEW055 BKN100 BKN120 19/16 A3014 RMK AO2 LTG DSNT ALQDS RAE2154B20 P0000 T01940161",2025-09-16 22:42:36.337224,2025-09-16 18:42:36.337268
"KM08","Bolivar/Whitehurst Fld, TN, US",2025-09-16 22:20:00,"2025-09-16 22:20:00",NA,34,14,NA,5,NA,NA,1016.7,"METAR KM08 162220Z AUTO VRB05KT 10SM 34/14 A3002 RMK A01",2025-09-16 22:42:36.343586,2025-09-16 18:42:36.34364
"KLWT","Lewistown Muni, MT, US",2025-09-16 22:17:00,"2025-09-16 16:17:00","VFR",20,8.3,60,7,16,NA,1025.5,"SPECI KLWT 162217Z AUTO 06007G16KT 10SM SCT060 OVC070 20/08 A3028 RMK AO2 LTG DSNT SW TSE11 T02000083",2025-09-16 22:42:36.349828,2025-09-16 18:42:36.349874
"KM75","Malta Arpt, MT, US",2025-09-16 22:15:00,"2025-09-16 16:15:00","VFR",26,11,340,7,NA,NA,1022.1,"METAR KM75 162215Z AUTO 34007KT 10SM CLR 26/11 A3018 RMK A01",2025-09-16 22:42:36.356049,2025-09-16 18:42:36.356091
"KMBT","Murfreesboro Muni, TN, US",2025-09-16 22:15:00,"2025-09-16 22:15:00","VFR",24,22,100,3,NA,NA,1017.4,"METAR KMBT 162215Z AUTO 10003KT 10SM CLR 24/22 A3004 RMK A01",2025-09-16 22:42:36.362233,2025-09-16 18:42:36.362275
"KM02","Dickson Muni, TN, US",2025-09-16 22:15:00,"2025-09-16 22:15:00","VFR",26,16,270,3,NA,NA,1017.7,"METAR KM02 162215Z AUTO 27003KT 10SM CLR 26/16 A3005 RMK A01",2025-09-16 22:42:36.368459,2025-09-16 18:42:36.368502
"KM91","Springfield/Robertson Cnty, TN, US",2025-09-16 22:15:00,"2025-09-16 22:15:00","VFR",30,18,140,8,14,NA,1017,"METAR KM91 162215Z AUTO 14008G14KT 10SM BKN070 BKN085 30/18 A3003 RMK A01",2025-09-16 22:42:36.374979,2025-09-16 18:42:36.375026
"KMAO","Marion Cnty Arpt, SC, US",2025-09-16 22:15:00,"2025-09-16 22:15:00","VFR",25,11,340,7,NA,NA,1018,"METAR KMAO 162215Z AUTO 34007KT 10SM CLR 25/11 A3006 RMK AO2",2025-09-16 22:42:36.381317,2025-09-16 18:42:36.38136
"KMCC","McClellan AFB, CA, US",2025-09-16 22:15:00,"2025-09-16 15:15:00","VFR",35,10,270,5,NA,9,1012.3,"METAR KMCC 162215Z AUTO 27005KT 9SM CLR 35/10 A2989 RMK AO2",2025-09-16 22:42:36.387553,2025-09-16 18:42:36.387595
"KMEV","Minden-Tahoe Arpt, NV, US",2025-09-16 22:15:00,"2025-09-16 15:15:00","VFR",29,0,NA,6,NA,NA,1020.7,"METAR KMEV 162215Z AUTO VRB06KT 10SM CLR 29/00 A3014 RMK AO2",2025-09-16 22:42:36.393888,2025-09-16 18:42:36.393932
"KMDS","Madison Muni, SD, US",2025-09-16 22:15:00,"2025-09-16 17:15:00","VFR",30,17,320,5,NA,NA,1018.7,"METAR KMDS 162215Z AUTO 32005KT 10SM CLR 30/17 A3008 RMK AO2 TSNO",2025-09-16 22:42:36.400185,2025-09-16 18:42:36.400229
"KLUG","Lewisburg/Ellington Arpt, TN, US",2025-09-16 22:15:00,"2025-09-16 22:15:00","VFR",31,16,0,0,NA,NA,1017.4,"METAR KLUG 162215Z AUTO 00000KT 10SM CLR 31/16 A3004 RMK A01",2025-09-16 22:42:36.406547,2025-09-16 18:42:36.406591
"KM54","Lebanon Muni, TN, US",2025-09-16 22:10:00,"2025-09-16 22:10:00","VFR",26,19,210,7,NA,NA,1017.4,"METAR KM54 162210Z AUTO 21007KT 10SM BKN075 BKN085 26/19 A3004 RMK A01",2025-09-16 22:42:36.412865,2025-09-16 18:42:36.412911
"KM04","Covington Muni, TN, US",2025-09-16 22:10:00,"2025-09-16 22:10:00","VFR",33,15,0,0,NA,NA,1016.3,"METAR KM04 162210Z AUTO 00000KT 10SM CLR 33/15 A3001 RMK A01",2025-09-16 22:42:36.41918,2025-09-16 18:42:36.419225
"KMEI","Meridian/Key Fld, MS, US",2025-09-16 21:58:00,"2025-09-16 16:58:00","VFR",32.2,16.7,230,4,NA,NA,1016.7,"METAR KMEI 162158Z 23004KT 10SM FEW110 32/17 A3002 RMK AO2 SLP163 T03220167",2025-09-16 22:42:36.42547,2025-09-16 18:42:36.425513
"KMBL","Manistee/Blacker Arpt, MI, US",2025-09-16 21:56:00,"2025-09-16 17:56:00","VFR",24.4,15,300,6,NA,NA,1022.1,"METAR KMBL 162156Z AUTO 30006KT 10SM CLR 24/15 A3018 RMK AO2 SLP218 T02440150",2025-09-16 22:42:36.431746,2025-09-16 18:42:36.431788
"KM19","Newport Muni, AR, US",2025-09-16 21:56:00,"2025-09-16 21:56:00","VFR",33.3,17.8,90,5,NA,NA,1016.7,"METAR KM19 162156Z AUTO 09005KT 10SM BKN070 33/18 A3002 RMK AO2 SLP175 T03330178 $",2025-09-16 22:42:36.43811,2025-09-16 18:42:36.438154
"KLWS","Lewiston/Nez Perce Cnty, ID, US",2025-09-16 21:56:00,"2025-09-16 14:56:00","VFR",25,11.7,0,0,NA,NA,1020.4,"METAR KLWS 162156Z 00000KT 10SM CLR 25/12 A3013 RMK AO2 SLP196 T02500117",2025-09-16 22:42:36.444482,2025-09-16 18:42:36.444525
"KLZU","Lawrenceville/Gwinnett Cnty, GA, US",2025-09-16 21:56:00,"2025-09-16 17:56:00","VFR",NA,NA,NA,5,NA,NA,1019.4,"METAR KLZU 162156Z VRB05KT 10SM CLR A3010 RMK AO2 SLPNO $",2025-09-16 22:42:36.450973,2025-09-16 18:42:36.451019
"KMDT","Harrisburg Intl, PA, US",2025-09-16 21:56:00,"2025-09-16 17:56:00","VFR",22.2,14.4,160,4,NA,NA,1020.7,"METAR KMDT 162156Z 16004KT 10SM FEW040 OVC100 22/14 A3014 RMK AO2 RAB34E43 SLP206 P0000 T02220144",2025-09-16 22:42:36.468616,2025-09-16 18:42:36.46866
"KMCF","Tampa/MacDill AFB, FL, US",2025-09-16 21:55:00,"2025-09-16 17:55:00","VFR",29.8,21.4,50,8,NA,NA,1016.3,"METAR KMCF 162155Z AUTO 05008KT 10SM OVC046 30/21 A3001 RMK AO2 LTG DSNT NE SLP165 T02980214",2025-09-16 22:42:36.474925,2025-09-16 18:42:36.47497
"KLUF","Phoenix/Luke AFB, AZ, US",2025-09-16 21:55:00,"2025-09-16 14:55:00","VFR",40.1,8.5,200,11,NA,NA,1010.2,"METAR KLUF 162155Z AUTO 20011KT 10SM CLR 40/09 A2983 RMK AO2 SLP084 T04010085",2025-09-16 22:42:36.481177,2025-09-16 18:42:36.48122
"KLTS","Altus AFB, OK, US",2025-09-16 21:55:00,"2025-09-16 16:55:00","VFR",35.1,12.7,170,8,NA,NA,1016.3,"METAR KLTS 162155Z AUTO 17008KT 10SM CLR 35/13 A3001 RMK AO2 VIS 1 3/8 RWY36R LTG DSNT NE AND SE SLP143 T03510127 $",2025-09-16 22:42:36.487463,2025-09-16 18:42:36.487506
"KLSV","Nellis AFB, NV, US",2025-09-16 21:55:00,"2025-09-16 14:55:00","VFR",37.1,-6.5,0,0,NA,NA,1013,"METAR KLSV 162155Z AUTO 00000KT 10SM CLR 37/M06 A2991 RMK AO2 SLP100 T03711065 $",2025-09-16 22:42:36.493693,2025-09-16 18:42:36.493737
"KLSF","Fort Benning/Lawson AAF, GA, US",2025-09-16 21:55:00,"2025-09-16 16:55:00","VFR",32.5,13.6,0,0,NA,NA,1016.7,"METAR KLSF 162155Z AUTO 00000KT 10SM SCT075 33/14 A3002 RMK AO2 SLP169 T03250136 $",2025-09-16 22:42:36.499991,2025-09-16 18:42:36.50004
"KLYH","Lynchburg/Glenn Fld, VA, US",2025-09-16 21:54:00,"2025-09-16 17:54:00","VFR",18.9,12.2,20,9,NA,NA,1021.4,"METAR KLYH 162154Z 02009KT 10SM BKN055 OVC070 19/12 A3016 RMK AO2 RAE25 SLP206 P0000 T01890122",2025-09-16 22:42:36.506361,2025-09-16 18:42:36.506405
"KLWM","Lawrence Muni, MA, US",2025-09-16 21:54:00,"2025-09-16 17:54:00","VFR",19.4,10,100,5,NA,NA,1025.5,"METAR KLWM 162154Z 10005KT 10SM CLR 19/10 A3028 RMK AO2 SLP253 T01940100",2025-09-16 22:42:36.51268,2025-09-16 18:42:36.512723
"KMEM","Memphis Intl, TN, US",2025-09-16 21:54:00,"2025-09-16 16:54:00","VFR",34.4,15,50,6,NA,NA,1016.3,"METAR KMEM 162154Z 05006KT 10SM FEW075 FEW250 34/15 A3001 RMK AO2 SLP157 T03440150 $",2025-09-16 22:42:36.519032,2025-09-16 18:42:36.519076
"KMFI","Marshfield Muni, WI, US",2025-09-16 21:54:00,"2025-09-16 16:54:00","VFR",27.2,18.3,200,6,NA,NA,1021.1,"METAR KMFI 162154Z AUTO 20006KT 10SM CLR 27/18 A3015 RMK AO2 SLP206 T02720183",2025-09-16 22:42:36.525314,2025-09-16 18:42:36.525357
"KMBS","Saginaw Intl, MI, US",2025-09-16 21:53:00,"2025-09-16 17:53:00","VFR",23.9,12.2,30,9,NA,NA,1022.8,"METAR KMBS 162153Z 03009KT 10SM CLR 24/12 A3020 RMK AO2 SLP226 T02390122",2025-09-16 22:42:36.531616,2025-09-16 18:42:36.53166
"KMCE","Merced/Macready Fld, CA, US",2025-09-16 21:53:00,"2025-09-16 14:53:00","VFR",35.6,10,310,5,NA,NA,1011.9,"METAR KMCE 162153Z AUTO 31005KT 10SM CLR 36/10 A2988 RMK AO2 SLP117 T03560100 $",2025-09-16 22:42:36.537929,2025-09-16 18:42:36.537973
"KMCN","Macon/Middle Georgia Rgnl, GA, US",2025-09-16 21:53:00,"2025-09-16 17:53:00","VFR",30,14.4,80,3,NA,NA,1018.4,"METAR KMCN 162153Z 08003KT 10SM FEW065 30/14 A3007 RMK AO2 SLP179 T03000144 $",2025-09-16 22:42:36.544271,2025-09-16 18:42:36.544316
"KMCO","Orlando Intl, FL, US",2025-09-16 21:53:00,"2025-09-16 17:53:00","VFR",29.4,21.1,60,13,NA,NA,1017,"METAR KMCO 162153Z 06013KT 10SM SCT035 SCT060 BKN110 BKN300 29/21 A3003 RMK AO2 SLP166 CB DSNT E-S T02940211",2025-09-16 22:42:36.550615,2025-09-16 18:42:36.550659
"KMCI","Kansas City Intl, MO, US",2025-09-16 21:53:00,"2025-09-16 16:53:00","VFR",33.3,16.1,220,5,NA,NA,1018.7,"METAR KMCI 162153Z 22005KT 10SM SCT060 SCT250 33/16 A3008 RMK AO2 SLP174 CB DSNT N-E-S T03330161",2025-09-16 22:42:36.556967,2025-09-16 18:42:36.557011
"KLXV","Leadville/Lake Cnty, CO, US",2025-09-16 21:53:00,"2025-09-16 15:53:00","VFR",13.9,-0.6,NA,5,NA,NA,1031.6,"METAR KLXV 162153Z AUTO VRB05KT 10SM CLR 14/M01 A3046 RMK AO2 LTG DSNT SW SLP194 T01391006",2025-09-16 22:42:36.563328,2025-09-16 18:42:36.563372
"KLVK","Livermore Muni, CA, US",2025-09-16 21:53:00,"2025-09-16 14:53:00","VFR",36.1,10,280,10,16,NA,1012.6,"METAR KLVK 162153Z 28010G16KT 10SM CLR 36/10 A2990 RMK AO2 SLP120 T03610100",2025-09-16 22:42:36.569677,2025-09-16 18:42:36.569721
"KMAI","Marianna Muni, FL, US",2025-09-16 21:53:00,"2025-09-16 21:53:00","VFR",32.2,13.3,110,5,NA,NA,1017.4,"METAR KMAI 162153Z AUTO 11005KT 10SM SCT080 32/13 A3004 RMK AO2 SLP170 T03220133 $",2025-09-16 22:42:36.576155,2025-09-16 18:42:36.5762
"KLVJ","Houston/Pearland Rgnl, TX, US",2025-09-16 21:53:00,"2025-09-16 21:53:00","VFR",32.8,18.3,140,7,NA,NA,1017.4,"METAR KLVJ 162153Z AUTO 14007KT 10SM CLR 33/18 A3004 RMK AO2 SLP171 T03280183",2025-09-16 22:42:36.58266,2025-09-16 18:42:36.582704
"KLXT","Lee's Summit Muni, MO, US",2025-09-16 21:53:00,"2025-09-16 21:53:00","VFR",33.3,14.4,NA,3,NA,NA,1018.7,"METAR KLXT 162153Z AUTO VRB03KT 10SM CLR 33/14 A3008 RMK AO2 SLP176 T03330144 $",2025-09-16 22:42:36.600518,2025-09-16 18:42:36.600562
"KMAF","Midland Intl, TX, US",2025-09-16 21:53:00,"2025-09-16 16:53:00","VFR",32.2,12.2,140,13,NA,NA,1019.7,"METAR KMAF 162153Z 14013KT 10SM CLR 32/12 A3011 RMK AO2 SLP147 T03220122",2025-09-16 22:42:36.606947,2025-09-16 18:42:36.606992
"KMFR","Medford/Rogue Valley Intl, OR, US",2025-09-16 21:53:00,"2025-09-16 14:53:00","VFR",32.8,4.4,260,3,NA,NA,1013.6,"METAR KMFR 162153Z 26003KT 10SM CLR 33/04 A2993 RMK AO2 SLP124 T03280044",2025-09-16 22:42:36.613302,2025-09-16 18:42:36.613345
"KLSE","La Crosse Muni, WI, US",2025-09-16 21:53:00,"2025-09-16 16:53:00","VFR",30,17.8,190,8,NA,NA,1019.4,"METAR KLSE 162153Z 19008KT 10SM CLR 30/18 A3010 RMK AO2 SLP185 T03000178",2025-09-16 22:42:36.619603,2025-09-16 18:42:36.619646
"KLUK","Cincinnati/Lunken Fld, OH, US",2025-09-16 21:53:00,"2025-09-16 17:53:00","VFR",30,11.1,30,4,NA,NA,1018.7,"METAR KLUK 162153Z 03004KT 10SM CLR 30/11 A3008 RMK AO2 SLP182 T03000111",2025-09-16 22:42:36.625889,2025-09-16 18:42:36.625934
"KLWV","Lawrenceville-Vincennes Intl, IL, US",2025-09-16 21:53:00,"2025-09-16 16:53:00","VFR",31.7,13.9,360,10,NA,NA,1018.7,"METAR KLWV 162153Z AUTO 36010KT 10SM CLR 32/14 A3008 RMK AO2 SLP180 T03170139",2025-09-16 22:42:36.632228,2025-09-16 18:42:36.632275
"KMCB","McComb/Lewis Fld, MS, US",2025-09-16 21:53:00,"2025-09-16 16:53:00","VFR",32.8,17.8,NA,4,NA,NA,1016.7,"METAR KMCB 162153Z AUTO VRB04KT 10SM CLR 33/18 A3002 RMK AO2 LTG DSNT E AND S SLP159 T03280178",2025-09-16 22:42:36.638638,2025-09-16 18:42:36.638681
"KMDW","Chicago/Midway Intl, IL, US",2025-09-16 21:53:00,"2025-09-16 16:53:00","VFR",26.7,11.7,70,9,NA,NA,1021.4,"METAR KMDW 162153Z 07009KT 10SM BKN250 27/12 A3016 RMK AO2 SLP204 T02670117 $",2025-09-16 22:42:36.645155,2025-09-16 18:42:36.645201
"KMFE","McAllen/Miller Intl, TX, US",2025-09-16 21:53:00,"2025-09-16 16:53:00","VFR",33.3,18.9,50,11,17,NA,1015.3,"METAR KMFE 162153Z 05011G17KT 10SM BKN060 BKN070 OVC090 33/19 A2998 RMK AO2 SLP150 T03330189 $",2025-09-16 22:42:36.651529,2025-09-16 18:42:36.651572
"KMAE","Madera Muni, CA, US",2025-09-16 21:53:00,"2025-09-16 14:53:00","VFR",36.1,9.4,NA,3,NA,NA,1012.6,"METAR KMAE 162153Z AUTO VRB03KT 10SM FEW110 36/09 A2990 RMK AO2 SLP121 T03610094",2025-09-16 22:42:36.657915,2025-09-16 18:42:36.65796
"KLVM","Livingston/Mission Fld, MT, US",2025-09-16 21:53:00,"2025-09-16 15:53:00","VFR",15.6,8.9,NA,NA,NA,NA,1027.2,"METAR KLVM 162153Z AUTO 10SM FEW090 BKN110 16/09 A3033 RMK AO2 RAE2055 SLP253 P0000 T01560089",2025-09-16 22:42:36.664224,2025-09-16 18:42:36.664269
"KMFD","Mansfield/Lahm Rgnl, OH, US",2025-09-16 21:52:00,"2025-09-16 17:52:00","VFR",26.7,11.7,70,5,NA,NA,1021.1,"METAR KMFD 162152Z AUTO 07005KT 10SM FEW075 27/12 A3015 RMK AO2 SLP203 T02670117",2025-09-16 22:42:36.670587,2025-09-16 18:42:36.67063
"KMDH","Murphysboro/S Illinois Arpt, IL, US",2025-09-16 21:52:00,"2025-09-16 16:52:00","VFR",33.9,15,360,7,NA,NA,1017.4,"METAR KMDH 162152Z 36007KT 10SM SCT075 34/15 A3004 RMK AO2 SLP169 T03390150",2025-09-16 22:42:36.676931,2025-09-16 18:42:36.676977
"KLWC","Lawrence Muni, KS, US",2025-09-16 21:52:00,"2025-09-16 16:52:00","VFR",33.3,16.1,150,6,NA,NA,1018,"METAR KLWC 162152Z AUTO 15006KT 10SM CLR 33/16 A3006 RMK AO1 SLP172 T03330161",2025-09-16 22:42:36.683395,2025-09-16 18:42:36.683439
"KMBG","Mobridge Muni, SD, US",2025-09-16 21:52:00,"2025-09-16 16:52:00","VFR",26.7,14.4,290,5,NA,NA,1019.7,"METAR KMBG 162152Z AUTO 29005KT 10SM CLR 27/14 A3011 RMK AO2 SLP189 T02670144",2025-09-16 22:42:36.689751,2025-09-16 18:42:36.689794
"KMEB","Laurinberg/Maxton Arpt, NC, US",2025-09-16 21:52:00,"2025-09-16 17:52:00","VFR",26.1,11.1,20,10,NA,NA,1018.4,"METAR KMEB 162152Z AUTO 02010KT 10SM FEW065 26/11 A3007 RMK AO2 SLP182 T02610111",2025-09-16 22:42:36.696146,2025-09-16 18:42:36.696188
"KLWB","Lewisburg/Greenbrier Valley Arpt, WV, US",2025-09-16 21:51:00,"2025-09-16 17:51:00","VFR",22,9,20,6,NA,NA,1021.8,"METAR KLWB 162151Z 02006KT 10SM CLR 22/09 A3017",2025-09-16 22:42:36.702586,2025-09-16 18:42:36.702631
"KMLU","Monroe Rgnl, LA, US",2025-09-16 22:38:00,"2025-09-16 17:38:00","LIFR",26.7,19.4,40,40,59,0.75,1016.7,"SPECI KMLU 162238Z 04040G59KT 3/4SM -TSRA BKN075 27/19 A3002 RMK AO2 PK WND 03059/2237 LTG DSNT NW-E RAB35 TSB07 P0013 T02670194",2025-09-16 22:42:38.130723,2025-09-16 18:42:38.130764
"KMJQ","Jackson Muni, MN, US",2025-09-16 22:36:00,"2025-09-16 22:36:00","VFR",31,14,230,3,NA,NA,1018.7,"METAR KMJQ 162236Z AUTO 23003KT 10SM CLR 31/14 A3008 RMK AO2 LTG DSNT SE",2025-09-16 22:42:38.137157,2025-09-16 18:42:38.137201
"KMWK","Mt Airy/Surry Cnty, NC, US",2025-09-16 22:35:00,"2025-09-16 22:35:00","VFR",19.5,11.7,0,0,NA,NA,1021.8,"METAR KMWK 162235Z AUTO 00000KT 10SM OVC090 20/12 A3017 RMK AO2 T01950117",2025-09-16 22:42:38.143482,2025-09-16 18:42:38.143527
"KMMH","Mammoth/Yosemite Arpt, CA, US",2025-09-16 22:35:00,"2025-09-16 15:35:00","VFR",25,0,90,8,NA,NA,1025.8,"METAR KMMH 162235Z AUTO 09008KT 050V130 10SM CLR 25/M00 A3029 RMK AO2",2025-09-16 22:42:38.149819,2025-09-16 18:42:38.149871
"KMKJ","Marion/Mountain Empire Arpt, VA, US",2025-09-16 22:35:00,"2025-09-16 22:35:00","VFR",17.6,7.4,120,4,NA,NA,1023.1,"METAR KMKJ 162235Z AUTO 12004KT 10SM OVC100 18/07 A3021 RMK AO2 T01760074",2025-09-16 22:42:38.156202,2025-09-16 18:42:38.156247
"KMYZ","Marysville Muni, KS, US",2025-09-16 22:35:00,"2025-09-16 22:35:00","VFR",32,15,190,7,NA,NA,1018,"METAR KMYZ 162235Z AUTO 19007KT 10SM CLR 32/15 A3006 RMK AO2",2025-09-16 22:42:38.162537,2025-09-16 18:42:38.16258
"KMQJ","Indianapolis Rgnl, IN, US",2025-09-16 22:35:00,"2025-09-16 22:35:00","VFR",28.9,13.1,0,0,NA,NA,1019.7,"METAR KMQJ 162235Z AUTO 00000KT 10SM CLR 29/13 A3011 RMK AO2 T02890131 $",2025-09-16 22:42:38.168887,2025-09-16 18:42:38.168932
"KMWM","Windom Muni, MN, US",2025-09-16 22:35:00,"2025-09-16 22:35:00","VFR",33,14,220,4,NA,NA,1018.4,"METAR KMWM 162235Z AUTO 22004KT 10SM CLR 33/14 A3007 RMK AO2 LTG DSNT SE",2025-09-16 22:42:38.175264,2025-09-16 18:42:38.175308
"KMUT","Muscatine Muni, IA, US",2025-09-16 22:35:00,"2025-09-16 17:35:00","VFR",32,16,50,6,NA,NA,1019.7,"METAR KMUT 162235Z AUTO 05006KT 10SM CLR 32/16 A3011 RMK AO2",2025-09-16 22:42:38.181555,2025-09-16 18:42:38.181599
"KMPE","Philadelphia Muni, MS, US",2025-09-16 22:35:00,"2025-09-16 22:35:00","VFR",NA,NA,0,0,NA,NA,1016.3,"METAR KMPE 162235Z AUTO 00000KT 10SM CLR A3001 RMK AO2",2025-09-16 22:42:38.187892,2025-09-16 18:42:38.187937
"KMZZ","Marion Muni, IN, US",2025-09-16 22:35:00,"2025-09-16 18:35:00","VFR",27.7,9,120,4,NA,7,1020.4,"METAR KMZZ 162235Z AUTO 12004KT 7SM CLR 28/09 A3013 RMK AO2 T02770090",2025-09-16 22:42:38.194116,2025-09-16 18:42:38.194158
"KMTV","Martinsville/Blue Ridge Arpt, VA, US",2025-09-16 22:35:00,"2025-09-16 22:35:00","VFR",20.5,8.5,70,3,NA,NA,1021.8,"METAR KMTV 162235Z AUTO 07003KT 10SM SCT070 OVC085 21/09 A3017 RMK AO2 T02050085",2025-09-16 22:42:38.200414,2025-09-16 18:42:38.200467
"KMKS","Moncks Corner/Berkeley Cnty, SC, US",2025-09-16 22:35:00,"2025-09-16 22:35:00","VFR",26,8,0,0,NA,NA,1017.7,"METAR KMKS 162235Z AUTO 00000KT 10SM CLR 26/08 A3005 RMK AO2",2025-09-16 22:42:38.206742,2025-09-16 18:42:38.206786
"KMLJ","Milledgeville/Baldwin Cnty, GA, US",2025-09-16 22:35:00,"2025-09-16 22:35:00","VFR",28,17,0,0,NA,NA,1018.4,"METAR KMLJ 162235Z AUTO 00000KT 10SM CLR 28/17 A3007 RMK AO2",2025-09-16 22:42:38.213145,2025-09-16 18:42:38.213189
"KMQS","Coatesville/Chester Cnty, PA, US",2025-09-16 22:35:00,"2025-09-16 18:35:00","VFR",20,14,40,8,NA,NA,1021.4,"METAR KMQS 162235Z AUTO 04008KT 10SM CLR 20/14 A3016 RMK AO2",2025-09-16 22:42:38.219612,2025-09-16 18:42:38.219666
"KMOP","Mount Pleasant Muni, MI, US",2025-09-16 22:35:00,"2025-09-16 22:35:00","VFR",25.1,10.5,70,4,NA,NA,1022.1,"METAR KMOP 162235Z AUTO 07004KT 10SM CLR 25/11 A3018 RMK AO2 T02510105",2025-09-16 22:42:38.237388,2025-09-16 18:42:38.237432
"KN03","Cortland/Cortland Cnty, NY, US",2025-09-16 22:35:00,"2025-09-16 18:35:00","VFR",22,13,360,3,NA,NA,1022.8,"METAR KN03 162235Z AUTO 36003KT 10SM CLR 22/13 A3020 RMK AO2",2025-09-16 22:42:38.243623,2025-09-16 18:42:38.243665
"KMPR","McPherson Arpt, KS, US",2025-09-16 22:35:00,"2025-09-16 22:35:00","VFR",31.8,16.5,160,8,NA,NA,1018,"METAR KMPR 162235Z AUTO 16008KT 10SM CLR 32/17 A3006 RMK AO2 T03180165",2025-09-16 22:42:38.249828,2025-09-16 18:42:38.249875
"KMLE","Omaha/Millard Arpt, NE, US",2025-09-16 22:35:00,"2025-09-16 22:35:00","VFR",29.6,18.6,110,4,NA,NA,1017.7,"METAR KMLE 162235Z AUTO 11004KT 10SM BKN070 30/19 A3005 RMK AO2 T02960186",2025-09-16 22:42:38.256041,2025-09-16 18:42:38.256085
"KMVE","Montevideo/Chippewa Cnty, MN, US",2025-09-16 22:35:00,"2025-09-16 17:35:00","VFR",29,19,360,4,NA,NA,1018,"METAR KMVE 162235Z AUTO 36004KT 10SM CLR 29/19 A3006 RMK AO2",2025-09-16 22:42:38.262226,2025-09-16 18:42:38.262268
"KMYJ","Mexico Mem, MO, US",2025-09-16 22:35:00,"2025-09-16 22:35:00","VFR",31,17,20,3,NA,NA,1019,"METAR KMYJ 162235Z AUTO 02003KT 10SM CLR 31/17 A3009 RMK AO2",2025-09-16 22:42:38.268472,2025-09-16 18:42:38.268515
"KMQB","Macomb Muni, IL, US",2025-09-16 22:35:00,"2025-09-16 17:35:00","VFR",31.7,14,60,4,NA,NA,1020.1,"METAR KMQB 162235Z AUTO 06004KT 10SM CLR 32/14 A3012 RMK AO2 T03170140",2025-09-16 22:42:38.274912,2025-09-16 18:42:38.274957
"KMJD","Picayune Muni, MS, US",2025-09-16 22:35:00,"2025-09-16 22:35:00","VFR",29,20,150,4,NA,9,1016.7,"METAR KMJD 162235Z AUTO 15004KT 9SM CLR 29/20 A3002 RMK AO2 LTG DSNT N AND NW",2025-09-16 22:42:38.281201,2025-09-16 18:42:38.281244
"KMXO","Monticello Rgnl, IA, US",2025-09-16 22:35:00,"2025-09-16 22:35:00","VFR",30,18,90,6,NA,NA,1019.7,"METAR KMXO 162235Z AUTO 09006KT 10SM CLR 30/18 A3011 RMK AO2",2025-09-16 22:42:38.287523,2025-09-16 18:42:38.287566
"KMNI","Manning/Cooper Rgnl, SC, US",2025-09-16 22:35:00,"2025-09-16 22:35:00","VFR",27,11,360,3,NA,NA,1018,"METAR KMNI 162235Z AUTO 36003KT 10SM CLR 27/11 A3006 RMK AO2",2025-09-16 22:42:38.293927,2025-09-16 18:42:38.293972
"KMGR","Moultrie Muni, GA, US",2025-09-16 22:35:00,"2025-09-16 18:35:00","VFR",29.8,14.9,40,4,NA,NA,1018.4,"METAR KMGR 162235Z AUTO 04004KT 10SM CLR 30/15 A3007 RMK AO2 T02980149 $",2025-09-16 22:42:38.300221,2025-09-16 18:42:38.300263
"KMGN","Harbor Springs Arpt, MI, US",2025-09-16 22:35:00,"2025-09-16 22:35:00","VFR",22,16.5,0,0,NA,NA,1022.4,"METAR KMGN 162235Z AUTO 00000KT 10SM CLR 22/16 A3019 RMK AO2 T02200165",2025-09-16 22:42:38.30652,2025-09-16 18:42:38.306564
"KMHP","Metter Muni, GA, US",2025-09-16 22:35:00,"2025-09-16 22:35:00","VFR",29.1,13.6,350,5,NA,NA,1018.4,"METAR KMHP 162235Z AUTO 35005KT 10SM CLR 29/14 A3007 RMK AO2 T02910136",2025-09-16 22:42:38.312843,2025-09-16 18:42:38.312889
"KMKN","Comanche Cnty, TX, US",2025-09-16 22:35:00,"2025-09-16 22:35:00","VFR",36,12.6,120,6,NA,NA,1018.7,"METAR KMKN 162235Z AUTO 12006KT 10SM CLR 36/13 A3008 RMK AO2 T03600126",2025-09-16 22:42:38.319152,2025-09-16 18:42:38.319196
"KMWO","Middletown/Hook Fld, OH, US",2025-09-16 22:35:00,"2025-09-16 18:35:00","VFR",30,11,110,5,NA,NA,1019.4,"METAR KMWO 162235Z AUTO 11005KT 10SM CLR 30/11 A3010 RMK AO2",2025-09-16 22:42:38.325534,2025-09-16 18:42:38.325578
"KMQI","Manteo/Dare Cnty, NC, US",2025-09-16 22:35:00,"2025-09-16 18:35:00","MVFR",18.4,16.1,300,12,20,NA,1014.3,"METAR KMQI 162235Z AUTO 30012G20KT 10SM OVC013 18/16 A2995 RMK AO2 T01840161",2025-09-16 22:42:38.33186,2025-09-16 18:42:38.331906
"KMGG","Maple Lake Muni, MN, US",2025-09-16 22:35:00,"2025-09-16 22:35:00","VFR",31.7,17.1,230,4,NA,NA,1018,"METAR KMGG 162235Z AUTO 23004KT 10SM CLR 32/17 A3006 RMK AO2 T03170171",2025-09-16 22:42:38.338205,2025-09-16 18:42:38.338249
"KMHL","Marshall Muni, MO, US",2025-09-16 22:35:00,"2025-09-16 17:35:00","VFR",31,18,70,3,NA,NA,1019.4,"METAR KMHL 162235Z AUTO 07003KT 10SM CLR 31/18 A3010 RMK AO2 LTG DSNT NW",2025-09-16 22:42:38.34462,2025-09-16 18:42:38.344665
"KMOX","Morris Muni, MN, US",2025-09-16 22:35:00,"2025-09-16 22:35:00","VFR",27,20,320,8,NA,NA,1017.7,"METAR KMOX 162235Z AUTO 32008KT 10SM CLR 27/20 A3005 RMK AO2",2025-09-16 22:42:38.351028,2025-09-16 18:42:38.351072
"KMZH","Moose Lake/Carlton C, MN, US",2025-09-16 22:35:00,"2025-09-16 22:35:00","VFR",31,18,220,7,NA,NA,1017.4,"METAR KMZH 162235Z AUTO 22007KT 192V262 10SM CLR 31/18 A3004 RMK AO2",2025-09-16 22:42:38.36935,2025-09-16 18:42:38.369403
"KMNZ","Hamilton Muni, TX, US",2025-09-16 22:35:00,"2025-09-16 22:35:00","VFR",32,14,120,9,NA,NA,1018.7,"METAR KMNZ 162235Z AUTO 12009KT 10SM CLR 32/14 A3008 RMK AO2",2025-09-16 22:42:38.375709,2025-09-16 18:42:38.375751
"KMRT","Marysville/Union Cnty, OH, US",2025-09-16 22:31:00,"2025-09-16 22:31:00","VFR",27,13,0,0,NA,NA,1020.4,"METAR KMRT 162231Z 00000KT 10SM CLR 27/13 A3013 RMK AO2",2025-09-16 22:42:38.381952,2025-09-16 18:42:38.381995
"KMIO","Miami Muni, OK, US",2025-09-16 22:15:00,"2025-09-16 22:15:00","VFR",NA,NA,130,10,16,NA,1018.7,"METAR KMIO 162215Z AUTO 13010G16KT 10SM VCTS CLR A3008 RMK A01 LTG DSNT N-SE",2025-09-16 22:42:38.38816,2025-09-16 18:42:38.388203
"KMMI","Athens/McMinn Cnty, TN, US",2025-09-16 22:15:00,"2025-09-16 18:15:00","VFR",27,16,0,0,NA,NA,1019,"METAR KMMI 162215Z AUTO 00000KT 10SM CLR 27/16 A3009 RMK A01",2025-09-16 22:42:38.394397,2025-09-16 18:42:38.394439
"KMPZ","Mount Pleasant Muni, IA, US",2025-09-16 22:15:00,"2025-09-16 17:15:00","VFR",32,15,130,3,NA,NA,1019.7,"METAR KMPZ 162215Z AUTO 13003KT 10SM CLR 32/15 A3011 RMK AO2",2025-09-16 22:42:38.400697,2025-09-16 18:42:38.400742
"KMZJ","Marana/Pinal Aprk, AZ, US",2025-09-16 22:15:00,"2025-09-16 15:15:00","VFR",37,9,290,10,NA,NA,1013,"METAR KMZJ 162215Z AUTO 29010KT 10SM CLR 37/09 A2991 RMK AO2",2025-09-16 22:42:38.407069,2025-09-16 18:42:38.407115
"KMHR","Sacramento/Mather Fld, CA, US",2025-09-16 22:15:00,"2025-09-16 15:15:00","VFR",36,9,NA,4,NA,NA,1011.9,"METAR KMHR 162215Z AUTO VRB04KT 10SM CLR 36/09 A2988 RMK AO2",2025-09-16 22:42:38.413412,2025-09-16 18:42:38.413457
"KMOR","Morristown/Moore Arpt, TN, US",2025-09-16 22:15:00,"2025-09-16 22:15:00","VFR",26,17,0,0,NA,NA,1019,"METAR KMOR 162215Z AUTO 00000KT 10SM FEW090 26/17 A3009 RMK A01",2025-09-16 22:42:38.419843,2025-09-16 18:42:38.419889
"KMNV","Madisonville/Monroe Cnty, TN, US",2025-09-16 22:15:00,"2025-09-16 22:15:00","VFR",26,19,240,5,NA,NA,1018.7,"METAR KMNV 162215Z AUTO 24005KT 10SM CLR 26/19 A3008 RMK A01",2025-09-16 22:42:38.42614,2025-09-16 18:42:38.426185
"KMRC","Columbia/Maury Cnty, TN, US",2025-09-16 22:10:00,"2025-09-16 17:10:00","VFR",32,13,0,0,NA,NA,1017,"METAR KMRC 162210Z AUTO 00000KT 10SM CLR 32/13 A3003 RMK A01",2025-09-16 22:42:38.432483,2025-09-16 18:42:38.432528
"KMIV","Millville Muni, NJ, US",2025-09-16 22:02:00,"2025-09-16 18:02:00","MVFR",17.8,15,30,11,NA,4,1019,"SPECI KMIV 162202Z AUTO 03011KT 4SM -RA BKN039 BKN047 OVC060 18/15 A3009 RMK AO2 P0000 T01780150 $",2025-09-16 22:42:38.438717,2025-09-16 18:42:38.43876
"KMRF","Marfa Muni, TX, US",2025-09-16 22:01:00,"2025-09-16 17:01:00","VFR",26.7,12.8,100,11,16,NA,1023.5,"METAR KMRF 162201Z AUTO 10011G16KT 10SM FEW060 BKN075 27/13 A3022 RMK AO2 SLP171 T02670128 $",2025-09-16 22:42:38.445037,2025-09-16 18:42:38.445081
"KMHV","Mojave Arpt, CA, US",2025-09-16 22:00:00,"2025-09-16 15:00:00","VFR",34,9,210,10,NA,NA,1016.7,"METAR KMHV 162200Z AUTO 21010KT 160V230 10SM CLR 34/09 A3002 RMK AO2",2025-09-16 22:42:38.451313,2025-09-16 18:42:38.451356
"KMTN","Baltimore/Martin State Arpt, MD, US",2025-09-16 21:59:00,"2025-09-16 17:59:00","VFR",18,16,350,9,NA,NA,1020.4,"METAR KMTN 162159Z 35009KT 10SM SCT014 OVC050 18/16 A3013",2025-09-16 22:42:38.457653,2025-09-16 18:42:38.457696
"KMRH","Beaufort/Smith Fld, NC, US",2025-09-16 21:58:00,"2025-09-16 21:58:00","MVFR",20,16.1,310,13,NA,NA,1016.7,"METAR KMRH 162158Z AUTO 31013KT 10SM OVC026 20/16 A3002 RMK AO2 SLP167 T02000161 $",2025-09-16 22:42:38.463975,2025-09-16 18:42:38.464021
"KMNM","Menominee/Twin Cnty, MI, US",2025-09-16 21:57:00,"2025-09-16 16:57:00","VFR",26.7,16.7,160,8,NA,NA,1021.4,"METAR KMNM 162157Z AUTO 16008KT 10SM CLR 27/17 A3016 RMK AO2 SLP210 T02670167 $",2025-09-16 22:42:38.47045,2025-09-16 18:42:38.470493
"KMKT","Mankato Rgnl, MN, US",2025-09-16 21:56:00,"2025-09-16 21:56:00","VFR",31.1,19.4,170,6,NA,NA,1018.4,"METAR KMKT 162156Z AUTO 17006KT 10SM FEW065 31/19 A3007 RMK AO2 SLPNO T03110194",2025-09-16 22:42:38.476907,2025-09-16 18:42:38.476952
"KMKY","Marco Island Arpt, FL, US",2025-09-16 21:56:00,"2025-09-16 17:56:00","VFR",30.6,23.9,280,5,NA,NA,NA,"METAR KMKY 162156Z AUTO 28005KT 10SM CLR 31/24 RMK AO2 SLPNO T03060239 PNO $",2025-09-16 22:42:38.483334,2025-09-16 18:42:38.483382
"KMOB","Mobile Rgnl, AL, US",2025-09-16 21:56:00,"2025-09-16 16:56:00","VFR",31.7,12.2,10,8,NA,NA,1017.4,"METAR KMOB 162156Z 01008KT 10SM FEW050 FEW250 32/12 A3004 RMK AO2 SLP170 T03170122",2025-09-16 22:42:38.501052,2025-09-16 18:42:38.501096
"KMTW","Manitowoc Muni, WI, US",2025-09-16 21:56:00,"2025-09-16 16:56:00","VFR",23.9,17.8,120,4,NA,NA,1022.1,"METAR KMTW 162156Z AUTO 12004KT 10SM CLR 24/18 A3018 RMK AO2 SLP219 T02390178",2025-09-16 22:42:38.507311,2025-09-16 18:42:38.507354
"KMTC","Selfridge ANGB, MI, US",2025-09-16 21:56:00,"2025-09-16 17:56:00","VFR",26.7,13.1,80,5,NA,NA,1020.1,"METAR KMTC 162156Z 08005KT 10SM FEW250 27/13 A3012 RMK AO2A SLP202 T02670131 $",2025-09-16 22:42:38.513579,2025-09-16 18:42:38.513622
"KMML","Marshall Muni, MN, US",2025-09-16 21:56:00,"2025-09-16 16:56:00","VFR",31.7,15,300,5,NA,NA,1018.4,"METAR KMML 162156Z AUTO 30005KT 10SM CLR 32/15 A3007 RMK AO2 SLP176 T03170150",2025-09-16 22:42:38.519776,2025-09-16 18:42:38.519837
"KMVN","Mount Vernon Arpt, IL, US",2025-09-16 21:56:00,"2025-09-16 21:56:00","VFR",32.8,15,NA,3,NA,NA,1018,"METAR KMVN 162156Z AUTO VRB03KT 10SM CLR 33/15 A3006 RMK AO2 SLP177 T03280150 PNO $",2025-09-16 22:42:38.526112,2025-09-16 18:42:38.526156
"KMJX","Toms River/Miller Arpt, NJ, US",2025-09-16 21:56:00,"2025-09-16 17:56:00","VFR",19.4,13.3,50,13,22,NA,1021.4,"METAR KMJX 162156Z AUTO 05013G22KT 10SM BKN060 19/13 A3016 RMK AO2 PK WND 04026/2143 SLP217 T01940133 $",2025-09-16 22:42:38.532496,2025-09-16 18:42:38.53254
"KMQY","Smyrna Arpt, TN, US",2025-09-16 21:56:00,"2025-09-16 16:56:00","VFR",23.3,20.6,120,3,NA,NA,1018.4,"METAR KMQY 162156Z 12003KT 10SM FEW070 23/21 A3007 RMK AO2 LTG DSNT W TSE24RAE24 SLP187 P0000 T02330206",2025-09-16 22:42:38.538904,2025-09-16 18:42:38.538949
"KMGE","Marietta/Dobbins AFB, GA, US",2025-09-16 21:55:00,"2025-09-16 17:55:00","VFR",28.5,15,310,4,NA,7,1018.4,"METAR KMGE 162155Z 31004KT 7SM FEW065CB FEW120 29/15 A3007 RMK AO2A CB 21SW MOV S SLP174 T02850150 $",2025-09-16 22:42:38.545253,2025-09-16 18:42:38.545296
"KMIB","Minot AFB, ND, US",2025-09-16 21:55:00,"2025-09-16 16:55:00","MVFR",25.8,13.6,330,9,NA,5,1019.4,"METAR KMIB 162155Z 33009KT 5SM FU CLR 26/14 A3010 RMK AO2A SLP194 T02580136",2025-09-16 22:42:38.551631,2025-09-16 18:42:38.551673
"KMUO","Mountain Home AFB, ID, US",2025-09-16 21:55:00,"2025-09-16 15:55:00","VFR",25.8,1.1,70,6,NA,7,1021.8,"METAR KMUO 162155Z 07006KT 7SM CLR 26/01 A3017 RMK AO2A SLP201 T02580011 $",2025-09-16 22:42:38.558055,2025-09-16 18:42:38.558097
"KMXF","Maxwell AFB, AL, US",2025-09-16 21:55:00,"2025-09-16 16:55:00","VFR",32.4,12.6,0,0,NA,NA,1016.7,"METAR KMXF 162155Z AUTO 00000KT 10SM CLR 32/13 A3002 RMK AO2 SLP167 T03240126",2025-09-16 22:42:38.56448,2025-09-16 18:42:38.564524
"KMMT","Columbia/McEntire JNGB, SC, US",2025-09-16 21:55:00,"2025-09-16 17:55:00","VFR",30.2,13,270,5,NA,NA,1017,"METAR KMMT 162155Z 27005KT 10SM FEW070 FEW140 30/13 A3003 RMK AO2A SLP170 T03020130 $",2025-09-16 22:42:38.570908,2025-09-16 18:42:38.570955
"KMKG","Muskegon Cnty Arpt, MI, US",2025-09-16 21:55:00,"2025-09-16 17:55:00","VFR",25,12.2,NA,6,NA,NA,1021.8,"METAR KMKG 162155Z VRB06KT 10SM SCT250 25/12 A3017 RMK AO2 SLP216 T02500122",2025-09-16 22:42:38.577398,2025-09-16 18:42:38.577441
"KMUI","Fort Indiantown Gap/Muir AAF, PA, US",2025-09-16 21:55:00,"2025-09-16 17:55:00","VFR",24.2,12.8,100,5,NA,NA,1020.4,"METAR KMUI 162155Z 10005KT 10SM FEW035 SCT095 BKN110 OVC190 24/13 A3013 RMK AO2A SLP204 T02420128",2025-09-16 22:42:38.583762,2025-09-16 18:42:38.583822
"KMGJ","Montgomery/Orange Cnty, NY, US",2025-09-16 21:54:00,"2025-09-16 17:54:00","VFR",21.1,12.2,90,6,NA,NA,1022.4,"METAR KMGJ 162154Z AUTO 09006KT 10SM CLR 21/12 A3019 RMK AO2 SLP224 T02110122",2025-09-16 22:42:38.590159,2025-09-16 18:42:38.590202
"KMKC","Kansas City/Wheeler Downtown Arpt, MO, US",2025-09-16 21:54:00,"2025-09-16 16:54:00","VFR",35,17.2,220,3,NA,NA,1018,"METAR KMKC 162154Z 22003KT 10SM BKN070 35/17 A3006 RMK AO2 LTG DSNT NE SLP168 T03500172",2025-09-16 22:42:38.59656,2025-09-16 18:42:38.596603
"KMRY","Monterey Rgnl, CA, US",2025-09-16 21:54:00,"2025-09-16 14:54:00","VFR",21.1,14.4,300,8,NA,NA,1014.6,"METAR KMRY 162154Z 30008KT 10SM CLR 21/14 A2996 RMK AO2 SLP155 T02110144",2025-09-16 22:42:38.603008,2025-09-16 18:42:38.603052
"KMTP","Montauk Arpt, NY, US",2025-09-16 21:54:00,"2025-09-16 17:54:00",NA,20.6,13.9,80,5,NA,NA,1023.8,"METAR KMTP 162154Z AUTO 08005KT 21/14 A3023 RMK AO1 SLP237 T02060139",2025-09-16 22:42:38.609491,2025-09-16 18:42:38.609534
"KMOT","Minot Intl, ND, US",2025-09-16 21:54:00,"2025-09-16 16:54:00","VFR",25.6,13.9,320,7,NA,NA,1020.4,"METAR KMOT 162154Z 32007KT 10SM CLR 26/14 A3013 RMK AO2 SLP198 T02560139",2025-09-16 22:42:38.628249,2025-09-16 18:42:38.628295
"KMVL","Morrisville-Stowe State Arpt, VT, US",2025-09-16 21:54:00,"2025-09-16 17:54:00","VFR",22.2,13.9,0,0,NA,NA,1023.8,"METAR KMVL 162154Z AUTO 00000KT 10SM CLR 22/14 A3023 RMK AO2 SLP237 T02220139",2025-09-16 22:42:38.634907,2025-09-16 18:42:38.634951
"KMIE","Muncie/Johnson Fld, IN, US",2025-09-16 21:53:00,"2025-09-16 17:53:00","VFR",28.9,12.2,20,5,NA,NA,1020.1,"METAR KMIE 162153Z 02005KT 10SM CLR 29/12 A3012 RMK AO2 SLP190 T02890122",2025-09-16 22:42:38.641399,2025-09-16 18:42:38.641457
"KMNN","Marion Muni, OH, US",2025-09-16 21:53:00,"2025-09-16 17:53:00","VFR",28.9,10,30,4,NA,NA,1020.1,"METAR KMNN 162153Z AUTO 03004KT 10SM CLR 29/10 A3012 RMK AO2 SLP197 T02890100",2025-09-16 22:42:38.647843,2025-09-16 18:42:38.64789
"KMTO","Mattoon/Coles Cnty, IL, US",2025-09-16 21:53:00,"2025-09-16 16:53:00","VFR",31.1,10.6,20,7,NA,NA,1018.7,"METAR KMTO 162153Z AUTO 02007KT 10SM CLR 31/11 A3008 RMK AO2 SLP181 T03110106",2025-09-16 22:42:38.654215,2025-09-16 18:42:38.654259
"KMYF","San Diego/Montgomery Arpt, CA, US",2025-09-16 21:53:00,"2025-09-16 14:53:00","VFR",30.6,11.1,310,10,NA,NA,1012.6,"METAR KMYF 162153Z 31010KT 10SM CLR 31/11 A2990 RMK AO2 SLP118 T03060111",2025-09-16 22:42:38.660634,2025-09-16 18:42:38.660677
"KMLT","Millinocket Muni, ME, US",2025-09-16 21:53:00,"2025-09-16 21:53:00","VFR",21.1,10.6,0,0,NA,NA,1024.8,"METAR KMLT 162153Z AUTO 00000KT 10SM CLR 21/11 A3026 RMK AO2 SLP251 T02110106",2025-09-16 22:42:38.667199,2025-09-16 18:42:38.667243
"KMSO","Missoula Intl, MT, US",2025-09-16 21:53:00,"2025-09-16 15:53:00","VFR",23.9,9.4,NA,3,NA,NA,1024.8,"METAR KMSO 162153Z VRB03KT 10SM CLR 24/09 A3026 RMK AO2 SLP236 T02390094",2025-09-16 22:42:38.67379,2025-09-16 18:42:38.673854
"KMSY","New Orleans/Armstrong Intl, LA, US",2025-09-16 21:53:00,"2025-09-16 16:53:00","VFR",32.2,19.4,260,3,NA,NA,1016.7,"METAR KMSY 162153Z 26003KT 10SM FEW030 BKN150 BKN250 32/19 A3002 RMK AO2 SLP169 T03220194",2025-09-16 22:42:38.680271,2025-09-16 18:42:38.680316
"KMGM","Montgomery Rgnl, AL, US",2025-09-16 21:53:00,"2025-09-16 16:53:00","VFR",31.7,13.3,120,4,NA,NA,1017.7,"METAR KMGM 162153Z 12004KT 10SM CLR 32/13 A3005 RMK AO2 SLP174 T03170133",2025-09-16 22:42:38.686673,2025-09-16 18:42:38.686717
"KMKO","Muskogee/Davis Fld, OK, US",2025-09-16 21:53:00,"2025-09-16 21:53:00","VFR",33.9,17.2,0,0,NA,NA,1018.4,"METAR KMKO 162153Z AUTO 00000KT 10SM CLR 34/17 A3007 RMK AO2 LTG DSNT NE SLP175 T03390172",2025-09-16 22:42:38.693078,2025-09-16 18:42:38.693123
"KMHE","Mitchell Muni, SD, US",2025-09-16 21:53:00,"2025-09-16 16:53:00","VFR",26.7,15.6,340,10,NA,NA,1018.7,"METAR KMHE 162153Z AUTO 34010KT 10SM CLR 27/16 A3008 RMK AO2 SLP181 T02670156",2025-09-16 22:42:38.699428,2025-09-16 18:42:38.699472
"KMLS","Miles City/Wiley Fld, MT, US",2025-09-16 21:53:00,"2025-09-16 15:53:00","VFR",24.4,11.7,200,7,NA,NA,1022.4,"METAR KMLS 162153Z AUTO 20007KT 10SM CLR 24/12 A3019 RMK AO2 SLP212 T02440117",2025-09-16 22:42:38.70583,2025-09-16 18:42:38.705877
"KMIW","Marshalltown Muni, IA, US",2025-09-16 21:53:00,"2025-09-16 21:53:00","VFR",25.6,17.8,130,5,NA,NA,1019.7,"METAR KMIW 162153Z AUTO 13005KT 10SM CLR 26/18 A3011 RMK AO2 LTG DSNT ALQDS RAB05E30 TSB03E25 SLP191 P0002 T02560178",2025-09-16 22:42:38.712204,2025-09-16 18:42:38.712248
"KMTJ","Montrose Rgnl, CO, US",2025-09-16 21:53:00,"2025-09-16 15:53:00","VFR",26.7,0.6,150,3,NA,NA,1020.7,"METAR KMTJ 162153Z AUTO 15003KT 10SM CLR 27/01 A3014 RMK AO2 LTG DSNT N SLP133 T02670006",2025-09-16 22:42:38.71879,2025-09-16 18:42:38.718854
"KMWL","Mineral Wells Arpt, TX, US",2025-09-16 21:53:00,"2025-09-16 16:53:00","VFR",35,13.9,150,11,NA,NA,1017.4,"METAR KMWL 162153Z AUTO 15011KT 120V200 10SM FEW090 35/14 A3004 RMK AO2 SLP158 T03500139",2025-09-16 22:42:38.725363,2025-09-16 18:42:38.725406
"KMPO","Mount Pocono Muni, PA, US",2025-09-16 21:53:00,"2025-09-16 17:53:00","VFR",18.9,11.7,90,4,NA,NA,1023.8,"METAR KMPO 162153Z AUTO 09004KT 10SM CLR 19/12 A3023 RMK AO2 SLP234 T01890117",2025-09-16 22:42:38.731888,2025-09-16 18:42:38.731933
"KMMV","McMinnville Muni, OR, US",2025-09-16 21:53:00,"2025-09-16 21:53:00","VFR",31.7,8.3,NA,3,NA,NA,1013,"METAR KMMV 162153Z AUTO VRB03KT 10SM CLR 32/08 A2991 RMK AO2 SLP126 T03170083",2025-09-16 22:42:38.738453,2025-09-16 18:42:38.738499
"KMGY","Dayton/Wright Brothers Arpt, OH, US",2025-09-16 21:53:00,"2025-09-16 17:53:00","VFR",27.8,10.6,80,5,NA,NA,1019.4,"METAR KMGY 162153Z AUTO 08005KT 10SM SCT080 28/11 A3010 RMK AO2 SLP186 T02780106",2025-09-16 22:42:38.744981,2025-09-16 18:42:38.745026
"KMIC","Minneapolis/Crystal Arpt, MN, US",2025-09-16 21:53:00,"2025-09-16 21:53:00","VFR",32.2,17.8,220,7,NA,NA,1017.7,"METAR KMIC 162153Z 22007KT 10SM CLR 32/18 A3005 RMK AO2 SLP168 T03220178 $",2025-09-16 22:42:38.76689,2025-09-16 18:42:38.766938
"KMMK","Meriden/Markham Muni, CT, US",2025-09-16 21:53:00,"2025-09-16 21:53:00","VFR",22.2,11.7,NA,4,NA,NA,1023.1,"METAR KMMK 162153Z AUTO VRB04KT 10SM CLR 22/12 A3021 RMK AO2 SLP228 T02220117",2025-09-16 22:42:38.773672,2025-09-16 18:42:38.773715
"KMOD","Modesto/Sham Fld, CA, US",2025-09-16 21:53:00,"2025-09-16 14:53:00","VFR",35.6,8.9,0,0,NA,NA,1011.9,"METAR KMOD 162153Z 00000KT 10SM CLR 36/09 A2988 RMK AO2 SLP117 T03560089",2025-09-16 22:42:38.780173,2025-09-16 18:42:38.780217
"KMSP","Minneapolis-St Paul Intl, MN, US",2025-09-16 21:53:00,"2025-09-16 16:53:00","VFR",32.8,16.7,230,7,NA,NA,1018,"METAR KMSP 162153Z 23007KT 10SM FEW065 SCT200 SCT250 33/17 A3006 RMK AO2 SLP171 T03280167",2025-09-16 22:42:38.786552,2025-09-16 18:42:38.786596
"KMYV","Marysville/Yuba Cnty, CA, US",2025-09-16 21:53:00,"2025-09-16 14:53:00","VFR",34.4,8.3,0,0,NA,NA,1013,"METAR KMYV 162153Z AUTO 00000KT 10SM CLR 34/08 A2991 RMK AO2 SLP131 T03440083",2025-09-16 22:42:38.79296,2025-09-16 18:42:38.793004
"KMYR","Myrtle Beach Intl, SC, US",2025-09-16 21:53:00,"2025-09-16 17:53:00","VFR",26.1,13.9,350,8,NA,NA,1018,"METAR KMYR 162153Z 35008KT 10SM CLR 26/14 A3006 RMK AO2 SLP180 T02610139 $",2025-09-16 22:42:38.799401,2025-09-16 18:42:38.799446
"KMIA","Miami Intl, FL, US",2025-09-16 21:53:00,"2025-09-16 17:53:00","VFR",27.2,22.2,0,0,NA,NA,1015.7,"METAR KMIA 162153Z 00000KT 10SM FEW030 SCT130 OVC250 27/22 A2999 RMK AO2 SLP157 CB DSNT NW T02720222 $",2025-09-16 22:42:38.805836,2025-09-16 18:42:38.805883
"KMSN","Madison/Dane Cnty Rgnl, WI, US",2025-09-16 21:53:00,"2025-09-16 16:53:00","VFR",28.9,14.4,0,0,NA,NA,1020.7,"METAR KMSN 162153Z 00000KT 10SM FEW250 29/14 A3014 RMK AO2 SLP203 T02890144",2025-09-16 22:42:38.812207,2025-09-16 18:42:38.81225
"KMLB","Melbourne Intl, FL, US",2025-09-16 21:53:00,"2025-09-16 17:53:00","VFR",28.3,22.2,50,10,NA,NA,1017,"METAR KMLB 162153Z 05010KT 10SM FEW075 28/22 A3003 RMK AO2 LTG DSNT SW-N SLP167 T02830222",2025-09-16 22:42:38.818547,2025-09-16 18:42:38.81859
"KMLC","McAlester Rgnl, OK, US",2025-09-16 21:53:00,"2025-09-16 16:53:00","VFR",35,17.2,0,0,NA,NA,1018,"METAR KMLC 162153Z AUTO 00000KT 10SM FEW070 35/17 A3006 RMK AO2 SLP169 T03500172",2025-09-16 22:42:38.824924,2025-09-16 18:42:38.82497
"KMSL","Muscle Shoals/NW Alabama Rgnl, AL, US",2025-09-16 21:53:00,"2025-09-16 16:53:00","VFR",32.2,15.6,270,4,NA,NA,1017.7,"METAR KMSL 162153Z AUTO 27004KT 10SM CLR 32/16 A3005 RMK AO2 SLP169 T03220156",2025-09-16 22:42:38.831298,2025-09-16 18:42:38.831342
"KMVY","Marthas Vineyard Arpt, MA, US",2025-09-16 21:53:00,"2025-09-16 17:53:00","VFR",17.8,12.2,60,9,NA,NA,1023.8,"METAR KMVY 162153Z 06009KT 10SM CLR 18/12 A3023 RMK AO2 SLP236 T01780122 $",2025-09-16 22:42:38.837733,2025-09-16 18:42:38.837779
"KMTH","Marathon Arpt, FL, US",2025-09-16 21:53:00,"2025-09-16 17:53:00","VFR",30,24.4,60,3,NA,NA,1015.3,"METAR KMTH 162153Z AUTO 06003KT 10SM SCT027 30/24 A2998 RMK AO2 SLP153 T03000244",2025-09-16 22:42:38.844135,2025-09-16 18:42:38.844179
"KMKL","Jackson/McKellar Rgnl, TN, US",2025-09-16 21:53:00,"2025-09-16 16:53:00","VFR",33.9,14.4,0,0,NA,NA,1017,"METAR KMKL 162153Z 00000KT 10SM FEW085 34/14 A3003 RMK AO1 SLP163 T03390144",2025-09-16 22:42:38.850453,2025-09-16 18:42:38.850499
"KMRB","Martinsburg/E West Virginia Rgnl, WV, US",2025-09-16 21:53:00,"2025-09-16 17:53:00","VFR",20.6,11.1,90,5,NA,NA,1021.1,"METAR KMRB 162153Z 09005KT 10SM BKN070 OVC080 21/11 A3015 RMK AO2 SLP207 T02060111",2025-09-16 22:42:38.856821,2025-09-16 18:42:38.85687
"KMHT","Manchester Rgnl, NH, US",2025-09-16 21:53:00,"2025-09-16 17:53:00","VFR",20.6,10,130,5,NA,NA,1024.5,"METAR KMHT 162153Z 13005KT 10SM SCT200 BKN250 21/10 A3025 RMK AO2 SLP255 T02060100",2025-09-16 22:42:38.863182,2025-09-16 18:42:38.863225
"KMSS","Massena Intl, NY, US",2025-09-16 21:53:00,"2025-09-16 17:53:00","VFR",22.8,11.7,60,7,NA,NA,1023.5,"METAR KMSS 162153Z AUTO 06007KT 10SM CLR 23/12 A3022 RMK AO2 SLP233 T02280117",2025-09-16 22:42:38.869561,2025-09-16 18:42:38.869605
"KMGW","Morgantown Muni, WV, US",2025-09-16 21:53:00,"2025-09-16 17:53:00","VFR",25,11.1,10,5,NA,NA,1021.1,"METAR KMGW 162153Z 01005KT 10SM FEW075 25/11 A3015 RMK AO2 SLP202 T02500111",2025-09-16 22:42:38.875971,2025-09-16 18:42:38.876015
"KMWH","Moses Lake/Grant Cnty, WA, US",2025-09-16 21:52:00,"2025-09-16 14:52:00","VFR",27.2,10.6,0,0,NA,NA,1020.7,"METAR KMWH 162152Z 00000KT 10SM CLR 27/11 A3014 RMK AO2 SLP202 T02720106",2025-09-16 22:42:38.882488,2025-09-16 18:42:38.882533
"KMLI","Moline/Quad City Intl, IL, US",2025-09-16 21:52:00,"2025-09-16 16:52:00","VFR",31.1,14.4,60,5,NA,NA,1019.4,"METAR KMLI 162152Z 06005KT 10SM CLR 31/14 A3010 RMK AO2 SLP190 T03110144",2025-09-16 22:42:38.901593,2025-09-16 18:42:38.901639
"KMHK","Manhattan Rgnl, KS, US",2025-09-16 21:52:00,"2025-09-16 16:52:00","VFR",32.2,18.3,170,10,NA,NA,1018,"METAR KMHK 162152Z 17010KT 10SM FEW060 32/18 A3006 RMK AO2 SLP169 T03220183",2025-09-16 22:42:38.908254,2025-09-16 18:42:38.908297
"KMKE","Milwaukee/Mitchell Intl, WI, US",2025-09-16 21:52:00,"2025-09-16 16:52:00","VFR",25,14.4,130,8,NA,NA,1021.4,"METAR KMKE 162152Z 13008KT 10SM SCT250 25/14 A3016 RMK AO2 SLP210 T02500144",2025-09-16 22:42:38.914681,2025-09-16 18:42:38.914726
"KMLF","Milford Muni, UT, US",2025-09-16 21:52:00,"2025-09-16 21:52:00","VFR",26.7,-0.6,60,9,18,NA,1021.8,"METAR KMLF 162152Z AUTO 06009G18KT 10SM CLR 27/M01 A3017 RMK AO2 SLP161 T02671006",2025-09-16 22:42:38.921001,2025-09-16 18:42:38.921046
"KMPV","Montpelier/Knapp Arpt, VT, US",2025-09-16 21:51:00,"2025-09-16 17:51:00","VFR",23.3,10.6,240,3,NA,NA,1025.1,"METAR KMPV 162151Z AUTO 24003KT 10SM CLR 23/11 A3027 RMK AO2 SLP250 T02330106",2025-09-16 22:42:38.9273,2025-09-16 18:42:38.927343
"KMWN","Mount Washington(OBS), NH, US",2025-09-16 21:51:00,"2025-09-16 21:51:00","VFR",11,6,260,11,NA,80,NA,"METAR KMWN 162151Z 26011KT 80SM FEW020 SCT060 BKN160 BKN180 BKN200 11/06 RMK HZ SCT060",2025-09-16 22:42:38.933583,2025-09-16 18:42:38.933625
"KMYL","McCall Muni, ID, US",2025-09-16 21:51:00,"2025-09-16 15:51:00","VFR",21.7,3.9,NA,5,NA,NA,1025.5,"METAR KMYL 162151Z AUTO VRB05KT 10SM CLR 22/04 A3028 RMK AO2 SLP228 T02170039",2025-09-16 22:42:38.940022,2025-09-16 18:42:38.940066
"KMWC","Milwaukee/Timmerman Arpt, WI, US",2025-09-16 21:50:00,"2025-09-16 16:50:00","VFR",26,13,0,0,NA,NA,1022.4,"METAR KMWC 162150Z 00000KT 10SM CLR 26/13 A3019",2025-09-16 22:42:38.946364,2025-09-16 18:42:38.946408
"KMMU","Morristown Muni, NJ, US",2025-09-16 21:45:00,"2025-09-16 17:45:00","VFR",21,13,110,8,NA,NA,1022.8,"METAR KMMU 162145Z 11008KT 10SM SCT120 BKN200 21/13 A3020",2025-09-16 22:42:38.952709,2025-09-16 18:42:38.952754
"KMWA","Marion Rgnl, IL, US",2025-09-16 21:45:00,"2025-09-16 16:45:00","VFR",33,16,20,6,NA,NA,1017.7,"METAR KMWA 162145Z 02006KT 10SM SCT050 33/16 A3005",2025-09-16 22:42:38.959074,2025-09-16 18:42:38.959118
"KNKT","Cherry Point MCAS, NC, US",2025-09-16 22:39:00,"2025-09-16 22:39:00","MVFR",20,16.1,330,11,20,NA,1017.4,"SPECI KNKT 162239Z 33011G20KT 10SM BKN022 OVC030 20/16 A3004 RMK AO2 T02000161 $",2025-09-16 22:42:40.294867,2025-09-16 18:42:40.294911
"KNTU","Oceana(NAS), VA, US",2025-09-16 22:39:00,"2025-09-16 18:39:00","IFR",18.9,17.8,330,26,37,3,1011.3,"SPECI KNTU 162239Z 33026G37KT 3SM +RA BR OVC007 19/18 A2986 RMK AO2 PK WND 34038/2159 CIG 006V011 T1 SET P0007 T01890178 CHINO RWY 05R VISNO RWY 5R $ ",2025-09-16 22:42:40.301288,2025-09-16 18:42:40.301331
"KOEL","Oakley Muni, KS, US",2025-09-16 22:35:00,"2025-09-16 22:35:00","VFR",31,9.3,180,21,28,NA,1016.7,"METAR KOEL 162235Z AUTO 18021G28KT 10SM CLR 31/09 A3002 RMK AO1 T03100093",2025-09-16 22:42:40.307773,2025-09-16 18:42:40.307835
"KOEB","Coldwater/Branch Cnty, MI, US",2025-09-16 22:35:00,"2025-09-16 22:35:00","VFR",27,11,360,4,NA,NA,1021.4,"METAR KOEB 162235Z AUTO 36004KT 10SM CLR 27/11 A3016 RMK AO2",2025-09-16 22:42:40.314318,2025-09-16 18:42:40.314361
"KOIC","Norwich/Eaton Arpt, NY, US",2025-09-16 22:35:00,"2025-09-16 18:35:00","VFR",23,11,NA,4,NA,NA,1022.8,"METAR KOIC 162235Z AUTO VRB04KT 10SM CLR 23/11 A3020 RMK AO2",2025-09-16 22:42:40.320942,2025-09-16 18:42:40.320988
"KN38","Wellsboro/Grand Canyon Rgnl, PA, US",2025-09-16 22:35:00,"2025-09-16 22:35:00","VFR",23,9,90,9,NA,NA,1022.8,"METAR KN38 162235Z AUTO 09009KT 10SM CLR 23/09 A3020 RMK AO2",2025-09-16 22:42:40.34059,2025-09-16 18:42:40.340637
"KN79","Shamokin/Northumberland Cnty, PA, US",2025-09-16 22:35:00,"2025-09-16 22:35:00","VFR",22.7,12.4,80,4,NA,8,1021.4,"METAR KN79 162235Z AUTO 08004KT 8SM SCT200 23/12 A3016 RMK AO2 T02270124",2025-09-16 22:42:40.347144,2025-09-16 18:42:40.347186
"KOIN","Oberlin Muni, KS, US",2025-09-16 22:35:00,"2025-09-16 22:35:00","VFR",30,15,140,10,NA,NA,1016.3,"METAR KOIN 162235Z AUTO 14010KT 10SM SCT100 SCT110 30/15 A3001 RMK AO2 PK WND 15027/38 LTG DSNT ALQDS",2025-09-16 22:42:40.353582,2025-09-16 18:42:40.353625
"KOAR","Marina Muni, CA, US",2025-09-16 22:35:00,"2025-09-16 15:35:00","IFR",19,15,290,10,15,NA,1014.6,"METAR KOAR 162235Z AUTO 29010G15KT 10SM OVC006 19/15 A2996 RMK AO2",2025-09-16 22:42:40.360018,2025-09-16 18:42:40.360062
"KNRN","Norton Muni, KS, US",2025-09-16 22:35:00,"2025-09-16 22:35:00","VFR",29,15,110,13,NA,NA,1017,"METAR KNRN 162235Z AUTO 11013KT 10SM FEW110 29/15 A3003 RMK AO2 LTG DSNT N AND SE AND NW",2025-09-16 22:42:40.366412,2025-09-16 18:42:40.366458
"KOBE","Okeechobee Cnty Arpt, FL, US",2025-09-16 22:35:00,"2025-09-16 18:35:00","VFR",30,24,NA,5,11,NA,1016,"METAR KOBE 162235Z AUTO VRB05G11KT 10SM CLR 30/24 A3000 RMK AO2",2025-09-16 22:42:40.373058,2025-09-16 18:42:40.373103
"KOGS","Ogdensburg Intl, NY, US",2025-09-16 22:35:00,"2025-09-16 18:35:00","VFR",21,12,0,0,NA,NA,1021.8,"METAR KOGS 162235Z AUTO 00000KT 10SM CLR 21/12 A3017 RMK AO2",2025-09-16 22:42:40.379563,2025-09-16 18:42:40.379607
"KO22","Columbia Arpt, CA, US",2025-09-16 22:35:00,"2025-09-16 15:35:00","VFR",34,1,210,4,NA,NA,1016,"METAR KO22 162235Z AUTO 21004KT 10SM CLR 34/01 A3000 RMK A01",2025-09-16 22:42:40.386121,2025-09-16 18:42:40.386165
"KOEO","Osceola/Simenstad Muni, WI, US",2025-09-16 22:35:00,"2025-09-16 17:35:00","VFR",31,17,190,6,NA,NA,1019.4,"METAR KOEO 162235Z AUTO 19006KT 10SM CLR 31/17 A3010 RMK AO2 T03100170 PWINO",2025-09-16 22:42:40.392583,2025-09-16 18:42:40.392626
"KO32","Reedley Muni, CA, US",2025-09-16 22:35:00,"2025-09-16 22:35:00","VFR",35.9,6.7,0,0,NA,9,1010.9,"METAR KO32 162235Z AUTO 00000KT 9SM CLR 36/07 A2985 RMK AO2 T03590067 $",2025-09-16 22:42:40.398933,2025-09-16 18:42:40.398976
"KOGA","Ogalla/Searle Fld, NE, US",2025-09-16 22:35:00,"2025-09-16 16:35:00","VFR",16.7,14.3,20,19,NA,NA,1019.4,"METAR KOGA 162235Z AUTO 02019KT 10SM -VCTSRA SCT015 SCT029 BKN049 17/14 A3010 RMK AO2 LTG DSNT ALQDS P0034 T01670143",2025-09-16 22:42:40.40536,2025-09-16 18:42:40.405406
"KOCQ","Oconto/Blake Mem, WI, US",2025-09-16 22:35:00,"2025-09-16 22:35:00","VFR",26.1,17.8,100,4,NA,NA,1021.1,"METAR KOCQ 162235Z AUTO 10004KT 10SM CLR 26/18 A3015 RMK AO1 T02610178",2025-09-16 22:42:40.412032,2025-09-16 18:42:40.412076
"KNFE","Fentress(NALF), VA, US",2025-09-16 22:35:00,"2025-09-16 22:35:00","MVFR",18.3,17.2,NA,NA,NA,NA,1012.6,"SPECI KNFE 162235Z AUTO 10SM BKN013 BKN018 OVC030 18/17 A2990 RMK AO2 PK WND 31027/2220 RAE33 P0002 T01830172",2025-09-16 22:42:40.418408,2025-09-16 18:42:40.418452
"KNY0","Johnstown/Fulton Cnty, NY, US",2025-09-16 22:35:00,"2025-09-16 22:35:00","VFR",21.6,12.1,0,0,NA,NA,1023.1,"METAR KNY0 162235Z AUTO 00000KT 10SM CLR 22/12 A3021 RMK AO2 T02160121",2025-09-16 22:42:40.424752,2025-09-16 18:42:40.424796
"KOCW","Washington/Warren Arpt, NC, US",2025-09-16 22:35:00,"2025-09-16 18:35:00","MVFR",17.7,15.5,310,7,16,NA,1017.7,"METAR KOCW 162235Z AUTO 31007G16KT 10SM BKN014 OVC026 18/16 A3005 RMK AO2 T01770155",2025-09-16 22:42:40.431148,2025-09-16 18:42:40.431192
"KNGU","Norfolk NAS, VA, US",2025-09-16 22:33:00,"2025-09-16 18:33:00","MVFR",17.8,16.7,330,26,36,4,1013.6,"SPECI KNGU 162233Z 33026G36KT 4SM -RA BR SCT011 BKN016 OVC021 18/17 A2993 RMK AO2 PK WND 33036/2227 P0009 T01780167",2025-09-16 22:42:40.437519,2025-09-16 18:42:40.437562
"KOAJ","Jacksonville/Ellis Arpt, NC, US",2025-09-16 22:32:00,"2025-09-16 18:32:00","VFR",20,16,NA,3,NA,NA,1018.4,"SPECI KOAJ 162232Z VRB03KT 10SM OVC033 20/16 A3007 RMK AO2 $",2025-09-16 22:42:40.444068,2025-09-16 18:42:40.444115
"KNYG","Quantico (MCAF), VA, US",2025-09-16 22:17:00,"2025-09-16 22:17:00","MVFR",16.1,14.4,340,9,21,3,1020.4,"SPECI KNYG 162217Z AUTO 34009G21KT 3SM -RA BR FEW013 SCT035 OVC048 16/14 A3013 RMK AO2 P0005 T01610144",2025-09-16 22:42:40.450442,2025-09-16 18:42:40.450485
"KNJM","Swansboro/Bogue Fld, NC, US",2025-09-16 22:17:00,"2025-09-16 22:17:00","MVFR",20,16.1,320,7,NA,8,1017.4,"SPECI KNJM 162217Z AUTO 32007KT 8SM BKN024 OVC030 20/16 A3004 RMK AO2 T02000161",2025-09-16 22:42:40.46852,2025-09-16 18:42:40.4686
"KO86","Trinity Center Arpt, CA, US",2025-09-16 22:15:00,"2025-09-16 22:15:00","VFR",32,2,140,6,NA,NA,1016.3,"METAR KO86 162215Z AUTO 14006KT 10SM CLR 32/02 A3001 RMK A01",2025-09-16 22:42:40.476409,2025-09-16 18:42:40.476457
"KO54","Weaverville Arpt, CA, US",2025-09-16 22:15:00,"2025-09-16 22:15:00","VFR",33,4,NA,3,NA,NA,1016.3,"METAR KO54 162215Z AUTO VRB03KT 10SM CLR 33/04 A3001 RMK A01",2025-09-16 22:42:40.483126,2025-09-16 18:42:40.48317
"KNOW","Port Angeles(CGAS), WA, US",2025-09-16 22:15:00,"2025-09-16 22:15:00","VFR",NA,NA,0,0,NA,NA,1014.3,"METAR KNOW 162215Z AUTO 00000KT 10SM CLR A2995 RMK AO2",2025-09-16 22:42:40.489528,2025-09-16 18:42:40.489572
"KO05","Chester/Rogers Fld, CA, US",2025-09-16 22:15:00,"2025-09-16 22:15:00","VFR",28,0,160,12,NA,NA,1021.4,"METAR KO05 162215Z AUTO 16012KT 10SM CLR 28/M00 A3016 RMK A01",2025-09-16 22:42:40.495873,2025-09-16 18:42:40.495918
"KO69","Petaluma Muni, CA, US",2025-09-16 22:15:00,"2025-09-16 22:15:00","VFR",29,13,NA,NA,NA,NA,1014,"METAR KO69 162215Z AUTO 10SM CLR 29/13 A2994 RMK A01",2025-09-16 22:42:40.502283,2025-09-16 18:42:40.502327
"KNUQ","Moffett Fed Airfld, CA, US",2025-09-16 22:15:00,"2025-09-16 15:15:00","VFR",26,15,340,12,NA,NA,1013.3,"METAR KNUQ 162215Z AUTO 34012KT 10SM CLR 26/15 A2992 RMK AO2",2025-09-16 22:42:40.508703,2025-09-16 18:42:40.508748
"KOJA","Weatherford/Stafford Arpt, OK, US",2025-09-16 22:10:00,"2025-09-16 22:10:00","VFR",30.7,16.7,140,10,NA,NA,1018.7,"METAR KOJA 162210Z AUTO 14010KT 10SM CLR 31/17 A3008 RMK AO2 T03070167",2025-09-16 22:42:40.5151,2025-09-16 18:42:40.515147
"KOFF","Bellevue/Offutt AFB, NE, US",2025-09-16 22:05:00,"2025-09-16 17:05:00","VFR",32,17,50,4,NA,NA,1017.7,"SPECI KOFF 162205Z 05004KT 10SM SCT065 BKN085 32/17 A3005 RMK AO2A SHRAE05 SLP170 $",2025-09-16 22:42:40.521497,2025-09-16 18:42:40.521541
"KNEL","Lakehurst(NAS), NJ, US",2025-09-16 22:00:00,"2025-09-16 18:00:00",NA,19.4,12.8,50,13,22,NA,1020.7,"METAR KNEL 162200Z AUTO 05013G22KT FEW060 19/13 A3014 RMK AO2 PK WND 05026/2137 SLP204 T01940128 PNO $",2025-09-16 22:42:40.527813,2025-09-16 18:42:40.527863
"KNFL","Fallon (NAS), NV, US",2025-09-16 21:57:00,"2025-09-16 14:57:00","VFR",27.8,-0.6,0,0,NA,NA,1020.1,"METAR KNFL 162157Z 00000KT 10SM BKN200 28/M01 A3012 RMK AO2 SLP167 FU BKN200 T02781006",2025-09-16 22:42:40.534195,2025-09-16 18:42:40.534241
"KNYL","Yuma (MCAS), AZ, US",2025-09-16 21:57:00,"2025-09-16 14:57:00","VFR",37.8,18.3,NA,3,NA,NA,1009.2,"METAR KNYL 162157Z VRB03KT 10SM CLR 38/18 A2980 RMK AO2 SLP088 T03780183",2025-09-16 22:42:40.540622,2025-09-16 18:42:40.540665
"KNJW","Meridian Range B, MS, US",2025-09-16 21:57:00,"2025-09-16 21:57:00","VFR",26.7,17.8,300,4,NA,NA,1018.7,"METAR KNJW 162157Z AUTO 30004KT 10SM FEW120 27/18 A3008 RMK AO2 TSE37 SLP099 T02670178",2025-09-16 22:42:40.546971,2025-09-16 18:42:40.547014
"KNLC","Lemoore (NAS), CA, US",2025-09-16 21:56:00,"2025-09-16 14:56:00","VFR",36.1,8.9,40,6,NA,NA,1011.9,"METAR KNLC 162156Z 04006KT 10SM CLR 36/09 A2988 RMK AO2 SLP117 RH/19 T03610089",2025-09-16 22:42:40.553345,2025-09-16 18:42:40.553389
"KNDZ","Milton/Whiting-S(NAS, FL, US",2025-09-16 21:56:00,"2025-09-16 21:56:00","VFR",29.4,13.9,160,7,NA,NA,1017.7,"METAR KNDZ 162156Z 16007KT 10SM SCT080 SCT250 29/14 A3005 RMK AO2 SLP161 T02940139 $",2025-09-16 22:42:40.559741,2025-09-16 18:42:40.559814
"KNJK","El Centro(NAF), CA, US",2025-09-16 21:56:00,"2025-09-16 14:56:00","VFR",39.4,13.9,NA,3,NA,NA,1009.2,"METAR KNJK 162156Z VRB03KT 10SM FEW080 FEW150 39/14 A2980 RMK SLP110 T03940139",2025-09-16 22:42:40.566163,2025-09-16 18:42:40.566207
"KNID","China Lake (NAF), CA, US",2025-09-16 21:56:00,"2025-09-16 21:56:00","VFR",36.1,3.9,NA,5,NA,NA,1016,"METAR KNID 162156Z VRB05KT 10SM FEW100 36/04 A3000 RMK AO2 SLP137 T03610039 $",2025-09-16 22:42:40.572561,2025-09-16 18:42:40.572605
"KOFK","Norfolk/Stefan Mem, NE, US",2025-09-16 21:56:00,"2025-09-16 16:56:00","VFR",30.6,17.2,150,3,NA,NA,1018.4,"METAR KOFK 162156Z AUTO 15003KT 10SM CLR 31/17 A3007 RMK AO2 SLP170 T03060172",2025-09-16 22:42:40.579104,2025-09-16 18:42:40.579149
"KNMM","Meridian/MCCain(NAS), MS, US",2025-09-16 21:56:00,"2025-09-16 21:56:00","VFR",32.2,15.6,0,0,NA,NA,1017.4,"METAR KNMM 162156Z 00000KT 10SM SCT060 BKN110 BKN250 32/16 A3004 RMK AO2 SLP177 T2 SET T03220156",2025-09-16 22:42:40.585536,2025-09-16 18:42:40.585581
"KNUC","San Clemente(NALF), CA, US",2025-09-16 21:56:00,"2025-09-16 21:56:00","VFR",23.3,17.2,240,7,NA,NA,1014,"METAR KNUC 162156Z 24007KT 10SM FEW011 FEW150 23/17 A2994 RMK AO2 SLP135 T02330172 PNO $",2025-09-16 22:42:40.604393,2025-09-16 18:42:40.604461
"KNBC","Beaufort(MCAS), SC, US",2025-09-16 21:56:00,"2025-09-16 21:56:00","VFR",30.6,13.3,0,0,NA,7,1018.4,"METAR KNBC 162156Z 00000KT 7SM FEW200 31/13 A3007 RMK AO2 SLP182 T03060133",2025-09-16 22:42:40.611579,2025-09-16 18:42:40.611625
"KNGP","Corpus Christi/Truax Fld NAS, TX, US",2025-09-16 21:56:00,"2025-09-16 21:56:00","VFR",31.1,21.7,80,12,NA,NA,1016.3,"METAR KNGP 162156Z 08012KT 10SM FEW045 SCT120 BKN250 31/22 A3001 RMK AO2 SLP162 CB DSNT E TCU DSNT SE AND W T03110217",2025-09-16 22:42:40.618119,2025-09-16 18:42:40.618165
"KNCA","New River MCAS, NC, US",2025-09-16 21:56:00,"2025-09-16 21:56:00","MVFR",20.6,16.1,320,11,NA,NA,1017.4,"METAR KNCA 162156Z 32011KT 10SM DZ BKN030 BKN035 21/16 A3004 RMK AO2 SLP176 P0000 T02060161",2025-09-16 22:42:40.624444,2025-09-16 18:42:40.624488
"KNOG","Orange Grove(NAS), TX, US",2025-09-16 21:56:00,"2025-09-16 21:56:00","VFR",31.1,19.4,30,11,16,9,1017,"METAR KNOG 162156Z AUTO 03011G16KT 9SM OVC085 31/19 A3003 RMK AO2 SLP149 T03110194 PWINO $",2025-09-16 22:42:40.630778,2025-09-16 18:42:40.630838
"KOCH","Nacogdoches Rgnl, TX, US",2025-09-16 21:56:00,"2025-09-16 16:56:00","VFR",32.8,19.4,340,5,NA,NA,1017.4,"METAR KOCH 162156Z AUTO 34005KT 10SM FEW085 33/19 A3004 RMK AO2 SLP173 T03280194",2025-09-16 22:42:40.637154,2025-09-16 18:42:40.637198
"KNSE","Milton/Whiting N(NAS, FL, US",2025-09-16 21:56:00,"2025-09-16 16:56:00","VFR",30,13.9,190,9,NA,NA,1017.7,"METAR KNSE 162156Z 19009KT 10SM FEW070 SCT250 30/14 A3005 RMK AO2 SLP161 T03000139 $",2025-09-16 22:42:40.643692,2025-09-16 18:42:40.643737
"KNPA","Pensacola (NAS), FL, US",2025-09-16 21:56:00,"2025-09-16 16:56:00","VFR",28.9,15.6,170,10,NA,NA,1017.7,"METAR KNPA 162156Z 17010KT 10SM FEW050 SCT250 29/16 A3005 RMK AO2 SLP176 T02890156",2025-09-16 22:42:40.650167,2025-09-16 18:42:40.650212
"KNQI","Kingsville(NAS), TX, US",2025-09-16 21:56:00,"2025-09-16 16:56:00","VFR",28.9,21.7,140,8,NA,NA,1016.7,"METAR KNQI 162156Z 14008KT 10SM FEW035 SCT045 BKN080 BKN250 29/22 A3002 RMK AO2 RAE2058B28E41 SLP161 CB DSNT E P0001 T02890217 $",2025-09-16 22:42:40.656514,2025-09-16 18:42:40.656557
"KNBG","New Orleans (NAS), LA, US",2025-09-16 21:55:00,"2025-09-16 16:55:00","VFR",29.4,21.1,330,4,NA,NA,1017,"METAR KNBG 162155Z 33004KT 10SM FEW030 FEW050 SCT100 BKN250 29/21 A3003 RMK AO2 SLP167 CB DSNT N T2 SET T02940211 $",2025-09-16 22:42:40.66289,2025-09-16 18:42:40.662934
"KNTD","Pt Mugu (NAS), CA, US",2025-09-16 21:55:00,"2025-09-16 14:55:00","VFR",25,17.2,260,9,NA,NA,1013.3,"METAR KNTD 162155Z 26009KT 10SM FEW065 25/17 A2992 RMK AO2 SLP133 T02500172 $",2025-09-16 22:42:40.669218,2025-09-16 18:42:40.669261
"KNKX","Miramar (MCAS), CA, US",2025-09-16 21:55:00,"2025-09-16 14:55:00","VFR",30.6,8.3,280,13,NA,NA,1012.6,"METAR KNKX 162155Z AUTO 28013KT 10SM CLR 31/08 A2990 RMK AO2 SLP117 T03060083",2025-09-16 22:42:40.675634,2025-09-16 18:42:40.675678
"KNXP","Twentynine Palms/Self Arpt, CA, US",2025-09-16 21:54:00,"2025-09-16 21:54:00","VFR",36.1,9.4,260,5,NA,NA,1016.3,"METAR KNXP 162154Z AUTO 26005KT 10SM CLR 36/09 A3001 RMK AO2 SLP123 T03610094 PWINO $",2025-09-16 22:42:40.682086,2025-09-16 18:42:40.68213
"KOFP","Richmond/Hanover Cnty, VA, US",2025-09-16 21:54:00,"2025-09-16 21:54:00","MVFR",16.1,15,NA,5,NA,5,1019.4,"METAR KOFP 162154Z AUTO VRB05KT 5SM RA BR BKN010 OVC016 16/15 A3010 RMK AO2 SLP193 P0006 T01610150",2025-09-16 22:42:40.688485,2025-09-16 18:42:40.68853
"KNRS","Imperial Beach(NAS), CA, US",2025-09-16 21:53:00,"2025-09-16 14:53:00","VFR",25,19.4,270,10,NA,NA,1012.6,"METAR KNRS 162153Z 27010KT 10SM FEW007 FEW050 SCT200 25/19 A2990 RMK AO2 SLP125 T02500194 $",2025-09-16 22:42:40.694889,2025-09-16 18:42:40.694935
"KOGD","Ogden/Hinckley Arpt, UT, US",2025-09-16 21:53:00,"2025-09-16 15:53:00","VFR",23.9,0.6,300,7,NA,NA,1022.4,"METAR KOGD 162153Z AUTO 30007KT 10SM CLR 24/01 A3019 RMK AO2 SLP176 T02390006",2025-09-16 22:42:40.701237,2025-09-16 18:42:40.701281
"KNQX","Key West (NAS), FL, US",2025-09-16 21:53:00,"2025-09-16 17:53:00","VFR",30.6,23.3,30,4,NA,NA,1015.3,"METAR KNQX 162153Z 03004KT 10SM FEW025 BKN180 OVC250 31/23 A2998 RMK AO2 SLP151 T03060233 $",2025-09-16 22:42:40.707609,2025-09-16 18:42:40.707655
"KNIP","Jacksonville (NAS), FL, US",2025-09-16 21:53:00,"2025-09-16 17:53:00","VFR",28.3,15,80,7,NA,NA,1018.4,"METAR KNIP 162153Z 08007KT 10SM FEW045 SCT250 28/15 A3007 RMK SLP178 T02830150",2025-09-16 22:42:40.714182,2025-09-16 18:42:40.714232
"KODX","Ord/Sharp Fld, NE, US",2025-09-16 21:53:00,"2025-09-16 21:53:00","VFR",30,17.2,130,9,NA,NA,1018,"METAR KODX 162153Z AUTO 13009KT 10SM -RA CLR 30/17 A3006 RMK AO2 RAE2059B50 SLP169 P0000 T03000172",2025-09-16 22:42:40.720894,2025-09-16 18:42:40.720939
"KOAK","Oakland Intl, CA, US",2025-09-16 21:53:00,"2025-09-16 14:53:00","VFR",23.9,15.6,300,11,NA,NA,1014,"METAR KOAK 162153Z 30011KT 10SM FEW004 24/16 A2994 RMK AO2 SLP137 T02390156",2025-09-16 22:42:40.739978,2025-09-16 18:42:40.740029
"KNUW","Whidbey Island(NAS), WA, US",2025-09-16 21:53:00,"2025-09-16 14:53:00","VFR",29.4,11.7,110,5,NA,NA,1014.6,"METAR KNUW 162153Z 11005KT 10SM CLR 29/12 A2996 RMK AO2 SLP149 T02940117 $",2025-09-16 22:42:40.747254,2025-09-16 18:42:40.747301
"KNEW","New Orleans/Lakefront Arpt, LA, US",2025-09-16 21:53:00,"2025-09-16 16:53:00","VFR",32.8,18.9,360,4,NA,NA,1017,"METAR KNEW 162153Z 36004KT 10SM CLR 33/19 A3003 RMK AO1 SLP161 T03280189",2025-09-16 22:42:40.753766,2025-09-16 18:42:40.753829
"KODO","Odessa/Schlemeyer Fld, TX, US",2025-09-16 21:53:00,"2025-09-16 21:53:00","VFR",31.1,11.7,170,10,17,NA,1020.1,"METAR KODO 162153Z AUTO 17010G17KT 10SM SCT075 31/12 A3012 RMK AO2 SLP153 T03110117",2025-09-16 22:42:40.760174,2025-09-16 18:42:40.760217
"KOGB","Orangeburg Muni, SC, US",2025-09-16 21:53:00,"2025-09-16 17:53:00","VFR",28.3,12.2,300,6,NA,NA,1018,"METAR KOGB 162153Z AUTO 30006KT 10SM CLR 28/12 A3006 RMK AO2 SLP178 T02830122",2025-09-16 22:42:40.766501,2025-09-16 18:42:40.766547
"KNSI","San Nicholas Island Arpt, CA, US",2025-09-16 21:53:00,"2025-09-16 21:53:00","VFR",23.3,15,350,6,NA,NA,1014,"METAR KNSI 162153Z 35006KT 10SM CLR 23/15 A2994 RMK AO2 SLP131 T02330150 $",2025-09-16 22:42:40.772887,2025-09-16 18:42:40.772932
"KOJC","Olathe/Johnson Cnty, KS, US",2025-09-16 21:53:00,"2025-09-16 16:53:00","VFR",31.7,18.3,210,4,NA,NA,1018.7,"METAR KOJC 162153Z COR 21004KT 10SM CLR 32/18 A3008 RMK AO2 SLP174 T03170183",2025-09-16 22:42:40.779446,2025-09-16 18:42:40.77949
"KNFW","Fort Worth/Carswell NAS, TX, US",2025-09-16 21:52:00,"2025-09-16 16:52:00","VFR",34.4,13.9,130,5,NA,NA,1017.7,"METAR KNFW 162152Z 13005KT 10SM SCT080 34/14 A3005 RMK AO2 SLP157 T03440139 $",2025-09-16 22:42:40.785935,2025-09-16 18:42:40.78598
"KNZY","San Diego/North Island NAS, CA, US",2025-09-16 21:52:00,"2025-09-16 14:52:00","VFR",26.1,18.3,330,12,NA,NA,1011.9,"METAR KNZY 162152Z 33012KT 10SM FEW005 FEW060 SCT250 26/18 A2988 RMK AO2 SLP118 CB DSNT SE T02610183",2025-09-16 22:42:40.792369,2025-09-16 18:42:40.792413
"KNFG","Camp Pendleton(MCB), CA, US",2025-09-16 21:52:00,"2025-09-16 21:52:00","VFR",31.7,11.7,220,9,18,NA,1011.6,"METAR KNFG 162152Z 22009G18KT 10SM CLR 32/12 A2987 RMK AO2 SLP113 T03170117 $",2025-09-16 22:42:40.798734,2025-09-16 18:42:40.798778
"KOKB","Oceanside Muni, CA, US",2025-09-16 21:52:00,"2025-09-16 14:52:00","MVFR",27.2,19.4,240,10,NA,4,1011.9,"METAR KOKB 162152Z AUTO 24010KT 4SM HZ CLR 27/19 A2988 RMK AO2 SLP118 T02720194",2025-09-16 22:42:40.80505,2025-09-16 18:42:40.805093
"KNHK","Patuxent River NAS, MD, US",2025-09-16 21:52:00,"2025-09-16 17:52:00","MVFR",17.8,16.7,350,14,26,7,1018,"METAR KNHK 162152Z 35014G26KT 7SM -RA BKN018 BKN025 18/17 A3006 RMK AO2 PK WND 36032/2117 RAB18 SLP179 P0003 T01780167 $",2025-09-16 22:42:40.811298,2025-09-16 18:42:40.811342
"KOKC","Oklahoma City/Will Rogers Intl, OK, US",2025-09-16 21:52:00,"2025-09-16 16:52:00","VFR",32.8,15.6,200,5,NA,NA,1018.4,"METAR KOKC 162152Z 20005KT 10SM FEW070 SCT150 BKN250 33/16 A3007 RMK AO2 SLP168 T03280156",2025-09-16 22:42:40.817682,2025-09-16 18:42:40.817725
"KNRB","Mayport (NS), FL, US",2025-09-16 21:52:00,"2025-09-16 17:52:00","VFR",27.2,20,70,10,NA,NA,1018.4,"METAR KNRB 162152Z 07010KT 10SM SCT250 27/20 A3007 RMK AO2 SLP182 T02720200",2025-09-16 22:42:40.82408,2025-09-16 18:42:40.824124
"KOCF","Ocala Rgnl, FL, US",2025-09-16 21:51:00,"2025-09-16 17:51:00","VFR",30,18.9,20,5,NA,NA,1017.4,"METAR KOCF 162151Z 02005KT 10SM SCT075 30/19 A3004 RMK AO2 SLP171 T03000189",2025-09-16 22:42:40.830361,2025-09-16 18:42:40.830404
"KNQA","Millington Rgnl, TN, US",2025-09-16 21:50:00,"2025-09-16 16:50:00","VFR",34,19,180,3,NA,NA,1018,"METAR KNQA 162150Z 18003KT 10SM CLR 34/19 A3006",2025-09-16 22:42:40.836675,2025-09-16 18:42:40.836719
"KNRA","Coupeville, Out, WA, US",2025-09-16 21:46:00,"2025-09-16 21:46:00","VFR",30,11.1,180,5,NA,NA,1014.6,"METAR KNRA 162146Z AUTO 18005KT 10SM CLR 30/11 A2996 RMK AO2 SLP089 T03000111 TSNO $",2025-09-16 22:42:40.843017,2025-09-16 18:42:40.843061
"KOLG","Solon Springs Muni, WI, US",2025-09-16 22:40:00,"2025-09-16 22:40:00","VFR",28,19,200,6,NA,NA,1018,"METAR KOLG 162240Z AUTO 20006KT 10SM CLR 28/19 A3006 RMK AO1",2025-09-16 22:42:42.297584,2025-09-16 18:42:42.297635
"KPKV","Port Lavaca/Calhoun Cnty, TX, US",2025-09-16 22:40:00,"2025-09-16 22:40:00","VFR",32.7,23.9,110,13,18,NA,1017,"METAR KPKV 162240Z AUTO 11013G18KT 10SM CLR 33/24 A3003 RMK AO2 T03270239",2025-09-16 22:42:42.304164,2025-09-16 18:42:42.304208
"KPIB","Hattiesburg/Laurel Rgnl, MS, US",2025-09-16 22:39:00,"2025-09-16 17:39:00","VFR",32,18,130,6,NA,NA,1017.4,"SPECI KPIB 162239Z AUTO 13006KT 10SM FEW002 BKN070 32/18 A3004 RMK AO2",2025-09-16 22:42:42.310719,2025-09-16 18:42:42.310765
"KPHF","Newport News/Williamsburg Intl, VA, US",2025-09-16 22:39:00,"2025-09-16 18:39:00","IFR",17.2,16.1,340,14,25,2,1014.3,"SPECI KPHF 162239Z 34014G25KT 2SM +RA BR FEW008 BKN013 OVC050 17/16 A2995 RMK AO2 PK WND 33027/2219 P0020 T01720161",2025-09-16 22:42:42.317156,2025-09-16 18:42:42.317199
"KPEX","Paynesville Muni, MN, US",2025-09-16 22:36:00,"2025-09-16 22:36:00","VFR",29,16,270,6,NA,NA,1018.7,"METAR KPEX 162236Z AUTO 27006KT 10SM CLR 29/16 A3008 RMK AO2",2025-09-16 22:42:42.323625,2025-09-16 18:42:42.323668
"KPCM","Plant City Arpt, FL, US",2025-09-16 22:35:00,"2025-09-16 22:35:00","VFR",28,22,NA,NA,NA,NA,1017.7,"METAR KPCM 162235Z AUTO 10SM SCT050 BKN070 BKN080 28/22 A3005 RMK AO2",2025-09-16 22:42:42.330125,2025-09-16 18:42:42.330168
"KPLU","Tacoma/Pierce Cnty, WA, US",2025-09-16 22:35:00,"2025-09-16 22:35:00","VFR",33,8,NA,4,NA,NA,1014.3,"METAR KPLU 162235Z AUTO VRB04KT 10SM -DZ CLR 33/08 A2995 RMK AO2",2025-09-16 22:42:42.336657,2025-09-16 18:42:42.336703
"KPEZ","Pleasanton Muni, TX, US",2025-09-16 22:35:00,"2025-09-16 22:35:00","VFR",33.3,12.2,120,4,15,NA,1017,"METAR KPEZ 162235Z AUTO 12004G15KT 10SM SCT120 33/12 A3003 RMK AO2 T03330122",2025-09-16 22:42:42.343236,2025-09-16 18:42:42.34328
"KOXV","Knoxville Muni, IA, US",2025-09-16 22:35:00,"2025-09-16 22:35:00","VFR",31,17,140,4,NA,NA,1019.4,"METAR KOXV 162235Z AUTO 14004KT 10SM CLR 31/17 A3010 RMK AO2",2025-09-16 22:42:42.349794,2025-09-16 18:42:42.349858
"KPAN","Payson Arpt, AZ, US",2025-09-16 22:35:00,"2025-09-16 15:35:00","VFR",29,5,270,8,16,NA,1021.8,"METAR KPAN 162235Z AUTO 27008G16KT 10SM CLR 29/05 A3017 RMK AO2",2025-09-16 22:42:42.356309,2025-09-16 18:42:42.356353
"KOWX","Ottawa/Putnam Cnty, OH, US",2025-09-16 22:35:00,"2025-09-16 22:35:00","VFR",27,17,30,11,NA,NA,1020.7,"METAR KOWX 162235Z AUTO 03011KT 10SM CLR 27/17 A3014 RMK AO2",2025-09-16 22:42:42.362674,2025-09-16 18:42:42.362719
"KOVL","Olivia Rgnl, MN, US",2025-09-16 22:35:00,"2025-09-16 22:35:00","VFR",30,15,280,5,NA,NA,1018,"METAR KOVL 162235Z AUTO 28005KT 10SM CLR 30/15 A3006 RMK AO2",2025-09-16 22:42:42.369114,2025-09-16 18:42:42.369157
"KOKM","Okmulgee Rgnl, OK, US",2025-09-16 22:35:00,"2025-09-16 17:35:00","VFR",33.7,16.8,120,4,NA,NA,1018,"METAR KOKM 162235Z AUTO 12004KT 10SM SCT070 34/17 A3006 RMK AO2 T03370168",2025-09-16 22:42:42.375478,2025-09-16 18:42:42.375522
"KPLD","Portland Muni, IN, US",2025-09-16 22:35:00,"2025-09-16 22:35:00","VFR",26.7,10.9,0,0,NA,NA,1020.4,"METAR KPLD 162235Z AUTO 00000KT 10SM CLR 27/11 A3013 RMK AO2 T02670109",2025-09-16 22:42:42.381901,2025-09-16 18:42:42.381945
"KPEA","Pella Muni, IA, US",2025-09-16 22:35:00,"2025-09-16 22:35:00","VFR",30.6,18.2,150,3,NA,NA,1019.4,"METAR KPEA 162235Z AUTO 15003KT 10SM SCT070 31/18 A3010 RMK AO2 T03060182",2025-09-16 22:42:42.388515,2025-09-16 18:42:42.388562
"KONL","O'Neill Muni, NE, US",2025-09-16 22:35:00,"2025-09-16 17:35:00","VFR",25.3,18,360,4,NA,NA,1019.4,"METAR KONL 162235Z AUTO 36004KT 10SM CLR 25/18 A3010 RMK AO2 LTG DSNT W AND NW T02530180",2025-09-16 22:42:42.395089,2025-09-16 18:42:42.395133
"KPMU","Panola Cnty, MS, US",2025-09-16 22:35:00,"2025-09-16 22:35:00","VFR",31,20,140,7,NA,NA,1016.3,"METAR KPMU 162235Z AUTO 14007KT 10SM CLR 31/20 A3001 RMK AO2",2025-09-16 22:42:42.414407,2025-09-16 18:42:42.414454
"KPBX","Pikeville/Pike Cnty, KY, US",2025-09-16 22:35:00,"2025-09-16 18:35:00","VFR",24.5,12.8,0,0,NA,NA,1020.4,"METAR KPBX 162235Z AUTO 00000KT 10SM CLR 25/13 A3013 RMK AO2 T02450128",2025-09-16 22:42:42.421293,2025-09-16 18:42:42.421338
"KONX","Currituck Cnty, NC, US",2025-09-16 22:35:00,"2025-09-16 22:35:00","MVFR",18,16.5,270,10,17,NA,1013.3,"METAR KONX 162235Z AUTO 27010G17KT 10SM OVC010 18/17 A2992 RMK AO2 T01800165",2025-09-16 22:42:42.427667,2025-09-16 18:42:42.427711
"KOKV","Winchester Rgnl, VA, US",2025-09-16 22:35:00,"2025-09-16 18:35:00","VFR",18,10,0,0,NA,NA,1021.1,"METAR KOKV 162235Z AUTO 00000KT 10SM -RA BKN065 OVC100 18/10 A3015 RMK AO2",2025-09-16 22:42:42.434024,2025-09-16 18:42:42.434068
"KPDC","Prairie Du Chien Muni, WI, US",2025-09-16 22:35:00,"2025-09-16 17:35:00","VFR",28.9,18.3,120,4,NA,NA,1019.7,"METAR KPDC 162235Z AUTO 12004KT 10SM CLR 29/18 A3011 RMK AO2 T02890183",2025-09-16 22:42:42.44037,2025-09-16 18:42:42.440414
"KORG","Orange/Orange Cnty, TX, US",2025-09-16 22:35:00,"2025-09-16 22:35:00","VFR",35.4,17.8,0,0,NA,NA,1017,"METAR KORG 162235Z AUTO 00000KT 10SM CLR 35/18 A3003 RMK AO2 T03540178 PWINO",2025-09-16 22:42:42.446775,2025-09-16 18:42:42.44684
"KOPL","Opelousas/St Landry, LA, US",2025-09-16 22:35:00,"2025-09-16 22:35:00","VFR",28.6,23.3,10,3,NA,NA,1016.7,"METAR KOPL 162235Z AUTO 01003KT 10SM SCT110 29/23 A3002 RMK AO2 LTG DSNT N AND S T02860233",2025-09-16 22:42:42.453292,2025-09-16 18:42:42.453335
"KOXI","Knox/Starke Cnty, IN, US",2025-09-16 22:35:00,"2025-09-16 22:35:00","VFR",26,13,50,5,NA,NA,1021.1,"METAR KOXI 162235Z AUTO 05005KT 10SM CLR 26/13 A3015 RMK AO2",2025-09-16 22:42:42.459642,2025-09-16 18:42:42.459686
"KPHG","Phillipsburg Muni, KS, US",2025-09-16 22:35:00,"2025-09-16 22:35:00","VFR",25,16,150,13,NA,NA,1018.4,"METAR KPHG 162235Z AUTO 15013KT 10SM VCTS CLR 25/16 A3007 RMK AO2 LTG DSNT ALQDS PRESRR",2025-09-16 22:42:42.466075,2025-09-16 18:42:42.466119
"KONP","Newport Muni, OR, US",2025-09-16 22:35:00,"2025-09-16 15:35:00","VFR",20,13,220,12,NA,NA,1015,"METAR KONP 162235Z AUTO 22012KT 10SM CLR 20/13 A2997 RMK AO2",2025-09-16 22:42:42.472531,2025-09-16 18:42:42.472574
"KOWP","Sand Springs/Pogue Mem, OK, US",2025-09-16 22:35:00,"2025-09-16 22:35:00","VFR",35.3,11.6,100,4,NA,NA,1018.7,"METAR KOWP 162235Z AUTO 10004KT 10SM CLR 35/12 A3008 RMK AO2 T03530116",2025-09-16 22:42:42.478979,2025-09-16 18:42:42.479023
"KOZW","Howell/Hardy Arpt, MI, US",2025-09-16 22:35:00,"2025-09-16 22:35:00","VFR",26,9,20,2,NA,NA,1021.8,"METAR KOZW 162235Z AUTO 02002KT 10SM CLR 26/09 A3017 RMK AO2",2025-09-16 22:42:42.485386,2025-09-16 18:42:42.485428
"KPBH","Phillips/Price Cnty, WI, US",2025-09-16 22:35:00,"2025-09-16 22:35:00","VFR",26,19.7,180,5,NA,NA,1020.7,"METAR KPBH 162235Z AUTO 18005KT 10SM CLR 26/20 A3014 RMK AO2 T02600197",2025-09-16 22:42:42.491758,2025-09-16 18:42:42.491817
"KOSC","Wurtsmith(AFB), MI, US",2025-09-16 22:35:00,"2025-09-16 18:35:00","VFR",21,11,120,5,NA,NA,1022.8,"METAR KOSC 162235Z AUTO 12005KT 10SM CLR 21/11 A3020 RMK AO2",2025-09-16 22:42:42.498177,2025-09-16 18:42:42.49822
"KOPN","Thomaston/Upson Cnty, GA, US",2025-09-16 22:35:00,"2025-09-16 22:35:00","VFR",28,14,40,3,NA,NA,1019.4,"METAR KOPN 162235Z AUTO 04003KT 10SM CLR 28/14 A3010 RMK AO2 LTG DSNT N",2025-09-16 22:42:42.504544,2025-09-16 18:42:42.504588
"KOLZ","Oelwein Muni, IA, US",2025-09-16 22:35:00,"2025-09-16 22:35:00","VFR",26,21,160,4,NA,NA,1020.4,"METAR KOLZ 162235Z AUTO 16004KT 10SM CLR 26/21 A3013 RMK A01",2025-09-16 22:42:42.510954,2025-09-16 18:42:42.510999
"KPIM","Pine Mountain/Harris Cnty, GA, US",2025-09-16 22:35:00,"2025-09-16 18:35:00","VFR",29,15,100,6,NA,NA,1018.7,"METAR KPIM 162235Z AUTO 10006KT 10SM FEW070 FEW090 29/15 A3008 RMK AO2",2025-09-16 22:42:42.517383,2025-09-16 18:42:42.517428
"KONA","Winona Muni, MN, US",2025-09-16 22:35:00,"2025-09-16 22:35:00","VFR",30,19,150,6,NA,NA,1019.4,"METAR KONA 162235Z AUTO 15006KT 10SM CLR 30/19 A3010 RMK AO2 TSNO",2025-09-16 22:42:42.523829,2025-09-16 18:42:42.523878
"KOMH","Orange Cnty Arpt, VA, US",2025-09-16 22:35:00,"2025-09-16 22:35:00","VFR",15,13,360,4,NA,NA,1020.7,"METAR KOMH 162235Z AUTO 36004KT 10SM OVC050 15/13 A3014 RMK AO2 LTG DSNT E",2025-09-16 22:42:42.530437,2025-09-16 18:42:42.530482
"KOWA","Owatonna/Degner Rgnl, MN, US",2025-09-16 22:35:00,"2025-09-16 17:35:00","VFR",27.7,20.8,170,5,NA,9,1019,"METAR KOWA 162235Z AUTO 17005KT 9SM FEW270 28/21 A3009 RMK AO2 T02770208",2025-09-16 22:42:42.549702,2025-09-16 18:42:42.549748
"KOOA","Oskaloosa Muni, IA, US",2025-09-16 22:35:00,"2025-09-16 22:35:00","MVFR",33.6,14.7,140,7,NA,5,1019.4,"METAR KOOA 162235Z AUTO 14007KT 5SM CLR 34/15 A3010 RMK AO2 T03360147",2025-09-16 22:42:42.556231,2025-09-16 18:42:42.556274
"KONZ","Grosse Isle Muni, MI, US",2025-09-16 22:35:00,"2025-09-16 22:35:00","VFR",22,19,190,6,NA,NA,1021.4,"METAR KONZ 162235Z AUTO 19006KT 10SM FEW110 22/19 A3016 RMK AO2",2025-09-16 22:42:42.562641,2025-09-16 18:42:42.562684
"KOQN","West Chester/Brandywine Rgnl, PA, US",2025-09-16 22:35:00,"2025-09-16 22:35:00","VFR",21,11,50,9,17,NA,1021.1,"METAR KOQN 162235Z AUTO 05009G17KT 028V098 10SM CLR 21/11 A3015 RMK AO2 LTG DSNT S",2025-09-16 22:42:42.569011,2025-09-16 18:42:42.569054
"KONM","Socorro Muni, NM, US",2025-09-16 22:35:00,"2025-09-16 22:35:00","VFR",26,7.9,120,19,NA,NA,1023.1,"METAR KONM 162235Z AUTO 12019KT 10SM CLR 26/08 A3021 RMK AO2 LTG DSNT SE T02600079",2025-09-16 22:42:42.575416,2025-09-16 18:42:42.57547
"KPCZ","Waupaca Muni, WI, US",2025-09-16 22:35:00,"2025-09-16 22:35:00","VFR",29.5,14.1,160,4,NA,NA,1021.8,"METAR KPCZ 162235Z AUTO 16004KT 10SM CLR 30/14 A3017 RMK AO2 T02950141",2025-09-16 22:42:42.581901,2025-09-16 18:42:42.581955
"KPHN","Port Huron/St Clair Cnty, MI, US",2025-09-16 22:35:00,"2025-09-16 18:35:00","VFR",22,13,30,5,NA,NA,1022.4,"METAR KPHN 162235Z AUTO 03005KT 10SM CLR 22/13 A3019 RMK AO2",2025-09-16 22:42:42.588459,2025-09-16 18:42:42.588504
"KPLR","Pell City/St Clair Cnty, AL, US",2025-09-16 22:35:00,"2025-09-16 17:35:00","VFR",28,18,0,0,NA,NA,1018.4,"METAR KPLR 162235Z AUTO 00000KT 10SM CLR 28/18 A3007 RMK A01",2025-09-16 22:42:42.595039,2025-09-16 18:42:42.595084
"KPGV","Greenville/Pitt Arpt, NC, US",2025-09-16 22:35:00,"2025-09-16 18:35:00","MVFR",18,18,340,8,NA,NA,1018,"METAR KPGV 162235Z AUTO 34008KT 10SM BKN014 BKN023 OVC042 18/18 A3006 RMK AO2",2025-09-16 22:42:42.601465,2025-09-16 18:42:42.601509
"KPEQ","Pecos Muni, TX, US",2025-09-16 22:35:00,"2025-09-16 17:35:00","VFR",31.5,12,110,13,19,NA,1018,"METAR KPEQ 162235Z AUTO 11013G19KT 10SM CLR 32/12 A3006 RMK AO2 T03150120 PWINO",2025-09-16 22:42:42.607875,2025-09-16 18:42:42.607921
"KOSA","Mount Pleasant Rgnl, TX, US",2025-09-16 22:35:00,"2025-09-16 22:35:00","VFR",33.5,18.2,220,5,NA,NA,1017,"METAR KOSA 162235Z AUTO 22005KT 10SM CLR 33/18 A3003 RMK AO2 T03350182",2025-09-16 22:42:42.614239,2025-09-16 18:42:42.614284
"KOLE","Olean/Cattaraugus Cnty, NY, US",2025-09-16 22:35:00,"2025-09-16 22:35:00","VFR",22,11,50,4,NA,NA,1023.1,"METAR KOLE 162235Z AUTO 05004KT 10SM CLR 22/11 A3021 RMK AO2",2025-09-16 22:42:42.620605,2025-09-16 18:42:42.620649
"KPJC","Zelienople Muni, PA, US",2025-09-16 22:35:00,"2025-09-16 22:35:00","VFR",27,8,0,0,NA,NA,1020.4,"METAR KPJC 162235Z AUTO 00000KT 10SM BKN075 27/08 A3013 RMK AO2",2025-09-16 22:42:42.626951,2025-09-16 18:42:42.626995
"KORS","Eastsound/Orcas Island Arpt, WA, US",2025-09-16 22:35:00,"2025-09-16 15:35:00","VFR",19,16,0,0,NA,NA,1014.6,"METAR KORS 162235Z AUTO 00000KT 10SM CLR 19/16 A2996 RMK AO2",2025-09-16 22:42:42.633313,2025-09-16 18:42:42.633357
"KOZA","Ozona Muni, TX, US",2025-09-16 22:35:00,"2025-09-16 17:35:00","VFR",30,12,140,6,NA,NA,1020.4,"METAR KOZA 162235Z AUTO 14006KT 10SM SCT065 30/12 A3013 RMK AO2",2025-09-16 22:42:42.639696,2025-09-16 18:42:42.63974
"KOYM","St Marys Muni, PA, US",2025-09-16 22:35:00,"2025-09-16 18:35:00","VFR",25,12,0,0,NA,NA,1023.5,"METAR KOYM 162235Z AUTO 00000KT 10SM SCT075 BKN090 BKN120 25/12 A3022 RMK AO2 PWINO",2025-09-16 22:42:42.646205,2025-09-16 18:42:42.64625
"KOXD","Oxford/Miami Univ Arpt, OH, US",2025-09-16 22:27:00,"2025-09-16 18:27:00","VFR",29,10,60,7,NA,NA,1019.7,"METAR KOXD 162227Z 06007KT 10SM BKN075 29/10 A3011 RMK AO2",2025-09-16 22:42:42.652641,2025-09-16 18:42:42.652685
"KORF","Norfolk Intl, VA, US",2025-09-16 22:26:00,"2025-09-16 18:26:00","IFR",18.3,17.2,340,16,34,4,1013,"SPECI KORF 162226Z 34016G34KT 300V360 4SM -RA BR BKN008 BKN014 OVC044 18/17 A2991 RMK AO2 PK WND 35042/2205 P0011 T01830172",2025-09-16 22:42:42.659101,2025-09-16 18:42:42.659144
"KPMH","Portsmouth Rgnl, OH, US",2025-09-16 22:24:00,"2025-09-16 18:24:00","VFR",28,11,90,7,NA,NA,1019.4,"METAR KPMH 162224Z 09007KT 060V120 10SM CLR 28/11 A3010 RMK AO2",2025-09-16 22:42:42.677685,2025-09-16 18:42:42.677783
"KOXB","Ocean City Muni, MD, US",2025-09-16 22:22:00,"2025-09-16 18:22:00","IFR",19.4,18.3,40,20,34,3,1016,"SPECI KOXB 162222Z AUTO 04020G34KT 3SM -RA BR OVC009 19/18 A3000 RMK AO2 PK WND 04034/2221 LTG DSNT SE-W CIG 007V012 P0002 T01940183",2025-09-16 22:42:42.685668,2025-09-16 18:42:42.685715
"KPHT","Paris/Henry Cnty, TN, US",2025-09-16 22:15:00,"2025-09-16 17:15:00","VFR",34,14,290,3,NA,9,1016.7,"METAR KPHT 162215Z AUTO 29003KT 9SM CLR 34/14 A3002 RMK A01",2025-09-16 22:42:42.692179,2025-09-16 18:42:42.692223
"KPCW","Port Clinton/Erie-Ottawa Arpt, OH, US",2025-09-16 22:15:00,"2025-09-16 22:15:00","VFR",25,18,90,7,NA,NA,1020.7,"METAR KPCW 162215Z AUTO 09007KT 10SM CLR 25/18 A3014 RMK AO2",2025-09-16 22:42:42.698632,2025-09-16 18:42:42.698675
"KOLY","Olney/Noble Arpt, IL, US",2025-09-16 22:15:00,"2025-09-16 22:15:00","VFR",31.9,16.6,10,6,NA,NA,1018.7,"METAR KOLY 162215Z AUTO 01006KT 10SM CLR 32/17 A3008 RMK AO2 T03190166",2025-09-16 22:42:42.705034,2025-09-16 18:42:42.705077
"KP33","Wilcox/Chocise Cnty, AZ, US",2025-09-16 22:15:00,"2025-09-16 15:15:00","VFR",31,12,180,18,26,NA,1019,"METAR KP33 162215Z AUTO 18018G26KT 10SM CLR 31/12 A3009 RMK AO2",2025-09-16 22:42:42.711396,2025-09-16 18:42:42.71144
"KP08","Coolidge Muni, AZ, US",2025-09-16 22:15:00,"2025-09-16 22:15:00","VFR",38,9,300,11,NA,NA,1011.6,"METAR KP08 162215Z AUTO 30011KT 10SM CLR 38/09 A2987 RMK AO2",2025-09-16 22:42:42.717847,2025-09-16 18:42:42.717892
"KP52","Cottonwood Arpt, AZ, US",2025-09-16 22:15:00,"2025-09-16 22:15:00","VFR",36,2,NA,5,17,NA,1016.3,"METAR KP52 162215Z AUTO VRB05G17KT 10SM FEW120 36/02 A3001 RMK AO2 LTG DSNT S",2025-09-16 22:42:42.72443,2025-09-16 18:42:42.724475
"KOWI","Ottawa Muni, KS, US",2025-09-16 22:10:00,"2025-09-16 22:10:00","VFR",32,21,130,8,NA,NA,1018,"METAR KOWI 162210Z AUTO 13008KT 10SM CLR 32/21 A3006 RMK AO2 PWINO",2025-09-16 22:42:42.730943,2025-09-16 18:42:42.730988
"KOLS","Nogales Intl, AZ, US",2025-09-16 22:09:00,"2025-09-16 15:09:00","VFR",30,11.7,140,7,NA,NA,1018,"SPECI KOLS 162209Z AUTO 14007KT 10SM TS OVC075 30/12 A3006 RMK AO2 LTG DSNT W TSB03 T03000117",2025-09-16 22:42:42.737354,2025-09-16 18:42:42.737398
"KPIH","Pocatello Rgnl, ID, US",2025-09-16 22:03:00,"2025-09-16 16:03:00","VFR",22.8,5,20,11,17,NA,1024.1,"SPECI KPIH 162203Z 02011G17KT 10SM FEW060 23/05 A3024 RMK AO2 T02280050",2025-09-16 22:42:42.743737,2025-09-16 18:42:42.743781
"KOTG","Worthington Muni, MN, US",2025-09-16 21:56:00,"2025-09-16 21:56:00","VFR",31.1,16.7,210,5,NA,NA,1019,"METAR KOTG 162156Z AUTO 21005KT 10SM CLR 31/17 A3009 RMK AO2 SLP179 T03110167",2025-09-16 22:42:42.750112,2025-09-16 18:42:42.750155
"KOTH","North Bend/SW Oregon Rgnl, OR, US",2025-09-16 21:56:00,"2025-09-16 14:56:00","VFR",22.2,13.9,280,11,NA,NA,1015,"METAR KOTH 162156Z 28011KT 10SM CLR 22/14 A2997 RMK AO2 SLP147 T02220139",2025-09-16 22:42:42.756456,2025-09-16 18:42:42.7565
"KOWB","Owensboro/Daviess Cnty, KY, US",2025-09-16 21:56:00,"2025-09-16 16:56:00","VFR",32.2,15,90,10,18,NA,1017.7,"METAR KOWB 162156Z 09010G18KT 10SM CLR 32/15 A3005 RMK AO2 SLP173 T03220150",2025-09-16 22:42:42.76277,2025-09-16 18:42:42.762832
"KOXC","Oxford Arpt, CT, US",2025-09-16 21:56:00,"2025-09-16 17:56:00","VFR",20.6,11.7,120,4,NA,NA,1024.1,"METAR KOXC 162156Z 12004KT 10SM CLR 21/12 A3024 RMK AO2 SLP249 T02060117 $",2025-09-16 22:42:42.769083,2025-09-16 18:42:42.769128
"KOKK","Kokomo Muni, IN, US",2025-09-16 21:56:00,"2025-09-16 17:56:00","VFR",28.3,12.8,110,5,NA,NA,1020.4,"METAR KOKK 162156Z AUTO 11005KT 10SM CLR 28/13 A3013 RMK AO2 SLP201 T02830128 $",2025-09-16 22:42:42.77555,2025-09-16 18:42:42.775596
"KOLU","Columbus Muni, NE, US",2025-09-16 21:56:00,"2025-09-16 21:56:00","VFR",30.6,20.6,160,8,NA,NA,1018.4,"METAR KOLU 162156Z AUTO 16008KT 10SM SCT060 SCT075 31/21 A3007 RMK AO2 RAE01 SLP172 T03060206 PNO $",2025-09-16 22:42:42.78195,2025-09-16 18:42:42.781996
"KPHP","Philip Muni, SD, US",2025-09-16 21:55:00,"2025-09-16 15:55:00","VFR",20,14.4,150,3,NA,NA,1022.1,"METAR KPHP 162155Z AUTO 15003KT 10SM FEW120 20/14 A3018 RMK AO2 SLP210 T02000144",2025-09-16 22:42:42.788323,2025-09-16 18:42:42.788366
"KPAM","Tyndall AFB, FL, US",2025-09-16 21:55:00,"2025-09-16 16:55:00","VFR",29.2,16.7,200,11,NA,NA,1017.4,"METAR KPAM 162155Z 20011KT 10SM CLR 29/17 A3004 RMK AO2A SLP175 T02920167 $",2025-09-16 22:42:42.794725,2025-09-16 18:42:42.794769
"KOZR","Ozark/Cairns AAF, AL, US",2025-09-16 21:55:00,"2025-09-16 16:55:00","VFR",31.9,12.6,20,3,NA,NA,1017.4,"METAR KOZR 162155Z AUTO 02003KT 10SM CLR 32/13 A3004 RMK AO2 SLP172 T03190126",2025-09-16 22:42:42.814208,2025-09-16 18:42:42.814258
"KORH","Worcester Muni, MA, US",2025-09-16 21:54:00,"2025-09-16 17:54:00","VFR",17.8,5,60,5,NA,NA,1024.8,"METAR KORH 162154Z 06005KT 10SM CLR 18/05 A3026 RMK AO2 SLP249 T01780050",2025-09-16 22:42:42.821258,2025-09-16 18:42:42.821303
"KPLN","Pellston Rgnl, MI, US",2025-09-16 21:54:00,"2025-09-16 17:54:00","VFR",25,13.9,50,6,NA,NA,1022.8,"METAR KPLN 162154Z AUTO 05006KT 10SM CLR 25/14 A3020 RMK AO2 SLP227 T02500139",2025-09-16 22:42:42.827727,2025-09-16 18:42:42.827779
"KOLM","Olympia Rgnl, WA, US",2025-09-16 21:54:00,"2025-09-16 14:54:00","VFR",29.4,11.1,NA,4,NA,NA,1014.3,"METAR KOLM 162154Z VRB04KT 10SM CLR 29/11 A2995 RMK AO2 SLP140 T02940111",2025-09-16 22:42:42.834508,2025-09-16 18:42:42.834562
"KPIA","Peoria Intl, IL, US",2025-09-16 21:54:00,"2025-09-16 16:54:00","VFR",31.7,10,10,3,NA,NA,1019.7,"METAR KPIA 162154Z 01003KT 10SM CLR 32/10 A3011 RMK AO2 SLP191 T03170100",2025-09-16 22:42:42.84098,2025-09-16 18:42:42.841023
"KPHL","Philadelphia Intl, PA, US",2025-09-16 21:54:00,"2025-09-16 17:54:00","VFR",21.7,12.2,50,9,23,NA,1020.4,"METAR KPHL 162154Z 05009G23KT 10SM FEW045 BKN100 BKN140 OVC300 22/12 A3013 RMK AO2 SLP204 T02170122 $",2025-09-16 22:42:42.847368,2025-09-16 18:42:42.847411
"KONT","Ontario Intl, CA, US",2025-09-16 21:53:00,"2025-09-16 14:53:00","VFR",36.7,12.8,250,9,16,NA,1012.6,"METAR KONT 162153Z 25009G16KT 10SM FEW090 FEW150 37/13 A2990 RMK AO2 SLP103 T03670128 $",2025-09-16 22:42:42.853734,2025-09-16 18:42:42.853777
"KPMP","Pompano Beach Arpt, FL, US",2025-09-16 21:53:00,"2025-09-16 17:53:00","VFR",29.4,22.2,0,0,NA,NA,1016,"METAR KPMP 162153Z AUTO 00000KT 10SM CLR 29/22 A3000 RMK AO2 SLP160 T02940222",2025-09-16 22:42:42.860179,2025-09-16 18:42:42.860223
"KOSH","Oshkosh/Wittman Rgnl, WI, US",2025-09-16 21:53:00,"2025-09-16 16:53:00","VFR",28.3,16.1,160,5,NA,NA,1021.1,"METAR KOSH 162153Z 16005KT 10SM CLR 28/16 A3015 RMK AO2 SLP201 T02830161",2025-09-16 22:42:42.866563,2025-09-16 18:42:42.866606
"KOWD","Norwood Mem, MA, US",2025-09-16 21:53:00,"2025-09-16 17:53:00","VFR",18.9,12.8,40,4,NA,NA,1024.5,"METAR KOWD 162153Z 04004KT 10SM CLR 19/13 A3025 RMK AO2 SLP243 T01890128",2025-09-16 22:42:42.872927,2025-09-16 18:42:42.87297
"KPMD","Palmdale Rgnl, CA, US",2025-09-16 21:53:00,"2025-09-16 14:53:00","VFR",35,7.8,320,9,15,NA,1016,"METAR KPMD 162153Z 32009G15KT 10SM CLR 35/08 A3000 RMK AO2 SLP127 T03500078",2025-09-16 22:42:42.879306,2025-09-16 18:42:42.879349
"KOPF","Miami/Opa Locka Arpt, FL, US",2025-09-16 21:53:00,"2025-09-16 17:53:00","VFR",27.2,24.4,0,0,NA,NA,1016,"METAR KOPF 162153Z 00000KT 10SM CLR 27/24 A3000 RMK AO2 SLP160 T02720244",2025-09-16 22:42:42.885724,2025-09-16 18:42:42.885769
"KPKD","Park Rapids/Konshok Fld, MN, US",2025-09-16 21:53:00,"2025-09-16 16:53:00","VFR",28.9,16.1,300,7,NA,NA,1018,"METAR KPKD 162153Z AUTO 30007KT 10SM SCT055 29/16 A3006 RMK AO2 SLP174 T02890161",2025-09-16 22:42:42.892169,2025-09-16 18:42:42.892223
"KOVS","Boscobel Arpt, WI, US",2025-09-16 21:53:00,"2025-09-16 21:53:00","VFR",30.6,16.7,100,3,NA,NA,1020.1,"METAR KOVS 162153Z AUTO 10003KT 10SM CLR 31/17 A3012 RMK AO2 SLP198 T03060167",2025-09-16 22:42:42.898533,2025-09-16 18:42:42.898576
"KPDK","Atlanta/Dekalb-Peachtree Arpt, GA, US",2025-09-16 21:53:00,"2025-09-16 17:53:00","VFR",29.4,14.4,330,6,NA,NA,1019,"METAR KPDK 162153Z AUTO 33006KT 10SM CLR 29/14 A3009 RMK AO2 LTG DSNT SW SLP174 T02940144",2025-09-16 22:42:42.904898,2025-09-16 18:42:42.904942
"KPDX","Portland Intl, OR, US",2025-09-16 21:53:00,"2025-09-16 14:53:00","VFR",31.1,10,90,13,24,NA,1013,"METAR KPDX 162153Z 09013G24KT 10SM CLR 31/10 A2991 RMK AO2 PK WND 09026/2130 SLP128 T03110100",2025-09-16 22:42:42.911284,2025-09-16 18:42:42.911328
"KPEO","Penn Yan Arpt, NY, US",2025-09-16 21:53:00,"2025-09-16 21:53:00","VFR",24.4,13.3,NA,NA,NA,NA,1022.4,"METAR KPEO 162153Z AUTO 10SM CLR 24/13 A3019 RMK AO2 SLP219 T02440133",2025-09-16 22:42:42.917645,2025-09-16 18:42:42.91769
"KONO","Ontario Muni, OR, US",2025-09-16 21:53:00,"2025-09-16 15:53:00","VFR",26.7,7.8,NA,4,NA,NA,1022.1,"METAR KONO 162153Z AUTO VRB04KT 10SM CLR 27/08 A3018 RMK AO2 SLP210 T02670078",2025-09-16 22:42:42.924158,2025-09-16 18:42:42.924204
"KOMK","Omak Arpt, WA, US",2025-09-16 21:53:00,"2025-09-16 14:53:00","VFR",26.1,10,230,6,NA,NA,1021.4,"METAR KOMK 162153Z AUTO 23006KT 10SM CLR 26/10 A3016 RMK AO2 SLP210 T02610100",2025-09-16 22:42:42.930632,2025-09-16 18:42:42.930677
"KPHD","New Philadelphia/Clever Fld, OH, US",2025-09-16 21:53:00,"2025-09-16 17:53:00","VFR",27.8,10,NA,3,NA,NA,1020.4,"METAR KPHD 162153Z AUTO VRB03KT 10SM CLR 28/10 A3013 RMK AO2 SLP197 T02780100",2025-09-16 22:42:42.95184,2025-09-16 18:42:42.951892
"KPGD","Punta Gorda Arpt, FL, US",2025-09-16 21:53:00,"2025-09-16 17:53:00","VFR",31.1,19.4,260,9,NA,NA,1016.3,"METAR KPGD 162153Z 26009KT 10SM CLR 31/19 A3001 RMK AO2 SLP160 T03110194",2025-09-16 22:42:42.958869,2025-09-16 18:42:42.958915
"KOTM","Ottumwa Rgnl, IA, US",2025-09-16 21:53:00,"2025-09-16 16:53:00","VFR",32.2,15.6,170,7,NA,NA,1018.7,"METAR KOTM 162153Z AUTO 17007KT 10SM CLR 32/16 A3008 RMK AO2 SLP178 T03220156",2025-09-16 22:42:42.965281,2025-09-16 18:42:42.965325
"KPDT","Pendleton/E Oregon Rgnl, OR, US",2025-09-16 21:53:00,"2025-09-16 14:53:00","VFR",26.7,8.9,50,10,NA,NA,1020.1,"METAR KPDT 162153Z 05010KT 10SM CLR 27/09 A3012 RMK AO2 SLP188 T02670089",2025-09-16 22:42:42.971687,2025-09-16 18:42:42.971731
"KPGA","Page Muni, AZ, US",2025-09-16 21:53:00,"2025-09-16 14:53:00","VFR",31.7,-3.3,NA,5,NA,NA,1018.4,"METAR KPGA 162153Z AUTO VRB05KT 10SM CLR 32/M03 A3007 RMK AO2 SLP115 T03171033",2025-09-16 22:42:42.978152,2025-09-16 18:42:42.978196
"KOVE","Oroville Muni, CA, US",2025-09-16 21:53:00,"2025-09-16 14:53:00","VFR",33.3,10,NA,4,NA,NA,1013.6,"METAR KOVE 162153Z AUTO VRB04KT 10SM CLR 33/10 A2993 RMK AO2 SLP137 T03330100",2025-09-16 22:42:42.984636,2025-09-16 18:42:42.984687
"KPIE","St Petersburg-Clearwater Intl, FL, US",2025-09-16 21:53:00,"2025-09-16 17:53:00","VFR",30,21.1,330,11,NA,NA,1016.3,"METAR KPIE 162153Z 33011KT 10SM BKN060 30/21 A3001 RMK AO2 SLP162 T03000211",2025-09-16 22:42:42.991126,2025-09-16 18:42:42.991169
"KPBG","Plattsburgh Intl, NY, US",2025-09-16 21:53:00,"2025-09-16 17:53:00","VFR",22.8,9.4,30,3,NA,NA,1023.1,"METAR KPBG 162153Z AUTO 03003KT 10SM CLR 23/09 A3021 RMK AO2 SLP230 T02280094",2025-09-16 22:42:42.997531,2025-09-16 18:42:42.997574
"KORL","Orlando/Executive, FL, US",2025-09-16 21:53:00,"2025-09-16 17:53:00","VFR",28.9,20.6,50,14,20,NA,1017,"METAR KORL 162153Z 05014G20KT 10SM SCT038 BKN049 OVC110 29/21 A3003 RMK AO2 SLP171 T02890206",2025-09-16 22:42:43.003997,2025-09-16 18:42:43.004041
"KPBI","Palm Beach Intl, FL, US",2025-09-16 21:53:00,"2025-09-16 17:53:00","VFR",29.4,22.8,70,5,NA,NA,1016.3,"METAR KPBI 162153Z 07005KT 10SM -RA SCT043 BKN080 BKN250 29/23 A3001 RMK AO2 RAB44 TSE32 SLP161 OCNL LTGIC DSNT SW CB DSNT SW P0000 T02940228 $",2025-09-16 22:42:43.010378,2025-09-16 18:42:43.010421
"KOLF","Wolf Point/Clayton Arpt, MT, US",2025-09-16 21:53:00,"2025-09-16 15:53:00","VFR",27.2,9.4,30,8,NA,NA,1021.8,"METAR KOLF 162153Z AUTO 03008KT 10SM CLR 27/09 A3017 RMK AO2 SLP211 T02720094 $",2025-09-16 22:42:43.016767,2025-09-16 18:42:43.016828
"KPAH","Paducah/Barkley Rgnl, KY, US",2025-09-16 21:53:00,"2025-09-16 16:53:00","VFR",31.1,17.8,350,5,NA,NA,1017,"METAR KPAH 162153Z 35005KT 10SM CLR 31/18 A3003 RMK AO2 SLP164 T03110178",2025-09-16 22:42:43.02315,2025-09-16 18:42:43.023195
"KPIL","Port Isabel/Cameron Cnty, TX, US",2025-09-16 21:53:00,"2025-09-16 21:53:00","VFR",30,22.8,50,13,NA,NA,1015.7,"METAR KPIL 162153Z AUTO 05013KT 10SM FEW028 BKN037 BKN048 30/23 A2999 RMK AO2 SLP154 T03000228",2025-09-16 22:42:43.029552,2025-09-16 18:42:43.029599
"KPAE","Everett/Paine Fld, WA, US",2025-09-16 21:53:00,"2025-09-16 14:53:00","VFR",28.9,10,0,0,NA,NA,1015.3,"METAR KPAE 162153Z 00000KT 10SM CLR 29/10 A2998 RMK AO2 SLP150 T02890100",2025-09-16 22:42:43.035989,2025-09-16 18:42:43.036033
"KPIR","Pierre Muni, SD, US",2025-09-16 21:53:00,"2025-09-16 16:53:00","VFR",24.4,15,310,12,NA,NA,1020.7,"METAR KPIR 162153Z AUTO 31012KT 10SM CLR 24/15 A3014 RMK AO2 SLP194 T02440150",2025-09-16 22:42:43.042574,2025-09-16 18:42:43.042617
"KPKB","Parkersburg/Mid Ohio Valley Rgnl, WV, US",2025-09-16 21:53:00,"2025-09-16 17:53:00","VFR",26.7,8.3,100,5,NA,NA,1020.1,"METAR KPKB 162153Z 10005KT 10SM CLR 27/08 A3012 RMK AO2 SLP195 T02670083",2025-09-16 22:42:43.04903,2025-09-16 18:42:43.049074
"KOSU","Columbus/Ohio State Univ Arpt, OH, US",2025-09-16 21:53:00,"2025-09-16 17:53:00","VFR",28.3,10,60,4,NA,NA,1019.7,"METAR KOSU 162153Z 06004KT 10SM CLR 28/10 A3011 RMK AO2 SLP191 T02830100",2025-09-16 22:42:43.055423,2025-09-16 18:42:43.055467
"KORE","Orange Muni, MA, US",2025-09-16 21:52:00,"2025-09-16 21:52:00","VFR",22.2,9.4,80,4,NA,NA,1024.5,"METAR KORE 162152Z AUTO 08004KT 10SM CLR 22/09 A3025 RMK AO2 SLP243 T02220094",2025-09-16 22:42:43.061987,2025-09-16 18:42:43.062032
"KOMA","Omaha/Eppley Fld, NE, US",2025-09-16 21:52:00,"2025-09-16 16:52:00","VFR",30.6,18.9,140,6,NA,NA,1018,"METAR KOMA 162152Z 14006KT 10SM FEW040 SCT070CB BKN250 31/19 A3006 RMK AO2 RAB01E37 SLP170 CB N AND SE-SW MOV NE P0002 T03060189",2025-09-16 22:42:43.068666,2025-09-16 18:42:43.068713
"KORD","Chicago/O'Hare Intl, IL, US",2025-09-16 21:51:00,"2025-09-16 16:51:00","VFR",26.7,13.3,100,10,NA,NA,1021.4,"METAR KORD 162151Z 10010KT 10SM BKN300 27/13 A3016 RMK AO2 SLP208 T02670133 $",2025-09-16 22:42:43.088436,2025-09-16 18:42:43.088484
"KPHX","Phoenix/Sky Harbor Intl, AZ, US",2025-09-16 21:51:00,"2025-09-16 14:51:00","VFR",40,10.6,290,9,17,NA,1010.2,"METAR KPHX 162151Z 29009G17KT 10SM FEW100 FEW160 SCT250 40/11 A2983 RMK AO2 SLP079 CB DSNT E-SE T04000106",2025-09-16 22:42:43.095145,2025-09-16 18:42:43.095189
"KPIT","Pittsburgh Intl, PA, US",2025-09-16 21:51:00,"2025-09-16 17:51:00","VFR",27.2,9.4,20,6,NA,NA,1020.7,"METAR KPIT 162151Z 02006KT 10SM SCT070 SCT160 BKN250 27/09 A3014 RMK AO2 SLP205 T02720094 $",2025-09-16 22:42:43.101539,2025-09-16 18:42:43.101595
"KOXR","Oxnard Arpt, CA, US",2025-09-16 21:51:00,"2025-09-16 14:51:00","VFR",23.3,17.8,280,9,NA,NA,1013.3,"METAR KOXR 162151Z 28009KT 10SM CLR 23/18 A2992 RMK AO2 SLP130 T02330178 $",2025-09-16 22:42:43.107898,2025-09-16 18:42:43.107942
"KOLV","Olive Branch Arpt, MS, US",2025-09-16 21:50:00,"2025-09-16 16:50:00","VFR",34,15,110,6,NA,NA,1016.3,"METAR KOLV 162150Z 11006KT 10SM SCT095 34/15 A3001",2025-09-16 22:42:43.11435,2025-09-16 18:42:43.114395
"KOQU","N Kingston/Quonset Arpt, RI, US",2025-09-16 21:50:00,"2025-09-16 17:50:00","VFR",21,14,100,8,NA,NA,1023.5,"METAR KOQU 162150Z AUTO 10008KT 10SM SCT080 21/14 A3022 RMK AO2",2025-09-16 22:42:43.120842,2025-09-16 18:42:43.120891
"KPAO","Palo Alto Arpt, CA, US",2025-09-16 21:47:00,"2025-09-16 14:47:00","VFR",26,17,350,18,NA,NA,1013.6,"METAR KPAO 162147Z 35018KT 10SM SKC 26/17 A2993",2025-09-16 22:42:43.1273,2025-09-16 18:42:43.127343
"KOUN","Norman/Univ Oklahoma Arpt, OK, US",2025-09-16 21:45:00,"2025-09-16 16:45:00","VFR",33,16,110,8,NA,NA,1018,"METAR KOUN 162145Z 11008KT 10SM SCT070 33/16 A3006",2025-09-16 22:42:43.133701,2025-09-16 18:42:43.133745
"KRCZ","Rockingham/Richmond Cnty, NC, US",2025-09-16 22:40:00,"2025-09-16 22:40:00","VFR",25.2,10.7,20,4,NA,NA,1018.7,"METAR KRCZ 162240Z AUTO 02004KT 10SM CLR 25/11 A3008 RMK AO2 T02520107",2025-09-16 22:42:44.968696,2025-09-16 18:42:44.968742
"KRCR","Rochester/Fulton Cnty, IN, US",2025-09-16 22:35:00,"2025-09-16 18:35:00","VFR",27,13,20,5,NA,NA,1020.7,"METAR KRCR 162235Z AUTO 02005KT 10SM CLR 27/13 A3014 RMK AO2",2025-09-16 22:42:44.975298,2025-09-16 18:42:44.975343
"KPSK","Dublin/New River Valley Arpt, VA, US",2025-09-16 22:35:00,"2025-09-16 18:35:00","VFR",18,11.3,0,0,NA,NA,1021.8,"METAR KPSK 162235Z AUTO 00000KT 10SM OVC110 18/11 A3017 RMK AO2 T01800113",2025-09-16 22:42:44.981735,2025-09-16 18:42:44.981778
"KRLD","Richland Arpt, WA, US",2025-09-16 22:35:00,"2025-09-16 22:35:00","VFR",28.3,9.8,30,4,NA,NA,1019,"METAR KRLD 162235Z AUTO 03004KT 10SM CLR 28/10 A3009 RMK AO2 T02830098",2025-09-16 22:42:44.988275,2025-09-16 18:42:44.988319
"KPVB","Platteville Muni, WI, US",2025-09-16 22:35:00,"2025-09-16 22:35:00","VFR",29.3,15.7,0,0,NA,NA,1021.1,"METAR KPVB 162235Z AUTO 00000KT 10SM CLR 29/16 A3015 RMK AO1 T02930157",2025-09-16 22:42:44.994868,2025-09-16 18:42:44.994916
"KPUJ","Dallas/Paulding Cnty, GA, US",2025-09-16 22:35:00,"2025-09-16 22:35:00","VFR",23,17,0,0,NA,NA,1019.7,"METAR KPUJ 162235Z AUTO 00000KT 10SM CLR 23/17 A3011 RMK AO2 LTG DSNT S",2025-09-16 22:42:45.014091,2025-09-16 18:42:45.014139
"KPNT","Pontiac Muni, IL, US",2025-09-16 22:35:00,"2025-09-16 22:35:00","VFR",29.7,10.2,60,8,NA,NA,1020.4,"METAR KPNT 162235Z AUTO 06008KT 10SM CLR 30/10 A3013 RMK AO2 T02970102",2025-09-16 22:42:45.021173,2025-09-16 18:42:45.021218
"KRCM","Warrensburg Arpt, MO, US",2025-09-16 22:35:00,"2025-09-16 22:35:00","VFR",32,14,300,3,NA,NA,1018.7,"METAR KRCM 162235Z AUTO 30003KT 10SM SCT090 32/14 A3008 RMK AO2 LTG DSNT N AND NW",2025-09-16 22:42:45.027635,2025-09-16 18:42:45.027706
"KRCX","Ladysmith/Rusk Cnty, WI, US",2025-09-16 22:35:00,"2025-09-16 22:35:00","VFR",26.4,20.2,180,5,NA,NA,1020.7,"METAR KRCX 162235Z AUTO 18005KT 10SM CLR 26/20 A3014 RMK AO2 T02640202",2025-09-16 22:42:45.034185,2025-09-16 18:42:45.034228
"KRAS","Port Aransas/Mustang Beach Arpt, TX, US",2025-09-16 22:35:00,"2025-09-16 22:35:00","VFR",NA,NA,80,12,NA,NA,1017,"METAR KRAS 162235Z AUTO 08012KT 10SM SCT035 A3003 RMK AO2",2025-09-16 22:42:45.040883,2025-09-16 18:42:45.040929
"KPOV","Ravenna/Portage Cnty, OH, US",2025-09-16 22:35:00,"2025-09-16 22:35:00","VFR",24.4,13.9,10,5,NA,NA,1021.1,"METAR KPOV 162235Z AUTO 01005KT 10SM CLR 24/14 A3015 RMK AO2 T02440139 PWINO",2025-09-16 22:42:45.047352,2025-09-16 18:42:45.047394
"KPTB","Petersburg/Dinwiddie Cnty, VA, US",2025-09-16 22:35:00,"2025-09-16 18:35:00","MVFR",16.1,15.1,330,7,NA,5,1018.7,"METAR KPTB 162235Z AUTO 33007KT 5SM -RA OVC010 16/15 A3008 RMK AO2 P0001 T01610151",2025-09-16 22:42:45.053736,2025-09-16 18:42:45.053777
"KPWC","Pine River Rgnl, MN, US",2025-09-16 22:35:00,"2025-09-16 22:35:00","VFR",28,18,270,5,NA,NA,1019,"METAR KPWC 162235Z AUTO 27005KT 10SM CLR 28/18 A3009 RMK AO2",2025-09-16 22:42:45.060205,2025-09-16 18:42:45.060251
"KROS","Rush City Rgnl, MN, US",2025-09-16 22:35:00,"2025-09-16 22:35:00","VFR",29.5,18.3,190,4,NA,NA,1018,"METAR KROS 162235Z AUTO 19004KT 10SM CLR 30/18 A3006 RMK AO2 T02950183",2025-09-16 22:42:45.066682,2025-09-16 18:42:45.066726
"KRMY","Marshall/Brooks Fld, MI, US",2025-09-16 22:35:00,"2025-09-16 22:35:00","VFR",25.8,10.9,0,0,NA,NA,1021.8,"METAR KRMY 162235Z AUTO 00000KT 10SM CLR 26/11 A3017 RMK AO2 T02580109",2025-09-16 22:42:45.07321,2025-09-16 18:42:45.073254
"KPPO","La Porte Muni, IN, US",2025-09-16 22:35:00,"2025-09-16 17:35:00","VFR",24,16,360,9,NA,NA,1021.4,"METAR KPPO 162235Z AUTO 36009KT 10SM CLR 24/16 A3016 RMK AO2",2025-09-16 22:42:45.079645,2025-09-16 18:42:45.079691
"KPRO","Perry Muni, IA, US",2025-09-16 22:35:00,"2025-09-16 17:35:00","VFR",29.1,20.1,130,6,NA,NA,1018.7,"METAR KPRO 162235Z AUTO 13006KT 10SM CLR 29/20 A3008 RMK AO2 T02910201",2025-09-16 22:42:45.086139,2025-09-16 18:42:45.086184
"KPZQ","Rogers City/Presque Isle Arpt, MI, US",2025-09-16 22:35:00,"2025-09-16 22:35:00","VFR",20,15,80,4,NA,NA,1022.8,"METAR KPZQ 162235Z AUTO 08004KT 10SM CLR 20/15 A3020 RMK AO2",2025-09-16 22:42:45.092629,2025-09-16 18:42:45.092674
"KRBO","Robstown/Nueces Cnty, TX, US",2025-09-16 22:35:00,"2025-09-16 22:35:00","VFR",32.3,19.7,120,10,NA,NA,1016.3,"METAR KRBO 162235Z AUTO 12010KT 10SM CLR 32/20 A3001 RMK AO2 T03230197",2025-09-16 22:42:45.099109,2025-09-16 18:42:45.099154
"KPPA","Pampa/Lefors Fld, TX, US",2025-09-16 22:35:00,"2025-09-16 17:35:00","VFR",31.6,14.1,160,17,21,NA,1020.1,"METAR KPPA 162235Z AUTO 16017G21KT 10SM SCT070 SCT080 32/14 A3012 RMK AO2 T03160141",2025-09-16 22:42:45.105557,2025-09-16 18:42:45.105601
"KPRS","Presidio/Lely Intl, TX, US",2025-09-16 22:35:00,"2025-09-16 22:35:00","VFR",32.2,11.9,80,9,NA,NA,1018,"METAR KPRS 162235Z AUTO 08009KT 10SM SCT090 32/12 A3006 RMK AO2 T03220119",2025-09-16 22:42:45.112013,2025-09-16 18:42:45.112056
"KRID","Richmond Muni, IN, US",2025-09-16 22:35:00,"2025-09-16 22:35:00","VFR",28,13,90,5,NA,NA,1020.4,"METAR KRID 162235Z AUTO 09005KT 10SM SCT075 28/13 A3013 RMK AO2",2025-09-16 22:42:45.118434,2025-09-16 18:42:45.118478
"KPOY","Powell Muni, WY, US",2025-09-16 22:35:00,"2025-09-16 16:35:00","VFR",17,4,350,15,19,NA,1026.2,"METAR KPOY 162235Z AUTO 35015G19KT 10SM VCTS CLR 17/04 A3030 RMK AO2 LTG DSNT N",2025-09-16 22:42:45.12496,2025-09-16 18:42:45.125006
"KRGK","Red Wing Rgnl, WI, US",2025-09-16 22:35:00,"2025-09-16 22:35:00","VFR",30,19,190,3,NA,NA,1018,"METAR KRGK 162235Z AUTO 19003KT 10SM SCT060 30/19 A3006 RMK AO2",2025-09-16 22:42:45.131466,2025-09-16 18:42:45.131512
"KRKR","Poteau/Kerr Arpt, OK, US",2025-09-16 22:35:00,"2025-09-16 22:35:00","VFR",34,18,160,3,NA,NA,1017.7,"METAR KRKR 162235Z AUTO 16003KT 10SM CLR 34/18 A3005 RMK AO2",2025-09-16 22:42:45.150544,2025-09-16 18:42:45.150592
"KPYX","Perryton/Ochiltree Cnty, TX, US",2025-09-16 22:35:00,"2025-09-16 22:35:00",NA,28.7,15.8,140,15,22,NA,1018.7,"METAR KPYX 162235Z AUTO 14015G22KT 10SM 29/16 A3008 RMK AO2 T02870158",2025-09-16 22:42:45.157384,2025-09-16 18:42:45.157428
"KPSO","Pagosa Springs/Stevens Fld, CO, US",2025-09-16 22:35:00,"2025-09-16 16:35:00","VFR",23,-2,260,12,24,NA,1026.8,"METAR KPSO 162235Z AUTO 26012G24KT 10SM CLR 23/M02 A3032 RMK AO2",2025-09-16 22:42:45.163779,2025-09-16 18:42:45.163843
"KPTT","Pratt Rgnl, KS, US",2025-09-16 22:35:00,"2025-09-16 17:35:00","VFR",32,14.8,170,16,19,NA,1018.4,"METAR KPTT 162235Z AUTO 17016G19KT 10SM CLR 32/15 A3007 RMK AO2 T03200148",2025-09-16 22:42:45.170115,2025-09-16 18:42:45.170159
"KPRG","Paris/Edgar Cnty, IL, US",2025-09-16 22:35:00,"2025-09-16 22:35:00","VFR",29.1,10.8,20,6,NA,NA,1019.7,"METAR KPRG 162235Z AUTO 02006KT 10SM CLR 29/11 A3011 RMK AO2 T02910108",2025-09-16 22:42:45.176485,2025-09-16 18:42:45.176528
"KPPQ","Pittsfield/Penstone Muni, IL, US",2025-09-16 22:35:00,"2025-09-16 22:35:00","IFR",32,12.8,50,7,NA,1.5,1019.4,"METAR KPPQ 162235Z AUTO 05007KT 1 1/2SM VV007 32/13 A3010 RMK AO2 T03200128",2025-09-16 22:42:45.183022,2025-09-16 18:42:45.183067
"KPTS","Pittsburg/Atkinson Muni, KS, US",2025-09-16 22:35:00,"2025-09-16 22:35:00","IFR",23,22,50,2,NA,2,1019.4,"METAR KPTS 162235Z AUTO 05002KT 2SM VCTS RA BR SCT003 SCT060 23/22 A3010 RMK AO2 LTG DSNT ALQDS",2025-09-16 22:42:45.189549,2025-09-16 18:42:45.189592
"KPSN","Palestine Muni, TX, US",2025-09-16 22:35:00,"2025-09-16 17:35:00","VFR",34,17,30,5,NA,NA,1017.7,"METAR KPSN 162235Z AUTO 03005KT 10SM FEW060 34/17 A3005 RMK AO2",2025-09-16 22:42:45.196079,2025-09-16 18:42:45.196125
"KRFI","Henderson/Rusk Cnty, TX, US",2025-09-16 22:35:00,"2025-09-16 22:35:00","VFR",37.1,16.5,0,0,NA,NA,1017.7,"METAR KRFI 162235Z AUTO 00000KT 10SM CLR 37/17 A3005 RMK AO2 T03710165",2025-09-16 22:42:45.202516,2025-09-16 18:42:45.202561
"KPVF","Placerville Arpt, CA, US",2025-09-16 22:35:00,"2025-09-16 15:35:00","VFR",32,3,250,9,NA,NA,1018.4,"METAR KPVF 162235Z AUTO 25009KT 10SM CLR 32/03 A3007 RMK AO1",2025-09-16 22:42:45.208923,2025-09-16 18:42:45.208967
"KRNV","Cleveland Muni, MS, US",2025-09-16 22:35:00,"2025-09-16 22:35:00","VFR",29.6,22.4,150,4,NA,NA,1015.7,"METAR KRNV 162235Z AUTO 15004KT 10SM FEW075 30/22 A2999 RMK AO2 RAE2217 P0000 T02960224",2025-09-16 22:42:45.215336,2025-09-16 18:42:45.215381
"KRMN","Stafford Rgnl, VA, US",2025-09-16 22:35:00,"2025-09-16 22:35:00","IFR",15.8,14,330,7,NA,2.5,1020.4,"METAR KRMN 162235Z AUTO 33007KT 2 1/2SM +RA SCT009 BKN025 OVC034 16/14 A3013 RMK AO2 P0057 T01580140 TSNO",2025-09-16 22:42:45.221696,2025-09-16 18:42:45.221739
"KRNP","Owosso Community Arpt, MI, US",2025-09-16 22:35:00,"2025-09-16 22:35:00","VFR",25.5,11.1,50,4,NA,NA,1022.1,"METAR KRNP 162235Z AUTO 05004KT 10SM CLR 26/11 A3018 RMK AO2 T02550111",2025-09-16 22:42:45.228185,2025-09-16 18:42:45.228229
"KPMV","Plattsmouth Muni, NE, US",2025-09-16 22:35:00,"2025-09-16 22:35:00","VFR",31,17.3,160,8,NA,NA,1018,"METAR KPMV 162235Z AUTO 16008KT 10SM CLR 31/17 A3006 RMK AO2 T03100173",2025-09-16 22:42:45.234542,2025-09-16 18:42:45.234586
"KRAW","Warsaw Muni, MO, US",2025-09-16 22:35:00,"2025-09-16 22:35:00","VFR",31.7,16,40,7,NA,NA,1019.4,"METAR KRAW 162235Z AUTO 04007KT 10SM CLR 32/16 A3010 RMK AO2 LTG DSNT S T03170160",2025-09-16 22:42:45.240907,2025-09-16 18:42:45.240952
"KPVW","Plainview/Hale Cnty, TX, US",2025-09-16 22:35:00,"2025-09-16 17:35:00","VFR",27.9,13.3,190,10,NA,NA,1021.1,"METAR KPVW 162235Z AUTO 19010KT 10SM CLR 28/13 A3015 RMK AO2 T02790133",2025-09-16 22:42:45.247257,2025-09-16 18:42:45.247302
"KRBW","Walterboro/Lowcountry Rgnl, SC, US",2025-09-16 22:35:00,"2025-09-16 18:35:00","VFR",27,13,0,0,NA,NA,1018.4,"METAR KRBW 162235Z AUTO 00000KT 10SM CLR 27/13 A3007 RMK AO2",2025-09-16 22:42:45.253748,2025-09-16 18:42:45.253795
"KPTD","Potsdam Muni, NY, US",2025-09-16 22:35:00,"2025-09-16 22:35:00","VFR",22,12,50,5,NA,NA,1022.8,"METAR KPTD 162235Z AUTO 05005KT 10SM CLR 22/12 A3020 RMK AO2 PNO",2025-09-16 22:42:45.260225,2025-09-16 18:42:45.26027
"KRHP","Andrews/W Carolina Rgnl, NC, US",2025-09-16 22:31:00,"2025-09-16 22:31:00","VFR",23.7,16.4,0,0,NA,NA,1020.7,"METAR KRHP 162231Z AUTO 00000KT 10SM BKN050 BKN075 24/16 A3014 RMK AO2 T02370164",2025-09-16 22:42:45.266687,2025-09-16 18:42:45.266732
"KPNM","Princeton Arpt, MN, US",2025-09-16 22:30:00,"2025-09-16 22:30:00","VFR",31,17,240,6,NA,NA,1018,"METAR KPNM 162230Z 24006KT 10SM CLR 31/17 A3006 RMK AO2",2025-09-16 22:42:45.286381,2025-09-16 18:42:45.286429
"KRPD","Rice Lake Rgnl, WI, US",2025-09-16 22:15:00,"2025-09-16 17:15:00","VFR",29,19.7,160,11,NA,NA,1020.1,"METAR KRPD 162215Z AUTO 16011KT 10SM CLR 29/20 A3012 RMK AO2 T02900197",2025-09-16 22:42:45.293104,2025-09-16 18:42:45.293148
"KRKW","Rockwood Muni, TN, US",2025-09-16 22:15:00,"2025-09-16 17:15:00","VFR",18,18,270,5,NA,NA,1020.1,"METAR KRKW 162215Z AUTO 27005KT 10SM SCT060 18/18 A3012 RMK A01",2025-09-16 22:42:45.299527,2025-09-16 18:42:45.29957
"KRNC","McMinnville/Warren Cnty, TN, US",2025-09-16 22:15:00,"2025-09-16 17:15:00","VFR",24,18,0,0,NA,NA,1018.7,"METAR KRNC 162215Z AUTO 00000KT 10SM FEW090 24/18 A3008 RMK A01",2025-09-16 22:42:45.305966,2025-09-16 18:42:45.306009
"KPWD","Plentywood/Sher-Wood Arpt, MT, US",2025-09-16 22:15:00,"2025-09-16 16:15:00","VFR",24,13,10,9,NA,9,1022.1,"METAR KPWD 162215Z AUTO 01009KT 9SM CLR 24/13 A3018 RMK AO2",2025-09-16 22:42:45.312208,2025-09-16 18:42:45.31225
"KPVJ","Pauls Valley Muni, OK, US",2025-09-16 22:15:00,"2025-09-16 22:15:00","VFR",33.1,15.5,0,0,NA,NA,1019,"METAR KPVJ 162215Z AUTO 00000KT 10SM CLR 33/16 A3009 RMK AO2 T03310155",2025-09-16 22:42:45.31864,2025-09-16 18:42:45.318685
"KPNA","Pinedale/Wentz Fld, WY, US",2025-09-16 22:15:00,"2025-09-16 16:15:00","VFR",17,-6,280,5,NA,NA,1026.2,"METAR KPNA 162215Z AUTO 28005KT 10SM BKN110 17/M06 A3030 RMK AO2",2025-09-16 22:42:45.325009,2025-09-16 18:42:45.325054
"KPRN","Greenville/Crenshaw Mem, AL, US",2025-09-16 22:00:00,"2025-09-16 22:00:00","VFR",31.1,13.3,100,5,NA,NA,1018,"METAR KPRN 162200Z AUTO 10005KT 10SM CLR 31/13 A3006 RMK AO2 SLP125 T03110133",2025-09-16 22:42:45.331374,2025-09-16 18:42:45.331428
"KROG","Rogers Muni/Carter Fld, AR, US",2025-09-16 21:58:00,"2025-09-16 16:58:00","VFR",30.6,20,330,6,NA,NA,1020.4,"METAR KROG 162158Z 33006KT 10SM CLR 31/20 A3013 RMK AO2 SLP187 T03060200",2025-09-16 22:42:45.337717,2025-09-16 18:42:45.337771
"KPRX","Paris/Cox Fld, TX, US",2025-09-16 21:56:00,"2025-09-16 16:56:00","VFR",33.9,18.9,330,6,NA,NA,1017.7,"METAR KPRX 162156Z AUTO 33006KT 10SM CLR 34/19 A3005 RMK AO2 SLP171 T03390189",2025-09-16 22:42:45.344076,2025-09-16 18:42:45.344121
"KPVC","Provincetown Muni, MA, US",2025-09-16 21:56:00,"2025-09-16 17:56:00","VFR",18.3,14.4,70,5,NA,NA,1024.8,"METAR KPVC 162156Z AUTO 07005KT 10SM CLR 18/14 A3026 RMK AO2 SLP245 T01830144 PNO $",2025-09-16 22:42:45.350482,2025-09-16 18:42:45.350526
"KPQI","Presque Isle Intl, ME, US",2025-09-16 21:56:00,"2025-09-16 17:56:00","VFR",21.7,12.8,0,0,NA,NA,1024.8,"METAR KPQI 162156Z AUTO 00000KT 10SM CLR 22/13 A3026 RMK AO2 SLP273 T02170128",2025-09-16 22:42:45.356874,2025-09-16 18:42:45.35692
"KPTN","Patterson/Williams Mem, LA, US",2025-09-16 21:56:00,"2025-09-16 16:56:00","VFR",30,21.1,220,5,NA,NA,1017.4,"METAR KPTN 162156Z AUTO 22005KT 10SM CLR 30/21 A3004 RMK AO2 LTG DSNT N TSE12 SLP172 T03000211 $",2025-09-16 22:42:45.363243,2025-09-16 18:42:45.363287
"KRDM","Redmond Muni, OR, US",2025-09-16 21:56:00,"2025-09-16 14:56:00","VFR",26.7,5,350,12,NA,NA,1019.7,"METAR KRDM 162156Z 35012KT 10SM CLR 27/05 A3011 RMK AO2 SLP180 T02670050",2025-09-16 22:42:45.369613,2025-09-16 18:42:45.369656
"KPWT","Bremerton Arpt, WA, US",2025-09-16 21:56:00,"2025-09-16 14:56:00","VFR",30.6,10,NA,3,NA,NA,1015,"METAR KPWT 162156Z AUTO VRB03KT 10SM CLR 31/10 A2997 RMK AO2 SLP149 T03060100",2025-09-16 22:42:45.376027,2025-09-16 18:42:45.376073
"KPTV","Porterville Muni, CA, US",2025-09-16 21:56:00,"2025-09-16 14:56:00","VFR",36.7,10.6,10,5,NA,NA,1012.6,"METAR KPTV 162156Z AUTO 01005KT 10SM CLR 37/11 A2990 RMK AO2 SLP120 T03670106 $",2025-09-16 22:42:45.382483,2025-09-16 18:42:45.382528
"KPWG","Mc Gregor Exec, TX, US",2025-09-16 21:56:00,"2025-09-16 21:56:00","VFR",33.9,16.1,100,8,NA,NA,1018,"METAR KPWG 162156Z AUTO 10008KT 10SM BKN075 34/16 A3006 RMK AO2 SLP173 T03390161",2025-09-16 22:42:45.388996,2025-09-16 18:42:45.389041
"KRKD","Rockland/Knox Cnty, ME, US",2025-09-16 21:56:00,"2025-09-16 17:56:00","VFR",18.9,13.9,210,3,NA,9,1024.8,"METAR KRKD 162156Z AUTO 21003KT 9SM CLR 19/14 A3026 RMK AO2 SLP247 T01890139 PNO $",2025-09-16 22:42:45.395434,2025-09-16 18:42:45.395479
"KPVU","Provo Muni, UT, US",2025-09-16 21:56:00,"2025-09-16 15:56:00","VFR",25,3.9,310,10,NA,NA,1022.1,"METAR KPVU 162156Z 31010KT 10SM CLR 25/04 A3018 RMK AO2 SLP171 T02500039",2025-09-16 22:42:45.415377,2025-09-16 18:42:45.415427
"KRCA","Ellsworth AFB, SD, US",2025-09-16 21:55:00,"2025-09-16 15:55:00","VFR",18.3,12.5,320,5,NA,NA,1022.4,"METAR KRCA 162155Z 32005KT 10SM BKN100 18/13 A3019 RMK AO2A SLP211 T01830125 PWINO $",2025-09-16 22:42:45.422411,2025-09-16 18:42:45.422454
"KRIV","Riverside/March ARB, CA, US",2025-09-16 21:55:00,"2025-09-16 14:55:00","VFR",36.8,10.9,340,6,NA,NA,1012.6,"METAR KRIV 162155Z AUTO 34006KT 10SM CLR 37/11 A2990 RMK AO2 SLP108 T03680109",2025-09-16 22:42:45.428795,2025-09-16 18:42:45.428891
"KPOE","Fort Polk AAF, LA, US",2025-09-16 21:55:00,"2025-09-16 16:55:00","VFR",34.2,19,330,3,NA,NA,1016.3,"METAR KPOE 162155Z AUTO 33003KT 10SM CLR 34/19 A3001 RMK AO2 LTG DSNT E-S SLP161 T03420190",2025-09-16 22:42:45.435179,2025-09-16 18:42:45.435222
"KPOB","Pope AAF, NC, US",2025-09-16 21:55:00,"2025-09-16 17:55:00","VFR",23.7,12.9,20,11,NA,NA,1018.7,"METAR KPOB 162155Z AUTO 02011KT 10SM BKN070 24/13 A3008 RMK AO2 SLP188 T02370129 $",2025-09-16 22:42:45.441499,2025-09-16 18:42:45.441542
"KRND","Randolph AFB, TX, US",2025-09-16 21:55:00,"2025-09-16 16:55:00","VFR",34.6,11.7,80,8,NA,NA,1017,"METAR KRND 162155Z AUTO 08008KT 10SM CLR 35/12 A3003 RMK AO2 SLP160 T03460117",2025-09-16 22:42:45.447912,2025-09-16 18:42:45.447957
"KPSM","Portsmouth Intl, NH, US",2025-09-16 21:55:00,"2025-09-16 17:55:00","VFR",20.1,10.8,160,4,NA,NA,1024.5,"METAR KPSM 162155Z 16004KT 10SM BKN200 20/11 A3025 RMK AO2A SLP246 T02010108",2025-09-16 22:42:45.454364,2025-09-16 18:42:45.45441
"KRNO","Reno/Tahoe Intl, NV, US",2025-09-16 21:55:00,"2025-09-16 14:55:00","VFR",29.4,-0.6,90,3,NA,NA,1020.7,"METAR KRNO 162155Z 09003KT 10SM CLR 29/M01 A3014 RMK AO2 SLP155 T02941006",2025-09-16 22:42:45.46089,2025-09-16 18:42:45.460935
"KRDR","Grand Forks AFB, ND, US",2025-09-16 21:55:00,"2025-09-16 16:55:00","VFR",28.9,14.7,300,10,NA,NA,1017,"METAR KRDR 162155Z AUTO 30010KT 10SM CLR 29/15 A3003 RMK AO2 SLP171 T02890147 $",2025-09-16 22:42:45.467256,2025-09-16 18:42:45.467299
"KRKS","Rock Springs/SW Wyoming Rgnl, WY, US",2025-09-16 21:54:00,"2025-09-16 15:54:00","VFR",17.8,4.4,210,8,20,NA,1025.5,"METAR KRKS 162154Z AUTO 21008G20KT 10SM CLR 18/04 A3028 RMK AO2 SLP197 T01780044",2025-09-16 22:42:45.473639,2025-09-16 18:42:45.473683
"KROA","Roanoke Rgnl, VA, US",2025-09-16 21:54:00,"2025-09-16 17:54:00","VFR",21.7,11.7,60,8,NA,NA,1021.4,"METAR KROA 162154Z 06008KT 10SM OVC075 22/12 A3016 RMK AO2 RAE06 SLP205 P0000 T02170117",2025-09-16 22:42:45.480035,2025-09-16 18:42:45.480079
"KRBL","Red Bluff Muni, CA, US",2025-09-16 21:54:00,"2025-09-16 14:54:00","VFR",34.4,7.8,120,8,NA,NA,1013.3,"METAR KRBL 162154Z AUTO 12008KT 10SM CLR 34/08 A2992 RMK AO2 SLP128 T03440078",2025-09-16 22:42:45.486406,2025-09-16 18:42:45.48645
"KRIC","Richmond Intl, VA, US",2025-09-16 21:54:00,"2025-09-16 17:54:00","MVFR",16.7,15.6,350,13,20,7,1018.4,"METAR KRIC 162154Z 35013G20KT 7SM -RA BKN010 OVC013 17/16 A3007 RMK AO2 RAB03 CIG 007V012 SLP185 P0004 T01670156",2025-09-16 22:42:45.492715,2025-09-16 18:42:45.492755
"KROC","Rochester Intl Arpt, NY, US",2025-09-16 21:54:00,"2025-09-16 17:54:00","VFR",23.3,10.6,50,8,NA,NA,1022.4,"METAR KROC 162154Z 05008KT 10SM SCT200 23/11 A3019 RMK AO2 SLP227 T02330106 $",2025-09-16 22:42:45.4991,2025-09-16 18:42:45.499144
"KPSF","Pittsfield Muni, MA, US",2025-09-16 21:54:00,"2025-09-16 17:54:00","VFR",20.6,12.8,120,4,NA,NA,1023.5,"METAR KPSF 162154Z AUTO 12004KT 10SM CLR 21/13 A3022 RMK AO2 SLP218 T02060128",2025-09-16 22:42:45.505448,2025-09-16 18:42:45.505492
"KRDG","Reading/Spaatz Fld, PA, US",2025-09-16 21:54:00,"2025-09-16 17:54:00","VFR",22.2,11.7,80,5,NA,NA,1021.1,"METAR KRDG 162154Z COR 08005KT 10SM BKN110 22/12 A3015 RMK AO2 SLP214 T02220117 $",2025-09-16 22:42:45.511873,2025-09-16 18:42:45.511928
"KRFD","Rockford Intl, IL, US",2025-09-16 21:54:00,"2025-09-16 16:54:00","VFR",29.4,12.8,140,4,NA,NA,1021.1,"METAR KRFD 162154Z 14004KT 10SM FEW250 29/13 A3015 RMK AO2 SLP206 T02940128",2025-09-16 22:42:45.518264,2025-09-16 18:42:45.518307
"KPNE","Philadelphia/NE Arpt, PA, US",2025-09-16 21:54:00,"2025-09-16 17:54:00","VFR",20.6,11.7,60,11,NA,NA,1021.8,"METAR KPNE 162154Z AUTO 06011KT 10SM FEW100 21/12 A3017 RMK AO2 SLP215 T02060117 TSNO",2025-09-16 22:42:45.524712,2025-09-16 18:42:45.524757
"KPTW","Pottstown/Heritage Fld, PA, US",2025-09-16 21:54:00,"2025-09-16 17:54:00","VFR",21.7,11.7,70,8,15,NA,1022.1,"METAR KPTW 162154Z AUTO 07008G15KT 10SM FEW110 22/12 A3018 RMK AO2 SLP216 T02170117",2025-09-16 22:42:45.531228,2025-09-16 18:42:45.531274
"KRDD","Redding Muni, CA, US",2025-09-16 21:53:00,"2025-09-16 14:53:00","VFR",34.4,5.6,NA,NA,NA,NA,1013,"METAR KRDD 162153Z 10SM CLR 34/06 A2991 RMK AO2 SLP123 T03440056",2025-09-16 22:42:45.55037,2025-09-16 18:42:45.550417
"KRAC","Racine/Batten Intl, WI, US",2025-09-16 21:53:00,"2025-09-16 16:53:00","VFR",23.3,16.7,110,7,NA,NA,1022.4,"METAR KRAC 162153Z AUTO 11007KT 10SM CLR 23/17 A3019 RMK AO2 SLP220 T02330167",2025-09-16 22:42:45.556994,2025-09-16 18:42:45.557039
"KPUC","Price/Buck Fld, UT, US",2025-09-16 21:53:00,"2025-09-16 15:53:00","VFR",26.1,-2.2,260,11,25,NA,1022.1,"METAR KPUC 162153Z AUTO 26011G25KT 10SM FEW100 26/M02 A3018 RMK AO2 PK WND 24036/2124 SLP146 T02611022",2025-09-16 22:42:45.563412,2025-09-16 18:42:45.563455
"KPSP","Palm Springs Intl, CA, US",2025-09-16 21:53:00,"2025-09-16 14:53:00","VFR",40,10.6,120,8,NA,NA,1010.6,"METAR KPSP 162153Z AUTO 12008KT 10SM CLR 40/11 A2984 RMK AO2 SLP100 T04000106",2025-09-16 22:42:45.569656,2025-09-16 18:42:45.5697
"KRIW","Riverton Rgnl, WY, US",2025-09-16 21:53:00,"2025-09-16 15:53:00","VFR",18.9,1.7,90,7,NA,NA,1024.8,"METAR KRIW 162153Z AUTO 09007KT 10SM FEW100 19/02 A3026 RMK AO2 SLP208 T01890017",2025-09-16 22:42:45.575991,2025-09-16 18:42:45.576035
"KPNC","Ponca City Rgnl, OK, US",2025-09-16 21:53:00,"2025-09-16 16:53:00","VFR",33.3,17.2,140,6,NA,NA,1017.7,"METAR KPNC 162153Z AUTO 14006KT 10SM SCT075 33/17 A3005 RMK AO2 SLP163 T03330172",2025-09-16 22:42:45.58234,2025-09-16 18:42:45.582388
"KRMG","Rome/Russell Arpt, GA, US",2025-09-16 21:53:00,"2025-09-16 17:53:00","VFR",31.7,15,70,3,NA,NA,1018.4,"METAR KRMG 162153Z AUTO 07003KT 10SM CLR 32/15 A3007 RMK AO2 SLP173 T03170150",2025-09-16 22:42:45.588788,2025-09-16 18:42:45.588852
"KPRB","Paso Robles Muni, CA, US",2025-09-16 21:53:00,"2025-09-16 14:53:00","VFR",36.1,7.2,240,8,NA,NA,1014,"METAR KPRB 162153Z AUTO 24008KT 10SM CLR 36/07 A2994 RMK AO2 SLP128 T03610072",2025-09-16 22:42:45.595193,2025-09-16 18:42:45.595236
"KPUW","Pullman/Moscow Rgnl, WA, US",2025-09-16 21:53:00,"2025-09-16 14:53:00","VFR",25.6,7.8,110,13,19,NA,1022.8,"METAR KPUW 162153Z AUTO 11013G19KT 10SM CLR 26/08 A3020 RMK AO2 SLP216 T02560078",2025-09-16 22:42:45.601561,2025-09-16 18:42:45.601606
"KRME","Rome/Griffiss Intl, NY, US",2025-09-16 21:53:00,"2025-09-16 17:53:00","VFR",26.1,12.8,130,8,NA,NA,1022.1,"METAR KRME 162153Z 13008KT 10SM CLR 26/13 A3018 RMK AO2 SLP218 T02610128",2025-09-16 22:42:45.60795,2025-09-16 18:42:45.607995
"KRNM","Ramona Arpt, CA, US",2025-09-16 21:53:00,"2025-09-16 21:53:00","VFR",34.4,13.9,270,10,16,NA,1013.6,"METAR KRNM 162153Z 27010G16KT 240V300 10SM SCT080 34/14 A2993 RMK AO2 SLP117 T03440139",2025-09-16 22:42:45.614348,2025-09-16 18:42:45.614394
"KPSC","Pasco/Tri Cities Arpt, WA, US",2025-09-16 21:53:00,"2025-09-16 14:53:00","VFR",26.1,11.1,330,4,NA,NA,1019.7,"METAR KPSC 162153Z 33004KT 10SM CLR 26/11 A3011 RMK AO2 SLP193 T02610111",2025-09-16 22:42:45.620909,2025-09-16 18:42:45.620969
"KPTK","Pontiac/Oakland Intl, MI, US",2025-09-16 21:53:00,"2025-09-16 17:53:00","VFR",28,9,20,3,NA,NA,1021.8,"METAR KPTK 162153Z 02003KT 10SM BKN250 28/09 A3017 RMK SLPNO",2025-09-16 22:42:45.627344,2025-09-16 18:42:45.627388
"KRIL","Rifle/Garfield Cnty, CO, US",2025-09-16 21:53:00,"2025-09-16 15:53:00","VFR",25.6,1.7,20,6,NA,NA,1020.1,"METAR KRIL 162153Z AUTO 02006KT 10SM CLR 26/02 A3012 RMK AO2 PK WND 34028/2055 LTG DSNT NE AND SE SLP143 T02560017",2025-09-16 22:42:45.633718,2025-09-16 18:42:45.633763
"KRHI","Rhinelander/Oneida Cnty, WI, US",2025-09-16 21:53:00,"2025-09-16 16:53:00","VFR",26.7,17.2,230,6,NA,NA,1021.8,"METAR KRHI 162153Z AUTO 23006KT 10SM CLR 27/17 A3017 RMK AO2 SLP211 T02670172",2025-09-16 22:42:45.640349,2025-09-16 18:42:45.640392
"KPOU","Poughkeepsie/Hudson Valley Rgnl, NY, US",2025-09-16 21:53:00,"2025-09-16 17:53:00","VFR",22.8,13.3,110,8,NA,NA,1022.4,"METAR KPOU 162153Z AUTO 11008KT 10SM CLR 23/13 A3019 RMK AO2 SLP218 T02280133",2025-09-16 22:42:45.646891,2025-09-16 18:42:45.646935
"KPSX","Palacios Muni, TX, US",2025-09-16 21:53:00,"2025-09-16 16:53:00","VFR",32.2,20,110,15,NA,NA,1017,"METAR KPSX 162153Z AUTO 11015KT 10SM -RA CLR 32/20 A3003 RMK AO2 SLP167 P0000 T03220200",2025-09-16 22:42:45.65328,2025-09-16 18:42:45.653323
"KPUB","Pueblo Mem Arpt, CO, US",2025-09-16 21:53:00,"2025-09-16 15:53:00","VFR",28.3,5,120,9,NA,NA,1018.7,"METAR KPUB 162153Z 12009KT 10SM CLR 28/05 A3008 RMK AO2 LTG DSNT N AND S AND SW SLP128 T02830050",2025-09-16 22:42:45.659738,2025-09-16 18:42:45.659785
"KPWA","Oklahoma City/Wiley Post Arpt, OK, US",2025-09-16 21:53:00,"2025-09-16 16:53:00","VFR",31.1,17.8,90,4,NA,NA,1018.4,"METAR KPWA 162153Z 09004KT 10SM CLR 31/18 A3007 RMK AO2 SLP165 T03110178",2025-09-16 22:42:45.677925,2025-09-16 18:42:45.67801
"KRBG","Roseburg Rgnl, OR, US",2025-09-16 21:53:00,"2025-09-16 14:53:00","VFR",33.3,7.2,0,0,NA,NA,1012.3,"METAR KRBG 162153Z AUTO 00000KT 10SM CLR 33/07 A2989 RMK AO2 SLP118 T03330072",2025-09-16 22:42:45.685974,2025-09-16 18:42:45.686021
"KRAL","Riverside Muni, CA, US",2025-09-16 21:53:00,"2025-09-16 14:53:00","VFR",37.8,12.2,260,11,18,NA,1011.9,"METAR KRAL 162153Z 26011G18KT 10SM CLR 38/12 A2988 RMK AO2 SLP101 T03780122",2025-09-16 22:42:45.692654,2025-09-16 18:42:45.692698
"KRKP","Rockport/Aransas Cnty, TX, US",2025-09-16 21:53:00,"2025-09-16 16:53:00","VFR",31.7,20.6,90,10,NA,9,1016.3,"METAR KRKP 162153Z AUTO 09010KT 9SM CLR 32/21 A3001 RMK AO2 SLP164 T03170206",2025-09-16 22:42:45.699048,2025-09-16 18:42:45.69909
"KRNT","Renton Muni, WA, US",2025-09-16 21:53:00,"2025-09-16 14:53:00","VFR",32.2,8.9,110,6,NA,NA,1013.6,"METAR KRNT 162153Z 11006KT 10SM CLR 32/09 A2993 RMK AO2 SLP141 T03220089",2025-09-16 22:42:45.705484,2025-09-16 18:42:45.705528
"KPNS","Pensacola Intl, FL, US",2025-09-16 21:53:00,"2025-09-16 16:53:00","VFR",28.9,15,150,9,NA,NA,1017.7,"METAR KPNS 162153Z 15009KT 10SM CLR 29/15 A3005 RMK AO2 SLP175 T02890150",2025-09-16 22:42:45.711959,2025-09-16 18:42:45.712003
"KPOF","Poplar Bluff Muni, MO, US",2025-09-16 21:53:00,"2025-09-16 16:53:00","VFR",33.9,16.7,80,4,NA,NA,1016.7,"METAR KPOF 162153Z AUTO 08004KT 10SM CLR 34/17 A3002 RMK AO2 SLP159 T03390167",2025-09-16 22:42:45.718497,2025-09-16 18:42:45.718543
"KPRC","Prescott/Love Fld, AZ, US",2025-09-16 21:53:00,"2025-09-16 14:53:00","VFR",30.6,2.2,270,14,22,NA,1021.4,"METAR KPRC 162153Z AUTO 27014G22KT 10SM CLR 31/02 A3016 RMK AO2 SLP130 T03060022",2025-09-16 22:42:45.725159,2025-09-16 18:42:45.725204
"KRBD","Dallas/Executive Arpt, TX, US",2025-09-16 21:53:00,"2025-09-16 16:53:00","VFR",33.9,15,150,6,NA,NA,1017.4,"METAR KRBD 162153Z 15006KT 10SM BKN080 34/15 A3004 RMK AO2 SLP165 T03390150",2025-09-16 22:42:45.731674,2025-09-16 18:42:45.731717
"KRAP","Rapid City Rgnl, SD, US",2025-09-16 21:52:00,"2025-09-16 15:52:00","VFR",18.3,13.9,340,5,NA,NA,1023.1,"METAR KRAP 162152Z 34005KT 10SM -RA FEW047 OVC100 18/14 A3021 RMK AO2 RAE2055B28 SLP219 P0000 T01830139",2025-09-16 22:42:45.738167,2025-09-16 18:42:45.738211
"KREO","Rome/State Arpt, OR, US",2025-09-16 21:52:00,"2025-09-16 15:52:00",NA,25.6,-1.7,NA,3,NA,NA,1021.8,"METAR KREO 162152Z AUTO VRB03KT 26/M02 A3017 RMK AO1 SLP197 T02561017",2025-09-16 22:42:45.744663,2025-09-16 18:42:45.744707
"KPYM","Plymouth Muni, MA, US",2025-09-16 21:52:00,"2025-09-16 17:52:00","VFR",17.8,13.9,40,5,NA,NA,1024.1,"METAR KPYM 162152Z AUTO 04005KT 10SM CLR 18/14 A3024 RMK AO2 SLP241 T01780139",2025-09-16 22:42:45.751182,2025-09-16 18:42:45.751226
"KPWK","Chicago Exec, IL, US",2025-09-16 21:52:00,"2025-09-16 16:52:00","VFR",25.6,16.7,90,5,NA,NA,1022.1,"METAR KPWK 162152Z 09005KT 10SM CLR 26/17 A3018 RMK AO2 SLP216 T02560167",2025-09-16 22:42:45.757624,2025-09-16 18:42:45.757668
"KPPF","Parsons/Tri City Arpt, KS, US",2025-09-16 21:52:00,"2025-09-16 16:52:00","VFR",33.9,17.8,220,8,NA,NA,1018.7,"METAR KPPF 162152Z AUTO 22008KT 10SM CLR 34/18 A3008 RMK AO2 LTG DSNT NE AND E SLP173 T03390178 PWINO",2025-09-16 22:42:45.764056,2025-09-16 18:42:45.7641
"KPVD","Providence/Green Mem, RI, US",2025-09-16 21:51:00,"2025-09-16 17:51:00","VFR",20,10,70,8,NA,NA,1024.1,"METAR KPVD 162151Z 07008KT 10SM FEW160 BKN230 20/10 A3024 RMK AO2 SLP240 T02000100 $",2025-09-16 22:42:45.770466,2025-09-16 18:42:45.77051
"KRDU","Raleigh-Durham Intl, NC, US",2025-09-16 21:51:00,"2025-09-16 17:51:00","VFR",20.6,12.8,NA,4,NA,NA,1019.7,"METAR KRDU 162151Z VRB04KT 10SM FEW032 BKN047 BKN250 21/13 A3011 RMK AO2 SLP195 T02060128",2025-09-16 22:42:45.776982,2025-09-16 18:42:45.777026
"KPWM","Portland Intl, ME, US",2025-09-16 21:51:00,"2025-09-16 17:51:00","VFR",19.4,12.8,190,4,NA,NA,1025.1,"METAR KPWM 162151Z AUTO 19004KT 10SM CLR 19/13 A3027 RMK AO2 SLP248 T01940128 $",2025-09-16 22:42:45.783685,2025-09-16 18:42:45.78373
"KROW","Roswell/Ind Arpt, NM, US",2025-09-16 21:51:00,"2025-09-16 15:51:00","VFR",29.4,10.6,180,9,NA,NA,1020.1,"METAR KROW 162151Z 18009KT 10SM SCT080 29/11 A3012 RMK AO2 SLP139 T02940106 $",2025-09-16 22:42:45.790262,2025-09-16 18:42:45.790307
"KPOC","La Verne/Brackett Fld, CA, US",2025-09-16 21:47:00,"2025-09-16 14:47:00","VFR",37,14,250,12,NA,NA,1013.3,"METAR KPOC 162147Z 25012KT 10SM CLR 37/14 A2992",2025-09-16 22:42:45.796849,2025-09-16 18:42:45.796898
"KRHV","San Jose/Reid-Hillview Arpt, CA, US",2025-09-16 21:47:00,"2025-09-16 14:47:00","VFR",31,15,310,9,NA,NA,1013.3,"METAR KRHV 162147Z 31009KT 10SM SKC 31/15 A2992",2025-09-16 22:42:45.816314,2025-09-16 18:42:45.816361
"KSGS","South St Paul Muni, MN, US",2025-09-16 22:35:00,"2025-09-16 22:35:00","VFR",31.4,18.9,190,4,NA,NA,1017.7,"METAR KSGS 162235Z AUTO 19004KT 10SM CLR 31/19 A3005 RMK AO2 T03140189",2025-09-16 22:42:47.419979,2025-09-16 18:42:47.420025
"KRSV","Robinson Muni, IL, US",2025-09-16 22:35:00,"2025-09-16 22:35:00","VFR",31,14,30,4,NA,NA,1018.7,"METAR KRSV 162235Z AUTO 03004KT 10SM CLR 31/14 A3008 RMK AO2",2025-09-16 22:42:47.426538,2025-09-16 18:42:47.426583
"KS24","Fremont/Sandusky Cnty, OH, US",2025-09-16 22:35:00,"2025-09-16 22:35:00","VFR",24,16,50,7,NA,NA,1020.7,"METAR KS24 162235Z AUTO 05007KT 10SM CLR 24/16 A3014 RMK AO2",2025-09-16 22:42:47.432999,2025-09-16 18:42:47.433044
"KRRL","Merrill Muni, WI, US",2025-09-16 22:35:00,"2025-09-16 17:35:00","VFR",27.7,17.7,230,7,NA,NA,1020.7,"METAR KRRL 162235Z AUTO 23007KT 10SM CLR 28/18 A3014 RMK AO2 T02770177 TSNO",2025-09-16 22:42:47.439413,2025-09-16 18:42:47.439456
"KRZN","Siren/Burnett Cnty, WI, US",2025-09-16 22:35:00,"2025-09-16 22:35:00","VFR",30,19,210,6,NA,NA,1018.4,"METAR KRZN 162235Z AUTO 21006KT 10SM CLR 30/19 A3007 RMK AO2 T03000190",2025-09-16 22:42:47.445741,2025-09-16 18:42:47.445785
"KSEF","Sebring Rgnl, FL, US",2025-09-16 22:35:00,"2025-09-16 18:35:00","VFR",27,22.3,50,10,NA,NA,1017,"METAR KSEF 162235Z AUTO 05010KT 10SM VCTS SCT120 27/22 A3003 RMK AO2 LTG DSNT W T02700223",2025-09-16 22:42:47.452421,2025-09-16 18:42:47.452484
"KSAZ","Staples Muni, MN, US",2025-09-16 22:35:00,"2025-09-16 22:35:00","VFR",29,18,250,8,NA,NA,1018.4,"METAR KSAZ 162235Z AUTO 25008KT 10SM SCT041 29/18 A3007 RMK AO2",2025-09-16 22:42:47.458949,2025-09-16 18:42:47.458992
"KRUQ","Salisbury/Rowan Cnty, NC, US",2025-09-16 22:35:00,"2025-09-16 18:35:00",NA,22.6,6.8,30,9,15,NA,1020.1,"METAR KRUQ 162235Z AUTO 03009G15KT 10SM 23/07 A3012 RMK AO2 T02260068",2025-09-16 22:42:47.465319,2025-09-16 18:42:47.465364
"KRPH","Graham Muni, TX, US",2025-09-16 22:35:00,"2025-09-16 22:35:00","VFR",34.3,12.6,NA,5,NA,NA,1016.7,"METAR KRPH 162235Z AUTO VRB05KT 10SM FEW085 34/13 A3002 RMK AO2 T03430126 $",2025-09-16 22:42:47.471772,2025-09-16 18:42:47.471836
"KSIF","Eden/Shiloh Arpt, NC, US",2025-09-16 22:35:00,"2025-09-16 22:35:00","VFR",21.2,11.6,50,3,NA,NA,1020.7,"METAR KSIF 162235Z AUTO 05003KT 10SM SCT048 BKN065 BKN080 21/12 A3014 RMK AO2 T02120116",2025-09-16 22:42:47.478215,2025-09-16 18:42:47.478259
"KRRT","Warroad Intl, MN, US",2025-09-16 22:35:00,"2025-09-16 17:35:00","VFR",25,17,250,6,NA,NA,1017,"METAR KRRT 162235Z AUTO 25006KT 10SM SCT050 25/17 A3003 RMK AO2",2025-09-16 22:42:47.484651,2025-09-16 18:42:47.484695
"KSAA","Saratoga/Shively Fld, WY, US",2025-09-16 22:35:00,"2025-09-16 16:35:00","VFR",16,0,240,12,16,NA,1026.8,"METAR KSAA 162235Z AUTO 24012G16KT 10SM BKN065 OVC085 16/00 A3032 RMK AO2 LTG DSNT S",2025-09-16 22:42:47.491185,2025-09-16 18:42:47.491229
"KSBO","Swainsboro/E Georgia Rgnl, GA, US",2025-09-16 22:35:00,"2025-09-16 22:35:00","VFR",28,14,20,3,NA,NA,1018.7,"METAR KSBO 162235Z AUTO 02003KT 10SM SCT070 28/14 A3008 RMK AO2",2025-09-16 22:42:47.497675,2025-09-16 18:42:47.497746
"KSFQ","Suffolk Muni, VA, US",2025-09-16 22:35:00,"2025-09-16 22:35:00",NA,17.5,17.1,NA,NA,NA,NA,1015.3,"METAR KSFQ 162235Z AUTO OVC008 18/17 A2998 RMK AO2 T01750171 PWINO TSNO",2025-09-16 22:42:47.516504,2025-09-16 18:42:47.516547
"KRSN","Ruston Rgnl, LA, US",2025-09-16 22:35:00,"2025-09-16 17:35:00","VFR",33.4,19.6,0,0,NA,NA,1016,"METAR KRSN 162235Z AUTO 00000KT 10SM FEW060 33/20 A3000 RMK AO2 LTG DSNT E T03340196 $",2025-09-16 22:42:47.523238,2025-09-16 18:42:47.523281
"KSHD","Staunton/Shenandoah Valley Rgnl, VA, US",2025-09-16 22:35:00,"2025-09-16 18:35:00","VFR",17,13.5,100,6,NA,NA,1022.1,"METAR KSHD 162235Z AUTO 10006KT 10SM BKN041 BKN047 OVC060 17/14 A3018 RMK AO2 T01700135",2025-09-16 22:42:47.529565,2025-09-16 18:42:47.529608
"KSIK","Sikeston Arpt, MO, US",2025-09-16 22:35:00,"2025-09-16 17:35:00",NA,34.1,16.7,NA,3,NA,NA,1016.7,"METAR KSIK 162235Z AUTO VRB03KT FEW075 34/17 A3002 RMK AO2 T03410167 PWINO $",2025-09-16 22:42:47.535791,2025-09-16 18:42:47.535853
"KSHL","Sheldon Muni, IA, US",2025-09-16 22:35:00,"2025-09-16 22:35:00","VFR",30,17,230,4,NA,NA,1017.7,"METAR KSHL 162235Z AUTO 23004KT 10SM CLR 30/17 A3005 RMK AO2",2025-09-16 22:42:47.54212,2025-09-16 18:42:47.542164
"KSJX","Beaver Island Arpt, MI, US",2025-09-16 22:35:00,"2025-09-16 22:35:00","VFR",23,15,300,3,NA,NA,1022.1,"METAR KSJX 162235Z AUTO 30003KT 10SM CLR 23/15 A3018 RMK AO2",2025-09-16 22:42:47.548488,2025-09-16 18:42:47.548531
"KRVJ","Reidsville/Smith Fld, GA, US",2025-09-16 22:35:00,"2025-09-16 22:35:00","VFR",29.3,12.5,0,0,NA,NA,1018.4,"METAR KRVJ 162235Z AUTO 00000KT 10SM CLR 29/12 A3007 RMK AO2 T02930125",2025-09-16 22:42:47.55488,2025-09-16 18:42:47.554924
"KRPJ","Rochelle/Kontz Fld, IL, US",2025-09-16 22:35:00,"2025-09-16 22:35:00","VFR",28.5,11.3,70,5,NA,NA,1020.7,"METAR KRPJ 162235Z AUTO 07005KT 10SM CLR 29/11 A3014 RMK AO2 T02850113",2025-09-16 22:42:47.561293,2025-09-16 18:42:47.561336
"KSBS","Steamboat Springs/Adams Fld, CO, US",2025-09-16 22:35:00,"2025-09-16 16:35:00","VFR",15.5,2.1,130,6,NA,NA,1024.8,"METAR KSBS 162235Z AUTO 13006KT 10SM SCT075 BKN090 BKN120 16/02 A3026 RMK AO1 T01550021",2025-09-16 22:42:47.567625,2025-09-16 18:42:47.567669
"KS33","Madras Muni, OR, US",2025-09-16 22:35:00,"2025-09-16 15:35:00","VFR",26,6,330,6,NA,NA,1020.1,"METAR KS33 162235Z AUTO 33006KT 10SM CLR 26/06 A3012 RMK AO2",2025-09-16 22:42:47.574016,2025-09-16 18:42:47.574062
"KRZL","Rensselaer/Jasper Cnty, IN, US",2025-09-16 22:35:00,"2025-09-16 17:35:00","VFR",25,13,20,6,NA,NA,1021.4,"METAR KRZL 162235Z AUTO 02006KT 10SM CLR 25/13 A3016 RMK AO2",2025-09-16 22:42:47.580432,2025-09-16 18:42:47.580476
"KS32","Cooperstown Muni, ND, US",2025-09-16 22:35:00,"2025-09-16 22:35:00",NA,27,17,310,8,13,9,1019.4,"METAR KS32 162235Z AUTO 31008G13KT 9SM 27/17 A3010 RMK AO2 TSNO",2025-09-16 22:42:47.586732,2025-09-16 18:42:47.586781
"KRWV","Caldwell Muni, TX, US",2025-09-16 22:35:00,"2025-09-16 22:35:00","VFR",NA,NA,120,7,NA,NA,1017.7,"METAR KRWV 162235Z AUTO 12007KT 060V140 10SM CLR A3005 RMK AO2 PWINO",2025-09-16 22:42:47.593283,2025-09-16 18:42:47.593328
"KRZT","Chillicothe/Ross Cnty, OH, US",2025-09-16 22:35:00,"2025-09-16 22:35:00","VFR",26,9,110,3,NA,NA,1020.1,"METAR KRZT 162235Z AUTO 11003KT 10SM CLR 26/09 A3012 RMK AO2 PWINO",2025-09-16 22:42:47.599643,2025-09-16 18:42:47.599687
"KSEZ","Sedona Arpt, AZ, US",2025-09-16 22:35:00,"2025-09-16 15:35:00","VFR",33,2,280,14,20,NA,1019.7,"METAR KSEZ 162235Z AUTO 28014G20KT 10SM FEW110 33/02 A3011 RMK AO2",2025-09-16 22:42:47.606054,2025-09-16 18:42:47.606098
"KS25","Watford City Muni, ND, US",2025-09-16 22:35:00,"2025-09-16 22:35:00","VFR",25,14,30,5,NA,NA,1021.4,"METAR KS25 162235Z AUTO 03005KT 10SM CLR 25/14 A3016 RMK AO2 LTG DSNT W AND NW",2025-09-16 22:42:47.612408,2025-09-16 18:42:47.612453
"KSDA","Shenandoah Muni, IA, US",2025-09-16 22:35:00,"2025-09-16 22:35:00","VFR",33,17,170,9,NA,NA,1017.7,"METAR KSDA 162235Z AUTO 17009KT 10SM CLR 33/17 A3005 RMK AO2",2025-09-16 22:42:47.618796,2025-09-16 18:42:47.618863
"KSCD","Sylacauga Muni, AL, US",2025-09-16 22:35:00,"2025-09-16 22:35:00",NA,30.5,14,0,0,NA,NA,1018.4,"METAR KSCD 162235Z AUTO 00000KT BKN100 OVC120 31/14 A3007 RMK AO2 T03050140 PWINO",2025-09-16 22:42:47.625204,2025-09-16 18:42:47.625246
"KSDC","Williamson-Sodus Arpt, NY, US",2025-09-16 22:35:00,"2025-09-16 22:35:00","VFR",22,11,0,0,NA,NA,1022.8,"METAR KSDC 162235Z AUTO 00000KT 10SM CLR 22/11 A3020 RMK AO2",2025-09-16 22:42:47.650937,2025-09-16 18:42:47.651016
"KRWI","Rocky Mount/Wilson Rgnl, NC, US",2025-09-16 22:35:00,"2025-09-16 18:35:00","MVFR",17.2,15.6,320,8,NA,5,1019,"SPECI KRWI 162235Z AUTO 32008KT 5SM BR FEW019 BKN030 OVC037 17/16 A3009 RMK AO2 RAB03E33 P0000 T01720156",2025-09-16 22:42:47.658418,2025-09-16 18:42:47.658463
"KRQB","Big Rapids/Roben Hood Arpt, MI, US",2025-09-16 22:35:00,"2025-09-16 18:35:00","VFR",27,12,80,8,NA,NA,1021.4,"METAR KRQB 162235Z AUTO 08008KT 10SM CLR 27/12 A3016 RMK AO2",2025-09-16 22:42:47.665294,2025-09-16 18:42:47.665339
"KRUG","Rugby Muni, ND, US",2025-09-16 22:35:00,"2025-09-16 22:35:00","VFR",25,15,300,9,NA,9,1020.1,"METAR KRUG 162235Z AUTO 30009KT 9SM CLR 25/15 A3012 RMK AO2",2025-09-16 22:42:47.671989,2025-09-16 18:42:47.672031
"KRVL","Reedsville/Mifflin Cnty, PA, US",2025-09-16 22:35:00,"2025-09-16 18:35:00","VFR",24,13,0,0,NA,9,1021.4,"METAR KRVL 162235Z AUTO 00000KT 9SM CLR 24/13 A3016 RMK AO2",2025-09-16 22:42:47.678308,2025-09-16 18:42:47.678349
"KRQO","El Reno Rgnl, OK, US",2025-09-16 22:35:00,"2025-09-16 17:35:00","VFR",32,16,140,11,NA,NA,1018.4,"METAR KRQO 162235Z AUTO 14011KT 10SM CLR 32/16 A3007 RMK AO2",2025-09-16 22:42:47.684739,2025-09-16 18:42:47.684784
"KSAR","Sparta/Hunter Fld, IL, US",2025-09-16 22:35:00,"2025-09-16 17:35:00","VFR",32.7,14.1,340,3,NA,NA,1018,"METAR KSAR 162235Z AUTO 34003KT 10SM CLR 33/14 A3006 RMK AO2 T03270141",2025-09-16 22:42:47.691307,2025-09-16 18:42:47.691351
"KSEP","Stephenville/Clark Rgnl, TX, US",2025-09-16 22:35:00,"2025-09-16 17:35:00","VFR",33,11.2,140,8,NA,NA,1019.7,"METAR KSEP 162235Z AUTO 14008KT 10SM CLR 33/11 A3011 RMK AO2 T03300112",2025-09-16 22:42:47.697739,2025-09-16 18:42:47.697782
"KSBY","Salisbury/Ocean City, MD, US",2025-09-16 22:34:00,"2025-09-16 18:34:00","IFR",17.8,17.2,20,11,22,3,1017,"SPECI KSBY 162234Z 02011G22KT 3SM VCTS RA BR BKN009 OVC014 18/17 A3003 RMK AO2 LTG DSNT SE AND S CIG 005V011 P0014 T01780172",2025-09-16 22:42:47.704294,2025-09-16 18:42:47.704337
"KRTN","Raton/Crews Fld, NM, US",2025-09-16 22:25:00,"2025-09-16 16:25:00","VFR",17.2,11.7,210,8,NA,NA,1024.1,"SPECI KRTN 162225Z AUTO 21008KT 10SM FEW028 SCT100 17/12 A3024 RMK AO2 PK WND 23027/2157 LTG DSNT E AND W RAE16 P0003 T01720117",2025-09-16 22:42:47.710964,2025-09-16 18:42:47.711009
"KSGF","Springfield Muni, MO, US",2025-09-16 22:18:00,"2025-09-16 17:18:00","VFR",27.2,19.4,150,8,NA,NA,1018.7,"SPECI KSGF 162218Z 15008KT 10SM TS FEW011 SCT095 27/19 A3008 RMK AO2 WSHFT 2143 LTG DSNT NE AND S AND SW RAE16 TSB12 P0000 T02720194",2025-09-16 22:42:47.717762,2025-09-16 18:42:47.717824
"KSBX","Shelby/Toole Cnty Arpt, MT, US",2025-09-16 22:15:00,"2025-09-16 16:15:00","VFR",25,9,50,7,NA,NA,1026.5,"METAR KSBX 162215Z AUTO 05007KT 10SM CLR 25/09 A3031 RMK AO2",2025-09-16 22:42:47.72446,2025-09-16 18:42:47.724504
"KSCX","Oneida/Scott Muni, TN, US",2025-09-16 22:15:00,"2025-09-16 22:15:00","VFR",20,19,200,4,NA,NA,1019.7,"METAR KSCX 162215Z AUTO 20004KT 10SM CLR 20/19 A3011 RMK A01",2025-09-16 22:42:47.731412,2025-09-16 18:42:47.731457
"KS34","Plains Arpt, MT, US",2025-09-16 22:15:00,"2025-09-16 22:15:00","VFR",25,12,0,0,NA,NA,1023.5,"METAR KS34 162215Z AUTO 00000KT 10SM CLR 25/12 A3022 RMK AO2",2025-09-16 22:42:47.738064,2025-09-16 18:42:47.738109
"KS12","Albany Muni, OR, US",2025-09-16 22:15:00,"2025-09-16 22:15:00","VFR",31,7,0,0,NA,6,1012.6,"METAR KS12 162215Z AUTO 00000KT 6SM HZ CLR 31/07 A2990 RMK AO2",2025-09-16 22:42:47.744728,2025-09-16 18:42:47.744771
"KS21","Sunriver Arpt, OR, US",2025-09-16 22:15:00,"2025-09-16 15:15:00","VFR",25,1,NA,4,NA,9,1022.4,"METAR KS21 162215Z AUTO VRB04KT 9SM CLR 25/01 A3019 RMK AO2",2025-09-16 22:42:47.75134,2025-09-16 18:42:47.751384
"KSEM","Selma/Craig Fld, AL, US",2025-09-16 22:15:00,"2025-09-16 17:15:00","VFR",32,12,60,6,NA,NA,1017.4,"METAR KSEM 162215Z AUTO 06006KT 10SM CLR 32/12 A3004 RMK AO2",2025-09-16 22:42:47.758002,2025-09-16 18:42:47.758048
"KRYW","Lago Vista/Allen Arpt, TX, US",2025-09-16 22:15:00,"2025-09-16 22:15:00","VFR",32.6,13.5,110,3,NA,NA,1019.4,"METAR KRYW 162215Z AUTO 11003KT 10SM SCT080 33/14 A3010 RMK AO2 T03260135",2025-09-16 22:42:47.766146,2025-09-16 18:42:47.766193
"KRZR","Cleveland Rgnl, TN, US",2025-09-16 22:15:00,"2025-09-16 22:15:00","VFR",26,20,170,5,NA,NA,1018,"METAR KRZR 162215Z AUTO 17005KT 10SM CLR 26/20 A3006 RMK A01",2025-09-16 22:42:47.773173,2025-09-16 18:42:47.77322
"KS39","Prineville Arpt, OR, US",2025-09-16 22:15:00,"2025-09-16 15:15:00","VFR",28,-2,140,8,15,NA,1019.7,"METAR KS39 162215Z AUTO 14008G15KT 120V190 10SM CLR 28/M02 A3011 RMK AO2",2025-09-16 22:42:47.791719,2025-09-16 18:42:47.791787
"KS52","Methow Valley State Arpt, WA, US",2025-09-16 22:10:00,"2025-09-16 22:10:00","VFR",26.4,8.1,190,7,NA,NA,1021.4,"METAR KS52 162210Z AUTO 19007KT 10SM CLR 26/08 A3016 RMK AO2 T02640081",2025-09-16 22:42:47.799074,2025-09-16 18:42:47.79912
"KSKF","Lackland AFB/Kelly Fld, TX, US",2025-09-16 22:10:00,"2025-09-16 17:10:00","VFR",35,12,70,12,NA,NA,1015.7,"SPECI KSKF 162210Z 07012KT 10SM SCT080 35/12 A2999 RMK AO2A SLP147 $",2025-09-16 22:42:47.806242,2025-09-16 18:42:47.806289
"KSBP","San Luis Obispo/San Luis Cnty, CA, US",2025-09-16 21:56:00,"2025-09-16 14:56:00","VFR",25.6,13.3,310,11,NA,NA,1013.6,"METAR KSBP 162156Z 31011KT 10SM CLR 26/13 A2993 RMK AO2 SLP132 T02560133",2025-09-16 22:42:47.812748,2025-09-16 18:42:47.812791
"KSFZ","Pawtucket/N Central State Arpt, RI, US",2025-09-16 21:56:00,"2025-09-16 17:56:00","VFR",18.9,12.8,NA,3,NA,NA,1024.5,"METAR KSFZ 162156Z AUTO VRB03KT 10SM CLR 19/13 A3025 RMK AO2 SLP244 T01890128 $",2025-09-16 22:42:47.819911,2025-09-16 18:42:47.819955
"KSGH","Springfield Muni, OH, US",2025-09-16 21:56:00,"2025-09-16 17:56:00","VFR",28.3,12.2,100,5,NA,NA,1020.1,"METAR KSGH 162156Z AUTO 10005KT 10SM CLR 28/12 A3012 RMK AO2 SLP195 T02830122",2025-09-16 22:42:47.826271,2025-09-16 18:42:47.826313
"KSHV","Shreveport Rgnl, LA, US",2025-09-16 21:56:00,"2025-09-16 16:56:00","VFR",35,18,330,6,NA,NA,1016.7,"METAR KSHV 162156Z 33006KT 10SM FEW060 35/18 A3002 RMK SLPNO",2025-09-16 22:42:47.832675,2025-09-16 18:42:47.832718
"KSFM","Sanford Rgnl, ME, US",2025-09-16 21:56:00,"2025-09-16 17:56:00","VFR",20,11.1,NA,NA,NA,NA,1025.1,"METAR KSFM 162156Z AUTO 10SM CLR 20/11 A3027 RMK AO2 SLP255 T02000111",2025-09-16 22:42:47.839124,2025-09-16 18:42:47.839168
"KSDF","Louisville Intl, KY, US",2025-09-16 21:56:00,"2025-09-16 17:56:00","VFR",30.6,12.2,360,10,NA,NA,1018,"METAR KSDF 162156Z 36010KT 10SM FEW085 FEW200 BKN300 31/12 A3006 RMK AO2 SLP174 T03060122",2025-09-16 22:42:47.845619,2025-09-16 18:42:47.845663
"KRUT","Rutland/S Vermont Rgnl, VT, US",2025-09-16 21:56:00,"2025-09-16 17:56:00","VFR",23.9,12.2,120,7,NA,NA,1023.5,"METAR KRUT 162156Z AUTO 12007KT 10SM CLR 24/12 A3022 RMK AO2 SLP227 T02390122 $",2025-09-16 22:42:47.852059,2025-09-16 18:42:47.852105
"KSFO","San Francisco Intl, CA, US",2025-09-16 21:56:00,"2025-09-16 14:56:00","VFR",22.8,15,310,16,24,NA,1013.6,"METAR KSFO 162156Z 31016G24KT 10SM FEW006 23/15 A2993 RMK AO2 PK WND 30026/2125 SLP134 T02280150",2025-09-16 22:42:47.858536,2025-09-16 18:42:47.858581
"KSGJ","St Augustine Arpt, FL, US",2025-09-16 21:56:00,"2025-09-16 17:56:00","VFR",27.8,20.6,30,8,NA,NA,1018.7,"METAR KSGJ 162156Z 03008KT 10SM CLR 28/21 A3008 RMK AO2 SLP186 T02780206 $",2025-09-16 22:42:47.864919,2025-09-16 18:42:47.864963
"KSGU","Saint George Muni, UT, US",2025-09-16 21:56:00,"2025-09-16 15:56:00","VFR",33.9,-0.6,260,9,14,NA,1016,"METAR KSGU 162156Z AUTO 26009G14KT 10SM CLR 34/M01 A3000 RMK AO2 SLP126 T03391006",2025-09-16 22:42:47.871323,2025-09-16 18:42:47.871367
"KSBD","San Bernardino Intl, CA, US",2025-09-16 21:55:00,"2025-09-16 14:55:00","VFR",38,9,280,8,NA,NA,1013,"METAR KSBD 162155Z 28008KT 10SM CLR 38/09 A2991",2025-09-16 22:42:47.877738,2025-09-16 18:42:47.877782
"KSEQ","Seguin/Randolph AUX, TX, US",2025-09-16 21:55:00,"2025-09-16 21:55:00","VFR",35.2,14.4,150,5,NA,NA,1015.3,"METAR KSEQ 162155Z AUTO 15005KT 10SM CLR 35/14 A2998 RMK AO2 SLP147 T03520144",2025-09-16 22:42:47.884109,2025-09-16 18:42:47.884152
"KSKA","Spokane/Fairchild AFB, WA, US",2025-09-16 21:55:00,"2025-09-16 14:55:00","VFR",25.3,10.3,60,11,NA,NA,1022.4,"METAR KSKA 162155Z 06011KT 10SM CLR 25/10 A3019 RMK AO2A SLP213 T02530103 $",2025-09-16 22:42:47.890502,2025-09-16 18:42:47.890545
"KRYM","Camp Ripley/Miller AAF, MN, US",2025-09-16 21:55:00,"2025-09-16 21:55:00","VFR",28.7,19.6,270,6,NA,NA,1017,"METAR KRYM 162155Z AUTO 27006KT 10SM CLR 29/20 A3003 RMK AO2 SLP167 T02870196 $",2025-09-16 22:42:47.896893,2025-09-16 18:42:47.89694
"KSCK","Stockton Metro, CA, US",2025-09-16 21:55:00,"2025-09-16 14:55:00","VFR",36.1,10.6,290,5,NA,NA,1012.3,"METAR KSCK 162155Z 29005KT 10SM CLR 36/11 A2989 RMK AO2 SLP121 T03610106",2025-09-16 22:42:47.903297,2025-09-16 18:42:47.903342
"KSET","St Charles/Smartt Arpt, MO, US",2025-09-16 21:54:00,"2025-09-16 21:54:00","VFR",33.3,11.7,NA,NA,NA,NA,1018,"METAR KSET 162154Z AUTO 10SM CLR 33/12 A3006 RMK AO2 SLP173 T03330117",2025-09-16 22:42:47.90973,2025-09-16 18:42:47.909775
"KSJN","St Johns Ind Arpt, AZ, US",2025-09-16 21:54:00,"2025-09-16 14:54:00","VFR",22.2,8.9,170,21,31,NA,1023.1,"METAR KSJN 162154Z AUTO 17021G31KT 10SM FEW055 SCT120 22/09 A3021 RMK AO2 PK WND 18031/2146 LTG DSNT SW SLP149 T02220089",2025-09-16 22:42:47.92869,2025-09-16 18:42:47.928738
"KRST","Rochester Intl, MN, US",2025-09-16 21:54:00,"2025-09-16 16:54:00","VFR",27.8,18.9,190,4,NA,NA,1019.7,"METAR KRST 162154Z 19004KT 10SM CLR 28/19 A3011 RMK AO2 SLP190 T02780189",2025-09-16 22:42:47.935763,2025-09-16 18:42:47.935825
"KSBN","South Bend Rgnl, IN, US",2025-09-16 21:54:00,"2025-09-16 17:54:00","VFR",26.7,11.1,30,5,NA,NA,1021.4,"METAR KSBN 162154Z 03005KT 10SM CLR 27/11 A3016 RMK AO2 SLP210 T02670111",2025-09-16 22:42:47.942611,2025-09-16 18:42:47.942657
"KSFF","Spokane/Felts Fld, WA, US",2025-09-16 21:53:00,"2025-09-16 14:53:00","VFR",27.8,11.1,70,5,NA,NA,1022.1,"METAR KSFF 162153Z 07005KT 10SM CLR 28/11 A3018 RMK AO2 SLP210 T02780111",2025-09-16 22:42:47.949031,2025-09-16 18:42:47.949075
"KRSL","Russell Muni, KS, US",2025-09-16 21:53:00,"2025-09-16 16:53:00","VFR",32.8,15.6,170,17,29,NA,1017,"METAR KRSL 162153Z AUTO 17017G29KT 10SM CLR 33/16 A3003 RMK AO2 PK WND 15029/2150 LTG DSNT N SLP149 T03280156",2025-09-16 22:42:47.955357,2025-09-16 18:42:47.9554
"KRWL","Rawlins Muni, WY, US",2025-09-16 21:53:00,"2025-09-16 15:53:00","VFR",16.1,3.9,210,12,NA,NA,1025.8,"METAR KRWL 162153Z AUTO 21012KT 10SM SCT110 16/04 A3029 RMK AO2 SLP191 T01610039",2025-09-16 22:42:47.961637,2025-09-16 18:42:47.96168
"KSAF","Santa Fe Cnty Muni, NM, US",2025-09-16 21:53:00,"2025-09-16 15:53:00","VFR",27.2,5.6,220,9,19,NA,1023.5,"METAR KSAF 162153Z 22009G19KT 10SM FEW085 27/06 A3022 RMK AO2 PK WND 27027/2122 LTG DSNT SE AND S SLP136 T02720056",2025-09-16 22:42:47.968109,2025-09-16 18:42:47.968154
"KSDM","San Diego/Brown Fld, CA, US",2025-09-16 21:53:00,"2025-09-16 14:53:00","VFR",30.6,15,300,8,15,9,1012.6,"METAR KSDM 162153Z 30008G15KT 9SM CLR 31/15 A2990 RMK AO2 SLP118 T03060150",2025-09-16 22:42:47.974401,2025-09-16 18:42:47.974444
"KSHR","Sheridan Cnty Arpt, WY, US",2025-09-16 21:53:00,"2025-09-16 15:53:00","VFR",21.1,6.1,NA,3,NA,NA,1024.1,"METAR KSHR 162153Z AUTO VRB03KT 10SM BKN065 21/06 A3024 RMK AO2 LTG DSNT N AND NW SLP228 T02110061",2025-09-16 22:42:47.980926,2025-09-16 18:42:47.980971
"KRVS","Tulsa/Jones Arpt, OK, US",2025-09-16 21:53:00,"2025-09-16 16:53:00","VFR",33.9,18.3,110,6,NA,NA,1017.7,"METAR KRVS 162153Z 11006KT 10SM CLR 34/18 A3005 RMK AO2 SLP178 T03390183",2025-09-16 22:42:47.987471,2025-09-16 18:42:47.987518
"KSHN","Shelton/Sanderson Fld, WA, US",2025-09-16 21:53:00,"2025-09-16 14:53:00","VFR",31.1,8.9,100,8,NA,NA,1013.6,"METAR KSHN 162153Z AUTO 10008KT 10SM CLR 31/09 A2993 RMK AO2 SLP133 T03110089",2025-09-16 22:42:47.994103,2025-09-16 18:42:47.994147
"KSEG","Selinsgrove/Penn Valley Arpt, PA, US",2025-09-16 21:53:00,"2025-09-16 17:53:00","VFR",25,12.2,70,9,15,NA,1021.1,"METAR KSEG 162153Z AUTO 07009G15KT 10SM CLR 25/12 A3015 RMK AO2 SLP209 T02500122",2025-09-16 22:42:48.00063,2025-09-16 18:42:48.000674
"KSGR","Houston/Sugar Land Rgnl, TX, US",2025-09-16 21:53:00,"2025-09-16 16:53:00","VFR",33.9,19.4,140,8,NA,NA,1016.7,"METAR KSGR 162153Z 14008KT 10SM FEW065 34/19 A3002 RMK AO2 SLP166 T03390194",2025-09-16 22:42:48.00706,2025-09-16 18:42:48.007103
"KRWF","Redwood Falls Muni, MN, US",2025-09-16 21:53:00,"2025-09-16 16:53:00","VFR",32.2,16.7,250,7,NA,NA,1017.7,"METAR KRWF 162153Z AUTO 25007KT 10SM CLR 32/17 A3005 RMK AO2 SLP168 T03220167",2025-09-16 22:42:48.013493,2025-09-16 18:42:48.013537
"KSIY","Montague/Siskiyou Cnty, CA, US",2025-09-16 21:53:00,"2025-09-16 21:53:00","VFR",30.6,3.9,0,0,NA,NA,1017,"METAR KSIY 162153Z AUTO 00000KT 10SM CLR 31/04 A3003 RMK AO2 SLP159 T03060039",2025-09-16 22:42:48.019863,2025-09-16 18:42:48.019909
"KSJC","San Jose Intl Arpt, CA, US",2025-09-16 21:53:00,"2025-09-16 14:53:00","VFR",28.3,15.6,310,14,NA,NA,1013,"METAR KSJC 162153Z 31014KT 10SM CLR 28/16 A2991 RMK AO2 SLP128 T02830156",2025-09-16 22:42:48.026219,2025-09-16 18:42:48.026264
"KSBM","Sheboygan Cnty Mem, WI, US",2025-09-16 21:53:00,"2025-09-16 16:53:00","VFR",25.6,14.4,140,6,NA,NA,1021.8,"METAR KSBM 162153Z AUTO 14006KT 10SM CLR 26/14 A3017 RMK AO2 SLP216 T02560144",2025-09-16 22:42:48.032622,2025-09-16 18:42:48.032665
"KRQE","Window Rock Arpt, AZ, US",2025-09-16 21:53:00,"2025-09-16 21:53:00","VFR",26.7,1.1,250,12,20,NA,1024.5,"METAR KRQE 162153Z AUTO 25012G20KT 10SM SCT100 27/01 A3025 RMK AO2 PK WND 24026/2055 SLP139 T02670011",2025-09-16 22:42:48.039048,2025-09-16 18:42:48.039092
"KSBA","Santa Barbara Muni, CA, US",2025-09-16 21:53:00,"2025-09-16 14:53:00","VFR",22.8,16.7,260,10,NA,NA,1013.3,"METAR KSBA 162153Z 26010KT 10SM CLR 23/17 A2992 RMK AO2 SLP133 T02280167 $",2025-09-16 22:42:48.045742,2025-09-16 18:42:48.045787
"KRXE","Rexburg/Madison Cnty, ID, US",2025-09-16 21:53:00,"2025-09-16 15:53:00","VFR",20,4.4,NA,4,NA,NA,1024.8,"METAR KRXE 162153Z AUTO VRB04KT 10SM SCT085 20/04 A3026 RMK AO2 SLP225 T02000044",2025-09-16 22:42:48.065281,2025-09-16 18:42:48.065332
"KSDL","Scottsdale Muni, AZ, US",2025-09-16 21:53:00,"2025-09-16 14:53:00","VFR",38.9,10.6,300,8,NA,NA,1011.9,"METAR KSDL 162153Z AUTO 30008KT 10SM CLR 39/11 A2988 RMK AO2 SLP088 T03890106",2025-09-16 22:42:48.072675,2025-09-16 18:42:48.072721
"KRSW","Ft Myers/SW Florida Intl, FL, US",2025-09-16 21:53:00,"2025-09-16 17:53:00","VFR",31.7,22.2,240,10,NA,NA,1015.7,"METAR KRSW 162153Z 24010KT 10SM CLR 32/22 A2999 RMK AO1 SLP154 T03170222",2025-09-16 22:42:48.079682,2025-09-16 18:42:48.079726
"KSAV","Savannah Intl, GA, US",2025-09-16 21:53:00,"2025-09-16 17:53:00","VFR",28.9,11.7,30,4,NA,NA,1018.4,"METAR KSAV 162153Z 03004KT 10SM FEW250 29/12 A3007 RMK AO2 SLP180 T02890117",2025-09-16 22:42:48.086149,2025-09-16 18:42:48.086192
"KSEA","Seattle-Tacoma Intl, WA, US",2025-09-16 21:53:00,"2025-09-16 14:53:00","VFR",31.1,9.4,NA,4,NA,NA,1015,"METAR KSEA 162153Z VRB04KT 10SM CLR 31/09 A2997 RMK AO2 SLP151 T03110094",2025-09-16 22:42:48.092599,2025-09-16 18:42:48.092642
"KSAC","Sacramento Exec, CA, US",2025-09-16 21:53:00,"2025-09-16 14:53:00","VFR",34.4,20,0,0,NA,NA,1012.6,"METAR KSAC 162153Z 00000KT 10SM CLR 34/20 A2990 RMK AO2 SLP125 T03440200",2025-09-16 22:42:48.099021,2025-09-16 18:42:48.099065
"KSFB","Sanford Intl, FL, US",2025-09-16 21:53:00,"2025-09-16 17:53:00","VFR",28.3,20.6,40,9,NA,NA,1017.4,"METAR KSFB 162153Z 04009KT 10SM SCT037 28/21 A3004 RMK AO1 SLP172 T02830206",2025-09-16 22:42:48.105504,2025-09-16 18:42:48.105548
"KSAN","San Diego Intl Arpt, CA, US",2025-09-16 21:51:00,"2025-09-16 14:51:00","VFR",25.6,17.2,310,10,18,9,1012.6,"METAR KSAN 162151Z 31010G18KT 9SM FEW050 FEW250 26/17 A2990 RMK AO2 SLP124 CB DSNT SE T02560172",2025-09-16 22:42:48.111938,2025-09-16 18:42:48.111983
"KSAT","San Antonio Intl, TX, US",2025-09-16 21:51:00,"2025-09-16 16:51:00","VFR",32.8,13.9,90,5,NA,NA,1017.4,"METAR KSAT 162151Z 09005KT 10SM SCT080 BKN250 33/14 A3004 RMK AO2 SLP153 T03280139 $",2025-09-16 22:42:48.118323,2025-09-16 18:42:48.118367
"KSAD","Safford Rgnl, AZ, US",2025-09-16 21:51:00,"2025-09-16 14:51:00","VFR",33.9,10.6,140,8,NA,NA,1015,"METAR KSAD 162151Z AUTO 14008KT 10SM CLR 34/11 A2997 RMK AO2 LTG DSNT N SLP089 T03390106",2025-09-16 22:42:48.124746,2025-09-16 18:42:48.124791
"KSJT","San Angelo/Mathis Fld, TX, US",2025-09-16 21:51:00,"2025-09-16 16:51:00","VFR",32.8,11.7,110,7,15,NA,1018.7,"METAR KSJT 162151Z 11007G15KT 070V130 10SM BKN085 33/12 A3008 RMK AO2 SLP161 T03280117",2025-09-16 22:42:48.131176,2025-09-16 18:42:48.13122
"KRYY","Marietta/Cobb Cnty, GA, US",2025-09-16 21:50:00,"2025-09-16 21:50:00","VFR",28.9,15,0,0,NA,NA,1019.7,"METAR KRYY 162150Z 00000KT 10SM CLR 29/15 A3011 RMK AO2 LTG DSNT S AND SW SLP926 T02890150 $",2025-09-16 22:42:48.137572,2025-09-16 18:42:48.13762
"KSEE","San Diego/Gillespie Fld, CA, US",2025-09-16 21:47:00,"2025-09-16 14:47:00","VFR",34,14,280,12,NA,NA,1011.9,"METAR KSEE 162147Z 28012KT 10SM SKC 34/14 A2988",2025-09-16 22:42:48.143968,2025-09-16 18:42:48.144012
"KSAW","Marquette/Sawyer Intl, MI, US",2025-09-16 21:45:00,"2025-09-16 17:45:00","VFR",28,17,210,11,15,NA,1020.7,"METAR KSAW 162145Z 21011G15KT 10SM CLR 28/17 A3014",2025-09-16 22:42:48.150312,2025-09-16 18:42:48.150357
"KRYN","Tucson/Ryan Fld, AZ, US",2025-09-16 21:45:00,"2025-09-16 21:45:00","VFR",37,11,0,0,NA,NA,1013.3,"METAR KRYN 162145Z 00000KT 10SM CLR 37/11 A2992",2025-09-16 22:42:48.156779,2025-09-16 18:42:48.156843
"KTAZ","Taylorville Muni, IL, US",2025-09-16 22:37:00,"2025-09-16 22:37:00","VFR",32,11,NA,NA,NA,NA,1019,"METAR KTAZ 162237Z AUTO 10SM CLR 32/11 A3009 RMK AO2",2025-09-16 22:42:49.771162,2025-09-16 18:42:49.771209
"KSNK","Snyder/Winston Fld, TX, US",2025-09-16 22:35:00,"2025-09-16 17:35:00","VFR",31.4,11.4,170,8,NA,NA,1019.7,"METAR KSNK 162235Z AUTO 17008KT 10SM SCT090 31/11 A3011 RMK AO2 T03140114",2025-09-16 22:42:49.778217,2025-09-16 18:42:49.778262
"KSMD","Fort Wayne/Smith Fld, IN, US",2025-09-16 22:35:00,"2025-09-16 18:35:00","VFR",29,14,0,0,NA,NA,1020.7,"METAR KSMD 162235Z AUTO 00000KT 10SM CLR 29/14 A3014 RMK A01",2025-09-16 22:42:49.784826,2025-09-16 18:42:49.784873
"KSME","Somerset/Lake Cumberland Rgnl, KY, US",2025-09-16 22:35:00,"2025-09-16 18:35:00","VFR",27,17,90,7,NA,NA,1018.4,"METAR KSME 162235Z AUTO 09007KT 10SM SCT070 27/17 A3007 RMK AO2 LTG DSNT S",2025-09-16 22:42:49.791219,2025-09-16 18:42:49.791266
"KSNL","Shawnee Rgnl, OK, US",2025-09-16 22:35:00,"2025-09-16 17:35:00","VFR",32.7,14,140,5,NA,NA,1018.4,"METAR KSNL 162235Z AUTO 14005KT 10SM CLR 33/14 A3007 RMK AO2 T03270140",2025-09-16 22:42:49.797612,2025-09-16 18:42:49.797657
"KSOA","Sonora Muni, TX, US",2025-09-16 22:35:00,"2025-09-16 22:35:00","VFR",30,14,0,0,11,NA,1021.1,"METAR KSOA 162235Z AUTO 00000G11KT 10SM CLR 30/14 A3015 RMK AO2",2025-09-16 22:42:49.803981,2025-09-16 18:42:49.804025
"KSYF","St Francis/Cheyenne Cnty, KS, US",2025-09-16 22:35:00,"2025-09-16 22:35:00","VFR",33,11,180,19,26,NA,1015.7,"METAR KSYF 162235Z AUTO 18019G26KT 10SM FEW100 33/11 A2999 RMK AO2 PK WND 19028/48",2025-09-16 22:42:49.810326,2025-09-16 18:42:49.810371
"KTBR","Statesboro Muni, GA, US",2025-09-16 22:35:00,"2025-09-16 18:35:00","VFR",29,14,10,4,NA,NA,1017.7,"METAR KTBR 162235Z AUTO 01004KT 10SM CLR 29/14 A3005 RMK AO2",2025-09-16 22:42:49.816632,2025-09-16 18:42:49.816676
"KSVH","Statesville Muni, NC, US",2025-09-16 22:35:00,"2025-09-16 18:35:00","VFR",22,6.4,40,10,18,NA,1020.7,"METAR KSVH 162235Z AUTO 04010G18KT 10SM SCT095 22/06 A3014 RMK AO2 T02200064",2025-09-16 22:42:49.822916,2025-09-16 18:42:49.822962
"KSNC","Chester Arpt, CT, US",2025-09-16 22:35:00,"2025-09-16 22:35:00","VFR",19,15,0,0,NA,NA,1023.8,"METAR KSNC 162235Z AUTO 00000KT 10SM CLR 19/15 A3023 RMK AO2",2025-09-16 22:42:49.829201,2025-09-16 18:42:49.829247
"KTEW","Mason/Jewett Fld, MI, US",2025-09-16 22:35:00,"2025-09-16 22:35:00","VFR",25.7,13,350,5,NA,NA,1021.8,"METAR KTEW 162235Z AUTO 35005KT 10SM CLR 26/13 A3017 RMK AO2 T02570130",2025-09-16 22:42:49.835525,2025-09-16 18:42:49.835568
"KSTF","Starkville/Bryan Arpt, MS, US",2025-09-16 22:35:00,"2025-09-16 22:35:00","VFR",28,21,210,3,NA,NA,1016.3,"METAR KSTF 162235Z AUTO 21003KT 10SM FEW065 BKN075 28/21 A3001 RMK AO2 LTG DSNT NW-NE",2025-09-16 22:42:49.841875,2025-09-16 18:42:49.841919
"KSUW","Superior/Bong Arpt, WI, US",2025-09-16 22:35:00,"2025-09-16 17:35:00","VFR",21.9,17.4,50,4,NA,NA,1017.4,"METAR KSUW 162235Z AUTO 05004KT 10SM CLR 22/17 A3004 RMK AO2 T02190174",2025-09-16 22:42:49.848191,2025-09-16 18:42:49.848235
"KSUZ","Benton/Saline Cnty, AR, US",2025-09-16 22:35:00,"2025-09-16 22:35:00","VFR",34,18,360,8,NA,6,1016.3,"METAR KSUZ 162235Z AUTO 36008KT 6SM HZ CLR 34/18 A3001 RMK A01",2025-09-16 22:42:49.854413,2025-09-16 18:42:49.854455
"KSMS","Sumter Muni, SC, US",2025-09-16 22:35:00,"2025-09-16 18:35:00","VFR",27,13,0,0,NA,9,1018,"METAR KSMS 162235Z AUTO 00000KT 9SM CLR 27/13 A3006 RMK AO2",2025-09-16 22:42:49.860644,2025-09-16 18:42:49.860685
"KSLO","Salem/Leckrone Arpt, IL, US",2025-09-16 22:35:00,"2025-09-16 17:35:00","VFR",33.3,11.7,0,0,NA,NA,1018,"METAR KSLO 162235Z AUTO 00000KT 10SM CLR 33/12 A3006 RMK AO2 T03330117",2025-09-16 22:42:49.866933,2025-09-16 18:42:49.866976
"KSVC","Silver City/Grant Cnty, NM, US",2025-09-16 22:35:00,"2025-09-16 16:35:00","VFR",28.7,6.5,190,7,NA,NA,1022.1,"METAR KSVC 162235Z AUTO 19007KT 10SM SCT080 SCT120 29/07 A3018 RMK AO2 LTG DSNT N T02870065",2025-09-16 22:42:49.873341,2025-09-16 18:42:49.873386
"KSXK","Maurice/Sioux Cnty Rgnl, IA, US",2025-09-16 22:35:00,"2025-09-16 22:35:00","VFR",31,18,200,7,12,NA,1017,"METAR KSXK 162235Z AUTO 20007G12KT 10SM CLR 31/18 A3003 RMK AO2",2025-09-16 22:42:49.879699,2025-09-16 18:42:49.879751
"KT20","Gonzales Muni, TX, US",2025-09-16 22:35:00,"2025-09-16 22:35:00","VFR",35,16,100,9,NA,NA,1016.7,"METAR KT20 162235Z AUTO 10009KT 10SM SCT075 SCT110 35/16 A3002 RMK AO2 T03500160",2025-09-16 22:42:49.897477,2025-09-16 18:42:49.897523
"KT74","Taylor Muni, TX, US",2025-09-16 22:35:00,"2025-09-16 22:35:00","VFR",34,13,120,8,NA,NA,1018.7,"METAR KT74 162235Z AUTO 12008KT 10SM CLR 34/13 A3008 RMK AO2",2025-09-16 22:42:49.904455,2025-09-16 18:42:49.9045
"KTDF","Roxboro/Person Cnty, NC, US",2025-09-16 22:35:00,"2025-09-16 22:35:00","VFR",18,13,10,6,14,NA,1021.8,"METAR KTDF 162235Z AUTO 01006G14KT 10SM SCT026 BKN035 OVC043 18/13 A3017 RMK AO2",2025-09-16 22:42:49.911237,2025-09-16 18:42:49.911283
"KT69","Sinton/Thomas Arpt, TX, US",2025-09-16 22:35:00,"2025-09-16 22:35:00","VFR",32,21,NA,NA,NA,NA,1016.3,"METAR KT69 162235Z AUTO 10SM CLR 32/21 A3001 RMK A01",2025-09-16 22:42:49.917604,2025-09-16 18:42:49.917646
"KSUT","Southport/Cape Fear Rgnl, NC, US",2025-09-16 22:35:00,"2025-09-16 22:35:00","VFR",21,16,350,5,NA,NA,1018.4,"METAR KSUT 162235Z AUTO 35005KT 10SM OVC041 21/16 A3007 RMK AO2",2025-09-16 22:42:49.923897,2025-09-16 18:42:49.92394
"KT82","Fredericksburg/Gillespie Cnty, TX, US",2025-09-16 22:35:00,"2025-09-16 22:35:00","VFR",30.6,12.3,150,3,NA,NA,1019.4,"METAR KT82 162235Z AUTO 15003KT 10SM CLR 31/12 A3010 RMK AO2 T03060123",2025-09-16 22:42:49.930143,2025-09-16 18:42:49.930186
"KTEX","Telluride Rgnl, CO, US",2025-09-16 22:35:00,"2025-09-16 16:35:00","VFR",18,-5,270,13,19,NA,1030.2,"METAR KTEX 162235Z AUTO 27013G19KT 10SM CLR 18/M05 A3042 RMK AO2",2025-09-16 22:42:49.936464,2025-09-16 18:42:49.936508
"KSLR","Sulphur Springs Muni, TX, US",2025-09-16 22:35:00,"2025-09-16 17:35:00",NA,34.1,14.1,0,0,NA,NA,1018,"METAR KSLR 162235Z AUTO 00000KT CLR 34/14 A3006 RMK AO2 T03410141 PWINO",2025-09-16 22:42:49.94278,2025-09-16 18:42:49.942844
"KSRR","Ruidoso Rgnl, NM, US",2025-09-16 22:35:00,"2025-09-16 16:35:00","VFR",14,10,170,12,NA,7,1028.9,"METAR KSRR 162235Z AUTO 17012KT 7SM -RA FEW029 SCT048 BKN080 14/10 A3038 RMK AO2 LTG DSNT W AND NW",2025-09-16 22:42:49.949096,2025-09-16 18:42:49.949142
"KSYN","Stanton Arpt, MN, US",2025-09-16 22:35:00,"2025-09-16 17:35:00","VFR",29.7,19.8,180,4,NA,NA,1018.4,"METAR KSYN 162235Z AUTO 18004KT 10SM CLR 30/20 A3007 RMK AO2 LTG DSNT S T02970198",2025-09-16 22:42:49.955565,2025-09-16 18:42:49.95561
"KSLH","Cheboygan Cnty Arpt, MI, US",2025-09-16 22:35:00,"2025-09-16 22:35:00","VFR",21,15,40,3,NA,NA,1022.4,"METAR KSLH 162235Z AUTO 04003KT 10SM CLR 21/15 A3019 RMK AO2",2025-09-16 22:42:49.961954,2025-09-16 18:42:49.961998
"KSLB","Storm Lake Muni, IA, US",2025-09-16 22:35:00,"2025-09-16 17:35:00","VFR",31,17,NA,6,NA,NA,1019,"METAR KSLB 162235Z AUTO VRB06KT 10SM CLR 31/17 A3009 RMK AO2",2025-09-16 22:42:49.968384,2025-09-16 18:42:49.968427
"KSSI","Brunswick/McKinnon St Simons Arpt, GA, US",2025-09-16 22:35:00,"2025-09-16 18:35:00","VFR",26,19,90,7,NA,NA,1018.4,"METAR KSSI 162235Z AUTO 09007KT 10SM CLR 26/19 A3007 RMK AO2",2025-09-16 22:42:49.974728,2025-09-16 18:42:49.974772
"KSPA","Spartanburg/Downtown Arpt, SC, US",2025-09-16 22:35:00,"2025-09-16 18:35:00","VFR",21,13,300,3,NA,NA,1019.7,"METAR KSPA 162235Z AUTO 30003KT 10SM CLR 21/13 A3011 RMK AO2",2025-09-16 22:42:49.981245,2025-09-16 18:42:49.981289
"KT35","Cameron Muni, TX, US",2025-09-16 22:35:00,"2025-09-16 22:35:00","VFR",34,16.7,70,6,NA,NA,1017.4,"METAR KT35 162235Z AUTO 07006KT 10SM SCT080 SCT120 34/17 A3004 RMK AO2 T03400167",2025-09-16 22:42:49.987603,2025-09-16 18:42:49.987647
"KSPF","Spearfish/Clyde Fld, SD, US",2025-09-16 22:35:00,"2025-09-16 16:35:00","VFR",15,15,260,6,NA,NA,1025.1,"METAR KSPF 162235Z AUTO 26006KT 10SM CLR 15/15 A3027 RMK AO2",2025-09-16 22:42:49.993972,2025-09-16 18:42:49.994016
"KSOW","Show Low Muni, AZ, US",2025-09-16 22:35:00,"2025-09-16 15:35:00","LIFR",18,13,0,0,NA,1.75,1024.8,"METAR KSOW 162235Z AUTO 00000KT 1 3/4SM TSRA BKN003 BKN040 OVC070 18/13 A3026 RMK AO2 LTG DSNT E AND W",2025-09-16 22:42:50.000302,2025-09-16 18:42:50.000345
"KT78","Liberty Muni, TX, US",2025-09-16 22:35:00,"2025-09-16 22:35:00","VFR",34,13,0,0,NA,9,1016,"METAR KT78 162235Z AUTO 00000KT 9SM CLR 34/13 A3000 RMK AO2",2025-09-16 22:42:50.006772,2025-09-16 18:42:50.006833
"KTFP","Aransas Pass/McCampbell-Porter Arpt, TX, US",2025-09-16 22:15:00,"2025-09-16 22:15:00","VFR",32.4,20.7,120,11,17,NA,1016.3,"METAR KTFP 162215Z AUTO 12011G17KT 10SM CLR 32/21 A3001 RMK AO1 T03240207",2025-09-16 22:42:50.013278,2025-09-16 18:42:50.013323
"KSPK","Spanish Fork Muni, UT, US",2025-09-16 22:15:00,"2025-09-16 22:15:00","VFR",24,3,310,5,NA,NA,1021.8,"METAR KSPK 162215Z AUTO 31005KT 10SM CLR 24/03 A3017 RMK AO2",2025-09-16 22:42:50.031679,2025-09-16 18:42:50.031726
"KSYI","Shelbyville/Bomar Fld, TN, US",2025-09-16 22:15:00,"2025-09-16 17:15:00","VFR",25,20,0,0,NA,9,1018,"METAR KSYI 162215Z AUTO 00000KT 9SM CLR 25/20 A3006 RMK A01",2025-09-16 22:42:50.038604,2025-09-16 18:42:50.038649
"KSRB","Sparta/Upper Cumberland Rgnl, TN, US",2025-09-16 22:15:00,"2025-09-16 22:15:00","VFR",27,20,250,4,NA,8,1019,"METAR KSRB 162215Z AUTO 25004KT 8SM FEW120 27/20 A3009 RMK A01",2025-09-16 22:42:50.045574,2025-09-16 18:42:50.045617
"KSVE","Susanville Muni, CA, US",2025-09-16 22:15:00,"2025-09-16 15:15:00","VFR",31,2,100,4,NA,NA,1021.1,"METAR KSVE 162215Z AUTO 10004KT 10SM CLR 31/02 A3015 RMK A01 P000",2025-09-16 22:42:50.051977,2025-09-16 18:42:50.05202
"KSRE","Seminole Muni, OK, US",2025-09-16 22:15:00,"2025-09-16 22:15:00","VFR",33,15,0,0,NA,7,1018,"METAR KSRE 162215Z AUTO 00000KT 7SM CLR 33/15 A3006 RMK AO2",2025-09-16 22:42:50.058368,2025-09-16 18:42:50.058411
"KTCY","Tracy Muni, CA, US",2025-09-16 22:15:00,"2025-09-16 22:15:00","VFR",34,11,0,0,NA,NA,1012.6,"METAR KTCY 162215Z AUTO 00000KT 10SM CLR 34/11 A2990 RMK A01",2025-09-16 22:42:50.064758,2025-09-16 18:42:50.064819
"KSUO","Rosebud/Sioux Tribal Arpt, SD, US",2025-09-16 22:15:00,"2025-09-16 22:15:00","MVFR",16,15,240,8,15,5,1023.5,"METAR KSUO 162215Z AUTO 24008G15KT 5SM -RA BR FEW045 SCT050 BKN065 16/15 A3022 RMK AO2",2025-09-16 22:42:50.071143,2025-09-16 18:42:50.071186
"KT41","La Porte Muni, TX, US",2025-09-16 22:10:00,"2025-09-16 22:10:00","VFR",31.1,20,160,13,NA,NA,1016.7,"METAR KT41 162210Z AUTO 16013KT 10SM CLR 31/20 A3002 RMK AO2 TSNO T03110200",2025-09-16 22:42:50.077631,2025-09-16 18:42:50.077676
"KSNH","Savannah/Hardin Cnty, TN, US",2025-09-16 22:10:00,"2025-09-16 22:10:00","VFR",32,18,180,5,NA,NA,1016.7,"METAR KSNH 162210Z AUTO 18005KT 10SM CLR 32/18 A3002 RMK A01",2025-09-16 22:42:50.084106,2025-09-16 18:42:50.08415
"KSZT","Sandpoint Arpt, ID, US",2025-09-16 22:10:00,"2025-09-16 22:10:00","VFR",25,11,60,7,NA,NA,1023.5,"METAR KSZT 162210Z AUTO 06007KT 10SM CLR 25/11 A3022 RMK AO2",2025-09-16 22:42:50.090504,2025-09-16 18:42:50.090548
"KSZL","Whiteman AFB, MO, US",2025-09-16 21:59:00,"2025-09-16 16:59:00","VFR",33,15,70,8,NA,NA,1018.7,"SPECI KSZL 162159Z 07008KT 10SM SCT050 SCT120 33/15 A3008 RMK LTG DSNT SE AND SW AND NW SLP180 VISNO RWY01 CHINO RWY01 $",2025-09-16 22:42:50.096874,2025-09-16 18:42:50.096919
"KSUE","Sturgeon Bay/Door Cnty, WI, US",2025-09-16 21:57:00,"2025-09-16 16:57:00","VFR",26.1,14.4,200,9,NA,NA,1022.1,"METAR KSUE 162157Z AUTO 20009KT 10SM CLR 26/14 A3018 RMK AO2 SLP216 T02610144",2025-09-16 22:42:50.1033,2025-09-16 18:42:50.103343
"KSLG","Siloam Springs/Smith Fld, AR, US",2025-09-16 21:56:00,"2025-09-16 16:56:00","VFR",31.7,18.3,0,0,NA,NA,1019.7,"METAR KSLG 162156Z AUTO 00000KT 10SM CLR 32/18 A3011 RMK AO2 SLP184 T03170183",2025-09-16 22:42:50.109629,2025-09-16 18:42:50.109672
"KSLE","Salem Muni, OR, US",2025-09-16 21:56:00,"2025-09-16 14:56:00","VFR",31.7,8.3,NA,3,NA,NA,1012.6,"METAR KSLE 162156Z VRB03KT 10SM CLR 32/08 A2990 RMK AO2 SLP124 T03170083",2025-09-16 22:42:50.116052,2025-09-16 18:42:50.116096
"KSRC","Searcy Muni, AR, US",2025-09-16 21:56:00,"2025-09-16 21:56:00","VFR",32.8,20.6,NA,3,NA,NA,1016.7,"METAR KSRC 162156Z AUTO VRB03KT 10SM SCT060 33/21 A3002 RMK AO2 SLP161 T03280206 $",2025-09-16 22:42:50.122458,2025-09-16 18:42:50.1225
"KSMN","Salmon/Lemhi Cnty, ID, US",2025-09-16 21:56:00,"2025-09-16 15:56:00","VFR",21.1,8.3,0,0,NA,NA,1025.8,"METAR KSMN 162156Z AUTO 00000KT 10SM CLR 21/08 A3029 RMK AO2 SLP244 T02110083",2025-09-16 22:42:50.128827,2025-09-16 18:42:50.128876
"KSQI","Sterling-Rock Falls Arpt, IL, US",2025-09-16 21:56:00,"2025-09-16 16:56:00","VFR",31.7,12.8,20,7,NA,NA,1020.4,"METAR KSQI 162156Z AUTO 02007KT 10SM CLR 32/13 A3013 RMK AO2 SLP197 T03170128",2025-09-16 22:42:50.135191,2025-09-16 18:42:50.135234
"KSOP","Southern Pines/Moore Cnty, NC, US",2025-09-16 21:56:00,"2025-09-16 17:56:00","VFR",23.9,11.7,40,7,NA,NA,1019.4,"METAR KSOP 162156Z AUTO 04007KT 10SM CLR 24/12 A3010 RMK AO2 SLPNO T02390117 $",2025-09-16 22:42:50.141616,2025-09-16 18:42:50.141659
"KSLI","Los Alamitos AAF, CA, US",2025-09-16 21:55:00,"2025-09-16 21:55:00","VFR",33.2,15.2,210,8,NA,NA,1010.6,"METAR KSLI 162155Z 21008KT 10SM FEW060 FEW120 33/15 A2984 RMK AO2A TCU DSNT N SLP108 T03320152",2025-09-16 22:42:50.148057,2025-09-16 18:42:50.148103
"KTCM","Tacoma/McChord AFB, WA, US",2025-09-16 21:55:00,"2025-09-16 14:55:00","VFR",31.6,10.3,350,5,NA,NA,1013.6,"METAR KTCM 162155Z AUTO 35005KT 10SM CLR 32/10 A2993 RMK AO2 SLP137 T03160103 $",2025-09-16 22:42:50.166456,2025-09-16 18:42:50.166504
"KSVN","Savannah/Hunter AAF, GA, US",2025-09-16 21:55:00,"2025-09-16 17:55:00","VFR",27.7,15.3,160,5,NA,NA,1017,"METAR KSVN 162155Z 16005KT 10SM CLR 28/15 A3003 RMK AO2A SLP172 T02770153 $",2025-09-16 22:42:50.173383,2025-09-16 18:42:50.173428
"KTBN","Waynesville-St Robert Rgnl, MO, US",2025-09-16 21:55:00,"2025-09-16 16:55:00","VFR",31.9,16.6,360,4,NA,NA,1018.4,"METAR KTBN 162155Z AUTO 36004KT 10SM CLR 32/17 A3007 RMK AO2 SLP174 T03190166",2025-09-16 22:42:50.180209,2025-09-16 18:42:50.180254
"KSUU","Fairfield/Travis AFB, CA, US",2025-09-16 21:55:00,"2025-09-16 14:55:00","VFR",35.5,9.1,340,3,NA,NA,1012.3,"METAR KSUU 162155Z AUTO 34003KT 10SM CLR 36/09 A2989 RMK AO2 SLP128 T03550091 $",2025-09-16 22:42:50.186631,2025-09-16 18:42:50.186675
"KSSC","Shaw AFB, SC, US",2025-09-16 21:55:00,"2025-09-16 17:55:00","VFR",29,12,350,5,NA,NA,1017.4,"METAR KSSC 162155Z 35005KT 10SM FEW070 29/12 A3004 RMK AO2A SLP172 T02900120 $",2025-09-16 22:42:50.193029,2025-09-16 18:42:50.193073
"KTAD","Trinidad/Stokes Arpt, CO, US",2025-09-16 21:54:00,"2025-09-16 15:54:00","VFR",28.3,3.3,200,11,15,NA,1021.4,"METAR KTAD 162154Z AUTO 20011G15KT 10SM CLR 28/03 A3016 RMK AO2 PK WND 21028/2057 WSHFT 2118 LTG DSNT SE AND S SLP128 T02830033",2025-09-16 22:42:50.199611,2025-09-16 18:42:50.199657
"KSYR","Syracuse/Hancock Intl, NY, US",2025-09-16 21:54:00,"2025-09-16 17:54:00","VFR",25.6,12.8,50,3,NA,NA,1021.8,"METAR KSYR 162154Z 05003KT 10SM FEW040 BKN250 26/13 A3017 RMK AO2 SLP213 T02560128",2025-09-16 22:42:50.206266,2025-09-16 18:42:50.206311
"KSUS","St Louis/Spirit of St Louis Arpt, MO, US",2025-09-16 21:54:00,"2025-09-16 16:54:00","VFR",33.3,12.2,20,8,NA,NA,1018,"METAR KSUS 162154Z 02008KT 10SM CLR 33/12 A3006 RMK AO2 SLP170 T03330122",2025-09-16 22:42:50.212776,2025-09-16 18:42:50.212872
"KSLC","Salt Lake City Intl, UT, US",2025-09-16 21:54:00,"2025-09-16 15:54:00","VFR",25,0,330,11,16,NA,1022.1,"METAR KSLC 162154Z 33011G16KT 10SM FEW090 FEW250 25/00 A3018 RMK AO2 SLP174 T02500000",2025-09-16 22:42:50.219318,2025-09-16 18:42:50.219361
"KSTC","St Cloud Rgnl, MN, US",2025-09-16 21:53:00,"2025-09-16 16:53:00","VFR",31.1,17.2,280,9,NA,NA,1017.7,"METAR KSTC 162153Z 28009KT 10SM CLR 31/17 A3005 RMK AO2 SLP179 T03110172 $",2025-09-16 22:42:50.225724,2025-09-16 18:42:50.225767
"KSPB","Scappoose Ind Arpk, OR, US",2025-09-16 21:53:00,"2025-09-16 21:53:00","VFR",32.2,8.9,140,11,NA,NA,1013.3,"METAR KSPB 162153Z AUTO 14011KT 10SM CLR 32/09 A2992 RMK AO2 SLP131 T03220089",2025-09-16 22:42:50.232246,2025-09-16 18:42:50.23229
"KSPW","Spencer Muni, IA, US",2025-09-16 21:53:00,"2025-09-16 16:53:00","VFR",31.7,16.7,230,7,NA,NA,1018.7,"METAR KSPW 162153Z AUTO 23007KT 10SM CLR 32/17 A3008 RMK AO2 LTG DSNT SE SLP176 T03170167",2025-09-16 22:42:50.238605,2025-09-16 18:42:50.238648
"KSRQ","Sarasota-Bradenton Intl, FL, US",2025-09-16 21:53:00,"2025-09-16 17:53:00","VFR",30.6,23.3,290,7,NA,NA,1016.3,"METAR KSRQ 162153Z 29007KT 10SM CLR 31/23 A3001 RMK AO2 LTG DSNT NE SLP162 T03060233",2025-09-16 22:42:50.245032,2025-09-16 18:42:50.245076
"KSSF","San Antonio/Stinson Muni, TX, US",2025-09-16 21:53:00,"2025-09-16 16:53:00","VFR",35,13.9,130,12,17,NA,1016.3,"METAR KSSF 162153Z 13012G17KT 10SM FEW080 35/14 A3001 RMK AO2 SLP149 T03500139 $",2025-09-16 22:42:50.251363,2025-09-16 18:42:50.251407
"KSTP","Saint Paul/Downtown Arpt, MN, US",2025-09-16 21:53:00,"2025-09-16 16:53:00","VFR",32.2,19.4,170,7,NA,NA,1017.7,"METAR KSTP 162153Z 17007KT 10SM FEW060 32/19 A3005 RMK AO2 SLP170 T03220194",2025-09-16 22:42:50.257751,2025-09-16 18:42:50.257796
"KSTS","Santa Rosa/Schulz Arpt, CA, US",2025-09-16 21:53:00,"2025-09-16 14:53:00","VFR",32.2,11.1,190,7,NA,NA,1013.3,"METAR KSTS 162153Z 19007KT 10SM CLR 32/11 A2992 RMK AO2 SLP125 T03220111",2025-09-16 22:42:50.264161,2025-09-16 18:42:50.264205
"KSWO","Stillwater Muni, OK, US",2025-09-16 21:53:00,"2025-09-16 16:53:00","VFR",33.3,16.7,180,8,NA,NA,1018,"METAR KSWO 162153Z 18008KT 10SM CLR 33/17 A3006 RMK AO2 SLP166 T03330167 $",2025-09-16 22:42:50.270547,2025-09-16 18:42:50.270591
"KTCL","Tuscaloosa Rgnl, AL, US",2025-09-16 21:53:00,"2025-09-16 16:53:00","VFR",33.3,12.2,NA,3,NA,NA,1017,"METAR KTCL 162153Z VRB03KT 10SM CLR 33/12 A3003 RMK AO2 SLP166 T03330122",2025-09-16 22:42:50.277165,2025-09-16 18:42:50.27721
"KTCC","Tucumcari Muni, NM, US",2025-09-16 21:53:00,"2025-09-16 15:53:00","VFR",28.3,NA,210,15,22,NA,1019.7,"METAR KTCC 162153Z AUTO 21015G22KT 10SM FEW080 28/ A3011 RMK AO2 SLP140 T0283 $",2025-09-16 22:42:50.283862,2025-09-16 18:42:50.28391
"KTCS","Truth or Consequence Muni, NM, US",2025-09-16 21:53:00,"2025-09-16 15:53:00","VFR",29.4,6.7,190,4,NA,NA,1020.7,"METAR KTCS 162153Z AUTO 19004KT 10SM FEW085 29/07 A3014 RMK AO2 LTG DSNT N AND NE SLP122 T02940067",2025-09-16 22:42:50.303174,2025-09-16 18:42:50.303222
"KSPG","St Petersburg/Whitted Arpt, FL, US",2025-09-16 21:53:00,"2025-09-16 17:53:00","VFR",30.6,21.7,350,8,NA,NA,1015.7,"METAR KSPG 162153Z 35008KT 10SM BKN047 BKN060 31/22 A2999 RMK AO2 LTG DSNT SE SLP155 T03060217",2025-09-16 22:42:50.310241,2025-09-16 18:42:50.310288
"KSTJ","St Joseph/Rosecrans Mem, MO, US",2025-09-16 21:53:00,"2025-09-16 16:53:00","VFR",33.3,17.2,200,4,NA,NA,1018.7,"METAR KSTJ 162153Z 20004KT 10SM CLR 33/17 A3008 RMK AO2 LTG DSNT E SLP176 T03330172",2025-09-16 22:42:50.317092,2025-09-16 18:42:50.317136
"KSLN","Salina Rgnl, KS, US",2025-09-16 21:53:00,"2025-09-16 16:53:00","VFR",32.2,17.2,160,11,NA,NA,1018,"METAR KSLN 162153Z 16011KT 10SM CLR 32/17 A3006 RMK AO2 SLP164 T03220172",2025-09-16 22:42:50.323575,2025-09-16 18:42:50.323619
"KSMQ","Somerville/Somerset Arpt, NJ, US",2025-09-16 21:53:00,"2025-09-16 21:53:00","VFR",22.2,12.8,70,4,NA,NA,1021.8,"METAR KSMQ 162153Z AUTO 07004KT 10SM CLR 22/13 A3017 RMK AO2 SLP215 T02220128",2025-09-16 22:42:50.330058,2025-09-16 18:42:50.330103
"KSNA","Santa Ana/Wayne Arpt, CA, US",2025-09-16 21:53:00,"2025-09-16 14:53:00","VFR",29.4,17.2,210,8,NA,NA,1012.3,"METAR KSNA 162153Z 21008KT 10SM FEW080 29/17 A2989 RMK AO2 SLP119 TCU DSNT N-E TCU DSNT SE T02940172 $",2025-09-16 22:42:50.336529,2025-09-16 18:42:50.336573
"KSNS","Salinas Muni, CA, US",2025-09-16 21:53:00,"2025-09-16 14:53:00","VFR",21.1,15,320,11,NA,NA,1014.3,"METAR KSNS 162153Z 32011KT 10SM CLR 21/15 A2995 RMK AO2 SLP150 T02110150",2025-09-16 22:42:50.343011,2025-09-16 18:42:50.343054
"KSNY","Sidney/Carr Fld, NE, US",2025-09-16 21:53:00,"2025-09-16 15:53:00","VFR",20.6,11.1,10,13,NA,NA,1019.7,"METAR KSNY 162153Z AUTO 01013KT 10SM CLR 21/11 A3011 RMK AO2 SLP160 T02060111",2025-09-16 22:42:50.34947,2025-09-16 18:42:50.349515
"KSMF","Sacramento Intl, CA, US",2025-09-16 21:53:00,"2025-09-16 14:53:00","VFR",34.4,10,280,7,NA,NA,1012.6,"METAR KSMF 162153Z 28007KT 10SM CLR 34/10 A2990 RMK AO2 SLP125 T03440100",2025-09-16 22:42:50.355944,2025-09-16 18:42:50.355989
"KTAN","Taunton Muni, MA, US",2025-09-16 21:52:00,"2025-09-16 21:52:00","VFR",18.3,12.2,0,0,NA,NA,1024.1,"METAR KTAN 162152Z AUTO 00000KT 10SM CLR 18/12 A3024 RMK AO2 SLP239 T01830122 $",2025-09-16 22:42:50.362339,2025-09-16 18:42:50.362381
"KSPS","Wichita Falls Rgnl, TX, US",2025-09-16 21:52:00,"2025-09-16 16:52:00","VFR",33.9,13.9,160,8,NA,NA,1017.4,"METAR KSPS 162152Z 16008KT 10SM SCT060 34/14 A3004 RMK AO2 LTG DSNT N AND NW SLP158 T03390139",2025-09-16 22:42:50.36879,2025-09-16 18:42:50.368854
"KSPI","Springfield/Lincoln Capital Arpt, IL, US",2025-09-16 21:52:00,"2025-09-16 16:52:00","VFR",32.2,11.1,70,5,NA,NA,1019,"METAR KSPI 162152Z 07005KT 10SM CLR 32/11 A3009 RMK AO2 SLP185 T03220111",2025-09-16 22:42:50.375316,2025-09-16 18:42:50.37536
"KSUX","Sioux City/Day Fld, IA, US",2025-09-16 21:52:00,"2025-09-16 16:52:00","VFR",31,20,220,7,NA,NA,1018,"METAR KSUX 162152Z COR 22007KT 10SM SKC 31/20 A3006",2025-09-16 22:42:50.381767,2025-09-16 18:42:50.38183
"KSMO","Santa Monica Muni, CA, US",2025-09-16 21:51:00,"2025-09-16 14:51:00","VFR",26.7,17.2,210,9,NA,NA,1013,"METAR KSMO 162151Z 21009KT 10SM CLR 27/17 A2991 RMK AO2 SLP127 T02670172",2025-09-16 22:42:50.388306,2025-09-16 18:42:50.38835
"KTEB","Teterboro Arpt, NJ, US",2025-09-16 21:51:00,"2025-09-16 17:51:00","VFR",21.1,10,80,9,18,NA,1022.4,"METAR KTEB 162151Z 08009G18KT 10SM SCT050 21/10 A3019 RMK AO2 SLP223 T02110100 $",2025-09-16 22:42:50.394778,2025-09-16 18:42:50.394842
"KSMX","Santa Maria/Hancock Fld, CA, US",2025-09-16 21:51:00,"2025-09-16 14:51:00","VFR",22.2,14.4,290,8,NA,NA,1014.3,"METAR KSMX 162151Z 29008KT 10SM CLR 22/14 A2995 RMK AO2 SLP142 T02220144 $",2025-09-16 22:42:50.401259,2025-09-16 18:42:50.401303
"KSLK","Saranac Lake/Adirondack Rgnl, NY, US",2025-09-16 21:51:00,"2025-09-16 17:51:00","VFR",22.8,7.8,60,9,NA,NA,1023.5,"METAR KSLK 162151Z AUTO 06009KT 10SM CLR 23/08 A3022 RMK AO2 SLP237 T02280078",2025-09-16 22:42:50.407678,2025-09-16 18:42:50.407722
"KSTL","St Louis/Lambert Intl, MO, US",2025-09-16 21:51:00,"2025-09-16 16:51:00","VFR",32.8,12.2,350,6,NA,NA,1018.7,"METAR KSTL 162151Z 35006KT 10SM FEW070 SCT250 33/12 A3008 RMK AO2 SLP173 T03280122 $",2025-09-16 22:42:50.414211,2025-09-16 18:42:50.414256
"KSQL","San Carlos Arpt, CA, US",2025-09-16 21:47:00,"2025-09-16 14:47:00","VFR",29,17,340,8,NA,NA,1013.6,"METAR KSQL 162147Z 34008KT 10SM SKC 29/17 A2993",2025-09-16 22:42:50.432626,2025-09-16 18:42:50.432706
"KSUA","Stuart/Witham Fld, FL, US",2025-09-16 21:47:00,"2025-09-16 17:47:00","VFR",30,25,100,8,NA,7,1015.7,"METAR KSUA 162147Z 10008KT 7SM VCSH SCT012 SCT026 30/25 A2999",2025-09-16 22:42:50.440113,2025-09-16 18:42:50.440159
"KSUN","Hailey/Friedman Mem, ID, US",2025-09-16 21:47:00,"2025-09-16 15:47:00","VFR",21,6,160,8,NA,NA,1025.8,"METAR KSUN 162147Z 16008KT 10SM FEW080 21/06 A3029",2025-09-16 22:42:50.44715,2025-09-16 18:42:50.447196
"KSWF","Newburgh/Stewart Intl, NY, US",2025-09-16 21:45:00,"2025-09-16 17:45:00","VFR",23,13,90,12,NA,NA,1022.4,"METAR KSWF 162145Z 09012KT 10SM SCT045 BKN070 23/13 A3019",2025-09-16 22:42:50.453726,2025-09-16 18:42:50.453772
"KTTS","NASA Shuttle Landing Arpt, FL, US",2025-09-16 22:40:00,"2025-09-16 22:40:00","VFR",27,22,50,5,NA,NA,1016.7,"SPECI KTTS 162240Z AUTO 05005KT 10SM SCT027 BKN041 BKN055 27/22 A3002 RMK AO2 LTG DSNT S-SW SLP170 FZRANO $",2025-09-16 22:42:51.878351,2025-09-16 18:42:51.878396
"KUKF","Wilkesboro/Wilkes Cnty, NC, US",2025-09-16 22:40:00,"2025-09-16 18:40:00","VFR",20,8,80,3,NA,NA,1022.4,"METAR KUKF 162240Z AUTO 08003KT 10SM -RA BKN090 BKN110 20/08 A3019 RMK AO2",2025-09-16 22:42:51.885066,2025-09-16 18:42:51.885111
"KU68","Cowley/N Big Horn Cnty, WY, US",2025-09-16 22:35:00,"2025-09-16 22:35:00","VFR",19,5,30,15,NA,NA,1024.8,"METAR KU68 162235Z AUTO 03015KT 10SM VCTS SCT050 SCT085 SCT110 19/05 A3026 RMK AO2",2025-09-16 22:42:51.891565,2025-09-16 18:42:51.891608
"KUVA","Uvalde/Garner Fld, TX, US",2025-09-16 22:35:00,"2025-09-16 17:35:00",NA,32,14.8,90,9,NA,NA,1018,"METAR KUVA 162235Z AUTO 09009KT SCT070 BKN095 32/15 A3006 RMK AO2 T03200148 PWINO",2025-09-16 22:42:51.89794,2025-09-16 18:42:51.897982
"KTSP","Tehachapi Muni, CA, US",2025-09-16 22:35:00,"2025-09-16 15:35:00","VFR",31,7,320,10,15,NA,1019.7,"METAR KTSP 162235Z AUTO 32010G15KT 10SM FEW100 31/07 A3011 RMK AO2",2025-09-16 22:42:51.90431,2025-09-16 18:42:51.904355
"KUYF","London/Madison Cnty, OH, US",2025-09-16 22:35:00,"2025-09-16 22:35:00","VFR",28,4,100,6,NA,NA,1020.4,"METAR KUYF 162235Z AUTO 10006KT 10SM CLR 28/04 A3013 RMK AO2",2025-09-16 22:42:51.910704,2025-09-16 18:42:51.910747
"KUBE","Cumberland Muni, WI, US",2025-09-16 22:35:00,"2025-09-16 22:35:00","VFR",28,20,170,8,NA,NA,1019.4,"METAR KUBE 162235Z AUTO 17008KT 10SM CLR 28/20 A3010 RMK AO2",2025-09-16 22:42:51.917224,2025-09-16 18:42:51.917269
"KTQH","Tahlequah Muni, OK, US",2025-09-16 22:35:00,"2025-09-16 22:35:00",NA,33,19,350,3,NA,NA,NA,"METAR KTQH 162235Z AUTO 35003KT 10SM 33/19 RMK AO2",2025-09-16 22:42:51.92364,2025-09-16 18:42:51.923687
"KUMP","Indianapolis Metro, IN, US",2025-09-16 22:35:00,"2025-09-16 22:35:00","VFR",28.5,11,0,0,NA,NA,1020.1,"METAR KUMP 162235Z AUTO 00000KT 10SM CLR 29/11 A3012 RMK AO2 T02850110 $",2025-09-16 22:42:51.930149,2025-09-16 18:42:51.930192
"KTKV","Tomahawk Rgnl, WI, US",2025-09-16 22:35:00,"2025-09-16 22:35:00","VFR",26.9,15.3,170,5,NA,NA,1021.4,"METAR KTKV 162235Z AUTO 17005KT 10SM CLR 27/15 A3016 RMK AO2 T02690153 PWINO",2025-09-16 22:42:51.93663,2025-09-16 18:42:51.936674
"KTTA","Sanford/Lee Cnty, NC, US",2025-09-16 22:35:00,"2025-09-16 22:35:00","VFR",21.3,12,30,7,NA,NA,1019.4,"METAR KTTA 162235Z AUTO 03007KT 10SM SCT055 OVC070 21/12 A3010 RMK AO2 T02130120",2025-09-16 22:42:51.943199,2025-09-16 18:42:51.943244
"KTVK","Centerville Muni, IA, US",2025-09-16 22:35:00,"2025-09-16 22:35:00",NA,31,15,0,0,NA,NA,1020.1,"METAR KTVK 162235Z AUTO 00000KT 10SM -DZ 31/15 A3012 RMK AO2",2025-09-16 22:42:51.963017,2025-09-16 18:42:51.963066
"KTTF","Monroe/Custer Arpt, MI, US",2025-09-16 22:35:00,"2025-09-16 22:35:00","VFR",24,17,120,6,NA,NA,1021.4,"METAR KTTF 162235Z AUTO 12006KT 10SM CLR 24/17 A3016 RMK AO2",2025-09-16 22:42:51.970157,2025-09-16 18:42:51.970206
"KTYL","Taylor Arpt, AZ, US",2025-09-16 22:35:00,"2025-09-16 15:35:00","VFR",25,6,360,15,20,NA,1023.1,"METAR KTYL 162235Z AUTO 36015G20KT 10SM VCTS CLR 25/06 A3021 RMK AO2 LTG DSNT ALQDS",2025-09-16 22:42:51.977164,2025-09-16 18:42:51.977208
"KUOX","Oxford/University Arpt, MS, US",2025-09-16 22:35:00,"2025-09-16 17:35:00","VFR",29,23,0,0,NA,NA,1017.4,"METAR KUOX 162235Z AUTO 00000KT 10SM CLR 29/23 A3004 RMK AO2 PWINO",2025-09-16 22:42:51.983696,2025-09-16 18:42:51.983738
"KTME","Houston/Executive Arpt, TX, US",2025-09-16 22:35:00,"2025-09-16 22:35:00","VFR",31,20,160,4,NA,NA,1017,"METAR KTME 162235Z AUTO 16004KT 10SM CLR 31/20 A3003 RMK AO2",2025-09-16 22:42:51.990191,2025-09-16 18:42:51.990234
"KTWT","Sturgis Muni, KY, US",2025-09-16 22:35:00,"2025-09-16 22:35:00",NA,NA,NA,40,6,NA,NA,1017.7,"METAR KTWT 162235Z AUTO 04006KT 10SM A3005 RMK AO2",2025-09-16 22:42:51.996709,2025-09-16 18:42:51.996753
"KTKX","Kennett Arpt, MO, US",2025-09-16 22:35:00,"2025-09-16 17:35:00","VFR",34,17,50,4,NA,NA,1016,"METAR KTKX 162235Z AUTO 05004KT 10SM CLR 34/17 A3000 RMK AO2",2025-09-16 22:42:52.003227,2025-09-16 18:42:52.003271
"KTOC","Toccoa/Lefourneau Fld, GA, US",2025-09-16 22:35:00,"2025-09-16 18:35:00","VFR",22.4,17.9,70,4,NA,NA,1019.7,"METAR KTOC 162235Z AUTO 07004KT 10SM SCT055 SCT120 22/18 A3011 RMK AO2 T02240179",2025-09-16 22:42:52.009717,2025-09-16 18:42:52.009763
"KTMA","Tifton/Myers Arpt, GA, US",2025-09-16 22:35:00,"2025-09-16 18:35:00","VFR",28.6,15,0,0,NA,NA,1019,"METAR KTMA 162235Z AUTO 00000KT 10SM CLR 29/15 A3009 RMK AO2 T02860150",2025-09-16 22:42:52.016145,2025-09-16 18:42:52.016194
"KULM","New Ulm Muni, MN, US",2025-09-16 22:35:00,"2025-09-16 17:35:00","VFR",32,16,180,4,NA,NA,1018,"METAR KULM 162235Z AUTO 18004KT 10SM CLR 32/16 A3006 RMK AO2 LTG DSNT S",2025-09-16 22:42:52.022656,2025-09-16 18:42:52.022701
"KTNU","Newton Muni, IA, US",2025-09-16 22:35:00,"2025-09-16 17:35:00","VFR",28,20,0,0,NA,NA,1019.4,"METAR KTNU 162235Z AUTO 00000KT 10SM CLR 28/20 A3010 RMK A01",2025-09-16 22:42:52.02911,2025-09-16 18:42:52.029155
"KTYQ","Indianapolis Exec, IN, US",2025-09-16 22:35:00,"2025-09-16 22:35:00","VFR",26.6,10.3,0,0,NA,NA,1020.4,"METAR KTYQ 162235Z AUTO 00000KT 10SM CLR 27/10 A3013 RMK AO2 T02660103",2025-09-16 22:42:52.035512,2025-09-16 18:42:52.035556
"KUNI","Albany/Ohio Univ Arpt, OH, US",2025-09-16 22:35:00,"2025-09-16 18:35:00","VFR",25.5,13.1,0,0,NA,NA,1019.4,"METAR KUNI 162235Z AUTO 00000KT 10SM FEW250 25/13 A3010 RMK AO2 T02550131",2025-09-16 22:42:52.041989,2025-09-16 18:42:52.042035
"KVDI","Vidalia Rgnl, GA, US",2025-09-16 22:35:00,"2025-09-16 18:35:00","VFR",29,13,350,4,NA,NA,1018.4,"METAR KVDI 162235Z AUTO 35004KT 10SM CLR 29/13 A3007 RMK AO2",2025-09-16 22:42:52.048648,2025-09-16 18:42:52.048692
"KTKC","Tracy Muni, MN, US",2025-09-16 22:35:00,"2025-09-16 22:35:00","VFR",31,17,270,7,13,NA,1018,"METAR KTKC 162235Z AUTO 27007G13KT 10SM CLR 31/17 A3006 RMK AO2",2025-09-16 22:42:52.055083,2025-09-16 18:42:52.055127
"KTVI","Thomasville Rgnl, GA, US",2025-09-16 22:35:00,"2025-09-16 18:35:00","VFR",30,13,60,6,NA,NA,1018.4,"METAR KTVI 162235Z AUTO 06006KT 10SM SCT075 30/13 A3007 RMK AO2",2025-09-16 22:42:52.061493,2025-09-16 18:42:52.061537
"KUUV","Sullivan Rgnl, MO, US",2025-09-16 22:35:00,"2025-09-16 22:35:00","VFR",32,11,50,7,NA,NA,1019.4,"METAR KUUV 162235Z AUTO 05007KT 10SM CLR 32/11 A3010 RMK AO2",2025-09-16 22:42:52.068075,2025-09-16 18:42:52.06812
"KTWM","Two Harbors/Helgeson Arpt, MN, US",2025-09-16 22:35:00,"2025-09-16 22:35:00","VFR",26,19,0,0,NA,NA,1017.4,"METAR KTWM 162235Z AUTO 00000KT 10SM CLR 26/19 A3004 RMK AO2",2025-09-16 22:42:52.074664,2025-09-16 18:42:52.074708
"KUTA","Tunica Muni, MS, US",2025-09-16 22:35:00,"2025-09-16 17:35:00","VFR",33.4,19.2,160,8,NA,NA,1016,"METAR KUTA 162235Z AUTO 16008KT 10SM FEW075 33/19 A3000 RMK AO2 T03340192 $",2025-09-16 22:42:52.094354,2025-09-16 18:42:52.094413
"KTIF","Thedford/Thomas Cnty, NE, US",2025-09-16 22:35:00,"2025-09-16 22:35:00","VFR",16.3,13.6,360,13,18,NA,1021.8,"METAR KTIF 162235Z AUTO 36013G18KT 10SM -TSRA SCT060 BKN070 OVC120 16/14 A3017 RMK AO2 LTG DSNT ALQDS P0001 T01630136",2025-09-16 22:42:52.101904,2025-09-16 18:42:52.101952
"KTQK","Scott City Muni, KS, US",2025-09-16 22:35:00,"2025-09-16 22:35:00","VFR",29.4,15,170,14,23,NA,1018,"METAR KTQK 162235Z AUTO 17014G23KT 10SM CLR 29/15 A3006 RMK AO2 T02940150",2025-09-16 22:42:52.108987,2025-09-16 18:42:52.109034
"KUKL","Burlington/Coffey Cnty, KS, US",2025-09-16 22:35:00,"2025-09-16 22:35:00","VFR",30.5,17.8,200,4,NA,NA,1019.4,"METAR KUKL 162235Z AUTO 20004KT 10SM CLR 31/18 A3010 RMK AO2 T03050178",2025-09-16 22:42:52.115535,2025-09-16 18:42:52.115578
"KUNU","Juneau/Dodge Cnty, WI, US",2025-09-16 22:35:00,"2025-09-16 17:35:00","VFR",27.2,15.1,0,0,NA,NA,1021.8,"METAR KUNU 162235Z AUTO 00000KT 10SM CLR 27/15 A3017 RMK AO2 T02720151 TSNO",2025-09-16 22:42:52.121949,2025-09-16 18:42:52.121992
"KUXL","Sulphur/Southland Fld, LA, US",2025-09-16 22:35:00,"2025-09-16 22:35:00","VFR",34.2,17.6,0,0,NA,NA,1016.7,"METAR KUXL 162235Z AUTO 00000KT 10SM BKN070 BKN080 BKN120 34/18 A3002 RMK AO2 T03420176",2025-09-16 22:42:52.128302,2025-09-16 18:42:52.128345
"KTMK","Tillamook Arpt, OR, US",2025-09-16 22:35:00,"2025-09-16 15:35:00","VFR",25,11,290,8,NA,NA,1013.6,"METAR KTMK 162235Z AUTO 29008KT 10SM CLR 25/11 A2993 RMK AO2",2025-09-16 22:42:52.13468,2025-09-16 18:42:52.134725
"KTVY","Tooele Valley Arpt, UT, US",2025-09-16 22:35:00,"2025-09-16 22:35:00","VFR",24,1,20,10,NA,NA,1022.4,"METAR KTVY 162235Z AUTO 02010KT 10SM CLR 24/01 A3019 RMK AO2",2025-09-16 22:42:52.141105,2025-09-16 18:42:52.14115
"KVDF","Tampa/Executive Arpt, FL, US",2025-09-16 22:35:00,"2025-09-16 22:35:00","VFR",25,24,340,5,NA,NA,1017.4,"METAR KVDF 162235Z AUTO 34005KT 10SM BKN050 BKN070 OVC110 25/24 A3004 RMK AO2 P0001",2025-09-16 22:42:52.147532,2025-09-16 18:42:52.147576
"KTIP","Rantoul/Chanute AFB, IL, US",2025-09-16 22:35:00,"2025-09-16 22:35:00","VFR",28.5,11.5,50,11,NA,NA,1020.1,"METAR KTIP 162235Z AUTO 05011KT 10SM CLR 29/12 A3012 RMK AO2 T02850115",2025-09-16 22:42:52.153914,2025-09-16 18:42:52.153959
"KUKT","Quakertown Arpt, PA, US",2025-09-16 22:35:00,"2025-09-16 18:35:00","VFR",20,14,50,5,NA,NA,1021.8,"METAR KUKT 162235Z AUTO 05005KT 10SM CLR 20/14 A3017 RMK AO2",2025-09-16 22:42:52.160293,2025-09-16 18:42:52.160337
"KVCV","Victorville/S California Arpt, CA, US",2025-09-16 22:15:00,"2025-09-16 15:15:00","VFR",35,11,150,10,18,NA,1017,"METAR KVCV 162215Z AUTO 15010G18KT 10SM SCT095 35/11 A3003 RMK AO2",2025-09-16 22:42:52.166765,2025-09-16 18:42:52.16683
"KTHA","Tullahoma Rgnl, TN, US",2025-09-16 22:15:00,"2025-09-16 17:15:00","VFR",29,17,0,0,NA,NA,1018.4,"METAR KTHA 162215Z AUTO 00000KT 10SM CLR 29/17 A3007 RMK A01",2025-09-16 22:42:52.173187,2025-09-16 18:42:52.173231
"KULS","Ulysses Arpt, KS, US",2025-09-16 22:15:00,"2025-09-16 22:15:00","VFR",27,18,100,7,NA,NA,1017.7,"METAR KULS 162215Z AUTO 10007KT 10SM CLR 27/18 A3005 RMK AO2",2025-09-16 22:42:52.179538,2025-09-16 18:42:52.179581
"KU52","Beaver Muni, UT, US",2025-09-16 22:15:00,"2025-09-16 22:15:00","VFR",26,-3,300,5,14,NA,1023.5,"METAR KU52 162215Z AUTO 30005G14KT 10SM RA CLR 26/M03 A3022 RMK AO2",2025-09-16 22:42:52.18586,2025-09-16 18:42:52.185906
"KU55","Panguitch Muni, UT, US",2025-09-16 22:15:00,"2025-09-16 16:15:00","VFR",26,-2,320,14,NA,NA,1025.8,"METAR KU55 162215Z AUTO 32014KT 10SM CLR 26/M02 A3029 RMK A01",2025-09-16 22:42:52.192253,2025-09-16 18:42:52.192297
"KU69","Duchesne Muni, UT, US",2025-09-16 22:15:00,"2025-09-16 22:15:00","VFR",21,4,170,7,NA,NA,1023.5,"METAR KU69 162215Z AUTO 17007KT 10SM CLR 21/04 A3022 RMK A01",2025-09-16 22:42:52.198617,2025-09-16 18:42:52.19866
"KUSE","Wauseon/Fulton Cnty, OH, US",2025-09-16 22:15:00,"2025-09-16 22:15:00","VFR",27,14,100,7,NA,NA,1021.1,"METAR KUSE 162215Z AUTO 10007KT 080V140 10SM CLR 27/14 A3015 RMK AO2",2025-09-16 22:42:52.205058,2025-09-16 18:42:52.205103
"KUWL","New Castle/Henry Cnty, IN, US",2025-09-16 22:10:00,"2025-09-16 22:10:00","VFR",29,12,0,0,NA,NA,1019.7,"METAR KUWL 162210Z AUTO 00000KT 10SM CLR 29/12 A3011 RMK A01",2025-09-16 22:42:52.211517,2025-09-16 18:42:52.211562
"KVBG","Vandenberg AFB, CA, US",2025-09-16 22:06:00,"2025-09-16 15:06:00","IFR",20,16,280,8,NA,7,1014.6,"SPECI KVBG 162206Z 28008KT 7SM BKN006 BKN050 20/16 A2996 RMK AO2A BKN006 V SCT TCU DSNT E SLP147",2025-09-16 22:42:52.229621,2025-09-16 18:42:52.229666
"KTOI","Troy Muni, AL, US",2025-09-16 22:04:00,"2025-09-16 17:04:00","VFR",31.1,13.3,90,4,NA,NA,1018.4,"SPECI KTOI 162204Z AUTO 09004KT 10SM FEW002 31/13 A3007 RMK AO2 T03110133 $",2025-09-16 22:42:52.236565,2025-09-16 18:42:52.236611
"KVBT","Bentonville Muni, AR, US",2025-09-16 21:56:00,"2025-09-16 21:56:00","VFR",32.2,19.4,360,8,NA,NA,1020.4,"METAR KVBT 162156Z AUTO 36008KT 10SM CLR 32/19 A3013 RMK AO2 LTG DSNT E AND SE TSB05E20 SLP190 T03220194",2025-09-16 22:42:52.243323,2025-09-16 18:42:52.243366
"KTPH","Tonopah Arpt, NV, US",2025-09-16 21:56:00,"2025-09-16 14:56:00","VFR",27.8,-2.2,NA,4,NA,NA,1022.4,"METAR KTPH 162156Z AUTO VRB04KT 10SM CLR 28/M02 A3019 RMK AO2 SLP154 T02781022",2025-09-16 22:42:52.249713,2025-09-16 18:42:52.249755
"KTVF","Thief River Rgnl, MN, US",2025-09-16 21:56:00,"2025-09-16 16:56:00","VFR",26.7,16.1,270,9,NA,NA,1018.4,"METAR KTVF 162156Z AUTO 27009KT 10SM CLR 27/16 A3007 RMK AO2 SLP179 T02670161",2025-09-16 22:42:52.256053,2025-09-16 18:42:52.256097
"KUKI","Ukiah Muni, CA, US",2025-09-16 21:56:00,"2025-09-16 14:56:00","VFR",34.4,8.9,150,11,NA,NA,1013,"METAR KUKI 162156Z AUTO 15011KT 10SM CLR 34/09 A2991 RMK AO2 SLP121 T03440089",2025-09-16 22:42:52.262431,2025-09-16 18:42:52.262479
"KUDG","Darlington Cnty, SC, US",2025-09-16 21:56:00,"2025-09-16 21:56:00","VFR",27.8,12.8,10,9,NA,NA,1018.4,"METAR KUDG 162156Z AUTO 01009KT 10SM BKN070 28/13 A3007 RMK AO2 SLP183 T02780128 $",2025-09-16 22:42:52.268866,2025-09-16 18:42:52.268912
"KUCP","New Castle Muni, PA, US",2025-09-16 21:56:00,"2025-09-16 21:56:00","VFR",27.2,11.1,10,3,NA,NA,1021.1,"METAR KUCP 162156Z AUTO 01003KT 10SM CLR 27/11 A3015 RMK AO2 SLP218 T02720111",2025-09-16 22:42:52.27526,2025-09-16 18:42:52.275304
"KVAD","Valdosta/Moody AFB, GA, US",2025-09-16 21:55:00,"2025-09-16 17:55:00","VFR",30.9,14.1,80,5,NA,NA,1017.4,"METAR KVAD 162155Z AUTO 08005KT 10SM SCT070 31/14 A3004 RMK AO2 SLP173 T03090141 $",2025-09-16 22:42:52.28177,2025-09-16 18:42:52.281833
"KVAY","Mount Holly/S Jersey Rgnl, NJ, US",2025-09-16 21:54:00,"2025-09-16 17:54:00","VFR",20,10.6,60,8,15,NA,1021.1,"METAR KVAY 162154Z AUTO 06008G15KT 10SM SCT070 20/11 A3015 RMK AO2 SLP208 T02000106",2025-09-16 22:42:52.288268,2025-09-16 18:42:52.288312
"KUIN","Quincy/Baldwin Fld, IL, US",2025-09-16 21:54:00,"2025-09-16 16:54:00","VFR",32.8,14.4,60,9,NA,NA,1018.7,"METAR KUIN 162154Z AUTO 06009KT 10SM CLR 33/14 A3008 RMK AO2 SLP179 T03280144",2025-09-16 22:42:52.294766,2025-09-16 18:42:52.294827
"KTQE","Tekamah Muni, NE, US",2025-09-16 21:54:00,"2025-09-16 21:54:00","VFR",30.6,18.3,0,0,NA,NA,1017.7,"METAR KTQE 162154Z AUTO 00000KT 10SM FEW070 31/18 A3005 RMK AO2 SLP163 T03060183 $",2025-09-16 22:42:52.301205,2025-09-16 18:42:52.30125
"KUZA","Rock Hill/Bryant Fld, SC, US",2025-09-16 21:54:00,"2025-09-16 17:54:00","VFR",25.6,14.4,280,3,NA,NA,1019,"METAR KUZA 162154Z AUTO 28003KT 10SM FEW050 26/14 A3009 RMK AO2 SLP181 T02560144",2025-09-16 22:42:52.307562,2025-09-16 18:42:52.307606
"KTKI","McKinney Muni, TX, US",2025-09-16 21:53:00,"2025-09-16 21:53:00","VFR",33.9,16.7,180,5,NA,NA,1017.7,"METAR KTKI 162153Z 18005KT 10SM CLR 34/17 A3005 RMK AO2 SLP170 T03390167",2025-09-16 22:42:52.313948,2025-09-16 18:42:52.313993
"KTIW","Tacoma Narrows Arpt, WA, US",2025-09-16 21:53:00,"2025-09-16 14:53:00","VFR",30,8.9,20,7,NA,NA,1014.3,"METAR KTIW 162153Z 02007KT 10SM CLR 30/09 A2995 RMK AO2 SLP138 T03000089",2025-09-16 22:42:52.320359,2025-09-16 18:42:52.320403
"KTTN","Trenton/Mercer Arpt, NJ, US",2025-09-16 21:53:00,"2025-09-16 17:53:00","VFR",20,12.2,60,8,NA,NA,1021.4,"METAR KTTN 162153Z 06008KT 10SM CLR 20/12 A3016 RMK AO2 SLP207 T02000122",2025-09-16 22:42:52.326707,2025-09-16 18:42:52.326751
"KTUS","Tucson Intl Arpt, AZ, US",2025-09-16 21:53:00,"2025-09-16 14:53:00","VFR",36.7,11.7,360,5,NA,NA,1014.3,"METAR KTUS 162153Z 36005KT 10SM BKN095 37/12 A2995 RMK AO2 SLP086 T03670117",2025-09-16 22:42:52.333098,2025-09-16 18:42:52.333143
"KUNV","State College/Univ Park Arpt, PA, US",2025-09-16 21:53:00,"2025-09-16 17:53:00","VFR",24,12,60,5,NA,NA,1021.8,"METAR KUNV 162153Z 06005KT 10SM CLR 24/12 A3017",2025-09-16 22:42:52.339514,2025-09-16 18:42:52.339558
"KTPA","Tampa Intl Arpt, FL, US",2025-09-16 21:53:00,"2025-09-16 17:53:00","VFR",30,20.6,350,3,NA,NA,1016.7,"METAR KTPA 162153Z COR 35003KT 10SM SCT043CB SCT110 BKN250 30/21 A3002 RMK AO2 TSB06E53 SLP164 CB DSNT NE-SE T03000206",2025-09-16 22:42:52.345995,2025-09-16 18:42:52.346041
"KTXK","Texarkana Rgnl, AR, US",2025-09-16 21:53:00,"2025-09-16 16:53:00","VFR",37.2,18.9,360,6,NA,NA,1016.7,"METAR KTXK 162153Z 36006KT 10SM BKN070 BKN090 37/19 A3002 RMK AO2 SLP161 T03720189",2025-09-16 22:42:52.365437,2025-09-16 18:42:52.365486
"KUNO","West Plains Rgnl, MO, US",2025-09-16 21:53:00,"2025-09-16 21:53:00","VFR",31.7,14.4,70,7,NA,NA,1019,"METAR KUNO 162153Z AUTO 07007KT 10SM CLR 32/14 A3009 RMK AO2 SLP176 T03170144",2025-09-16 22:42:52.372438,2025-09-16 18:42:52.372483
"KUTS","Huntsville Muni, TX, US",2025-09-16 21:53:00,"2025-09-16 16:53:00","VFR",33.9,18.3,60,3,NA,NA,1017.4,"METAR KUTS 162153Z AUTO 06003KT 10SM -RA BKN070 BKN100 34/18 A3004 RMK AO2 LTG DSNT NE SLP168 P0000 T03390183",2025-09-16 22:42:52.379152,2025-09-16 18:42:52.379195
"KUUU","Newport State Arpt, RI, US",2025-09-16 21:53:00,"2025-09-16 17:53:00","VFR",18.9,12.2,110,4,NA,NA,1023.8,"METAR KUUU 162153Z AUTO 11004KT 10SM CLR 19/12 A3023 RMK AO2 SLP235 T01890122",2025-09-16 22:42:52.385535,2025-09-16 18:42:52.385578
"KVCB","Vacaville/Nut Tree Arpt, CA, US",2025-09-16 21:53:00,"2025-09-16 21:53:00","VFR",35,10,NA,3,NA,NA,1013,"METAR KVCB 162153Z AUTO VRB03KT 10SM CLR 35/10 A2991 RMK AO2 SLP127 T03500100",2025-09-16 22:42:52.392042,2025-09-16 18:42:52.392086
"KTHV","York Arpt, PA, US",2025-09-16 21:53:00,"2025-09-16 17:53:00","VFR",17.2,15.6,0,0,NA,NA,1021.4,"METAR KTHV 162153Z AUTO 00000KT 10SM FEW070 BKN090 OVC110 17/16 A3016 RMK AO2 RAE46 SLP215 P0006 T01720156",2025-09-16 22:42:52.398502,2025-09-16 18:42:52.398546
"KTYR","Tyler/Pounds Fld, TX, US",2025-09-16 21:53:00,"2025-09-16 16:53:00","VFR",33.9,16.1,300,5,NA,NA,1018,"METAR KTYR 162153Z 30005KT 10SM CLR 34/16 A3006 RMK AO2 SLP170 T03390161",2025-09-16 22:42:52.404942,2025-09-16 18:42:52.404998
"KVEL","Vernal Rgnl, UT, US",2025-09-16 21:53:00,"2025-09-16 15:53:00","VFR",19.4,7.2,130,3,NA,NA,1022.8,"METAR KVEL 162153Z AUTO 13003KT 10SM CLR 19/07 A3020 RMK AO2 LTG DSNT E AND SE RAE12 TSE14 SLP174 P0000 T01940072",2025-09-16 22:42:52.411491,2025-09-16 18:42:52.411538
"KTVR","Vicksburg/Tallulah Rgnl, LA, US",2025-09-16 21:53:00,"2025-09-16 21:53:00","VFR",30.6,22.2,0,0,NA,NA,1016.7,"METAR KTVR 162153Z AUTO 00000KT 10SM CLR 31/22 A3002 RMK AO2 LTG DSNT N AND NE SLP171 T03060222",2025-09-16 22:42:52.417904,2025-09-16 18:42:52.417948
"KTVC","Traverse City/Cherry Capital Arpt, MI, US",2025-09-16 21:53:00,"2025-09-16 17:53:00","VFR",24.4,16.1,10,6,NA,NA,1021.8,"METAR KTVC 162153Z 01006KT 10SM FEW048 BKN250 24/16 A3017 RMK AO2 SLP213 T02440161",2025-09-16 22:42:52.424235,2025-09-16 18:42:52.424278
"KTYS","Knoxville/Tyson Arpt, TN, US",2025-09-16 21:53:00,"2025-09-16 17:53:00","VFR",26.7,16.7,250,7,NA,NA,1018.4,"METAR KTYS 162153Z 25007KT 10SM SCT044 BKN130 BKN250 27/17 A3007 RMK AO2 SLP173 CB DSNT W-NW T02670167",2025-09-16 22:42:52.430571,2025-09-16 18:42:52.430614
"KTWF","Twin Falls/Joslin Fld, ID, US",2025-09-16 21:53:00,"2025-09-16 15:53:00","VFR",23.3,3.3,50,8,NA,NA,1023.8,"METAR KTWF 162153Z 05008KT 10SM CLR 23/03 A3023 RMK AO2 SLP196 T02330033",2025-09-16 22:42:52.436926,2025-09-16 18:42:52.436971
"KUAO","Aurora State Arpt, OR, US",2025-09-16 21:53:00,"2025-09-16 21:53:00","VFR",33.3,7.2,NA,3,NA,NA,1013,"METAR KUAO 162153Z VRB03KT 10SM CLR 33/07 A2991 RMK AO2 SLP128 T03330072",2025-09-16 22:42:52.443294,2025-09-16 18:42:52.443337
"KTMB","Miami Exec Arpt, FL, US",2025-09-16 21:53:00,"2025-09-16 17:53:00",NA,NA,NA,NA,NA,NA,NA,1015.7,"METAR KTMB 162153Z AUTO A2999 RMK AO2 LTG DSNT SW SLP156 PWINO $",2025-09-16 22:42:52.449576,2025-09-16 18:42:52.449618
"KTOP","Topeka/Billard Muni, KS, US",2025-09-16 21:53:00,"2025-09-16 16:53:00","VFR",32.2,16.7,210,8,NA,NA,1018,"METAR KTOP 162153Z 21008KT 10SM CLR 32/17 A3006 RMK AO2 SLP170 T03220167 $",2025-09-16 22:42:52.456029,2025-09-16 18:42:52.456073
"KTOR","Torrington Muni, WY, US",2025-09-16 21:53:00,"2025-09-16 15:53:00","VFR",21.1,8.9,10,15,21,NA,1021.8,"METAR KTOR 162153Z AUTO 01015G21KT 10SM CLR 21/09 A3017 RMK AO2 PK WND 02026/2058 SLP184 T02110089",2025-09-16 22:42:52.462347,2025-09-16 18:42:52.462392
"KTRL","Terrell Muni, TX, US",2025-09-16 21:53:00,"2025-09-16 16:53:00","VFR",32.2,16.7,170,4,NA,NA,1017.7,"METAR KTRL 162153Z AUTO 17004KT 10SM CLR 32/17 A3005 RMK AO2 SLP170 T03220167",2025-09-16 22:42:52.468838,2025-09-16 18:42:52.468885
"KTUL","Tulsa Intl Arpt, OK, US",2025-09-16 21:53:00,"2025-09-16 16:53:00","VFR",33.9,16.7,120,8,NA,NA,1018,"METAR KTUL 162153Z 12008KT 10SM FEW070 FEW250 34/17 A3006 RMK AO2 SLP169 CB DSNT E MOV STNRY TCU DSNT NW T03390167",2025-09-16 22:42:52.475345,2025-09-16 18:42:52.475389
"KTTD","Portland/Troutdale Arpt, OR, US",2025-09-16 21:53:00,"2025-09-16 14:53:00","VFR",29.4,11.7,90,19,26,NA,1013.6,"METAR KTTD 162153Z 09019G26KT 10SM CLR 29/12 A2993 RMK AO2 PK WND 08027/2135 SLP134 T02940117",2025-09-16 22:42:52.493715,2025-09-16 18:42:52.493763
"KTUP","Tupelo Rgnl, MS, US",2025-09-16 21:53:00,"2025-09-16 16:53:00","VFR",32.2,16.7,NA,5,NA,NA,1017,"METAR KTUP 162153Z VRB05KT 10SM CLR 32/17 A3003 RMK AO2 SLP164 T03220167 $",2025-09-16 22:42:52.501011,2025-09-16 18:42:52.501059
"KUIL","Quillayute State Arpt, WA, US",2025-09-16 21:53:00,"2025-09-16 14:53:00","VFR",28.3,11.1,NA,NA,NA,NA,1013,"METAR KUIL 162153Z AUTO 10SM CLR 28/11 A2991 RMK AO2 SLP126 T02830111",2025-09-16 22:42:52.50798,2025-09-16 18:42:52.508027
"KTRI","Bristol/Tri-Cities Arpt, TN, US",2025-09-16 21:53:00,"2025-09-16 17:53:00","VFR",22.8,16.7,0,0,NA,NA,1019.7,"METAR KTRI 162153Z 00000KT 10SM FEW014 SCT075 BKN100 OVC250 23/17 A3011 RMK AO2 RAB35E50 SLP175 P0000 T02280167",2025-09-16 22:42:52.514495,2025-09-16 18:42:52.514538
"KTVL","Lake Tahoe Arpt, CA, US",2025-09-16 21:53:00,"2025-09-16 14:53:00","VFR",24.4,4.4,10,8,NA,NA,1024.5,"METAR KTVL 162153Z AUTO 01008KT 10SM CLR 24/04 A3025 RMK AO2 SLP193 T02440044",2025-09-16 22:42:52.520886,2025-09-16 18:42:52.520932
"KTLH","Tallahassee Intl, FL, US",2025-09-16 21:53:00,"2025-09-16 17:53:00","VFR",31.1,13.3,90,9,NA,NA,1017.4,"METAR KTLH 162153Z 09009KT 10SM FEW060 31/13 A3004 RMK AO2 SLP171 T03110133 $",2025-09-16 22:42:52.527235,2025-09-16 18:42:52.527277
"KTRM","Thermal Arpt, CA, US",2025-09-16 21:52:00,"2025-09-16 14:52:00","VFR",40,12.8,NA,NA,NA,NA,1008.9,"METAR KTRM 162152Z AUTO 10SM CLR 40/13 A2979 RMK AO2 SLP090 T04000128 TSNO",2025-09-16 22:42:52.533646,2025-09-16 18:42:52.53369
"KTOL","Toledo/Express Arpt, OH, US",2025-09-16 21:52:00,"2025-09-16 17:52:00","VFR",27.2,12.8,60,8,NA,NA,1021.1,"METAR KTOL 162152Z 06008KT 10SM CLR 27/13 A3015 RMK AO2 SLP206 T02720128 $",2025-09-16 22:42:52.540074,2025-09-16 18:42:52.540119
"KTPL","Temple/Miller Rgnl, TX, US",2025-09-16 21:51:00,"2025-09-16 16:51:00",NA,33.3,16.7,130,9,NA,NA,1018,"METAR KTPL 162151Z AUTO 13009KT SCT080 33/17 A3006 RMK AO2 SLP170 T03330167 PWINO RVRNO $",2025-09-16 22:42:52.546444,2025-09-16 18:42:52.546486
"KVCT","Victoria Rgnl, TX, US",2025-09-16 21:51:00,"2025-09-16 16:51:00","VFR",31.1,19.4,120,11,NA,NA,1017,"METAR KVCT 162151Z 12011KT 10SM BKN060 BKN080 31/19 A3003 RMK AO2 SLP166 T03110194",2025-09-16 22:42:52.552798,2025-09-16 18:42:52.552863
"KUGN","Waukegan Rgnl, IL, US",2025-09-16 21:51:00,"2025-09-16 16:51:00","VFR",24.4,16.7,110,7,NA,NA,1021.8,"METAR KUGN 162151Z 11007KT 10SM CLR 24/17 A3017 RMK AO2 SLP207 T02440167",2025-09-16 22:42:52.559234,2025-09-16 18:42:52.559277
"KTRK","Truckee/Tahoe Arpt, CA, US",2025-09-16 21:47:00,"2025-09-16 14:47:00","VFR",27,1,250,6,19,NA,1024.1,"METAR KTRK 162147Z 25006G19KT 10SM CLR 27/01 A3024",2025-09-16 22:42:52.565577,2025-09-16 18:42:52.56562
"KTOA","Torrance Muni, CA, US",2025-09-16 21:47:00,"2025-09-16 14:47:00","VFR",24,19,280,16,NA,NA,1012.6,"METAR KTOA 162147Z 28016KT 10SM FEW025 FEW060 24/19 A2990",2025-09-16 22:42:52.571952,2025-09-16 18:42:52.571995
"KTZR","Columbus/Bolton Fld, OH, US",2025-09-16 21:47:00,"2025-09-16 21:47:00","VFR",28,12,290,7,NA,NA,1020.1,"METAR KTZR 162147Z 29007KT 10SM CLR 28/12 A3012",2025-09-16 22:42:52.57833,2025-09-16 18:42:52.578374
"KUES","Waukesha Cnty, WI, US",2025-09-16 21:45:00,"2025-09-16 16:45:00","VFR",27,16,100,10,NA,NA,1022.1,"METAR KUES 162145Z 10010KT 10SM CLR 27/16 A3018",2025-09-16 22:42:52.584697,2025-09-16 18:42:52.584742
"KXMR","Cape Kennedy AF Skid, FL, US",2025-09-16 22:38:00,"2025-09-16 22:38:00","IFR",26,23,100,7,NA,2.75,1016.3,"SPECI KXMR 162238Z AUTO 10007KT 2 3/4SM +RA BKN028 OVC037 26/23 A3001 RMK AO2 VIS 2 3/4V10 LTG DSNT SW DZE2155DZB23E27RAB27 TSB2155E2157 SLP165 $",2025-09-16 22:42:53.949106,2025-09-16 18:42:53.949151
"KWWD","Wildwood/Cape May Cnty, NJ, US",2025-09-16 22:37:00,"2025-09-16 18:37:00","MVFR",18,17,40,12,22,5,1018.7,"SPECI KWWD 162237Z AUTO 04012G22KT 5SM -RA BR BKN012 OVC020 18/17 A3008 RMK AO2 PK WND 03029/2213 P0000",2025-09-16 22:42:53.956081,2025-09-16 18:42:53.956125
"KWAL","Wallops Island Facility Arpt, VA, US",2025-09-16 22:36:00,"2025-09-16 18:36:00","IFR",18.9,18.3,30,22,31,2,1014,"SPECI KWAL 162236Z AUTO 03022G31KT 2SM VCTS +RA BR SCT007 OVC032 19/18 A2994 RMK AO2 PK WND 03039/2212 LTG DSNT ALQDS P0030 T01890183",2025-09-16 22:42:53.962883,2025-09-16 18:42:53.962927
"KVWU","Waskish Muni, MN, US",2025-09-16 22:35:00,"2025-09-16 22:35:00",NA,27,18,240,5,NA,NA,1017.4,"METAR KVWU 162235Z AUTO 24005KT CLR 27/18 A3004 RMK AO2 PWINO",2025-09-16 22:42:53.969169,2025-09-16 18:42:53.969211
"KVGC","Hamilton Muni, NY, US",2025-09-16 22:35:00,"2025-09-16 22:35:00","VFR",22,10,0,0,NA,NA,1022.8,"METAR KVGC 162235Z AUTO 00000KT 10SM CLR 22/10 A3020 RMK AO2",2025-09-16 22:42:53.97542,2025-09-16 18:42:53.975462
"KY19","Mandan Muni, ND, US",2025-09-16 22:35:00,"2025-09-16 22:35:00",NA,27,17,NA,3,NA,9,1020.4,"METAR KY19 162235Z AUTO VRB03KT 9SM 27/17 A3013 RMK AO2",2025-09-16 22:42:53.981684,2025-09-16 18:42:53.981728
"KW96","Quinton/New Kent Cnty, VA, US",2025-09-16 22:35:00,"2025-09-16 22:35:00","IFR",16,15.1,350,7,NA,7,1017.7,"METAR KW96 162235Z AUTO 35007KT 310V020 7SM OVC008 16/15 A3005 RMK AO1 P0002 T01600151",2025-09-16 22:42:53.988108,2025-09-16 18:42:53.98815
"KVTI","Vinton/Veterans Mem, IA, US",2025-09-16 22:35:00,"2025-09-16 22:35:00","VFR",30.7,16.1,130,4,NA,NA,1020.1,"METAR KVTI 162235Z AUTO 13004KT 10SM CLR 31/16 A3012 RMK AO2 T03070161",2025-09-16 22:42:53.994447,2025-09-16 18:42:53.994491
"KWDR","Winder/Barrow Cnty, GA, US",2025-09-16 22:35:00,"2025-09-16 18:35:00","VFR",27,16,NA,NA,NA,NA,1019.7,"METAR KWDR 162235Z 10SM CLR 27/16 A3011 RMK AO2 LTG DSNT NW",2025-09-16 22:42:54.000787,2025-09-16 18:42:54.000849
"KZER","Pottsville/Schuylkill Cnty, PA, US",2025-09-16 22:35:00,"2025-09-16 22:35:00","VFR",20,10,70,9,NA,NA,1023.5,"METAR KZER 162235Z AUTO 07009KT 10SM CLR 20/10 A3022 RMK AO2",2025-09-16 22:42:54.007104,2025-09-16 18:42:54.00715
"KVNW","Van Wert Cnty Arpt, OH, US",2025-09-16 22:35:00,"2025-09-16 22:35:00","VFR",28,11,0,0,NA,NA,1020.4,"METAR KVNW 162235Z AUTO 00000KT 10SM CLR 28/11 A3013 RMK AO2",2025-09-16 22:42:54.013421,2025-09-16 18:42:54.013465
"KXBP","Bridgeport Muni, TX, US",2025-09-16 22:35:00,"2025-09-16 22:35:00",NA,34.1,12.9,120,4,NA,NA,1018,"METAR KXBP 162235Z AUTO 12004KT SCT080 34/13 A3006 RMK AO2 T03410129",2025-09-16 22:42:54.019687,2025-09-16 18:42:54.019729
"KW31","Kenbridge/Lunenburg Cnty, VA, US",2025-09-16 22:35:00,"2025-09-16 22:35:00","MVFR",16.4,16.1,350,12,17,NA,1019.7,"METAR KW31 162235Z AUTO 35012G17KT 320V030 10SM SCT011 BKN016 OVC042 16/16 A3011 RMK AO1 T01640161",2025-09-16 22:42:54.026005,2025-09-16 18:42:54.026049
"KVYS","Peru/Illinois Valley Rgnl, IL, US",2025-09-16 22:35:00,"2025-09-16 17:35:00","VFR",30.5,12.2,70,5,NA,NA,1020.1,"METAR KVYS 162235Z AUTO 07005KT 10SM CLR 31/12 A3012 RMK AO2 T03050122 TSNO",2025-09-16 22:42:54.0323,2025-09-16 18:42:54.032343
"KY23","Chetek Muni, WI, US",2025-09-16 22:35:00,"2025-09-16 22:35:00","VFR",29,20.8,170,7,NA,NA,1019.7,"METAR KY23 162235Z AUTO 17007KT 10SM CLR 29/21 A3011 RMK AO2 T02900208",2025-09-16 22:42:54.03862,2025-09-16 18:42:54.038665
"KVHN","Van Horn/Culberson Cnty, TX, US",2025-09-16 22:35:00,"2025-09-16 17:35:00","VFR",28.7,8.9,40,4,NA,NA,1021.4,"METAR KVHN 162235Z AUTO 04004KT 10SM CLR 29/09 A3016 RMK AO2 LTG DSNT W T02870089",2025-09-16 22:42:54.045219,2025-09-16 18:42:54.045263
"KXLL","Allentown/Queen City, PA, US",2025-09-16 22:35:00,"2025-09-16 22:35:00","VFR",22,12,90,10,NA,NA,1022.1,"METAR KXLL 162235Z AUTO 09010KT 10SM CLR 22/12 A3018 RMK AO2 TSNO",2025-09-16 22:42:54.051532,2025-09-16 18:42:54.051576
"KW63","Clarksville/Lake Country Arpt, VA, US",2025-09-16 22:35:00,"2025-09-16 22:35:00","MVFR",17,15,350,3,NA,NA,1020.1,"METAR KW63 162235Z AUTO 35003KT 10SM BKN013 OVC024 17/15 A3012 RMK AO1",2025-09-16 22:42:54.05796,2025-09-16 18:42:54.058005
"KVUJ","Albemarle/Stanly Cnty, NC, US",2025-09-16 22:35:00,"2025-09-16 22:35:00","VFR",24.1,10.5,50,7,NA,NA,1020.7,"METAR KVUJ 162235Z AUTO 05007KT 10SM CLR 24/11 A3014 RMK AO2 T02410105",2025-09-16 22:42:54.064468,2025-09-16 18:42:54.064512
"KVVV","Ortonville Muni, MN, US",2025-09-16 22:35:00,"2025-09-16 22:35:00","VFR",28,19,0,0,NA,NA,1018.4,"METAR KVVV 162235Z AUTO 00000KT 10SM CLR 28/19 A3007 RMK AO2",2025-09-16 22:42:54.083192,2025-09-16 18:42:54.083239
"KW81","Crewe Muni, VA, US",2025-09-16 22:35:00,"2025-09-16 22:35:00","MVFR",14.6,13.2,330,6,NA,4,1020.1,"METAR KW81 162235Z AUTO 33006KT 4SM BKN010 BKN022 OVC045 15/13 A3012 RMK AO1 P0001 T01460132",2025-09-16 22:42:54.090091,2025-09-16 18:42:54.090135
"KVES","Versailles/Darke Cnty, OH, US",2025-09-16 22:35:00,"2025-09-16 22:35:00","VFR",29,13,360,6,NA,NA,1019.7,"METAR KVES 162235Z AUTO 36006KT 10SM SCT080 29/13 A3011 RMK AO2",2025-09-16 22:42:54.096768,2025-09-16 18:42:54.096828
"KVJI","Abingdon/Virginia Highlands Arpt, VA, US",2025-09-16 22:35:00,"2025-09-16 18:35:00","VFR",21,16,180,3,NA,NA,1020.7,"METAR KVJI 162235Z AUTO 18003KT 10SM SCT039 SCT070 BKN095 21/16 A3014 RMK AO2",2025-09-16 22:42:54.103124,2025-09-16 18:42:54.103167
"KVVS","Connellsville/Hardy Aprt, PA, US",2025-09-16 22:35:00,"2025-09-16 22:35:00","VFR",24.7,10.8,40,4,NA,NA,1021.1,"METAR KVVS 162235Z AUTO 04004KT 10SM SCT065 25/11 A3015 RMK AO2 T02470108",2025-09-16 22:42:54.109428,2025-09-16 18:42:54.109472
"KVPC","Cartersville Arpt, GA, US",2025-09-16 22:35:00,"2025-09-16 22:35:00","VFR",29,15,0,0,NA,NA,1019,"METAR KVPC 162235Z AUTO 00000KT 10SM CLR 29/15 A3009 RMK AO2",2025-09-16 22:42:54.11577,2025-09-16 18:42:54.115837
"KY51","Viroqua Muni, WI, US",2025-09-16 22:35:00,"2025-09-16 22:35:00","VFR",28,16.4,170,3,NA,NA,1021.1,"METAR KY51 162235Z AUTO 17003KT 10SM CLR 28/16 A3015 RMK AO1 T02800164",2025-09-16 22:42:54.122147,2025-09-16 18:42:54.12219
"KY31","West Branch Arpt, MI, US",2025-09-16 22:35:00,"2025-09-16 18:35:00","VFR",23.9,12.8,150,7,NA,NA,1022.4,"METAR KY31 162235Z AUTO 15007KT 100V180 10SM CLR 24/13 A3019 RMK AO2 T02390128",2025-09-16 22:42:54.128596,2025-09-16 18:42:54.12864
"KX26","Sabastian Arpt, FL, US",2025-09-16 22:35:00,"2025-09-16 22:35:00","VFR",28,24,60,8,NA,NA,1017,"METAR KX26 162235Z AUTO 06008KT 10SM SCT026 BKN032 28/24 A3003 RMK AO2 LTG DSNT SE",2025-09-16 22:42:54.13493,2025-09-16 18:42:54.134979
"KX60","Williston Muni, FL, US",2025-09-16 22:35:00,"2025-09-16 22:35:00","VFR",30.3,17.1,0,0,NA,NA,1017.4,"METAR KX60 162235Z AUTO 00000KT 10SM CLR 30/17 A3004 RMK AO2 T03030171",2025-09-16 22:42:54.14129,2025-09-16 18:42:54.141333
"KVER","Boonville/Vertel Mem, MO, US",2025-09-16 22:35:00,"2025-09-16 22:35:00","VFR",31.3,19.5,0,0,NA,NA,1019,"METAR KVER 162235Z AUTO 00000KT 10SM CLR 31/20 A3009 RMK AO2 T03130195",2025-09-16 22:42:54.147599,2025-09-16 18:42:54.147644
"KWWR","Woodward Arpt, OK, US",2025-09-16 22:35:00,"2025-09-16 17:35:00","VFR",31,13,160,14,NA,NA,1019.7,"METAR KWWR 162235Z AUTO 16014KT 10SM SCT095 31/13 A3011 RMK AO2",2025-09-16 22:42:54.153961,2025-09-16 18:42:54.154005
"KVLL","Oakland-Troy Arpt, MI, US",2025-09-16 22:35:00,"2025-09-16 22:35:00","VFR",28,11,NA,4,NA,NA,1021.4,"METAR KVLL 162235Z AUTO VRB04KT 10SM CLR 28/11 A3016 RMK AO2",2025-09-16 22:42:54.160317,2025-09-16 18:42:54.160362
"KXSA","Tappahannock/Essex Cnty, VA, US",2025-09-16 22:35:00,"2025-09-16 22:35:00","IFR",16,16,340,8,NA,5,1018.4,"METAR KXSA 162235Z AUTO 34008KT 5SM -DZ BKN007 OVC012 16/16 A3007 RMK AO2 LTG DSNT NE T01600160",2025-09-16 22:42:54.166651,2025-09-16 18:42:54.166694
"KW40","Mt Olive Muni, NC, US",2025-09-16 22:35:00,"2025-09-16 22:35:00","VFR",19.7,15.3,330,10,NA,NA,1019,"METAR KW40 162235Z AUTO 33010KT 10SM SCT026 BKN038 OVC046 20/15 A3009 RMK AO2 T01970153",2025-09-16 22:42:54.172988,2025-09-16 18:42:54.173033
"KW22","Buckhannon/Upshur Cnty, WV, US",2025-09-16 22:35:00,"2025-09-16 22:35:00","VFR",24,13,0,0,NA,NA,1021.4,"METAR KW22 162235Z AUTO 00000KT 10SM SCT070 24/13 A3016 RMK AO2",2025-09-16 22:42:54.17928,2025-09-16 18:42:54.179323
"KY70","Ionia Cnty Arpt, MI, US",2025-09-16 22:35:00,"2025-09-16 22:35:00","VFR",25,14,10,3,NA,NA,1022.1,"METAR KY70 162235Z AUTO 01003KT 10SM CLR 25/14 A3018 RMK AO2",2025-09-16 22:42:54.185688,2025-09-16 18:42:54.185731
"KW78","South Boston/Tuck Arpr, VA, US",2025-09-16 22:35:00,"2025-09-16 22:35:00","VFR",16.8,14,350,3,NA,NA,1020.7,"METAR KW78 162235Z AUTO 35003KT 10SM SCT047 OVC060 17/14 A3014 RMK AO1 T01680140",2025-09-16 22:42:54.192081,2025-09-16 18:42:54.192126
"KXVG","Longville Muni, MN, US",2025-09-16 22:33:00,"2025-09-16 22:33:00","VFR",28,19,290,5,NA,NA,1018,"METAR KXVG 162233Z AUTO 29005KT 10SM CLR 28/19 A3006 RMK AO2",2025-09-16 22:42:54.209361,2025-09-16 18:42:54.209456
"KVTN","Valentine/Miller Fld, NE, US",2025-09-16 22:23:00,"2025-09-16 17:23:00","MVFR",15.6,13.3,320,22,31,3,1023.5,"SPECI KVTN 162223Z AUTO 32022G31KT 3SM +TSRA BR BKN049 OVC060 16/13 A3022 RMK AO2 PK WND 27052/2153 LTG DSNT ALQDS P0030 T01560133",2025-09-16 22:42:54.21669,2025-09-16 18:42:54.216735
"KVMR","Vermillion/Davidson Fld, SD, US",2025-09-16 22:15:00,"2025-09-16 22:15:00","VFR",33,18,0,0,NA,NA,1017.4,"METAR KVMR 162215Z AUTO 00000KT 10SM CLR 33/18 A3004 RMK AO2",2025-09-16 22:42:54.223495,2025-09-16 18:42:54.22354
"KWYS","West Yellowstone Arpt, MT, US",2025-09-16 22:15:00,"2025-09-16 16:15:00","VFR",15,4,350,9,NA,NA,1027.9,"METAR KWYS 162215Z AUTO 35009KT 10SM FEW045 SCT060 15/04 A3035 RMK AO2",2025-09-16 22:42:54.230055,2025-09-16 18:42:54.230098
"KVKS","Vicksburg Arpt, MS, US",2025-09-16 22:15:00,"2025-09-16 17:15:00","VFR",28,25,0,0,NA,NA,1016,"METAR KVKS 162215Z AUTO 00000KT 10SM CLR 28/25 A3000 RMK A01",2025-09-16 22:42:54.236339,2025-09-16 18:42:54.236381
"KWJF","Lancaster/Fox Arfld, CA, US",2025-09-16 21:56:00,"2025-09-16 14:56:00","VFR",35,11.7,220,13,NA,NA,1015.3,"METAR KWJF 162156Z 22013KT 10SM FEW090 35/12 A2998 RMK AO2 SLP133 T03500117",2025-09-16 22:42:54.242586,2025-09-16 18:42:54.242632
"KWVL","Waterville/Lafleur Arpt, ME, US",2025-09-16 21:56:00,"2025-09-16 17:56:00","VFR",23.3,14.4,0,0,NA,NA,1023.8,"METAR KWVL 162156Z AUTO 00000KT 10SM CLR 23/14 A3023 RMK AO2 SLP263 T02330144",2025-09-16 22:42:54.248983,2025-09-16 18:42:54.249028
"KWMC","Winnemucca Muni, NV, US",2025-09-16 21:56:00,"2025-09-16 14:56:00","VFR",26.7,-3.9,0,0,NA,NA,1021.8,"METAR KWMC 162156Z AUTO 00000KT 10SM CLR 27/M04 A3017 RMK AO2 SLP178 T02671039",2025-09-16 22:42:54.255319,2025-09-16 18:42:54.255363
"KY50","Wautoma Muni, WI, US",2025-09-16 21:56:00,"2025-09-16 21:56:00","VFR",29.4,16.7,170,5,NA,NA,1021.1,"METAR KY50 162156Z AUTO 17005KT 10SM CLR 29/17 A3015 RMK AO2 SLP204 T02940167 $",2025-09-16 22:42:54.261749,2025-09-16 18:42:54.261791
"KVPZ","Valparaiso/Port Cnty, IN, US",2025-09-16 21:56:00,"2025-09-16 16:56:00","VFR",26.1,15.6,10,7,NA,NA,1021.8,"METAR KVPZ 162156Z AUTO 01007KT 10SM CLR 26/16 A3017 RMK AO2 SLP213 T02610156",2025-09-16 22:42:54.268069,2025-09-16 18:42:54.268112
"KYKN","Yankton/Gurney Muni, SD, US",2025-09-16 21:56:00,"2025-09-16 16:56:00","VFR",31.7,17.8,180,4,NA,NA,1017.7,"METAR KYKN 162156Z AUTO 18004KT 10SM CLR 32/18 A3005 RMK AO2 SLP180 T03170178",2025-09-16 22:42:54.274395,2025-09-16 18:42:54.274439
"KVIS","Visalia Muni, CA, US",2025-09-16 21:56:00,"2025-09-16 14:56:00","VFR",36.7,11.1,NA,5,NA,NA,1012.3,"METAR KVIS 162156Z AUTO VRB05KT 10SM CLR 37/11 A2989 RMK AO2 SLP119 T03670111 $",2025-09-16 22:42:54.28078,2025-09-16 18:42:54.280842
"KXNO","North/Aux Arfd, SC, US",2025-09-16 21:55:00,"2025-09-16 21:55:00","VFR",30.1,14.6,270,5,NA,NA,1017.7,"METAR KXNO 162155Z AUTO 27005KT 10SM FEW110 30/15 A3005 RMK AO2 SLP176 T03010146 $",2025-09-16 22:42:54.287203,2025-09-16 18:42:54.287245
"KWRI","McGuire AFB, NJ, US",2025-09-16 21:55:00,"2025-09-16 17:55:00","VFR",19.9,12.6,40,12,NA,NA,1020.4,"METAR KWRI 162155Z 04012KT 10SM OVC130 20/13 A3013 RMK AO2A SLPNO T01990126 ALSTG ESTMD $",2025-09-16 22:42:54.293537,2025-09-16 18:42:54.293581
"KWRB","Warner Robins AFB, GA, US",2025-09-16 21:55:00,"2025-09-16 17:55:00","VFR",29.9,14.4,0,0,NA,NA,1018,"METAR KWRB 162155Z AUTO 00000KT 10SM CLR 30/14 A3006 RMK AO2 SLP179 T02990144 $",2025-09-16 22:42:54.299864,2025-09-16 18:42:54.299909
"KWHP","Los Angeles/Whiteman Arpt, CA, US",2025-09-16 21:55:00,"2025-09-16 14:55:00","VFR",35,13,160,8,NA,NA,1014,"METAR KWHP 162155Z 16008KT 10SM SKC 35/13 A2994",2025-09-16 22:42:54.306208,2025-09-16 18:42:54.306252
"KVPS","Valparaiso/Eglin AFB, FL, US",2025-09-16 21:55:00,"2025-09-16 16:55:00","VFR",29.9,15.6,200,6,NA,NA,1017.4,"METAR KVPS 162155Z AUTO 20006KT 10SM CLR 30/16 A3004 RMK AO2 SLP179 T02990156 $",2025-09-16 22:42:54.312581,2025-09-16 18:42:54.312625
"KWLD","Winfield/Strother Fld, KS, US",2025-09-16 21:54:00,"2025-09-16 16:54:00","VFR",32.2,15.6,130,8,NA,NA,1019,"METAR KWLD 162154Z AUTO 13008KT 10SM CLR 32/16 A3009 RMK AO2 SLP175 T03220156",2025-09-16 22:42:54.319004,2025-09-16 18:42:54.319049
"KVTA","Newark/Heath Arpt, OH, US",2025-09-16 21:54:00,"2025-09-16 21:54:00","VFR",27.8,11.1,0,0,NA,NA,1019.7,"METAR KVTA 162154Z AUTO 00000KT 10SM CLR 28/11 A3011 RMK AO2 SLP191 T02780111",2025-09-16 22:42:54.325522,2025-09-16 18:42:54.325566
"KVSF","Springfield/Hartness State Arpt, VT, US",2025-09-16 21:54:00,"2025-09-16 17:54:00","VFR",24.4,11.7,160,6,NA,NA,1023.8,"METAR KVSF 162154Z AUTO 16006KT 10SM CLR 24/12 A3023 RMK AO2 SLP238 T02440117",2025-09-16 22:42:54.343782,2025-09-16 18:42:54.343861
"KWST","Westerly State Arpt, RI, US",2025-09-16 21:53:00,"2025-09-16 17:53:00","VFR",19.4,12.8,100,10,NA,NA,1023.5,"METAR KWST 162153Z AUTO 10010KT 10SM CLR 19/13 A3022 RMK AO2 SLP234 T01940128",2025-09-16 22:42:54.350751,2025-09-16 18:42:54.350797
"KVGT","Las Vegas/North Arpt, NV, US",2025-09-16 21:53:00,"2025-09-16 14:53:00","VFR",35.6,-0.6,NA,5,NA,NA,1014.6,"METAR KVGT 162153Z VRB05KT 10SM CLR 36/M01 A2996 RMK AO2 SLP134 T03561006",2025-09-16 22:42:54.357531,2025-09-16 18:42:54.357575
"KYKM","Yakima/McAllister Fld, WA, US",2025-09-16 21:53:00,"2025-09-16 14:53:00","VFR",25.6,8.9,0,0,NA,NA,1020.4,"METAR KYKM 162153Z 00000KT 10SM CLR 26/09 A3013 RMK AO2 SLP201 T02560089",2025-09-16 22:42:54.363883,2025-09-16 18:42:54.363928
"KWRL","Worland Muni, WY, US",2025-09-16 21:53:00,"2025-09-16 15:53:00","VFR",20,5.6,0,0,NA,NA,1024.1,"METAR KWRL 162153Z AUTO 00000KT 10SM CLR 20/06 A3024 RMK AO2 SLP223 T02000056",2025-09-16 22:42:54.370224,2025-09-16 18:42:54.370278
"KWVI","Watsonville Muni, CA, US",2025-09-16 21:53:00,"2025-09-16 14:53:00","VFR",21.7,13.9,220,9,NA,8,1014.6,"METAR KWVI 162153Z AUTO 22009KT 8SM CLR 22/14 A2996 RMK AO2 SLP144 T02170139",2025-09-16 22:42:54.376673,2025-09-16 18:42:54.376714
"KYIP","Detroit/Willow Run Arpt, MI, US",2025-09-16 21:53:00,"2025-09-16 17:53:00","VFR",27.8,11.7,100,3,NA,NA,1021.4,"METAR KYIP 162153Z 10003KT 10SM CLR 28/12 A3016 RMK AO2 SLP207 T02780117",2025-09-16 22:42:54.38313,2025-09-16 18:42:54.383173
"KVUO","Vancouver/Pearson Fld, WA, US",2025-09-16 21:53:00,"2025-09-16 21:53:00","VFR",31.1,9.4,100,13,21,NA,1014,"METAR KVUO 162153Z AUTO 10013G21KT 10SM CLR 31/09 A2994 RMK AO2 SLP137 T03110094",2025-09-16 22:42:54.389587,2025-09-16 18:42:54.389632
"KVRB","Vero Beach Muni, FL, US",2025-09-16 21:53:00,"2025-09-16 17:53:00","VFR",29.4,23.9,80,8,NA,NA,1016.7,"METAR KVRB 162153Z 08008KT 10SM FEW023 FEW027 BKN100 29/24 A3002 RMK AO2 SLP163 T02940239",2025-09-16 22:42:54.396026,2025-09-16 18:42:54.39607
"KZZV","Zanesville Muni, OH, US",2025-09-16 21:53:00,"2025-09-16 17:53:00","VFR",28.3,9.4,100,4,NA,NA,1020.1,"METAR KZZV 162153Z AUTO 10004KT 10SM CLR 28/09 A3012 RMK AO2 SLP194 T02830094",2025-09-16 22:42:54.402347,2025-09-16 18:42:54.402391
"KVLD","Valdosta Rgnl, GA, US",2025-09-16 21:53:00,"2025-09-16 17:53:00","VFR",30,13.9,70,4,NA,NA,1018,"METAR KVLD 162153Z 07004KT 10SM SCT070 30/14 A3006 RMK AO2 SLP185 T03000139",2025-09-16 22:42:54.408823,2025-09-16 18:42:54.408872
"KXNA","Fayetteville/NW Arkansas Rgnl, AR, US",2025-09-16 21:53:00,"2025-09-16 16:53:00","VFR",32.8,18.3,10,11,NA,NA,1019.7,"METAR KXNA 162153Z 01011KT 10SM FEW060 33/18 A3011 RMK AO2 LTG DSNT E SLP179 T03280183",2025-09-16 22:42:54.415216,2025-09-16 18:42:54.41526
"KVIH","Vichy/Rolla Arpt, MO, US",2025-09-16 21:53:00,"2025-09-16 16:53:00","VFR",32.8,14.4,40,7,NA,NA,1019.4,"METAR KVIH 162153Z AUTO 04007KT 10SM FEW075 33/14 A3010 RMK AO2 SLP179 T03280144",2025-09-16 22:42:54.421579,2025-09-16 18:42:54.421622
"KVNY","Van Nuys Arpt, CA, US",2025-09-16 21:51:00,"2025-09-16 14:51:00","VFR",36.1,13.9,180,9,NA,NA,1012.6,"METAR KVNY 162151Z 18009KT 10SM CLR 36/14 A2990 RMK AO2 SLP113 T03610139",2025-09-16 22:42:54.427925,2025-09-16 18:42:54.427969
"KYNG","Youngstown-Warren Rgnl, OH, US",2025-09-16 21:51:00,"2025-09-16 17:51:00","VFR",27.2,10.6,20,5,NA,NA,1021.1,"METAR KYNG 162151Z 02005KT 10SM FEW070 BKN250 27/11 A3015 RMK AO2 SLP203 T02720106 $",2025-09-16 22:42:54.434219,2025-09-16 18:42:54.434263
"KXWA","Williston/Basin Intl, ND, US",2025-09-16 21:51:00,"2025-09-16 16:51:00","VFR",25,11.7,10,6,NA,NA,1022.1,"METAR KXWA 162151Z AUTO 01006KT 10SM FEW050 FEW060 25/12 A3018 RMK AO2 SLP218 T02500117",2025-09-16 22:42:54.44055,2025-09-16 18:42:54.440593
"KVQQ","Jacksonville/Cecil Arpt, FL, US",2025-09-16 21:50:00,"2025-09-16 17:50:00","VFR",29,16,90,5,12,NA,1018,"METAR KVQQ 162150Z 09005G12KT 10SM CLR 29/16 A3006",2025-09-16 22:42:54.446962,2025-09-16 18:42:54.447006
"KWDG","Enid/Woodring Arpt, OK, US",2025-09-16 21:50:00,"2025-09-16 16:50:00","VFR",32,17,180,8,NA,NA,1017.7,"METAR KWDG 162150Z 18008KT 10SM SCT070 SCT120 32/17 A3005",2025-09-16 22:42:54.453401,2025-09-16 18:42:54.453446
"PAHN","Haines Arpt, AK, US",2025-09-16 22:35:00,"2025-09-16 14:35:00","MVFR",11.1,10,110,4,NA,9,1011.6,"SPECI PAHN 162235Z AUTO 11004KT 9SM -RA BKN010 BKN039 OVC050 11/10 A2987 RMK AO2 CIG 007V013 P0001 T01110100 TSNO",2025-09-16 22:42:55.808129,2025-09-16 18:42:55.808172
"PAAD","Point Thomson Arpt, AK, US",2025-09-16 22:35:00,"2025-09-16 22:35:00","LIFR",2,2,70,7,NA,2,1014.3,"METAR PAAD 162235Z AUTO 07007KT 2SM BR OVC003 02/02 A2995 RMK AO2 T00200020 FZRANO",2025-09-16 22:42:55.814538,2025-09-16 18:42:55.81458
"PADU","Dutch Harbor/Unalaska Arpt, AK, US",2025-09-16 22:11:00,"2025-09-16 14:11:00","IFR",9,8,140,8,NA,2.5,1000.4,"SPECI PADU 162211Z 14008KT 2 1/2SM -RA BR OVC015 09/08 A2954 RMK AO2 P0000",2025-09-16 22:42:55.820966,2025-09-16 18:42:55.821008
"PABL","Buckland Arpt, AK, US",2025-09-16 22:10:00,"2025-09-16 14:10:00","MVFR",8,4,290,11,NA,NA,1010.2,"SPECI PABL 162210Z AUTO 29011KT 10SM BKN016 08/04 A2983 RMK AO2",2025-09-16 22:42:55.827407,2025-09-16 18:42:55.827449
"PABR","Utqiaġvik/Wiley Post-Will Rogers Mem, AK, US",2025-09-16 22:08:00,"2025-09-16 14:08:00","IFR",1.1,-1.1,60,13,NA,NA,1017,"SPECI PABR 162208Z 06013KT 10SM BKN007 OVC090 01/M01 A3003 RMK AO2 T00111011 $",2025-09-16 22:42:55.834077,2025-09-16 18:42:55.834121
"PAHX","Shageluk Arpt, AK, US",2025-09-16 22:02:00,"2025-09-16 14:02:00","VFR",10.6,6.1,40,7,NA,8,1005.8,"METAR PAHX 162202Z AUTO 04007KT 8SM SCT045 BKN060 11/06 A2970 RMK AO2 SLP057 T01060061",2025-09-16 22:42:55.840464,2025-09-16 18:42:55.840508
"PAFS","Nikolai Arpt, AK, US",2025-09-16 22:01:00,"2025-09-16 14:01:00","VFR",13.3,7.2,NA,6,NA,NA,1003.8,"METAR PAFS 162201Z AUTO VRB06KT 10SM CLR 13/07 A2964 RMK AO2 SLP044 T01330072",2025-09-16 22:42:55.84711,2025-09-16 18:42:55.847153
"PADL","Dillingham Arpt, AK, US",2025-09-16 21:56:00,"2025-09-16 13:56:00","VFR",11.1,3.9,NA,4,NA,NA,1004.5,"METAR PADL 162156Z VRB04KT 10SM BKN037 BKN060 11/04 A2966 RMK AO2 SLP045 T01110039",2025-09-16 22:42:55.853615,2025-09-16 18:42:55.853659
"PACX","Coldfoot Arpt, AK, US",2025-09-16 21:56:00,"2025-09-16 13:56:00","VFR",10,2.8,30,6,NA,NA,1009.2,"METAR PACX 162156Z AUTO 03006KT 10SM BKN035 10/03 A2980 RMK AO2 SLP720 T01000028",2025-09-16 22:42:55.860047,2025-09-16 18:42:55.860091
"PAGN","Angoon, AK, US",2025-09-16 21:56:00,"2025-09-16 13:56:00","VFR",13.3,12.8,0,0,NA,NA,1009.2,"METAR PAGN 162156Z AUTO 00000KT 10SM CLR 13/13 A2980 RMK AO2 SLP081 T01330128 $",2025-09-16 22:42:55.866563,2025-09-16 18:42:55.866616
"PABA","Barter Island Arpt, AK, US",2025-09-16 21:56:00,"2025-09-16 13:56:00","LIFR",2.8,2.2,60,11,NA,9,1013.6,"METAR PABA 162156Z AUTO 06011KT 9SM OVC004 03/02 A2993 RMK AO2 SLP154 T00280022 TSNO",2025-09-16 22:42:55.872915,2025-09-16 18:42:55.872958
"PAGA","Galena Arpt, AK, US",2025-09-16 21:56:00,"2025-09-16 13:56:00","VFR",9.4,5,350,5,NA,NA,1007.2,"METAR PAGA 162156Z AUTO 35005KT 10SM CLR 09/05 A2974 RMK AO2 SLP070 T00940050 TSNO $",2025-09-16 22:42:55.879433,2025-09-16 18:42:55.879478
"PAFE","Kake Arpt, AK, US",2025-09-16 21:56:00,"2025-09-16 21:56:00","VFR",18.9,12.2,100,5,NA,NA,1009.2,"METAR PAFE 162156Z AUTO 10005KT 10SM CLR 19/12 A2980 RMK AO2 SLP099 T01890122 $",2025-09-16 22:42:55.885985,2025-09-16 18:42:55.886029
"PAHL","Huslia Arpt, AK, US",2025-09-16 21:56:00,"2025-09-16 13:56:00","MVFR",10.6,5,60,6,NA,NA,1007.5,"METAR PAHL 162156Z AUTO 06006KT 10SM OVC030 11/05 A2975 RMK AO2 SLP076 T01060050 TSNO",2025-09-16 22:42:55.892452,2025-09-16 18:42:55.892496
"PABV","Birchwood Arpt, AK, US",2025-09-16 21:56:00,"2025-09-16 21:56:00","VFR",10,8.3,220,6,NA,NA,1005.8,"METAR PABV 162156Z AUTO 22006KT 10SM CLR 10/08 A2970 RMK AO2 SLP057 T01000083",2025-09-16 22:42:55.899054,2025-09-16 18:42:55.899099
"PAEM","Emmonak Arpt, AK, US",2025-09-16 21:56:00,"2025-09-16 13:56:00","VFR",8.9,4.4,30,12,NA,NA,1008.2,"METAR PAEM 162156Z AUTO 03012KT 10SM OVC070 09/04 A2977 RMK AO2 SLP081 T00890044",2025-09-16 22:42:55.905601,2025-09-16 18:42:55.905647
"PAGM","Gambell Arpt, AK, US",2025-09-16 21:56:00,"2025-09-16 13:56:00","VFR",8.3,3.3,20,8,NA,NA,1012.6,"METAR PAGM 162156Z AUTO 02008KT 10SM CLR 08/03 A2990 RMK AO2 SLP131 T00830033",2025-09-16 22:42:55.912148,2025-09-16 18:42:55.912193
"PAAK","Atka Arpt, AK, US",2025-09-16 21:56:00,"2025-09-16 12:56:00","VFR",11.1,8.3,320,9,NA,NA,999.4,"METAR PAAK 162156Z AUTO 32009KT 10SM OVC035 11/08 A2951 RMK AO2 SLP994 T01110083 TSNO PNO $",2025-09-16 22:42:55.931534,2025-09-16 18:42:55.931581
"PADK","Adak (NAS), AK, US",2025-09-16 21:56:00,"2025-09-16 12:56:00","MVFR",12.2,8.3,250,14,21,9,998.7,"METAR PADK 162156Z AUTO 25014G21KT 9SM OVC019 12/08 A2949 RMK AO2 SLP985 T01220083",2025-09-16 22:42:55.938484,2025-09-16 18:42:55.93853
"PAGH","Shungnak Arpt, AK, US",2025-09-16 21:56:00,"2025-09-16 13:56:00","VFR",7.2,2.2,0,0,NA,NA,1009.9,"METAR PAGH 162156Z AUTO 00000KT 10SM BKN055 OVC080 07/02 A2982 RMK AO2 SLP100 T00720022",2025-09-16 22:42:55.945016,2025-09-16 18:42:55.945061
"PAGL","Golovin Arpt, AK, US",2025-09-16 21:56:00,"2025-09-16 13:56:00","VFR",11.1,0.6,320,5,NA,NA,1009.2,"METAR PAGL 162156Z AUTO 32005KT 10SM CLR 11/01 A2980 RMK AO2 SLP085 T01110006 $",2025-09-16 22:42:55.951384,2025-09-16 18:42:55.951427
"PAGS","Gustavus Arpt, AK, US",2025-09-16 21:56:00,"2025-09-16 13:56:00","VFR",11.1,10.6,320,10,NA,NA,1010.2,"METAR PAGS 162156Z AUTO 32010KT 10SM SCT003 OVC042 11/11 A2983 RMK AO2 SLP099 T01110106",2025-09-16 22:42:55.957824,2025-09-16 18:42:55.957874
"PAHC","Holy Cross Arpt, AK, US",2025-09-16 21:56:00,"2025-09-16 13:56:00","VFR",10.6,5,NA,5,NA,NA,1005.2,"METAR PAHC 162156Z AUTO VRB05KT 10SM CLR 11/05 A2968 RMK AO2 SLP053 T01060050",2025-09-16 22:42:55.964309,2025-09-16 18:42:55.964354
"PAFR","Ft Richardson/Bryant AAF, AK, US",2025-09-16 21:55:00,"2025-09-16 13:55:00","VFR",10.3,9.1,0,0,NA,NA,1005.2,"METAR PAFR 162155Z AUTO 00000KT 10SM OVC140 10/09 A2968 RMK AO2 SLP054 T01030091 $",2025-09-16 22:42:55.970731,2025-09-16 18:42:55.970774
"PAED","Anchorage/Elmendorf AFB, AK, US",2025-09-16 21:55:00,"2025-09-16 13:55:00","VFR",10.3,8.2,250,5,NA,NA,1004.5,"METAR PAED 162155Z 25005KT 10SM FEW060 BKN095 10/08 A2966 RMK AO2A SLP040 T01030082 $",2025-09-16 22:42:55.977184,2025-09-16 18:42:55.977228
"PAFB","Fairbanks/Ladd AAF, AK, US",2025-09-16 21:55:00,"2025-09-16 13:55:00","VFR",16,4.7,0,0,NA,NA,1004.8,"METAR PAFB 162155Z 00000KT 10SM FEW140 SCT220 16/05 A2967 RMK AO2A SLP054 T01600047",2025-09-16 22:42:55.983541,2025-09-16 18:42:55.983584
"PAEI","Fairbanks/Eielson AFB, AK, US",2025-09-16 21:55:00,"2025-09-16 13:55:00","VFR",17,3.6,170,4,NA,NA,1004.5,"METAR PAEI 162155Z 17004KT 10SM FEW070 BKN200 17/04 A2966 RMK AO2A SLP048 T01700036 $",2025-09-16 22:42:55.989938,2025-09-16 18:42:55.989983
"PAGY","Skagway Arpt, AK, US",2025-09-16 21:53:00,"2025-09-16 13:53:00","VFR",11.1,11.1,220,5,NA,NA,1011.9,"METAR PAGY 162153Z AUTO 22005KT 10SM -RA FEW036 OVC060 11/11 A2988 RMK AO2 SLP117 P0003 T01110111 TSNO",2025-09-16 22:42:55.99634,2025-09-16 18:42:55.996384
"PABI","Ft Greely/Allen Fld, AK, US",2025-09-16 21:53:00,"2025-09-16 13:53:00","VFR",13.3,3.3,100,18,25,NA,1006.5,"METAR PABI 162153Z 10018G25KT 10SM FEW120 FEW150 SCT200 13/03 A2972 RMK AO2 PK WND 09026/2134 SLP072 VIRGA DSNT NW-N ACSL DSNT SW FREQ WATERFOWL ALQDS T01330033 $",2025-09-16 22:42:56.002651,2025-09-16 18:42:56.002695
"PABT","Bettles Arpt, AK, US",2025-09-16 21:53:00,"2025-09-16 13:53:00","VFR",11.1,3.3,NA,5,NA,NA,1008.2,"METAR PABT 162153Z VRB05KT 10SM SCT070 BKN100 11/03 A2977 RMK AO2 SLP092 T01110033 $",2025-09-16 22:42:56.009042,2025-09-16 18:42:56.009086
"PACD","Cold Bay Arpt, AK, US",2025-09-16 21:53:00,"2025-09-16 13:53:00","VFR",10.6,3.9,130,11,NA,NA,1004.1,"METAR PACD 162153Z 13011KT 10SM CLR 11/04 A2965 RMK AO2 SLP040 T01060039",2025-09-16 22:42:56.015314,2025-09-16 18:42:56.015358
"PAGK","Gulkana Arpt, AK, US",2025-09-16 21:53:00,"2025-09-16 13:53:00","VFR",15.6,-1.7,NA,5,NA,NA,1007.2,"METAR PAGK 162153Z AUTO VRB05KT 10SM CLR 16/M02 A2974 RMK AO2 SLP078 T01561017 TSNO",2025-09-16 22:42:56.021688,2025-09-16 18:42:56.021731
"PAEG","Eagle Arpt, AK, US",2025-09-16 21:53:00,"2025-09-16 13:53:00","LIFR",16.1,3.9,NA,6,15,0.5,1008.5,"METAR PAEG 162153Z AUTO VRB06G15KT 1/2SM HZ CLR 16/04 A2978 RMK AO2 SLP088 T01610039 TSNO $",2025-09-16 22:42:56.028064,2025-09-16 18:42:56.028109
"PAAQ","Palmer Muni, AK, US",2025-09-16 21:53:00,"2025-09-16 13:53:00","VFR",12.8,6.1,90,5,NA,NA,1004.5,"METAR PAAQ 162153Z 09005KT 10SM BKN080 13/06 A2966 RMK AO2 SLP046 T01280061 $",2025-09-16 22:42:56.034515,2025-09-16 18:42:56.034559
"PABE","Bethel Arpt, AK, US",2025-09-16 21:53:00,"2025-09-16 13:53:00","VFR",8.3,3.9,20,7,NA,NA,1005.5,"METAR PABE 162153Z 02007KT 10SM OVC044 08/04 A2969 RMK AO2 SLP057 T00830039",2025-09-16 22:42:56.041075,2025-09-16 18:42:56.041121
"PAHO","Homer Arpt, AK, US",2025-09-16 21:53:00,"2025-09-16 13:53:00","VFR",13.3,10,30,4,NA,NA,1001.8,"METAR PAHO 162153Z 03004KT 10SM SCT065 SCT080 BKN110 13/10 A2958 RMK AO2 SLP018 T01330100",2025-09-16 22:42:56.061797,2025-09-16 18:42:56.061864
"PACV","Cordova/Smith Arpt, AK, US",2025-09-16 21:53:00,"2025-09-16 13:53:00","VFR",16.1,8.3,110,12,NA,NA,1006.9,"METAR PACV 162153Z 11012KT 060V140 10SM SCT040 BKN055 BKN065 16/08 A2973 RMK AO2 SLP068 T01610083 $",2025-09-16 22:42:56.068863,2025-09-16 18:42:56.068912
"PAFA","Fairbanks Intl, AK, US",2025-09-16 21:53:00,"2025-09-16 13:53:00","VFR",15,5,NA,5,NA,NA,1005.5,"METAR PAFA 162153Z VRB05KT 10SM FEW120 SCT240 15/05 A2969 RMK AO2 SLP059 T01500050 $",2025-09-16 22:42:56.07583,2025-09-16 18:42:56.075879
"PAEN","Kenai Muni, AK, US",2025-09-16 21:53:00,"2025-09-16 13:53:00","VFR",13.9,7.8,30,15,NA,NA,1003.1,"METAR PAEN 162153Z 03015KT 10SM FEW095 14/08 A2962 RMK AO2 SLP032 T01390078",2025-09-16 22:42:56.082628,2025-09-16 18:42:56.08267
"PADQ","Kodiak Arpt, AK, US",2025-09-16 21:53:00,"2025-09-16 13:53:00","VFR",12.2,8.3,280,13,NA,NA,1001.1,"METAR PADQ 162153Z 28013KT 10SM FEW020 OVC042 12/08 A2956 RMK AO2 SLP008 T01220083 $",2025-09-16 22:42:56.089181,2025-09-16 18:42:56.089225
"PADG","Red Dog Arpt, AK, US",2025-09-16 21:51:00,"2025-09-16 13:51:00","VFR",6,-2,0,0,NA,NA,1009.6,"METAR PADG 162151Z 00000KT 10SM SKC 06/M02 A2981",2025-09-16 22:42:56.095545,2025-09-16 18:42:56.09559
"PAPO","Point Hope Arpt, AK, US",2025-09-16 22:40:00,"2025-09-16 14:40:00","MVFR",5,2,20,21,NA,NA,1011.9,"SPECI PAPO 162240Z AUTO 02021KT 10SM BKN010 05/02 A2988 RMK AO2",2025-09-16 22:42:57.495669,2025-09-16 18:42:57.495714
"PAKF","False Pass Arpt, AK, US",2025-09-16 22:39:00,"2025-09-16 14:39:00","VFR",9,6,NA,4,NA,NA,1003.5,"SPECI PAKF 162239Z AUTO VRB04KT 10SM FEW021 BKN039 OVC050 09/06 A2963 RMK AO2 RAE39 P0000",2025-09-16 22:42:57.502393,2025-09-16 18:42:57.502436
"PFWS","South Naknek Arpt, AK, US",2025-09-16 22:36:00,"2025-09-16 14:36:00","MVFR",10,5,350,6,NA,NA,NA,"SPECI PFWS 162236Z AUTO 35006KT 10SM BKN022 OVC040 10/05 RMK AO2 $",2025-09-16 22:42:57.508899,2025-09-16 18:42:57.508944
"PAPM","Platinum Arpt, AK, US",2025-09-16 22:27:00,"2025-09-16 14:27:00","MVFR",8,6,50,9,NA,NA,1004.1,"SPECI PAPM 162227Z AUTO 05009KT 10SM OVC029 08/06 A2965 RMK AO2 TSNO",2025-09-16 22:42:57.515399,2025-09-16 18:42:57.515442
"PARS","Russian Mission Arpt, AK, US",2025-09-16 22:26:00,"2025-09-16 14:26:00","VFR",11,5,20,5,NA,NA,1005.2,"SPECI PARS 162226Z AUTO 02005KT 10SM SCT028 SCT041 OVC055 11/05 A2968 RMK AO2 PNO $",2025-09-16 22:42:57.521768,2025-09-16 18:42:57.52183
"PANU","Nulato Arpt, AK, US",2025-09-16 22:21:00,"2025-09-16 14:21:00","VFR",11,4,50,7,NA,NA,1007.5,"SPECI PANU 162221Z AUTO 05007KT 010V070 10SM SCT026 OVC070 11/04 A2975 RMK AO2",2025-09-16 22:42:57.528167,2025-09-16 18:42:57.528212
"PAMH","Minchumina Arpt, AK, US",2025-09-16 22:21:00,"2025-09-16 14:21:00","VFR",10,6,160,4,NA,NA,1005.2,"SPECI PAMH 162221Z AUTO 16004KT 10SM SCT016 SCT110 10/06 A2968 RMK AO2 TSNO",2025-09-16 22:42:57.534543,2025-09-16 18:42:57.534586
"PASO","Seldovia Arpt, AK, US",2025-09-16 22:19:00,"2025-09-16 14:19:00","IFR",11.1,10,NA,3,NA,NA,1001.8,"SPECI PASO 162219Z AUTO VRB03KT 10SM BKN006 BKN065 OVC110 11/10 A2958 RMK AO2 CIG 003V009 T01110100 TSNO $",2025-09-16 22:42:57.541013,2025-09-16 18:42:57.541057
"PAMD","Middleton Isl Arpt, AK, US",2025-09-16 22:15:00,"2025-09-16 14:15:00","MVFR",13,12,110,22,30,6,1002.8,"SPECI PAMD 162215Z AUTO 11022G30KT 6SM BR OVC016 13/12 A2961 RMK AO2 PK WND 11032/2203 $",2025-09-16 22:42:57.559737,2025-09-16 18:42:57.559797
"PANW","New Stuyahok Arpt, AK, US",2025-09-16 22:14:00,"2025-09-16 14:14:00","VFR",9,5,350,6,NA,NA,1004.5,"SPECI PANW 162214Z AUTO 35006KT 10SM FEW020 OVC060 09/05 A2966 RMK AO2 RAE13 P0000",2025-09-16 22:42:57.566937,2025-09-16 18:42:57.566983
"PASL","Sleetmute Arpt, AK, US",2025-09-16 22:10:00,"2025-09-16 14:10:00","MVFR",11,6,0,0,NA,NA,1005.5,"SPECI PASL 162210Z AUTO 00000KT 10SM BKN028 BKN100 11/06 A2969 RMK AO2",2025-09-16 22:42:57.573821,2025-09-16 18:42:57.573871
"PFCB","Chenega Bay Arpt, AK, US",2025-09-16 22:10:00,"2025-09-16 14:10:00","MVFR",13.9,12.4,350,11,23,3,1004.1,"METAR PFCB 162210Z AUTO 35011G23KT 3SM RA BKN015 BKN021 OVC035 14/12 A2965 RMK AO2 P0005 T01390124",2025-09-16 22:42:57.580524,2025-09-16 18:42:57.580567
"PASY","Shemya/Eareckson Arpt, AK, US",2025-09-16 21:59:00,"2025-09-16 12:59:00","MVFR",12,9.4,240,22,NA,7,986.9,"METAR PASY 162159Z 24022KT 7SM BKN014 12/09 A2914 RMK AO2A PK WND 24033/11 BKN014 V SCT SLP871 T01200094 RVRNO PNO FZRANO $",2025-09-16 22:42:57.586798,2025-09-16 18:42:57.586861
"PAIM","Indian Mtn Arpt, AK, US",2025-09-16 21:57:00,"2025-09-16 13:57:00","MVFR",6,5,40,10,15,NA,1007.2,"SPECI PAIM 162157Z AUTO 04010G15KT 340V090 10SM -SHRA BKN015 OVC039 06/05 A2974 RMK AO2 SLP077",2025-09-16 22:42:57.59319,2025-09-16 18:42:57.593233
"PAQH","Quinhagak Arpt, AK, US",2025-09-16 21:56:00,"2025-09-16 13:56:00","VFR",8.3,5,360,7,NA,NA,1005.2,"METAR PAQH 162156Z AUTO 36007KT 10SM OVC042 08/05 A2968 RMK AO2 SLP051 T00830050",2025-09-16 22:42:57.599556,2025-09-16 18:42:57.599598
"PAMK","St Michael Arpt, AK, US",2025-09-16 21:56:00,"2025-09-16 13:56:00","VFR",NA,NA,30,11,NA,NA,1007.9,"METAR PAMK 162156Z AUTO 03011KT 10SM -RA BKN035 BKN043 OVC050 A2976 RMK AO2 TSB19E21RAB33 SLPNO P0000 FZRANO $",2025-09-16 22:42:57.605908,2025-09-16 18:42:57.605954
"PAPG","Petersburg Arpt, AK, US",2025-09-16 21:56:00,"2025-09-16 13:56:00","VFR",16.7,11.1,0,0,NA,NA,1009.6,"METAR PAPG 162156Z 00000KT 10SM FEW050 BKN120 17/11 A2981 RMK AO2 SLP096 T01670111",2025-09-16 22:42:57.61224,2025-09-16 18:42:57.612284
"PANV","Anvik Arpt, AK, US",2025-09-16 21:56:00,"2025-09-16 13:56:00","VFR",10,5,10,7,NA,NA,1005.2,"METAR PANV 162156Z AUTO 01007KT 330V040 10SM OVC065 10/05 A2968 RMK AO2 SLP116 T01000050 TSNO",2025-09-16 22:42:57.618616,2025-09-16 18:42:57.61866
"PFKO","Kotlik Arpt, AK, US",2025-09-16 21:56:00,"2025-09-16 13:56:00","VFR",8.9,4.4,30,13,NA,NA,NA,"METAR PFKO 162156Z AUTO 03013KT 10SM OVC070 09/04 RMK AO2 SLPNO T00890044 $",2025-09-16 22:42:57.625053,2025-09-16 18:42:57.625097
"PFYU","Fort Yukon Arpt, AK, US",2025-09-16 21:56:00,"2025-09-16 13:56:00","VFR",11.7,5,40,6,NA,NA,1008.9,"METAR PFYU 162156Z 04006KT 10SM CLR 12/05 A2979 RMK AO2 SLP099 T01170050",2025-09-16 22:42:57.631463,2025-09-16 18:42:57.631507
"PAWM","White Mouintain Arpt, AK, US",2025-09-16 21:56:00,"2025-09-16 13:56:00","VFR",10.6,0.6,340,7,NA,8,1008.9,"METAR PAWM 162156Z AUTO 34007KT 8SM CLR 11/01 A2979 RMK AO2 SLP092 T01060006 PNO $",2025-09-16 22:42:57.637889,2025-09-16 18:42:57.637934
"PASD","Sand Point Arpt, AK, US",2025-09-16 21:56:00,"2025-09-16 13:56:00","VFR",11.1,3.3,160,4,NA,NA,1005.8,"METAR PASD 162156Z 16004KT 10SM SCT023 BKN040 BKN090 11/03 A2970 RMK AO2 SLP058 T01110033 $",2025-09-16 22:42:57.644315,2025-09-16 18:42:57.644361
"PATG","Togiak Arpt, AK, US",2025-09-16 21:56:00,"2025-09-16 13:56:00","VFR",8.9,3.3,360,7,NA,NA,1005.2,"METAR PATG 162156Z AUTO 36007KT 10SM OVC042 09/03 A2968 RMK AO2 SLP049 T00890033",2025-09-16 22:42:57.650767,2025-09-16 18:42:57.650826
"PAMO","Mountain Village Arpt, AK, US",2025-09-16 21:56:00,"2025-09-16 13:56:00","VFR",8.3,4.4,350,12,NA,NA,1007.2,"METAR PAMO 162156Z AUTO 35012KT 10SM OVC060 08/04 A2974 RMK AO2 SLP076 T00830044",2025-09-16 22:42:57.657264,2025-09-16 18:42:57.657307
"PAOO","Tooksok Bay Arpt, AK, US",2025-09-16 21:56:00,"2025-09-16 13:56:00","VFR",9.4,2.8,340,15,NA,NA,1006.9,"METAR PAOO 162156Z AUTO 34015KT 10SM OVC050 09/03 A2973 RMK AO2 SLP073 T00940028 TSNO $",2025-09-16 22:42:57.663648,2025-09-16 18:42:57.663691
"PAUN","Unalakleet Arpt, AK, US",2025-09-16 21:56:00,"2025-09-16 13:56:00","VFR",9.4,5.6,320,10,NA,NA,1007.2,"METAR PAUN 162156Z AUTO 32010KT 10SM CLR 09/06 A2974 RMK AO2 SLPNO T00940056",2025-09-16 22:42:57.670218,2025-09-16 18:42:57.670263
"PAWG","Wrangell Arpt, AK, US",2025-09-16 21:56:00,"2025-09-16 13:56:00","VFR",15,12.2,0,0,NA,NA,1009.6,"METAR PAWG 162156Z 00000KT 10SM SCT060 BKN100 15/12 A2981 RMK AO2 SLP093 T01500122 PNO $",2025-09-16 22:42:57.676717,2025-09-16 18:42:57.676762
"PAWN","Noatak Arpt, AK, US",2025-09-16 21:56:00,"2025-09-16 13:56:00","VFR",6.7,-1.1,50,3,NA,NA,NA,"METAR PAWN 162156Z AUTO 05003KT 10SM CLR 07/M01 RMK AO2 SLPNO T00671011 $",2025-09-16 22:42:57.695678,2025-09-16 18:42:57.695726
"PAWS","Wasilla Arpt, AK, US",2025-09-16 21:56:00,"2025-09-16 13:56:00","VFR",12.8,5,70,6,NA,NA,1005.5,"METAR PAWS 162156Z AUTO 07006KT 10SM OVC110 13/05 A2969 RMK AO2 SLP055 T01280050",2025-09-16 22:42:57.702888,2025-09-16 18:42:57.702938
"PFEL","Elim Arpt, AK, US",2025-09-16 21:56:00,"2025-09-16 13:56:00","VFR",10,-0.6,30,14,NA,NA,1008.2,"METAR PFEL 162156Z AUTO 03014KT 10SM CLR 10/M01 A2977 RMK AO2 SLP084 T01001006 TSNO",2025-09-16 22:42:57.709784,2025-09-16 18:42:57.709849
"PASM","St Marys Arpt, AK, US",2025-09-16 21:56:00,"2025-09-16 13:56:00","VFR",10,4.4,20,10,NA,NA,1007.2,"METAR PASM 162156Z AUTO 02010KT 10SM OVC060 10/04 A2974 RMK AO2 SLP077 T01000044",2025-09-16 22:42:57.716565,2025-09-16 18:42:57.716608
"PAKH","Akhiok Arpt, AK, US",2025-09-16 21:56:00,"2025-09-16 13:56:00","VFR",11.7,5.6,310,13,20,NA,1003.5,"METAR PAKH 162156Z AUTO 31013G20KT 10SM BKN055 12/06 A2963 RMK AO2 SLP032 T01170056",2025-09-16 22:42:57.723025,2025-09-16 18:42:57.723069
"PAMB","Manokotak Arpt, AK, US",2025-09-16 21:56:00,"2025-09-16 13:56:00","VFR",10.6,4.4,300,3,NA,NA,1004.8,"METAR PAMB 162156Z AUTO 30003KT 10SM OVC032 11/04 A2967 RMK AO2 SLP049 T01060044",2025-09-16 22:42:57.729378,2025-09-16 18:42:57.729423
"PANI","Aniak Arpt, AK, US",2025-09-16 21:56:00,"2025-09-16 13:56:00","VFR",10,4.4,0,0,NA,NA,1004.5,"METAR PANI 162156Z AUTO 00000KT 10SM SCT042 OVC090 10/04 A2966 RMK AO2 SLP046 T01000044 $",2025-09-16 22:42:57.735973,2025-09-16 18:42:57.736016
"PAVC","King Cove Arpt, AK, US",2025-09-16 21:56:00,"2025-09-16 13:56:00",NA,8.9,3.3,60,8,NA,NA,1005.5,"METAR PAVC 162156Z AUTO 06008KT CLR 09/03 A2969 RMK AO2 SLP054 T00890033 PWINO $",2025-09-16 22:42:57.742275,2025-09-16 18:42:57.742316
"PAIN","McKinley Park Arpt, AK, US",2025-09-16 21:56:00,"2025-09-16 13:56:00","VFR",13.9,0,190,8,NA,NA,1005.8,"METAR PAIN 162156Z AUTO 19008KT 10SM CLR 14/00 A2970 RMK AO2 SLP073 T01390000 TSNO",2025-09-16 22:42:57.748647,2025-09-16 18:42:57.748692
"PAMM","Metlakatla, AK, US",2025-09-16 21:56:00,"2025-09-16 13:56:00","VFR",21.7,9.4,90,6,NA,NA,1009.2,"METAR PAMM 162156Z AUTO 09006KT 10SM CLR 22/09 A2980 RMK AO2 SLP081 T02170094 $",2025-09-16 22:42:57.754995,2025-09-16 18:42:57.75504
"PAMY","Mekoryuk Arpt, AK, US",2025-09-16 21:56:00,"2025-09-16 13:56:00","VFR",9.4,5.6,20,14,NA,NA,1007.2,"METAR PAMY 162156Z AUTO 02014KT 10SM CLR 09/06 A2974 RMK AO2 SLP068 T00940056",2025-09-16 22:42:57.76141,2025-09-16 18:42:57.761455
"PAPN","Pilot Point Arpt, AK, US",2025-09-16 21:56:00,"2025-09-16 13:56:00","VFR",12.2,6.7,240,10,NA,6,1004.1,"METAR PAPN 162156Z AUTO 24010KT 6SM HZ FEW024 12/07 A2965 RMK AO2 SLP040 T01220067 PNO $",2025-09-16 22:42:57.767687,2025-09-16 18:42:57.767729
"PASH","Shishmaref Arpt, AK, US",2025-09-16 21:56:00,"2025-09-16 13:56:00","IFR",5.6,3.9,330,8,NA,NA,1012.3,"METAR PASH 162156Z AUTO 33008KT 10SM OVC007 06/04 A2989 RMK AO2 SLP121 T00560039",2025-09-16 22:42:57.774034,2025-09-16 18:42:57.774078
"PASX","Soldotna Arpt, AK, US",2025-09-16 21:56:00,"2025-09-16 13:56:00","VFR",15.6,6.7,50,10,NA,NA,1002.8,"METAR PASX 162156Z AUTO 05010KT 10SM BKN110 16/07 A2961 RMK AO2 SLP034 T01560067 TSNO",2025-09-16 22:42:57.780387,2025-09-16 18:42:57.78043
"PFSH","Shaktoolik Arpt, AK, US",2025-09-16 21:56:00,"2025-09-16 13:56:00","VFR",6.7,3.3,20,23,NA,NA,1007.9,"METAR PFSH 162156Z AUTO 02023KT 10SM OVC070 07/03 A2976 RMK AO2 PK WND 01026/2156 SLP079 T00670033 TSNO PNO $",2025-09-16 22:42:57.786824,2025-09-16 18:42:57.786873
"PAII","Egegik Arpt, AK, US",2025-09-16 21:56:00,"2025-09-16 13:56:00","VFR",10.6,6.1,290,6,NA,NA,1005.2,"METAR PAII 162156Z AUTO 29006KT 10SM OVC034 11/06 A2968 RMK AO2 SLP047 T01060061",2025-09-16 22:42:57.793172,2025-09-16 18:42:57.793226
"PAPE","Perryville Arpt, AK, US",2025-09-16 21:56:00,"2025-09-16 13:56:00","VFR",10.6,3.9,120,6,NA,8,1004.8,"METAR PAPE 162156Z AUTO 12006KT 8SM CLR 11/04 A2967 RMK AO2 SLP045 T01060039",2025-09-16 22:42:57.799464,2025-09-16 18:42:57.799506
"PFTO","Tok Junction Arpt, AK, US",2025-09-16 21:56:00,"2025-09-16 13:56:00","VFR",10.6,3.3,100,8,NA,NA,1008.5,"METAR PFTO 162156Z AUTO 10008KT 10SM CLR 11/03 A2978 RMK AO2 SLP733 T01060033 $",2025-09-16 22:42:57.805903,2025-09-16 18:42:57.805948
"PARC","Arctic Village Arpt, AK, US",2025-09-16 21:56:00,"2025-09-16 13:56:00","MVFR",5,1.1,330,8,NA,NA,1010.6,"METAR PARC 162156Z AUTO 33008KT 10SM OVC021 05/01 A2984 RMK AO2 SLP141 T00500011 TSNO",2025-09-16 22:42:57.812395,2025-09-16 18:42:57.81244
"PFCL","Clarks Point Arpt, AK, US",2025-09-16 21:56:00,"2025-09-16 13:56:00","VFR",10.6,4.4,NA,NA,NA,NA,1004.8,"METAR PFCL 162156Z AUTO 10SM OVC041 11/04 A2967 RMK AO2 SLP039 T01060044 $",2025-09-16 22:42:57.831868,2025-09-16 18:42:57.831922
"PARY","Ruby Arpt, AK, US",2025-09-16 21:56:00,"2025-09-16 13:56:00","MVFR",10.6,6.1,40,3,NA,NA,1006.2,"METAR PARY 162156Z AUTO 04003KT 10SM BKN021 11/06 A2971 RMK AO2 SLP064 T01060061 TSNO",2025-09-16 22:42:57.838993,2025-09-16 18:42:57.839041
"PASA","Savoonga Arpt, AK, US",2025-09-16 21:56:00,"2025-09-16 13:56:00","VFR",8.3,5,310,5,NA,NA,1012.6,"METAR PASA 162156Z AUTO 31005KT 10SM CLR 08/05 A2990 RMK AO2 SLP124 T00830050 $",2025-09-16 22:42:57.845938,2025-09-16 18:42:57.845984
"PAIW","Wales Arpt, AK, US",2025-09-16 21:56:00,"2025-09-16 13:56:00","MVFR",7.2,7.2,50,7,NA,NA,1012.6,"METAR PAIW 162156Z AUTO 05007KT 10SM OVC012 07/07 A2990 RMK AO2 SLP125 T00720072",2025-09-16 22:42:57.852605,2025-09-16 18:42:57.852648
"PAJZ","Koliganek Arpt, AK, US",2025-09-16 21:56:00,"2025-09-16 13:56:00","MVFR",9.4,5.6,20,4,NA,6,1005.5,"METAR PAJZ 162156Z AUTO 02004KT 6SM -RA BKN021 OVC070 09/06 A2969 RMK AO2 RAB48 SLP054 P0622 T00940056",2025-09-16 22:42:57.858935,2025-09-16 18:42:57.858978
"PAKI","Kipnuk Arpt, AK, US",2025-09-16 21:56:00,"2025-09-16 13:56:00",NA,NA,NA,10,8,NA,NA,1006.2,"METAR PAKI 162156Z AUTO 01008KT A2971 RMK AO2 SLPNO FZRANO",2025-09-16 22:42:57.865273,2025-09-16 18:42:57.865316
"PAKK","Koyuk Arpt, AK, US",2025-09-16 21:56:00,"2025-09-16 13:56:00","VFR",7.2,2.8,350,10,17,NA,1007.2,"METAR PAKK 162156Z AUTO 35010G17KT 10SM OVC070 07/03 A2974 RMK AO2 SLP079 T00720028",2025-09-16 22:42:57.871665,2025-09-16 18:42:57.871709
"PAKP","Anaktuvuk Pass Arpt, AK, US",2025-09-16 21:56:00,"2025-09-16 13:56:00","MVFR",1.1,-3.3,40,8,NA,NA,1017.7,"METAR PAKP 162156Z AUTO 04008KT 10SM BKN010 OVC085 01/M03 A3005 RMK AO2 SLP219 T00111033 FZRANO PNO $",2025-09-16 22:42:57.878088,2025-09-16 18:42:57.878131
"PANA","Napakiak Arpt, AK, US",2025-09-16 21:56:00,"2025-09-16 13:56:00","MVFR",8.9,4.4,40,6,NA,4,1005.5,"METAR PANA 162156Z AUTO 04006KT 4SM HZ OVC045 09/04 A2969 RMK AO2 SLP053 T00890044 TSNO",2025-09-16 22:42:57.884398,2025-09-16 18:42:57.884441
"PAOU","Nelson Lagoon Arpt, AK, US",2025-09-16 21:56:00,"2025-09-16 13:56:00","VFR",9.4,3.9,280,4,NA,NA,1005.2,"METAR PAOU 162156Z AUTO 28004KT 10SM CLR 09/04 A2968 RMK AO2 SLP050 T00940039",2025-09-16 22:42:57.890707,2025-09-16 18:42:57.89075
"PAPH","Port Heiden Arpt, AK, US",2025-09-16 21:56:00,"2025-09-16 13:56:00","VFR",11.1,5,270,8,NA,NA,1005.2,"METAR PAPH 162156Z AUTO 27008KT 10SM FEW028 OVC048 11/05 A2968 RMK AO2 SLP051 T01110050 $",2025-09-16 22:42:57.89706,2025-09-16 18:42:57.897104
"PAVD","Valdez Arpt, AK, US",2025-09-16 21:56:00,"2025-09-16 13:56:00","VFR",13,7,240,5,NA,20,1009.6,"METAR PAVD 162156Z 24005KT 20SM FEW080 SCT130 13/07 A2981",2025-09-16 22:42:57.903453,2025-09-16 18:42:57.903494
"PAIG","Igiugig Arpt, AK, US",2025-09-16 21:56:00,"2025-09-16 13:56:00","VFR",NA,NA,0,0,NA,NA,1004.1,"METAR PAIG 162156Z AUTO 00000KT 10SM OVC039 A2965 RMK AO2 SLPNO FZRANO PNO $",2025-09-16 22:42:57.909782,2025-09-16 18:42:57.909847
"PFNO","Noorvik/Curtis Mem, AK, US",2025-09-16 21:56:00,"2025-09-16 13:56:00","VFR",8.3,-1.1,0,0,NA,NA,1010.2,"METAR PFNO 162156Z AUTO 00000KT 10SM CLR 08/M01 A2983 RMK AO2 SLP101 T00831011 $",2025-09-16 22:42:57.916154,2025-09-16 18:42:57.916198
"PAOH","Hoonah, AK, US",2025-09-16 21:56:00,"2025-09-16 13:56:00","VFR",13.3,12.2,80,6,NA,NA,1010.2,"METAR PAOH 162156Z AUTO 08006KT 10SM SCT024 OVC041 13/12 A2983 RMK AO2 SLP102 T01330122",2025-09-16 22:42:57.922428,2025-09-16 18:42:57.922472
"PALG","Kalskag Arpt, AK, US",2025-09-16 21:56:00,"2025-09-16 13:56:00","VFR",12.2,5.6,0,0,NA,NA,1004.8,"METAR PALG 162156Z AUTO 00000KT 10SM FEW028 12/06 A2967 RMK AO2 SLP048 T01220056",2025-09-16 22:42:57.928761,2025-09-16 18:42:57.928822
"PATQ","Atqasuk/Burnell Mem, AK, US",2025-09-16 21:56:00,"2025-09-16 13:56:00","IFR",1.7,1.1,40,12,NA,NA,1016,"METAR PATQ 162156Z AUTO 04012KT 10SM OVC006 02/01 A3000 RMK AO2 SLP164 T00170011 FZRANO TSNO",2025-09-16 22:42:57.935168,2025-09-16 18:42:57.935214
"PHHI","Wheeler(AAF), HI, US",2025-09-16 21:55:00,"2025-09-16 11:55:00","VFR",25.8,17.9,110,7,NA,NA,1018,"METAR PHHI 162155Z AUTO 11007KT 10SM BKN035 OVC045 26/18 A3006 RMK AO2 SLP169 T02580179 $",2025-09-16 22:42:57.941587,2025-09-16 18:42:57.941632
"PALU","Cape Lisburne Arpt, AK, US",2025-09-16 21:55:00,"2025-09-16 13:55:00","IFR",5.5,4.3,80,12,NA,NA,1013.3,"METAR PALU 162155Z AUTO 08012KT 10SM OVC008 06/04 A2992 RMK AO2 SLP133 T00550043",2025-09-16 22:42:57.948146,2025-09-16 18:42:57.94819
"PATL","Tatalina Arpt, AK, US",2025-09-16 21:55:00,"2025-09-16 13:55:00","LIFR",9.6,4.8,NA,2,NA,0.5,1005.5,"METAR PATL 162155Z AUTO VRB02KT 1/2SM FG OVC019 10/05 A2969 RMK AO2 SLP056 T00960048",2025-09-16 22:42:57.968105,2025-09-16 18:42:57.968152
"PASV","Sparrevohn Arpt, AK, US",2025-09-16 21:55:00,"2025-09-16 13:55:00","VFR",8.8,4.4,160,2,NA,NA,1003.5,"METAR PASV 162155Z AUTO 16002KT 10SM OVC065 09/04 A2963 RMK AO2 SLP042 T00880044",2025-09-16 22:42:57.975128,2025-09-16 18:42:57.975174
"PAKN","King Salmon Arpt, AK, US",2025-09-16 21:54:00,"2025-09-16 13:54:00","VFR",9.4,5.6,330,4,NA,NA,1003.1,"METAR PAKN 162154Z 33004KT 10SM BKN037 OVC044 09/06 A2962 RMK AO2 SLP029 T00940056",2025-09-16 22:42:57.982098,2025-09-16 18:42:57.982145
"PAOT","Kotzebue/Wien Mem, AK, US",2025-09-16 21:53:00,"2025-09-16 13:53:00","VFR",6.7,-2.2,350,4,NA,NA,1009.9,"METAR PAOT 162153Z 35004KT 10SM CLR 07/M02 A2982 RMK AO2 SLP097 T00671022",2025-09-16 22:42:57.98866,2025-09-16 18:42:57.988703
"PAYA","Yakutat Arpt, AK, US",2025-09-16 21:53:00,"2025-09-16 13:53:00","VFR",12.2,9.4,120,4,NA,NA,1007.9,"METAR PAYA 162153Z AUTO 12004KT 10SM -RA OVC070 12/09 A2976 RMK AO2 RAB18 SLP077 P0000 T01220094 TSNO",2025-09-16 22:42:57.995112,2025-09-16 18:42:57.995155
"PAMC","McGrath Arpt, AK, US",2025-09-16 21:53:00,"2025-09-16 13:53:00","MVFR",11.1,6.1,20,4,NA,NA,1004.5,"METAR PAMC 162153Z 02004KT 10SM OVC025 11/06 A2966 RMK AO2 SLP046 T01110061 $",2025-09-16 22:42:58.001521,2025-09-16 18:42:58.001564
"PAQT","Nuiqsut Arpt, AK, US",2025-09-16 21:53:00,"2025-09-16 13:53:00","MVFR",5,1.1,100,7,NA,NA,1015.3,"METAR PAQT 162153Z AUTO 10007KT 10SM OVC016 05/01 A2998 RMK AO2 SLP154 T00500011 TSNO PNO $",2025-09-16 22:42:58.007925,2025-09-16 18:42:58.007971
"PAPB","St George Arpt, AK, US",2025-09-16 21:53:00,"2025-09-16 13:53:00","VFR",10.6,4.4,90,19,30,NA,1003.5,"METAR PAPB 162153Z AUTO 09019G30KT 10SM CLR 11/04 A2963 RMK AO2 PK WND 09033/2102 SLP020 T01060044 TSNO PNO $",2025-09-16 22:42:58.014328,2025-09-16 18:42:58.014375
"PAOM","Nome Arpt, AK, US",2025-09-16 21:53:00,"2025-09-16 13:53:00","VFR",11.1,-2.2,360,4,NA,NA,1009.6,"METAR PAOM 162153Z 36004KT 10SM CLR 11/M02 A2981 RMK AO2 SLP093 T01111022",2025-09-16 22:42:58.020641,2025-09-16 18:42:58.020684
"PAWD","Seward Arpt, AK, US",2025-09-16 21:53:00,"2025-09-16 13:53:00",NA,12.8,9.4,360,8,NA,NA,1002.5,"METAR PAWD 162153Z AUTO 36008KT -RA OVC065 13/09 A2960 RMK AO2 SLP023 P0000 T01280094 TSNO $",2025-09-16 22:42:58.026921,2025-09-16 18:42:58.026964
"PHJR","Kalaeloa Arpt, HI, US",2025-09-16 21:53:00,"2025-09-16 11:53:00","VFR",30,17.8,60,8,20,NA,1017,"METAR PHJR 162153Z 06008G20KT 10SM FEW045 SCT055 BKN070 30/18 A3003 RMK AO2 SLP175 T03000178",2025-09-16 22:42:58.033246,2025-09-16 18:42:58.033289
"PAMR","Anchorage/Merrill Fld, AK, US",2025-09-16 21:53:00,"2025-09-16 13:53:00","VFR",10,7.8,250,3,NA,NA,1004.8,"METAR PAMR 162153Z 25003KT 10SM OVC110 10/08 A2967 RMK AO2 SLP049 T01000078",2025-09-16 22:42:58.039565,2025-09-16 18:42:58.039608
"PASI","Sitka/Gutierrez Arpt, AK, US",2025-09-16 21:53:00,"2025-09-16 13:53:00","VFR",18.9,10.6,130,12,17,NA,1006.5,"METAR PASI 162153Z 13012G17KT 10SM FEW034 OVC100 19/11 A2972 RMK AO2 SLP063 T01890106",2025-09-16 22:42:58.045876,2025-09-16 18:42:58.045921
"PHKO","Keahole Point/Kona Intl, HI, US",2025-09-16 21:53:00,"2025-09-16 11:53:00","VFR",28.9,21.7,220,12,NA,NA,1015.3,"METAR PHKO 162153Z 22012KT 10SM SCT025 29/22 A2998 RMK AO2 SLP150 T02890217",2025-09-16 22:42:58.05232,2025-09-16 18:42:58.052364
"PASN","St Paul Island Arpt, AK, US",2025-09-16 21:53:00,"2025-09-16 13:53:00","VFR",10,3.9,80,16,NA,NA,1004.1,"METAR PASN 162153Z AUTO 08016KT 10SM FEW043 10/04 A2965 RMK AO2 SLP041 T01000039 TSNO $",2025-09-16 22:42:58.058858,2025-09-16 18:42:58.058905
"PAJN","Juneau Intl, AK, US",2025-09-16 21:53:00,"2025-09-16 13:53:00","VFR",11.1,10.6,220,4,NA,NA,1010.9,"METAR PAJN 162153Z 22004KT 10SM > FEW004 BKN041 OVC065 11/11 A2985 RMK AO2 SLP109 T01110106",2025-09-16 22:42:58.065492,2025-09-16 18:42:58.065537
"PASC","Deadhorse Arpt, AK, US",2025-09-16 21:53:00,"2025-09-16 13:53:00","MVFR",3.9,2.2,30,6,NA,NA,1014.6,"METAR PASC 162153Z 03006KT 10SM SCT007 SCT017 OVC025 04/02 A2996 RMK AO2 SLP145 T00390022 $",2025-09-16 22:42:58.072003,2025-09-16 18:42:58.072048
"PAOR","Northway Arpt, AK, US",2025-09-16 21:53:00,"2025-09-16 13:53:00","VFR",9.4,3.9,190,5,NA,NA,1008.5,"METAR PAOR 162153Z 19005KT 10SM FEW010 BKN250 09/04 A2978 RMK AO2 SLP102 T00940039 PNO $",2025-09-16 22:42:58.078585,2025-09-16 18:42:58.078631
"PANC","Anchorage Intl, AK, US",2025-09-16 21:53:00,"2025-09-16 13:53:00","VFR",10,8.3,310,4,NA,NA,1004.8,"METAR PANC 162153Z 31004KT 10SM OVC110 10/08 A2967 RMK AO2 SLP049 T01000083",2025-09-16 22:42:58.09709,2025-09-16 18:42:58.09717
"PANN","Nenana Muni, AK, US",2025-09-16 21:53:00,"2025-09-16 13:53:00","VFR",14.4,6.1,50,7,NA,NA,1004.5,"METAR PANN 162153Z AUTO 05007KT 10SM CLR 14/06 A2966 RMK AO2 SLP049 T01440061 TSNO $",2025-09-16 22:42:58.104436,2025-09-16 18:42:58.104483
"PATK","Talkeetna Arpt, AK, US",2025-09-16 21:53:00,"2025-09-16 13:53:00","VFR",13.3,6.1,10,4,NA,NA,1005.2,"METAR PATK 162153Z 01004KT 10SM BKN095 13/06 A2968 RMK AO2 SLP052 T01330061 $",2025-09-16 22:42:58.111326,2025-09-16 18:42:58.111372
"PHLI","Lihue Arpt, HI, US",2025-09-16 21:53:00,"2025-09-16 11:53:00","VFR",29.4,20.6,60,11,NA,NA,1018,"METAR PHLI 162153Z 06011KT 10SM FEW027 29/21 A3006 RMK AO2 SLP177 T02940206 $",2025-09-16 22:42:58.118223,2025-09-16 18:42:58.118267
"PAKV","Kaltag Arpt, AK, US",2025-09-16 21:53:00,"2025-09-16 13:53:00","VFR",10.6,3.9,50,7,NA,NA,1007.5,"METAR PAKV 162153Z AUTO 05007KT 10SM FEW031 BKN050 OVC075 11/04 A2975 RMK AO2 SLP076 T01060039 TSNO $",2025-09-16 22:42:58.12465,2025-09-16 18:42:58.124694
"PALH","Lake Hood, AK, US",2025-09-16 21:53:00,"2025-09-16 21:53:00","VFR",10.6,7.8,300,6,NA,NA,1005.2,"METAR PALH 162153Z 30006KT 10SM BKN110 11/08 A2968 RMK AO2 SLP052 T01060078",2025-09-16 22:42:58.131037,2025-09-16 18:42:58.13108
"PAIL","Iliamna Arpt, AK, US",2025-09-16 21:52:00,"2025-09-16 13:52:00","VFR",11,7,0,0,NA,NA,1004.5,"METAR PAIL 162152Z 00000KT 10SM FEW060 OVC075 11/07 A2966 RMK NOSPECI",2025-09-16 22:42:58.137459,2025-09-16 18:42:58.137502
"PATA","Tanana/Calhoun Mem, AK, US",2025-09-16 21:52:00,"2025-09-16 13:52:00","VFR",18.3,5.6,NA,4,NA,NA,1005.8,"METAR PATA 162152Z VRB04KT 10SM FEW040 SCT110 18/06 A2970 RMK AO2 SLP060 T01830056 $",2025-09-16 22:42:58.143918,2025-09-16 18:42:58.143962
"PHBK","Kekaha/Barking Sands Arpt, HI, US",2025-09-16 21:51:00,"2025-09-16 11:51:00","VFR",30,16.7,320,13,NA,NA,1016.7,"METAR PHBK 162151Z AUTO 32013KT 10SM CLR 30/17 A3002 RMK AO2 SLP167 T03000167 $",2025-09-16 22:42:58.150277,2025-09-16 18:42:58.15032
"PAPR","Prospect Creek Arpt, AK, US",2025-09-16 21:50:00,"2025-09-16 13:50:00","VFR",11,NA,90,10,NA,20,1007.2,"METAR PAPR 162150Z 09010KT 20SM SCT040 SCT075 11/ A2974",2025-09-16 22:42:58.156521,2025-09-16 18:42:58.156565
"PALP","Deadhorse/Alpine Arstrp, AK, US",2025-09-16 21:50:00,"2025-09-16 21:50:00","MVFR",4,1,80,6,NA,NA,1015,"METAR PALP 162150Z 08006KT 10SM SCT014 BKN016 04/01 A2997",2025-09-16 22:42:58.162835,2025-09-16 18:42:58.162883
"PAKU","Kuparuk Arpt, AK, US",2025-09-16 21:45:00,"2025-09-16 13:45:00","IFR",3,2,70,7,NA,NA,1015,"METAR PAKU 162145Z 07007KT 10SM R06/P6000FT BKN008 BKN023 03/02 A2997",2025-09-16 22:42:58.169288,2025-09-16 18:42:58.169331
"PHNY","Lanai Arpt, HI, US",2025-09-16 22:34:00,"2025-09-16 12:34:00","MVFR",26,19,40,11,NA,NA,1017.7,"SPECI PHNY 162234Z AUTO 04011KT 10SM BKN027 BKN038 OVC050 26/19 A3005 RMK AO2 $",2025-09-16 22:42:59.280858,2025-09-16 18:42:59.280902
"PHOG","Kahului Arpt, HI, US",2025-09-16 22:05:00,"2025-09-16 12:05:00","VFR",30.6,18.3,50,16,29,NA,1015.7,"SPECI PHOG 162205Z COR 05016G29KT 10SM FEW025 SCT060 31/18 A2999 RMK AO2 PK WND 06029/2205 T03060183 $",2025-09-16 22:42:59.287307,2025-09-16 18:42:59.287352
"PHNG","Kaneohe Bay (MCAS), HI, US",2025-09-16 21:57:00,"2025-09-16 11:57:00","MVFR",27.8,21.1,70,13,21,7,1016.3,"METAR PHNG 162157Z 07013G21KT 7SM BKN026 28/21 A3001 RMK AO2 SLP157 T02780211 $",2025-09-16 22:42:59.293588,2025-09-16 18:42:59.293631
"PPIZ","Point Lay Arpt, AK, US",2025-09-16 21:56:00,"2025-09-16 13:56:00","IFR",2.2,1.7,40,16,NA,NA,1014.6,"METAR PPIZ 162156Z AUTO 04016KT 10SM OVC007 02/02 A2996 RMK AO2 CIG 004V010 SLP147 T00220017 FZRANO",2025-09-16 22:42:59.299884,2025-09-16 18:42:59.299929
"PHSF","Bradshaw(AAF), HI, US",2025-09-16 21:55:00,"2025-09-16 11:55:00","VFR",23.7,11.7,170,14,20,NA,1027.2,"METAR PHSF 162155Z AUTO 17014G20KT 10SM CLR 24/12 A3033 RMK AO2 SLP153 T02370117 $",2025-09-16 22:42:59.306249,2025-09-16 18:42:59.306294
"PHMK","Molokai Arpt, HI, US",2025-09-16 21:54:00,"2025-09-16 11:54:00","VFR",28.9,19.4,70,13,23,NA,1017,"METAR PHMK 162154Z 07013G23KT 10SM SCT050 29/19 A3003 RMK AO2 PK WND 05027/2133 SLP170 T02890194",2025-09-16 22:42:59.312739,2025-09-16 18:42:59.312783
"PHTO","Hilo Intl, HI, US",2025-09-16 21:53:00,"2025-09-16 11:53:00","VFR",27.2,20,340,6,NA,NA,1017,"METAR PHTO 162153Z 34006KT 10SM SCT029 BKN044 BKN055 27/20 A3003 RMK AO2 SLP167 T02720200",2025-09-16 22:42:59.331742,2025-09-16 18:42:59.331788
"PHNL","Honolulu Intl, HI, US",2025-09-16 21:53:00,"2025-09-16 11:53:00","VFR",28.9,19.4,50,12,NA,NA,1017,"METAR PHNL 162153Z 05012KT 10SM FEW025 SCT045 BKN060 29/19 A3003 RMK AO2 SLP169 VCSH N T02890194 $",2025-09-16 22:42:59.338537,2025-09-16 18:42:59.338582
