"icao","site","observed_utc","observed_local","flight_category","temp_c","dewpoint_c","wind_dir_deg","wind_kts","gust_kts","vis_sm","altimeter_hpa","raw_text","fetched_at_utc","fetched_at_local"
"CBBC","Bella Bella Arpt, BC, CA",2025-09-19 11:00:00,"2025-09-19 04:00:00","VFR",11,11,180,3,NA,6,1018.4,"METAR CBBC 191100Z AUTO 18003KT 6SM BR OVC081 11/11 A3007 RMK SLP185",2025-09-19 11:47:16.559272,2025-09-19 07:47:16.559319
"CYAY","St Anthony Arpt, NL, CA",2025-09-19 11:35:00,"2025-09-19 09:05:00","IFR",7,7,30,19,25,9,1000.8,"SPECI CYAY 191135Z AUTO 03019G25KT 9SM BKN007 OVC017 07/07 A2955 RMK PCPN 0.5MM PAST HR SLP008",2025-09-19 11:47:30.57703,2025-09-19 07:47:30.577073
"CYAW","Shearwater(AFB), NS, CA",2025-09-19 11:33:00,"2025-09-19 11:33:00","VFR",18,16,250,10,15,15,1007.5,"SPECI CYAW 191133Z 25010G15KT 15SM SCT007 18/16 A2975 RMK SF4 DENSITY ALT 967FT SLP076",2025-09-19 11:47:30.58409,2025-09-19 07:47:30.584133
"CYAM","Sault Ste Marie Arpt, ON, CA",2025-09-19 11:00:00,"2025-09-19 07:00:00","VFR",11,9,70,10,NA,20,1022.4,"METAR CYAM 191100Z 07010KT 20SM FEW041 SCT093 SCT140 SCT260 11/09 A3019 RMK SC2AC1AC1CI1 CI TR SLP229",2025-09-19 11:47:30.59095,2025-09-19 07:47:30.590992
"CYAH","La Grande IV Arpt, QC, CA",2025-09-19 11:00:00,"2025-09-19 07:00:00","VFR",2,-1,280,10,15,9,1014,"METAR CYAH 191100Z AUTO 28010G15KT 9SM FEW055 OVC099 02/M01 A2994 RMK SLP155",2025-09-19 11:47:30.59954,2025-09-19 07:47:30.599596
"CYBC","Baie Comeau Arpt, QC, CA",2025-09-19 11:00:00,"2025-09-19 07:00:00","VFR",10,7,330,3,NA,9,1010.9,"METAR CYBC 191100Z AUTO 33003KT 9SM FEW033 OVC060 10/07 A2985 RMK SLP112",2025-09-19 11:47:30.608063,2025-09-19 07:47:30.608122
"CWJC","Ennadai Lake(MAPS), NU, CA",2025-09-19 11:00:00,"2025-09-19 11:00:00",NA,10.7,10,NA,NA,NA,NA,NA,"METAR CWJC 191100Z AUTO 11/10 RMK AO1 18 6010 SLP149 T01070100",2025-09-19 11:47:30.616521,2025-09-19 07:47:30.616593
"CYAT","Attawapisket Arpt, ON, CA",2025-09-19 11:00:00,"2025-09-19 07:00:00","MVFR",4,1,300,5,NA,9,1025.5,"METAR CYAT 191100Z AUTO 30005KT 9SM OVC024 04/01 A3028 RMK SLP255",2025-09-19 11:47:30.624999,2025-09-19 07:47:30.625054
"CYCY","Cylde River Arpt, NU, CA",2025-09-19 11:46:00,"2025-09-19 07:46:00","IFR",0,0,330,11,16,2.25,1023.1,"SPECI CYCY 191146Z AUTO 33011G16KT 2 1/4SM -SN SCT008 BKN012 OVC020 00/M00 A3021 RMK VIS VRB 1-3 ICE INTMT SLP236",2025-09-19 11:47:31.838197,2025-09-19 07:47:31.838243
"CYER","Ft Severn Arpt, ON, CA",2025-09-19 11:45:00,"2025-09-19 07:45:00","LIFR",2,NA,290,2,NA,0.38,1026.5,"SPECI CYER 191145Z AUTO 29002KT 3/8SM FG OVC014 02/ A3031 RMK DP MISG SLP268",2025-09-19 11:47:31.845081,2025-09-19 07:47:31.845123
"CYLL","Lloydminster Arpt, AB, CA",2025-09-19 11:42:00,"2025-09-19 05:42:00","LIFR",7,7,120,3,NA,0.38,1016,"SPECI CYLL 191142Z AUTO 12003KT 110V170 3/8SM FG FEW002 07/07 A3000 RMK SLP181",2025-09-19 11:47:31.85154,2025-09-19 07:47:31.851584
"CYGW","Kuujjuarapik Arpt, QC, CA",2025-09-19 11:40:00,"2025-09-19 07:40:00","VFR",5,2,320,15,29,9,1017.7,"SPECI CYGW 191140Z AUTO 32015G29KT 9SM FEW026 BKN042 OVC050 05/02 A3005 RMK SLP178",2025-09-19 11:47:31.858141,2025-09-19 07:47:31.858184
"CYLH","Lansdowne House Arpt, ON, CA",2025-09-19 11:38:00,"2025-09-19 07:38:00","LIFR",0,0,210,2,NA,0.38,1026.5,"SPECI CYLH 191138Z AUTO 21002KT 3/8SM FZFG SCT001 M00/M00 A3031 RMK SLP279",2025-09-19 11:47:31.86475,2025-09-19 07:47:31.864797
"CYCO","Coppermine/Kugluktuk Arpt, NU, CA",2025-09-19 11:36:00,"2025-09-19 05:36:00","MVFR",8,6,190,3,NA,15,1003.1,"SPECI CYCO 191136Z 19003KT 15SM SCT009 OVC015 08/06 A2962 RMK ST4SC4 SLP033",2025-09-19 11:47:31.87142,2025-09-19 07:47:31.871463
"CYBR","Brandon Arpt, MB, CA",2025-09-19 11:33:00,"2025-09-19 06:33:00","IFR",13,12,40,7,NA,9,1019,"SPECI CYBR 191133Z AUTO 04007KT 9SM -RA BKN009 OVC026 13/12 A3009 RMK SLP203",2025-09-19 11:47:31.878063,2025-09-19 07:47:31.878108
"CYDL","Dease Lake Arpt, BC, CA",2025-09-19 11:32:00,"2025-09-19 04:32:00","VFR",7,5,280,3,NA,9,1009.2,"SPECI CYDL 191132Z AUTO 28003KT 230V310 9SM OVC060 07/05 A2980 RMK SLP100",2025-09-19 11:47:31.884655,2025-09-19 07:47:31.884698
"CYEN","Estevan Arpt, SK, CA",2025-09-19 11:22:00,"2025-09-19 05:22:00","LIFR",10,10,80,5,NA,0.38,1019.7,"SPECI CYEN 191122Z AUTO 08005KT 3/8SM FG VV002 10/10 A3011 RMK SLP213",2025-09-19 11:47:31.891269,2025-09-19 07:47:31.891312
"CYGL","La Grande Riviere Arpt, QC, CA",2025-09-19 11:20:00,"2025-09-19 07:20:00","MVFR",2,1,280,10,15,15,1019.7,"SPECI CYGL 191120Z 28010G15KT 15SM BKN010 BKN043 02/01 A3011 RMK SC5SC2 SLP209",2025-09-19 11:47:31.897878,2025-09-19 07:47:31.897921
"CYBQ","Tadoule Lake Arpt, MB, CA",2025-09-19 11:18:00,"2025-09-19 06:18:00","LIFR",9,9,160,5,NA,9,1019,"SPECI CYBQ 191118Z AUTO 16005KT 9SM BKN003 09/09 A3009 RMK SLP203",2025-09-19 11:47:31.904511,2025-09-19 07:47:31.904563
"CYHY","Hay River/Carter Arpt, NT, CA",2025-09-19 11:00:00,"2025-09-19 05:00:00","VFR",9,3,230,7,NA,15,1007.9,"METAR CYHY 191100Z 23007KT 15SM FEW090 09/03 A2976 RMK AC1 SLP086",2025-09-19 11:47:31.911234,2025-09-19 07:47:31.911278
"CYLD","Chapleau Arpt, ON, CA",2025-09-19 11:00:00,"2025-09-19 07:00:00","IFR",4,4,60,3,NA,15,1024.1,"METAR CYLD 191100Z 06003KT 15SM OVC006 04/04 A3024 RMK SC8 SLP255",2025-09-19 11:47:31.917903,2025-09-19 07:47:31.917945
"CYHM","Hamilton/Munro Intl, ON, CA",2025-09-19 11:00:00,"2025-09-19 07:00:00","MVFR",14,13,20,6,NA,15,1019.7,"METAR CYHM 191100Z 02006KT 15SM BKN012 14/13 A3011 RMK SC7 SLP199",2025-09-19 11:47:31.924781,2025-09-19 07:47:31.924826
"CYIO","Pond Inlet Arpt, NU, CA",2025-09-19 11:00:00,"2025-09-19 07:00:00","VFR",-3,-5,80,2,NA,9,1025.8,"METAR CYIO 191100Z AUTO 08002KT 9SM CLR M03/M05 A3029 RMK SLP266",2025-09-19 11:47:31.931824,2025-09-19 07:47:31.931868
"CYKP","Ogoki Post, ON, CA",2025-09-19 11:00:00,"2025-09-19 07:00:00","MVFR",5,5,NA,2,NA,9,1026.2,"METAR CYKP 191100Z AUTO VRB02KT 9SM OVC025 05/05 A3030 RMK SLP268",2025-09-19 11:47:31.939015,2025-09-19 07:47:31.93906
"CYKY","Kindersley Arpt, SK, CA",2025-09-19 11:00:00,"2025-09-19 05:00:00","MVFR",8,8,220,3,NA,3,1016,"METAR CYKY 191100Z 22003KT 3SM BR SKC 08/08 A3000 RMK SLP165",2025-09-19 11:47:31.945899,2025-09-19 07:47:31.945942
"CYLT","Alert Arpt, NU, CA",2025-09-19 11:00:00,"2025-09-19 07:00:00","VFR",-13,-14,0,0,NA,NA,1030.6,"METAR CYLT 191100Z 00000KT 10SM FEW003 SCT055 SCT220 M13/M14 A3043 RMK ST2SC1CI1 DENSITY ALT -3991FT FG BANK N VIS 3/4 SLP311",2025-09-19 11:47:31.952902,2025-09-19 07:47:31.952948
"CYBU","Nipawin(AUTO), SK, CA",2025-09-19 11:00:00,"2025-09-19 11:00:00","LIFR",5,5,80,3,NA,0.5,1020.4,"METAR CYBU 191100Z AUTO 08003KT 1/2SM FG VV001 05/05 A3013 RMK SLP217",2025-09-19 11:47:31.959827,2025-09-19 07:47:31.959871
"CYEG","Edmonton Intl Arpt, AB, CA",2025-09-19 11:00:00,"2025-09-19 05:00:00","VFR",6,5,190,4,NA,20,1017,"METAR CYEG 191100Z 19004KT 20SM FEW250 06/05 A3003 RMK CI1 CI TR SLP180",2025-09-19 11:47:31.966743,2025-09-19 07:47:31.966789
"CYHD","Dryden Rgnl, ON, CA",2025-09-19 11:00:00,"2025-09-19 06:00:00","VFR",9,8,50,7,NA,9,1021.4,"METAR CYHD 191100Z AUTO 05007KT 9SM FEW240 09/08 A3016 RMK SLP226",2025-09-19 11:47:31.986677,2025-09-19 07:47:31.986726
"CYHU","Montreal/St Hubert, QC, CA",2025-09-19 11:00:00,"2025-09-19 07:00:00","VFR",10,7,340,7,NA,9,1017,"METAR CYHU 191100Z AUTO 34007KT 9SM CLR 10/07 A3003 RMK SLP171",2025-09-19 11:47:31.993643,2025-09-19 07:47:31.993688
"CYGV","Havre St Pierre Arpt, QC, CA",2025-09-19 11:00:00,"2025-09-19 07:00:00","VFR",7,6,30,6,NA,9,1007.5,"METAR CYGV 191100Z AUTO 03006KT 350V110 9SM BKN060 07/06 A2975 RMK SLP076",2025-09-19 11:47:32.000764,2025-09-19 07:47:32.000809
"CYCA","Cartwright Arpt, NL, CA",2025-09-19 11:00:00,"2025-09-19 08:00:00","MVFR",5,3,320,8,NA,9,1004.8,"METAR CYCA 191100Z AUTO 32008KT 9SM OVC023 05/03 A2967 RMK SLP050",2025-09-19 11:47:32.007843,2025-09-19 07:47:32.007889
"CYDP","Nain Arpt, NL, CA",2025-09-19 11:00:00,"2025-09-19 08:00:00","VFR",3,-4,280,13,19,15,1002.1,"METAR CYDP 191100Z 28013G19KT 15SM SKC 03/M04 A2959 RMK SLP021",2025-09-19 11:47:32.015059,2025-09-19 07:47:32.015103
"CYFB","Iqaluit Arpt, NU, CA",2025-09-19 11:00:00,"2025-09-19 07:00:00","VFR",7,1,30,16,23,30,1003.1,"METAR CYFB 191100Z 03016G23KT 350V050 30SM BKN039 BKN080 07/01 A2962 RMK SC6AC1 SLP034",2025-09-19 11:47:32.022025,2025-09-19 07:47:32.022071
"CYFC","Fredericton Intl, NB, CA",2025-09-19 11:00:00,"2025-09-19 08:00:00","VFR",16,14,270,6,NA,9,1008.2,"METAR CYFC 191100Z AUTO 27006KT 9SM OVC086 16/14 A2977 RMK SLP085 DENSITY ALT 400FT",2025-09-19 11:47:32.028863,2025-09-19 07:47:32.028908
"CYFT","Makkovik Arpt, NL, CA",2025-09-19 11:00:00,"2025-09-19 08:00:00","VFR",3,-1,270,11,17,15,1004.5,"METAR CYFT 191100Z 27011G17KT 15SM SCT034 03/M01 A2966 RMK SC3 SLP049",2025-09-19 11:47:32.035684,2025-09-19 07:47:32.03573
"CYHZ","Halifax/Stanfield Intl, NS, CA",2025-09-19 11:00:00,"2025-09-19 08:00:00","VFR",16,16,250,7,NA,NA,1007.5,"METAR CYHZ 191100Z 25007KT 10SM FEW005 16/16 A2975 RMK SF2 SLP076 DENSITY ALT 900FT",2025-09-19 11:47:32.042744,2025-09-19 07:47:32.042792
"CYCX","Gagetown (MIL), NB, CA",2025-09-19 11:00:00,"2025-09-19 11:00:00","VFR",16,14,300,6,NA,15,1008.5,"METAR CYCX 191100Z 30006KT 15SM SCT050 BKN080 16/14 A2978 RMK SC3AC4 DENSITY ALT 708FT SLP084",2025-09-19 11:47:32.049892,2025-09-19 07:47:32.049938
"CYDB","Burwash Arpt, YT, CA",2025-09-19 11:00:00,"2025-09-19 04:00:00","VFR",7,3,130,17,29,9,997,"METAR CYDB 191100Z AUTO 13017G29KT 9SM CLR 07/03 A2944 RMK SLP991 DENSITY ALT 2900FT",2025-09-19 11:47:32.057122,2025-09-19 07:47:32.057169
"CYDN","Dauphin Arpt, MB, CA",2025-09-19 11:00:00,"2025-09-19 06:00:00","MVFR",12,12,350,5,NA,9,1020.4,"METAR CYDN 191100Z AUTO 35005KT 9SM OVC015 12/12 A3013 RMK SLP212",2025-09-19 11:47:32.064166,2025-09-19 07:47:32.06421
"CYEK","Arviat/Eskimo Pt Arpt, NU, CA",2025-09-19 11:00:00,"2025-09-19 06:00:00","MVFR",8,6,150,13,18,9,1021.4,"METAR CYEK 191100Z AUTO 15013G18KT 9SM OVC011 08/06 A3016 RMK SLP215",2025-09-19 11:47:32.071491,2025-09-19 07:47:32.071541
"CYET","Edson Arpt, AB, CA",2025-09-19 11:00:00,"2025-09-19 05:00:00","VFR",0,0,270,6,NA,9,1017.7,"METAR CYET 191100Z AUTO 27006KT 9SM CLR 00/M00 A3005 RMK SLP196",2025-09-19 11:47:32.07833,2025-09-19 07:47:32.078374
"CYEV","Inuvik/Zubko Arpt, NT, CA",2025-09-19 11:00:00,"2025-09-19 05:00:00","IFR",4,4,NA,2,NA,15,1002.5,"METAR CYEV 191100Z VRB02KT 15SM OVC007 04/04 A2960 RMK SC8 SLP029",2025-09-19 11:47:32.085427,2025-09-19 07:47:32.085491
"CYFO","Flin Flon Arpto, MB, CA",2025-09-19 11:00:00,"2025-09-19 06:00:00","IFR",10,10,110,4,NA,5,1020.7,"METAR CYFO 191100Z 11004KT 5SM BR OVC005 10/10 A3014 RMK ST8 SLP217",2025-09-19 11:47:32.092312,2025-09-19 07:47:32.092355
"CYFS","Fort Simpson Arpt, NT, CA",2025-09-19 11:00:00,"2025-09-19 05:00:00","VFR",9,4,0,0,NA,15,1006.2,"METAR CYFS 191100Z 00000KT 15SM FEW096 FEW250 09/04 A2971 RMK AC1CI1 AC TR CI TR SLP068",2025-09-19 11:47:32.099104,2025-09-19 07:47:32.099149
"CYGR","Îles de la Madeleine Arpt, QC, CA",2025-09-19 11:00:00,"2025-09-19 08:00:00","IFR",14,13,360,18,23,20,1004.8,"METAR CYGR 191100Z 36018G23KT 20SM BKN007 14/13 A2967 RMK SC7 SLP049 DENSITY ALT 300FT",2025-09-19 11:47:32.105991,2025-09-19 07:47:32.106035
"CYGT","Igloolik Arpt, NU, CA",2025-09-19 11:00:00,"2025-09-19 07:00:00","VFR",-2,-3,360,8,NA,15,1024.1,"METAR CYGT 191100Z 36008KT 15SM SKC M02/M03 A3024 RMK SLP246",2025-09-19 11:47:32.11284,2025-09-19 07:47:32.112885
"CYHK","Gjoa Haven Arpt, NU, CA",2025-09-19 11:00:00,"2025-09-19 05:00:00","VFR",4,0,150,18,23,9,1015.3,"METAR CYHK 191100Z AUTO 15018G23KT 9SM BKN110 BKN160 OVC180 04/M00 A2998 RMK SLP157",2025-09-19 11:47:32.132449,2025-09-19 07:47:32.132516
"CYIV","Island Lake Arpt, MB, CA",2025-09-19 11:00:00,"2025-09-19 06:00:00","VFR",10,7,140,7,NA,9,1023.8,"METAR CYIV 191100Z AUTO 14007KT 9SM CLR 10/07 A3023 RMK SLP247",2025-09-19 11:47:32.139298,2025-09-19 07:47:32.139341
"CYKA","Kamloops Arpt, BC, CA",2025-09-19 11:00:00,"2025-09-19 04:00:00","VFR",9,2,NA,3,NA,30,1017.7,"METAR CYKA 191100Z VRB03KT 30SM SKC 09/02 A3005 RMK SLP179",2025-09-19 11:47:32.146054,2025-09-19 07:47:32.146099
"CYKJ","Key Lake Arpt, SK, CA",2025-09-19 11:00:00,"2025-09-19 05:00:00","VFR",11,11,190,9,NA,9,1015.7,"METAR CYKJ 191100Z AUTO 19009KT 9SM CLR 11/11 A2999 RMK SLP170",2025-09-19 11:47:32.15283,2025-09-19 07:47:32.152875
"CYLW","Kelowna Arpt, BC, CA",2025-09-19 11:00:00,"2025-09-19 04:00:00","VFR",10,6,60,2,NA,9,1016.3,"METAR CYLW 191100Z AUTO 06002KT 9SM CLR 10/06 A3001 RMK SLP163",2025-09-19 11:47:32.159796,2025-09-19 07:47:32.15984
"CYKF","Waterloo Intl, ON, CA",2025-09-19 11:00:00,"2025-09-19 07:00:00","VFR",11,NA,350,4,NA,9,1020.1,"METAR CYKF 191100Z AUTO 35004KT 9SM CLR 11/ A3012 RMK DP MISG SLP202",2025-09-19 11:47:32.166867,2025-09-19 07:47:32.166912
"CYBG","Bagotville(MIL), QC, CA",2025-09-19 11:00:00,"2025-09-19 07:00:00","VFR",7,3,290,10,NA,25,1015.7,"METAR CYBG 191100Z 29010KT 25SM SCT030 07/03 A2999 RMK SC3 DENSITY ALT -363FT SLP160",2025-09-19 11:47:32.173789,2025-09-19 07:47:32.173834
"CYLC","Kimmirut Arpt, NU, CA",2025-09-19 11:00:00,"2025-09-19 07:00:00","VFR",6,1,10,25,39,15,997.4,"METAR CYLC 191100Z 01025G39KT 330V030 15SM SCT028 BKN034 BKN180 06/01 A2945 RMK SF3SC3AC1 AC TR SF SC DRFT W RPDLY SLP977",2025-09-19 11:47:32.180857,2025-09-19 07:47:32.180901
"CYCK","Chatham/Kent Arpt, ON, CA",2025-09-19 11:00:00,"2025-09-19 07:00:00","VFR",16,16,50,3,NA,9,1019,"METAR CYCK 191100Z AUTO 05003KT 9SM BKN081 OVC120 16/16 A3009 RMK SLP190",2025-09-19 11:47:32.187943,2025-09-19 07:47:32.187987
"CYMA","Mayo Arpt, YT, CA",2025-09-19 11:00:00,"2025-09-19 04:00:00","VFR",8,3,30,5,NA,20,1002.5,"METAR CYMA 191100Z 03005KT 350V050 20SM BKN071 08/03 A2960 RMK AC6 SLP041",2025-09-19 11:47:32.194855,2025-09-19 07:47:32.1949
"CYBK","Baker Lake Arpt, NU, CA",2025-09-19 11:00:00,"2025-09-19 06:00:00","MVFR",7,4,140,16,NA,15,1017.7,"METAR CYBK 191100Z 14016KT 15SM -RA OVC016 07/04 A3005 RMK SC8 SLP178",2025-09-19 11:47:32.201768,2025-09-19 07:47:32.20181
"CYGP","Gaspé Arpt, QC, CA",2025-09-19 11:00:00,"2025-09-19 07:00:00","VFR",10,8,290,6,NA,15,1007.5,"METAR CYGP 191100Z 29006KT 15SM FEW025 FEW110 10/08 A2975 RMK SC1AC1 SC TR AC TR SLP078",2025-09-19 11:47:32.208628,2025-09-19 07:47:32.208671
"CYBX","Blanc Sablon Arpt, QC, CA",2025-09-19 11:00:00,"2025-09-19 07:00:00","MVFR",8,7,70,9,17,15,1001.1,"METAR CYBX 191100Z 07009G17KT 15SM BKN022 08/07 A2956 RMK SC8 PRESRR SLP013",2025-09-19 11:47:32.215528,2025-09-19 07:47:32.215574
"CYDQ","Dawson Creek Arpt, BC, CA",2025-09-19 11:00:00,"2025-09-19 04:00:00","VFR",6,2,160,7,NA,9,1015.3,"METAR CYDQ 191100Z AUTO 16007KT 9SM CLR 06/02 A2998 RMK SLP167",2025-09-19 11:47:32.222445,2025-09-19 07:47:32.22251
"CYBW","Calgary/Springbank Arpt, AB, CA",2025-09-19 11:00:00,"2025-09-19 11:00:00","VFR",8,7,290,4,NA,9,1018.4,"METAR CYBW 191100Z AUTO 29004KT 9SM BKN110 08/07 A3007 RMK SLP187",2025-09-19 11:47:32.229436,2025-09-19 07:47:32.229498
"CYDF","Deer Lake Arpt, NL, CA",2025-09-19 11:00:00,"2025-09-19 08:30:00","MVFR",18,14,190,6,NA,15,1001.8,"METAR CYDF 191100Z 19006KT 15SM BKN025 BKN250 18/14 A2958 RMK SC7CI1 CI TR SLP018 DENSITY ALT 900FT",2025-09-19 11:47:32.236588,2025-09-19 07:47:32.236634
"CYGK","Kingston Arpt, ON, CA",2025-09-19 11:00:00,"2025-09-19 07:00:00","VFR",9,8,340,5,NA,15,1019.4,"METAR CYGK 191100Z 34005KT 15SM FEW020 09/08 A3010 RMK SC1 SC TR SLP195",2025-09-19 11:47:32.243676,2025-09-19 07:47:32.243722
"CYHE","Hope Rgnl Airpark, BC, CA",2025-09-19 11:00:00,"2025-09-19 04:00:00","VFR",14,12,90,9,NA,9,1016,"METAR CYHE 191100Z AUTO 09009KT 9SM CLR 14/12 A3000 RMK ICE MISG SLP161",2025-09-19 11:47:32.250813,2025-09-19 07:47:32.250858
"CYPL","Pickle Lake Arpt, ON, CA",2025-09-19 11:46:00,"2025-09-19 06:46:00","LIFR",3,3,110,3,NA,2.25,1025.1,"SPECI CYPL 191146Z AUTO 11003KT 2 1/4SM BR OVC002 03/03 A3027 RMK VIS VRB 3/4-3 SLP273",2025-09-19 11:47:33.483236,2025-09-19 07:47:33.483279
"CYQD","The Pas Arpt, MB, CA",2025-09-19 11:42:00,"2025-09-19 06:42:00","LIFR",5,5,130,2,NA,1.75,1021.1,"SPECI CYQD 191142Z AUTO 13002KT 1 3/4SM BR BKN001 05/05 A3015 RMK SLP219",2025-09-19 11:47:33.490153,2025-09-19 07:47:33.490195
"CYNM","Matagami Arpt, QC, CA",2025-09-19 11:40:00,"2025-09-19 07:40:00","MVFR",4,1,340,7,NA,9,1022.8,"SPECI CYNM 191140Z AUTO 34007KT 9SM -RA OVC021 04/01 A3020 RMK SLP241",2025-09-19 11:47:33.496865,2025-09-19 07:47:33.496906
"CYMH","Mary's Harbor Arpt, NL, CA",2025-09-19 11:40:00,"2025-09-19 09:10:00","MVFR",7,6,40,7,16,9,1003.1,"SPECI CYMH 191140Z AUTO 04007G16KT 9SM -RA FEW008 OVC011 07/06 A2962 RMK SLP033",2025-09-19 11:47:33.503524,2025-09-19 07:47:33.50357
"CYTH","Thompson Arpt, MB, CA",2025-09-19 11:38:00,"2025-09-19 06:38:00","LIFR",0,0,NA,2,NA,0.5,1022.1,"SPECI CYTH 191138Z VRB02KT 1/2SM R06/2600V3000FT/N FG SKC 00/00 A3018 RMK SLP234",2025-09-19 11:47:33.510111,2025-09-19 07:47:33.510157
"CYWE","Wekweètì Arpt, NT, CA",2025-09-19 11:38:00,"2025-09-19 05:38:00","VFR",8,7,180,2,NA,9,1005.5,"SPECI CYWE 191138Z AUTO 18002KT 9SM -RA OVC081 08/07 A2969 RMK SLP071",2025-09-19 11:47:33.516764,2025-09-19 07:47:33.516806
"CYSC","Sherbrooke Arpt, QC, CA",2025-09-19 11:34:00,"2025-09-19 07:34:00","MVFR",9,8,230,4,NA,9,1015.7,"SPECI CYSC 191134Z AUTO 23004KT 9SM BKN015 09/08 A2999 RMK SLP161",2025-09-19 11:47:33.523307,2025-09-19 07:47:33.523355
"CYQV","Yorkton Muni, SK, CA",2025-09-19 11:28:00,"2025-09-19 05:28:00","IFR",11,11,80,3,NA,6,1020.1,"SPECI CYQV 191128Z AUTO 08003KT 6SM BR OVC007 11/11 A3012 RMK SLP213",2025-09-19 11:47:33.529879,2025-09-19 07:47:33.529922
"CYQM","Moncton Intl, NB, CA",2025-09-19 11:27:00,"2025-09-19 08:27:00","MVFR",14,13,360,10,NA,15,1007.9,"SPECI CYQM 191127Z 36010KT 15SM FEW006 OVC018 14/13 A2976 RMK SF1SC8 SF TR SLP079",2025-09-19 11:47:33.536393,2025-09-19 07:47:33.536436
"CYVM","Broughton Isl/Qikiqtarjuaq Arpt, NU, CA",2025-09-19 11:26:00,"2025-09-19 07:26:00","MVFR",3,2,360,15,NA,6,1018,"SPECI CYVM 191126Z AUTO 36015KT 6SM BR OVC014 03/02 A3006 RMK SLP181",2025-09-19 11:47:33.542886,2025-09-19 07:47:33.542928
"CYPG","Portage la Prairie/Southport Arpt, MB, CA",2025-09-19 11:22:00,"2025-09-19 06:22:00","MVFR",14,14,50,2,NA,3,1019,"SPECI CYPG 191122Z 05002KT 3SM -SHRA BR FEW010 BKN014 OVC020 14/14 A3009 RMK SF2SC5SC1 DENSITY ALT 945FT SLP193",2025-09-19 11:47:33.549496,2025-09-19 07:47:33.549545
"CYQI","Yarmouth Arpt, NS, CA",2025-09-19 11:22:00,"2025-09-19 08:22:00","LIFR",16,16,270,7,NA,0.5,1009.6,"SPECI CYQI 191122Z 27007KT 1/2SM -DZ FG VV002 16/16 A2981 RMK FG8 SLP096 DENSITY ALT 400FT",2025-09-19 11:47:33.556143,2025-09-19 07:47:33.556185
"CYQY","Sydney Arpt, NS, CA",2025-09-19 11:18:00,"2025-09-19 08:18:00","LIFR",17,17,240,8,NA,5,1005.2,"SPECI CYQY 191118Z 24008KT 110V250 5SM BR BKN004 BKN240 17/17 A2968 RMK ST5CI1 SLP054 DENSITY ALT 800FT",2025-09-19 11:47:33.562631,2025-09-19 07:47:33.562675
"CYPR","Prince Rupert Arpt, BC, CA",2025-09-19 11:16:00,"2025-09-19 04:16:00","VFR",13,11,130,11,18,9,1014.3,"SPECI CYPR 191116Z AUTO 13011G18KT 9SM SCT024 OVC047 13/11 A2995 RMK SLP143",2025-09-19 11:47:33.569065,2025-09-19 07:47:33.569108
"CYVL","Colville Lake, NT, CA",2025-09-19 11:04:00,"2025-09-19 05:04:00","VFR",8,4,170,7,NA,9,1001.8,"SPECI CYVL 191104Z AUTO 17007KT 9SM OVC100 08/04 A2958 RMK SLP030",2025-09-19 11:47:33.575552,2025-09-19 07:47:33.575596
"CYVO","Val D'Or Arpt, QC, CA",2025-09-19 11:00:00,"2025-09-19 07:00:00","MVFR",3,0,350,10,NA,15,1022.1,"METAR CYVO 191100Z 35010KT 15SM OVC014 03/00 A3018 RMK SC8 SLP235",2025-09-19 11:47:33.582069,2025-09-19 07:47:33.582112
"CYQQ","Comox(MIL), BC, CA",2025-09-19 11:00:00,"2025-09-19 04:00:00","VFR",12,5,290,5,NA,20,1017.4,"METAR CYQQ 191100Z 29005KT 20SM SKC 12/05 A3004 RMK DENSITY ALT -265FT SLP173",2025-09-19 11:47:33.588745,2025-09-19 07:47:33.588789
"CYRB","Resolute Bay Arpt, NU, CA",2025-09-19 11:00:00,"2025-09-19 06:00:00","VFR",-1,-4,120,23,29,25,1019,"METAR CYRB 191100Z 12023G29KT 25SM BKN120 M01/M04 A3009 RMK AC6 SLP200",2025-09-19 11:47:33.610989,2025-09-19 07:47:33.611032
"CYOO","Oshawa Arpt, ON, CA",2025-09-19 11:00:00,"2025-09-19 07:00:00","VFR",11,9,350,3,NA,9,1020.1,"METAR CYOO 191100Z AUTO 35003KT 9SM CLR 11/09 A3012 RMK SLP203",2025-09-19 11:47:33.617529,2025-09-19 07:47:33.61758
"CYPO","Peawanuck Arpt, ON, CA",2025-09-19 11:00:00,"2025-09-19 07:00:00","MVFR",4,1,330,6,NA,9,1026.2,"METAR CYPO 191100Z AUTO 33006KT 9SM OVC016 04/01 A3030 RMK SLP265",2025-09-19 11:47:33.624121,2025-09-19 07:47:33.624162
"CYQK","Kenora Arpt, ON, CA",2025-09-19 11:00:00,"2025-09-19 06:00:00","VFR",12,11,70,8,NA,20,1020.1,"METAR CYQK 191100Z 07008KT 20SM BKN050 BKN110 BKN240 12/11 A3012 RMK SC5AC1CI1 SLP209",2025-09-19 11:47:33.630635,2025-09-19 07:47:33.630679
"CYMM","Fort McMurray Arpt, AB, CA",2025-09-19 11:00:00,"2025-09-19 05:00:00","VFR",9,5,200,4,NA,9,1014.6,"METAR CYMM 191100Z AUTO 20004KT 9SM CLR 09/05 A2996 RMK SLP154",2025-09-19 11:47:33.637273,2025-09-19 07:47:33.637316
"CYNE","Norway House Arpt, MB, CA",2025-09-19 11:00:00,"2025-09-19 06:00:00","VFR",6,4,130,4,NA,9,1022.1,"METAR CYNE 191100Z AUTO 13004KT 9SM CLR 06/04 A3018 RMK SLP231",2025-09-19 11:47:33.643938,2025-09-19 07:47:33.643982
"CYVC","La Ronge Arpt, SK, CA",2025-09-19 11:00:00,"2025-09-19 05:00:00","VFR",13,11,160,8,NA,15,1018.7,"METAR CYVC 191100Z 16008KT 15SM OVC049 13/11 A3008 RMK SC8 SLP195",2025-09-19 11:47:33.650365,2025-09-19 07:47:33.650406
"CYWG","Winnipeg Intl Arpt, MB, CA",2025-09-19 11:00:00,"2025-09-19 06:00:00","MVFR",15,13,60,6,NA,15,1018.7,"METAR CYWG 191100Z 06006KT 15SM OVC030 15/13 A3008 RMK SC8 SLP191",2025-09-19 11:47:33.656895,2025-09-19 07:47:33.656942
"CYNA","Natashquan Arpt, QC, CA",2025-09-19 11:00:00,"2025-09-19 07:00:00","VFR",7,5,340,7,NA,9,1005.8,"METAR CYNA 191100Z AUTO 34007KT 9SM CLR 07/05 A2970 RMK SLP059",2025-09-19 11:47:33.663789,2025-09-19 07:47:33.663832
"CYPQ","Peterborough Muni, ON, CA",2025-09-19 11:00:00,"2025-09-19 07:00:00","VFR",6,6,0,0,NA,9,1020.4,"METAR CYPQ 191100Z AUTO 00000KT 9SM CLR 06/06 A3013 RMK SLP206",2025-09-19 11:47:33.670422,2025-09-19 07:47:33.670465
"CYQT","Thunder Bay Intl, ON, CA",2025-09-19 11:00:00,"2025-09-19 07:00:00","VFR",10,8,70,6,NA,15,1023.1,"METAR CYQT 191100Z 07006KT 15SM SCT110 10/08 A3021 RMK AC3 SLP237",2025-09-19 11:47:33.677299,2025-09-19 07:47:33.677343
"CYVV","Wiarton Arpt, ON, CA",2025-09-19 11:00:00,"2025-09-19 07:00:00","VFR",9,9,90,5,NA,15,1021.4,"METAR CYVV 191100Z 09005KT 15SM FEW025 FEW250 09/09 A3016 RMK SC1CI1 SC TR CI TR SLP216",2025-09-19 11:47:33.684201,2025-09-19 07:47:33.684246
"CYWK","Wabush Lake Arpt, NL, CA",2025-09-19 11:00:00,"2025-09-19 08:00:00","VFR",1,-3,310,8,NA,15,1007.9,"METAR CYWK 191100Z 31008KT 15SM BKN040 01/M03 A2976 RMK SC7 SLP101",2025-09-19 11:47:33.691015,2025-09-19 07:47:33.691059
"CYSJ","Saint John Arpt, NB, CA",2025-09-19 11:00:00,"2025-09-19 08:00:00","VFR",13,13,NA,2,NA,15,1007.9,"METAR CYSJ 191100Z VRB02KT 15SM BKN070 BKN110 13/13 A2976 RMK AC5AC2 SLP082",2025-09-19 11:47:33.697783,2025-09-19 07:47:33.697828
"CYPD","Port Hawkesbury Arpt, NS, CA",2025-09-19 11:00:00,"2025-09-19 08:00:00","VFR",16,15,260,4,NA,9,1006.2,"METAR CYPD 191100Z AUTO 26004KT 210V280 9SM CLR 16/15 A2971 RMK SLP062 DENSITY ALT 900FT",2025-09-19 11:47:33.704654,2025-09-19 07:47:33.704698
"CYMX","Montreal/Mirabel Arpt, QC, CA",2025-09-19 11:00:00,"2025-09-19 07:00:00","VFR",7,6,270,2,NA,30,1017.4,"METAR CYMX 191100Z 27002KT 30SM FEW100 07/06 A3004 RMK AC1 AC TR SLP177",2025-09-19 11:47:33.711841,2025-09-19 07:47:33.711886
"CYOW","Ottawa/Cartier Intl, ON, CA",2025-09-19 11:00:00,"2025-09-19 07:00:00","VFR",9,7,320,9,NA,15,1019,"METAR CYOW 191100Z 32009KT 15SM FEW030 09/07 A3009 RMK SC1 SC TR SLP191",2025-09-19 11:47:33.718698,2025-09-19 07:47:33.718756
"CYQG","Windsor Intl, ON, CA",2025-09-19 11:00:00,"2025-09-19 07:00:00","VFR",18,17,40,7,NA,9,1019.7,"METAR CYQG 191100Z AUTO 04007KT 9SM FEW140 18/17 A3011 RMK SLP195 DENSITY ALT 1000FT",2025-09-19 11:47:33.725807,2025-09-19 07:47:33.725852
"CYQX","Gander Intl Arpt, NL, CA",2025-09-19 11:00:00,"2025-09-19 08:30:00","MVFR",16,15,170,10,NA,20,1005.5,"METAR CYQX 191100Z 17010KT 20SM BKN011 OVC082 16/15 A2969 RMK SC7AC1 SLP057 DENSITY ALT 1100FT",2025-09-19 11:47:33.732866,2025-09-19 07:47:33.73291
"CYTE","Cape Dorset Arpt, NU, CA",2025-09-19 11:00:00,"2025-09-19 07:00:00","VFR",2,0,360,15,24,15,1014.3,"METAR CYTE 191100Z 36015G24KT 15SM FEW004 FEW050 SCT260 02/00 A2995 RMK SF1SC1CI2 SF TR SLP146",2025-09-19 11:47:33.753433,2025-09-19 07:47:33.753497
"CYTL","Big Trout Lake Arpt, ON, CA",2025-09-19 11:00:00,"2025-09-19 06:00:00","VFR",7,7,260,4,NA,9,1026.2,"METAR CYTL 191100Z AUTO 26004KT 9SM OVC031 07/07 A3030 RMK SLP271",2025-09-19 11:47:33.760164,2025-09-19 07:47:33.760206
"CYUL","Montreal/Trudeau Intl, QC, CA",2025-09-19 11:00:00,"2025-09-19 07:00:00","VFR",11,7,340,5,NA,15,1017.4,"METAR CYUL 191100Z 34005KT 15SM FEW250 11/07 A3004 RMK CI1 SLP175",2025-09-19 11:47:33.766966,2025-09-19 07:47:33.767009
"CYVP","Kuujjuaq Arpt, QC, CA",2025-09-19 11:00:00,"2025-09-19 07:00:00","VFR",2,-1,250,11,18,15,1000.8,"METAR CYVP 191100Z 25011G18KT 15SM SCT017 BKN038 BKN080 02/M01 A2955 RMK SC3SC4AC1 AC TR OCNL -SHSN CVCTV CLD EMBD SLP010",2025-09-19 11:47:33.773842,2025-09-19 07:47:33.773884
"CYVR","Vancouver Intl, BC, CA",2025-09-19 11:00:00,"2025-09-19 04:00:00","VFR",12,12,350,3,NA,20,1016,"METAR CYVR 191100Z 35003KT 20SM SKC 12/12 A3000 RMK SLP162",2025-09-19 11:47:33.780728,2025-09-19 07:47:33.780773
"CYMJ","Moose Jaw Arpt(CFB), SK, CA",2025-09-19 11:00:00,"2025-09-19 05:00:00","VFR",9,9,140,6,NA,12,1019,"METAR CYMJ 191100Z 14006KT 12SM FEW060 FEW170 SCT230 09/09 A3009 RMK SC1AC1CI2 DENSITY ALT 1557FT BR SLP199",2025-09-19 11:47:33.787534,2025-09-19 07:47:33.78758
"CYMO","Moosonee Arpt, ON, CA",2025-09-19 11:00:00,"2025-09-19 07:00:00","MVFR",5,3,290,5,NA,9,1024.8,"METAR CYMO 191100Z AUTO 29005KT 9SM OVC029 05/03 A3026 RMK SLP249",2025-09-19 11:47:33.794281,2025-09-19 07:47:33.794324
"CYMT","Chibougamau Arpt, QC, CA",2025-09-19 11:00:00,"2025-09-19 07:00:00","MVFR",4,-1,320,9,17,9,1018.4,"METAR CYMT 191100Z AUTO 32009G17KT 9SM OVC026 04/M01 A3007 RMK SLP197",2025-09-19 11:47:33.800995,2025-09-19 07:47:33.801039
"CYND","Gatineau/Ottawa Exec, QC, CA",2025-09-19 11:00:00,"2025-09-19 07:00:00","VFR",7,6,310,2,NA,15,1018.7,"METAR CYND 191100Z 31002KT 15SM FEW015 FEW360 07/06 A3008 RMK SC1CC1 SC TR CC TR CONTRAILS SLP190",2025-09-19 11:47:33.807763,2025-09-19 07:47:33.807807
"CYOD","Cold Lake (Mil), AB, CA",2025-09-19 11:00:00,"2025-09-19 05:00:00","VFR",10,9,0,0,NA,8,1016.3,"METAR CYOD 191100Z 00000KT 8SM MIFG FEW090 BKN240 10/09 A3001 RMK AC1CI6 DENSITY ALT 1603FT SLP167",2025-09-19 11:47:33.814451,2025-09-19 07:47:33.814516
"CYOJ","High Level Arpt, AB, CA",2025-09-19 11:00:00,"2025-09-19 05:00:00",NA,1,1,150,2,NA,9,1011.9,"METAR CYOJ 191100Z AUTO 15002KT 9SM 01/01 A2988 RMK CLD MISG SLP132",2025-09-19 11:47:33.82127,2025-09-19 07:47:33.821313
"CYPE","Peace River Arpt, AB, CA",2025-09-19 11:00:00,"2025-09-19 05:00:00","VFR",4,0,240,4,NA,9,1015,"METAR CYPE 191100Z AUTO 24004KT 9SM CLR 04/00 A2997 RMK SLP163",2025-09-19 11:47:33.828065,2025-09-19 07:47:33.828106
"CYPX","Puvungnituq Arpt, QC, CA",2025-09-19 11:00:00,"2025-09-19 07:00:00","MVFR",2,NA,320,28,34,9,1011.9,"METAR CYPX 191100Z AUTO 32028G34KT 9SM BKN011 02/ A2988 RMK DP MISG SLP122",2025-09-19 11:47:33.834705,2025-09-19 07:47:33.83475
"CYQA","Muskoka Arpt, ON, CA",2025-09-19 11:00:00,"2025-09-19 07:00:00","VFR",5,5,0,0,NA,9,1021.1,"METAR CYQA 191100Z AUTO 00000KT 9SM CLR 05/05 A3015 RMK SLP215",2025-09-19 11:47:33.841296,2025-09-19 07:47:33.841339
"CYQH","Watson Lake Arpt, YT, CA",2025-09-19 11:00:00,"2025-09-19 04:00:00","VFR",6,2,90,3,NA,20,1008.2,"METAR CYQH 191100Z 09003KT 050V140 20SM FEW076 FEW160 06/02 A2977 RMK AC1AC1 SLP099",2025-09-19 11:47:33.847974,2025-09-19 07:47:33.848016
"CYQL","Lethbridge Cnty Arpt, AB, CA",2025-09-19 11:00:00,"2025-09-19 05:00:00","VFR",10,7,300,4,NA,9,1016.7,"METAR CYQL 191100Z AUTO 30004KT 9SM CLR 10/07 A3002 RMK SLP161",2025-09-19 11:47:33.854555,2025-09-19 07:47:33.8546
"CYQU","Grande Prairie Arpt, AB, CA",2025-09-19 11:00:00,"2025-09-19 05:00:00","VFR",3,1,200,6,NA,25,1016.3,"METAR CYQU 191100Z 20006KT 25SM SKC 03/01 A3001 RMK SLP177",2025-09-19 11:47:33.861095,2025-09-19 07:47:33.861139
"CYQZ","Quesnel Arpt, BC, CA",2025-09-19 11:00:00,"2025-09-19 04:00:00","VFR",2,1,0,0,NA,9,1018.4,"METAR CYQZ 191100Z AUTO 00000KT 9SM CLR 02/01 A3007 RMK SLP199",2025-09-19 11:47:33.867723,2025-09-19 07:47:33.867766
"CYRJ","Roberval Arpt, QC, CA",2025-09-19 11:00:00,"2025-09-19 07:00:00","VFR",8,3,310,6,NA,25,1016.3,"METAR CYRJ 191100Z 31006KT 25SM BKN044 08/03 A3001 RMK SC7 SLP170",2025-09-19 11:47:33.87443,2025-09-19 07:47:33.87449
"CYRL","Red Lake Arpt, ON, CA",2025-09-19 11:00:00,"2025-09-19 06:00:00","VFR",7,6,110,8,NA,15,1022.8,"METAR CYRL 191100Z 11008KT 15SM FEW230 07/06 A3020 RMK CI2 SLP236",2025-09-19 11:47:33.894976,2025-09-19 07:47:33.89502
"CYRT","Rankin Inlet Arpt, NU, CA",2025-09-19 11:00:00,"2025-09-19 06:00:00","VFR",4,4,150,9,NA,14,1023.1,"METAR CYRT 191100Z 15009KT 14SM FEW080 BKN230 BKN280 04/04 A3021 RMK AC1CC4CI2 SLP236",2025-09-19 11:47:33.901854,2025-09-19 07:47:33.901896
"CYSB","Sudbury Arpt, ON, CA",2025-09-19 11:00:00,"2025-09-19 07:00:00","IFR",7,6,20,6,NA,20,1022.4,"METAR CYSB 191100Z 02006KT 20SM BKN009 07/06 A3019 RMK SC7 SLP235",2025-09-19 11:47:33.908614,2025-09-19 07:47:33.908658
"CYSM","Fort Smith Arpt, NT, CA",2025-09-19 11:00:00,"2025-09-19 05:00:00","VFR",9,2,170,5,NA,15,1010.2,"METAR CYSM 191100Z 17005KT 15SM FEW085 09/02 A2983 RMK AC1 SLP110",2025-09-19 11:47:33.915279,2025-09-19 07:47:33.91532
"CYTS","Timmins/Power Arpt, ON, CA",2025-09-19 11:00:00,"2025-09-19 07:00:00","MVFR",5,3,20,6,NA,15,1024.5,"METAR CYTS 191100Z 02006KT 340V050 15SM OVC018 05/03 A3025 RMK SC8 SLP255",2025-09-19 11:47:33.922156,2025-09-19 07:47:33.9222
"CYTZ","Toronto/Bishop Arpt, ON, CA",2025-09-19 11:00:00,"2025-09-19 07:00:00","VFR",16,11,40,7,NA,9,1019.7,"METAR CYTZ 191100Z AUTO 04007KT 9SM CLR 16/11 A3011 RMK SLP198",2025-09-19 11:47:33.929155,2025-09-19 07:47:33.9292
"CYUX","Hall Beach Arpt, NU, CA",2025-09-19 11:00:00,"2025-09-19 07:00:00","VFR",-1,-1,360,8,NA,9,1024.1,"METAR CYUX 191100Z AUTO 36008KT 9SM CLR M01/M01 A3024 RMK SLP242",2025-09-19 11:47:33.93609,2025-09-19 07:47:33.936134
"CYVQ","Norman Wells Arpt, NT, CA",2025-09-19 11:00:00,"2025-09-19 05:00:00","VFR",6,4,130,5,NA,15,1003.8,"METAR CYVQ 191100Z 13005KT 15SM SKC 06/04 A2964 RMK SLP042",2025-09-19 11:47:33.943125,2025-09-19 07:47:33.943172
"CYWA","Petawawa Arpt, ON, CA",2025-09-19 11:00:00,"2025-09-19 07:00:00","VFR",6,5,300,6,NA,15,1021.1,"METAR CYWA 191100Z 30006KT 15SM FEW010 FEW025 06/05 A3015 RMK SF1SC2 DENSITY ALT -725FT SLP213",2025-09-19 11:47:33.950581,2025-09-19 07:47:33.950629
"CYSF","Stony Rapids Arpt, SK, CA",2025-09-19 11:00:00,"2025-09-19 05:00:00","VFR",9,9,90,3,NA,9,1012.6,"METAR CYSF 191100Z AUTO 09003KT 9SM BKN110 09/09 A2990 RMK SLP133",2025-09-19 11:47:33.957577,2025-09-19 07:47:33.957621
"CYRQ","Trois-Rivières, QC, CA",2025-09-19 11:00:00,"2025-09-19 07:00:00","VFR",10,5,340,4,NA,9,1016.3,"METAR CYRQ 191100Z AUTO 34004KT 310V020 9SM CLR 10/05 A3001 RMK SLP166",2025-09-19 11:47:33.964428,2025-09-19 07:47:33.964489
"CYVT","Buffalo Narrows Arpt, SK, CA",2025-09-19 11:00:00,"2025-09-19 05:00:00","VFR",13,11,180,8,NA,9,1015.3,"METAR CYVT 191100Z AUTO 18008KT 9SM FEW066 SCT250 13/11 A2998 RMK SLP163",2025-09-19 11:47:33.971208,2025-09-19 07:47:33.971251
"CYQR","Regina Intl Arpt, SK, CA",2025-09-19 11:00:00,"2025-09-19 05:00:00","VFR",11,10,130,6,NA,15,1019.7,"METAR CYQR 191100Z 13006KT 15SM FEW042 BKN170 11/10 A3011 RMK SC2AC5 SLP205",2025-09-19 11:47:33.977969,2025-09-19 07:47:33.978012
"CYTR","Trenton(MIL), ON, CA",2025-09-19 11:00:00,"2025-09-19 07:00:00","VFR",10,8,340,5,NA,15,1020.1,"METAR CYTR 191100Z 34005KT 15SM SKC 10/08 A3012 RMK DENSITY ALT -317FT SLP199",2025-09-19 11:47:33.984741,2025-09-19 07:47:33.984786
"CYUY","Rouyn/Noranda Arpt, QC, CA",2025-09-19 11:00:00,"2025-09-19 07:00:00","MVFR",4,1,20,9,NA,15,1022.8,"METAR CYUY 191100Z 02009KT 340V050 15SM OVC017 04/01 A3020 RMK SC8 SLP240",2025-09-19 11:47:33.991397,2025-09-19 07:47:33.991439
"CYQB","Quebec/Lesage Intl, QC, CA",2025-09-19 11:00:00,"2025-09-19 07:00:00","VFR",10,5,0,0,NA,30,1014.6,"METAR CYQB 191100Z 00000KT 30SM FEW040 10/05 A2996 RMK SC1 SC TR SLP150",2025-09-19 11:47:33.998142,2025-09-19 07:47:33.998186
"CYWL","Williams Lake Rgnl, BC, CA",2025-09-19 11:00:00,"2025-09-19 04:00:00","VFR",4,0,120,4,NA,15,1018,"METAR CYWL 191100Z 12004KT 15SM SKC 04/M00 A3006 RMK SLP193",2025-09-19 11:47:34.004854,2025-09-19 07:47:34.004895
"CYPA","Prince Albert Arpt, SK, CA",2025-09-19 11:00:00,"2025-09-19 05:00:00","VFR",9,9,80,5,NA,9,1018.7,"METAR CYPA 191100Z AUTO 08005KT 9SM FEW060 09/09 A3008 RMK SLP200",2025-09-19 11:47:34.011759,2025-09-19 07:47:34.011805
"CYPH","Inukjuak Arpt, QC, CA",2025-09-19 11:00:00,"2025-09-19 07:00:00","VFR",3,1,340,16,30,9,1014.6,"METAR CYPH 191100Z AUTO 34016G30KT 9SM FEW028 BKN035 03/01 A2996 RMK SLP148",2025-09-19 11:47:34.01883,2025-09-19 07:47:34.018875
"CYPY","Fort Chipewyan Arpt, AB, CA",2025-09-19 11:00:00,"2025-09-19 05:00:00","VFR",6,5,NA,2,NA,9,1011.6,"METAR CYPY 191100Z AUTO VRB02KT 9SM CLR 06/05 A2987 RMK SLP125",2025-09-19 11:47:34.038863,2025-09-19 07:47:34.038951
"CYQF","Red Deer Rgnl, AB, CA",2025-09-19 11:00:00,"2025-09-19 05:00:00","VFR",7,6,10,3,NA,9,1017.7,"METAR CYQF 191100Z AUTO 01003KT 9SM CLR 07/06 A3005 RMK SLP187",2025-09-19 11:47:34.046534,2025-09-19 07:47:34.04658
"CYQW","North Battleford Arpt, SK, CA",2025-09-19 11:00:00,"2025-09-19 05:00:00","VFR",10,10,100,6,NA,9,1017.4,"METAR CYQW 191100Z AUTO 10006KT 9SM CLR 10/10 A3004 RMK SLP184",2025-09-19 11:47:34.053235,2025-09-19 07:47:34.053277
"CYRV","Revelstoke Arpt, BC, CA",2025-09-19 11:00:00,"2025-09-19 04:00:00","IFR",12,9,0,0,NA,1,1016.3,"METAR CYRV 191100Z AUTO 00000KT 1SM HZ CLR 12/09 A3001 RMK SLP163",2025-09-19 11:47:34.060104,2025-09-19 07:47:34.060147
"CYSN","St Catharines/Niagara Arpt, ON, CA",2025-09-19 11:00:00,"2025-09-19 07:00:00","MVFR",17,13,40,6,NA,15,1019.4,"METAR CYSN 191100Z 04006KT 15SM BKN022 17/13 A3010 RMK SC7 SLP194",2025-09-19 11:47:34.067029,2025-09-19 07:47:34.067076
"CYXS","Prince George Arpt, BC, CA",2025-09-19 11:46:00,"2025-09-19 04:46:00","VFR",2,2,0,0,NA,9,1017.4,"SPECI CYXS 191146Z AUTO 00000KT 9SM BKN100 BKN240 02/02 A3004 RMK SLP192",2025-09-19 11:47:35.289711,2025-09-19 07:47:35.289756
"CYZP","Sandspit Arpt, BC, CA",2025-09-19 11:46:00,"2025-09-19 04:46:00","VFR",14,13,160,14,NA,9,1012.6,"SPECI CYZP 191146Z AUTO 16014KT 9SM BKN091 BKN110 14/13 A2990 RMK SLP126",2025-09-19 11:47:35.296519,2025-09-19 07:47:35.296565
"CYYD","Smithers Arpt, BC, CA",2025-09-19 11:45:00,"2025-09-19 04:45:00","IFR",9,9,340,2,NA,9,1016,"SPECI CYYD 191145Z AUTO 34002KT 9SM BKN005 OVC060 09/09 A3000 RMK SLP172",2025-09-19 11:47:35.303193,2025-09-19 07:47:35.303236
"CYYW","Armstrong Arpt, ON, CA",2025-09-19 11:42:00,"2025-09-19 07:42:00","VFR",0,0,0,0,NA,8,1024.8,"SPECI CYYW 191142Z AUTO 00000KT 8SM FEW001 00/M00 A3026 RMK SLP258",2025-09-19 11:47:35.30986,2025-09-19 07:47:35.309906
"K0D8","Gettysburg Muni, SD, US",2025-09-19 11:35:00,"2025-09-19 11:35:00","LIFR",-12,-11,310,10,16,5,1015.3,"METAR K0D8 191135Z AUTO 31010G16KT 5SM BR OVC003 M12/M11 A2998 RMK A01",2025-09-19 11:47:35.316572,2025-09-19 07:47:35.316616
"K05U","Eureka Arpt, NV, US",2025-09-19 11:35:00,"2025-09-19 04:35:00","VFR",18,5,0,0,NA,NA,1020.1,"METAR K05U 191135Z AUTO 00000KT 10SM FEW075 OVC095 18/05 A3012 RMK A01",2025-09-19 11:47:35.323412,2025-09-19 07:47:35.323458
"K06C","Schaumburg Rgnl, IL, US",2025-09-19 11:35:00,"2025-09-19 11:35:00","VFR",18.9,17.7,0,0,NA,NA,1017.4,"METAR K06C 191135Z AUTO 00000KT 10SM CLR 19/18 A3004 RMK AO2 T01890177",2025-09-19 11:47:35.330317,2025-09-19 07:47:35.330363
"K0A9","Elizabethton Muni, TN, US",2025-09-19 11:35:00,"2025-09-19 11:35:00","VFR",15,14,0,0,NA,NA,1020.4,"METAR K0A9 191135Z AUTO 00000KT 10SM CLR 15/14 A3013 RMK AO2",2025-09-19 11:47:35.337073,2025-09-19 07:47:35.337118
"K0F2","Bowie Muni, TX, US",2025-09-19 11:35:00,"2025-09-19 11:35:00","VFR",22,18,20,10,NA,NA,1017.7,"METAR K0F2 191135Z AUTO 02010KT 10SM SCT080 22/18 A3005 RMK AO2 T02200180",2025-09-19 11:47:35.343923,2025-09-19 07:47:35.343967
"K06D","Rolla Muni, ND, US",2025-09-19 11:35:00,"2025-09-19 11:35:00","LIFR",12,12,360,8,NA,7,1018,"METAR K06D 191135Z AUTO 36008KT 7SM OVC003 12/12 A3006 RMK AO2",2025-09-19 11:47:35.350879,2025-09-19 07:47:35.350922
"K08D","Stanley Muni, ND, US",2025-09-19 11:35:00,"2025-09-19 11:35:00","MVFR",12,12,20,6,NA,NA,1019.4,"METAR K08D 191135Z AUTO 02006KT 10SM BKN011 OVC080 12/12 A3010 RMK AO2",2025-09-19 11:47:35.357846,2025-09-19 07:47:35.357892
"K0E0","Moriarty Muni, NM, US",2025-09-19 11:35:00,"2025-09-19 11:35:00","VFR",8,8,30,3,NA,NA,1025.1,"METAR K0E0 191135Z AUTO 03003KT 10SM CLR 08/08 A3027 RMK AO2 T00800080",2025-09-19 11:47:35.364903,2025-09-19 07:47:35.364948
"CYYG","Charlottetown Arpt, PE, CA",2025-09-19 11:29:00,"2025-09-19 08:29:00","IFR",15,15,340,8,NA,4,1006.2,"SPECI CYYG 191129Z 34008KT 4SM -DZ BR OVC006 15/15 A2971 RMK FG2SF6 CIG RAG SLP064 DENSITY ALT 500FT",2025-09-19 11:47:35.385802,2025-09-19 07:47:35.385846
"CZUM","Churchill Falls Arpt, NL, CA",2025-09-19 11:18:00,"2025-09-19 08:18:00","MVFR",2,1,300,6,NA,9,1005.8,"SPECI CZUM 191118Z AUTO 30006KT 270V350 9SM SCT015 BKN024 OVC050 02/01 A2970 RMK SLP077",2025-09-19 11:47:35.392372,2025-09-19 07:47:35.392417
"CYZR","Sarnia/Hadfield Arpt, ON, CA",2025-09-19 11:00:00,"2025-09-19 07:00:00","VFR",16,15,60,4,NA,9,1019.7,"METAR CYZR 191100Z AUTO 06004KT 9SM FEW076 OVC098 16/15 A3011 RMK SLP198",2025-09-19 11:47:35.398989,2025-09-19 07:47:35.399034
"CZBF","Bathurst Arpt, NB, CA",2025-09-19 11:00:00,"2025-09-19 08:00:00","VFR",14,11,300,3,NA,9,1008.9,"METAR CZBF 191100Z AUTO 30003KT 270V330 9SM BKN066 14/11 A2979 RMK SLP092",2025-09-19 11:47:35.405607,2025-09-19 07:47:35.405652
"CYXY","Whitehorse Arpt, YT, CA",2025-09-19 11:00:00,"2025-09-19 04:00:00","MVFR",7,6,160,15,22,6,1002.5,"METAR CYXY 191100Z 16015G22KT 6SM -RA FEW011 OVC030 07/06 A2960 RMK SC2SC6 SLP042",2025-09-19 11:47:35.41233,2025-09-19 07:47:35.412382
"CYYC","Calgary Intl, AB, CA",2025-09-19 11:00:00,"2025-09-19 05:00:00","VFR",11,7,10,5,NA,15,1017.7,"METAR CYYC 191100Z 01005KT 15SM FEW130 11/07 A3005 RMK AC1 SLP180",2025-09-19 11:47:35.419185,2025-09-19 07:47:35.419228
"CYYJ","Victoria Intl, BC, CA",2025-09-19 11:00:00,"2025-09-19 04:00:00","VFR",11,10,280,4,NA,30,1016.3,"METAR CYYJ 191100Z 28004KT 30SM SKC 11/10 A3001 RMK SLP165",2025-09-19 11:47:35.426018,2025-09-19 07:47:35.426063
"CYYQ","Churchill Arpt, MB, CA",2025-09-19 11:00:00,"2025-09-19 06:00:00","VFR",10,9,170,10,NA,15,1021.8,"METAR CYYQ 191100Z 17010KT 15SM SCT005 OVC065 10/09 A3017 RMK SC3SC5 SLP219",2025-09-19 11:47:35.432836,2025-09-19 07:47:35.43288
"CYYT","St Johns Intl, NL, CA",2025-09-19 11:00:00,"2025-09-19 08:30:00","VFR",17,15,210,12,NA,15,1009.6,"METAR CYYT 191100Z 21012KT 15SM FEW012 BKN076 BKN140 OVC170 17/15 A2981 RMK SC1AC6AC1AC1 SC TR SLP097 DENSITY ALT 900FT",2025-09-19 11:47:35.439485,2025-09-19 07:47:35.439536
"CYYZ","Toronto/Pearson Intl, ON, CA",2025-09-19 11:00:00,"2025-09-19 07:00:00","MVFR",16,13,360,6,NA,15,1019.7,"METAR CYYZ 191100Z 36006KT 15SM FEW015 BKN022 16/13 A3011 RMK CF1SC7 CF TR SLP199",2025-09-19 11:47:35.446184,2025-09-19 07:47:35.446229
"CYZF","Yellowknife Arpt, NT, CA",2025-09-19 11:00:00,"2025-09-19 05:00:00","VFR",9,7,170,6,NA,15,1005.8,"METAR CYZF 191100Z 17006KT 15SM FEW130 09/07 A2970 RMK AC1 SLP066",2025-09-19 11:47:35.452803,2025-09-19 07:47:35.452845
"CYZV","Sept-Îles Arpt, QC, CA",2025-09-19 11:00:00,"2025-09-19 07:00:00","VFR",9,4,340,6,15,30,1008.5,"METAR CYZV 191100Z 34006G15KT 30SM FEW030 SCT072 SCT100 09/04 A2978 RMK CU1AC3AC1 CU TR AC TR SLP089",2025-09-19 11:47:35.459437,2025-09-19 07:47:35.459498
"CYZY","Mackenzie Arpt, BC, CA",2025-09-19 11:00:00,"2025-09-19 11:00:00","VFR",6,5,110,3,NA,9,1017.4,"METAR CYZY 191100Z AUTO 11003KT 9SM OVC096 06/05 A3004 RMK SLP189",2025-09-19 11:47:35.466132,2025-09-19 07:47:35.466175
"CYXC","Cranbrook Intl, BC, CA",2025-09-19 11:00:00,"2025-09-19 05:00:00","VFR",10,7,200,2,NA,15,1016.3,"METAR CYXC 191100Z 20002KT 15SM FEW240 10/07 A3001 RMK CI1 SLP155",2025-09-19 11:47:35.47284,2025-09-19 07:47:35.472883
"CYXJ","Fort St John/N Peace Rgnl, BC, CA",2025-09-19 11:00:00,"2025-09-19 04:00:00","VFR",10,3,210,8,NA,15,1014.6,"METAR CYXJ 191100Z 21008KT 15SM FEW120 FEW240 10/03 A2996 RMK AC1CI1 AC TR CI TR SLP157",2025-09-19 11:47:35.479687,2025-09-19 07:47:35.479733
"CYXP","Pangnirtung Arpt, NU, CA",2025-09-19 11:00:00,"2025-09-19 07:00:00","VFR",9,-1,90,10,18,15,1008.5,"METAR CYXP 191100Z 09010G18KT 15SM SCT045 BKN092 09/M01 A2978 RMK SC3AC4 SLP089",2025-09-19 11:47:35.486528,2025-09-19 07:47:35.486577
"CYXZ","Wawa Arpt, ON, CA",2025-09-19 11:00:00,"2025-09-19 07:00:00","VFR",6,5,40,5,NA,15,1026.2,"METAR CYXZ 191100Z 04005KT 15SM FEW100 FEW250 06/05 A3030 RMK AC1CI1 AC TR BARO MANL CALC SLP271",2025-09-19 11:47:35.493285,2025-09-19 07:47:35.493328
"CYYE","Fort Nelson Arpt, BC, CA",2025-09-19 11:00:00,"2025-09-19 04:00:00","VFR",3,1,NA,2,NA,15,1010.6,"METAR CYYE 191100Z VRB02KT 15SM SCT230 03/01 A2984 RMK CI3 SLP119",2025-09-19 11:47:35.500329,2025-09-19 07:47:35.500375
"CYYH","Taloyoak Arpt, NU, CA",2025-09-19 11:00:00,"2025-09-19 05:00:00","VFR",0,-2,120,11,NA,20,1019.4,"METAR CYYH 191100Z 12011KT 20SM FEW100 SCT140 BKN160 00/M02 A3010 RMK AC1AC4AS2 SLP196",2025-09-19 11:47:35.507191,2025-09-19 07:47:35.507234
"CYYU","Kapuskasing Arpt, ON, CA",2025-09-19 11:00:00,"2025-09-19 07:00:00","MVFR",6,4,30,3,NA,15,1025.1,"METAR CYYU 191100Z 03003KT 15SM SCT019 OVC025 06/04 A3027 RMK SC3SC5 SLP261",2025-09-19 11:47:35.527664,2025-09-19 07:47:35.527709
"CYYY","Mont Joli Arpt, QC, CA",2025-09-19 11:00:00,"2025-09-19 07:00:00","VFR",10,7,290,7,NA,30,1011.6,"METAR CYYY 191100Z 29007KT 30SM FEW015 BKN037 10/07 A2987 RMK CF1SC7 CF TR SLP118",2025-09-19 11:47:35.534509,2025-09-19 07:47:35.53456
"CYZE","Gore Bay/Manitoulin Arpt, ON, CA",2025-09-19 11:00:00,"2025-09-19 07:00:00","VFR",11,9,50,4,NA,9,1022.4,"METAR CYZE 191100Z AUTO 05004KT 9SM CLR 11/09 A3019 RMK SLP228",2025-09-19 11:47:35.541385,2025-09-19 07:47:35.541432
"CYZH","Slave Lake Arpt, AB, CA",2025-09-19 11:00:00,"2025-09-19 05:00:00","VFR",4,3,0,0,NA,9,1016.3,"METAR CYZH 191100Z AUTO 00000KT 9SM CLR 04/03 A3001 RMK SLP177",2025-09-19 11:47:35.548502,2025-09-19 07:47:35.548553
"CYZS","Coral Harbour Arpt, NU, CA",2025-09-19 11:00:00,"2025-09-19 06:00:00","VFR",-1,-3,330,13,NA,15,1022.8,"METAR CYZS 191100Z 33013KT 15SM FEW020 M01/M03 A3020 RMK SC1 SC TR SLP233",2025-09-19 11:47:35.555749,2025-09-19 07:47:35.555795
"CZPC","Pincher Creek Arpt, AB, CA",2025-09-19 11:00:00,"2025-09-19 05:00:00","VFR",10,7,270,6,NA,9,1018,"METAR CZPC 191100Z AUTO 27006KT 9SM BKN240 10/07 A3006 RMK SLP168",2025-09-19 11:47:35.562952,2025-09-19 07:47:35.562997
"CYZX","Greenwood (MIL), NS, CA",2025-09-19 11:00:00,"2025-09-19 08:00:00","IFR",16,15,240,8,NA,12,1007.9,"METAR CYZX 191100Z 24008KT 12SM BKN006 BKN012 16/15 A2976 RMK SF6SC1 DENSITY ALT 634FT SLP076",2025-09-19 11:47:35.570047,2025-09-19 07:47:35.570091
"CYYR","Goose Bay Arpt, NL, CA",2025-09-19 11:00:00,"2025-09-19 08:00:00","VFR",3,1,270,7,NA,15,1006.2,"METAR CYYR 191100Z 27007KT 15SM FEW025 FEW050 FEW240 03/01 A2971 RMK SC1SC1CI1 DENSITY ALT -975FT SLP062",2025-09-19 11:47:35.577184,2025-09-19 07:47:35.577236
"CYZT","Port Hardy Arpt, BC, CA",2025-09-19 11:00:00,"2025-09-19 04:00:00","VFR",6,6,240,3,NA,15,1018.4,"METAR CYZT 191100Z 24003KT 150V300 15SM FEW220 06/06 A3007 RMK CI2 SLP186",2025-09-19 11:47:35.584308,2025-09-19 07:47:35.584352
"CYXL","Sioux Lookout Arpt, ON, CA",2025-09-19 11:00:00,"2025-09-19 06:00:00","VFR",8,7,80,3,NA,15,1022.8,"METAR CYXL 191100Z 08003KT 040V100 15SM FEW050 SCT250 08/07 A3020 RMK SC1CI3 SC TR SLP240",2025-09-19 11:47:35.591306,2025-09-19 07:47:35.59135
"CYXU","London Intl, ON, CA",2025-09-19 11:00:00,"2025-09-19 07:00:00","VFR",13,13,10,4,NA,15,1020.4,"METAR CYXU 191100Z 01004KT 15SM FEW060 SCT080 SCT250 13/13 A3013 RMK SC1AC2CI1 SLP203",2025-09-19 11:47:35.598235,2025-09-19 07:47:35.59828
"CYYB","North Bay/Garland Arpt, ON, CA",2025-09-19 11:00:00,"2025-09-19 07:00:00","IFR",6,5,360,8,NA,30,1021.8,"METAR CYYB 191100Z 36008KT 330V040 30SM BKN009 06/05 A3017 RMK SC7 SLP227",2025-09-19 11:47:35.605279,2025-09-19 07:47:35.605323
"CZMD","Muskrat Dam Arpt, ON, CA",2025-09-19 11:00:00,"2025-09-19 06:00:00","VFR",3,3,0,0,NA,9,1025.5,"METAR CZMD 191100Z AUTO 00000KT 9SM CLR 03/03 A3028 RMK SLP269",2025-09-19 11:47:35.612263,2025-09-19 07:47:35.612309
"CZSJ","Sandy Lake Arpt, ON, CA",2025-09-19 11:00:00,"2025-09-19 06:00:00","VFR",8,6,110,4,NA,9,1024.5,"METAR CZSJ 191100Z AUTO 11004KT 9SM CLR 08/06 A3025 RMK SLP255",2025-09-19 11:47:35.619396,2025-09-19 07:47:35.619441
"CYXT","Terrace Arpt, BC, CA",2025-09-19 11:00:00,"2025-09-19 04:00:00","MVFR",11,11,160,5,NA,4,1017,"METAR CYXT 191100Z 16005KT 4SM BR SCT007 SCT017 OVC031 11/11 A3003 RMK SF3SC1SC4 SLP174",2025-09-19 11:47:35.626407,2025-09-19 07:47:35.626451
"CYYF","Penticton Rgnl, BC, CA",2025-09-19 11:00:00,"2025-09-19 04:00:00","VFR",14,5,350,8,NA,15,1015.7,"METAR CYYF 191100Z 35008KT 15SM FEW100 14/05 A2999 RMK AC1 SLP155",2025-09-19 11:47:35.633401,2025-09-19 07:47:35.633445
"CYXE","Saskatoon/Diefenbaker Intl, SK, CA",2025-09-19 11:00:00,"2025-09-19 05:00:00","VFR",11,10,120,8,NA,15,1017.4,"METAR CYXE 191100Z 12008KT 15SM FEW061 11/10 A3004 RMK SC1 SC TR SLP183",2025-09-19 11:47:35.640531,2025-09-19 07:47:35.640578
"CYXH","Medicine Hat Arpt, AB, CA",2025-09-19 11:00:00,"2025-09-19 05:00:00","VFR",7,5,0,0,NA,9,1016,"METAR CYXH 191100Z AUTO 00000KT 9SM CLR 07/05 A3000 RMK SLP161",2025-09-19 11:47:35.647607,2025-09-19 07:47:35.647653
"CYYN","Swift Current Arpt, SK, CA",2025-09-19 11:00:00,"2025-09-19 05:00:00","VFR",11,10,190,10,20,9,1016.7,"METAR CYYN 191100Z AUTO 19010G20KT 9SM CLR 11/10 A3002 RMK SLP166",2025-09-19 11:47:35.654613,2025-09-19 07:47:35.654662
"CZVL","Edmonton/Villenueve Arpt, AB, CA",2025-09-19 11:00:00,"2025-09-19 11:00:00","VFR",8,6,NA,2,NA,9,1016.3,"METAR CZVL 191100Z AUTO VRB02KT 9SM CLR 08/06 A3001 RMK SLP171",2025-09-19 11:47:35.675533,2025-09-19 07:47:35.675592
"CYXX","Abbotsford Intl, BC, CA",2025-09-19 11:00:00,"2025-09-19 04:00:00","VFR",11,10,330,2,NA,15,1016,"METAR CYXX 191100Z 33002KT 15SM SKC 11/10 A3000 RMK SLP161",2025-09-19 11:47:35.682439,2025-09-19 07:47:35.682502
"CYXR","Earlton Arpt, ON, CA",2025-09-19 11:00:00,"2025-09-19 07:00:00","MVFR",5,3,360,9,NA,9,1023.5,"METAR CYXR 191100Z AUTO 36009KT 9SM BKN015 BKN019 05/03 A3022 RMK SLP242",2025-09-19 11:47:35.689148,2025-09-19 07:47:35.689192
"K0R4","Vidalia/Concordia Arpt, LA, US",2025-09-19 11:35:00,"2025-09-19 11:35:00","VFR",19.1,16,0,0,NA,NA,1018.7,"METAR K0R4 191135Z AUTO 00000KT 10SM CLR 19/16 A3008 RMK AO2 T01910160",2025-09-19 11:47:36.905109,2025-09-19 07:47:36.905154
"K0W3","Churchville/Hartford Cnty, MD, US",2025-09-19 11:35:00,"2025-09-19 11:35:00","IFR",15.5,15.5,0,0,NA,1.5,1016.3,"METAR K0W3 191135Z AUTO 00000KT 1 1/2SM BR CLR 16/16 A3001 RMK AO2 T01550155 $",2025-09-19 11:47:36.911917,2025-09-19 07:47:36.91196
"K1A5","Franklin/Macon Cnty, NC, US",2025-09-19 11:35:00,"2025-09-19 11:35:00","LIFR",15.6,15.3,0,0,NA,0.25,1022.4,"METAR K1A5 191135Z AUTO 00000KT 1/4SM FG OVC002 16/15 A3019 RMK AO2 T01560153",2025-09-19 11:47:36.91892,2025-09-19 07:47:36.91897
"K17J","Donaldsonville Muni, GA, US",2025-09-19 11:35:00,"2025-09-19 11:35:00","VFR",19,16,0,0,NA,NA,1017.4,"METAR K17J 191135Z AUTO 00000KT 10SM CLR 19/16 A3004 RMK AO2",2025-09-19 11:47:36.926619,2025-09-19 07:47:36.926666
"K1V6","Canon City/Fremont Cnty Arpt, CO, US",2025-09-19 11:35:00,"2025-09-19 05:35:00","VFR",12,7,300,10,NA,NA,1021.1,"METAR K1V6 191135Z AUTO 30010KT 10SM CLR 12/07 A3015 RMK AO2",2025-09-19 11:47:36.933516,2025-09-19 07:47:36.933569
"K1M5","Portland Muni, TN, US",2025-09-19 11:35:00,"2025-09-19 11:35:00","VFR",15,15,0,0,NA,NA,1017.7,"METAR K1M5 191135Z AUTO 00000KT 10SM CLR 15/15 A3005 RMK A01",2025-09-19 11:47:36.940213,2025-09-19 07:47:36.940258
"K0R0","Columbia/Marion Cnty, MS, US",2025-09-19 11:35:00,"2025-09-19 11:35:00",NA,17,17,0,0,NA,NA,1018.4,"METAR K0R0 191135Z AUTO 00000KT 17/17 A3007 RMK AO2",2025-09-19 11:47:36.946881,2025-09-19 07:47:36.946925
"K1D8","Redfield Muni, SD, US",2025-09-19 11:35:00,"2025-09-19 11:35:00","LIFR",16,16,320,8,NA,1.75,1013.3,"METAR K1D8 191135Z AUTO 32008KT 1 3/4SM -RA BR BKN003 BKN037 OVC060 16/16 A2992 RMK AO2",2025-09-19 11:47:36.953562,2025-09-19 07:47:36.953606
"K1U7","Paris/Bear Lake Cnty Arpt, ID, US",2025-09-19 11:35:00,"2025-09-19 11:35:00",NA,2,1,330,3,NA,NA,1021.1,"METAR K1U7 191135Z AUTO 33003KT 10SM 02/01 A3015 RMK A01",2025-09-19 11:47:36.960277,2025-09-19 07:47:36.960321
"K1B9","Mansfield Muni, MA, US",2025-09-19 11:35:00,"2025-09-19 11:35:00","VFR",15.1,14.5,0,0,NA,NA,1013,"METAR K1B9 191135Z AUTO 00000KT 10SM CLR 15/15 A2991 RMK AO2 T01510145 $",2025-09-19 11:47:36.967023,2025-09-19 07:47:36.967067
"K0S9","Port Townsend/Jefferson Cnty, WA, US",2025-09-19 11:35:00,"2025-09-19 04:35:00","IFR",6,6,0,0,NA,1.25,1016.3,"METAR K0S9 191135Z AUTO 00000KT 1 1/4SM BR OVC049 06/06 A3001 RMK AO2 VIS 1/2V5",2025-09-19 11:47:36.973604,2025-09-19 07:47:36.973649
"K11R","Brenham Muni, TX, US",2025-09-19 11:35:00,"2025-09-19 11:35:00","VFR",21.3,20.8,0,0,NA,7,1016.7,"METAR K11R 191135Z AUTO 00000KT 7SM CLR 21/21 A3002 RMK AO2 T02130208",2025-09-19 11:47:36.98007,2025-09-19 07:47:36.980114
"K1R7","Brookhaven/Lincoln Cnty Arpt, MS, US",2025-09-19 11:35:00,"2025-09-19 11:35:00","VFR",19,19,0,0,NA,9,1018.4,"METAR K1R7 191135Z AUTO 00000KT 9SM CLR 19/19 A3007 RMK A01 TSNO",2025-09-19 11:47:36.986562,2025-09-19 07:47:36.986606
"K18A","Canon/Franklin Cnty, GA, US",2025-09-19 11:35:00,"2025-09-19 11:35:00","MVFR",18.2,18.1,0,0,NA,3,1018.4,"METAR K18A 191135Z AUTO 00000KT 3SM BR CLR 18/18 A3007 RMK AO2 T01820181",2025-09-19 11:47:36.99305,2025-09-19 07:47:36.993092
"K1H2","Effingham Cnty, IL, US",2025-09-19 11:35:00,"2025-09-19 11:35:00","VFR",16.4,15.1,0,0,NA,NA,1017.7,"METAR K1H2 191135Z AUTO 00000KT 10SM CLR 16/15 A3005 RMK AO2 LTG DSNT SW T01640151",2025-09-19 11:47:37.01224,2025-09-19 07:47:37.012287
"K13K","Eureka Muni, KS, US",2025-09-19 11:35:00,"2025-09-19 11:35:00","VFR",16.3,15.9,240,5,NA,NA,1017.4,"METAR K13K 191135Z AUTO 24005KT 10SM CLR 16/16 A3004 RMK AO2 T01630159",2025-09-19 11:47:37.018967,2025-09-19 07:47:37.01901
"K15M","Iuka Arpt, MS, US",2025-09-19 11:35:00,"2025-09-19 11:35:00","VFR",18.9,18.9,0,0,NA,9,1017,"METAR K15M 191135Z AUTO 00000KT 9SM CLR 19/19 A3003 RMK AO2 T01890189 $",2025-09-19 11:47:37.025294,2025-09-19 07:47:37.025337
"K1A9","Prattville Arpt, AL, US",2025-09-19 11:35:00,"2025-09-19 11:35:00","MVFR",NA,NA,0,0,NA,5,1017,"METAR K1A9 191135Z AUTO 00000KT 5SM HZ CLR A3003 RMK AO2",2025-09-19 11:47:37.032724,2025-09-19 07:47:37.032768
"K0VG","Jonesville/Lee Cnty, VA, US",2025-09-19 11:35:00,"2025-09-19 11:35:00","MVFR",11,12,0,0,NA,3,1020.4,"METAR K0VG 191135Z AUTO 00000KT 3SM BR FEW002 11/12 A3013 RMK AO2",2025-09-19 11:47:37.04065,2025-09-19 07:47:37.040696
"K0V4","Brookneal/Campbell Cnty, VA, US",2025-09-19 11:35:00,"2025-09-19 11:35:00","VFR",13,13,150,6,NA,NA,1018,"METAR K0V4 191135Z AUTO 15006KT 10SM SCT002 13/13 A3006 RMK AO1",2025-09-19 11:47:37.047349,2025-09-19 07:47:37.047394
"K10G","Millersburg/Holmes Cnty, OH, US",2025-09-19 11:35:00,"2025-09-19 11:35:00","VFR",15,13,0,0,NA,NA,1019.7,"METAR K10G 191135Z AUTO 00000KT 10SM CLR 15/13 A3011 RMK AO2",2025-09-19 11:47:37.053936,2025-09-19 07:47:37.053979
"K1F0","Ardmore/Downtown Exec, OK, US",2025-09-19 11:35:00,"2025-09-19 06:35:00","VFR",19.7,17.4,40,10,NA,NA,1017.7,"METAR K1F0 191135Z AUTO 04010KT 10SM SCT060 SCT070 SCT080 20/17 A3005 RMK AO2 T01970174",2025-09-19 11:47:37.060422,2025-09-19 07:47:37.060467
"K14Y","Long Prairie Muni, MN, US",2025-09-19 11:35:00,"2025-09-19 11:35:00","LIFR",16,15,140,7,NA,0.75,1015.3,"METAR K14Y 191135Z AUTO 14007KT 360V170 3/4SM -RA OVC003 16/15 A2998 RMK AO2",2025-09-19 11:47:37.066823,2025-09-19 07:47:37.066866
"K1A6","Middlesboro/Bell Cnty, KY, US",2025-09-19 11:35:00,"2025-09-19 11:35:00","LIFR",13.5,13.5,0,0,NA,0.5,1020.7,"METAR K1A6 191135Z AUTO 00000KT 1/2SM FG OVC003 14/14 A3014 RMK AO2 T01350135",2025-09-19 11:47:37.073506,2025-09-19 07:47:37.073551
"K19S","Sublette Muni, KS, US",2025-09-19 11:35:00,"2025-09-19 11:35:00","VFR",NA,NA,0,0,NA,NA,1019.4,"METAR K19S 191135Z AUTO 00000KT 10SM CLR A3010 RMK AO2",2025-09-19 11:47:37.079995,2025-09-19 07:47:37.080039
"K1R8","Bay Minette Muni, AL, US",2025-09-19 11:35:00,"2025-09-19 11:35:00","VFR",19,19,0,0,NA,9,1017.4,"METAR K1R8 191135Z AUTO 00000KT 9SM FEW055 19/19 A3004 RMK AO2",2025-09-19 11:47:37.086352,2025-09-19 07:47:37.086393
"K1D1","Milbank Muni, SD, US",2025-09-19 11:30:00,"2025-09-19 11:30:00","LIFR",-14,-14,110,3,NA,5,1013.3,"METAR K1D1 191130Z AUTO 11003KT 5SM UP BR BKN004 OVC035 M14/M14 A2992 RMK AO2",2025-09-19 11:47:37.092801,2025-09-19 07:47:37.092845
"K0J4","Florala Muni, AL, US",2025-09-19 10:58:00,"2025-09-19 10:58:00","VFR",20.6,17.2,350,3,NA,NA,1017.7,"METAR K0J4 191058Z AUTO 35003KT 10SM CLR 21/17 A3005 RMK AO2 RAB44E55 SLP170 P0000 T02060172 $",2025-09-19 11:47:37.099242,2025-09-19 07:47:37.099285
"K1M4","Haleyville/Posey Fld, AL, US",2025-09-19 10:56:00,"2025-09-19 10:56:00","MVFR",17.2,17.2,0,0,NA,4,1018,"METAR K1M4 191056Z AUTO 00000KT 4SM BR CLR 17/17 A3006 RMK AO2 SLP939 T01720172 $",2025-09-19 11:47:37.105644,2025-09-19 07:47:37.105689
"K12N","Andover/Aeroflex Arpt, NJ, US",2025-09-19 10:54:00,"2025-09-19 10:54:00",NA,11.1,10.6,0,0,NA,NA,1016.3,"METAR K12N 191054Z AUTO 00000KT 11/11 A3001 RMK AO1 SLP160 T01110106",2025-09-19 11:47:37.112092,2025-09-19 07:47:37.112135
"K2V5","Wray Muni, CO, US",2025-09-19 11:35:00,"2025-09-19 11:35:00","VFR",9,8,240,3,NA,NA,1018.4,"METAR K2V5 191135Z AUTO 24003KT 10SM CLR 09/08 A3007 RMK AO2",2025-09-19 11:47:38.279956,2025-09-19 07:47:38.280003
"K2J5","Millen Arpt, GA, US",2025-09-19 11:35:00,"2025-09-19 11:35:00","VFR",NA,NA,0,0,NA,NA,1017.7,"METAR K2J5 191135Z AUTO 00000KT 10SM CLR A3005 RMK AO2",2025-09-19 11:47:38.286949,2025-09-19 07:47:38.286997
"K2A0","Dayton/Anton Arpt, TN, US",2025-09-19 11:35:00,"2025-09-19 11:35:00","LIFR",15,15,0,0,NA,0.25,1018,"METAR K2A0 191135Z AUTO 00000KT 1/4SM FG VV002 15/15 A3006 RMK A01",2025-09-19 11:47:38.306502,2025-09-19 07:47:38.306549
"K2M2","Lawrenceburg/Lawrence Cnty, TN, US",2025-09-19 11:35:00,"2025-09-19 11:35:00","VFR",17,16,0,0,NA,7,1017.7,"METAR K2M2 191135Z AUTO 00000KT 7SM CLR 17/16 A3005 RMK A01",2025-09-19 11:47:38.313045,2025-09-19 07:47:38.313086
"K24A","Sylva/Jackson Cnty, NC, US",2025-09-19 11:35:00,"2025-09-19 11:35:00","LIFR",15.1,NA,0,0,NA,0.25,1022.4,"METAR K24A 191135Z AUTO 00000KT M1/4SM FG OVC001 15/ A3019 RMK AO2 LTG DSNT SE T0151////",2025-09-19 11:47:38.31945,2025-09-19 07:47:38.319511
"K2G4","Oakland/Garrett Cnty, MD, US",2025-09-19 11:35:00,"2025-09-19 11:35:00","VFR",17,9,0,0,NA,NA,1021.1,"METAR K2G4 191135Z AUTO 00000KT 10SM CLR 17/09 A3015 RMK AO2",2025-09-19 11:47:38.325962,2025-09-19 07:47:38.326007
"K2G2","Steubenville/Jefferson Cnty, OH, US",2025-09-19 11:35:00,"2025-09-19 11:35:00","VFR",14,11,0,0,NA,NA,1019,"METAR K2G2 191135Z AUTO 00000KT 10SM CLR 14/11 A3009 RMK A01",2025-09-19 11:47:38.332631,2025-09-19 07:47:38.332678
"K33N","Dover/Cheswold Arpk, DE, US",2025-09-19 11:35:00,"2025-09-19 11:35:00","LIFR",18,18,0,0,NA,0.25,1015.7,"METAR K33N 191135Z AUTO 00000KT M1/4SM FG VV000 18/18 A2999 RMK A01",2025-09-19 11:47:38.339145,2025-09-19 07:47:38.33919
"K2C8","Cavalier Muni, ND, US",2025-09-19 11:35:00,"2025-09-19 11:35:00","MVFR",15,15,20,6,NA,NA,1017,"METAR K2C8 191135Z AUTO 02006KT 10SM OVC013 15/15 A3003 RMK AO2",2025-09-19 11:47:38.345673,2025-09-19 07:47:38.345718
"K2D5","Oakes Muni, ND, US",2025-09-19 11:35:00,"2025-09-19 11:35:00",NA,17,17,90,8,NA,NA,1014,"METAR K2D5 191135Z AUTO 09008KT BKN005 OVC035 17/17 A2994 RMK AO2",2025-09-19 11:47:38.35215,2025-09-19 07:47:38.352192
"K20U","Beach Arpt, ND, US",2025-09-19 11:35:00,"2025-09-19 11:35:00",NA,11,11,140,3,NA,NA,1019.7,"METAR K20U 191135Z AUTO 14003KT 10SM 11/11 A3011 RMK AO2 TSNO",2025-09-19 11:47:38.358666,2025-09-19 07:47:38.358713
"K24J","Live Oak/Suwannee Cnty, FL, US",2025-09-19 11:35:00,"2025-09-19 11:35:00","VFR",18,18,0,0,NA,9,1016.7,"METAR K24J 191135Z AUTO 00000KT 9SM CLR 18/18 A3002 RMK A01",2025-09-19 11:47:38.365199,2025-09-19 07:47:38.365243
"K27K","Georgetown/Scott Cnty, KY, US",2025-09-19 11:35:00,"2025-09-19 11:35:00","VFR",12.8,12.8,0,0,NA,7,1018,"METAR K27K 191135Z AUTO 00000KT 7SM CLR 13/13 A3006 RMK AO2 T01280128 $",2025-09-19 11:47:38.371647,2025-09-19 07:47:38.37169
"K2IS","Clewistown/Airglades Arpt, FL, US",2025-09-19 11:35:00,"2025-09-19 11:35:00",NA,22,NA,340,6,NA,NA,1014.6,"METAR K2IS 191135Z AUTO 34006KT 22/ A2996 RMK AO2 PWINO T0220////",2025-09-19 11:47:38.378189,2025-09-19 07:47:38.378233
"K35A","Union/Union Cnty, SC, US",2025-09-19 11:35:00,"2025-09-19 11:35:00","MVFR",15.8,15.5,0,0,NA,3.5,1019.4,"METAR K35A 191135Z AUTO 00000KT 3 1/2SM BR CLR 16/16 A3010 RMK A02 T01580155",2025-09-19 11:47:38.384724,2025-09-19 07:47:38.384767
"K3F3","Mansfield/Williams Arpt, LA, US",2025-09-19 11:35:00,"2025-09-19 11:35:00","VFR",22.7,21.8,160,8,NA,NA,1018.4,"METAR K3F3 191135Z AUTO 16008KT 10SM CLR 23/22 A3007 RMK AO2 T02270218",2025-09-19 11:47:38.39133,2025-09-19 07:47:38.391375
"K2R9","Kenedy/Karnes Cnty, TX, US",2025-09-19 11:35:00,"2025-09-19 11:35:00","VFR",20.9,19.1,0,0,NA,NA,1016.3,"METAR K2R9 191135Z AUTO 00000KT 10SM CLR 21/19 A3001 RMK AO2 T02090191",2025-09-19 11:47:38.397941,2025-09-19 07:47:38.397985
"K2M8","Millington/Baker Arpt, TN, US",2025-09-19 11:35:00,"2025-09-19 11:35:00","VFR",NA,NA,NA,NA,NA,NA,1015.7,"METAR K2M8 191135Z AUTO 10SM BKN200 A2999 RMK AO2 LTG DSNT NW FZRANO $",2025-09-19 11:47:38.40451,2025-09-19 07:47:38.404558
"K2R2","Indianapolis/Hendrick Cnty, IN, US",2025-09-19 11:35:00,"2025-09-19 11:35:00",NA,14.1,14.1,0,0,NA,NA,1018.4,"METAR K2R2 191135Z AUTO 00000KT CLR 14/14 A3007 RMK AO2 T01410141 PWINO TSNO $",2025-09-19 11:47:38.410936,2025-09-19 07:47:38.410978
"K22N","Lehighton/Arner Mem, PA, US",2025-09-19 11:35:00,"2025-09-19 11:35:00","VFR",10,9,0,0,NA,NA,1017.7,"METAR K22N 191135Z AUTO 00000KT 10SM CLR 10/09 A3005 RMK AO2",2025-09-19 11:47:38.417453,2025-09-19 07:47:38.417518
"K21D","Lake Elmo Arpt, MN, US",2025-09-19 11:35:00,"2025-09-19 11:35:00","VFR",18,17,130,5,NA,NA,1016.3,"METAR K21D 191135Z AUTO 13005KT 10SM SCT030 SCT070 BKN110 18/17 A3001 RMK AO2",2025-09-19 11:47:38.424118,2025-09-19 07:47:38.424162
"K2I0","Madisonville Muni, KY, US",2025-09-19 11:35:00,"2025-09-19 11:35:00","VFR",13.6,12.2,0,0,NA,NA,1017.4,"METAR K2I0 191135Z AUTO 00000KT 10SM CLR 14/12 A3004 RMK AO2 T01360122",2025-09-19 11:47:38.443165,2025-09-19 07:47:38.443209
"K36K","Lakin/Kearney Cnty, KS, US",2025-09-19 11:35:00,"2025-09-19 11:35:00","VFR",11,11,0,0,NA,NA,1020.1,"METAR K36K 191135Z AUTO 00000KT 10SM FEW043 SCT055 BKN065 11/11 A3012 RMK AO2",2025-09-19 11:47:38.449757,2025-09-19 07:47:38.449801
"K3AU","Augusta Muni, KS, US",2025-09-19 11:35:00,"2025-09-19 11:35:00","LIFR",15,13,0,0,NA,2,1017.7,"METAR K3AU 191135Z AUTO 00000KT 2SM BR BKN002 15/13 A3005 RMK AO2",2025-09-19 11:47:38.456222,2025-09-19 07:47:38.456266
"K20V","Kremmling/McElroy Fld, CO, US",2025-09-19 11:35:00,"2025-09-19 11:35:00","VFR",-1,-2,0,0,NA,NA,1027.9,"METAR K20V 191135Z AUTO 00000KT 10SM CLR M01/M02 A3035 RMK AO2",2025-09-19 11:47:38.462844,2025-09-19 07:47:38.462891
"K2V6","Yuma Muni, CO, US",2025-09-19 11:34:00,"2025-09-19 11:34:00","VFR",11,9,210,10,NA,NA,1018.4,"METAR K2V6 191134Z AUTO 21010KT 10SM CLR 11/09 A3007 RMK AO2",2025-09-19 11:47:38.469666,2025-09-19 07:47:38.469713
"K2G9","Somerset Cnty Arpt, PA, US",2025-09-19 11:30:00,"2025-09-19 11:30:00","VFR",11,9,0,0,NA,NA,1020.4,"METAR K2G9 191130Z AUTO 00000KT 10SM CLR 11/09 A3013 RMK AO2",2025-09-19 11:47:38.476512,2025-09-19 07:47:38.47656
"K3LF","Litchfield Muni, IL, US",2025-09-19 11:35:00,"2025-09-19 11:35:00","VFR",18.7,15.5,60,5,NA,NA,1017,"METAR K3LF 191135Z AUTO 06005KT 10SM SCT080 SCT110 19/16 A3003 RMK AO2 T01870155",2025-09-19 11:47:39.669663,2025-09-19 07:47:39.669708
"K4A6","Scottsboro Muni, AL, US",2025-09-19 11:35:00,"2025-09-19 11:35:00","MVFR",16,16,0,0,NA,5,1018.7,"METAR K4A6 191135Z AUTO 00000KT 5SM BR CLR 16/16 A3008 RMK AO2",2025-09-19 11:47:39.676325,2025-09-19 07:47:39.676366
"K40U","Manila Arpt, UT, US",2025-09-19 11:35:00,"2025-09-19 11:35:00","VFR",4.4,2.8,0,0,NA,NA,1022.1,"METAR K40U 191135Z AUTO 00000KT 10SM CLR 04/03 A3018 RMK AO2 T00440028",2025-09-19 11:47:39.682909,2025-09-19 07:47:39.682953
"K4S2","Hood River/Jernstedt Arfld, OR, US",2025-09-19 11:35:00,"2025-09-19 11:35:00","VFR",11,10,0,0,NA,NA,1013.3,"METAR K4S2 191135Z AUTO 00000KT 10SM CLR 11/10 A2992 RMK AO2",2025-09-19 11:47:39.689446,2025-09-19 07:47:39.689512
"K3S8","Grants Pass Arpt, OR, US",2025-09-19 11:35:00,"2025-09-19 04:35:00","VFR",16,11,0,0,NA,NA,1013.6,"METAR K3S8 191135Z AUTO 00000KT 10SM CLR 16/11 A2993 RMK AO2",2025-09-19 11:47:39.696064,2025-09-19 07:47:39.696108
"K46U","Alpine Arpt, WY, US",2025-09-19 11:35:00,"2025-09-19 11:35:00","VFR",4,3,NA,3,NA,6,1022.1,"METAR K46U 191135Z AUTO VRB03KT 6SM BR CLR 04/03 A3018 RMK A01",2025-09-19 11:47:39.702714,2025-09-19 07:47:39.702766
"K3W7","Electric City/Grand Coulee Arpt, WA, US",2025-09-19 11:35:00,"2025-09-19 04:35:00","VFR",18,8,340,5,NA,NA,1013,"METAR K3W7 191135Z AUTO 34005KT 10SM FEW046 18/08 A2991 RMK AO2",2025-09-19 11:47:39.709369,2025-09-19 07:47:39.709414
"K42A","Melbourne Muni, AR, US",2025-09-19 11:35:00,"2025-09-19 11:35:00","VFR",NA,NA,0,0,NA,NA,1017,"METAR K42A 191135Z AUTO 00000KT 10SM CLR A3003 RMK AO2 LTG DSNT NE AND SE",2025-09-19 11:47:39.716001,2025-09-19 07:47:39.716045
"K3T5","LaGrange/Fayette Rgnl, TX, US",2025-09-19 11:35:00,"2025-09-19 11:35:00","VFR",21.8,21.8,0,0,NA,NA,1015.7,"METAR K3T5 191135Z AUTO 00000KT 10SM FEW140 22/22 A2999 RMK AO2 T02180218 $",2025-09-19 11:47:39.723019,2025-09-19 07:47:39.723063
"K3U3","Anaconda/Bowman Fld, MT, US",2025-09-19 11:35:00,"2025-09-19 11:35:00","VFR",6.8,1.2,190,6,NA,NA,1019.7,"METAR K3U3 191135Z AUTO 19006KT 10SM CLR 07/01 A3011 RMK AO2 T00680012 $",2025-09-19 11:47:39.730245,2025-09-19 07:47:39.73029
"K42J","Keystone Airpark, FL, US",2025-09-19 11:35:00,"2025-09-19 11:35:00","LIFR",20,20,310,4,NA,0.25,1016.7,"METAR K42J 191135Z AUTO 31004KT M1/4SM FG OVC002 20/20 A3002 RMK A01",2025-09-19 11:47:39.737108,2025-09-19 07:47:39.737153
"K46D","Carrington Muni, ND, US",2025-09-19 11:35:00,"2025-09-19 11:35:00","LIFR",15,15,10,5,NA,0.25,1015.7,"METAR K46D 191135Z AUTO 01005KT 1/4SM FG OVC001 15/15 A2999 RMK A01",2025-09-19 11:47:39.757639,2025-09-19 07:47:39.757689
"K4M3","Carlisle Muni, AR, US",2025-09-19 11:35:00,"2025-09-19 11:35:00",NA,22,22,350,4,NA,NA,1015.7,"METAR K4M3 191135Z AUTO 35004KT 10SM 22/22 A2999 RMK A01",2025-09-19 11:47:39.76517,2025-09-19 07:47:39.765251
"K4M9","Corning Muni, AR, US",2025-09-19 11:35:00,"2025-09-19 11:35:00","MVFR",21,21,120,10,16,3,1017.7,"METAR K4M9 191135Z AUTO 12010G16KT 3SM TS FEW004 SCT021 BKN040 21/21 A3005 RMK A01",2025-09-19 11:47:39.772351,2025-09-19 07:47:39.772394
"K4R5","La Pointe/Madeline Isl Arpt, WI, US",2025-09-19 11:35:00,"2025-09-19 11:35:00","MVFR",14,13.5,70,4,NA,NA,1019.4,"METAR K4R5 191135Z AUTO 07004KT 10SM RA SCT006 OVC010 14/14 A3010 RMK AO2 T01400135",2025-09-19 11:47:39.779126,2025-09-19 07:47:39.77917
"K4A9","Fort Payne/Isbell Fld, AL, US",2025-09-19 11:35:00,"2025-09-19 11:35:00","VFR",14,14,30,3,NA,7,1018.4,"METAR K4A9 191135Z AUTO 03003KT 7SM CLR 14/14 A3007 RMK AO2",2025-09-19 11:47:39.786046,2025-09-19 07:47:39.786089
"K4V0","Rangely Arpt, CO, US",2025-09-19 11:35:00,"2025-09-19 11:35:00","VFR",7.7,2.5,90,4,NA,NA,1021.4,"METAR K4V0 191135Z AUTO 09004KT 10SM CLR 08/03 A3016 RMK AO2 T00770025",2025-09-19 11:47:39.793219,2025-09-19 07:47:39.793271
"K4V1","Walsenburg/Spanish Peaks Arfld, CO, US",2025-09-19 11:35:00,"2025-09-19 11:35:00","VFR",8,5,280,4,NA,NA,1022.8,"METAR K4V1 191135Z AUTO 28004KT 10SM CLR 08/05 A3020 RMK AO2",2025-09-19 11:47:39.80041,2025-09-19 07:47:39.800458
"K3R7","Jennings Arpt, LA, US",2025-09-19 11:35:00,"2025-09-19 11:35:00","VFR",20.7,19.9,NA,NA,NA,NA,1017,"METAR K3R7 191135Z AUTO 10SM CLR 21/20 A3003 RMK AO2 T02070199",2025-09-19 11:47:39.807432,2025-09-19 07:47:39.807494
"K4O4","Idabel/McCurtain Rgnl, OK, US",2025-09-19 11:35:00,"2025-09-19 11:35:00","VFR",19,19,90,3,NA,9,1017,"METAR K4O4 191135Z AUTO 09003KT 9SM FEW037 SCT046 BKN055 19/19 A3003 RMK AO2",2025-09-19 11:47:39.814293,2025-09-19 07:47:39.814336
"K48A","Cochran Arpt, GA, US",2025-09-19 11:35:00,"2025-09-19 11:35:00","MVFR",18.3,17.9,0,0,NA,5,1017,"METAR K48A 191135Z AUTO 00000KT 5SM BR CLR 18/18 A3003 RMK AO2 T01830179",2025-09-19 11:47:39.82128,2025-09-19 07:47:39.821327
"K3K7","Leoti/Hoard Mem, KS, US",2025-09-19 11:35:00,"2025-09-19 11:35:00","VFR",10,9,210,3,NA,NA,1019,"METAR K3K7 191135Z AUTO 21003KT 10SM FEW090 10/09 A3009 RMK AO2",2025-09-19 11:47:39.828643,2025-09-19 07:47:39.82869
"K48I","Sutton/Braxton Cnty, WV, US",2025-09-19 11:35:00,"2025-09-19 11:35:00","LIFR",9.4,9.4,0,0,NA,0.25,1019.7,"METAR K48I 191135Z AUTO 00000KT 1/4SM FG CLR 09/09 A3011 RMK AO2 T00940094",2025-09-19 11:47:39.835922,2025-09-19 07:47:39.835966
"K4F2","Carthage/Panola Cnty, TX, US",2025-09-19 11:35:00,"2025-09-19 11:35:00","VFR",20.2,19.7,0,0,NA,7,1017,"METAR K4F2 191135Z AUTO 00000KT 7SM BR CLR 20/20 A3003 RMK AO2 T02020197",2025-09-19 11:47:39.84279,2025-09-19 07:47:39.842835
"K3K3","Syracuse/Hamilton Cnty, KS, US",2025-09-19 11:35:00,"2025-09-19 11:35:00","VFR",12,12,90,4,NA,NA,1019,"METAR K3K3 191135Z AUTO 09004KT 10SM SCT048 SCT075 12/12 A3009 RMK AO2",2025-09-19 11:47:39.849829,2025-09-19 07:47:39.849875
"K49A","Ellijay/Gilmer Cnty, GA, US",2025-09-19 11:35:00,"2025-09-19 11:35:00","MVFR",15,15,10,4,NA,4,1019.7,"METAR K49A 191135Z AUTO 01004KT 4SM BR CLR 15/15 A3011 RMK AO2",2025-09-19 11:47:39.856793,2025-09-19 07:47:39.856838
"K4S1","Gold Beach Muni, OR, US",2025-09-19 11:34:00,"2025-09-19 04:34:00","LIFR",13,11,350,8,NA,2.5,1009.9,"METAR K4S1 191134Z AUTO 35008KT 2 1/2SM BR OVC002 13/11 A2982 RMK AO2 VIS 1 1/4V3",2025-09-19 11:47:39.863617,2025-09-19 07:47:39.863661
"K49B","Sturgis Muni, SD, US",2025-09-19 11:25:00,"2025-09-19 11:25:00","VFR",8,8,280,5,NA,7,1018.4,"METAR K49B 191125Z AUTO 28005KT 7SM CLR 08/08 A3007 RMK AO2",2025-09-19 11:47:39.870372,2025-09-19 07:47:39.870416
"K4I3","Mount Vernon/Knox Cnty, OH, US",2025-09-19 11:25:00,"2025-09-19 11:25:00","VFR",13,12,360,2,NA,NA,1019,"METAR K4I3 191125Z 36002KT 10SM CLR 13/12 A3009 RMK AO2",2025-09-19 11:47:39.877373,2025-09-19 07:47:39.877418
"K5T9","Maverick County Arpt, TX, US",2025-09-19 11:35:00,"2025-09-19 06:35:00",NA,23,23,80,4,NA,NA,1015.7,"METAR K5T9 191135Z AUTO 08004KT OVC019 23/23 A2999 RMK A01",2025-09-19 11:47:41.083164,2025-09-19 07:47:41.083206
"K65S","Bonners Ferry/Boundary Cnty, ID, US",2025-09-19 11:35:00,"2025-09-19 11:35:00","VFR",10,8,0,0,NA,NA,1015.3,"METAR K65S 191135Z AUTO 00000KT 10SM CLR 10/08 A2998 RMK AO2",2025-09-19 11:47:41.090004,2025-09-19 07:47:41.090048
"K6E5","De Smet/Wilder Arpt, SD, US",2025-09-19 11:35:00,"2025-09-19 11:35:00","LIFR",NA,NA,0,0,NA,8,1013.6,"METAR K6E5 191135Z AUTO 00000KT 8SM OVC003 A2993 RMK AO2",2025-09-19 11:47:41.096679,2025-09-19 07:47:41.096726
"K6S0","Big Timber Arpt, MT, US",2025-09-19 11:35:00,"2025-09-19 11:35:00","VFR",8,7,270,9,NA,NA,1020.1,"METAR K6S0 191135Z AUTO 27009KT 10SM CLR 08/07 A3012 RMK A01",2025-09-19 11:47:41.103446,2025-09-19 07:47:41.103511
"K6L4","Logan Cnty, WV, US",2025-09-19 11:35:00,"2025-09-19 11:35:00","VFR",13,13,0,0,NA,6,1020.1,"METAR K6L4 191135Z AUTO 00000KT 6SM BR CLR 13/13 A3012 RMK AO2",2025-09-19 11:47:41.110162,2025-09-19 07:47:41.110206
"K5A9","Warm Springs/Roosevelt Muni, GA, US",2025-09-19 11:35:00,"2025-09-19 11:35:00","VFR",16.8,16.2,0,0,NA,7,1018.4,"METAR K5A9 191135Z AUTO 00000KT 7SM CLR 17/16 A3007 RMK AO2 T01680162",2025-09-19 11:47:41.11682,2025-09-19 07:47:41.116861
"K6B9","Skaneateles Arpt, NY, US",2025-09-19 11:35:00,"2025-09-19 11:35:00","MVFR",14,13,0,0,NA,NA,1018.7,"METAR K6B9 191135Z AUTO 00000KT 10SM BKN017 BKN025 14/13 A3008 RMK AO2",2025-09-19 11:47:41.123429,2025-09-19 07:47:41.123494
"K57C","East Troy Muni, WI, US",2025-09-19 11:35:00,"2025-09-19 11:35:00","MVFR",18,18,80,3,NA,4,1018,"METAR K57C 191135Z AUTO 08003KT 4SM BR SCT100 18/18 A3006 RMK AO2 T01800180",2025-09-19 11:47:41.129909,2025-09-19 07:47:41.129952
"K54J","DeFuniak Springs Muni, FL, US",2025-09-19 11:35:00,"2025-09-19 11:35:00","VFR",21,19.5,350,5,NA,NA,1017.4,"METAR K54J 191135Z AUTO 35005KT 10SM CLR 21/20 A3004 RMK AO2 T02100195",2025-09-19 11:47:41.13649,2025-09-19 07:47:41.136541
"K5A6","Winona/Montgomery Cnty, MS, US",2025-09-19 11:35:00,"2025-09-19 11:35:00","VFR",17.5,17.3,0,0,NA,7,1017,"METAR K5A6 191135Z AUTO 00000KT 7SM CLR 18/17 A3003 RMK AO2 T01750173",2025-09-19 11:47:41.143102,2025-09-19 07:47:41.143145
"K60R","Navasota Muni, TX, US",2025-09-19 11:35:00,"2025-09-19 11:35:00","MVFR",21.1,21.1,NA,NA,NA,5,1016.3,"METAR K60R 191135Z AUTO 5SM BR FEW210 21/21 A3001 RMK AO2 SLP081 T02110211 $",2025-09-19 11:47:41.149594,2025-09-19 07:47:41.149639
"K66R","Columbus/Well Arpt, TX, US",2025-09-19 11:35:00,"2025-09-19 11:35:00","VFR",20.2,19.8,0,0,NA,NA,1016.7,"METAR K66R 191135Z AUTO 00000KT 10SM CLR 20/20 A3002 RMK AO2 T02020198",2025-09-19 11:47:41.156202,2025-09-19 07:47:41.156246
"K6S2","Florence Muni, OR, US",2025-09-19 11:35:00,"2025-09-19 04:35:00","LIFR",9,8,0,0,NA,9,1013.6,"METAR K6S2 191135Z AUTO 00000KT 9SM BKN002 09/08 A2993 RMK AO2",2025-09-19 11:47:41.162717,2025-09-19 07:47:41.16276
"K5R8","DeQuincey Ind Arpk, LA, US",2025-09-19 11:35:00,"2025-09-19 11:35:00","VFR",18.8,18,0,0,NA,NA,1017,"METAR K5R8 191135Z AUTO 00000KT 10SM CLR 19/18 A3003 RMK AO2 T01880180",2025-09-19 11:47:41.169441,2025-09-19 07:47:41.169504
"K6A1","Butler Muni, GA, US",2025-09-19 11:35:00,"2025-09-19 11:35:00","VFR",18.2,17.9,0,0,NA,7,1017.7,"METAR K6A1 191135Z AUTO 00000KT 7SM CLR 18/18 A3005 RMK AO2 T01820179",2025-09-19 11:47:41.175992,2025-09-19 07:47:41.176035
"K6I2","Lebanon-Springfield/Hoerter Fld, KY, US",2025-09-19 11:35:00,"2025-09-19 11:35:00","VFR",16,13,0,0,NA,NA,1018.7,"METAR K6I2 191135Z AUTO 00000KT 10SM CLR 16/13 A3008 RMK AO2",2025-09-19 11:47:41.182656,2025-09-19 07:47:41.182704
"K5C1","Boerne/Stage Fld, TX, US",2025-09-19 11:35:00,"2025-09-19 11:35:00","VFR",17,17,0,0,NA,NA,1018,"METAR K5C1 191135Z AUTO 00000KT 10SM CLR 17/17 A3006 RMK AO1",2025-09-19 11:47:41.189546,2025-09-19 07:47:41.189593
"K6R3","Cleveland Muni, TX, US",2025-09-19 11:35:00,"2025-09-19 11:35:00","MVFR",19.5,18.5,0,0,NA,4,1017,"METAR K6R3 191135Z AUTO 00000KT 4SM BR CLR 20/19 A3003 RMK AO2 T01950185",2025-09-19 11:47:41.19625,2025-09-19 07:47:41.196293
"K5H4","Harvey Muni, ND, US",2025-09-19 11:35:00,"2025-09-19 11:35:00","LIFR",13,13,350,9,NA,2,1017.4,"METAR K5H4 191135Z AUTO 35009KT 2SM BR OVC003 13/13 A3004 RMK AO2",2025-09-19 11:47:41.202921,2025-09-19 07:47:41.202965
"K6R6","Dryden/Terrell Cnty, TX, US",2025-09-19 10:51:00,"2025-09-19 10:51:00",NA,21.1,15.6,40,5,NA,NA,1017,"METAR K6R6 191051Z AUTO 04005KT 21/16 A3003 RMK AO1 SLP133 T02110156",2025-09-19 11:47:41.222899,2025-09-19 07:47:41.222945
"K82V","Pine Bluffs Muni, WY, US",2025-09-19 11:35:00,"2025-09-19 11:35:00",NA,7,7,0,0,NA,NA,1019.7,"METAR K82V 191135Z AUTO 00000KT 10SM 07/07 A3011 RMK AO2",2025-09-19 11:47:42.339141,2025-09-19 07:47:42.339305
"K77S","Creswell/Hobby Fld, OR, US",2025-09-19 11:35:00,"2025-09-19 11:35:00","VFR",11,11,0,0,NA,9,1013,"METAR K77S 191135Z AUTO 00000KT 9SM FEW036 FEW041 SCT055 11/11 A2991 RMK A01",2025-09-19 11:47:42.348067,2025-09-19 07:47:42.348113
"K8B0","Rangeley/Bean Muni, ME, US",2025-09-19 11:35:00,"2025-09-19 11:35:00","MVFR",11,9,290,7,12,NA,1014.6,"METAR K8B0 191135Z AUTO 29007G12KT 10SM OVC016 11/09 A2996 RMK AO2",2025-09-19 11:47:42.35535,2025-09-19 07:47:42.355398
"K81R","San Saba Muni, TX, US",2025-09-19 11:35:00,"2025-09-19 11:35:00","VFR",20,17,0,0,NA,NA,1018,"METAR K81R 191135Z AUTO 00000KT 10SM CLR 20/17 A3006 RMK AO2 PWINO T02000170",2025-09-19 11:47:42.362354,2025-09-19 07:47:42.3624
"K79S","Fort Benton Arpt, MT, US",2025-09-19 11:35:00,"2025-09-19 11:35:00","VFR",6,4.4,240,3,NA,6,1016.7,"METAR K79S 191135Z AUTO 24003KT 6SM BR CLR 06/04 A3002 RMK AO2 T00600044",2025-09-19 11:47:42.36926,2025-09-19 07:47:42.369304
"K7W6","Engelhard/Hyde Cnty, NC, US",2025-09-19 11:35:00,"2025-09-19 11:35:00","LIFR",14.4,14.3,0,0,NA,0.25,1018,"METAR K7W6 191135Z AUTO 00000KT M1/4SM FG OVC002 14/14 A3006 RMK AO2 T01440143",2025-09-19 11:47:42.376081,2025-09-19 07:47:42.376126
"K7S0","Ronan Aprt, MT, US",2025-09-19 11:35:00,"2025-09-19 11:35:00","VFR",8,5,0,0,NA,NA,1016,"METAR K7S0 191135Z AUTO 00000KT 10SM CLR 08/05 A3000 RMK A01",2025-09-19 11:47:42.383108,2025-09-19 07:47:42.383154
"K7L2","Linton Muni, ND, US",2025-09-19 11:35:00,"2025-09-19 11:35:00","LIFR",13,13,340,8,NA,3,1016,"METAR K7L2 191135Z AUTO 34008KT 3SM BR OVC003 13/13 A3000 RMK AO2",2025-09-19 11:47:42.38996,2025-09-19 07:47:42.390003
"K82C","Mauston/New Lisbon Arpt, WI, US",2025-09-19 11:35:00,"2025-09-19 11:35:00","IFR",18.5,18.5,90,3,NA,5,1018.4,"METAR K82C 191135Z AUTO 09003KT 5SM BR OVC008 19/19 A3007 RMK AO2 T01850185",2025-09-19 11:47:42.396853,2025-09-19 07:47:42.396896
"K8T6","George West/Live Oak Cnty, TX, US",2025-09-19 11:35:00,"2025-09-19 11:35:00","MVFR",21,19,0,0,NA,NA,1015.3,"METAR K8T6 191135Z AUTO 00000KT 10SM BKN026 BKN040 BKN046 21/19 A2998 RMK AO2",2025-09-19 11:47:42.403821,2025-09-19 07:47:42.403867
"K8A3","Livingston Muni, TN, US",2025-09-19 11:35:00,"2025-09-19 11:35:00","VFR",18,14,0,0,NA,NA,1018.7,"METAR K8A3 191135Z AUTO 00000KT 10SM CLR 18/14 A3008 RMK A01",2025-09-19 11:47:42.410739,2025-09-19 07:47:42.410784
"K8V7","Springfield Muni, CO, US",2025-09-19 11:35:00,"2025-09-19 11:35:00","VFR",13,12,220,6,NA,NA,1020.4,"METAR K8V7 191135Z AUTO 22006KT 10SM SCT037 SCT044 BKN070 13/12 A3013 RMK AO2",2025-09-19 11:47:42.417575,2025-09-19 07:47:42.417622
"K8W2","New Market Arpt, VA, US",2025-09-19 11:35:00,"2025-09-19 11:35:00","VFR",11.7,11.1,0,0,NA,NA,1018.7,"METAR K8W2 191135Z AUTO 00000KT 10SM CLR 12/11 A3008 RMK AO1 T01170111",2025-09-19 11:47:42.424501,2025-09-19 07:47:42.424552
"K96D","Walhalla Muni, ND, US",2025-09-19 11:35:00,"2025-09-19 11:35:00","IFR",14,14,360,3,NA,NA,1017.4,"METAR K96D 191135Z AUTO 36003KT 10SM OVC008 14/14 A3004 RMK AO2",2025-09-19 11:47:42.431426,2025-09-19 07:47:42.431487
"K9A4","Courtland(AAF), AL, US",2025-09-19 11:35:00,"2025-09-19 11:35:00","VFR",17,16,0,0,NA,NA,1018,"METAR K9A4 191135Z AUTO 00000KT 10SM CLR 17/16 A3006 RMK AO2",2025-09-19 11:47:42.438534,2025-09-19 07:47:42.438583
"K74V","Roosevelt Muni, UT, US",2025-09-19 11:35:00,"2025-09-19 05:35:00","VFR",8,6,270,4,NA,NA,1020.4,"METAR K74V 191135Z AUTO 27004KT 10SM CLR 08/06 A3013 RMK AO2",2025-09-19 11:47:42.445383,2025-09-19 07:47:42.445427
"K8D3","Sisseton Muni, SD, US",2025-09-19 10:56:00,"2025-09-19 10:56:00",NA,17.2,16.7,110,4,NA,NA,1013.3,"METAR K8D3 191056Z AUTO 11004KT 17/17 A2992 RMK AO1 SLP118 P0004 T01720167",2025-09-19 11:47:42.452288,2025-09-19 07:47:42.452331
"K79J","Andalusia/Benton Fld, AL, US",2025-09-19 10:56:00,"2025-09-19 10:56:00","VFR",20.6,17.8,0,0,NA,9,1016.7,"METAR K79J 191056Z AUTO 00000KT 9SM CLR 21/18 A3002 RMK AO2 SLP162 T02060178 TSNO",2025-09-19 11:47:42.473218,2025-09-19 07:47:42.473271
"KAPN","Alpena Cnty Rgnl, MI, US",2025-09-19 11:40:00,"2025-09-19 07:40:00","VFR",12.8,11.7,40,4,NA,NA,1022.1,"SPECI KAPN 191140Z AUTO 04004KT 10SM SCT022 13/12 A3018 RMK AO2 T01280117",2025-09-19 11:47:43.991957,2025-09-19 07:47:43.992002
"KADG","Adrian/Lenawee Cnty, MI, US",2025-09-19 11:40:00,"2025-09-19 07:40:00","IFR",15.6,15.6,30,4,NA,2.5,1019.7,"SPECI KADG 191140Z AUTO 03004KT 2 1/2SM BR CLR 16/16 A3011 RMK AO2 T01560156",2025-09-19 11:47:43.998751,2025-09-19 07:47:43.998796
"KACV","Arcata Arpt, CA, US",2025-09-19 11:39:00,"2025-09-19 04:39:00","LIFR",13.3,12.8,360,4,NA,4,1009.6,"SPECI KACV 191139Z AUTO 36004KT 4SM BR BKN004 13/13 A2981 RMK AO2 CIG 002V005 T01330128",2025-09-19 11:47:44.005504,2025-09-19 07:47:44.005551
"KAKH","Gastonia Muni, NC, US",2025-09-19 11:36:00,"2025-09-19 11:36:00","IFR",16.7,16.1,0,0,NA,1.75,1018.4,"SPECI KAKH 191136Z AUTO 00000KT 1 3/4SM BR CLR 17/16 A3007 RMK AO2 T01670161",2025-09-19 11:47:44.012365,2025-09-19 07:47:44.012408
"KAMN","Alma/Gratiot Communi, MI, US",2025-09-19 11:36:00,"2025-09-19 07:36:00","MVFR",16,16,70,4,NA,5,1020.1,"METAR KAMN 191136Z AUTO 07004KT 5SM BR FEW029 16/16 A3012 RMK AO2",2025-09-19 11:47:44.019373,2025-09-19 07:47:44.019416
"KADU","Audubon Cnty Arpt, IA, US",2025-09-19 11:35:00,"2025-09-19 11:35:00","IFR",17,17,190,3,NA,5,1015.3,"METAR KADU 191135Z AUTO 19003KT 5SM OVC007 17/17 A2998 RMK AO2 PWINO",2025-09-19 11:47:44.026335,2025-09-19 07:47:44.02638
"KACQ","Waseca Muni, MN, US",2025-09-19 11:35:00,"2025-09-19 11:35:00","VFR",18,17,130,5,NA,NA,1015.3,"METAR KACQ 191135Z AUTO 13005KT 10SM SCT100 BKN120 18/17 A2998 RMK AO2",2025-09-19 11:47:44.033201,2025-09-19 07:47:44.033246
"KAKQ","Norfolk Muni, VA, US",2025-09-19 11:35:00,"2025-09-19 11:35:00","MVFR",15.6,15.6,0,0,NA,4,1017.7,"SPECI KAKQ 191135Z AUTO 00000KT 4SM BR CLR 16/16 A3005 RMK AO2 T01560156",2025-09-19 11:47:44.040031,2025-09-19 07:47:44.040074
"KAAS","Campbellsville/Taylor Cnty, KY, US",2025-09-19 11:35:00,"2025-09-19 11:35:00","VFR",15,13,80,3,NA,NA,1020.1,"METAR KAAS 191135Z AUTO 08003KT 10SM CLR 15/13 A3012 RMK AO1",2025-09-19 11:47:44.046954,2025-09-19 07:47:44.047003
"KAIG","Antigo/Langlade Cnty, WI, US",2025-09-19 11:35:00,"2025-09-19 11:35:00","IFR",13,13,80,6,NA,NA,1020.7,"METAR KAIG 191135Z AUTO 08006KT 10SM OVC005 13/13 A3014 RMK AO2 T01300130",2025-09-19 11:47:44.053981,2025-09-19 07:47:44.054027
"KASL","Marshall/Harrison Cnty, TX, US",2025-09-19 11:35:00,"2025-09-19 06:35:00","VFR",20.3,20.3,0,0,NA,NA,1016.3,"METAR KASL 191135Z AUTO 00000KT 10SM CLR 20/20 A3001 RMK AO2 T02030203 $",2025-09-19 11:47:44.060826,2025-09-19 07:47:44.06087
"KASN","Talladega Muni, AL, US",2025-09-19 11:35:00,"2025-09-19 06:35:00","VFR",18,18,110,1,NA,6,1017.4,"METAR KASN 191135Z AUTO 11001KT 6SM BR FEW070 18/18 A3004 RMK AO2",2025-09-19 11:47:44.067782,2025-09-19 07:47:44.067827
"KAGO","Magnolia Muni, AR, US",2025-09-19 11:35:00,"2025-09-19 06:35:00","MVFR",19,18,0,0,NA,3,1016.3,"METAR KAGO 191135Z AUTO 00000KT 3SM BR CLR 19/18 A3001 RMK A01",2025-09-19 11:47:44.074622,2025-09-19 07:47:44.074666
"KADM","Ardmore Muni, OK, US",2025-09-19 11:35:00,"2025-09-19 06:35:00","MVFR",19,18,20,13,18,5,1017.4,"METAR KADM 191135Z AUTO 02013G18KT 5SM VCTS RA BR FEW028 BKN049 OVC120 19/18 A3004 RMK AO2 LTG DSNT ALQDS",2025-09-19 11:47:44.093728,2025-09-19 07:47:44.093775
"KAIK","Aiken Muni, GA, US",2025-09-19 11:35:00,"2025-09-19 07:35:00","VFR",17.3,16.4,0,0,NA,7,1018.4,"METAR KAIK 191135Z AUTO 00000KT 7SM CLR 17/16 A3007 RMK AO2 T01730164",2025-09-19 11:47:44.100785,2025-09-19 07:47:44.10083
"KALX","Alexander City/Russell Fld, AL, US",2025-09-19 11:35:00,"2025-09-19 06:35:00","VFR",17.2,17.2,0,0,NA,NA,1017.4,"METAR KALX 191135Z AUTO 00000KT 10SM CLR 17/17 A3004 RMK AO2 LTG DSNT SW T01720172",2025-09-19 11:47:44.107674,2025-09-19 07:47:44.107719
"KA39","Ak-Chin Rgnl, AZ, US",2025-09-19 11:35:00,"2025-09-19 11:35:00","VFR",27,17,60,6,NA,NA,1013.3,"METAR KA39 191135Z AUTO 06006KT 10SM SCT100 SCT120 27/17 A2992 RMK AO2",2025-09-19 11:47:44.114407,2025-09-19 07:47:44.114451
"K9Y1","Killdeer/Dunn Cnty, ND, US",2025-09-19 11:35:00,"2025-09-19 11:35:00","MVFR",13,13,40,5,NA,NA,1018.7,"METAR K9Y1 191135Z AUTO 04005KT 10SM FEW008 OVC015 13/13 A3008 RMK AO2",2025-09-19 11:47:44.12124,2025-09-19 07:47:44.121286
"KAAA","Lincoln/Logan Cnty, IL, US",2025-09-19 11:35:00,"2025-09-19 11:35:00","VFR",17.2,17.2,0,0,NA,NA,1017,"METAR KAAA 191135Z AUTO 00000KT 10SM SCT085 17/17 A3003 RMK AO2 LTG DSNT S AND SW T01720172",2025-09-19 11:47:44.128272,2025-09-19 07:47:44.128316
"KAFK","Nebraska City Muni, NE, US",2025-09-19 11:35:00,"2025-09-19 11:35:00","VFR",15,15,290,5,NA,NA,1016.3,"METAR KAFK 191135Z AUTO 29005KT 10SM CLR 15/15 A3001 RMK AO2 T01500150",2025-09-19 11:47:44.135155,2025-09-19 07:47:44.135202
"KANK","Salida/Alexander Fld, CO, US",2025-09-19 11:35:00,"2025-09-19 05:35:00",NA,6.3,1.1,300,6,NA,NA,1025.8,"METAR KANK 191135Z AUTO 30006KT 10SM 06/01 A3029 RMK AO2 T00630011 $",2025-09-19 11:47:44.142153,2025-09-19 07:47:44.142197
"K9V9","Chamberlain Muni, SD, US",2025-09-19 11:35:00,"2025-09-19 11:35:00","IFR",13.6,13.6,310,8,16,4,1016.7,"METAR K9V9 191135Z AUTO 31008G16KT 4SM RA OVC005 14/14 A3002 RMK AO2 T01360136",2025-09-19 11:47:44.14886,2025-09-19 07:47:44.148903
"KAQX","Allendale Cnty Arpt, SC, US",2025-09-19 11:35:00,"2025-09-19 11:35:00","MVFR",18,18,0,0,NA,5,1017.4,"METAR KAQX 191135Z AUTO 00000KT 5SM BR CLR 18/18 A3004 RMK AO2",2025-09-19 11:47:44.155551,2025-09-19 07:47:44.155596
"KACJ","Americus/Carter Rgnl, GA, US",2025-09-19 11:35:00,"2025-09-19 11:35:00","MVFR",17.8,17.8,0,0,NA,4,1016,"METAR KACJ 191135Z AUTO 00000KT 4SM BR CLR 18/18 A3000 RMK AO2 T01780178",2025-09-19 11:47:44.162119,2025-09-19 07:47:44.162162
"KAJG","Mount Carmel Muni, IL, US",2025-09-19 11:35:00,"2025-09-19 11:35:00",NA,13.7,12.3,0,0,NA,NA,1017.7,"METAR KAJG 191135Z AUTO 00000KT 14/12 A3005 RMK AO2 LTG DSNT SW T01370123 PWINO",2025-09-19 11:47:44.168773,2025-09-19 07:47:44.168819
"KARV","Woodruff/Lakeland Arpt, WI, US",2025-09-19 11:35:00,"2025-09-19 06:35:00","VFR",14.1,13.5,140,3,NA,NA,1020.4,"METAR KARV 191135Z AUTO 14003KT 10SM SCT019 BKN060 OVC065 14/14 A3013 RMK AO2 T01410135",2025-09-19 11:47:44.17554,2025-09-19 07:47:44.175587
"KAIT","Aitkin Muni, MN, US",2025-09-19 11:35:00,"2025-09-19 11:35:00","LIFR",13,13,80,6,NA,3,1016.7,"METAR KAIT 191135Z AUTO 08006KT 3SM BR OVC002 13/13 A3002 RMK AO2",2025-09-19 11:47:44.182149,2025-09-19 07:47:44.182192
"KACP","Oakdale/Parish Arpt, LA, US",2025-09-19 11:35:00,"2025-09-19 11:35:00","VFR",18,16,0,0,NA,7,1017,"METAR KACP 191135Z AUTO 00000KT 7SM CLR 18/16 A3003 RMK AO2",2025-09-19 11:47:44.188709,2025-09-19 07:47:44.188753
"KACB","Bellaire/Antrim Cnty, MI, US",2025-09-19 11:35:00,"2025-09-19 07:35:00","MVFR",14.5,14.4,0,0,NA,NA,1021.1,"METAR KACB 191135Z AUTO 00000KT 10SM BKN024 OVC028 15/14 A3015 RMK AO2 T01450144",2025-09-19 11:47:44.195364,2025-09-19 07:47:44.195408
"KADW","Andrews AFB, MD, US",2025-09-19 11:35:00,"2025-09-19 07:35:00","MVFR",18,16,230,3,NA,4,1015.7,"SPECI KADW 191135Z AUTO 23003KT 4SM BR CLR 18/16 A2999 RMK AO2 VIS 1 3/8 RWY01R SLP161 TSNO $",2025-09-19 11:47:44.201987,2025-09-19 07:47:44.202031
"KADH","Ada Muni, OK, US",2025-09-19 11:35:00,"2025-09-19 06:35:00","MVFR",19,19,0,0,NA,3,1019,"METAR KADH 191135Z AUTO 00000KT 3SM -RA BR FEW045 FEW055 SCT070 19/19 A3009 RMK AO2 LTG DSNT E-SW PRESFR",2025-09-19 11:47:44.208687,2025-09-19 07:47:44.20873
"KAHQ","Wahoo Muni, NE, US",2025-09-19 11:35:00,"2025-09-19 11:35:00","VFR",14,12.5,260,5,NA,NA,1016.3,"METAR KAHQ 191135Z AUTO 26005KT 10SM CLR 14/13 A3001 RMK AO2 T01400125",2025-09-19 11:47:44.215489,2025-09-19 07:47:44.215541
"KANW","Ainsworth Muni, NE, US",2025-09-19 11:35:00,"2025-09-19 06:35:00","VFR",12.2,10,300,5,NA,NA,1017.4,"METAR KANW 191135Z AUTO 30005KT 10SM CLR 12/10 A3004 RMK AO2 T01220100",2025-09-19 11:47:44.235289,2025-09-19 07:47:44.235336
"KAEJ","Buena Vista/Central Colorado Rgnl, CO, US",2025-09-19 11:35:00,"2025-09-19 11:35:00",NA,4.5,-0.8,360,3,NA,NA,1027.2,"METAR KAEJ 191135Z AUTO 36003KT CLR 05/M01 A3033 RMK AO2 T00451008 PWINO",2025-09-19 11:47:44.242275,2025-09-19 07:47:44.242317
"KAIO","Atlantic Muni, IA, US",2025-09-19 11:35:00,"2025-09-19 06:35:00","LIFR",17,17,230,7,NA,4,1015,"METAR KAIO 191135Z AUTO 23007KT 4SM BR OVC003 17/17 A2997 RMK AO2",2025-09-19 11:47:44.24895,2025-09-19 07:47:44.248994
"KAJZ","Delta/Blake Fld, CO, US",2025-09-19 11:35:00,"2025-09-19 11:35:00","VFR",10.3,-0.3,80,7,NA,NA,1022.1,"METAR KAJZ 191135Z AUTO 08007KT 10SM CLR 10/00 A3018 RMK AO2 T01031003",2025-09-19 11:47:44.255901,2025-09-19 07:47:44.255945
"KAQO","Llano Muni, TX, US",2025-09-19 11:35:00,"2025-09-19 11:35:00","VFR",19,17,0,0,NA,NA,1017.7,"METAR KAQO 191135Z AUTO 00000KT 10SM FEW048 OVC055 19/17 A3005 RMK AO2",2025-09-19 11:47:44.262893,2025-09-19 07:47:44.262941
"KASJ","Ahoskie/Tri Cnty, NC, US",2025-09-19 11:35:00,"2025-09-19 11:35:00","LIFR",14.7,14.7,0,0,NA,0.25,1017.7,"METAR KASJ 191135Z AUTO 00000KT M1/4SM FG OVC002 15/15 A3005 RMK AO2 T01470147",2025-09-19 11:47:44.269814,2025-09-19 07:47:44.269857
"KAID","Anderson Muni, IN, US",2025-09-19 11:35:00,"2025-09-19 07:35:00","VFR",13.7,12.6,0,0,NA,NA,1018.7,"METAR KAID 191135Z AUTO 00000KT 10SM CLR 14/13 A3008 RMK AO2 T01370126",2025-09-19 11:47:44.276582,2025-09-19 07:47:44.276627
"K9S2","Scobey Arpt, MT, US",2025-09-19 11:35:00,"2025-09-19 11:35:00","LIFR",6,6,0,0,NA,0.25,1019,"METAR K9S2 191135Z AUTO 00000KT 1/4SM FG VV002 06/06 A3009 RMK AO2",2025-09-19 11:47:44.283174,2025-09-19 07:47:44.28322
"K9S9","Lexington Arpt, OR, US",2025-09-19 11:35:00,"2025-09-19 11:35:00","VFR",16,10,120,6,NA,NA,1014.3,"METAR K9S9 191135Z AUTO 12006KT 10SM SCT036 OVC044 16/10 A2995 RMK AO2",2025-09-19 11:47:44.28981,2025-09-19 07:47:44.289854
"KANQ","Angola/Tri-State Arpt, IN, US",2025-09-19 11:35:00,"2025-09-19 07:35:00","MVFR",12,12,0,0,NA,5,1019,"METAR KANQ 191135Z AUTO 00000KT 5SM BR CLR 12/12 A3009 RMK AO2",2025-09-19 11:47:44.296345,2025-09-19 07:47:44.296389
"KADC","Wadena Muni, MN, US",2025-09-19 11:35:00,"2025-09-19 11:35:00","LIFR",14,14,80,5,NA,4,1015.7,"METAR KADC 191135Z AUTO 08005KT 4SM BR OVC003 14/14 A2999 RMK AO2",2025-09-19 11:47:44.302996,2025-09-19 07:47:44.303039
"KANE","Blaine/Anoka Cnty, MN, US",2025-09-19 11:35:00,"2025-09-19 11:35:00","VFR",20,20,90,6,NA,NA,1015.3,"METAR KANE 191135Z AUTO 09006KT 10SM CLR 20/20 A2998 RMK AO2",2025-09-19 11:47:44.309624,2025-09-19 07:47:44.309669
"KALM","Alamogordo/White Sands Rgnl, NM, US",2025-09-19 11:35:00,"2025-09-19 05:35:00","VFR",15,14,170,5,NA,NA,1021.1,"METAR KALM 191135Z AUTO 17005KT 10SM BKN075 BKN120 15/14 A3015 RMK AO2",2025-09-19 11:47:44.316249,2025-09-19 07:47:44.316293
"KAFO","Afton Muni, WY, US",2025-09-19 11:35:00,"2025-09-19 05:35:00","VFR",1,0,0,0,NA,NA,1022.4,"METAR KAFO 191135Z AUTO 00000KT 10SM CLR 01/00 A3019 RMK AO2",2025-09-19 11:47:44.322961,2025-09-19 07:47:44.323005
"KARM","Wharton Rgnl, TX, US",2025-09-19 11:35:00,"2025-09-19 06:35:00","VFR",21.4,20.4,0,0,NA,7,1016.3,"METAR KARM 191135Z AUTO 00000KT 7SM CLR 21/20 A3001 RMK AO2 T02140204 TSNO",2025-09-19 11:47:44.329636,2025-09-19 07:47:44.32968
"KAJR","Cornelia/Habersham Cnty, GA, US",2025-09-19 11:35:00,"2025-09-19 11:35:00","MVFR",17.5,16.5,0,0,NA,5,1019.4,"METAR KAJR 191135Z AUTO 00000KT 5SM BR CLR 18/17 A3010 RMK AO2 T01750165",2025-09-19 11:47:44.3362,2025-09-19 07:47:44.336242
"KAQP","Appleton Muni, MN, US",2025-09-19 11:33:00,"2025-09-19 11:33:00","MVFR",19,18,0,0,NA,5,1013.3,"METAR KAQP 191133Z AUTO 00000KT 5SM RA SCT060 BKN110 19/18 A2992 RMK AO2 TSNO",2025-09-19 11:47:44.34287,2025-09-19 07:47:44.342912
"KAEG","Albuquerque/Double Eagle Arpt, NM, US",2025-09-19 11:30:00,"2025-09-19 11:30:00","VFR",12.7,9.8,0,0,NA,NA,1023.1,"METAR KAEG 191130Z AUTO 00000KT 10SM CLR 13/10 A3021 RMK AO2 LTG DSNT W T01270098",2025-09-19 11:47:44.349559,2025-09-19 07:47:44.349605
"KACZ","Wallace/Henderson Fld, NC, US",2025-09-19 11:30:00,"2025-09-19 11:30:00","LIFR",17.2,17,0,0,NA,0.25,1017.7,"METAR KACZ 191130Z AUTO 00000KT 1/4SM FG OVC002 17/17 A3005 RMK AO2 T0172////",2025-09-19 11:47:44.356173,2025-09-19 07:47:44.356216
"KADT","Atwood/Rollins Cnty, KS, US",2025-09-19 11:30:00,"2025-09-19 11:30:00","VFR",11.2,9.5,240,3,NA,NA,1020.1,"METAR KADT 191130Z AUTO 24003KT 10SM CLR 11/10 A3012 RMK AO2 T01120095",2025-09-19 11:47:44.375996,2025-09-19 07:47:44.376041
"KAPG","Phillips(AAF), MD, US",2025-09-19 11:30:00,"2025-09-19 07:30:00","VFR",15,15,NA,NA,NA,NA,1016.3,"SPECI KAPG 191130Z 000KT 00 10SM MIFG CLR 15/15 A3001",2025-09-19 11:47:44.382924,2025-09-19 07:47:44.382968
"KABR","Aberdeen Rgnl, SD, US",2025-09-19 11:22:00,"2025-09-19 06:22:00","LIFR",16.1,16.1,0,0,NA,0.5,1013,"SPECI KABR 191122Z AUTO 00000KT 1/2SM FG VV002 16/16 A2991 RMK AO2 T01610161",2025-09-19 11:47:44.389529,2025-09-19 07:47:44.389573
"KAGS","Augusta Rgnl, GA, US",2025-09-19 11:19:00,"2025-09-19 07:19:00","VFR",17.8,17.8,0,0,NA,7,1017,"SPECI KAGS 191119Z 00000KT 7SM CLR 18/18 A3003 RMK AO2 T01780178",2025-09-19 11:47:44.396293,2025-09-19 07:47:44.396336
"KAPY","Zapata Cnty, TX, US",2025-09-19 11:15:00,"2025-09-19 11:15:00","VFR",25,23.5,0,0,NA,NA,1015.3,"METAR KAPY 191115Z AUTO 00000KT 10SM OVC055 25/24 A2998 RMK AO2 T02500235",2025-09-19 11:47:44.403589,2025-09-19 07:47:44.403639
"KART","Watertown Intl, NY, US",2025-09-19 10:56:00,"2025-09-19 06:56:00","VFR",8.3,7.2,80,3,NA,NA,1018.7,"METAR KART 191056Z AUTO 08003KT 10SM CLR 08/07 A3008 RMK AO2 SLP185 T00830072",2025-09-19 11:47:44.410809,2025-09-19 07:47:44.41086
"KAFJ","Washington Cnty Arpt, PA, US",2025-09-19 10:56:00,"2025-09-19 06:56:00","VFR",11.1,10,0,0,NA,NA,1020.1,"METAR KAFJ 191056Z AUTO 00000KT 10SM CLR 11/10 A3012 RMK AO2 SLP195 T01110100 $",2025-09-19 11:47:44.417849,2025-09-19 07:47:44.417903
"KAND","Anderson Rgnl, SC, US",2025-09-19 10:56:00,"2025-09-19 06:56:00","VFR",18.3,16.7,340,3,NA,7,1017.7,"METAR KAND 191056Z AUTO 34003KT 7SM CLR 18/17 A3005 RMK AO2 SLP168 T01830167",2025-09-19 11:47:44.424991,2025-09-19 07:47:44.425035
"KAJO","Corona Muni, CA, US",2025-09-19 10:56:00,"2025-09-19 10:56:00","VFR",20.6,17.8,0,0,NA,NA,1011.9,"METAR KAJO 191056Z AUTO 00000KT 10SM OVC090 21/18 A2988 RMK AO2 SLP112 T02060178",2025-09-19 11:47:44.43207,2025-09-19 07:47:44.432115
"KARG","Walnut Ridge Rgnl, AR, US",2025-09-19 10:56:00,"2025-09-19 05:56:00","MVFR",21.7,17.8,20,6,30,5,1016.7,"METAR KARG 191056Z AUTO 02006G30KT 5SM TSRA FEW033 BKN075 OVC090 22/18 A3002 RMK AO2 PK WND 31030/1047 LTG DSNT ALQDS TSB06RAB44 SLP165 T02170178 $",2025-09-19 11:47:44.438935,2025-09-19 07:47:44.438978
"KASH","Nashua/Boire Fld, NH, US",2025-09-19 10:56:00,"2025-09-19 06:56:00","VFR",14.4,12.2,0,0,NA,NA,1013.3,"METAR KASH 191056Z AUTO 00000KT 10SM CLR 14/12 A2992 RMK AO2 SLP133 T01440122 TSNO PNO $",2025-09-19 11:47:44.445769,2025-09-19 07:47:44.445815
"KANJ","Sault Ste Marie Muni, MI, US",2025-09-19 10:55:00,"2025-09-19 10:55:00","VFR",10,8.3,70,4,NA,NA,1022.8,"METAR KANJ 191055Z AUTO 07004KT 10SM CLR 10/08 A3020 RMK AO2 SLP225 T01000083 $",2025-09-19 11:47:44.452835,2025-09-19 07:47:44.452881
"KAST","Astoria Rgnl, OR, US",2025-09-19 10:55:00,"2025-09-19 03:55:00","LIFR",10,8.9,130,4,NA,8,1015.3,"METAR KAST 191055Z AUTO 13004KT 8SM OVC004 10/09 A2998 RMK AO2 SLP152 T01000089",2025-09-19 11:47:44.459846,2025-09-19 07:47:44.459892
"K9L2","Edwards AF Aux North, CA, US",2025-09-19 10:55:00,"2025-09-19 10:55:00","VFR",19.8,18.3,320,4,NA,NA,1013,"METAR K9L2 191055Z AUTO 32004KT 10SM BKN060 20/18 A2991 RMK AO2 SLP110 T01980183",2025-09-19 11:47:44.466899,2025-09-19 07:47:44.466948
"KAFF","Air Force Academy Arfld, CO, US",2025-09-19 10:55:00,"2025-09-19 04:55:00","VFR",5.5,3.8,350,7,NA,NA,1022.4,"METAR KAFF 191055Z AUTO 35007KT 10SM CLR 06/04 A3019 RMK AO2 SLP167 T00550038",2025-09-19 11:47:44.473952,2025-09-19 07:47:44.473997
"KAAT","Alturas Muni, CA, US",2025-09-19 10:55:00,"2025-09-19 10:55:00","VFR",13.9,5.6,0,0,NA,NA,1016,"METAR KAAT 191055Z AUTO 00000KT 10SM CLR 14/06 A3000 RMK AO2 SLP110 T01390056",2025-09-19 11:47:44.481075,2025-09-19 07:47:44.481122
"KAPC","Napa Cnty Arpt, CA, US",2025-09-19 10:54:00,"2025-09-19 03:54:00","VFR",14.4,13.3,260,5,NA,NA,1011.3,"METAR KAPC 191054Z AUTO 26005KT 10SM SCT100 14/13 A2986 RMK AO2 RAE03 SLP103 P0000 T01440133",2025-09-19 11:47:44.488016,2025-09-19 07:47:44.488063
"KALO","Waterloo Rgnl, IA, US",2025-09-19 10:54:00,"2025-09-19 05:54:00","VFR",17.8,16.7,80,3,NA,NA,1015.7,"METAR KALO 191054Z 08003KT 10SM OVC110 18/17 A2999 RMK AO2 RAE43 SLP151 P0002 T01780167",2025-09-19 11:47:44.49495,2025-09-19 07:47:44.494996
"KAAO","Wichita/Jabara Arpt, KS, US",2025-09-19 10:54:00,"2025-09-19 10:54:00","VFR",16.1,15.6,0,0,NA,9,1017.4,"METAR KAAO 191054Z AUTO 00000KT 9SM CLR 16/16 A3004 RMK AO2 SLP162 T01610156",2025-09-19 11:47:44.501973,2025-09-19 07:47:44.502017
"KACY","Atlantic City Intl, NJ, US",2025-09-19 10:54:00,"2025-09-19 06:54:00","VFR",17.8,16.7,260,4,NA,NA,1015.7,"METAR KACY 191054Z AUTO 26004KT 10SM CLR 18/17 A2999 RMK AO2 SLP154 T01780167",2025-09-19 11:47:44.521967,2025-09-19 07:47:44.522016
"KAKR","Akron/Fulton Intl, OH, US",2025-09-19 10:54:00,"2025-09-19 06:54:00","VFR",14.4,13.3,0,0,NA,9,1018.7,"METAR KAKR 191054Z AUTO 00000KT 9SM CLR 14/13 A3008 RMK AO2 SLP181 T01440133 $",2025-09-19 11:47:44.528682,2025-09-19 07:47:44.528725
"KAMG","Alma/Bacon Cnty, GA, US",2025-09-19 10:53:00,"2025-09-19 10:53:00","VFR",21.1,19.4,0,0,NA,9,1016.7,"METAR KAMG 191053Z AUTO 00000KT 9SM BKN070 21/19 A3002 RMK AO2 SLP163 T02110194",2025-09-19 11:47:44.535267,2025-09-19 07:47:44.535312
"KAKO","Akron/Plains Rgnl, CO, US",2025-09-19 10:53:00,"2025-09-19 04:53:00","VFR",12.2,8.9,210,9,NA,NA,1019,"METAR KAKO 191053Z AUTO 21009KT 10SM CLR 12/09 A3009 RMK AO2 SLP150 T01220089",2025-09-19 11:47:44.542011,2025-09-19 07:47:44.542055
"KARA","New Iberia/Acadiana Rgnl, LA, US",2025-09-19 10:53:00,"2025-09-19 05:53:00","VFR",18.9,18.9,0,0,NA,NA,1016.7,"METAR KARA 191053Z 00000KT 10SM CLR 19/19 A3002 RMK AO2 SLP163 T01890189",2025-09-19 11:47:44.549072,2025-09-19 07:47:44.549118
"KASD","Slidell Arpt, LA, US",2025-09-19 10:53:00,"2025-09-19 10:53:00","VFR",18.3,17.8,360,3,NA,NA,1016.7,"METAR KASD 191053Z AUTO 36003KT 10SM CLR 18/18 A3002 RMK AO2 SLP166 T01830178",2025-09-19 11:47:44.556134,2025-09-19 07:47:44.55618
"KALW","Walla Walla Rgnl, WA, US",2025-09-19 10:53:00,"2025-09-19 03:53:00","VFR",18.9,10.6,120,4,NA,NA,1012.3,"METAR KALW 191053Z AUTO 12004KT 10SM CLR 19/11 A2989 RMK AO2 SLP112 T01890106",2025-09-19 11:47:44.563003,2025-09-19 07:47:44.563048
"KAAF","Apalachicola Muni, FL, US",2025-09-19 10:53:00,"2025-09-19 06:53:00","VFR",22.2,21.1,0,0,NA,NA,1016.3,"METAR KAAF 191053Z AUTO 00000KT 10SM CLR 22/21 A3001 RMK AO2 SLP160 T02220211",2025-09-19 11:47:44.569824,2025-09-19 07:47:44.569871
"KAMA","Amarillo Intl Arpt, TX, US",2025-09-19 10:53:00,"2025-09-19 05:53:00","VFR",15.6,14.4,140,8,NA,NA,1020.1,"METAR KAMA 191053Z 14008KT 10SM CLR 16/14 A3012 RMK AO2 SLP157 T01560144 $",2025-09-19 11:47:44.576791,2025-09-19 07:47:44.576836
"KAIA","Alliance Muni, NE, US",2025-09-19 10:53:00,"2025-09-19 04:53:00","VFR",8.9,8.3,30,9,NA,8,1019,"METAR KAIA 191053Z AUTO 03009KT 8SM FEW120 09/08 A3009 RMK AO2 SLP168 T00890083 PNO",2025-09-19 11:47:44.583752,2025-09-19 07:47:44.583797
"KALI","Alice Intl, TX, US",2025-09-19 10:53:00,"2025-09-19 05:53:00","VFR",21.7,20,280,8,NA,NA,1015,"METAR KALI 191053Z AUTO 28008KT 10SM CLR 22/20 A2997 RMK AO2 SLP145 T02170200",2025-09-19 11:47:44.590695,2025-09-19 07:47:44.590754
"KARB","Ann Arbor Muni, MI, US",2025-09-19 10:53:00,"2025-09-19 06:53:00","MVFR",16.1,15.6,30,4,NA,5,1019.4,"METAR KARB 191053Z 03004KT 5SM BR CLR 16/16 A3010 RMK AO2 SLP188 T01610156",2025-09-19 11:47:44.597522,2025-09-19 07:47:44.59757
"KAMW","Ames Muni, IA, US",2025-09-19 10:53:00,"2025-09-19 05:53:00","IFR",17.8,17.2,160,7,NA,NA,1015.3,"METAR KAMW 191053Z AUTO 16007KT 10SM BKN006 OVC013 18/17 A2998 RMK AO2 RAB33E44 SLP144 P0000 T01780172",2025-09-19 11:47:44.604592,2025-09-19 07:47:44.60464
"KAPF","Naples Muni, FL, US",2025-09-19 10:53:00,"2025-09-19 06:53:00","VFR",24.4,22.2,20,4,NA,NA,1014,"METAR KAPF 191053Z 02004KT 10SM CLR 24/22 A2994 RMK AO2 SLP137 T02440222 $",2025-09-19 11:47:44.612,2025-09-19 07:47:44.612051
"KAGC","Pittsburgh/Allegheny Cnty, PA, US",2025-09-19 10:53:00,"2025-09-19 06:53:00","VFR",14.4,12.2,180,3,NA,9,1018.7,"METAR KAGC 191053Z 18003KT 9SM CLR 14/12 A3008 RMK AO2 SLP184 T01440122",2025-09-19 11:47:44.619376,2025-09-19 07:47:44.61942
"KAOO","Altoona/Blair Cnty, PA, US",2025-09-19 10:53:00,"2025-09-19 06:53:00","VFR",11.7,10,160,4,NA,NA,1018.7,"METAR KAOO 191053Z AUTO 16004KT 10SM CLR 12/10 A3008 RMK AO2 SLP181 T01170100",2025-09-19 11:47:44.626693,2025-09-19 07:47:44.626745
"KAPA","Denver/Centennial Arpt, CO, US",2025-09-19 10:53:00,"2025-09-19 04:53:00","VFR",10.6,5.6,200,3,NA,NA,1021.1,"METAR KAPA 191053Z 20003KT 10SM CLR 11/06 A3015 RMK AO2 SLP162 T01060056",2025-09-19 11:47:44.63408,2025-09-19 07:47:44.634128
"KASE","Aspen/Pitkin Cnty, CO, US",2025-09-19 10:53:00,"2025-09-19 04:53:00","VFR",2.8,-3.3,170,6,NA,NA,1026.5,"METAR KASE 191053Z AUTO 17006KT 10SM CLR 03/M03 A3031 RMK AO2 SLP172 T00281033",2025-09-19 11:47:44.641433,2025-09-19 07:47:44.641497
"KABY","Albany/SW Georgia Rgnl, GA, US",2025-09-19 10:53:00,"2025-09-19 06:53:00","VFR",20,18.3,0,0,NA,8,1016.7,"METAR KABY 191053Z AUTO 00000KT 8SM CLR 20/18 A3002 RMK AO2 SLP164 T02000183",2025-09-19 11:47:44.648785,2025-09-19 07:47:44.648831
"KANB","Anniston Metro, AL, US",2025-09-19 10:53:00,"2025-09-19 05:53:00","VFR",17.8,16.7,90,3,NA,8,1017.7,"METAR KANB 191053Z AUTO 09003KT 8SM CLR 18/17 A3005 RMK AO2 SLP167 T01780167",2025-09-19 11:47:44.669142,2025-09-19 07:47:44.669185
"KAOH","Lima/Allen Cnty, OH, US",2025-09-19 10:53:00,"2025-09-19 06:53:00","VFR",13.3,11.1,70,3,NA,NA,1018.7,"METAR KAOH 191053Z AUTO 07003KT 10SM CLR 13/11 A3008 RMK AO2 SLP182 T01330111",2025-09-19 11:47:44.676148,2025-09-19 07:47:44.676193
"KAEX","Alexandria Intl, LA, US",2025-09-19 10:53:00,"2025-09-19 05:53:00","VFR",19.4,18.3,0,0,NA,9,1016.7,"METAR KAEX 191053Z 00000KT 9SM CLR 19/18 A3002 RMK AO2 SLP168 T01940183",2025-09-19 11:47:44.683012,2025-09-19 07:47:44.683055
"KAFW","Fort Worth/Alliance Arpt, TX, US",2025-09-19 10:53:00,"2025-09-19 05:53:00","VFR",25,18.9,190,3,NA,NA,1015.7,"METAR KAFW 191053Z 19003KT 10SM FEW250 25/19 A2999 RMK AO2 SLP140 T02500189 $",2025-09-19 11:47:44.690065,2025-09-19 07:47:44.690111
"KACK","Nantucket Mem Arpt, MA, US",2025-09-19 10:53:00,"2025-09-19 06:53:00","VFR",17.8,17.2,NA,NA,NA,NA,1012.6,"METAR KACK 191053Z 10SM CLR 18/17 A2990 RMK AO2 SLP123 T01780172",2025-09-19 11:47:44.697379,2025-09-19 07:47:44.697428
"KAFN","Jaffrey Muni, NH, US",2025-09-19 10:52:00,"2025-09-19 06:52:00","VFR",11.1,10.6,0,0,NA,NA,1014.6,"METAR KAFN 191052Z AUTO 00000KT 10SM CLR 11/11 A2996 RMK AO2 SLP148 T01110106",2025-09-19 11:47:44.704748,2025-09-19 07:47:44.704799
"KABI","Abilene Rgnl, TX, US",2025-09-19 10:52:00,"2025-09-19 05:52:00","VFR",20.6,13.9,140,7,NA,NA,1017.4,"METAR KABI 191052Z 14007KT 10SM CLR 21/14 A3004 RMK AO2 SLP146 T02060139 $",2025-09-19 11:47:44.712333,2025-09-19 07:47:44.712382
"KARR","Aurora Muni, IL, US",2025-09-19 10:52:00,"2025-09-19 05:52:00","VFR",15.6,13.9,60,3,NA,6,1017,"METAR KARR 191052Z AUTO 06003KT 6SM BR CLR 16/14 A3003 RMK AO2 SLP164 T01560139",2025-09-19 11:47:44.719723,2025-09-19 07:47:44.719772
"KABQ","Albuquerque Intl, NM, US",2025-09-19 10:52:00,"2025-09-19 04:52:00","VFR",17.2,11.1,110,4,NA,NA,1022.4,"METAR KABQ 191052Z 11004KT 10SM FEW250 17/11 A3019 RMK AO2 SLP141 T01720111 $",2025-09-19 11:47:44.727043,2025-09-19 07:47:44.727089
"KALS","Alamosa/Bergman Fld, CO, US",2025-09-19 10:52:00,"2025-09-19 04:52:00","VFR",1.7,-1.1,210,4,NA,NA,1026.2,"METAR KALS 191052Z AUTO 21004KT 10SM CLR 02/M01 A3030 RMK AO2 SLP196 T00171011 $",2025-09-19 11:47:44.734159,2025-09-19 07:47:44.734205
"KALB","Albany Intl, NY, US",2025-09-19 10:51:00,"2025-09-19 06:51:00","VFR",16.1,13.3,0,0,NA,NA,1015.3,"METAR KALB 191051Z 00000KT 10SM SCT046 16/13 A2998 RMK AO2 SLP149 T01610133",2025-09-19 11:47:44.741081,2025-09-19 07:47:44.741126
"KABE","Allentown/Lehigh Valley Intl, PA, US",2025-09-19 10:51:00,"2025-09-19 06:51:00","VFR",12.8,11.7,0,0,NA,NA,1016.3,"METAR KABE 191051Z 00000KT 10SM CLR 13/12 A3001 RMK AO2 SLP160 T01280117 $",2025-09-19 11:47:44.747982,2025-09-19 07:47:44.748027
"KAHN","Athens/Epps Arpt, GA, US",2025-09-19 10:51:00,"2025-09-19 06:51:00","VFR",17.8,17.8,310,3,NA,6,1017.7,"METAR KAHN 191051Z AUTO 31003KT 6SM BR CLR 18/18 A3005 RMK AO2 SLP171 T01780178",2025-09-19 11:47:44.754719,2025-09-19 07:47:44.754763
"KACT","Waco Rgnl, TX, US",2025-09-19 10:51:00,"2025-09-19 05:51:00","VFR",23.3,21.1,200,6,NA,NA,1016,"METAR KACT 191051Z 20006KT 10SM CLR 23/21 A3000 RMK AO2 SLP151 T02330211",2025-09-19 11:47:44.761399,2025-09-19 07:47:44.761442
"KADS","Dallas/Addison Arpt, TX, US",2025-09-19 10:47:00,"2025-09-19 05:47:00","VFR",26,20,200,5,NA,NA,1015.7,"METAR KADS 191047Z 20005KT 10SM SKC 26/20 A2999",2025-09-19 11:47:44.768079,2025-09-19 07:47:44.768125
"KATW","Appleton/Outagamie Cnty, WI, US",2025-09-19 11:45:00,"2025-09-19 06:45:00","IFR",18,17,60,8,NA,NA,1019.7,"METAR KATW 191145Z 06008KT 10SM OVC007 18/17 A3011",2025-09-19 11:47:46.349599,2025-09-19 07:47:46.349647
"KBGM","Binghamton Arpt, NY, US",2025-09-19 11:45:00,"2025-09-19 07:45:00","IFR",14.4,13.3,330,8,NA,NA,1018.4,"SPECI KBGM 191145Z 33008KT 10SM OVC005 14/13 A3007 RMK AO2 T01440133",2025-09-19 11:47:46.356687,2025-09-19 07:47:46.356732
"KBBG","Branson Arpt, MO, US",2025-09-19 11:45:00,"2025-09-19 06:45:00","VFR",17,17,0,0,NA,8,1018.7,"METAR KBBG 191145Z 00000KT 8SM FEW100 17/17 A3008",2025-09-19 11:47:46.363681,2025-09-19 07:47:46.363727
"KBLI","Bellingham Intl, WA, US",2025-09-19 11:39:00,"2025-09-19 04:39:00","IFR",7.8,7.8,0,0,NA,1.75,1016.3,"SPECI KBLI 191139Z AUTO 00000KT 1 3/4SM BR CLR 08/08 A3001 RMK AO2 VIS 3/4V5 T00780078",2025-09-19 11:47:46.370576,2025-09-19 07:47:46.370621
"KAVL","Asheville Muni, NC, US",2025-09-19 11:36:00,"2025-09-19 07:36:00","LIFR",16.7,16.1,310,3,NA,0.25,1021.1,"SPECI KAVL 191136Z 31003KT M1/4SM FG VV002 17/16 A3015 RMK AO2 T01670161 RVRNO",2025-09-19 11:47:46.377593,2025-09-19 07:47:46.37764
"KAXS","Altus/Quartz Mtn Rgnl, OK, US",2025-09-19 11:36:00,"2025-09-19 06:36:00","VFR",20,17,20,7,NA,NA,1018.4,"METAR KAXS 191136Z AUTO 02007KT 10SM SCT100 OVC120 20/17 A3007 RMK AO2",2025-09-19 11:47:46.384811,2025-09-19 07:47:46.38486
"KAXA","Algona Muni, IA, US",2025-09-19 11:35:00,"2025-09-19 06:35:00","VFR",17,17,170,4,NA,NA,1014.3,"METAR KAXA 191135Z AUTO 17004KT 10SM OVC031 17/17 A2995 RMK A01",2025-09-19 11:47:46.392018,2025-09-19 07:47:46.392063
"KAUN","Auburn Muni, CA, US",2025-09-19 11:35:00,"2025-09-19 04:35:00","VFR",17,14,90,8,NA,9,1012.6,"METAR KAUN 191135Z AUTO 09008KT 9SM FEW055 SCT070 OVC095 17/14 A2990 RMK A01",2025-09-19 11:47:46.398919,2025-09-19 07:47:46.398962
"KBGF","Winchester Muni, TN, US",2025-09-19 11:35:00,"2025-09-19 11:35:00","MVFR",14,14,NA,NA,NA,4,1018.4,"METAR KBGF 191135Z AUTO 4SM BR FEW065 14/14 A3007 RMK A01",2025-09-19 11:47:46.406024,2025-09-19 07:47:46.40607
"KBFA","Boyne Falls Arpt, MI, US",2025-09-19 11:35:00,"2025-09-19 11:35:00","MVFR",16,16,0,0,NA,NA,1021.1,"METAR KBFA 191135Z AUTO 00000KT 10SM OVC010 16/16 A3015 RMK AO2",2025-09-19 11:47:46.413269,2025-09-19 07:47:46.413315
"KBTN","Britton Muni, SD, US",2025-09-19 11:35:00,"2025-09-19 06:35:00","IFR",17,17,90,7,NA,1.75,1013,"METAR KBTN 191135Z AUTO 09007KT 1 3/4SM -RA BR SCT004 BKN029 OVC037 17/17 A2991 RMK AO2 VIS 1 1/4V5",2025-09-19 11:47:46.420432,2025-09-19 07:47:46.420495
"KBOW","Bartow Muni, FL, US",2025-09-19 11:35:00,"2025-09-19 07:35:00",NA,23,22,0,0,NA,NA,1016,"METAR KBOW 191135Z AUTO 00000KT 23/22 A3000 RMK AO2 PWINO",2025-09-19 11:47:46.427732,2025-09-19 07:47:46.427778
"KBFR","Bedford/Grissom Arpt, IN, US",2025-09-19 11:35:00,"2025-09-19 07:35:00",NA,14,14,100,2,NA,2.5,1018.4,"METAR KBFR 191135Z AUTO 10002KT 2 1/2SM BR 14/14 A3007 RMK AO2 VIS 1 1/2V4",2025-09-19 11:47:46.434922,2025-09-19 07:47:46.434967
"KAVC","Mecklenburg/Brunswick Rgnl, VA, US",2025-09-19 11:35:00,"2025-09-19 11:35:00","LIFR",16.2,16,0,0,NA,0.5,1019.7,"METAR KAVC 191135Z AUTO 00000KT 1/2SM SCT003 16/16 A3011 RMK AO2 T01620160",2025-09-19 11:47:46.442026,2025-09-19 07:47:46.44207
"KAXH","Houston/SW Arpt, TX, US",2025-09-19 11:35:00,"2025-09-19 11:35:00","VFR",21,20.2,0,0,NA,7,1016.3,"METAR KAXH 191135Z AUTO 00000KT 7SM CLR 21/20 A3001 RMK AO2 T02100202",2025-09-19 11:47:46.449062,2025-09-19 07:47:46.449106
"KAXX","Angel Fire Arpt, NM, US",2025-09-19 11:35:00,"2025-09-19 05:35:00","LIFR",3.9,3.2,0,0,NA,0.25,1029.2,"METAR KAXX 191135Z AUTO 00000KT 1/4SM FG OVC002 04/03 A3039 RMK AO2 T00390032",2025-09-19 11:47:46.456034,2025-09-19 07:47:46.456077
"KBCB","Blacksburg/VA Tech Montgomery Exec, VA, US",2025-09-19 11:35:00,"2025-09-19 07:35:00","MVFR",12.5,12.5,0,0,NA,4,1022.1,"METAR KBCB 191135Z AUTO 00000KT 4SM CLR 13/13 A3018 RMK AO2 T01250125 PWINO",2025-09-19 11:47:46.463038,2025-09-19 07:47:46.463082
"KBDG","Blanding Muni, UT, US",2025-09-19 11:35:00,"2025-09-19 05:35:00","VFR",14.3,-4.2,30,7,NA,NA,1021.4,"METAR KBDG 191135Z AUTO 03007KT 10SM OVC120 14/M04 A3016 RMK AO2 T01431042",2025-09-19 11:47:46.48404,2025-09-19 07:47:46.484085
"KBTA","Blair Muni, NE, US",2025-09-19 11:35:00,"2025-09-19 11:35:00","VFR",14.7,13.8,240,5,NA,NA,1015.7,"METAR KBTA 191135Z AUTO 24005KT 10SM CLR 15/14 A2999 RMK AO2 T01470138",2025-09-19 11:47:46.491102,2025-09-19 07:47:46.49115
"KBIJ","Blakely/Early Cnty, GA, US",2025-09-19 11:35:00,"2025-09-19 11:35:00","VFR",17,16,0,0,NA,7,1017,"METAR KBIJ 191135Z AUTO 00000KT 7SM CLR 17/16 A3003 RMK AO2",2025-09-19 11:47:46.498056,2025-09-19 07:47:46.498098
"KAYS","Waycross/Ware Cnty, GA, US",2025-09-19 11:35:00,"2025-09-19 07:35:00",NA,NA,NA,0,0,NA,NA,1017.4,"METAR KAYS 191135Z AUTO 00000KT A3004 RMK AO2 PWINO",2025-09-19 11:47:46.504985,2025-09-19 07:47:46.50503
"KBKN","Blackwell/Tonkawa Muni, OK, US",2025-09-19 11:35:00,"2025-09-19 11:35:00","VFR",16,16,230,6,NA,7,1017.7,"METAR KBKN 191135Z AUTO 23006KT 7SM CLR 16/16 A3005 RMK AO2",2025-09-19 11:47:46.512097,2025-09-19 07:47:46.512141
"KBMT","Beaumont Muni, TX, US",2025-09-19 11:35:00,"2025-09-19 06:35:00","VFR",20,19.2,0,0,NA,7,1016.3,"METAR KBMT 191135Z AUTO 00000KT 7SM CLR 20/19 A3001 RMK AO2 T02000192",2025-09-19 11:47:46.519185,2025-09-19 07:47:46.519232
"KBRY","Bardstown/Samuel Fld, KY, US",2025-09-19 11:35:00,"2025-09-19 07:35:00","VFR",14.9,14.9,0,0,NA,9,1017.7,"METAR KBRY 191135Z AUTO 00000KT 9SM CLR 15/15 A3005 RMK AO2 T01490149",2025-09-19 11:47:46.526157,2025-09-19 07:47:46.526203
"KAVQ","Tucson/Marana Rgnl, AZ, US",2025-09-19 11:35:00,"2025-09-19 04:35:00","VFR",24,20,90,8,NA,NA,1013.3,"METAR KAVQ 191135Z AUTO 09008KT 10SM CLR 24/20 A2992 RMK AO2",2025-09-19 11:47:46.53318,2025-09-19 07:47:46.533225
"KAVK","Alva Muni, OK, US",2025-09-19 11:35:00,"2025-09-19 11:35:00","VFR",NA,NA,290,5,NA,NA,1017.7,"METAR KAVK 191135Z AUTO 29005KT 10SM CLR A3005 RMK A01",2025-09-19 11:47:46.540325,2025-09-19 07:47:46.540372
"KBAX","Bad Axe/Huron Cnty, MI, US",2025-09-19 11:35:00,"2025-09-19 11:35:00","VFR",15.1,14.5,0,0,NA,NA,1021.1,"METAR KBAX 191135Z AUTO 00000KT 10SM CLR 15/15 A3015 RMK AO2 T01510145",2025-09-19 11:47:46.547412,2025-09-19 07:47:46.547457
"KBJI","Bemidji Municip, MN, US",2025-09-19 11:35:00,"2025-09-19 06:35:00","IFR",13.1,13.1,100,7,NA,NA,1017.4,"METAR KBJI 191135Z AUTO 10007KT 10SM -RA OVC007 13/13 A3004 RMK AO2 P0001 T01310131",2025-09-19 11:47:46.5544,2025-09-19 07:47:46.554446
"KBPG","Big Springs/McMahon , TX, US",2025-09-19 11:35:00,"2025-09-19 06:35:00","VFR",19.9,13.2,150,7,NA,NA,1018.7,"METAR KBPG 191135Z AUTO 15007KT 10SM CLR 20/13 A3008 RMK AO2 T01990132",2025-09-19 11:47:46.56144,2025-09-19 07:47:46.56151
"KASW","Warsaw Muni, IN, US",2025-09-19 11:35:00,"2025-09-19 11:35:00","VFR",13.6,12.9,0,0,NA,7,1018.7,"METAR KASW 191135Z AUTO 00000KT 7SM CLR 13/12 A3008 RMK AO2 T01360129",2025-09-19 11:47:46.568454,2025-09-19 07:47:46.568521
"KATS","Artesia Muni, NM, US",2025-09-19 11:35:00,"2025-09-19 05:35:00","VFR",18,16,0,0,NA,NA,1020.1,"METAR KATS 191135Z AUTO 00000KT 10SM CLR 18/16 A3012 RMK AO2",2025-09-19 11:47:46.575642,2025-09-19 07:47:46.575688
"KBAM","Battle Mountain Arpt, NV, US",2025-09-19 11:35:00,"2025-09-19 04:35:00","VFR",17,0,50,7,NA,NA,1015.7,"METAR KBAM 191135Z AUTO 05007KT 10SM CLR 17/00 A2999 RMK AO1",2025-09-19 11:47:46.582739,2025-09-19 07:47:46.582785
"KBBP","Bennettsville/Marlboro Jetport, SC, US",2025-09-19 11:35:00,"2025-09-19 07:35:00","LIFR",16,16,0,0,NA,1.25,1017.7,"METAR KBBP 191135Z AUTO 00000KT 1 1/4SM BR OVC002 16/16 A3005 RMK AO2",2025-09-19 11:47:46.589689,2025-09-19 07:47:46.589733
"KBDU","Boulder Muni, CO, US",2025-09-19 11:35:00,"2025-09-19 05:35:00","VFR",9,5,180,4,NA,NA,1020.4,"METAR KBDU 191135Z AUTO 18004KT 10SM CLR 09/05 A3013 RMK AO2",2025-09-19 11:47:46.596696,2025-09-19 07:47:46.596742
"KBKD","Breckenridge/Stephens Cnty, TX, US",2025-09-19 11:35:00,"2025-09-19 06:35:00",NA,21.2,16,150,3,NA,NA,1017,"METAR KBKD 191135Z AUTO 15003KT CLR 21/16 A3003 RMK AO2 T02120160",2025-09-19 11:47:46.603541,2025-09-19 07:47:46.60359
"KAZC","Colorado City Muni, AZ, US",2025-09-19 11:35:00,"2025-09-19 11:35:00","VFR",16,11,100,5,NA,NA,1020.1,"METAR KAZC 191135Z AUTO 10005KT 10SM SCT120 16/11 A3012 RMK AO2",2025-09-19 11:47:46.610669,2025-09-19 07:47:46.610724
"KAXV","Wapakoneta/Armstrong Arpt, OH, US",2025-09-19 11:35:00,"2025-09-19 07:35:00","VFR",12,9,0,0,NA,NA,1018.7,"METAR KAXV 191135Z AUTO 00000KT 10SM CLR 12/09 A3008 RMK AO2",2025-09-19 11:47:46.640584,2025-09-19 07:47:46.640636
"KBBB","Benson Muni, MN, US",2025-09-19 11:35:00,"2025-09-19 06:35:00","LIFR",19,19,0,0,NA,6,1013.6,"METAR KBBB 191135Z AUTO 00000KT 6SM -RA BR BKN004 BKN008 OVC013 19/19 A2993 RMK AO2",2025-09-19 11:47:46.647805,2025-09-19 07:47:46.647849
"KAUM","Austin Muni, MN, US",2025-09-19 11:35:00,"2025-09-19 06:35:00","MVFR",18,17,140,6,NA,NA,1016,"METAR KAUM 191135Z AUTO 14006KT 10SM BKN010 OVC050 18/17 A3000 RMK AO2",2025-09-19 11:47:46.654726,2025-09-19 07:47:46.654775
"KAUH","Aurora/Potter Fld, NE, US",2025-09-19 11:35:00,"2025-09-19 11:35:00","VFR",11.3,11.3,300,3,NA,NA,1017.4,"METAR KAUH 191135Z AUTO 30003KT 10SM CLR 11/11 A3004 RMK AO2 T01130113",2025-09-19 11:47:46.661604,2025-09-19 07:47:46.661651
"KBJC","Rocky Mtn Metro, CO, US",2025-09-19 11:35:00,"2025-09-19 05:35:00","VFR",11,5,230,3,NA,NA,1021.4,"METAR KBJC 191135Z AUTO 23003KT 10SM CLR 11/05 A3016 RMK AO2",2025-09-19 11:47:46.668712,2025-09-19 07:47:46.668762
"KBNW","Boone Muni, IA, US",2025-09-19 11:35:00,"2025-09-19 06:35:00","LIFR",18,18,NA,4,NA,7,1015,"METAR KBNW 191135Z AUTO VRB04KT 7SM OVC004 18/18 A2997 RMK AO2",2025-09-19 11:47:46.675963,2025-09-19 07:47:46.676011
"KBNL","Barnwell Cnty, SC, US",2025-09-19 11:35:00,"2025-09-19 07:35:00","VFR",18,17,0,0,NA,7,1017.7,"METAR KBNL 191135Z AUTO 00000KT 7SM CLR 18/17 A3005 RMK AO2",2025-09-19 11:47:46.683034,2025-09-19 07:47:46.683078
"KBHC","Baxley Muni, GA, US",2025-09-19 11:35:00,"2025-09-19 11:35:00","VFR",20,18,0,0,NA,7,1017,"METAR KBHC 191135Z AUTO 00000KT 7SM CLR 20/18 A3003 RMK AO2 PNO",2025-09-19 11:47:46.690078,2025-09-19 07:47:46.690125
"KBEC","Wichita/Beech Factory Arpt, KS, US",2025-09-19 11:35:00,"2025-09-19 06:35:00","VFR",16.3,16.3,0,0,NA,NA,1017.7,"METAR KBEC 191135Z AUTO 00000KT 10SM CLR 16/16 A3005 RMK AO2 T01630163",2025-09-19 11:47:46.697399,2025-09-19 07:47:46.697448
"KBCK","Black River Falls Arpt, WI, US",2025-09-19 11:35:00,"2025-09-19 11:35:00","MVFR",18.2,18.2,90,4,NA,3,1018,"METAR KBCK 191135Z AUTO 09004KT 3SM BR SCT050 BKN065 BKN085 18/18 A3006 RMK AO2 P0001 T01820182",2025-09-19 11:47:46.704569,2025-09-19 07:47:46.704616
"KBGE","Bainbridge/Decatur Cnty, GA, US",2025-09-19 11:35:00,"2025-09-19 07:35:00","VFR",19.8,20,0,0,NA,NA,1017,"METAR KBGE 191135Z AUTO 00000KT 10SM CLR 20/20 A3003 RMK AO2 T0198////",2025-09-19 11:47:46.711823,2025-09-19 07:47:46.71187
"KBQK","Brunswick/Golden Isles Arpt, GA, US",2025-09-19 11:35:00,"2025-09-19 07:35:00","MVFR",21,20.8,0,0,NA,4,1017,"METAR KBQK 191135Z AUTO 00000KT 4SM BR BKN060 21/21 A3003 RMK AO2 T02100208",2025-09-19 11:47:46.718985,2025-09-19 07:47:46.719029
"KBBD","Brady/Curtis Fld, TX, US",2025-09-19 11:35:00,"2025-09-19 06:35:00","VFR",20,15,210,4,NA,NA,1018,"METAR KBBD 191135Z AUTO 21004KT 10SM FEW044 SCT050 20/15 A3006 RMK AO2",2025-09-19 11:47:46.726207,2025-09-19 07:47:46.726255
"KAWG","Washington Muni, IA, US",2025-09-19 11:35:00,"2025-09-19 11:35:00","VFR",17,17,0,0,NA,6,1016,"METAR KAWG 191135Z AUTO 00000KT 6SM BR CLR 17/17 A3000 RMK AO2",2025-09-19 11:47:46.733316,2025-09-19 07:47:46.733361
"KBDH","Willmar Muni, MN, US",2025-09-19 11:35:00,"2025-09-19 06:35:00","IFR",18,18,80,5,NA,4,1014,"METAR KBDH 191135Z AUTO 08005KT 4SM BR SCT005 BKN009 OVC060 18/18 A2994 RMK AO2",2025-09-19 11:47:46.740314,2025-09-19 07:47:46.740358
"KBMC","Brigham City Arpt, UT, US",2025-09-19 11:35:00,"2025-09-19 05:35:00","VFR",12,4,340,2,NA,NA,1017,"METAR KBMC 191135Z AUTO 34002KT 10SM CLR 12/04 A3003 RMK AO2",2025-09-19 11:47:46.747542,2025-09-19 07:47:46.747591
"KBOK","Brookings/State Arpt, OR, US",2025-09-19 11:32:00,"2025-09-19 04:32:00","VFR",15,14,360,3,NA,9,1009.9,"SPECI KBOK 191132Z AUTO 36003KT 9SM CLR 15/14 A2982 RMK AO2 TSB11E26",2025-09-19 11:47:46.754519,2025-09-19 07:47:46.75457
"KBQP","Morehouse Mem Arpt, LA, US",2025-09-19 11:30:00,"2025-09-19 11:30:00","VFR",18.4,17,0,0,NA,NA,1017.4,"METAR KBQP 191130Z AUTO 00000KT 10SM CLR 18/17 A3004 RMK AO2 T01840170 PWINO",2025-09-19 11:47:46.761519,2025-09-19 07:47:46.761568
"KBFD","Bradford Rgnl, PA, US",2025-09-19 11:29:00,"2025-09-19 07:29:00","LIFR",14.4,13.9,320,4,NA,5,1020.1,"SPECI KBFD 191129Z AUTO 32004KT 5SM BR OVC004 14/14 A3012 RMK AO2 T01440139",2025-09-19 11:47:46.768438,2025-09-19 07:47:46.768502
"KATY","Watertown Rgnl, SD, US",2025-09-19 11:25:00,"2025-09-19 06:25:00","IFR",16.1,15,160,3,NA,NA,1013.3,"SPECI KATY 191125Z AUTO 16003KT 10SM BKN007 OVC035 16/15 A2992 RMK AO2 T01610150",2025-09-19 11:47:46.789294,2025-09-19 07:47:46.789343
"KAWO","Arlington Muni, WA, US",2025-09-19 11:24:00,"2025-09-19 11:24:00","LIFR",8,NA,0,0,NA,0.5,1016.7,"SPECI KAWO 191124Z AUTO 00000KT 1/2SM FG VV002 08/ A3002 RMK AO2",2025-09-19 11:47:46.796618,2025-09-19 07:47:46.796663
"KAXN","Alexandria/Chandler Fld, MN, US",2025-09-19 11:23:00,"2025-09-19 06:23:00","LIFR",16.1,15.6,80,7,NA,6,1015.3,"SPECI KAXN 191123Z AUTO 08007KT 6SM RA BR OVC004 16/16 A2998 RMK AO2 RAB18 P0003 T01610156",2025-09-19 11:47:46.803323,2025-09-19 07:47:46.803367
"KBRD","Brainerd/Lakes Rgnl, MN, US",2025-09-19 11:22:00,"2025-09-19 06:22:00","LIFR",14.4,13.9,90,6,NA,5,1016.3,"SPECI KBRD 191122Z AUTO 09006KT 5SM BR OVC004 14/14 A3001 RMK AO2 T01440139",2025-09-19 11:47:46.810093,2025-09-19 07:47:46.810135
"KBDN","Bend Muni, OR, US",2025-09-19 11:20:00,"2025-09-19 11:20:00","VFR",12,7,210,5,NA,NA,1015.3,"METAR KBDN 191120Z AUTO 21005KT 10SM CLR 12/07 A2998 RMK AO2",2025-09-19 11:47:46.817371,2025-09-19 07:47:46.817419
"KASX","Ashland/Kennedy Mem Arpt, WI, US",2025-09-19 11:17:00,"2025-09-19 06:17:00","LIFR",15,14.4,40,4,NA,NA,1019.4,"SPECI KASX 191117Z AUTO 04004KT 10SM BKN004 OVC012 15/14 A3010 RMK AO2 RAE11 P0000 T01500144",2025-09-19 11:47:46.82445,2025-09-19 07:47:46.824518
"KBKV","Brooksville-Tampa Bay Rgnl, FL, US",2025-09-19 11:13:00,"2025-09-19 11:13:00","VFR",17.2,17.2,0,0,NA,7,1016,"SPECI KBKV 191113Z 00000KT 7SM FEW003 17/17 A3000 RMK AO2 T01720172",2025-09-19 11:47:46.831303,2025-09-19 07:47:46.831348
"KBHK","Baker Muni, MT, US",2025-09-19 11:12:00,"2025-09-19 11:12:00","LIFR",10,10,100,6,NA,3,1019.4,"SPECI KBHK 191112Z AUTO 10006KT 3SM BR OVC002 10/10 A3010 RMK AO2 T01000100",2025-09-19 11:47:46.838232,2025-09-19 07:47:46.838277
"KBKX","Brookings Rgnl, SD, US",2025-09-19 11:07:00,"2025-09-19 06:07:00","MVFR",15,14,0,0,NA,9,1014,"SPECI KBKX 191107Z AUTO 00000KT 9SM SCT007 BKN017 OVC085 15/14 A2994 RMK AO2",2025-09-19 11:47:46.844986,2025-09-19 07:47:46.845029
"KBKF","Buckley SFB, CO, US",2025-09-19 10:58:00,"2025-09-19 04:58:00","VFR",9.5,5.3,0,0,NA,NA,1020.4,"METAR KBKF 191058Z 00000KT 10SM CLR 10/05 A3013 RMK AO2A SLP146 T00950053",2025-09-19 11:47:46.851997,2025-09-19 07:47:46.852044
"KBID","Block Island Arpt, RI, US",2025-09-19 10:56:00,"2025-09-19 06:56:00","VFR",17.8,15.6,300,5,NA,NA,1013.6,"METAR KBID 191056Z AUTO 30005KT 10SM CLR 18/16 A2993 RMK AO2 SLP135 T01780156 PNO $",2025-09-19 11:47:46.859119,2025-09-19 07:47:46.859165
"KBJJ","Wooster/Wayne Cnty, OH, US",2025-09-19 10:56:00,"2025-09-19 06:56:00","VFR",12.2,11.1,0,0,NA,8,1019.4,"METAR KBJJ 191056Z AUTO 00000KT 8SM CLR 12/11 A3010 RMK AO2 SLP188 T01220111",2025-09-19 11:47:46.866043,2025-09-19 07:47:46.866087
"KBLM","Farmingdale/Monmouth Exec, NJ, US",2025-09-19 10:56:00,"2025-09-19 06:56:00","VFR",16.7,16.7,260,4,NA,NA,1016,"METAR KBLM 191056Z AUTO 26004KT 10SM CLR 17/17 A3000 RMK AO2 SLP158 T01670167",2025-09-19 11:47:46.873118,2025-09-19 07:47:46.873164
"KBMI","Bloomington Rgnl, IL, US",2025-09-19 10:56:00,"2025-09-19 05:56:00","VFR",17.2,14.4,260,6,NA,NA,1017.7,"METAR KBMI 191056Z 26006KT 10SM CLR 17/14 A3005 RMK AO2 SLP167 T01720144",2025-09-19 11:47:46.88021,2025-09-19 07:47:46.880255
"KBTP","Pittsburgh/Butler Rgnl, PA, US",2025-09-19 10:56:00,"2025-09-19 06:56:00","VFR",12.2,12.2,0,0,NA,NA,1019.4,"METAR KBTP 191056Z AUTO 00000KT 10SM CLR 12/12 A3010 RMK AO2 SLP192 T01220122",2025-09-19 11:47:46.88729,2025-09-19 07:47:46.887336
"KAUO","Auburn Univ Arpt, AL, US",2025-09-19 10:56:00,"2025-09-19 05:56:00","VFR",19.4,18.3,30,3,NA,NA,1017.7,"METAR KAUO 191056Z AUTO 03003KT 10SM CLR 19/18 A3005 RMK AO2 SLP161 T01940183 $",2025-09-19 11:47:46.894229,2025-09-19 07:47:46.894275
"KBHB","Bar Harbor/Hancock Cnty, ME, US",2025-09-19 10:56:00,"2025-09-19 06:56:00","VFR",15,14.4,330,3,NA,NA,1010.2,"METAR KBHB 191056Z AUTO 33003KT 10SM FEW037 BKN080 15/14 A2983 RMK AO2 SLP103 T01500144",2025-09-19 11:47:46.901194,2025-09-19 07:47:46.901239
"KBLV","Belleville/Scott AFB, IL, US",2025-09-19 10:55:00,"2025-09-19 05:55:00","VFR",19.9,17.3,60,4,NA,NA,1015.7,"METAR KBLV 191055Z AUTO 06004KT 10SM FEW140 BKN170 20/17 A2999 RMK AO2 SLP155 T01990173",2025-09-19 11:47:46.908113,2025-09-19 07:47:46.908158
"KBKT","Blackstone/Perkinson(AAF), VA, US",2025-09-19 10:55:00,"2025-09-19 06:55:00","VFR",16.4,16.2,0,0,NA,6,1016.7,"METAR KBKT 191055Z AUTO 00000KT 6SM BR CLR 16/16 A3002 RMK AO2 SLP166 T01640162",2025-09-19 11:47:46.914901,2025-09-19 07:47:46.914944
"KBAD","Barksdale AFB, LA, US",2025-09-19 10:55:00,"2025-09-19 05:55:00","VFR",21.7,19.8,100,4,NA,NA,1016.3,"METAR KBAD 191055Z AUTO 10004KT 10SM FEW160 22/20 A3001 RMK AO2 SLP165 T02170198 $",2025-09-19 11:47:46.936049,2025-09-19 07:47:46.936099
"KBIX","Biloxi/Keesler AFB, MS, US",2025-09-19 10:55:00,"2025-09-19 05:55:00","VFR",21.8,19.7,0,0,NA,NA,1016,"METAR KBIX 191055Z AUTO 00000KT 10SM CLR 22/20 A3000 RMK AO2 SLP162 T02180197",2025-09-19 11:47:46.943714,2025-09-19 07:47:46.94376
"KBAB","Beale AFB, CA, US",2025-09-19 10:55:00,"2025-09-19 03:55:00","VFR",23,15.6,140,7,NA,NA,1009.9,"METAR KBAB 191055Z AUTO 14007KT 10SM FEW075 OVC110 23/16 A2982 RMK AO2 SLP100 T02300156 $",2025-09-19 11:47:46.95066,2025-09-19 07:47:46.950705
"KBIF","Biggs(AAF), TX, US",2025-09-19 10:55:00,"2025-09-19 04:55:00","VFR",20.8,16,350,8,NA,NA,1020.1,"METAR KBIF 191055Z AUTO 35008KT 10SM OVC065 21/16 A3012 RMK AO2 SLP141 T02080160 $",2025-09-19 11:47:46.957543,2025-09-19 07:47:46.957592
"KBFL","Bakersfield/Meadows Arpt, CA, US",2025-09-19 10:54:00,"2025-09-19 03:54:00","MVFR",20.6,18.9,0,0,NA,4,1011.3,"METAR KBFL 191054Z AUTO 00000KT 4SM BR BKN027 OVC110 21/19 A2986 RMK AO2 SLP107 T02060189",2025-09-19 11:47:46.964388,2025-09-19 07:47:46.964431
"KAUW","Wausau Downtown, WI, US",2025-09-19 10:54:00,"2025-09-19 05:54:00","IFR",16.1,14.4,90,6,NA,NA,1019.7,"METAR KAUW 191054Z AUTO 09006KT 10SM OVC009 16/14 A3011 RMK AO2 SLP197 T01610144",2025-09-19 11:47:46.971309,2025-09-19 07:47:46.971354
"KBOS","Boston/Logan Intl, MA, US",2025-09-19 10:54:00,"2025-09-19 06:54:00","VFR",18.9,12.8,280,9,NA,NA,1012.6,"METAR KBOS 191054Z 28009KT 10SM CLR 19/13 A2990 RMK AO2 SLP124 T01890128",2025-09-19 11:47:46.978069,2025-09-19 07:47:46.978114
"KBTV","Burlington Intl, VT, US",2025-09-19 10:54:00,"2025-09-19 06:54:00","VFR",15,7.8,20,7,NA,NA,1016.3,"METAR KBTV 191054Z 02007KT 10SM OVC031 15/08 A3001 RMK AO2 SLP162 T01500078",2025-09-19 11:47:46.984807,2025-09-19 07:47:46.984852
"KAVP","Wilkes-Barre Scranton Intl, PA, US",2025-09-19 10:54:00,"2025-09-19 06:54:00","VFR",12.2,10.6,190,3,NA,NA,1017.7,"METAR KAVP 191054Z 19003KT 10SM SCT040 12/11 A3005 RMK AO2 SLP170 T01220106",2025-09-19 11:47:46.991597,2025-09-19 07:47:46.991642
"KBRO","Brownsville Intl, TX, US",2025-09-19 10:53:00,"2025-09-19 05:53:00","MVFR",25.6,22.8,90,3,NA,3,1014,"METAR KBRO 191053Z 09003KT 3SM +RA OVC055 26/23 A2994 RMK AO2 RAB09 SLP138 P0014 T02560228",2025-09-19 11:47:46.998206,2025-09-19 07:47:46.998251
"KBBW","Broken Bow Muni, NE, US",2025-09-19 10:53:00,"2025-09-19 05:53:00","VFR",7.8,7.8,0,0,NA,NA,1017.7,"METAR KBBW 191053Z AUTO 00000KT 10SM CLR 08/08 A3005 RMK AO2 SLP170 T00780078",2025-09-19 11:47:47.005083,2025-09-19 07:47:47.005128
"KBKL","Cleveland/Burke Lakefront Arpt, OH, US",2025-09-19 10:53:00,"2025-09-19 06:53:00","VFR",20,15,0,0,NA,NA,1018.4,"METAR KBKL 191053Z 00000KT 10SM CLR 20/15 A3007 RMK AO2 SLP180 T02000150",2025-09-19 11:47:47.012022,2025-09-19 07:47:47.01207
"KBPT","Beaumont/SE Texas Rgnl, TX, US",2025-09-19 10:53:00,"2025-09-19 05:53:00","VFR",23.3,21.7,50,6,NA,NA,1015.7,"METAR KBPT 191053Z 05006KT 10SM FEW036 23/22 A2999 RMK AO2 SLP156 T02330217",2025-09-19 11:47:47.018922,2025-09-19 07:47:47.018969
"KBPK","Mountain Home/Baxter Cnty, AR, US",2025-09-19 10:53:00,"2025-09-19 05:53:00","VFR",17.2,15.6,160,3,NA,NA,1017.4,"METAR KBPK 191053Z AUTO 16003KT 10SM CLR 17/16 A3004 RMK AO2 SLP163 T01720156 PWINO",2025-09-19 11:47:47.025864,2025-09-19 07:47:47.025912
"KBNO","Burns Muni, OR, US",2025-09-19 10:53:00,"2025-09-19 03:53:00","VFR",10.6,0,270,5,NA,NA,1015.7,"METAR KBNO 191053Z AUTO 27005KT 10SM CLR 11/00 A2999 RMK AO2 SLP119 T01060000",2025-09-19 11:47:47.032699,2025-09-19 07:47:47.032745
"KBTL","Battle Creek/Kellogg Fld Arpt, MI, US",2025-09-19 10:53:00,"2025-09-19 06:53:00","VFR",16.7,16.1,90,4,NA,NA,1019.4,"METAR KBTL 191053Z 09004KT 10SM CLR 17/16 A3010 RMK AO2 SLP186 T01670161",2025-09-19 11:47:47.039521,2025-09-19 07:47:47.039569
"KBAF","Westfield/Barnes Muni, MA, US",2025-09-19 10:53:00,"2025-09-19 06:53:00","VFR",12.2,11.7,0,0,NA,NA,1014,"METAR KBAF 191053Z 00000KT 10SM CLR 12/12 A2994 RMK AO2 SLP140 T01220117 $",2025-09-19 11:47:47.046321,2025-09-19 07:47:47.046366
"KAUS","Austin/Bergstrom Intl, TX, US",2025-09-19 10:53:00,"2025-09-19 05:53:00","VFR",22.2,20,0,0,NA,NA,1016.3,"METAR KAUS 191053Z 00000KT 10SM FEW120 SCT250 22/20 A3001 RMK AO2 SLP149 T02220200",2025-09-19 11:47:47.053085,2025-09-19 07:47:47.053129
"KBKE","Baker Muni, OR, US",2025-09-19 10:53:00,"2025-09-19 03:53:00","VFR",8.3,6.7,320,3,NA,NA,1015.3,"METAR KBKE 191053Z AUTO 32003KT 10SM FEW120 08/07 A2998 RMK AO2 SLP131 T00830067",2025-09-19 11:47:47.059983,2025-09-19 07:47:47.060028
"KBIL","Billings/Logan Intl, MT, US",2025-09-19 10:53:00,"2025-09-19 04:53:00","VFR",11.1,7.8,240,5,NA,NA,1018.4,"METAR KBIL 191053Z 24005KT 10SM CLR 11/08 A3007 RMK AO2 SLP163 T01110078",2025-09-19 11:47:47.08041,2025-09-19 07:47:47.080456
"KBOI","Boise Arpt, ID, US",2025-09-19 10:53:00,"2025-09-19 04:53:00","VFR",17.2,4.4,120,4,NA,NA,1013.3,"METAR KBOI 191053Z 12004KT 10SM CLR 17/04 A2992 RMK AO2 SLP103 T01720044",2025-09-19 11:47:47.087942,2025-09-19 07:47:47.087985
"KBFM","Mobile/Downtown Arpt, AL, US",2025-09-19 10:53:00,"2025-09-19 05:53:00","VFR",20.6,20,320,3,NA,NA,1017.4,"METAR KBFM 191053Z 32003KT 10SM CLR 21/20 A3004 RMK AO2 SLP171 T02060200",2025-09-19 11:47:47.094828,2025-09-19 07:47:47.094874
"KBPI","Big Piney Arpt, WY, US",2025-09-19 10:53:00,"2025-09-19 04:53:00","VFR",2.2,-2.2,0,0,NA,NA,1023.5,"METAR KBPI 191053Z AUTO 00000KT 10SM CLR 02/M02 A3022 RMK AO2 SLP164 T00221022",2025-09-19 11:47:47.101624,2025-09-19 07:47:47.101669
"KBNA","Nashville Intl, TN, US",2025-09-19 10:53:00,"2025-09-19 05:53:00","VFR",17.8,15,0,0,NA,NA,1018,"METAR KBNA 191053Z 00000KT 10SM CLR 18/15 A3006 RMK AO2 SLP171 T01780150",2025-09-19 11:47:47.108413,2025-09-19 07:47:47.108461
"KBMQ","Burnet Muni, TX, US",2025-09-19 10:53:00,"2025-09-19 10:53:00","VFR",22.2,18.3,0,0,NA,NA,1017.7,"METAR KBMQ 191053Z AUTO 00000KT 10SM CLR 22/18 A3005 RMK AO2 SLP157 T02220183",2025-09-19 11:47:47.115159,2025-09-19 07:47:47.115204
"KBEH","Benton Harbor/SW Michigan Rgnl, MI, US",2025-09-19 10:53:00,"2025-09-19 06:53:00","VFR",15,15,0,0,NA,7,1018,"METAR KBEH 191053Z AUTO 00000KT 7SM CLR 15/15 A3006 RMK AO2 SLP176 T01500150",2025-09-19 11:47:47.121805,2025-09-19 07:47:47.121849
"KBRL","Burlington/SE Iowa Rgnl, IA, US",2025-09-19 10:53:00,"2025-09-19 05:53:00","VFR",17.8,17.8,0,0,NA,8,1016.3,"METAR KBRL 191053Z AUTO 00000KT 8SM BKN080 18/18 A3001 RMK AO2 SLP158 T01780178",2025-09-19 11:47:47.128356,2025-09-19 07:47:47.128398
"KBCT","Boca Raton Arpt, FL, US",2025-09-19 10:53:00,"2025-09-19 06:53:00","VFR",25,23,0,0,NA,NA,1013.3,"METAR KBCT 191053Z 00000KT 10SM CLR 25/23 A2992",2025-09-19 11:47:47.135025,2025-09-19 07:47:47.135069
"KBMG","Bloomington/Monroe Cnty, IN, US",2025-09-19 10:53:00,"2025-09-19 06:53:00","VFR",13.9,12.8,0,0,NA,8,1017.7,"METAR KBMG 191053Z 00000KT 8SM CLR 14/13 A3005 RMK AO2 SLP170 T01390128",2025-09-19 11:47:47.141607,2025-09-19 07:47:47.14165
"KAZO","Kalamazoo Intl, MI, US",2025-09-19 10:53:00,"2025-09-19 06:53:00","VFR",15,15,0,0,NA,NA,1019,"METAR KAZO 191053Z 00000KT 10SM CLR 15/15 A3009 RMK AO2 SLP187 T01500150",2025-09-19 11:47:47.148186,2025-09-19 07:47:47.148231
"KBTM","Butte/Mooney Arpt, MT, US",2025-09-19 10:53:00,"2025-09-19 04:53:00","VFR",5,2.2,130,3,NA,NA,1021.1,"METAR KBTM 191053Z AUTO 13003KT 10SM CLR 05/02 A3015 RMK AO2 SLP171 T00500022",2025-09-19 11:47:47.154772,2025-09-19 07:47:47.154818
"KBTR","Baton Rouge/Ryan Fld, LA, US",2025-09-19 10:53:00,"2025-09-19 05:53:00","VFR",19.4,18.9,30,3,NA,8,1017,"METAR KBTR 191053Z 03003KT 8SM CLR 19/19 A3003 RMK AO2 SLP168 T01940189",2025-09-19 11:47:47.161249,2025-09-19 07:47:47.161293
"KBCE","Bryce Canyon Arpt, UT, US",2025-09-19 10:53:00,"2025-09-19 04:53:00","VFR",10.6,1.7,60,4,NA,NA,1024.5,"METAR KBCE 191053Z AUTO 06004KT 10SM OVC090 11/02 A3025 RMK AO2 SLP128 T01060017",2025-09-19 11:47:47.1679,2025-09-19 07:47:47.167943
"KBDE","Baudette Intl, MN, US",2025-09-19 10:53:00,"2025-09-19 05:53:00","MVFR",15,12.8,100,8,NA,NA,1018.7,"METAR KBDE 191053Z AUTO 10008KT 10SM BKN018 BKN028 OVC040 15/13 A3008 RMK AO2 SLP189 T01500128 $",2025-09-19 11:47:47.174546,2025-09-19 07:47:47.174593
"KBFI","Seattle/Boeing Fld, WA, US",2025-09-19 10:53:00,"2025-09-19 03:53:00","VFR",12.8,10.6,0,0,NA,NA,1016,"METAR KBFI 191053Z 00000KT 10SM CLR 13/11 A3000 RMK AO2 SLP158 T01280106",2025-09-19 11:47:47.181234,2025-09-19 07:47:47.181278
"KBIV","Holland/Tulip City Arpt, MI, US",2025-09-19 10:53:00,"2025-09-19 10:53:00",NA,16.7,15.6,90,4,NA,NA,1018.7,"METAR KBIV 191053Z AUTO 09004KT CLR 17/16 A3008 RMK AO2 SLP184 T01670156",2025-09-19 11:47:47.187802,2025-09-19 07:47:47.187845
"KBGR","Bangor Intl Arpt, ME, US",2025-09-19 10:53:00,"2025-09-19 06:53:00","VFR",15,13.3,0,0,NA,NA,1010.6,"METAR KBGR 191053Z 00000KT 10SM FEW026 SCT090 15/13 A2984 RMK AO2 SLP102 T01500133",2025-09-19 11:47:47.194407,2025-09-19 07:47:47.194453
"KBHM","Birmingham Intl, AL, US",2025-09-19 10:53:00,"2025-09-19 05:53:00","VFR",20,17.2,0,0,NA,NA,1017.7,"METAR KBHM 191053Z 00000KT 10SM CLR 20/17 A3005 RMK AO2 SLP166 T02000172",2025-09-19 11:47:47.201241,2025-09-19 07:47:47.201285
"KBFF","Scottsbluff/Western Nebraska Rgnl, NE, US",2025-09-19 10:53:00,"2025-09-19 04:53:00","VFR",9.4,8.3,30,10,NA,NA,1018.4,"METAR KBFF 191053Z AUTO 03010KT 10SM CLR 09/08 A3007 RMK AO2 SLP155 T00940083",2025-09-19 11:47:47.220961,2025-09-19 07:47:47.221012
"KBLF","Bluefield/Mercer Cnty, WV, US",2025-09-19 10:52:00,"2025-09-19 06:52:00","VFR",13.3,11.1,260,3,NA,NA,1021.8,"METAR KBLF 191052Z AUTO 26003KT 10SM CLR 13/11 A3017 RMK AO2 SLP189 T01330111",2025-09-19 11:47:47.228337,2025-09-19 07:47:47.228385
"KBML","Berlin Muni, NH, US",2025-09-19 10:52:00,"2025-09-19 06:52:00","MVFR",13.9,8.9,350,6,NA,NA,1014,"METAR KBML 191052Z AUTO 35006KT 10SM BKN020 OVC026 14/09 A2994 RMK AO2 SLP139 T01390089 $",2025-09-19 11:47:47.23509,2025-09-19 07:47:47.235135
"KBDR","Bridgeport/Sikorsky Mem, CT, US",2025-09-19 10:52:00,"2025-09-19 06:52:00","VFR",16.7,13.3,0,0,NA,NA,1014.3,"METAR KBDR 191052Z 00000KT 10SM CLR 17/13 A2995 RMK AO2 SLP141 T01670133 $",2025-09-19 11:47:47.241728,2025-09-19 07:47:47.241773
"KBIS","Bismarck Arpt, ND, US",2025-09-19 10:52:00,"2025-09-19 05:52:00","IFR",12.8,12.2,340,8,NA,NA,1016.7,"METAR KBIS 191052Z 34008KT 10SM OVC007 13/12 A3002 RMK AO2 RAE28 SLP168 P0003 T01280122",2025-09-19 11:47:47.248863,2025-09-19 07:47:47.248911
"KBLH","Blythe Arpt, CA, US",2025-09-19 10:52:00,"2025-09-19 03:52:00","VFR",23.3,20.6,0,0,NA,NA,1010.6,"METAR KBLH 191052Z AUTO 00000KT 10SM SCT120 23/21 A2984 RMK AO2 SLP099 T02330206",2025-09-19 11:47:47.255963,2025-09-19 07:47:47.256011
"KBLU","Blue Canyon/Nyack Arpt, CA, US",2025-09-19 10:52:00,"2025-09-19 03:52:00","VFR",13.9,6.7,0,0,NA,NA,1017.7,"METAR KBLU 191052Z AUTO 00000KT 10SM FEW080 OVC100 14/07 A3005 RMK AO2 SLP094 T01390067",2025-09-19 11:47:47.26309,2025-09-19 07:47:47.263138
"KATL","Atlanta/Hartsfield-Jackson Intl, GA, US",2025-09-19 10:52:00,"2025-09-19 06:52:00","VFR",22.8,18.3,50,6,NA,8,1018,"METAR KATL 191052Z 05006KT 8SM CLR 23/18 A3006 RMK AO2 SLP166 T02280183 $",2025-09-19 11:47:47.270018,2025-09-19 07:47:47.270061
"KBKW","Beckley/Raleigh Cnty, WV, US",2025-09-19 10:51:00,"2025-09-19 06:51:00","VFR",12.8,10,0,0,NA,NA,1021.1,"METAR KBKW 191051Z AUTO 00000KT 10SM CLR 13/10 A3015 RMK AO2 SLP184 T01280100",2025-09-19 11:47:47.277188,2025-09-19 07:47:47.277234
"KBED","Bedford/Hanscom Fld, MA, US",2025-09-19 10:51:00,"2025-09-19 06:51:00","VFR",13.3,12.2,260,5,NA,NA,1012.6,"METAR KBED 191051Z 26005KT 10SM CLR 13/12 A2990 RMK AO2 SLP136 T01330122",2025-09-19 11:47:47.284202,2025-09-19 07:47:47.284246
"KBDL","Hartford/Bradley Intl, CT, US",2025-09-19 10:51:00,"2025-09-19 06:51:00","VFR",12.8,11.7,40,4,NA,NA,1014,"METAR KBDL 191051Z 04004KT 10SM FEW050 FEW250 13/12 A2994 RMK AO2 SLP138 T01280117 $",2025-09-19 11:47:47.291242,2025-09-19 07:47:47.291287
"KAVX","Avalon/Catalina Arpt, CA, US",2025-09-19 10:51:00,"2025-09-19 03:51:00","VFR",16.7,16.1,0,0,NA,NA,1013.3,"METAR KAVX 191051Z AUTO 00000KT 10SM CLR 17/16 A2992 RMK AO2 SLP111 T01670161",2025-09-19 11:47:47.298136,2025-09-19 07:47:47.298182
"KBGD","Borger/Hutchinson Cnty, TX, US",2025-09-19 10:51:00,"2025-09-19 05:51:00","VFR",17.2,15,0,0,NA,NA,1019.7,"METAR KBGD 191051Z AUTO 00000KT 10SM CLR 17/15 A3011 RMK AO2 SLP162 T01720150",2025-09-19 11:47:47.305023,2025-09-19 07:47:47.305069
"KBAZ","New Braunfels Muni, TX, US",2025-09-19 10:51:00,"2025-09-19 10:51:00","VFR",21.1,19.4,0,0,NA,NA,1016,"METAR KBAZ 191051Z AUTO 00000KT 10SM CLR 21/19 A3000 RMK AO2 SLP148 T02110194",2025-09-19 11:47:47.311901,2025-09-19 07:47:47.311947
"KBAK","Columbus Muni, IN, US",2025-09-19 10:45:00,"2025-09-19 06:45:00","VFR",12,12,0,0,NA,NA,1017.7,"METAR KBAK 191045Z 00000KT 10SM FEW150 12/12 A3005",2025-09-19 11:47:47.31898,2025-09-19 07:47:47.319026
"KBVX","Batesville Rgnl, AR, US",2025-09-19 11:46:00,"2025-09-19 06:46:00","VFR",19,17,80,8,NA,NA,1016.7,"SPECI KBVX 191146Z AUTO 08008KT 10SM FEW085 SCT120 19/17 A3002 RMK AO2 LTG DSNT N-SE TSE40RAB13E23 P0001",2025-09-19 11:47:48.908039,2025-09-19 07:47:48.908088
"KCEC","Crescent City/McNama, CA, US",2025-09-19 11:43:00,"2025-09-19 04:43:00","IFR",14.4,13.9,340,4,NA,2.5,1010.2,"SPECI KCEC 191143Z AUTO 34004KT 2 1/2SM BR OVC005 14/14 A2983 RMK AO2 LTG DSNT NW T01440139",2025-09-19 11:47:48.915091,2025-09-19 07:47:48.915133
"KCGI","Cape Girardeau Rgnl, MO, US",2025-09-19 11:38:00,"2025-09-19 06:38:00","VFR",21.1,16.1,20,3,NA,NA,1015.7,"SPECI KCGI 191138Z 02003KT 10SM VCTS CLR 21/16 A2999 RMK AO2 LTG DSNT SW AND W T02110161",2025-09-19 11:47:48.92202,2025-09-19 07:47:48.922068
"KCBE","Cumberland Arpt, MD, US",2025-09-19 11:35:00,"2025-09-19 07:35:00","VFR",11.8,11,0,0,NA,NA,1020.4,"METAR KCBE 191135Z AUTO 00000KT 10SM CLR 12/11 A3013 RMK AO2 T01180110",2025-09-19 11:47:48.929314,2025-09-19 07:47:48.929361
"KCGE","Cambridge/Dorchester Rgnl, MD, US",2025-09-19 11:35:00,"2025-09-19 07:35:00","LIFR",16,16,0,0,NA,0.25,1016.3,"METAR KCGE 191135Z AUTO 00000KT M1/4SM FG VV000 16/16 A3001 RMK A01",2025-09-19 11:47:48.936413,2025-09-19 07:47:48.936457
"KC08","Westcliffe/Silver West Arpt, CO, US",2025-09-19 11:35:00,"2025-09-19 11:35:00","VFR",0,-1,0,0,NA,NA,1026.8,"METAR KC08 191135Z AUTO 00000KT 10SM SCT038 BKN047 00/M01 A3032 RMK AO2",2025-09-19 11:47:48.943317,2025-09-19 07:47:48.943362
"KCEY","Murray/Oakley Fld, KY, US",2025-09-19 11:35:00,"2025-09-19 06:35:00","VFR",18,16,0,0,NA,NA,1017.4,"METAR KCEY 191135Z AUTO 00000KT 10SM CLR 18/16 A3004 RMK A01",2025-09-19 11:47:48.950123,2025-09-19 07:47:48.950169
"KCCO","Newnan/Coweta Cnty, GA, US",2025-09-19 11:35:00,"2025-09-19 11:35:00","VFR",18.8,17.7,0,0,NA,NA,1019,"METAR KCCO 191135Z AUTO 00000KT 10SM CLR 19/18 A3009 RMK AO2 T01880177",2025-09-19 11:47:48.956869,2025-09-19 07:47:48.956915
"KCCA","Clinton Muni, AR, US",2025-09-19 11:35:00,"2025-09-19 11:35:00","VFR",19,18,0,0,NA,NA,1017.7,"METAR KCCA 191135Z AUTO 00000KT 10SM FEW110 19/18 A3005 RMK AO2 LTG DSNT E",2025-09-19 11:47:48.963741,2025-09-19 07:47:48.963792
"KC83","Byron Arpt, CA, US",2025-09-19 11:35:00,"2025-09-19 11:35:00","VFR",19,15,290,4,NA,NA,1010.9,"METAR KC83 191135Z AUTO 29004KT 10SM OVC100 19/15 A2985 RMK AO2",2025-09-19 11:47:48.970705,2025-09-19 07:47:48.970764
"KCBF","Council Bluffs Muni, IA, US",2025-09-19 11:35:00,"2025-09-19 06:35:00","VFR",16,16,270,8,NA,9,1015.3,"METAR KCBF 191135Z AUTO 27008KT 9SM CLR 16/16 A2998 RMK AO2",2025-09-19 11:47:48.977545,2025-09-19 07:47:48.97759
"KCAD","Cadillac/Wexford Cnty, MI, US",2025-09-19 11:35:00,"2025-09-19 07:35:00","VFR",16,15,100,5,NA,NA,1020.7,"METAR KCAD 191135Z AUTO 10005KT 10SM FEW021 BKN085 16/15 A3014 RMK AO2",2025-09-19 11:47:48.98438,2025-09-19 07:47:48.984426
"KCKC","Grand Marais Muni, MN, US",2025-09-19 11:35:00,"2025-09-19 06:35:00","MVFR",10,8,60,8,NA,NA,1021.4,"METAR KCKC 191135Z AUTO 06008KT 10SM BKN028 OVC060 10/08 A3016 RMK AO2",2025-09-19 11:47:48.991285,2025-09-19 07:47:48.99133
"KCGC","Crystal River Arpt, FL, US",2025-09-19 11:35:00,"2025-09-19 11:35:00","IFR",18,17,0,0,NA,2.5,1016.7,"METAR KCGC 191135Z AUTO 00000KT 2 1/2SM SCT002 18/17 A3002 RMK AO2",2025-09-19 11:47:48.998142,2025-09-19 07:47:48.998186
"KCKZ","Perkasie/Pennridge Arpt, PA, US",2025-09-19 11:35:00,"2025-09-19 11:35:00","VFR",14,14,0,0,NA,NA,1016.7,"METAR KCKZ 191135Z AUTO 00000KT 10SM CLR 14/14 A3002 RMK AO2",2025-09-19 11:47:49.005181,2025-09-19 07:47:49.005225
"KCLW","Clearwater Air Park, FL, US",2025-09-19 11:35:00,"2025-09-19 07:35:00","VFR",22,21,0,0,NA,NA,1016,"METAR KCLW 191135Z AUTO 00000KT 10SM CLR 22/21 A3000 RMK AO2",2025-09-19 11:47:49.012303,2025-09-19 07:47:49.01235
"KC35","Reedsburg Muni, WI, US",2025-09-19 11:35:00,"2025-09-19 11:35:00","VFR",18,17.4,80,3,NA,7,1018.4,"METAR KC35 191135Z AUTO 08003KT 7SM SCT095 18/17 A3007 RMK AO2 T01800174 PWINO",2025-09-19 11:47:49.019303,2025-09-19 07:47:49.019347
"KCBK","Colby/Shaltz Fld, KS, US",2025-09-19 11:35:00,"2025-09-19 06:35:00","VFR",10.2,9.7,190,5,NA,NA,1018.7,"METAR KCBK 191135Z AUTO 19005KT 10SM CLR 10/10 A3008 RMK AO2 T01020097",2025-09-19 11:47:49.026327,2025-09-19 07:47:49.026371
"KBXA","Bogalusa/Carr Arfld, LA, US",2025-09-19 11:35:00,"2025-09-19 06:35:00","VFR",17.2,16.1,0,0,NA,NA,1017.7,"METAR KBXA 191135Z AUTO 00000KT 10SM CLR 17/16 A3005 RMK AO2 T01720161",2025-09-19 11:47:49.046686,2025-09-19 07:47:49.046753
"KBXK","Buckeye Muni, AZ, US",2025-09-19 11:35:00,"2025-09-19 04:35:00","VFR",26,20,90,9,NA,NA,1011.6,"METAR KBXK 191135Z AUTO 09009KT 10SM SCT080 26/20 A2987 RMK AO2 LTG DSNT NE",2025-09-19 11:47:49.05627,2025-09-19 07:47:49.056318
"KCFS","Tuscola Area Arpt, MI, US",2025-09-19 11:35:00,"2025-09-19 07:35:00","VFR",17,16,70,6,NA,8,1020.4,"METAR KCFS 191135Z AUTO 07006KT 8SM OVC075 17/16 A3013 RMK AO2",2025-09-19 11:47:49.065219,2025-09-19 07:47:49.065266
"KCHD","Chandler Muni, AZ, US",2025-09-19 11:35:00,"2025-09-19 11:35:00","VFR",26.1,18.5,360,7,NA,NA,1012.6,"METAR KCHD 191135Z AUTO 36007KT 10SM FEW090 BKN150 26/18 A2990 RMK AO2 LTG DSNT N AND NE T02610185",2025-09-19 11:47:49.073104,2025-09-19 07:47:49.07315
"KCKM","Clarksdale/Fletcher Fld, MS, US",2025-09-19 11:35:00,"2025-09-19 06:35:00",NA,NA,NA,0,0,NA,NA,1016.3,"METAR KCKM 191135Z AUTO 00000KT 10SM A3001 RMK A01",2025-09-19 11:47:49.080853,2025-09-19 07:47:49.080903
"KCMR","Williams/Clark Fld, AZ, US",2025-09-19 11:35:00,"2025-09-19 11:35:00","VFR",12,9,140,7,NA,NA,1023.1,"METAR KCMR 191135Z AUTO 14007KT 10SM OVC080 12/09 A3021 RMK AO2",2025-09-19 11:47:49.088289,2025-09-19 07:47:49.088342
"KC75","Lacon/Marshall Cnty, IL, US",2025-09-19 11:35:00,"2025-09-19 11:35:00","VFR",17.5,14.7,0,0,NA,NA,1016.3,"METAR KC75 191135Z AUTO 00000KT 10SM CLR 18/15 A3001 RMK AO2 T01750147",2025-09-19 11:47:49.095668,2025-09-19 07:47:49.095717
"KCLS","Chehalis-Centralia Arpt, WA, US",2025-09-19 11:35:00,"2025-09-19 04:35:00","VFR",9,9,0,0,NA,8,1016,"METAR KCLS 191135Z AUTO 00000KT 8SM BKN043 09/09 A3000 RMK AO2",2025-09-19 11:47:49.103007,2025-09-19 07:47:49.103055
"KCDI","Cambridg Muni, OH, US",2025-09-19 11:35:00,"2025-09-19 11:35:00","VFR",8.7,8.7,0,0,NA,NA,1019.7,"METAR KCDI 191135Z AUTO 00000KT 10SM CLR 09/09 A3011 RMK AO2 T00870087",2025-09-19 11:47:49.11036,2025-09-19 07:47:49.110408
"KCFD","Bryan/Coulter Fld, TX, US",2025-09-19 11:35:00,"2025-09-19 06:35:00","VFR",21.3,20.6,0,0,NA,NA,1017.4,"METAR KCFD 191135Z AUTO 00000KT 10SM CLR 21/21 A3004 RMK AO2 T02130206",2025-09-19 11:47:49.117701,2025-09-19 07:47:49.117752
"KC65","Plymouth Muni, IN, US",2025-09-19 11:35:00,"2025-09-19 07:35:00","VFR",14,14,0,0,NA,6,1018.4,"METAR KC65 191135Z AUTO 00000KT 6SM BR CLR 14/14 A3007 RMK A01",2025-09-19 11:47:49.124972,2025-09-19 07:47:49.125017
"KC29","Middleton Muni, WI, US",2025-09-19 11:35:00,"2025-09-19 11:35:00","MVFR",18.1,16.5,0,0,NA,4,1018.4,"METAR KC29 191135Z AUTO 00000KT 4SM SCT009 BKN085 18/17 A3007 RMK AO1 T01810165",2025-09-19 11:47:49.132232,2025-09-19 07:47:49.132277
"KC09","Morris Muni, IL, US",2025-09-19 11:35:00,"2025-09-19 11:35:00","VFR",14.7,14.5,0,0,NA,NA,1016.7,"METAR KC09 191135Z AUTO 00000KT 10SM CLR 15/15 A3002 RMK AO2 T01470145",2025-09-19 11:47:49.139676,2025-09-19 07:47:49.139726
"KBUU","Burlington Muni, WI, US",2025-09-19 11:35:00,"2025-09-19 11:35:00","MVFR",17.3,16.6,0,0,NA,4,1018,"METAR KBUU 191135Z AUTO 00000KT 4SM CLR 17/17 A3006 RMK AO2 T01730166 PWINO",2025-09-19 11:47:49.146972,2025-09-19 07:47:49.147018
"KCGS","College Park Arpt, MD, US",2025-09-19 11:35:00,"2025-09-19 07:35:00","VFR",15.9,15.6,0,0,NA,NA,1016.7,"METAR KCGS 191135Z AUTO 00000KT 10SM CLR 16/16 A3002 RMK AO2 T01590156",2025-09-19 11:47:49.154322,2025-09-19 07:47:49.15437
"KCBG","Cambridge Muni, MN, US",2025-09-19 11:35:00,"2025-09-19 11:35:00","LIFR",18.1,17.8,80,4,NA,NA,1016,"METAR KCBG 191135Z AUTO 08004KT 10SM BKN003 BKN046 OVC055 18/18 A3000 RMK AO2 CIG 002V005 T01810178",2025-09-19 11:47:49.161741,2025-09-19 07:47:49.161787
"KCFE","Buffalo Muni, MN, US",2025-09-19 11:35:00,"2025-09-19 11:35:00","VFR",19,19,120,6,NA,7,1015,"METAR KCFE 191135Z AUTO 12006KT 7SM FEW014 BKN065 OVC085 19/19 A2997 RMK AO2",2025-09-19 11:47:49.16903,2025-09-19 07:47:49.169075
"KCNB","Canby Muni, MN, US",2025-09-19 11:35:00,"2025-09-19 11:35:00","MVFR",17.2,16.7,0,0,NA,4,1013.6,"METAR KCNB 191135Z AUTO 00000KT 4SM -DZ OVC065 17/17 A2993 RMK AO2 P0001 T01720167",2025-09-19 11:47:49.176262,2025-09-19 07:47:49.176307
"KBYS","Bicycle Lake (AAF), CA, US",2025-09-19 11:35:00,"2025-09-19 04:35:00","MVFR",19,19,10,3,NA,9,1013.6,"SPECI KBYS 191135Z AUTO 01003KT 9SM BKN029 OVC034 19/19 A2993 RMK AO2 SLP115 $",2025-09-19 11:47:49.183298,2025-09-19 07:47:49.183343
"KCKF","Cordele/Crisp Cnty, GA, US",2025-09-19 11:35:00,"2025-09-19 11:35:00","VFR",NA,NA,0,0,NA,7,1017.4,"METAR KCKF 191135Z AUTO 00000KT 7SM CLR A3004 RMK AO2",2025-09-19 11:47:49.20386,2025-09-19 07:47:49.203907
"KCIC","Chico Muni, CA, US",2025-09-19 11:35:00,"2025-09-19 04:35:00","VFR",23,13,130,12,NA,NA,1011.3,"METAR KCIC 191135Z AUTO 13012KT 10SM CLR 23/13 A2986 RMK AO1",2025-09-19 11:47:49.211652,2025-09-19 07:47:49.2117
"KCKI","Kingstree/Williamsburg Rgnl, SC, US",2025-09-19 11:35:00,"2025-09-19 11:35:00","VFR",17,16,0,0,NA,7,1017.7,"METAR KCKI 191135Z AUTO 00000KT 7SM CLR 17/16 A3005 RMK AO2",2025-09-19 11:47:49.218581,2025-09-19 07:47:49.218626
"KCKN","Crookston Muni, MN, US",2025-09-19 11:35:00,"2025-09-19 06:35:00","VFR",16,14,80,7,NA,NA,1016,"METAR KCKN 191135Z AUTO 08007KT 10SM -DZ BKN100 16/14 A3000 RMK AO2",2025-09-19 11:47:49.225401,2025-09-19 07:47:49.225447
"KCHK","Chickasha Muni, OK, US",2025-09-19 11:35:00,"2025-09-19 06:35:00","VFR",17.7,17.3,350,6,NA,NA,1017.7,"METAR KCHK 191135Z AUTO 35006KT 10SM BKN095 OVC120 18/17 A3005 RMK AO2 T01770173",2025-09-19 11:47:49.232575,2025-09-19 07:47:49.232623
"KBVS","Burlington/Skagit Rgnl, WA, US",2025-09-19 11:35:00,"2025-09-19 04:35:00","LIFR",9,9,0,0,NA,0.75,1016.7,"METAR KBVS 191135Z AUTO 00000KT 3/4SM BR OVC050 09/09 A3002 RMK A01 VIS 1/4V5",2025-09-19 11:47:49.239702,2025-09-19 07:47:49.239747
"KCJR","Culpeper Rgnl, VA, US",2025-09-19 11:35:00,"2025-09-19 11:35:00","LIFR",13.4,12.6,0,0,NA,0.25,1017.4,"METAR KCJR 191135Z AUTO 00000KT 1/4SM FG VV002 13/13 A3004 RMK AO2 T01340126",2025-09-19 11:47:49.246771,2025-09-19 07:47:49.246818
"KCFJ","Crawfordsville Muni, IN, US",2025-09-19 11:35:00,"2025-09-19 11:35:00","VFR",11.2,10.1,0,0,NA,NA,1018,"METAR KCFJ 191135Z AUTO 00000KT 10SM CLR 11/10 A3006 RMK AO2 T01120101",2025-09-19 11:47:49.25371,2025-09-19 07:47:49.253757
"KBWW","Bowman Rgnl, ND, US",2025-09-19 11:35:00,"2025-09-19 05:35:00","IFR",12,12,340,5,NA,7,1019,"METAR KBWW 191135Z AUTO 34005KT 7SM OVC007 12/12 A3009 RMK AO2",2025-09-19 11:47:49.260617,2025-09-19 07:47:49.260662
"KBVN","Albion Muni, NE, US",2025-09-19 11:35:00,"2025-09-19 11:35:00","MVFR",13.4,11.7,0,0,NA,NA,1016.3,"METAR KBVN 191135Z AUTO 00000KT 10SM OVC022 13/12 A3001 RMK AO2 T01340117",2025-09-19 11:47:49.267708,2025-09-19 07:47:49.267755
"KCAV","Clarion Muni, IA, US",2025-09-19 11:35:00,"2025-09-19 11:35:00","IFR",18,18,160,7,NA,3,1015,"METAR KCAV 191135Z AUTO 16007KT 3SM BR BKN007 OVC019 18/18 A2997 RMK A01",2025-09-19 11:47:49.274841,2025-09-19 07:47:49.274885
"KBWP","Breckenridge-Wahpeton/Stern Arpt, ND, US",2025-09-19 11:35:00,"2025-09-19 06:35:00","VFR",17,17,80,6,NA,9,1013.6,"METAR KBWP 191135Z AUTO 08006KT 9SM -RA FEW050 FEW060 OVC075 17/17 A2993 RMK AO2",2025-09-19 11:47:49.28174,2025-09-19 07:47:49.281786
"KCLK","Clinton Rgnl, OK, US",2025-09-19 11:35:00,"2025-09-19 06:35:00","VFR",17,16,0,0,NA,NA,1019.4,"METAR KCLK 191135Z AUTO 00000KT 10SM BKN065 BKN080 17/16 A3010 RMK AO2",2025-09-19 11:47:49.288756,2025-09-19 07:47:49.288802
"KCIR","Cairo Rgnl, IL, US",2025-09-19 11:35:00,"2025-09-19 06:35:00","VFR",21.5,17.1,70,5,NA,NA,1016.3,"METAR KCIR 191135Z AUTO 07005KT 10SM CLR 22/17 A3001 RMK AO2 T02150171",2025-09-19 11:47:49.295743,2025-09-19 07:47:49.29579
"KCIN","Carroll/Neu Arpt, IA, US",2025-09-19 11:35:00,"2025-09-19 06:35:00","MVFR",17,17,180,4,NA,4,1015,"METAR KCIN 191135Z AUTO 18004KT 4SM BR SCT018 OVC065 17/17 A2997 RMK AO2",2025-09-19 11:47:49.302563,2025-09-19 07:47:49.302609
"KBWD","Brownwood Muni, TX, US",2025-09-19 11:35:00,"2025-09-19 06:35:00","VFR",18.1,14.8,0,0,NA,NA,1017.4,"METAR KBWD 191135Z AUTO 00000KT 10SM CLR 18/15 A3004 RMK AO2 T01810148 $",2025-09-19 11:47:49.309606,2025-09-19 07:47:49.309653
"KBYY","Bay City Muni, TX, US",2025-09-19 11:35:00,"2025-09-19 06:35:00","VFR",20.4,20.4,10,3,NA,7,1014.3,"METAR KBYY 191135Z AUTO 01003KT 7SM CLR 20/20 A2995 RMK AO2 T02040204",2025-09-19 11:47:49.316423,2025-09-19 07:47:49.316468
"KCDH","Camden/Harrell Fld, AR, US",2025-09-19 11:35:00,"2025-09-19 06:35:00","MVFR",20,19,0,0,NA,4,1016.3,"METAR KCDH 191135Z AUTO 00000KT 4SM BR CLR 20/19 A3001 RMK AO2",2025-09-19 11:47:49.323307,2025-09-19 07:47:49.323351
"KCLI","Clintonville Muni, WI, US",2025-09-19 11:35:00,"2025-09-19 06:35:00","IFR",15.7,14.6,70,4,NA,NA,1020.7,"METAR KCLI 191135Z AUTO 07004KT 10SM OVC007 16/15 A3014 RMK AO2 T01570146",2025-09-19 11:47:49.330276,2025-09-19 07:47:49.330323
"KCMD","Culman Rgnl, AL, US",2025-09-19 11:35:00,"2025-09-19 11:35:00","VFR",17,17,40,3,NA,NA,1018.4,"METAR KCMD 191135Z AUTO 04003KT 10SM CLR 17/17 A3007 RMK AO2",2025-09-19 11:47:49.350537,2025-09-19 07:47:49.35059
"KCDN","Camden/Woodward Fld, SC, US",2025-09-19 11:35:00,"2025-09-19 07:35:00","VFR",18,17,0,0,NA,9,1018,"METAR KCDN 191135Z AUTO 00000KT 9SM CLR 18/17 A3006 RMK AO2",2025-09-19 11:47:49.358021,2025-09-19 07:47:49.358066
"KCCY","Charles City/NE Iowa Rgnl, IA, US",2025-09-19 11:35:00,"2025-09-19 06:35:00","VFR",17,17,140,3,NA,9,1016,"METAR KCCY 191135Z AUTO 14003KT 9SM SCT075 BKN085 BKN110 17/17 A3000 RMK AO2",2025-09-19 11:47:49.364853,2025-09-19 07:47:49.364896
"KBXM","Brunswick Exec, ME, US",2025-09-19 11:35:00,"2025-09-19 07:35:00","VFR",16,16,0,0,NA,NA,1012.3,"METAR KBXM 191135Z AUTO 00000KT 10SM CLR 16/16 A2989 RMK AO2",2025-09-19 11:47:49.371689,2025-09-19 07:47:49.371735
"KCKP","Cherokee Cnty, IA, US",2025-09-19 11:35:00,"2025-09-19 11:35:00","IFR",17,17,190,7,NA,9,1014,"METAR KCKP 191135Z AUTO 19007KT 9SM SCT006 BKN009 OVC026 17/17 A2994 RMK AO2",2025-09-19 11:47:49.378541,2025-09-19 07:47:49.378588
"KBVI","Beaver Falls Arpt, PA, US",2025-09-19 11:30:00,"2025-09-19 07:30:00","VFR",17,12,0,0,NA,NA,1019,"METAR KBVI 191130Z 00000KT 10SM CLR 17/12 A3009",2025-09-19 11:47:49.385495,2025-09-19 07:47:49.385547
"KCAR","Caribou Muni, ME, US",2025-09-19 11:13:00,"2025-09-19 07:13:00","VFR",11.7,8.9,320,5,NA,NA,1010.6,"SPECI KCAR 191113Z AUTO 32005KT 10SM SCT019 12/09 A2984 RMK AO2 T01170089",2025-09-19 11:47:49.392371,2025-09-19 07:47:49.392417
"KCHO","Charlottesville/Albemarle Arpt, VA, US",2025-09-19 11:02:00,"2025-09-19 07:02:00","MVFR",14.4,13.9,290,3,NA,3,1017.4,"SPECI KCHO 191102Z 29003KT 3SM BR CLR 14/14 A3004 RMK AO2 T01440139",2025-09-19 11:47:49.399143,2025-09-19 07:47:49.39919
"KCHS","Charleston Intl, SC, US",2025-09-19 10:56:00,"2025-09-19 06:56:00","VFR",21.1,20.6,0,0,NA,7,1017,"METAR KCHS 191056Z 00000KT 7SM BCFG FEW100 21/21 A3003 RMK AO2 SLP166 T02110206 $",2025-09-19 11:47:49.405998,2025-09-19 07:47:49.406042
"KCIU","Chippewa Cnty Intl, MI, US",2025-09-19 10:56:00,"2025-09-19 06:56:00","VFR",12.2,8.9,80,8,NA,NA,1022.4,"METAR KCIU 191056Z AUTO 08008KT 10SM OVC037 12/09 A3019 RMK AO2 SLP223 T01220089",2025-09-19 11:47:49.412776,2025-09-19 07:47:49.412821
"KBZN","Bozeman/Gallatin Fld, MT, US",2025-09-19 10:56:00,"2025-09-19 04:56:00","VFR",7.8,5.6,140,4,NA,NA,1019.4,"METAR KBZN 191056Z AUTO 14004KT 10SM CLR 08/06 A3010 RMK AO2 SLP167 T00780056",2025-09-19 11:47:49.41953,2025-09-19 07:47:49.419578
"KCAE","Columbia Metro, SC, US",2025-09-19 10:56:00,"2025-09-19 06:56:00","VFR",17.8,16.1,0,0,NA,9,1017,"METAR KCAE 191056Z 00000KT 9SM FEW080 18/16 A3003 RMK AO2 SLP166 T01780161",2025-09-19 11:47:49.426423,2025-09-19 07:47:49.426467
"KCGZ","Casa Granda Muni, AZ, US",2025-09-19 10:56:00,"2025-09-19 03:56:00","VFR",26.1,17.8,70,4,NA,NA,1012.6,"METAR KCGZ 191056Z AUTO 07004KT 10SM FEW090 26/18 A2990 RMK AO2 SLP108 T02610178 $",2025-09-19 11:47:49.433314,2025-09-19 07:47:49.433362
"KCAO","Clayton Muni, NM, US",2025-09-19 10:55:00,"2025-09-19 04:55:00","VFR",12.8,12.2,240,5,NA,8,1021.8,"METAR KCAO 191055Z AUTO 24005KT 8SM CLR 13/12 A3017 RMK AO2 SLP166 T01280122",2025-09-19 11:47:49.44026,2025-09-19 07:47:49.440305
"KCEF","Chicopee/Westover AFB, MA, US",2025-09-19 10:55:00,"2025-09-19 06:55:00","VFR",11.1,10.3,30,3,NA,NA,1013.3,"METAR KCEF 191055Z AUTO 03003KT 10SM CLR 11/10 A2992 RMK AO2 SLP135 T01110103",2025-09-19 11:47:49.447362,2025-09-19 07:47:49.44741
"KCMY","Sparta/Ft McCoy Arpt, WI, US",2025-09-19 10:55:00,"2025-09-19 05:55:00","VFR",19,18.3,0,0,NA,6,1017.4,"METAR KCMY 191055Z AUTO 00000KT 6SM BR CLR 19/18 A3004 RMK AO2 RAB04E22RAB34E41 SLP172 P0003 T01900183 $",2025-09-19 11:47:49.454242,2025-09-19 07:47:49.454288
"KCBM","Columbus AFB, MS, US",2025-09-19 10:55:00,"2025-09-19 05:55:00","VFR",19.6,18.6,0,0,NA,NA,1015.3,"METAR KCBM 191055Z 00000KT 10SM CLR 20/19 A2998 RMK AO2A SLP152 T01960186 $",2025-09-19 11:47:49.461168,2025-09-19 07:47:49.461213
"KCMA","Camarillo Arpt, CA, US",2025-09-19 10:55:00,"2025-09-19 10:55:00","VFR",20,17.8,0,0,NA,9,1011.3,"METAR KCMA 191055Z AUTO 00000KT 9SM BKN032 OVC048 20/18 A2986 RMK AO2 SLP119 T02000178",2025-09-19 11:47:49.467974,2025-09-19 07:47:49.468018
"KBWI","Baltimore-Washington Intl, MD, US",2025-09-19 10:54:00,"2025-09-19 06:54:00","VFR",15,15,240,3,NA,NA,1016,"METAR KBWI 191054Z 24003KT 10SM R15R/4000VP6000FT MIFG CLR 15/15 A3000 RMK AO2 SLP156 T01500150",2025-09-19 11:47:49.474945,2025-09-19 07:47:49.47499
"KBUY","Burlington/Alamance Rgnl, NC, US",2025-09-19 10:54:00,"2025-09-19 10:54:00","MVFR",15.6,15,0,0,NA,4,1017.7,"METAR KBUY 191054Z AUTO 00000KT 4SM BR CLR 16/15 A3005 RMK AO2 SLP170 T01560150",2025-09-19 11:47:49.495496,2025-09-19 07:47:49.49555
"KBUF","Buffalo-Niagara Intl, NY, US",2025-09-19 10:54:00,"2025-09-19 06:54:00","MVFR",16.1,14.4,30,5,NA,NA,1019.4,"METAR KBUF 191054Z 03005KT 10SM BKN016 BKN039 16/14 A3010 RMK AO2 SLP189 T01610144 $",2025-09-19 11:47:49.503205,2025-09-19 07:47:49.503253
"KCEU","Clemson/Oconee Cnty, SC, US",2025-09-19 10:54:00,"2025-09-19 06:54:00","VFR",19.4,19.4,0,0,NA,6,1018.4,"METAR KCEU 191054Z AUTO 00000KT 6SM BR CLR 19/19 A3007 RMK AO2 SLP173 T01940194",2025-09-19 11:47:49.510076,2025-09-19 07:47:49.510119
"KCMI","Champaign/Willard Arpt, IL, US",2025-09-19 10:53:00,"2025-09-19 05:53:00","VFR",16.7,13.3,260,4,NA,NA,1017.4,"METAR KCMI 191053Z 26004KT 10SM CLR 17/13 A3004 RMK AO2 SLP166 T01670133",2025-09-19 11:47:49.516869,2025-09-19 07:47:49.516914
"KCDR","Chadron Muni, NE, US",2025-09-19 10:53:00,"2025-09-19 04:53:00","VFR",10,9.4,130,8,NA,NA,1017.4,"METAR KCDR 191053Z AUTO 13008KT 10SM SCT095 10/09 A3004 RMK AO2 SLP168 T01000094 PNO",2025-09-19 11:47:49.523928,2025-09-19 07:47:49.523975
"KBVY","Beverly Muni, MA, US",2025-09-19 10:53:00,"2025-09-19 06:53:00","VFR",15.6,12.8,280,4,NA,NA,1012.3,"METAR KBVY 191053Z 28004KT 10SM CLR 16/13 A2989 RMK AO2 SLP117 T01560128",2025-09-19 11:47:49.530968,2025-09-19 07:47:49.531015
"KCLM","Port Angeles Intl, WA, US",2025-09-19 10:53:00,"2025-09-19 03:53:00","VFR",6.7,3.3,0,0,NA,NA,1016.7,"METAR KCLM 191053Z AUTO 00000KT 10SM CLR 07/03 A3002 RMK AO2 SLP165 T00670033",2025-09-19 11:47:49.538097,2025-09-19 07:47:49.538146
"KCEW","Crestview/Sikes Arpt, FL, US",2025-09-19 10:53:00,"2025-09-19 05:53:00","VFR",18.3,17.2,0,0,NA,7,1017.4,"METAR KCEW 191053Z AUTO 00000KT 7SM CLR 18/17 A3004 RMK AO2 SLP170 T01830172",2025-09-19 11:47:49.545012,2025-09-19 07:47:49.545059
"KCEZ","Cortez/Montezuma Cnt, CO, US",2025-09-19 10:53:00,"2025-09-19 04:53:00","VFR",6.1,-0.6,0,0,NA,NA,1022.1,"METAR KCEZ 191053Z AUTO 00000KT 10SM CLR 06/M01 A3018 RMK AO2 SLP157 T00611006",2025-09-19 11:47:49.552162,2025-09-19 07:47:49.552211
"KCAG","Craig-Moffat Arpt, CO, US",2025-09-19 10:53:00,"2025-09-19 04:53:00","VFR",2.8,1.1,240,3,NA,NA,1023.1,"METAR KCAG 191053Z AUTO 24003KT 10SM CLR 03/01 A3021 RMK AO2 SLP188 T00280011",2025-09-19 11:47:49.55943,2025-09-19 07:47:49.559494
"KCDW","Caldwell/Essex Cnty, NJ, US",2025-09-19 10:53:00,"2025-09-19 06:53:00","VFR",15.6,12.2,0,0,NA,NA,1015.3,"METAR KCDW 191053Z 00000KT 10SM CLR 16/12 A2998 RMK AO2 SLP158 T01560122 $",2025-09-19 11:47:49.566622,2025-09-19 07:47:49.566669
"KBWG","Bowling Green/Warren Cnty, KY, US",2025-09-19 10:53:00,"2025-09-19 05:53:00","VFR",15.6,13.3,0,0,NA,NA,1017.7,"METAR KBWG 191053Z AUTO 00000KT 10SM CLR 16/13 A3005 RMK AO2 SLP170 T01560133",2025-09-19 11:47:49.573741,2025-09-19 07:47:49.573787
"KBVO","Bartlesville Muni, OK, US",2025-09-19 10:53:00,"2025-09-19 05:53:00","MVFR",16.7,16.1,0,0,NA,4,1017,"METAR KBVO 191053Z AUTO 00000KT 4SM BR FEW100 17/16 A3003 RMK AO2 SLP161 T01670161",2025-09-19 11:47:49.581004,2025-09-19 07:47:49.581051
"KBUR","Burbank/Bob Hope Arpt, CA, US",2025-09-19 10:53:00,"2025-09-19 03:53:00","VFR",21.1,17.8,200,4,NA,NA,1011.9,"METAR KBUR 191053Z 20004KT 10SM OVC095 21/18 A2988 RMK AO2 SLP104 T02110178",2025-09-19 11:47:49.588209,2025-09-19 07:47:49.588258
"KBYG","Buffalo/Johnson Cnty, WY, US",2025-09-19 10:53:00,"2025-09-19 04:53:00","VFR",8.9,3.9,210,4,NA,NA,1018.7,"METAR KBYG 191053Z AUTO 21004KT 10SM CLR 09/04 A3008 RMK AO2 SLP151 T00890039",2025-09-19 11:47:49.595521,2025-09-19 07:47:49.595571
"KCMX","Houghton Cnty Mem, MI, US",2025-09-19 10:53:00,"2025-09-19 06:53:00","VFR",13.9,11.7,90,6,NA,NA,1021.1,"METAR KCMX 191053Z AUTO 09006KT 10SM FEW009 OVC060 14/12 A3015 RMK AO2 SLP213 T01390117",2025-09-19 11:47:49.602907,2025-09-19 07:47:49.602955
"KCKB","Clarksburg/NC West Virginia Arpt, WV, US",2025-09-19 10:53:00,"2025-09-19 06:53:00","VFR",11.1,10.6,0,0,NA,NA,1019,"METAR KCKB 191053Z AUTO 00000KT 10SM CLR 11/11 A3009 RMK AO2 SLP178 T01110106",2025-09-19 11:47:49.610073,2025-09-19 07:47:49.61012
"KCCR","Concord/Buchanan Fld, CA, US",2025-09-19 10:53:00,"2025-09-19 03:53:00","VFR",16.7,13.9,220,4,NA,NA,1010.6,"METAR KCCR 191053Z AUTO 22004KT 10SM FEW075 BKN100 OVC110 17/14 A2984 RMK AO2 SLP091 T01670139",2025-09-19 11:47:49.617227,2025-09-19 07:47:49.617274
"KCLL","College Station/Easterwood Arpt, TX, US",2025-09-19 10:53:00,"2025-09-19 05:53:00","VFR",22.8,21.1,0,0,NA,NA,1016.3,"METAR KCLL 191053Z AUTO 00000KT 10SM CLR 23/21 A3001 RMK AO2 SLP155 T02280211",2025-09-19 11:47:49.624397,2025-09-19 07:47:49.624444
"KCHA","Chattanooga Metro, TN, US",2025-09-19 10:53:00,"2025-09-19 06:53:00","VFR",17.2,16.1,0,0,NA,NA,1018.4,"METAR KCHA 191053Z 00000KT 10SM FEW009 17/16 A3007 RMK AO2 SLP176 T01720161 $",2025-09-19 11:47:49.644521,2025-09-19 07:47:49.644575
"KBYI","Burley Muni, ID, US",2025-09-19 10:53:00,"2025-09-19 04:53:00","VFR",9.4,5.6,0,0,NA,NA,1016,"METAR KBYI 191053Z AUTO 00000KT 10SM CLR 09/06 A3000 RMK AO2 SLP124 T00940056",2025-09-19 11:47:49.652076,2025-09-19 07:47:49.652123
"KCDC","Cedar City Muni, UT, US",2025-09-19 10:53:00,"2025-09-19 04:53:00","VFR",16.1,7.8,40,7,NA,NA,1020.1,"METAR KCDC 191053Z AUTO 04007KT 10SM FEW070 OVC090 16/08 A3012 RMK AO2 SLP122 T01610078 $",2025-09-19 11:47:49.658839,2025-09-19 07:47:49.658885
"KCDS","Childress Muni, TX, US",2025-09-19 10:53:00,"2025-09-19 05:53:00","VFR",18.9,16.1,40,4,NA,NA,1018,"METAR KCDS 191053Z AUTO 04004KT 10SM CLR 19/16 A3006 RMK AO2 SLP154 T01890161",2025-09-19 11:47:49.665515,2025-09-19 07:47:49.665564
"KCID","Cedar Rapids/E Iowa Arpt, IA, US",2025-09-19 10:52:00,"2025-09-19 05:52:00","VFR",17.2,16.7,0,0,NA,6,1016.3,"METAR KCID 191052Z 00000KT 6SM BR FEW065 SCT120 17/17 A3001 RMK AO2 SLP157 T01720167 $",2025-09-19 11:47:49.672276,2025-09-19 07:47:49.672321
"KCLT","Charlotte/Douglas Intl, NC, US",2025-09-19 10:52:00,"2025-09-19 06:52:00","VFR",18.9,16.7,0,0,NA,8,1018,"METAR KCLT 191052Z 00000KT 8SM FEW090 19/17 A3006 RMK AO2 SLP186 T01890167",2025-09-19 11:47:49.678998,2025-09-19 07:47:49.679043
"KCFV","Coffeyville Muni, KS, US",2025-09-19 10:52:00,"2025-09-19 05:52:00","VFR",16.1,15.6,0,0,NA,8,1016.3,"METAR KCFV 191052Z AUTO 00000KT 8SM CLR 16/16 A3001 RMK AO2 SLP157 T01610156",2025-09-19 11:47:49.685685,2025-09-19 07:47:49.685729
"KCKV","Clarksville/Outlaw Fld, TN, US",2025-09-19 10:52:00,"2025-09-19 05:52:00","VFR",17.2,13.9,0,0,NA,NA,1017,"METAR KCKV 191052Z AUTO 00000KT 10SM CLR 17/14 A3003 RMK AO2 SLP163 T01720139",2025-09-19 11:47:49.692374,2025-09-19 07:47:49.692419
"KCAK","Akron/Canton Rgnl, OH, US",2025-09-19 10:51:00,"2025-09-19 06:51:00","VFR",16.1,12.8,0,0,NA,NA,1019,"METAR KCAK 191051Z 00000KT 10SM FEW150 16/13 A3009 RMK AO2 SLP183 T01610128",2025-09-19 11:47:49.699086,2025-09-19 07:47:49.699131
"KCLE","Cleveland/Hopkins Intl, OH, US",2025-09-19 10:51:00,"2025-09-19 06:51:00","VFR",16.1,13.9,160,3,NA,NA,1018.4,"METAR KCLE 191051Z 16003KT 10SM SCT120 SCT250 16/14 A3007 RMK AO2 SLP194 T01610139 $",2025-09-19 11:47:49.705847,2025-09-19 07:47:49.705892
"KCMH","Columbus/Glenn Intl, OH, US",2025-09-19 10:51:00,"2025-09-19 06:51:00","VFR",14.4,11.1,0,0,NA,9,1018.4,"METAR KCMH 191051Z 00000KT 9SM CLR 14/11 A3007 RMK AO2 SLP178 T01440111",2025-09-19 11:47:49.7125,2025-09-19 07:47:49.712548
"KCGF","Cleveland/Cuyahoga Cnty, OH, US",2025-09-19 10:45:00,"2025-09-19 06:45:00","VFR",16,16,0,0,NA,NA,1019,"METAR KCGF 191045Z 00000KT 10SM SCT050 SCT065 OVC120 16/16 A3009",2025-09-19 11:47:49.719185,2025-09-19 07:47:49.719229
"KCRE","North Myrtle Beach/Grand Strand Arpt, SC, US",2025-09-19 11:45:00,"2025-09-19 07:45:00","LIFR",20,20,0,0,NA,0.25,1017.4,"SPECI KCRE 191145Z 00000KT 1/4SM FG VV002 20/20 A3004 RMK AO1 T02000200",2025-09-19 11:47:51.449368,2025-09-19 07:47:51.449411
"KCOT","Cotulla/LaSalle Cnty, TX, US",2025-09-19 11:40:00,"2025-09-19 06:40:00","VFR",22.2,19.4,80,5,NA,NA,1016,"SPECI KCOT 191140Z AUTO 08005KT 10SM SCT020 22/19 A3000 RMK AO2 T02220194 $",2025-09-19 11:47:51.456326,2025-09-19 07:47:51.456373
"KDEQ","De Queen/Helms Arpt, AR, US",2025-09-19 11:37:00,"2025-09-19 11:37:00","IFR",18.3,18.3,0,0,NA,1.25,1016.3,"SPECI KDEQ 191137Z AUTO 00000KT 1 1/4SM BR FEW003 18/18 A3001 RMK AO2 T01830183",2025-09-19 11:47:51.475918,2025-09-19 07:47:51.475963
"KDED","Deland Muni, FL, US",2025-09-19 11:35:00,"2025-09-19 11:35:00","VFR",20.1,18.8,0,0,NA,NA,1016.3,"METAR KDED 191135Z AUTO 00000KT 10SM CLR 20/19 A3001 RMK AO2 T02010188",2025-09-19 11:47:51.483157,2025-09-19 07:47:51.483201
"KCSB","Cambridge Muni, NE, US",2025-09-19 11:35:00,"2025-09-19 11:35:00",NA,9,9,0,0,NA,NA,1017.7,"METAR KCSB 191135Z AUTO 00000KT 10SM 09/09 A3005 RMK AO2",2025-09-19 11:47:51.489745,2025-09-19 07:47:51.489791
"KCTZ","Clinton/Sampson Cnty, NC, US",2025-09-19 11:35:00,"2025-09-19 07:35:00","LIFR",18.1,18.1,0,0,NA,0.25,1018,"METAR KCTZ 191135Z AUTO 00000KT M1/4SM OVC001 18/18 A3006 RMK AO2 T01810181",2025-09-19 11:47:51.496176,2025-09-19 07:47:51.496222
"KCOI","Cocoa/Merritt Isl Arpt, FL, US",2025-09-19 11:35:00,"2025-09-19 07:35:00","VFR",25,22,280,5,NA,NA,1015,"METAR KCOI 191135Z AUTO 28005KT 10SM CLR 25/22 A2997 RMK AO2",2025-09-19 11:47:51.50296,2025-09-19 07:47:51.503004
"KCWC","Wichita Falls/Kickapoo Arpt, TX, US",2025-09-19 11:35:00,"2025-09-19 06:35:00","VFR",21.8,16,80,8,NA,NA,1017,"METAR KCWC 191135Z AUTO 08008KT 10SM CLR 22/16 A3003 RMK AO2 T02180160",2025-09-19 11:47:51.509673,2025-09-19 07:47:51.509718
"KD39","Sauk Center Muni, MN, US",2025-09-19 11:35:00,"2025-09-19 11:35:00","LIFR",16.2,16.2,90,11,NA,3,1015,"METAR KD39 191135Z AUTO 09011KT 3SM BR OVC003 16/16 A2997 RMK AO2 T01620162",2025-09-19 11:47:51.516403,2025-09-19 07:47:51.516447
"KCOQ","Cloquet/Carlton Cnty, MN, US",2025-09-19 11:35:00,"2025-09-19 11:35:00","LIFR",13,13,90,11,20,2.5,1018,"METAR KCOQ 191135Z AUTO 09011G20KT 2 1/2SM BR OVC002 13/13 A3006 RMK AO2 TSNO",2025-09-19 11:47:51.522995,2025-09-19 07:47:51.523039
"KDCY","Washington/Daviess Cnty, IN, US",2025-09-19 11:35:00,"2025-09-19 11:35:00","VFR",14.9,13.5,0,0,NA,NA,1018,"METAR KDCY 191135Z AUTO 00000KT 10SM CLR 15/14 A3006 RMK AO2 LTG DSNT SW T01490135",2025-09-19 11:47:51.529734,2025-09-19 07:47:51.529779
"KCXU","Camilla/Mitchell Cnty, GA, US",2025-09-19 11:35:00,"2025-09-19 11:35:00","VFR",18,18,150,1,NA,6,1016.7,"METAR KCXU 191135Z AUTO 15001KT 6SM BR CLR 18/18 A3002 RMK AO2",2025-09-19 11:47:51.536449,2025-09-19 07:47:51.536511
"KDBN","Dublin/Barron Arpt, GA, US",2025-09-19 11:35:00,"2025-09-19 07:35:00","MVFR",17.2,17.2,0,0,NA,5,1017.4,"METAR KDBN 191135Z AUTO 00000KT 5SM BR CLR 17/17 A3004 RMK AO2 T01720172 $",2025-09-19 11:47:51.543065,2025-09-19 07:47:51.543107
"KCTY","Cross City Arpt, FL, US",2025-09-19 11:35:00,"2025-09-19 07:35:00","VFR",18,18,0,0,NA,NA,1016.7,"METAR KCTY 191135Z AUTO 00000KT 10SM CLR 18/18 A3002 RMK AO2",2025-09-19 11:47:51.549681,2025-09-19 07:47:51.549728
"KDKR","Crockett/Houston Cnty, TX, US",2025-09-19 11:35:00,"2025-09-19 11:35:00","VFR",20,20,0,0,NA,6,1017,"METAR KDKR 191135Z AUTO 00000KT 6SM BR CLR 20/20 A3003 RMK AO2",2025-09-19 11:47:51.556177,2025-09-19 07:47:51.55622
"KDKB","DeKalb/Taylor Muni, IL, US",2025-09-19 11:35:00,"2025-09-19 11:35:00","VFR",15.4,14.7,100,5,NA,7,1017.4,"METAR KDKB 191135Z AUTO 10005KT 7SM CLR 15/15 A3004 RMK AO2 T01540147",2025-09-19 11:47:51.562679,2025-09-19 07:47:51.562726
"KDEH","Decorah Muni, IA, US",2025-09-19 11:35:00,"2025-09-19 06:35:00","VFR",18,18,90,5,NA,6,1016.3,"METAR KDEH 191135Z AUTO 09005KT 6SM BR FEW020 SCT036 BKN048 18/18 A3001 RMK AO2",2025-09-19 11:47:51.56926,2025-09-19 07:47:51.569304
"KDCM","Chester Muni, SC, US",2025-09-19 11:35:00,"2025-09-19 11:35:00","VFR",17,17,0,0,NA,NA,1018.7,"METAR KDCM 191135Z AUTO 00000KT 10SM CLR 17/17 A3008 RMK AO2",2025-09-19 11:47:51.576033,2025-09-19 07:47:51.576078
"KCZT","Carrizo Springs Arpt, TX, US",2025-09-19 11:35:00,"2025-09-19 06:35:00","VFR",20,20,NA,NA,NA,NA,1016.3,"METAR KCZT 191135Z AUTO 10SM SCT120 20/20 A3001 RMK AO2",2025-09-19 11:47:51.582918,2025-09-19 07:47:51.582963
"KCWV","Claxton/Evans Cnty, GA, US",2025-09-19 11:35:00,"2025-09-19 11:35:00","MVFR",20,20,NA,NA,NA,4,1017,"METAR KCWV 191135Z AUTO 4SM BR BKN120 20/20 A3003 RMK AO2",2025-09-19 11:47:51.589724,2025-09-19 07:47:51.589768
"KCZL","Calhoun/Tom David Fld, GA, US",2025-09-19 11:35:00,"2025-09-19 11:35:00",NA,16,16,0,0,NA,NA,1018.4,"METAR KCZL 191135Z AUTO 00000KT 16/16 A3007 RMK AO2 PWINO",2025-09-19 11:47:51.59638,2025-09-19 07:47:51.596424
"KCXE","Chase City Muni, VA, US",2025-09-19 11:35:00,"2025-09-19 11:35:00","VFR",15.7,15.4,0,0,NA,NA,1017.7,"METAR KCXE 191135Z AUTO 00000KT 10SM CLR 16/15 A3005 RMK AO1 T01570154",2025-09-19 11:47:51.616785,2025-09-19 07:47:51.616834
"KCUH","Cushing Muni, OK, US",2025-09-19 11:35:00,"2025-09-19 06:35:00","VFR",18.5,18,180,4,NA,NA,1017.7,"METAR KCUH 191135Z AUTO 18004KT 10SM CLR 19/18 A3005 RMK AO2 LTG DSNT E AND SE T01850180",2025-09-19 11:47:51.624186,2025-09-19 07:47:51.624233
"KCSQ","Creston Muni, IA, US",2025-09-19 11:35:00,"2025-09-19 06:35:00","MVFR",18,18,180,4,NA,5,1016,"METAR KCSQ 191135Z AUTO 18004KT 5SM BR OVC010 18/18 A3000 RMK AO2",2025-09-19 11:47:51.630843,2025-09-19 07:47:51.630887
"KCPU","San Andreas/Calaveras Cnty, CA, US",2025-09-19 11:35:00,"2025-09-19 11:35:00","VFR",19.5,13.5,0,0,NA,NA,1012.6,"METAR KCPU 191135Z AUTO 00000KT 10SM SCT060 BKN090 20/14 A2990 RMK AO2 T01950135",2025-09-19 11:47:51.637643,2025-09-19 07:47:51.637688
"KDKX","Knoxville/Downtown Aprt, TN, US",2025-09-19 11:35:00,"2025-09-19 11:35:00","IFR",16,16,0,0,NA,2,1019,"METAR KDKX 191135Z AUTO 00000KT 2SM BR SCT002 16/16 A3009 RMK A01 VIS 1 1/2V3",2025-09-19 11:47:51.644822,2025-09-19 07:47:51.644865
"KCXP","Carson City Arpt, NV, US",2025-09-19 11:35:00,"2025-09-19 04:35:00","VFR",16,8,0,0,NA,NA,1016.3,"METAR KCXP 191135Z AUTO 00000KT 10SM OVC120 16/08 A3001 RMK AO2",2025-09-19 11:47:51.65166,2025-09-19 07:47:51.651705
"KCRX","Corinth/Turner Fld, MS, US",2025-09-19 11:35:00,"2025-09-19 06:35:00","VFR",19,19,0,0,NA,6,1016.7,"METAR KCRX 191135Z AUTO 00000KT 6SM BR CLR 19/19 A3002 RMK AO2",2025-09-19 11:47:51.658223,2025-09-19 07:47:51.658266
"KD55","Langdon/Roberts Fld, ND, US",2025-09-19 11:35:00,"2025-09-19 11:35:00","LIFR",14,14,50,9,NA,0.5,1017.4,"METAR KD55 191135Z AUTO 05009KT 1/2SM FG OVC003 14/14 A3004 RMK AO2",2025-09-19 11:47:51.664972,2025-09-19 07:47:51.665018
"KCTJ","Carrollton/W Georgia Rgnl, GA, US",2025-09-19 11:35:00,"2025-09-19 11:35:00","VFR",15.5,14.8,0,0,NA,NA,1019.7,"METAR KCTJ 191135Z AUTO 00000KT 10SM CLR 16/15 A3011 RMK AO2 T01550148",2025-09-19 11:47:51.671897,2025-09-19 07:47:51.671942
"KCOM","Coleman Muni, TX, US",2025-09-19 11:35:00,"2025-09-19 06:35:00","VFR",20,13.5,0,0,NA,NA,1018,"METAR KCOM 191135Z AUTO 00000KT 10SM CLR 20/14 A3006 RMK AO2 T02000135 PWINO",2025-09-19 11:47:51.678643,2025-09-19 07:47:51.678688
"KCNC","Chariton Muni, IA, US",2025-09-19 11:35:00,"2025-09-19 11:35:00","IFR",17,17,200,4,NA,6,1015.7,"METAR KCNC 191135Z AUTO 20004KT 6SM BR OVC006 17/17 A2999 RMK AO2",2025-09-19 11:47:51.685321,2025-09-19 07:47:51.685363
"KCPK","Chesapeake Rgnl, VA, US",2025-09-19 11:35:00,"2025-09-19 11:35:00","LIFR",13.3,12.7,0,0,NA,0.5,1017.7,"METAR KCPK 191135Z AUTO 00000KT 1/2SM FG BKN003 BKN110 13/13 A3005 RMK AO2 T01330127",2025-09-19 11:47:51.691977,2025-09-19 07:47:51.69202
"KCPT","Cleburne Muni, TX, US",2025-09-19 11:35:00,"2025-09-19 11:35:00","VFR",22.2,20.7,0,0,NA,NA,1015.3,"METAR KCPT 191135Z AUTO 00000KT 10SM CLR 22/21 A2998 RMK AO2 T02220207 $",2025-09-19 11:47:51.698761,2025-09-19 07:47:51.698806
"KD09","Bottineau Muni, ND, US",2025-09-19 11:35:00,"2025-09-19 11:35:00","MVFR",13,13,20,8,13,NA,1017.7,"METAR KD09 191135Z AUTO 02008G13KT 10SM BKN020 BKN024 OVC042 13/13 A3005 RMK AO2",2025-09-19 11:47:51.705829,2025-09-19 07:47:51.705873
"KD50","Crosby Muni, ND, US",2025-09-19 11:35:00,"2025-09-19 11:35:00","MVFR",12,12,0,0,NA,NA,1019.4,"METAR KD50 191135Z AUTO 00000KT 10SM FEW005 OVC021 12/12 A3010 RMK AO2",2025-09-19 11:47:51.712759,2025-09-19 07:47:51.712803
"KD57","Glen Ullin Rgnl, ND, US",2025-09-19 11:35:00,"2025-09-19 11:35:00","MVFR",12,12,350,11,NA,NA,1017.7,"METAR KD57 191135Z AUTO 35011KT 10SM OVC011 12/12 A3005 RMK AO2",2025-09-19 11:47:51.719621,2025-09-19 07:47:51.719667
"KD95","Lapeer/Dumont Arpt, MI, US",2025-09-19 11:35:00,"2025-09-19 11:35:00","LIFR",17,17,0,0,NA,5,1020.7,"METAR KD95 191135Z AUTO 00000KT 5SM BR OVC003 17/17 A3014 RMK AO2",2025-09-19 11:47:51.726331,2025-09-19 07:47:51.726375
"KCQM","Cook Muni, MN, US",2025-09-19 11:35:00,"2025-09-19 11:35:00","MVFR",12,11,90,6,NA,5,1019,"METAR KCQM 191135Z AUTO 09006KT 5SM -RA BR FEW015 FEW048 SCT070 12/11 A3009 RMK AO2",2025-09-19 11:47:51.733016,2025-09-19 07:47:51.73306
"KCVH","Hollister Muni, CA, US",2025-09-19 11:35:00,"2025-09-19 04:35:00","VFR",17,14,0,0,NA,NA,1011.9,"METAR KCVH 191135Z AUTO 00000KT 10SM BKN095 17/14 A2988 RMK A01",2025-09-19 11:47:51.739702,2025-09-19 07:47:51.739747
"KD25","Manitowish Waters Arpt, WI, US",2025-09-19 11:35:00,"2025-09-19 11:35:00","LIFR",14.5,14.5,110,5,NA,0.75,1020.4,"METAR KD25 191135Z AUTO 11005KT 3/4SM /VCTSRA BKN005 OVC010 15/15 A3013 RMK AO2 LTG DSNT ALQDS T01450145",2025-09-19 11:47:51.760652,2025-09-19 07:47:51.760702
"KCPC","Whiteville/Columbus Cnty, NC, US",2025-09-19 11:35:00,"2025-09-19 11:35:00","LIFR",18.8,18,0,0,NA,0.25,1018,"METAR KCPC 191135Z AUTO 00000KT 1/4SM FG OVC002 19/18 A3006 RMK AO2 T01880180",2025-09-19 11:47:51.76764,2025-09-19 07:47:51.767682
"KCVB","Castroville Muni, TX, US",2025-09-19 11:35:00,"2025-09-19 11:35:00","MVFR",20,18,300,2,NA,NA,1016.7,"METAR KCVB 191135Z AUTO 30002KT 10SM BKN017 20/18 A3002 RMK AO2",2025-09-19 11:47:51.774356,2025-09-19 07:47:51.774401
"KDLL","Baraboo-Dells Arpt, WI, US",2025-09-19 11:35:00,"2025-09-19 11:35:00","MVFR",17.5,16.7,60,4,NA,3,1018.7,"METAR KDLL 191135Z AUTO 06004KT 3SM BR BKN120 18/17 A3008 RMK AO2 T01750167",2025-09-19 11:47:51.781003,2025-09-19 07:47:51.78105
"KD60","Tioga Muni, ND, US",2025-09-19 11:35:00,"2025-09-19 06:35:00","MVFR",12,12,0,0,NA,NA,1020.1,"METAR KD60 191135Z AUTO 00000KT 10SM OVC016 12/12 A3012 RMK AO2",2025-09-19 11:47:51.787961,2025-09-19 07:47:51.788009
"KCQW","Cheraw Muni, SC, US",2025-09-19 11:35:00,"2025-09-19 07:35:00","MVFR",17,17,0,0,NA,3,1017.7,"METAR KCQW 191135Z AUTO 00000KT 3SM BR CLR 17/17 A3005 RMK AO2",2025-09-19 11:47:51.794719,2025-09-19 07:47:51.794771
"KCVX","Charlevoix Muni, MI, US",2025-09-19 11:35:00,"2025-09-19 11:35:00","IFR",16,15,120,8,NA,NA,1020.7,"METAR KCVX 191135Z AUTO 12008KT 10SM OVC008 16/15 A3014 RMK AO2",2025-09-19 11:47:51.801528,2025-09-19 07:47:51.801576
"KDFI","Defiance Mem Arpt, OH, US",2025-09-19 11:34:00,"2025-09-19 07:34:00","MVFR",13.3,12.2,0,0,NA,5,1019,"SPECI KDFI 191134Z AUTO 00000KT 5SM BR CLR 13/12 A3009 RMK AO2 T01330122",2025-09-19 11:47:51.808227,2025-09-19 07:47:51.808271
"KCQB","Chandler Muni, OK, US",2025-09-19 11:30:00,"2025-09-19 11:30:00","VFR",17.3,15.6,220,4,NA,NA,1017.7,"METAR KCQB 191130Z AUTO 22004KT 10SM SCT120 17/16 A3005 RMK AO2 LTG DSNT E T01730156",2025-09-19 11:47:51.81527,2025-09-19 07:47:51.815324
"KD73","Monroe/Walton Cnty, GA, US",2025-09-19 11:30:00,"2025-09-19 11:30:00","IFR",17.6,NA,NA,NA,NA,1.75,1018.4,"METAR KD73 191130Z AUTO 1 3/4SM BR VV007 18/ A3007 RMK AO2 VIS 1 1/4V3 T0176////",2025-09-19 11:47:51.822204,2025-09-19 07:47:51.822247
"KDKK","Dunkirk/Chautauqua Cnty, NY, US",2025-09-19 11:26:00,"2025-09-19 07:26:00","MVFR",16.1,15.6,0,0,NA,NA,1019.4,"SPECI KDKK 191126Z AUTO 00000KT 10SM BKN012 OVC017 16/16 A3010 RMK AO2 T01610156",2025-09-19 11:47:51.829336,2025-09-19 07:47:51.829383
"KDLF","Laughlin AFB, TX, US",2025-09-19 11:10:00,"2025-09-19 06:10:00","MVFR",24,20,100,6,NA,NA,1015.3,"SPECI KDLF 191110Z AUTO 10006KT 10SM FEW019 BKN025 24/20 A2998 RMK AO2 CIG 022 RWY31 SLP138 $",2025-09-19 11:47:51.836333,2025-09-19 07:47:51.836379
"KCPR","Casper/Natrona Cnty, WY, US",2025-09-19 11:01:00,"2025-09-19 05:01:00","LIFR",6.1,6.1,0,0,NA,0.25,1020.1,"SPECI KCPR 191101Z 00000KT 1/4SM R03/1000V2000FT FG VV001 06/06 A3012 RMK AO2 T00610061",2025-09-19 11:47:51.843109,2025-09-19 07:47:51.843152
"KDAA","Fort Belvoir/Davison(AAF), VA, US",2025-09-19 11:00:00,"2025-09-19 07:00:00","MVFR",15,15,0,0,NA,3,1015.7,"SPECI KDAA 191100Z AUTO 00000KT 3SM BR CLR 15/15 A2999 RMK AO2 SLP158 TSNO $",2025-09-19 11:47:51.849763,2025-09-19 07:47:51.849808
"KCWF","Chenault Intl, LA, US",2025-09-19 11:00:00,"2025-09-19 06:00:00","VFR",22,20,0,0,NA,NA,1016.7,"SPECI KCWF 191100Z 00000KT 10SM CLR 22/20 A3002",2025-09-19 11:47:51.856606,2025-09-19 07:47:51.856653
"KD07","Faith Muni, SD, US",2025-09-19 10:56:00,"2025-09-19 10:56:00",NA,11.1,11.1,330,8,NA,NA,1017.4,"METAR KD07 191056Z AUTO 33008KT 11/11 A3004 RMK AO1 SLP177 T01110111",2025-09-19 11:47:51.86336,2025-09-19 07:47:51.863406
"KCVN","Clovis Muni, NM, US",2025-09-19 10:56:00,"2025-09-19 04:56:00","VFR",13.3,12.8,130,5,NA,NA,1021.8,"METAR KCVN 191056Z AUTO 13005KT 10SM CLR 13/13 A3017 RMK AO2 SLP183 T01330128 $",2025-09-19 11:47:51.87016,2025-09-19 07:47:51.870206
"KCTB","Cut Bank Muni, MT, US",2025-09-19 10:56:00,"2025-09-19 04:56:00","VFR",6.7,2.8,240,3,NA,NA,1017.4,"METAR KCTB 191056Z AUTO 24003KT 10SM CLR 07/03 A3004 RMK AO2 SLP153 T00670028",2025-09-19 11:47:51.876995,2025-09-19 07:47:51.87704
"KCWI","Clinton Muni, IA, US",2025-09-19 10:56:00,"2025-09-19 05:56:00","VFR",17.2,16.7,20,5,NA,NA,1017,"METAR KCWI 191056Z AUTO 02005KT 10SM CLR 17/17 A3003 RMK AO2 LTG DSNT SW SLP169 T01720167",2025-09-19 11:47:51.883882,2025-09-19 07:47:51.883926
"KCOD","Cody/Yellowstone Rgnl, WY, US",2025-09-19 10:56:00,"2025-09-19 04:56:00","VFR",9.4,5,0,0,NA,NA,1020.7,"METAR KCOD 191056Z AUTO 00000KT 10SM CLR 09/05 A3014 RMK AO2 SLP170 T00940050",2025-09-19 11:47:51.904785,2025-09-19 07:47:51.904834
"KDAY","Dayton/Cox Intl, OH, US",2025-09-19 10:56:00,"2025-09-19 06:56:00","VFR",15.6,11.1,60,3,NA,NA,1018.7,"METAR KDAY 191056Z 06003KT 10SM FEW250 16/11 A3008 RMK AO2 SLP179 T01560111",2025-09-19 11:47:51.912184,2025-09-19 07:47:51.912228
"KCVO","Corvallis Muni, OR, US",2025-09-19 10:56:00,"2025-09-19 03:56:00","VFR",11.7,9.4,290,4,NA,NA,1014,"METAR KCVO 191056Z 29004KT 10SM CLR 12/09 A2994 RMK AO2 SLP141 T01170094",2025-09-19 11:47:51.919016,2025-09-19 07:47:51.919059
"KCOE","Coeur DAlene Arpt, ID, US",2025-09-19 10:56:00,"2025-09-19 03:56:00","VFR",13.3,8.9,50,5,NA,NA,1014.3,"METAR KCOE 191056Z AUTO 05005KT 10SM CLR 13/09 A2995 RMK AO2 SLP143 T01330089 PNO $",2025-09-19 11:47:51.926022,2025-09-19 07:47:51.926068
"KDIJ","Driggs/Reed Mem, ID, US",2025-09-19 10:56:00,"2025-09-19 10:56:00","VFR",5,0.6,70,4,NA,NA,1022.1,"METAR KDIJ 191056Z AUTO 07004KT 10SM CLR 05/01 A3018 RMK AO2 SLP174 T00500006 $",2025-09-19 11:47:51.933343,2025-09-19 07:47:51.933388
"KCXY","Harrisburg/Capital City Arpt, PA, US",2025-09-19 10:56:00,"2025-09-19 06:56:00","VFR",13.9,12.2,250,3,NA,NA,1016.7,"METAR KCXY 191056Z 25003KT 10SM CLR 14/12 A3002 RMK AO2 SLP165 T01390122",2025-09-19 11:47:51.940548,2025-09-19 07:47:51.940595
"KDLH","Duluth Intl Arpt, MN, US",2025-09-19 10:55:00,"2025-09-19 05:55:00","LIFR",12.2,12.2,90,14,21,4,1018.7,"METAR KDLH 191055Z 09014G21KT 4SM -DZ BR OVC003 12/12 A3008 RMK AO2 DZB07 SLP193 P0000 T01220122 $",2025-09-19 11:47:51.947463,2025-09-19 07:47:51.947541
"KCVS","Clovis/Cannon AFB, NM, US",2025-09-19 10:55:00,"2025-09-19 04:55:00","VFR",15.2,13,90,5,NA,NA,1020.7,"METAR KCVS 191055Z AUTO 09005KT 10SM CLR 15/13 A3014 RMK AO2 SLP151 T01520130 $",2025-09-19 11:47:51.954365,2025-09-19 07:47:51.954411
"KCNK","Concordia/Blosser Muni, KS, US",2025-09-19 10:55:00,"2025-09-19 05:55:00","VFR",13.9,13.3,260,5,NA,NA,1017.4,"METAR KCNK 191055Z AUTO 26005KT 10SM CLR 14/13 A3004 RMK AO2 SLP165 T01390133 $",2025-09-19 11:47:51.961264,2025-09-19 07:47:51.961308
"KCOF","Cocoa Beach/Patrick(AFB), FL, US",2025-09-19 10:55:00,"2025-09-19 06:55:00","VFR",26.5,22.1,60,7,NA,NA,1013.6,"METAR KCOF 191055Z AUTO 06007KT 10SM -RA SCT026 27/22 A2993 RMK AO2 RAE39DZB39E43RAB43 SLP140 P0000 T02650221 $",2025-09-19 11:47:51.968241,2025-09-19 07:47:51.96829
"KDEC","Decatur Arpt, IL, US",2025-09-19 10:54:00,"2025-09-19 05:54:00","VFR",20,16.1,310,5,NA,NA,1017.4,"METAR KDEC 191054Z 31005KT 10SM CLR 20/16 A3004 RMK AO2 SLP166 T02000161",2025-09-19 11:47:51.975241,2025-09-19 07:47:51.975287
"KCOU","Columbia Rgnl, MO, US",2025-09-19 10:54:00,"2025-09-19 05:54:00","VFR",16.1,16.1,110,4,NA,NA,1016.7,"METAR KCOU 191054Z AUTO 11004KT 10SM CLR 16/16 A3002 RMK AO2 SLP159 T01610161",2025-09-19 11:47:51.98215,2025-09-19 07:47:51.982196
"KCOS","Colorado Spring Arpt, CO, US",2025-09-19 10:54:00,"2025-09-19 04:54:00","VFR",8.9,6.7,10,6,NA,NA,1022.8,"METAR KCOS 191054Z COR 01006KT 10SM SCT250 09/07 A3020 RMK AO2 SLP170 T00890067 $",2025-09-19 11:47:51.989037,2025-09-19 07:47:51.989082
"KDDH","Bennington/Morse State Arpt, VT, US",2025-09-19 10:54:00,"2025-09-19 10:54:00","VFR",11.1,11.1,0,0,NA,7,1015.3,"METAR KDDH 191054Z AUTO 00000KT 7SM FEW028 SCT070 11/11 A2998 RMK AO2 SLP151 T01110111",2025-09-19 11:47:51.995756,2025-09-19 07:47:51.995804
"KCRW","Charleston/Yeager Arpt, WV, US",2025-09-19 10:54:00,"2025-09-19 06:54:00","VFR",12.2,11.7,0,0,NA,NA,1018.7,"METAR KCRW 191054Z 00000KT 10SM FEW000 12/12 A3008 RMK AO2 SLP180 FG FEW000 T01220117",2025-09-19 11:47:52.002745,2025-09-19 07:47:52.002793
"KCSV","Crossville/Whitson Fld, TN, US",2025-09-19 10:53:00,"2025-09-19 05:53:00","MVFR",14.4,14.4,0,0,NA,5,1020.1,"METAR KCSV 191053Z AUTO 00000KT 5SM BR CLR 14/14 A3012 RMK AO2 SLP180 T01440144",2025-09-19 11:47:52.009952,2025-09-19 07:47:52.009998
"KDHN","Dothan Rgnl, AL, US",2025-09-19 10:53:00,"2025-09-19 05:53:00","VFR",20,17.8,310,5,NA,NA,1017.7,"METAR KDHN 191053Z 31005KT 10SM CLR 20/18 A3005 RMK AO1 SLP171 T02000178",2025-09-19 11:47:52.017023,2025-09-19 07:47:52.017069
"KDAN","Danville Rgnl, VA, US",2025-09-19 10:53:00,"2025-09-19 06:53:00","VFR",16.1,15.6,0,0,NA,NA,1017.7,"METAR KDAN 191053Z AUTO 00000KT 10SM CLR 16/16 A3005 RMK AO2 SLP165 T01610156",2025-09-19 11:47:52.023995,2025-09-19 07:47:52.024039
"KCRS","Corsicana Muni, TX, US",2025-09-19 10:53:00,"2025-09-19 05:53:00","VFR",22.8,20.6,200,3,NA,9,1016.7,"METAR KCRS 191053Z AUTO 20003KT 9SM CLR 23/21 A3002 RMK AO2 SLP158 T02280206",2025-09-19 11:47:52.030888,2025-09-19 07:47:52.030931
"KCRQ","Carlsbad/Palomar Arpt, CA, US",2025-09-19 10:53:00,"2025-09-19 03:53:00",NA,20.6,18.3,0,0,NA,NA,1011.3,"METAR KCRQ 191053Z AUTO 00000KT CLR 21/18 A2986 RMK AO2 SLP108 T02060183 $",2025-09-19 11:47:52.053015,2025-09-19 07:47:52.053063
"KCXO","Conroe/Executive Arpt, TX, US",2025-09-19 10:53:00,"2025-09-19 05:53:00","MVFR",20,19.4,0,0,NA,3,1016.3,"METAR KCXO 191053Z 00000KT 3SM BR CLR 20/19 A3001 RMK AO2 SLP159 T02000194",2025-09-19 11:47:52.060148,2025-09-19 07:47:52.060192
"KDFW","Dallas-Ft Worth Intl, TX, US",2025-09-19 10:53:00,"2025-09-19 05:53:00","VFR",23.9,18.3,190,5,NA,9,1015.3,"METAR KDFW 191053Z 19005KT 9SM SCT250 24/18 A2998 RMK AO2 SLP143 T02390183",2025-09-19 11:47:52.066934,2025-09-19 07:47:52.066978
"KDGW","Douglas/Converse Cnty, WY, US",2025-09-19 10:53:00,"2025-09-19 04:53:00","VFR",7.8,7.8,290,4,NA,9,1019.4,"METAR KDGW 191053Z AUTO 29004KT 9SM SCT110 08/08 A3010 RMK AO2 SLP152 T00780078",2025-09-19 11:47:52.073925,2025-09-19 07:47:52.073969
"KDAL","Dallas/Love Fld, TX, US",2025-09-19 10:53:00,"2025-09-19 05:53:00","VFR",26.1,19.4,190,4,NA,NA,1015.7,"METAR KDAL 191053Z 19004KT 10SM SCT250 26/19 A2999 RMK AO2 SLP147 T02610194",2025-09-19 11:47:52.081198,2025-09-19 07:47:52.081244
"KDAB","Daytona Beach Intl, FL, US",2025-09-19 10:53:00,"2025-09-19 06:53:00","VFR",21.1,20,0,0,NA,NA,1015.7,"METAR KDAB 191053Z 00000KT 10SM FEW110 21/20 A2999 RMK AO2 SLP153 T02110200",2025-09-19 11:47:52.088341,2025-09-19 07:47:52.088388
"KCPS","St Louis/Downtown Arpt, IL, US",2025-09-19 10:53:00,"2025-09-19 05:53:00","VFR",19.4,17.8,0,0,NA,NA,1016,"METAR KCPS 191053Z AUTO 00000KT 10SM SCT100 19/18 A3000 RMK AO2 RAB0954E45 TSB04E21 SLP156 P0003 T01940178",2025-09-19 11:47:52.095276,2025-09-19 07:47:52.095322
"KCNO","Chino Arpt, CA, US",2025-09-19 10:53:00,"2025-09-19 03:53:00","VFR",21.1,17.2,0,0,NA,NA,1011.9,"METAR KCNO 191053Z AUTO 00000KT 10SM SCT090 21/17 A2988 RMK AO2 SLP113 T02110172 $",2025-09-19 11:47:52.102251,2025-09-19 07:47:52.102296
"KDHT","Dalhart Muni, TX, US",2025-09-19 10:53:00,"2025-09-19 05:53:00","VFR",15,13.9,0,0,NA,7,1020.7,"METAR KDHT 191053Z AUTO 00000KT 7SM CLR 15/14 A3014 RMK AO2 SLP161 T01500139 $",2025-09-19 11:47:52.109296,2025-09-19 07:47:52.109341
"KDCU","Decatur/Pryor Fld, AL, US",2025-09-19 10:53:00,"2025-09-19 05:53:00","VFR",16.7,15.6,0,0,NA,8,1017.4,"METAR KDCU 191053Z AUTO 00000KT 8SM CLR 17/16 A3004 RMK AO2 SLP166 T01670156 PWINO $",2025-09-19 11:47:52.116492,2025-09-19 07:47:52.116543
"KCUT","Custer Cnty Arpt, SD, US",2025-09-19 10:53:00,"2025-09-19 10:53:00","VFR",7.8,5.6,310,5,NA,NA,1019.7,"METAR KCUT 191053Z AUTO 31005KT 10SM CLR 08/06 A3011 RMK AO2 SLP164 T00780056 $",2025-09-19 11:47:52.123459,2025-09-19 07:47:52.123525
"KCUB","Columbia/Downtown Arpt, SC, US",2025-09-19 10:53:00,"2025-09-19 06:53:00","VFR",18.9,17.8,0,0,NA,NA,1017.4,"METAR KCUB 191053Z AUTO 00000KT 10SM CLR 19/18 A3004 RMK AO2 SLP171 T01890178",2025-09-19 11:47:52.130442,2025-09-19 07:47:52.13052
"KDEW","Deer Park Arpt, WA, US",2025-09-19 10:53:00,"2025-09-19 10:53:00","VFR",8.9,5,0,0,NA,NA,1014,"METAR KDEW 191053Z AUTO 00000KT 10SM CLR 09/05 A2994 RMK AO2 SLP128 T00890050",2025-09-19 11:47:52.13745,2025-09-19 07:47:52.137516
"KDET","Detroit/C Young Arpt, MI, US",2025-09-19 10:53:00,"2025-09-19 06:53:00","VFR",17.8,16.7,20,3,NA,8,1019.7,"METAR KDET 191053Z 02003KT 8SM CLR 18/17 A3011 RMK AO2 SLP193 T01780167",2025-09-19 11:47:52.144432,2025-09-19 07:47:52.144491
"KCSM","Clinton/Sherman Arpt, OK, US",2025-09-19 10:53:00,"2025-09-19 05:53:00","VFR",17.2,16.1,200,6,NA,NA,1018.7,"METAR KCSM 191053Z AUTO 20006KT 10SM FEW075 SCT100 17/16 A3008 RMK AO2 SLP165 T01720161 $",2025-09-19 11:47:52.151592,2025-09-19 07:47:52.151638
"KDBQ","Dubuque Rgnl, IA, US",2025-09-19 10:53:00,"2025-09-19 05:53:00","VFR",17.8,16.7,360,6,NA,NA,1017,"METAR KDBQ 191053Z 36006KT 10SM SCT095 BKN120 18/17 A3003 RMK AO2 RAE43 SLP164 P0001 T01780167 $",2025-09-19 11:47:52.158419,2025-09-19 07:47:52.158463
"KCRG","Jacksonville/Executive at Craig Arpt, FL, US",2025-09-19 10:53:00,"2025-09-19 06:53:00","VFR",21.1,20.6,0,0,NA,9,1016.3,"METAR KCRG 191053Z 00000KT 9SM CLR 21/21 A3001 RMK AO2 SLP161 T02110206 $",2025-09-19 11:47:52.165149,2025-09-19 07:47:52.165192
"KCNY","Moab/Canyonland Fld, UT, US",2025-09-19 10:53:00,"2025-09-19 04:53:00","VFR",12.8,-1.1,240,3,NA,NA,1017.7,"METAR KCNY 191053Z AUTO 24003KT 10SM CLR 13/M01 A3005 RMK AO2 SLP129 T01281011 $",2025-09-19 11:47:52.171932,2025-09-19 07:47:52.171976
"KDEN","Denver Intl, CO, US",2025-09-19 10:53:00,"2025-09-19 04:53:00","VFR",9.4,6.7,240,7,NA,NA,1020.4,"METAR KDEN 191053Z 24007KT 10SM CLR 09/07 A3013 RMK AO2 SLP147 T00940067",2025-09-19 11:47:52.191669,2025-09-19 07:47:52.191719
"KCNM","Carlsbad/Cavern City Air Term, NM, US",2025-09-19 10:53:00,"2025-09-19 04:53:00","VFR",20,13.9,310,6,NA,NA,1018.7,"METAR KCNM 191053Z AUTO 31006KT 10SM BKN120 20/14 A3008 RMK AO2 SLP131 T02000139",2025-09-19 11:47:52.199223,2025-09-19 07:47:52.199272
"KCYS","Cheyenne Rgnl, WY, US",2025-09-19 10:53:00,"2025-09-19 04:53:00","VFR",7.2,4.4,280,5,NA,NA,1020.4,"METAR KCYS 191053Z AUTO 28005KT 10SM CLR 07/04 A3013 RMK AO2 SLP145 T00720044 $",2025-09-19 11:47:52.20617,2025-09-19 07:47:52.206216
"KCNU","Chanute/Johnson Arpt, KS, US",2025-09-19 10:52:00,"2025-09-19 05:52:00","VFR",17.2,17.2,0,0,NA,7,1016.7,"METAR KCNU 191052Z AUTO 00000KT 7SM CLR 17/17 A3002 RMK AO2 SLP158 T01720172",2025-09-19 11:47:52.212883,2025-09-19 07:47:52.212926
"KDDC","Dodge City Arpt, KS, US",2025-09-19 10:52:00,"2025-09-19 05:52:00","VFR",11.7,11.1,20,3,NA,7,1018.7,"METAR KDDC 191052Z AUTO 02003KT 7SM CLR 12/11 A3008 RMK AO2 SLP167 T01170111 $",2025-09-19 11:47:52.219621,2025-09-19 07:47:52.219668
"KCVG","Cincinnati Intl, KY, US",2025-09-19 10:52:00,"2025-09-19 06:52:00","VFR",16.7,14.4,0,0,NA,NA,1018,"METAR KCVG 191052Z 00000KT 10SM FEW060 17/14 A3006 RMK AO2 SLP170 T01670144",2025-09-19 11:47:52.226442,2025-09-19 07:47:52.226508
"KCQX","Chatham Muni, MA, US",2025-09-19 10:52:00,"2025-09-19 10:52:00","VFR",16.7,14.4,NA,4,NA,NA,1011.9,"METAR KCQX 191052Z AUTO VRB04KT 10SM CLR 17/14 A2988 RMK AO2 SLP121 T01670144",2025-09-19 11:47:52.233279,2025-09-19 07:47:52.233324
"KDCA","Washington/Reagan-National Arpt, VA, US",2025-09-19 10:52:00,"2025-09-19 06:52:00","VFR",18.9,17.8,0,0,NA,NA,1016,"METAR KDCA 191052Z 00000KT 10SM CLR 19/18 A3000 RMK AO2 SLP159 T01890178 $",2025-09-19 11:47:52.239968,2025-09-19 07:47:52.240013
"KCRP","Corpus Christi Intl, TX, US",2025-09-19 10:51:00,"2025-09-19 05:51:00","VFR",23.9,21.7,0,0,NA,NA,1014.6,"METAR KCRP 191051Z 00000KT 10SM FEW028 OVC250 24/22 A2996 RMK AO2 SLP143 T02390217 $",2025-09-19 11:47:52.246877,2025-09-19 07:47:52.246922
"KCSG","Columbus Arpt, GA, US",2025-09-19 10:51:00,"2025-09-19 06:51:00","VFR",18.9,17.2,60,3,NA,NA,1017,"METAR KCSG 191051Z AUTO 06003KT 10SM CLR 19/17 A3003 RMK AO2 SLP163 T01890172 $",2025-09-19 11:47:52.25367,2025-09-19 07:47:52.253722
"KCON","Concord Muni, NH, US",2025-09-19 10:51:00,"2025-09-19 06:51:00","VFR",10.6,10,0,0,NA,NA,1013.3,"METAR KCON 191051Z AUTO 00000KT 10SM CLR 11/10 A2992 RMK AO2 SLP131 T01060100",2025-09-19 11:47:52.260747,2025-09-19 07:47:52.260792
"KDAW","Rochester/Skyhaven Arpt, NH, US",2025-09-19 10:51:00,"2025-09-19 10:51:00","VFR",17.8,14.4,290,6,NA,NA,1012.3,"METAR KDAW 191051Z AUTO 29006KT 10SM CLR 18/14 A2989 RMK AO2 SLPNO T01780144 $",2025-09-19 11:47:52.267566,2025-09-19 07:47:52.267612
"KCWA","Mosinee/C Wisconsin Arpt, WI, US",2025-09-19 10:50:00,"2025-09-19 05:50:00","IFR",16,15,110,7,NA,NA,1019.7,"METAR KCWA 191050Z 11007KT 10SM OVC006 16/15 A3011",2025-09-19 11:47:52.274799,2025-09-19 07:47:52.274844
"KDAG","Barstow/Daggett Cnty, CA, US",2025-09-19 10:50:00,"2025-09-19 03:50:00","VFR",20,18.9,0,0,NA,NA,1013.3,"METAR KDAG 191050Z AUTO 00000KT 10SM BKN032 20/19 A2992 RMK AO2 SLP110 T02000189",2025-09-19 11:47:52.281847,2025-09-19 07:47:52.281896
"KEMP","Emporia Muni, KS, US",2025-09-19 11:44:00,"2025-09-19 06:44:00","IFR",13.9,13.9,330,4,NA,2,1017.4,"SPECI KEMP 191144Z AUTO 33004KT 2SM BR CLR 14/14 A3004 RMK AO2 T01390139",2025-09-19 11:47:54.041391,2025-09-19 07:47:54.041436
"KDVT","Phoenix/Deer Valley Arpt, AZ, US",2025-09-19 11:44:00,"2025-09-19 04:44:00","VFR",22.2,18.3,70,9,19,NA,1012.6,"SPECI KDVT 191144Z AUTO 07009G19KT 10SM OVC085 22/18 A2990 RMK AO2 LTG DSNT NE AND NW TSE10 T02220183",2025-09-19 11:47:54.048672,2025-09-19 07:47:54.04872
"KDPL","Kenansville/Duplin Arpt, NC, US",2025-09-19 11:40:00,"2025-09-19 11:40:00","LIFR",17,NA,0,0,NA,0.25,1018,"METAR KDPL 191140Z AUTO 00000KT M1/4SM FG OVC002 17/ A3006 RMK AO2",2025-09-19 11:47:54.055229,2025-09-19 07:47:54.05527
"KDOV","Dover AFB, DE, US",2025-09-19 11:39:00,"2025-09-19 07:39:00","MVFR",19,18,0,0,NA,4,1015.3,"SPECI KDOV 191139Z 00000KT 4SM BR FEW000 19/18 A2998 RMK AO2A SLP156",2025-09-19 11:47:54.061627,2025-09-19 07:47:54.06167
"KDVN","Davenport Muni, IA, US",2025-09-19 11:39:00,"2025-09-19 06:39:00","MVFR",18.3,17.8,40,10,NA,5,1017,"SPECI KDVN 191139Z AUTO 04010KT 5SM +RA BR FEW050 SCT075 OVC090 18/18 A3003 RMK AO2 RAB03 P0010 T01830178",2025-09-19 11:47:54.068205,2025-09-19 07:47:54.068265
"KDWH","Houston/Hooks Mem, TX, US",2025-09-19 11:37:00,"2025-09-19 06:37:00","IFR",20.6,20.6,0,0,NA,1.75,1016.3,"SPECI KDWH 191137Z AUTO 00000KT 1 3/4SM BR CLR 21/21 A3001 RMK AO2 T02060206",2025-09-19 11:47:54.074844,2025-09-19 07:47:54.074888
"KEKM","Elkhart Muni, IN, US",2025-09-19 11:35:00,"2025-09-19 07:35:00","VFR",16.1,16.1,70,3,NA,7,1018.4,"METAR KEKM 191135Z AUTO 07003KT 7SM CLR 16/16 A3007 RMK AO2 T01610161 $",2025-09-19 11:47:54.081456,2025-09-19 07:47:54.081518
"KE41","Big Lake/Reagan Cnty, TX, US",2025-09-19 11:35:00,"2025-09-19 11:35:00","VFR",20.2,14.9,160,6,NA,NA,1019,"METAR KE41 191135Z AUTO 16006KT 10SM CLR 20/15 A3009 RMK AO2 T02020149",2025-09-19 11:47:54.088046,2025-09-19 07:47:54.08809
"KDUX","Dumas/Moore Cnty, TX, US",2025-09-19 11:35:00,"2025-09-19 11:35:00","VFR",14.3,13.8,0,0,NA,7,1020.7,"METAR KDUX 191135Z AUTO 00000KT 7SM CLR 14/14 A3014 RMK AO2 T01430138",2025-09-19 11:47:54.094525,2025-09-19 07:47:54.094573
"KDRM","Drummond Island Arpt, MI, US",2025-09-19 11:35:00,"2025-09-19 07:35:00","VFR",13,10.1,50,4,NA,NA,1022.4,"METAR KDRM 191135Z AUTO 05004KT 10SM OVC039 13/10 A3019 RMK AO2 T01300101",2025-09-19 11:47:54.101035,2025-09-19 07:47:54.101079
"KDUC","Duncan/Halliburton Fld, OK, US",2025-09-19 11:35:00,"2025-09-19 06:35:00","VFR",19,18,60,9,NA,NA,1018.4,"METAR KDUC 191135Z AUTO 06009KT 10SM BKN085 OVC100 19/18 A3007 RMK AO2 LTG DSNT E AND SE",2025-09-19 11:47:54.107583,2025-09-19 07:47:54.107628
"KEDE","Edenton/Northeast Rgnl, NC, US",2025-09-19 11:35:00,"2025-09-19 07:35:00","LIFR",NA,NA,0,0,NA,0.25,1018.4,"METAR KEDE 191135Z AUTO 00000KT M1/4SM FG OVC002 A3007 RMK AO2",2025-09-19 11:47:54.114147,2025-09-19 07:47:54.11419
"KEMM","Kemmerer Muni, WY, US",2025-09-19 11:35:00,"2025-09-19 05:35:00",NA,6,-2,0,0,NA,NA,1023.8,"METAR KEMM 191135Z AUTO 00000KT 10SM 06/M02 A3023 RMK AO2",2025-09-19 11:47:54.120725,2025-09-19 07:47:54.120769
"KDMW","Westminster/Carroll Cnty Rgnl, MD, US",2025-09-19 11:35:00,"2025-09-19 11:35:00","VFR",18,16,350,3,NA,NA,1017.4,"METAR KDMW 191135Z AUTO 35003KT 10SM CLR 18/16 A3004 RMK AO2",2025-09-19 11:47:54.127293,2025-09-19 07:47:54.127337
"KDRP","Colt/Delta Rgnl, AR, US",2025-09-19 11:35:00,"2025-09-19 11:35:00","VFR",21,19,300,8,NA,9,1016.3,"METAR KDRP 191135Z AUTO 30008KT 9SM FEW070 OVC095 21/19 A3001 RMK AO2",2025-09-19 11:47:54.133868,2025-09-19 07:47:54.13391
"KELO","Ely Muni, MN, US",2025-09-19 11:35:00,"2025-09-19 06:35:00","VFR",12,4,100,3,NA,NA,1020.7,"METAR KELO 191135Z AUTO 10003KT 10SM BKN036 BKN050 OVC085 12/04 A3014 RMK AO2",2025-09-19 11:47:54.140442,2025-09-19 07:47:54.140507
"KDNS","Denison Muni, IA, US",2025-09-19 11:35:00,"2025-09-19 06:35:00","MVFR",17,17,230,7,NA,3,1015,"METAR KDNS 191135Z AUTO 23007KT 3SM BR SCT004 BKN010 OVC016 17/17 A2997 RMK AO2",2025-09-19 11:47:54.147044,2025-09-19 07:47:54.147088
"KECU","Rocksprings/Edwards Cnty, TX, US",2025-09-19 11:35:00,"2025-09-19 11:35:00","VFR",19,16,170,4,NA,NA,1020.1,"METAR KECU 191135Z AUTO 17004KT 10SM CLR 19/16 A3012 RMK AO2",2025-09-19 11:47:54.15368,2025-09-19 07:47:54.153726
"KDZJ","Blairsville Arpt, GA, US",2025-09-19 11:35:00,"2025-09-19 11:35:00","LIFR",12.8,NA,0,0,NA,0.25,1020.7,"METAR KDZJ 191135Z AUTO 00000KT M1/4SM FG OVC001 13/ A3014 RMK AO2 T0128////",2025-09-19 11:47:54.160138,2025-09-19 07:47:54.160181
"KE11","Andrews Cnty, TX, US",2025-09-19 11:35:00,"2025-09-19 11:35:00","VFR",18.4,12.5,0,0,NA,NA,1019.4,"METAR KE11 191135Z AUTO 00000KT 10SM CLR 18/13 A3010 RMK AO2 T01840125",2025-09-19 11:47:54.179635,2025-09-19 07:47:54.179686
"KEFT","Monroe Muni, WI, US",2025-09-19 11:35:00,"2025-09-19 11:35:00","VFR",17.5,16.7,60,6,NA,7,1017.7,"METAR KEFT 191135Z AUTO 06006KT 7SM BKN090 BKN110 18/17 A3005 RMK AO2 T01750167",2025-09-19 11:47:54.186693,2025-09-19 07:47:54.186735
"KEIK","Erie Muni, CO, US",2025-09-19 11:35:00,"2025-09-19 11:35:00","VFR",8.1,6.6,180,3,NA,NA,1020.1,"METAR KEIK 191135Z AUTO 18003KT 10SM CLR 08/07 A3012 RMK AO2 T00810066",2025-09-19 11:47:54.193172,2025-09-19 07:47:54.193218
"KDNV","Danville/Vermillion Rgnl, IL, US",2025-09-19 11:35:00,"2025-09-19 06:35:00","VFR",14.5,13,120,3,NA,NA,1017.7,"METAR KDNV 191135Z AUTO 12003KT 10SM CLR 15/13 A3005 RMK AO2 T01450130",2025-09-19 11:47:54.199632,2025-09-19 07:47:54.199691
"KELA","Eagle Lake Arpt, TX, US",2025-09-19 11:35:00,"2025-09-19 06:35:00","IFR",19.4,19.3,0,0,NA,1,1016.3,"METAR KELA 191135Z AUTO 00000KT 1SM BR VV007 19/19 A3001 RMK AO2 T01940193",2025-09-19 11:47:54.20625,2025-09-19 07:47:54.206296
"KE01","Monahans/Hurd Mem, TX, US",2025-09-19 11:35:00,"2025-09-19 06:35:00","VFR",22,15,100,6,NA,NA,1017.7,"METAR KE01 191135Z AUTO 10006KT 10SM CLR 22/15 A3005 RMK AO2",2025-09-19 11:47:54.212914,2025-09-19 07:47:54.212963
"KE38","Alpine/Casparis Muni, TX, US",2025-09-19 11:35:00,"2025-09-19 06:35:00","VFR",16.7,13.9,0,0,NA,NA,1022.4,"METAR KE38 191135Z AUTO 00000KT 10SM OVC120 17/14 A3019 RMK AO2 T01670139",2025-09-19 11:47:54.219543,2025-09-19 07:47:54.21959
"KDNN","Dalton Muni, GA, US",2025-09-19 11:35:00,"2025-09-19 07:35:00","VFR",15.4,15.4,0,0,NA,6,1018,"METAR KDNN 191135Z AUTO 00000KT 6SM BR CLR 15/15 A3006 RMK AO2 RAB1123E1134 P0000 T01540154",2025-09-19 11:47:54.226094,2025-09-19 07:47:54.226135
"KDRI","Deridder/Beauregard Rgnl, LA, US",2025-09-19 11:35:00,"2025-09-19 06:35:00","VFR",19.2,19.2,0,0,NA,9,1017,"METAR KDRI 191135Z AUTO 00000KT 9SM CLR 19/19 A3003 RMK AO2 T01920192 $",2025-09-19 11:47:54.232778,2025-09-19 07:47:54.232826
"KEDN","Enterprise Muni, AL, US",2025-09-19 11:35:00,"2025-09-19 06:35:00","VFR",18.6,17.6,0,0,NA,NA,1017,"METAR KEDN 191135Z AUTO 00000KT 10SM CLR 19/18 A3003 RMK AO1 T01860176",2025-09-19 11:47:54.23946,2025-09-19 07:47:54.239526
"KEFK","Newport/Northeast Kingdom Intl, VT, US",2025-09-19 11:35:00,"2025-09-19 07:35:00","VFR",11.5,7.2,320,7,NA,NA,1017,"METAR KEFK 191135Z AUTO 32007KT 10SM SCT021 OVC031 12/07 A3003 RMK AO2 T01150072",2025-09-19 11:47:54.246183,2025-09-19 07:47:54.246228
"KEDJ","Bellefontaine Rgnl, OH, US",2025-09-19 11:35:00,"2025-09-19 11:35:00","VFR",14,12,0,0,NA,NA,1019.4,"METAR KEDJ 191135Z AUTO 00000KT 10SM CLR 14/12 A3010 RMK A01",2025-09-19 11:47:54.252828,2025-09-19 07:47:54.252874
"KEBG","Edinburg/S Texas Intl, TX, US",2025-09-19 11:35:00,"2025-09-19 11:35:00","MVFR",23,23,360,5,NA,3,1014.3,"METAR KEBG 191135Z AUTO 36005KT 3SM BR CLR 23/23 A2995 RMK AO2",2025-09-19 11:47:54.259443,2025-09-19 07:47:54.259507
"KDZB","Marble Falls/Horseshoe Bay Arpt, TX, US",2025-09-19 11:35:00,"2025-09-19 11:35:00","VFR",20.1,17.5,0,0,NA,7,1017.7,"METAR KDZB 191135Z AUTO 00000KT 7SM CLR 20/18 A3005 RMK AO2 T02010175",2025-09-19 11:47:54.266023,2025-09-19 07:47:54.266066
"KEHA","Elkhart/Morton Cnty, KS, US",2025-09-19 11:35:00,"2025-09-19 11:35:00","VFR",16.1,14.5,190,10,NA,NA,1021.1,"METAR KEHA 191135Z AUTO 19010KT 10SM BKN065 OVC075 16/14 A3015 RMK AO2 T01610145",2025-09-19 11:47:54.272754,2025-09-19 07:47:54.2728
"KE16","San Martin Arpt, CA, US",2025-09-19 11:35:00,"2025-09-19 11:35:00","VFR",17,14,140,5,NA,NA,1012.3,"METAR KE16 191135Z AUTO 14005KT 10SM OVC100 17/14 A2989 RMK AO2",2025-09-19 11:47:54.279628,2025-09-19 07:47:54.279674
"KEAN","Wheatland/Phifer Fld, WY, US",2025-09-19 11:35:00,"2025-09-19 05:35:00","VFR",8.6,7.4,0,0,NA,7,1020.1,"METAR KEAN 191135Z AUTO 00000KT 7SM SCT120 09/07 A3012 RMK AO2 T00860074",2025-09-19 11:47:54.286275,2025-09-19 07:47:54.28632
"KEHO","Shelby/Cleveland Cnty, NC, US",2025-09-19 11:35:00,"2025-09-19 11:35:00","VFR",16.6,15.8,0,0,NA,7,1018.7,"METAR KEHO 191135Z AUTO 00000KT 7SM CLR 17/16 A3008 RMK AO2 T01660158",2025-09-19 11:47:54.292885,2025-09-19 07:47:54.292934
"KDLO","Delano Muni, CA, US",2025-09-19 11:35:00,"2025-09-19 11:35:00","IFR",17.8,17.5,300,3,NA,5,1011.6,"METAR KDLO 191135Z AUTO 30003KT 5SM BR BKN006 OVC060 18/18 A2987 RMK AO2 T01780175",2025-09-19 11:47:54.299391,2025-09-19 07:47:54.299436
"KDYA","Demopolis Muni, AL, US",2025-09-19 11:35:00,"2025-09-19 11:35:00","VFR",18.9,18,0,0,NA,7,1017,"METAR KDYA 191135Z AUTO 00000KT 7SM CLR 19/18 A3003 RMK AO2 T01890180",2025-09-19 11:47:54.319036,2025-09-19 07:47:54.319082
"KDWA","Davis/Yolo Cnty, CA, US",2025-09-19 11:35:00,"2025-09-19 11:35:00","VFR",20,12,120,7,NA,NA,1010.9,"METAR KDWA 191135Z AUTO 12007KT 10SM CLR 20/12 A2985 RMK AO2",2025-09-19 11:47:54.32594,2025-09-19 07:47:54.325985
"KE77","San Manuel Arpt, AZ, US",2025-09-19 11:35:00,"2025-09-19 11:35:00","MVFR",21,21,60,3,NA,5,1018.4,"METAR KE77 191135Z AUTO 06003KT 5SM BR SCT002 21/21 A3007 RMK AO2",2025-09-19 11:47:54.33234,2025-09-19 07:47:54.332383
"KEDU","Davis/University Arpt, CA, US",2025-09-19 11:35:00,"2025-09-19 11:35:00","VFR",19,13,150,4,NA,NA,1010.9,"METAR KEDU 191135Z AUTO 15004KT 10SM CLR 19/13 A2985 RMK AO1",2025-09-19 11:47:54.338912,2025-09-19 07:47:54.338956
"KDSM","Des Moines Intl, IA, US",2025-09-19 11:35:00,"2025-09-19 06:35:00","MVFR",17.8,17.2,170,5,NA,8,1015.7,"SPECI KDSM 191135Z 17005KT 8SM SCT005 OVC012 18/17 A2999 RMK AO2 T01780172",2025-09-19 11:47:54.345566,2025-09-19 07:47:54.34561
"KDYT","Duluth/Sky Harbor Arpt, MN, US",2025-09-19 11:35:00,"2025-09-19 11:35:00","MVFR",14,14,50,23,28,NA,1018.4,"METAR KDYT 191135Z AUTO 05023G28KT 10SM SCT008 OVC012 14/14 A3007 RMK AO2",2025-09-19 11:47:54.352142,2025-09-19 07:47:54.352186
"KEKX","Elizabethtown/Addington Fld, KY, US",2025-09-19 11:35:00,"2025-09-19 07:35:00","VFR",13.5,13,0,0,NA,NA,1018,"METAR KEKX 191135Z AUTO 00000KT 10SM CLR 14/13 A3006 RMK AO2 T01350130",2025-09-19 11:47:54.358693,2025-09-19 07:47:54.358737
"KDLZ","Delaware Muni, OH, US",2025-09-19 11:35:00,"2025-09-19 11:35:00","VFR",14,12,90,1,NA,NA,1019,"METAR KDLZ 191135Z AUTO 09001KT 10SM CLR 14/12 A3009 RMK AO2",2025-09-19 11:47:54.365244,2025-09-19 07:47:54.365288
"KDQH","Douglas Muni, GA, US",2025-09-19 11:35:00,"2025-09-19 11:35:00","VFR",21,18.5,0,0,NA,NA,1017.7,"METAR KDQH 191135Z AUTO 00000KT 10SM CLR 21/19 A3005 RMK AO2 T02100185",2025-09-19 11:47:54.371856,2025-09-19 07:47:54.371902
"KDTA","Delta Muni, UT, US",2025-09-19 11:35:00,"2025-09-19 05:35:00","VFR",18,2,170,14,NA,NA,1018.4,"METAR KDTA 191135Z AUTO 17014KT 10SM CLR 18/02 A3007 RMK AO1",2025-09-19 11:47:54.378407,2025-09-19 07:47:54.378452
"KE57","Denver City Arpt, TX, US",2025-09-19 11:35:00,"2025-09-19 11:35:00","VFR",16,12,0,0,NA,NA,1020.1,"METAR KE57 191135Z AUTO 00000KT 10SM CLR 16/12 A3012 RMK AO2",2025-09-19 11:47:54.385,2025-09-19 07:47:54.385045
"KDUH","Toledo/Suburban Arpt, MI, US",2025-09-19 11:35:00,"2025-09-19 11:35:00","LIFR",16.4,16.4,0,0,NA,0.75,1019.4,"METAR KDUH 191135Z AUTO 00000KT 3/4SM BR VV005 16/16 A3010 RMK AO2 VIS 1/2V1 1/2 T01640164",2025-09-19 11:47:54.391435,2025-09-19 07:47:54.391494
"KDXX","Madison/Lac Qui Parle Cnty, MN, US",2025-09-19 11:35:00,"2025-09-19 11:35:00","MVFR",17,NA,70,3,NA,5,1013.6,"METAR KDXX 191135Z AUTO 07003KT 5SM RA SCT065 SCT070 BKN110 17/ A2993 RMK AO2 P0001",2025-09-19 11:47:54.397944,2025-09-19 07:47:54.397987
"KELK","Elk City Rgnl, OK, US",2025-09-19 11:35:00,"2025-09-19 06:35:00","VFR",16.8,16.8,0,0,NA,NA,1018.4,"METAR KELK 191135Z AUTO 00000KT 10SM CLR 17/17 A3007 RMK AO2 T01680168 $",2025-09-19 11:47:54.40455,2025-09-19 07:47:54.404597
"KDVO","Novato/Gnoss Fld, CA, US",2025-09-19 11:35:00,"2025-09-19 04:35:00","MVFR",16,16,20,6,NA,NA,1011.3,"METAR KDVO 191135Z AUTO 02006KT 10SM BKN012 BKN046 OVC095 16/16 A2986 RMK AO2",2025-09-19 11:47:54.411171,2025-09-19 07:47:54.411217
"KEGT","Wellington Muni, KS, US",2025-09-19 11:35:00,"2025-09-19 11:35:00","VFR",15,14.8,160,4,NA,NA,1018,"METAR KEGT 191135Z AUTO 16004KT 10SM CLR 15/15 A3006 RMK AO2 T01500148",2025-09-19 11:47:54.417789,2025-09-19 07:47:54.417834
"KDYB","Summerville Arpt, SC, US",2025-09-19 11:35:00,"2025-09-19 11:35:00","LIFR",19,19,0,0,NA,0.25,1017,"METAR KDYB 191135Z AUTO 00000KT M1/4SM FG OVC002 19/19 A3003 RMK AO2",2025-09-19 11:47:54.424338,2025-09-19 07:47:54.424381
"KEGV","Eagle River/Union Arpt, WI, US",2025-09-19 11:35:00,"2025-09-19 06:35:00","VFR",13.2,13.2,70,3,NA,NA,1020.7,"METAR KEGV 191135Z AUTO 07003KT 10SM SCT008 BKN065 OVC075 13/13 A3014 RMK AO2 T01320132",2025-09-19 11:47:54.431068,2025-09-19 07:47:54.431113
"KDUA","Durant/Eaker Fld, OK, US",2025-09-19 11:35:00,"2025-09-19 06:35:00","VFR",20,20,330,8,15,8,1018.4,"METAR KDUA 191135Z AUTO 33008G15KT 8SM SCT085 20/20 A3007 RMK AO2",2025-09-19 11:47:54.449703,2025-09-19 07:47:54.449778
"KEDC","Austin/Executive Arpt, TX, US",2025-09-19 11:35:00,"2025-09-19 11:35:00","VFR",22,22,0,0,NA,7,1016.3,"METAR KEDC 191135Z AUTO 00000KT 7SM OVC065 22/22 A3001 RMK AO2",2025-09-19 11:47:54.457092,2025-09-19 07:47:54.457136
"KECS","Newcastle/Mondell Arpt, WY, US",2025-09-19 11:35:00,"2025-09-19 05:35:00","MVFR",7,7,310,5,NA,5,1019.7,"METAR KECS 191135Z AUTO 31005KT 5SM BR CLR 07/07 A3011 RMK AO2",2025-09-19 11:47:54.463693,2025-09-19 07:47:54.463737
"KEKS","Ennis/Big Sky Arpt, MT, US",2025-09-19 11:30:00,"2025-09-19 11:30:00","VFR",6,3,0,0,NA,NA,1022.1,"METAR KEKS 191130Z AUTO 00000KT 10SM CLR 06/03 A3018 RMK AO2",2025-09-19 11:47:54.470142,2025-09-19 07:47:54.470187
"KDVK","Danville/Powell Fld, KY, US",2025-09-19 11:30:00,"2025-09-19 11:30:00","VFR",13,12,0,0,NA,NA,1019.4,"METAR KDVK 191130Z AUTO 00000KT 10SM CLR 13/12 A3010 RMK AO2",2025-09-19 11:47:54.476779,2025-09-19 07:47:54.476825
"KEAU","Eau Claire/Chippewa Valley Rgnl, WI, US",2025-09-19 11:29:00,"2025-09-19 06:29:00","VFR",18.9,17.8,120,8,NA,8,1017.4,"SPECI KEAU 191129Z 12008KT 8SM -RA FEW009 OVC110 19/18 A3004 RMK AO2 RAB11 P0001 T01890178",2025-09-19 11:47:54.483342,2025-09-19 07:47:54.483387
"KDTL","Detroit Lakes Arpt, MN, US",2025-09-19 11:28:00,"2025-09-19 06:28:00","IFR",15,15,100,7,NA,NA,1015.7,"METAR KDTL 191128Z 10007KT 10SM OVC005 15/15 A2999 RMK AO2",2025-09-19 11:47:54.489957,2025-09-19 07:47:54.490002
"KEDW","Edwards AFB, CA, US",2025-09-19 11:25:00,"2025-09-19 04:25:00","MVFR",20,18,220,3,NA,NA,1013,"SPECI KEDW 191125Z AUTO 22003KT 10SM BKN012 OVC017 20/18 A2991 RMK AO2 SLPNO $",2025-09-19 11:47:54.49653,2025-09-19 07:47:54.496579
"KECG","Elizabeth City Rgnl, NC, US",2025-09-19 11:11:00,"2025-09-19 07:11:00","LIFR",16.1,16.1,0,0,NA,0.25,1017.4,"SPECI KECG 191111Z 00000KT M1/4SM FG VV002 16/16 A3004 RMK AO2 T01610161",2025-09-19 11:47:54.503055,2025-09-19 07:47:54.503098
"KDVL","Devils Lake Rgnl, ND, US",2025-09-19 11:04:00,"2025-09-19 06:04:00","LIFR",14,14,30,7,NA,3,1016.3,"SPECI KDVL 191104Z AUTO 03007KT 3SM BR OVC002 14/14 A3001 RMK AO2",2025-09-19 11:47:54.509537,2025-09-19 07:47:54.509581
"KEKQ","Monticello/Wayne Cnty, KY, US",2025-09-19 10:56:00,"2025-09-19 10:56:00","VFR",11.7,11.7,0,0,NA,9,1019.7,"METAR KEKQ 191056Z AUTO 00000KT 9SM CLR 12/12 A3011 RMK AO2 SLP186 T01170117 PNO $",2025-09-19 11:47:54.516019,2025-09-19 07:47:54.516062
"KEGE","Eagle Cnty Rgnl, CO, US",2025-09-19 10:56:00,"2025-09-19 04:56:00","VFR",2.8,-1.1,110,5,NA,NA,1026.5,"METAR KEGE 191056Z AUTO 11005KT 10SM CLR 03/M01 A3031 RMK AO2 SLP209 T00281011 $",2025-09-19 11:47:54.522648,2025-09-19 07:47:54.522693
"KELZ","Wellsville/Tarantine Fld, NY, US",2025-09-19 10:56:00,"2025-09-19 06:56:00","IFR",16.1,14.4,320,3,NA,9,1020.1,"METAR KELZ 191056Z AUTO 32003KT 9SM OVC006 16/14 A3012 RMK AO2 SLP190 T01610144 $",2025-09-19 11:47:54.529176,2025-09-19 07:47:54.529219
"KDYR","Dyersburg Rgnl, TN, US",2025-09-19 10:56:00,"2025-09-19 10:56:00","VFR",18.9,18.9,0,0,NA,NA,1016.3,"METAR KDYR 191056Z AUTO 00000KT 10SM CLR 19/19 A3001 RMK AO2 SLP163 T01890189",2025-09-19 11:47:54.535741,2025-09-19 07:47:54.535786
"KEHR","Henderson City Arpt, KY, US",2025-09-19 10:56:00,"2025-09-19 10:56:00","VFR",13.9,11.7,0,0,NA,NA,1017.4,"METAR KEHR 191056Z AUTO 00000KT 10SM CLR 14/12 A3004 RMK AO2 SLP169 T01390117",2025-09-19 11:47:54.542361,2025-09-19 07:47:54.542412
"KEAR","Kearney Rgnl, NE, US",2025-09-19 10:56:00,"2025-09-19 05:56:00","VFR",10.6,10,290,6,NA,NA,1017.7,"METAR KEAR 191056Z AUTO 29006KT 10SM CLR 11/10 A3005 RMK AO2 SLP169 T01060100",2025-09-19 11:47:54.549018,2025-09-19 07:47:54.549064
"KEKO","Elko Rgnl, NV, US",2025-09-19 10:56:00,"2025-09-19 03:56:00","VFR",13.3,0,150,4,NA,NA,1017.4,"METAR KEKO 191056Z AUTO 15004KT 10SM CLR 13/00 A3004 RMK AO2 SLP119 T01330000",2025-09-19 11:47:54.555689,2025-09-19 07:47:54.555735
"KEEN","Keene/Hopkins Arpt, NH, US",2025-09-19 10:56:00,"2025-09-19 06:56:00","VFR",8.9,8.3,0,0,NA,NA,1014.6,"METAR KEEN 191056Z AUTO 00000KT 10SM BKN050 09/08 A2996 RMK AO2 SLP148 T00890083 $",2025-09-19 11:47:54.562399,2025-09-19 07:47:54.562445
"KEED","Needles Arpt, CA, US",2025-09-19 10:56:00,"2025-09-19 03:56:00","VFR",22.8,20.6,220,4,NA,NA,1012.3,"METAR KEED 191056Z AUTO 22004KT 10SM BKN060 BKN110 23/21 A2989 RMK AO2 SLP096 T02280206 $",2025-09-19 11:47:54.569026,2025-09-19 07:47:54.569073
"KDWU","Ashland Rgnl, KY, US",2025-09-19 10:56:00,"2025-09-19 10:56:00","VFR",13.3,NA,0,0,NA,7,1018.7,"METAR KDWU 191056Z AUTO 00000KT 7SM FEW002 13/ A3008 RMK AO2 SLP182 T0133",2025-09-19 11:47:54.590463,2025-09-19 07:47:54.590527
"KDYS","Abilene/Dyess AFB, TX, US",2025-09-19 10:55:00,"2025-09-19 05:55:00","VFR",19.7,12.4,170,4,NA,NA,1016.3,"METAR KDYS 191055Z AUTO 17004KT 10SM CLR 20/12 A3001 RMK AO2 SLP136 T01970124",2025-09-19 11:47:54.597601,2025-09-19 07:47:54.59765
"KDMA","Tucson/Davis AFB, AZ, US",2025-09-19 10:55:00,"2025-09-19 03:55:00","VFR",23,18,150,4,NA,NA,1015,"METAR KDMA 191055Z 15004KT 10SM BKN100 BKN130 23/18 A2997 RMK AO2A SLPNO ALSTG ESTMD $",2025-09-19 11:47:54.604665,2025-09-19 07:47:54.604712
"KEGI","Eglin AFB/Duke Fld, FL, US",2025-09-19 10:55:00,"2025-09-19 05:55:00","VFR",19,17.7,0,0,NA,NA,1016.3,"METAR KEGI 191055Z AUTO 00000KT 10SM CLR 19/18 A3001 RMK AO2 SLP161 T01900177 $",2025-09-19 11:47:54.611319,2025-09-19 07:47:54.611365
"KEAT","Wenatchee/Pangborn Mem, WA, US",2025-09-19 10:55:00,"2025-09-19 03:55:00","VFR",17.8,9.4,310,10,NA,NA,1013.6,"METAR KEAT 191055Z AUTO 31010KT 10SM -RA CLR 18/09 A2993 RMK AO2 SLP125 P0000 T01780094",2025-09-19 11:47:54.617945,2025-09-19 07:47:54.61799
"KEFD","Houston/Ellington Arpt, TX, US",2025-09-19 10:54:00,"2025-09-19 05:54:00","VFR",24,21,30,3,NA,NA,1015.3,"METAR KEFD 191054Z 03003KT 10SM FEW020 24/21 A2998",2025-09-19 11:47:54.624635,2025-09-19 07:47:54.624679
"KDSV","Dansville Muni, NY, US",2025-09-19 10:54:00,"2025-09-19 06:54:00","MVFR",18.3,15,330,6,NA,NA,1019,"METAR KDSV 191054Z AUTO 33006KT 10SM OVC024 18/15 A3009 RMK AO2 SLP194 T01830150",2025-09-19 11:47:54.631218,2025-09-19 07:47:54.631263
"KDYL","Doylestown Arpt, PA, US",2025-09-19 10:54:00,"2025-09-19 06:54:00","VFR",15,13.3,0,0,NA,NA,1016,"METAR KDYL 191054Z AUTO 00000KT 10SM CLR 15/13 A3000 RMK AO2 SLP153 T01500133",2025-09-19 11:47:54.637825,2025-09-19 07:47:54.637871
"KDRT","Del Rio Intl, TX, US",2025-09-19 10:53:00,"2025-09-19 05:53:00","VFR",23.9,20,110,6,NA,NA,1016,"METAR KDRT 191053Z AUTO 11006KT 10SM FEW021 24/20 A3000 RMK AO2 SLP146 T02390200 TSNO",2025-09-19 11:47:54.644443,2025-09-19 07:47:54.644508
"KDTO","Denton Muni, TX, US",2025-09-19 10:53:00,"2025-09-19 10:53:00","VFR",20.6,20.6,0,0,NA,NA,1016,"METAR KDTO 191053Z 00000KT 10SM CLR 21/21 A3000 RMK AO2 SLP149 T02060206 $",2025-09-19 11:47:54.651114,2025-09-19 07:47:54.651157
"KELM","Elmira-Corning Rgnl, NY, US",2025-09-19 10:53:00,"2025-09-19 06:53:00","MVFR",14.4,13.3,0,0,NA,NA,1018.4,"METAR KELM 191053Z 00000KT 10SM OVC021 14/13 A3007 RMK AO2 SLP178 T01440133",2025-09-19 11:47:54.657746,2025-09-19 07:47:54.657799
"KDUJ","Du Bois Rgnl, PA, US",2025-09-19 10:53:00,"2025-09-19 06:53:00","VFR",13.9,10.6,0,0,NA,NA,1019,"METAR KDUJ 191053Z AUTO 00000KT 10SM CLR 14/11 A3009 RMK AO2 SLP180 T01390106",2025-09-19 11:47:54.66439,2025-09-19 07:47:54.664437
"KDRA","Mercury/Desert Rock, NV, US",2025-09-19 10:53:00,"2025-09-19 03:53:00","VFR",17.8,15,300,4,NA,NA,1015.3,"METAR KDRA 191053Z AUTO 30004KT 10SM BKN055 BKN080 18/15 A2998 RMK AO2 SLP113 T01780150",2025-09-19 11:47:54.671014,2025-09-19 07:47:54.67107
"KDXR","Danbury Muni, CT, US",2025-09-19 10:53:00,"2025-09-19 06:53:00","VFR",13.3,11.7,0,0,NA,NA,1015.3,"METAR KDXR 191053Z 00000KT 10SM CLR 13/12 A2998 RMK AO2 SLP149 T01330117 $",2025-09-19 11:47:54.677634,2025-09-19 07:47:54.677678
"KELD","El Dorado/S Arkansas Rgnl, AR, US",2025-09-19 10:53:00,"2025-09-19 05:53:00","VFR",19.4,18.9,0,0,NA,8,1016.3,"METAR KELD 191053Z AUTO 00000KT 8SM CLR 19/19 A3001 RMK AO2 SLP159 T01940189",2025-09-19 11:47:54.684174,2025-09-19 07:47:54.684217
"KDLS","The Dalles Muni, OR, US",2025-09-19 10:53:00,"2025-09-19 03:53:00","VFR",16.7,11.1,0,0,NA,NA,1012.3,"METAR KDLS 191053Z AUTO 00000KT 10SM CLR 17/11 A2989 RMK AO2 SLP118 T01670111",2025-09-19 11:47:54.690787,2025-09-19 07:47:54.690832
"KDNL","Augusta/Daniel Fld, GA, US",2025-09-19 10:53:00,"2025-09-19 06:53:00","VFR",20,18.9,130,4,NA,NA,1017.4,"METAR KDNL 191053Z AUTO 13004KT 10SM CLR 20/19 A3004 RMK AO2 SLP167 T02000189",2025-09-19 11:47:54.69743,2025-09-19 07:47:54.697494
"KECP","Panama City/NW Florida Beaches Intl, FL, US",2025-09-19 10:53:00,"2025-09-19 05:53:00","VFR",21.7,20.6,0,0,NA,NA,1016.3,"METAR KECP 191053Z 00000KT 10SM CLR 22/21 A3001 RMK AO2 SLP172 T02170206",2025-09-19 11:47:54.704055,2025-09-19 07:47:54.704099
"KEET","Alabaster/Shelby Cnty, AL, US",2025-09-19 10:53:00,"2025-09-19 10:53:00","VFR",18.9,18.9,0,0,NA,6,1017,"METAR KEET 191053Z AUTO 00000KT 6SM BR CLR 19/19 A3003 RMK AO2 SLP164 T01890189",2025-09-19 11:47:54.710618,2025-09-19 07:47:54.710662
"KDTN","Shreveport/Downtown Arpt, LA, US",2025-09-19 10:53:00,"2025-09-19 05:53:00","VFR",24.4,20.6,230,5,NA,NA,1016.3,"METAR KDTN 191053Z AUTO 23005KT 10SM CLR 24/21 A3001 RMK AO2 SLP160 T02440206",2025-09-19 11:47:54.730238,2025-09-19 07:47:54.730284
"KDTW","Detroit/Metro Wayne Cnty, MI, US",2025-09-19 10:53:00,"2025-09-19 06:53:00","VFR",17.8,16.7,20,6,NA,7,1019.7,"METAR KDTW 191053Z 02006KT 7SM SCT120 BKN250 18/17 A3011 RMK AO2 SLP191 T01780167",2025-09-19 11:47:54.73739,2025-09-19 07:47:54.737435
"KDMO","Sedalia Mem, MO, US",2025-09-19 10:53:00,"2025-09-19 05:53:00","VFR",16.1,16.1,220,7,NA,8,1017,"METAR KDMO 191053Z AUTO 22007KT 8SM CLR 16/16 A3003 RMK AO2 SLP162 T01610161",2025-09-19 11:47:54.744383,2025-09-19 07:47:54.744447
"KDTS","Destin Arpt, FL, US",2025-09-19 10:53:00,"2025-09-19 05:53:00","VFR",23.3,21.1,350,4,NA,NA,1016.3,"METAR KDTS 191053Z 35004KT 10SM CLR 23/21 A3001 RMK AO2 SLP161 T02330211",2025-09-19 11:47:54.75114,2025-09-19 07:47:54.751183
"KELY","Ely/Yelland Fld, NV, US",2025-09-19 10:53:00,"2025-09-19 03:53:00","VFR",14.4,1.1,160,6,NA,NA,1021.1,"METAR KELY 191053Z AUTO 16006KT 10SM OVC110 14/01 A3015 RMK AO2 SLP109 T01440011",2025-09-19 11:47:54.757879,2025-09-19 07:47:54.757923
"KELN","Ellensburg/Bowers Fld, WA, US",2025-09-19 10:53:00,"2025-09-19 03:53:00","VFR",9.4,7.2,350,5,NA,NA,1014,"METAR KELN 191053Z AUTO 35005KT 10SM CLR 09/07 A2994 RMK AO2 SLP132 T00940072",2025-09-19 11:47:54.76459,2025-09-19 07:47:54.764639
"KDLN","Dillon Arpt, MT, US",2025-09-19 10:53:00,"2025-09-19 04:53:00","VFR",8.3,1.7,200,10,NA,NA,1019.7,"METAR KDLN 191053Z AUTO 20010KT 10SM CLR 08/02 A3011 RMK AO2 SLP152 T00830017",2025-09-19 11:47:54.77119,2025-09-19 07:47:54.771235
"KDMN","Deming Muni, NM, US",2025-09-19 10:53:00,"2025-09-19 04:53:00","VFR",18.9,17.2,350,5,NA,NA,1021.1,"METAR KDMN 191053Z AUTO 35005KT 10SM -RA BKN100 OVC120 19/17 A3015 RMK AO2 SLP133 P0000 T01890172",2025-09-19 11:47:54.777843,2025-09-19 07:47:54.777888
"KEEO","Meeker Arpt, CO, US",2025-09-19 10:53:00,"2025-09-19 10:53:00","VFR",3.9,0,40,4,NA,NA,1023.5,"METAR KEEO 191053Z AUTO 04004KT 10SM CLR 04/00 A3022 RMK AO2 SLP175 T00390000 $",2025-09-19 11:47:54.784451,2025-09-19 07:47:54.784516
"KDRO","Durango/La Plata Cnty, CO, US",2025-09-19 10:53:00,"2025-09-19 04:53:00","VFR",5.6,0,0,0,NA,NA,1024.1,"METAR KDRO 191053Z AUTO 00000KT 10SM CLR 06/00 A3024 RMK AO2 SLP174 T00560000",2025-09-19 11:47:54.791068,2025-09-19 07:47:54.791113
"KDPA","Dupage Cnty Arpt, IL, US",2025-09-19 10:52:00,"2025-09-19 05:52:00","VFR",17.8,15,0,0,NA,9,1017,"METAR KDPA 191052Z 00000KT 9SM CLR 18/15 A3003 RMK AO2 SLP164 T01780150",2025-09-19 11:47:54.797608,2025-09-19 07:47:54.797653
"KEKN","Elkins Arpt, WV, US",2025-09-19 10:51:00,"2025-09-19 06:51:00","LIFR",8.3,8.3,0,0,NA,0.25,1021.1,"METAR KEKN 191051Z AUTO 00000KT 1/4SM FG VV002 08/08 A3015 RMK AO2 SLP206 T00830083",2025-09-19 11:47:54.804082,2025-09-19 07:47:54.804127
"KELP","El Paso Intl, TX, US",2025-09-19 10:51:00,"2025-09-19 04:51:00","VFR",20.6,16.7,360,6,NA,NA,1019.7,"METAR KELP 191051Z 36006KT 10SM -RA FEW040 BKN070 OVC110 21/17 A3011 RMK AO2 SLP136 OCNL LTGIC DSNT N-NE SE AND SW CB DSNT N-NE SE AND SW P0001 T02060167 $",2025-09-19 11:47:54.810666,2025-09-19 07:47:54.81071
"KFNT","Flint/Bishop Intl, MI, US",2025-09-19 11:42:00,"2025-09-19 07:42:00","IFR",17.2,16.1,70,6,NA,7,1020.4,"SPECI KFNT 191142Z 07006KT 7SM BKN005 BKN065 OVC090 17/16 A3013 RMK AO2 T01720161 $",2025-09-19 11:47:56.110707,2025-09-19 07:47:56.110758
"KEWN","New Bern/Coastal Carolina Rgnl, NC, US",2025-09-19 11:42:00,"2025-09-19 07:42:00","LIFR",17.2,17.2,0,0,NA,0.5,1018,"SPECI KEWN 191142Z 00000KT 1/2SM FG VV002 17/17 A3006 RMK AO2 T01720172 $",2025-09-19 11:47:56.117556,2025-09-19 07:47:56.117602
"KEWK","Newton City Arpt, KS, US",2025-09-19 11:42:00,"2025-09-19 06:42:00","IFR",NA,NA,330,5,NA,2.5,1018.4,"SPECI KEWK 191142Z AUTO 33005KT 2 1/2SM BR CLR A3007 RMK AO2 FZRANO $",2025-09-19 11:47:56.138455,2025-09-19 07:47:56.13852
"KFFA","Kill Devil Hill/First Flight Arpt, NC, US",2025-09-19 11:40:00,"2025-09-19 07:40:00","IFR",18.2,18.2,0,0,NA,2,1017.4,"METAR KFFA 191140Z AUTO 00000KT 2SM CLR 18/18 A3004 RMK AO2 T01820182",2025-09-19 11:47:56.145735,2025-09-19 07:47:56.14578
"KFME","Fort Meade/Tipton Fld, MD, US",2025-09-19 11:39:00,"2025-09-19 07:39:00","VFR",13,13,0,0,NA,7,1017.4,"METAR KFME 191139Z AUTO 00000KT 7SM CLR 13/13 A3004 RMK AO1",2025-09-19 11:47:56.152677,2025-09-19 07:47:56.152723
"KEST","Estherville Muni, IA, US",2025-09-19 11:38:00,"2025-09-19 06:38:00","VFR",17.2,16.7,170,4,NA,9,1014.3,"SPECI KEST 191138Z AUTO 17004KT 9SM FEW004 BKN041 OVC048 17/17 A2995 RMK AO2 T01720167",2025-09-19 11:47:56.159254,2025-09-19 07:47:56.159301
"KFLO","Florence Rgnl, SC, US",2025-09-19 11:36:00,"2025-09-19 07:36:00","LIFR",17.2,17.2,0,0,NA,0.25,1017.7,"SPECI KFLO 191136Z 00000KT M1/4SM FG VV002 17/17 A3005 RMK AO2 T01720172",2025-09-19 11:47:56.165983,2025-09-19 07:47:56.166027
"KFFX","Fremont Muni, MI, US",2025-09-19 11:36:00,"2025-09-19 11:36:00","VFR",17,17,NA,4,NA,8,1019.4,"METAR KFFX 191136Z AUTO VRB04KT 8SM BKN080 17/17 A3010 RMK AO2",2025-09-19 11:47:56.17272,2025-09-19 07:47:56.172767
"KFDW","Winnsboro/Fairfield Cnty, SC, US",2025-09-19 11:35:00,"2025-09-19 11:35:00","VFR",17,17,40,3,NA,NA,1017.7,"METAR KFDW 191135Z AUTO 04003KT 10SM CLR 17/17 A3005 RMK AO1",2025-09-19 11:47:56.179534,2025-09-19 07:47:56.17958
"KFKA","Preston/Fillmore Cnty, MN, US",2025-09-19 11:35:00,"2025-09-19 11:35:00","VFR",18,18,150,4,NA,7,1016.7,"METAR KFKA 191135Z AUTO 15004KT 7SM SCT055 SCT075 OVC090 18/18 A3002 RMK AO2",2025-09-19 11:47:56.186188,2025-09-19 07:47:56.186231
"KEZF","Fredericksburg/Shannon Aprt, VA, US",2025-09-19 11:35:00,"2025-09-19 11:35:00","VFR",NA,NA,0,0,NA,NA,1016.7,"METAR KEZF 191135Z AUTO 00000KT 10SM CLR A3002 RMK AO2",2025-09-19 11:47:56.193129,2025-09-19 07:47:56.193173
"KFMM","Fort Morgan Muni, CO, US",2025-09-19 11:35:00,"2025-09-19 11:35:00","VFR",10,8,210,5,NA,NA,1019,"METAR KFMM 191135Z AUTO 21005KT 10SM CLR 10/08 A3009 RMK AO2",2025-09-19 11:47:56.200083,2025-09-19 07:47:56.200128
"KEOK","Keokuk Muni, IA, US",2025-09-19 11:35:00,"2025-09-19 06:35:00","MVFR",17,17,0,0,NA,3,1016.7,"METAR KEOK 191135Z AUTO 00000KT 3SM BR SCT003 17/17 A3002 RMK A01",2025-09-19 11:47:56.206888,2025-09-19 07:47:56.206931
"KFOA","Flora Muni, IL, US",2025-09-19 11:35:00,"2025-09-19 11:35:00","VFR",15,14,0,0,NA,NA,1017.4,"METAR KFOA 191135Z AUTO 00000KT 10SM CLR 15/14 A3004 RMK AO2",2025-09-19 11:47:56.213708,2025-09-19 07:47:56.213753
"KEOE","Newberry Muni, SC, US",2025-09-19 11:35:00,"2025-09-19 11:35:00","VFR",17,16,0,0,NA,NA,1019,"METAR KEOE 191135Z AUTO 00000KT 10SM CLR 17/16 A3009 RMK AO2",2025-09-19 11:47:56.220582,2025-09-19 07:47:56.220628
"KEZS","Shawano Muni, WI, US",2025-09-19 11:35:00,"2025-09-19 11:35:00",NA,16.1,15,50,7,NA,NA,1020.4,"METAR KEZS 191135Z AUTO 05007KT 10SM 16/15 A3013 RMK AO2 T01610150",2025-09-19 11:47:56.227742,2025-09-19 07:47:56.227789
"KFKR","Frankfort Muni, IN, US",2025-09-19 11:35:00,"2025-09-19 11:35:00","VFR",NA,NA,130,3,NA,7,1017.7,"METAR KFKR 191135Z AUTO 13003KT 7SM CLR A3005 RMK AO2",2025-09-19 11:47:56.234506,2025-09-19 07:47:56.234553
"KFBR","Fort Bridger Arpt, WY, US",2025-09-19 11:35:00,"2025-09-19 05:35:00","VFR",10.4,-1.5,290,6,NA,NA,1024.1,"METAR KFBR 191135Z AUTO 29006KT 10SM CLR 10/M01 A3024 RMK AO2 T01041015",2025-09-19 11:47:56.241262,2025-09-19 07:47:56.241308
"KENL","Centralia Muni, IL, US",2025-09-19 11:35:00,"2025-09-19 06:35:00","VFR",19.2,15.5,310,3,NA,NA,1017,"METAR KENL 191135Z AUTO 31003KT 10SM CLR 19/16 A3003 RMK AO2 LTG DSNT S T01920155",2025-09-19 11:47:56.248069,2025-09-19 07:47:56.248114
"KF05","Vernon/Wilbarger Cnty, TX, US",2025-09-19 11:35:00,"2025-09-19 06:35:00","VFR",20,16.5,50,4,NA,NA,1017.4,"METAR KF05 191135Z AUTO 05004KT 10SM CLR 20/17 A3004 RMK AO2 T02000165",2025-09-19 11:47:56.254867,2025-09-19 07:47:56.254913
"KETC","Tarboro/Edgecombe Arpt, NC, US",2025-09-19 11:35:00,"2025-09-19 11:35:00","LIFR",17.1,16.9,0,0,NA,0.25,1017.7,"METAR KETC 191135Z AUTO 00000KT M1/4SM FG OVC003 17/17 A3005 RMK AO2 T01710169",2025-09-19 11:47:56.261642,2025-09-19 07:47:56.261685
"KFET","Fremont Muni, NE, US",2025-09-19 11:35:00,"2025-09-19 06:35:00","VFR",15.1,12.9,260,6,NA,NA,1016.3,"METAR KFET 191135Z AUTO 26006KT 10SM SCT020 15/13 A3001 RMK AO2 T01510129",2025-09-19 11:47:56.282036,2025-09-19 07:47:56.282084
"KF00","Bonham/Jones Fld, TX, US",2025-09-19 11:35:00,"2025-09-19 11:35:00","VFR",20,20,0,0,NA,NA,1016.7,"METAR KF00 191135Z AUTO 00000KT 10SM CLR 20/20 A3002 RMK AO2",2025-09-19 11:47:56.289137,2025-09-19 07:47:56.289183
"KFBL","Faribault Muni, MN, US",2025-09-19 11:35:00,"2025-09-19 06:35:00","VFR",19,17,120,7,NA,7,1015.3,"METAR KFBL 191135Z AUTO 12007KT 7SM CLR 19/17 A2998 RMK AO2",2025-09-19 11:47:56.295966,2025-09-19 07:47:56.296008
"KEVU","Maryville/NW Missouri Rgnl, MO, US",2025-09-19 11:35:00,"2025-09-19 11:35:00","LIFR",18.2,18.2,210,3,NA,0.5,1016,"METAR KEVU 191135Z AUTO 21003KT 1/2SM FG OVC002 18/18 A3000 RMK AO2 T01820182",2025-09-19 11:47:56.302391,2025-09-19 07:47:56.302434
"KERY","Newberry/Luce Cnty, MI, US",2025-09-19 11:35:00,"2025-09-19 11:35:00","VFR",12,11,50,4,NA,NA,1022.1,"METAR KERY 191135Z AUTO 05004KT 10SM OVC033 12/11 A3018 RMK AO2",2025-09-19 11:47:56.309099,2025-09-19 07:47:56.309142
"KEXX","Lexington/Davidson Cnty, NC, US",2025-09-19 11:35:00,"2025-09-19 11:35:00","MVFR",15.7,15.7,0,0,NA,4,1018.7,"METAR KEXX 191135Z AUTO 00000KT 4SM BR CLR 16/16 A3008 RMK AO2 T01570157",2025-09-19 11:47:56.315685,2025-09-19 07:47:56.315728
"KEVM","Eveleth Muni, MN, US",2025-09-19 11:35:00,"2025-09-19 06:35:00","MVFR",12.3,11.8,90,3,NA,NA,1019.4,"METAR KEVM 191135Z AUTO 09003KT 10SM SCT008 OVC018 12/12 A3010 RMK AO2 T01230118",2025-09-19 11:47:56.322284,2025-09-19 07:47:56.322329
"KEZM","Eastman/Heart Of Georgia Arpt, GA, US",2025-09-19 11:35:00,"2025-09-19 11:35:00","IFR",17,17,0,0,NA,1.25,1018,"METAR KEZM 191135Z AUTO 00000KT 1 1/4SM BR VV007 17/17 A3006 RMK AO2",2025-09-19 11:47:56.32894,2025-09-19 07:47:56.328984
"KETB","West Bend Muni, WI, US",2025-09-19 11:35:00,"2025-09-19 06:35:00","LIFR",19,19,60,4,NA,0.5,1019,"METAR KETB 191135Z AUTO 06004KT 1/2SM FG OVC002 19/19 A3009 RMK AO2",2025-09-19 11:47:56.335849,2025-09-19 07:47:56.335893
"KFKN","Franklin/Rose Arpt, VA, US",2025-09-19 11:35:00,"2025-09-19 07:35:00","VFR",14.7,13.7,0,0,NA,NA,1017.7,"METAR KFKN 191135Z AUTO 00000KT 10SM SCT002 15/14 A3005 RMK AO2 T01470137",2025-09-19 11:47:56.342525,2025-09-19 07:47:56.342572
"KERV","Kerrville Muni, TX, US",2025-09-19 11:35:00,"2025-09-19 06:35:00","VFR",18.4,16.7,0,0,NA,NA,NA,"METAR KERV 191135Z AUTO 00000KT 10SM CLR 18/17 RMK AO2 T01840167",2025-09-19 11:47:56.349176,2025-09-19 07:47:56.349221
"KF46","Rockwall Muni, TX, US",2025-09-19 11:35:00,"2025-09-19 11:35:00","VFR",22.5,20.3,170,5,NA,NA,1017,"METAR KF46 191135Z AUTO 17005KT 10SM CLR 23/20 A3003 RMK AO2 T02250203",2025-09-19 11:47:56.35582,2025-09-19 07:47:56.355865
"KEQA","El Dorado/Thomas Mem, KS, US",2025-09-19 11:35:00,"2025-09-19 06:35:00","LIFR",15,15,170,3,NA,0.5,1017.4,"METAR KEQA 191135Z AUTO 17003KT 1/2SM FG VV005 15/15 A3004 RMK AO2",2025-09-19 11:47:56.362294,2025-09-19 07:47:56.362336
"KF44","Athens Muni, TX, US",2025-09-19 11:35:00,"2025-09-19 11:35:00","VFR",20,19,0,0,NA,NA,1016.3,"METAR KF44 191135Z AUTO 00000KT 10SM CLR 20/19 A3001 RMK AO2",2025-09-19 11:47:56.368891,2025-09-19 07:47:56.368937
"KF70","Murrieta/French Valley Arpt, CA, US",2025-09-19 11:35:00,"2025-09-19 04:35:00","VFR",20,17,0,0,NA,NA,1013,"METAR KF70 191135Z AUTO 00000KT 10SM OVC049 20/17 A2991 RMK AO2",2025-09-19 11:47:56.375488,2025-09-19 07:47:56.375539
"KFGX","Flemingsburg Arpt, KY, US",2025-09-19 11:35:00,"2025-09-19 11:35:00","VFR",15.7,11.5,160,3,NA,NA,1019.4,"METAR KFGX 191135Z AUTO 16003KT 10SM CLR 16/12 A3010 RMK AO2 T01570115 PNO",2025-09-19 11:47:56.382085,2025-09-19 07:47:56.38213
"KFFM","Fergus Falls/Mickelson Fld, MN, US",2025-09-19 11:35:00,"2025-09-19 06:35:00","IFR",16,16,70,7,NA,NA,1014.6,"METAR KFFM 191135Z AUTO 07007KT 10SM -RA OVC006 16/16 A2996 RMK AO2",2025-09-19 11:47:56.388711,2025-09-19 07:47:56.388755
"KEMV","Emporia Muni, VA, US",2025-09-19 11:35:00,"2025-09-19 11:35:00","LIFR",14.5,14.5,0,0,NA,0.25,1018.4,"METAR KEMV 191135Z AUTO 00000KT 1/4SM FG OVC001 15/15 A3007 RMK AO2 T01450145",2025-09-19 11:47:56.39537,2025-09-19 07:47:56.395413
"KFKS","Frankfort/Dow Mem, MI, US",2025-09-19 11:35:00,"2025-09-19 11:35:00","VFR",17,16,NA,1,NA,NA,1020.1,"METAR KFKS 191135Z AUTO VRB01KT 10SM OVC100 17/16 A3012 RMK AO2",2025-09-19 11:47:56.402208,2025-09-19 07:47:56.402253
"KEYF","Elizabethtown/Brown Fld, NC, US",2025-09-19 11:35:00,"2025-09-19 11:35:00","LIFR",19,18.8,0,0,NA,0.25,1018,"METAR KEYF 191135Z AUTO 00000KT M1/4SM FG OVC002 19/19 A3006 RMK AO2 T01900188",2025-09-19 11:47:56.422839,2025-09-19 07:47:56.422887
"KFFL","Fairfield Muni, IA, US",2025-09-19 11:35:00,"2025-09-19 06:35:00","VFR",16,16,130,4,NA,6,1016,"METAR KFFL 191135Z AUTO 13004KT 6SM BR CLR 16/16 A3000 RMK A01",2025-09-19 11:47:56.430365,2025-09-19 07:47:56.430411
"KF45","North Palm Beach Cnty, FL, US",2025-09-19 11:35:00,"2025-09-19 11:35:00","VFR",23,23,320,4,NA,NA,1013.6,"METAR KF45 191135Z AUTO 32004KT 10SM FEW027 23/23 A2993 RMK AO2",2025-09-19 11:47:56.437809,2025-09-19 07:47:56.437853
"KF17","Center Muni, TX, US",2025-09-19 11:35:00,"2025-09-19 11:35:00","VFR",19,18,0,0,NA,7,1017.7,"METAR KF17 191135Z AUTO 00000KT 7SM CLR 19/18 A3005 RMK AO2",2025-09-19 11:47:56.444556,2025-09-19 07:47:56.444601
"KFMN","Farmington/Four Corners Rgnl, NM, US",2025-09-19 11:34:00,"2025-09-19 05:34:00","VFR",11.7,-1.7,50,3,NA,NA,1021.8,"SPECI KFMN 191134Z 05003KT 10SM CLR 12/M02 A3017 RMK AO2 T01171017",2025-09-19 11:47:56.451667,2025-09-19 07:47:56.451715
"KFAT","Fresno/Yosemite Intl, CA, US",2025-09-19 11:33:00,"2025-09-19 04:33:00","VFR",19.4,17.8,100,4,NA,6,1011.6,"SPECI KFAT 191133Z 10004KT 6SM -RA BR OVC043 19/18 A2987 RMK AO2 P0006 T01940178 $",2025-09-19 11:47:56.458882,2025-09-19 07:47:56.458928
"KFCI","Richmond/Chesterfield Cnty, VA, US",2025-09-19 11:33:00,"2025-09-19 11:33:00","VFR",16,16,0,0,NA,6,1017.4,"SPECI KFCI 191133Z AUTO 00000KT 6SM BR CLR 16/16 A3004 RMK AO2 PNO $",2025-09-19 11:47:56.465785,2025-09-19 07:47:56.46583
"KETH","Wheaton Muni, MN, US",2025-09-19 11:33:00,"2025-09-19 11:33:00","VFR",18,17,70,5,NA,7,1014.3,"METAR KETH 191133Z AUTO 07005KT 7SM -RA SCT009 BKN048 OVC100 18/17 A2995 RMK AO2",2025-09-19 11:47:56.472627,2025-09-19 07:47:56.472674
"KESN","Easton Muni, MD, US",2025-09-19 11:32:00,"2025-09-19 07:32:00","LIFR",18,18,0,0,NA,0.5,1016.3,"SPECI KESN 191132Z 00000KT 1/2SM FG CLR 18/18 A3001",2025-09-19 11:47:56.479521,2025-09-19 07:47:56.479578
"KESC","Escanaba/Delta Cnty, MI, US",2025-09-19 11:31:00,"2025-09-19 07:31:00","IFR",14,14,0,0,NA,NA,1021.1,"SPECI KESC 191131Z AUTO 00000KT 10SM BKN008 BKN065 OVC080 14/14 A3015 RMK AO2",2025-09-19 11:47:56.486597,2025-09-19 07:47:56.486644
"KFCH","Fresno/Chandler Exec, CA, US",2025-09-19 11:30:00,"2025-09-19 04:30:00","MVFR",19,19,0,0,NA,NA,1012.3,"METAR KFCH 191130Z AUTO 00000KT 10SM BKN016 BKN060 OVC075 19/19 A2989 RMK A01",2025-09-19 11:47:56.493706,2025-09-19 07:47:56.493752
"KETN","Eastland Muni, TX, US",2025-09-19 11:30:00,"2025-09-19 06:30:00","VFR",15.6,14.2,0,0,NA,NA,1017.4,"METAR KETN 191130Z AUTO 00000KT 10SM CLR 16/14 A3004 RMK AO2 T01560142",2025-09-19 11:47:56.500962,2025-09-19 07:47:56.50101
"KFDK","Frederick Muni, MD, US",2025-09-19 11:11:00,"2025-09-19 07:11:00","LIFR",14,14,0,0,NA,0.5,1017.4,"SPECI KFDK 191111Z 00000KT 1/2SM FG CLR 14/14 A3004",2025-09-19 11:47:56.50814,2025-09-19 07:47:56.508185
"KFLD","Fond Du Lac Cnty Arpt, WI, US",2025-09-19 11:04:00,"2025-09-19 06:04:00","IFR",18.3,17.2,70,7,NA,NA,1018.7,"SPECI KFLD 191104Z AUTO 07007KT 10SM OVC006 18/17 A3008 RMK AO2 T01830172",2025-09-19 11:47:56.515359,2025-09-19 07:47:56.515406
"KFNB","Falls City/Brenner Fld, NE, US",2025-09-19 11:00:00,"2025-09-19 11:00:00","LIFR",16.1,15.6,290,4,NA,NA,1015.7,"SPECI KFNB 191100Z AUTO 29004KT 10SM BKN002 BKN055 OVC070 16/16 A2999 RMK AO2 T01610156",2025-09-19 11:47:56.522307,2025-09-19 07:47:56.522352
"KEUF","Eufaula/Weedon Fld, AL, US",2025-09-19 10:58:00,"2025-09-19 05:58:00","MVFR",16.7,16.7,0,0,NA,4,1017,"METAR KEUF 191058Z AUTO 00000KT 4SM BR CLR 17/17 A3003 RMK AO1 SLP165 T01670167",2025-09-19 11:47:56.529099,2025-09-19 07:47:56.529142
"KFLG","Flagstaff/Pulliam Arpt, AZ, US",2025-09-19 10:57:00,"2025-09-19 03:57:00","VFR",10.6,10,0,0,NA,NA,1023.8,"METAR KFLG 191057Z AUTO 00000KT 10SM FEW080 11/10 A3023 RMK AO2 SLP157 T01060100",2025-09-19 11:47:56.535909,2025-09-19 07:47:56.535956
"KENV","Wendover Arpt, UT, US",2025-09-19 10:56:00,"2025-09-19 04:56:00","VFR",16.1,1.1,0,0,NA,NA,1017,"METAR KENV 191056Z AUTO 00000KT 10SM CLR 16/01 A3003 RMK AO2 SLP135 T01610011",2025-09-19 11:47:56.542782,2025-09-19 07:47:56.542828
"KFKL","Franklin/Lamberton Fld, PA, US",2025-09-19 10:56:00,"2025-09-19 06:56:00","VFR",13.3,11.7,20,3,NA,NA,1019.7,"METAR KFKL 191056Z AUTO 02003KT 10SM CLR 13/12 A3011 RMK AO2 SLP191 T01330117",2025-09-19 11:47:56.549608,2025-09-19 07:47:56.549656
"KFAM","Farmington Rgnl, MO, US",2025-09-19 10:56:00,"2025-09-19 05:56:00","VFR",18.3,15.6,0,0,NA,NA,1017.7,"METAR KFAM 191056Z AUTO 00000KT 10SM CLR 18/16 A3005 RMK AO2 SLP173 T01830156 $",2025-09-19 11:47:56.570854,2025-09-19 07:47:56.570902
"KFLP","Flippin/Marion Cnty, AR, US",2025-09-19 10:56:00,"2025-09-19 05:56:00","VFR",17.8,17.2,120,3,NA,NA,1017.7,"METAR KFLP 191056Z AUTO 12003KT 10SM CLR 18/17 A3005 RMK AO2 SLP167 T01780172 $",2025-09-19 11:47:56.578143,2025-09-19 07:47:56.57819
"KEUL","Caldwell Ind Arpt, ID, US",2025-09-19 10:56:00,"2025-09-19 10:56:00","VFR",13.3,9.4,0,0,NA,NA,1013,"METAR KEUL 191056Z AUTO 00000KT 10SM CLR 13/09 A2991 RMK AO2 SLP110 T01330094",2025-09-19 11:47:56.585207,2025-09-19 07:47:56.58525
"KFNL","Fort Collins/N Colorado Rgnl, CO, US",2025-09-19 10:56:00,"2025-09-19 04:56:00","VFR",9.4,7.8,0,0,NA,NA,1020.1,"METAR KFNL 191056Z 00000KT 10SM CLR 09/08 A3012 RMK AO2 SLP151 T00940078 $",2025-09-19 11:47:56.591964,2025-09-19 07:47:56.592009
"KFFO","Wright Patterson AFB, OH, US",2025-09-19 10:55:00,"2025-09-19 06:55:00","VFR",15.1,12.2,10,3,NA,7,1018,"METAR KFFO 191055Z 01003KT 7SM MIFG CLR 15/12 A3006 RMK AO2A SLP177 T01510122",2025-09-19 11:47:56.598791,2025-09-19 07:47:56.598839
"KFCS","Fort Carson/Butts AAF, CO, US",2025-09-19 10:55:00,"2025-09-19 04:55:00","VFR",8.7,5.4,360,9,NA,NA,1021.1,"METAR KFCS 191055Z AUTO 36009KT 10SM CLR 09/05 A3015 RMK AO2 SLP181 T00870054 $",2025-09-19 11:47:56.605615,2025-09-19 07:47:56.605661
"KEWB","New Bedford Rgnl, MA, US",2025-09-19 10:55:00,"2025-09-19 06:55:00","VFR",12.8,12.8,0,0,NA,NA,1012.6,"SPECI KEWB 191055Z 00000KT 10SM CLR 13/13 A2990 RMK AO2 T01280128",2025-09-19 11:47:56.612393,2025-09-19 07:47:56.612439
"KEND","Enid/Vance AFB, OK, US",2025-09-19 10:55:00,"2025-09-19 05:55:00","VFR",17.8,16.6,250,3,NA,NA,1016.3,"METAR KEND 191055Z AUTO 25003KT 10SM CLR 18/17 A3001 RMK AO2 SLP154 T01780166 $",2025-09-19 11:47:56.619092,2025-09-19 07:47:56.619137
"KFAF","Fort Eustis/Felker AAF, VA, US",2025-09-19 10:55:00,"2025-09-19 06:55:00","VFR",17.6,16.6,0,0,NA,NA,1016,"METAR KFAF 191055Z AUTO 00000KT 10SM CLR 18/17 A3000 RMK AO2 SLP162 T01760166 $",2025-09-19 11:47:56.625777,2025-09-19 07:47:56.625823
"KFBG","Fort Bragg/Simmons AAF, NC, US",2025-09-19 10:55:00,"2025-09-19 06:55:00",NA,18.1,17.3,0,0,NA,NA,1016.7,"METAR KFBG 191055Z AUTO 00000KT 10SM M 18/17 A3002 RMK AO2 SLP167 T01810173 CHINO RWY28 $",2025-09-19 11:47:56.632449,2025-09-19 07:47:56.632515
"KFHU","Fort Huachuca/Libby AAF, AZ, US",2025-09-19 10:55:00,"2025-09-19 03:55:00","VFR",18.2,15.3,0,0,NA,NA,1020.1,"METAR KFHU 191055Z AUTO 00000KT 10SM CLR 18/15 A3012 RMK AO2 SLP136 T01820153",2025-09-19 11:47:56.639225,2025-09-19 07:47:56.639271
"KFIG","Clearfield/Lawrence Arpt, PA, US",2025-09-19 10:54:00,"2025-09-19 10:54:00","VFR",11.7,10.6,0,0,NA,NA,1019,"METAR KFIG 191054Z AUTO 00000KT 10SM CLR 12/11 A3009 RMK AO2 SLP184 T01170106",2025-09-19 11:47:56.646131,2025-09-19 07:47:56.646176
"KFFZ","Mesa/Falcon Fld, AZ, US",2025-09-19 10:54:00,"2025-09-19 03:54:00","VFR",25,18.3,10,5,NA,NA,1012.3,"METAR KFFZ 191054Z 01005KT 10SM CLR 25/18 A2989 RMK AO2 LTG DSNT N AND NW SLP095 T02500183",2025-09-19 11:47:56.652991,2025-09-19 07:47:56.65304
"KEUG","Eugene/Mahlon Sweet Fld, OR, US",2025-09-19 10:54:00,"2025-09-19 03:54:00","VFR",9.4,8.3,0,0,NA,NA,1013.6,"METAR KEUG 191054Z AUTO 00000KT 10SM CLR 09/08 A2993 RMK AO2 SLP132 T00940083",2025-09-19 11:47:56.659824,2025-09-19 07:47:56.659868
"KEVV","Evansville Rgnl, IN, US",2025-09-19 10:54:00,"2025-09-19 05:54:00","VFR",15.6,14.4,0,0,NA,NA,1017.4,"METAR KEVV 191054Z 00000KT 10SM CLR 16/14 A3004 RMK AO2 SLP170 T01560144 $",2025-09-19 11:47:56.666752,2025-09-19 07:47:56.6668
"KFAY","Fayetteville Rgnl, NC, US",2025-09-19 10:53:00,"2025-09-19 06:53:00","VFR",17.8,17.2,0,0,NA,NA,1017.4,"METAR KFAY 191053Z 00000KT 10SM FEW005 18/17 A3004 RMK AO2 SLP164 T01780172",2025-09-19 11:47:56.673667,2025-09-19 07:47:56.673713
"KEYE","Indianapolis/Eagle Creek Aprt, IN, US",2025-09-19 10:53:00,"2025-09-19 10:53:00","VFR",15.6,14.4,0,0,NA,8,1018,"METAR KEYE 191053Z AUTO 00000KT 8SM CLR 16/14 A3006 RMK AO2 SLP175 T01560144",2025-09-19 11:47:56.680546,2025-09-19 07:47:56.680593
"KFFC","Peachtree City/Falcon Fld, GA, US",2025-09-19 10:53:00,"2025-09-19 10:53:00","MVFR",16.7,16.7,0,0,NA,4,1018,"METAR KFFC 191053Z AUTO 00000KT 4SM BR CLR 17/17 A3006 RMK AO2 SLP173 T01670167 $",2025-09-19 11:47:56.687539,2025-09-19 07:47:56.687613
"KFHR","Friday Harbor Arpt, WA, US",2025-09-19 10:53:00,"2025-09-19 03:53:00","VFR",8.9,8.9,280,3,NA,NA,1016.7,"METAR KFHR 191053Z AUTO 28003KT 10SM CLR 09/09 A3002 RMK AO2 SLP164 T00890089",2025-09-19 11:47:56.707848,2025-09-19 07:47:56.707927
"KFCM","Eden Prairie/Flying, MN, US",2025-09-19 10:53:00,"2025-09-19 05:53:00","VFR",18.9,17.2,130,7,NA,9,1015,"METAR KFCM 191053Z 13007KT 9SM BKN090 19/17 A2997 RMK AO2 SLP145 T01890172",2025-09-19 11:47:56.71655,2025-09-19 07:47:56.716599
"KFDY","Findlay Arpt, OH, US",2025-09-19 10:53:00,"2025-09-19 06:53:00","VFR",14.4,12.2,0,0,NA,9,1018.7,"METAR KFDY 191053Z AUTO 00000KT 9SM CLR 14/12 A3008 RMK AO2 SLP178 T01440122",2025-09-19 11:47:56.723825,2025-09-19 07:47:56.723871
"KFFT","Frankfort/Capital City Arpt, KY, US",2025-09-19 10:53:00,"2025-09-19 06:53:00",NA,NA,NA,NA,NA,NA,NA,1018,"METAR KFFT 191053Z AUTO A3006 RMK AO2 SLPNO PWINO",2025-09-19 11:47:56.730854,2025-09-19 07:47:56.730896
"KEYW","Key West Intl, FL, US",2025-09-19 10:53:00,"2025-09-19 06:53:00","VFR",26.1,25,0,0,NA,NA,1013.6,"METAR KEYW 191053Z 00000KT 10SM CLR 26/25 A2993 RMK AO2 SLP139 T02610250 $",2025-09-19 11:47:56.737627,2025-09-19 07:47:56.737672
"KEPH","Ephrata Muni, WA, US",2025-09-19 10:53:00,"2025-09-19 03:53:00","VFR",21.1,7.2,310,8,NA,NA,1011.9,"METAR KEPH 191053Z AUTO 31008KT 10SM CLR 21/07 A2988 RMK AO2 SLP109 T02110072",2025-09-19 11:47:56.744447,2025-09-19 07:47:56.744511
"KFLL","Ft Lauderdale-Hollywood Intl, FL, US",2025-09-19 10:53:00,"2025-09-19 06:53:00","VFR",24.4,23.3,310,3,NA,NA,1013.3,"METAR KFLL 191053Z 31003KT 10SM SCT023 SCT065 24/23 A2992 RMK AO2 SLP129 T02440233 $",2025-09-19 11:47:56.751225,2025-09-19 07:47:56.751271
"KFAR","Fargo/Hector Intl, ND, US",2025-09-19 10:53:00,"2025-09-19 05:53:00","VFR",16.7,15.6,110,7,NA,NA,1014.3,"METAR KFAR 191053Z 11007KT 10SM -RA OVC095 17/16 A2995 RMK AO2 SLP142 P0002 T01670156 $",2025-09-19 11:47:56.757986,2025-09-19 07:47:56.758031
"KEVW","Evanston/Uinta Cnty, WY, US",2025-09-19 10:53:00,"2025-09-19 04:53:00","VFR",8.9,-1.1,130,4,NA,NA,1022.8,"METAR KEVW 191053Z AUTO 13004KT 10SM CLR 09/M01 A3020 RMK AO2 SLP145 T00891011",2025-09-19 11:47:56.764738,2025-09-19 07:47:56.764783
"KFDR","Frederick Rgnl, OK, US",2025-09-19 10:53:00,"2025-09-19 05:53:00","VFR",19.4,17.8,50,9,NA,NA,1016,"METAR KFDR 191053Z AUTO 05009KT 10SM CLR 19/18 A3000 RMK AO2 SLP140 T01940178 $",2025-09-19 11:47:56.77152,2025-09-19 07:47:56.771569
"KEQY","Charlotte-Monroe Exec, NC, US",2025-09-19 10:53:00,"2025-09-19 10:53:00","VFR",17.2,16.1,0,0,NA,NA,1017.7,"METAR KEQY 191053Z AUTO 00000KT 10SM CLR 17/16 A3005 RMK AO2 SLP177 T01720161",2025-09-19 11:47:56.778275,2025-09-19 07:47:56.778322
"KFMY","Fort Myers/Page Fld, FL, US",2025-09-19 10:53:00,"2025-09-19 06:53:00","VFR",23.3,21.7,20,6,NA,NA,1014.3,"METAR KFMY 191053Z AUTO 02006KT 10SM CLR 23/22 A2995 RMK AO2 SLP144 T02330217",2025-09-19 11:47:56.784944,2025-09-19 07:47:56.784989
"KESF","Alexandria/Esler Rgnl, LA, US",2025-09-19 10:53:00,"2025-09-19 05:53:00","VFR",17.2,16.7,0,0,NA,NA,1016.3,"METAR KESF 191053Z AUTO 00000KT 10SM CLR 17/17 A3001 RMK AO2 SLP161 T01720167",2025-09-19 11:47:56.79164,2025-09-19 07:47:56.791685
"KFIT","Fitchburg Muni, MA, US",2025-09-19 10:52:00,"2025-09-19 10:52:00","VFR",14.4,11.7,0,0,NA,NA,1013.6,"METAR KFIT 191052Z AUTO 00000KT 10SM CLR 14/12 A2993 RMK AO2 SLP136 T01440117",2025-09-19 11:47:56.798223,2025-09-19 07:47:56.798269
"KEWR","Newark Intl, NJ, US",2025-09-19 10:51:00,"2025-09-19 06:51:00","VFR",20.6,11.7,240,5,NA,NA,1015,"METAR KEWR 191051Z 24005KT 10SM FEW250 21/12 A2997 RMK AO2 SLP149 T02060117 $",2025-09-19 11:47:56.804982,2025-09-19 07:47:56.805028
"KERI","Erie Intl, PA, US",2025-09-19 10:51:00,"2025-09-19 06:51:00","VFR",15,13.9,0,0,NA,8,1019,"METAR KERI 191051Z 00000KT 8SM FEW110 15/14 A3009 RMK AO2 SLP187 T01500139",2025-09-19 11:47:56.811761,2025-09-19 07:47:56.811808
"KEVB","New Smyrna Beach Muni, FL, US",2025-09-19 10:47:00,"2025-09-19 10:47:00","VFR",22,22,340,3,NA,NA,1015,"METAR KEVB 191047Z 34003KT 10SM SCT050 22/22 A2997 RMK FIRST",2025-09-19 11:47:56.81846,2025-09-19 07:47:56.818529
"KFRM","Fairmont Muni, MN, US",2025-09-19 11:46:00,"2025-09-19 06:46:00","VFR",18,17,190,4,NA,NA,1014.3,"SPECI KFRM 191146Z AUTO 19004KT 10SM FEW017 OVC031 18/17 A2995 RMK AO2 RAE13 P0000",2025-09-19 11:47:58.165828,2025-09-19 07:47:58.165875
"KFRI","Ft Riley/Marshall Fld, KS, US",2025-09-19 11:45:00,"2025-09-19 06:45:00","IFR",15,14,0,0,NA,2.25,1017.4,"SPECI KFRI 191145Z AUTO 00000KT 2 1/4SM BR CLR 15/14 A3004 RMK AO2 VIS 1V2 1/4 SLP166 $",2025-09-19 11:47:58.172673,2025-09-19 07:47:58.17272
"KGDV","Glendive/Dawson Arpt, MT, US",2025-09-19 11:42:00,"2025-09-19 05:42:00","LIFR",8,8,50,4,NA,0.5,1019.7,"SPECI KGDV 191142Z AUTO 05004KT 1/2SM FG VV002 08/08 A3011 RMK AO2 VIS M1/4V5 TSNO $",2025-09-19 11:47:58.179638,2025-09-19 07:47:58.179685
"KFOE","Topeka/Forbes Fld, KS, US",2025-09-19 11:42:00,"2025-09-19 06:42:00","VFR",13.9,13.9,0,0,NA,NA,1016.7,"SPECI KFOE 191142Z 00000KT 10SM R31/5500VP6000FT CLR 14/14 A3002 RMK AO2 T01390139",2025-09-19 11:47:58.186665,2025-09-19 07:47:58.186712
"KGEV","Jefferson/Ashe Cnty, NC, US",2025-09-19 11:40:00,"2025-09-19 11:40:00",NA,11.9,11.4,0,0,NA,NA,1022.8,"METAR KGEV 191140Z AUTO 00000KT 12/11 A3020 RMK AO2 T01190114 PWINO",2025-09-19 11:47:58.193336,2025-09-19 07:47:58.193378
"KGKT","Gatlinburg-Pigeon Forge Arpt, TN, US",2025-09-19 11:36:00,"2025-09-19 07:36:00","VFR",16,16,0,0,NA,6,1019.4,"METAR KGKT 191136Z AUTO 00000KT 6SM BR CLR 16/16 A3010 RMK A01",2025-09-19 11:47:58.200061,2025-09-19 07:47:58.200105
"KGGP","Logansport/Cass Cnty, IN, US",2025-09-19 11:36:00,"2025-09-19 11:36:00","VFR",13,12,0,0,NA,NA,1018.7,"METAR KGGP 191136Z AUTO 00000KT 10SM CLR 13/12 A3008 RMK AO2",2025-09-19 11:47:58.206801,2025-09-19 07:47:58.206846
"KGHW","Glenwood Muni, MN, US",2025-09-19 11:35:00,"2025-09-19 11:35:00","IFR",17,17,80,6,NA,7,1015,"METAR KGHW 191135Z AUTO 08006KT 7SM DZ BKN005 BKN011 17/17 A2997 RMK AO2",2025-09-19 11:47:58.213382,2025-09-19 07:47:58.213425
"KGLY","Clinton Mem, MO, US",2025-09-19 11:35:00,"2025-09-19 11:35:00","LIFR",16,16,0,0,NA,0.25,1016.7,"METAR KGLY 191135Z AUTO 00000KT M1/4SM FG OVC001 16/16 A3002 RMK AO2",2025-09-19 11:47:58.220117,2025-09-19 07:47:58.22016
"KGVE","Gordonsville Muni, VA, US",2025-09-19 11:35:00,"2025-09-19 07:35:00","VFR",14.6,14.6,0,0,NA,NA,NA,"METAR KGVE 191135Z AUTO 00000KT 10SM CLR 15/15 RMK AO1 T01460146",2025-09-19 11:47:58.226847,2025-09-19 07:47:58.226893
"KGMJ","Grove Muni, OK, US",2025-09-19 11:35:00,"2025-09-19 11:35:00","MVFR",16,16,0,0,NA,3,1017.4,"METAR KGMJ 191135Z AUTO 00000KT 3SM BR SCT065 16/16 A3004 RMK AO2 TSNO",2025-09-19 11:47:58.233442,2025-09-19 07:47:58.233505
"KGPM","Grand Prairie Muni, TX, US",2025-09-19 11:35:00,"2025-09-19 11:35:00","VFR",23.3,18.3,180,3,NA,NA,1017,"METAR KGPM 191135Z AUTO 18003KT 10SM CLR 23/18 A3003 RMK AO2 T02330183",2025-09-19 11:47:58.240307,2025-09-19 07:47:58.240354
"KFVX","Farmville Muni, VA, US",2025-09-19 11:35:00,"2025-09-19 11:35:00","LIFR",15.9,15.9,0,0,NA,0.5,1017,"METAR KFVX 191135Z AUTO 00000KT 1/2SM FG OVC001 16/16 A3003 RMK AO2 T01590159",2025-09-19 11:47:58.247204,2025-09-19 07:47:58.247249
"KGPH","Mosby/Midwest Air Center, MO, US",2025-09-19 11:35:00,"2025-09-19 11:35:00",NA,16,16,0,0,NA,0.25,1016.7,"METAR KGPH 191135Z AUTO 00000KT M1/4SM FG 16/16 A3002 RMK AO2",2025-09-19 11:47:58.254213,2025-09-19 07:47:58.254258
"KGCM","Claremore Rgnl, OK, US",2025-09-19 11:35:00,"2025-09-19 11:35:00","VFR",19,19,0,0,NA,7,1017,"METAR KGCM 191135Z AUTO 00000KT 7SM BKN070 OVC080 19/19 A3003 RMK AO2 LTG DSNT SE AND S",2025-09-19 11:47:58.261313,2025-09-19 07:47:58.261355
"KGBG","Galesburg Muni, IL, US",2025-09-19 11:35:00,"2025-09-19 06:35:00","VFR",17.7,17.7,50,5,NA,NA,1017,"METAR KGBG 191135Z AUTO 05005KT 10SM SCT110 18/18 A3003 RMK AO2 T01770177",2025-09-19 11:47:58.26838,2025-09-19 07:47:58.268427
"KGIC","Grangeville/Idaho Cnty, ID, US",2025-09-19 11:35:00,"2025-09-19 04:35:00","VFR",10,5,0,0,NA,NA,1015.7,"METAR KGIC 191135Z AUTO 00000KT 10SM CLR 10/05 A2999 RMK AO1",2025-09-19 11:47:58.29081,2025-09-19 07:47:58.290861
"KGDB","Granite Falls Muni, MN, US",2025-09-19 11:35:00,"2025-09-19 11:35:00","VFR",18.5,17.3,0,0,NA,7,1014,"METAR KGDB 191135Z AUTO 00000KT 7SM SCT034 BKN043 OVC050 19/17 A2994 RMK AO2 T01850173",2025-09-19 11:47:58.298407,2025-09-19 07:47:58.298451
"KFWS","Fort Worth/Spinks Arpt, TX, US",2025-09-19 11:35:00,"2025-09-19 11:35:00","VFR",21.4,19.2,190,3,NA,NA,1016.7,"METAR KFWS 191135Z AUTO 19003KT 10SM CLR 21/19 A3002 RMK AO2 T02140192 $",2025-09-19 11:47:58.305987,2025-09-19 07:47:58.306032
"KGRN","Gordon Muni, NE, US",2025-09-19 11:35:00,"2025-09-19 05:35:00","VFR",10.1,9.9,0,0,NA,NA,1018,"METAR KGRN 191135Z AUTO 00000KT 10SM SCT075 SCT095 SCT120 10/10 A3006 RMK AO2 P0001 T01010099",2025-09-19 11:47:58.313282,2025-09-19 07:47:58.31333
"KGGE","Georgetown Cnty, SC, US",2025-09-19 11:35:00,"2025-09-19 07:35:00","LIFR",19,18,0,0,NA,0.25,1017.4,"METAR KGGE 191135Z AUTO 00000KT M1/4SM FG OVC001 19/18 A3004 RMK AO2",2025-09-19 11:47:58.32037,2025-09-19 07:47:58.320415
"KGAO","Galliano/Miller Arpt, LA, US",2025-09-19 11:35:00,"2025-09-19 11:35:00","VFR",19.4,18.1,0,0,NA,7,1016.7,"METAR KGAO 191135Z AUTO 00000KT 7SM CLR 19/18 A3002 RMK AO2 T01940181",2025-09-19 11:47:58.327383,2025-09-19 07:47:58.327428
"KGLW","Glasgow Muni, KY, US",2025-09-19 11:35:00,"2025-09-19 06:35:00","VFR",13.4,13.4,0,0,NA,NA,1018.4,"METAR KGLW 191135Z AUTO 00000KT 10SM CLR 13/13 A3007 RMK AO2 T01340134",2025-09-19 11:47:58.334656,2025-09-19 07:47:58.334707
"KFSE","Fosston Muni, MN, US",2025-09-19 11:35:00,"2025-09-19 11:35:00",NA,13,13,90,4,NA,NA,1016.7,"METAR KFSE 191135Z AUTO 09004KT 10SM 13/13 A3002 RMK AO2",2025-09-19 11:47:58.341998,2025-09-19 07:47:58.342044
"KGOP","Gatesville Muni, TX, US",2025-09-19 11:35:00,"2025-09-19 11:35:00","VFR",22,22,0,0,NA,NA,1017,"METAR KGOP 191135Z AUTO 00000KT 10SM CLR 22/22 A3003 RMK AO2",2025-09-19 11:47:58.349025,2025-09-19 07:47:58.349072
"KFOT","Fortuna/Rohnerville Arpt, CA, US",2025-09-19 11:35:00,"2025-09-19 11:35:00","LIFR",13,13,360,3,NA,0.25,1009.9,"METAR KFOT 191135Z AUTO 36003KT 1/4SM OVC002 13/13 A2982 RMK AO1",2025-09-19 11:47:58.355955,2025-09-19 07:47:58.355999
"KFYE","Somerville/Fayette Cnty, TN, US",2025-09-19 11:35:00,"2025-09-19 11:35:00","VFR",20,18,160,3,NA,NA,1015.7,"METAR KFYE 191135Z AUTO 16003KT 10SM CLR 20/18 A2999 RMK A01",2025-09-19 11:47:58.362944,2025-09-19 07:47:58.362993
"KGDJ","Granbury Muni, TX, US",2025-09-19 11:35:00,"2025-09-19 11:35:00",NA,20.4,17.5,0,0,NA,NA,1017,"METAR KGDJ 191135Z AUTO 00000KT CLR 20/18 A3003 RMK AO2 T02040175 PWINO",2025-09-19 11:47:58.369769,2025-09-19 07:47:58.369816
"KGGI","Grinnell Rgnl, IA, US",2025-09-19 11:35:00,"2025-09-19 11:35:00","MVFR",16,16,0,0,NA,5,1016,"METAR KGGI 191135Z AUTO 00000KT 5SM BR CLR 16/16 A3000 RMK AO2 T01600160",2025-09-19 11:47:58.376655,2025-09-19 07:47:58.376699
"KFSW","Fort Madison Muni, IA, US",2025-09-19 11:35:00,"2025-09-19 06:35:00","VFR",17,17,100,5,NA,7,1016.3,"METAR KFSW 191135Z AUTO 10005KT 7SM CLR 17/17 A3001 RMK AO2",2025-09-19 11:47:58.383553,2025-09-19 07:47:58.383599
"KFSK","Fort Scott Muni, KS, US",2025-09-19 11:35:00,"2025-09-19 06:35:00","VFR",16.5,16.1,240,4,NA,NA,1017,"METAR KFSK 191135Z AUTO 24004KT 10SM CLR 16/16 A3003 RMK AO2 T01650161",2025-09-19 11:47:58.390548,2025-09-19 07:47:58.390596
"KGNT","Grants-Milan Muni, NM, US",2025-09-19 11:35:00,"2025-09-19 05:35:00","VFR",16.5,7.2,120,8,NA,NA,1024.1,"METAR KGNT 191135Z AUTO 12008KT 10SM BKN090 OVC110 17/07 A3024 RMK AO2 LTG DSNT SW T01650072",2025-09-19 11:47:58.397738,2025-09-19 07:47:58.397784
"KGWB","Auburn/De Kalb Cnty, IN, US",2025-09-19 11:35:00,"2025-09-19 11:35:00","IFR",15,15,80,4,NA,2,1018.7,"METAR KGWB 191135Z AUTO 08004KT 2SM BR CLR 15/15 A3008 RMK AO2 VIS 1 1/4V3",2025-09-19 11:47:58.404778,2025-09-19 07:47:58.404824
"KFRR","Front Royal/Warren Cnty, VA, US",2025-09-19 11:35:00,"2025-09-19 07:35:00","VFR",16,15,190,6,NA,NA,1017.7,"METAR KFRR 191135Z AUTO 19006KT 10SM CLR 16/15 A3005 RMK AO2 T01600150",2025-09-19 11:47:58.411946,2025-09-19 07:47:58.411991
"KFWC","Fairfield Muni, IL, US",2025-09-19 11:35:00,"2025-09-19 11:35:00","VFR",14.9,13,0,0,NA,NA,1017,"METAR KFWC 191135Z AUTO 00000KT 10SM CLR 15/13 A3003 RMK AO2 LTG DSNT SW T01490130",2025-09-19 11:47:58.4191,2025-09-19 07:47:58.419145
"KFOM","Fillmore Muni, UT, US",2025-09-19 11:35:00,"2025-09-19 05:35:00","VFR",18,-2,120,3,NA,NA,1019,"METAR KFOM 191135Z AUTO 12003KT 10SM SCT120 18/M02 A3009 RMK AO2",2025-09-19 11:47:58.440291,2025-09-19 07:47:58.440339
"KGVT","Greenville/Majors Arpt, TX, US",2025-09-19 11:35:00,"2025-09-19 06:35:00","VFR",20,20,170,4,NA,NA,1017,"METAR KGVT 191135Z AUTO 17004KT 10SM CLR 20/20 A3003 RMK AO2",2025-09-19 11:47:58.447835,2025-09-19 07:47:58.447881
"KFYM","Fayetteville Muni, TN, US",2025-09-19 11:35:00,"2025-09-19 06:35:00","VFR",17,17,0,0,NA,NA,1018.7,"METAR KFYM 191135Z AUTO 00000KT 10SM CLR 17/17 A3008 RMK A01",2025-09-19 11:47:58.454956,2025-09-19 07:47:58.455002
"KGAF","Grafton/Hutson Fld, ND, US",2025-09-19 11:35:00,"2025-09-19 11:35:00","MVFR",15,15,50,4,NA,6,1017,"METAR KGAF 191135Z AUTO 05004KT 6SM BR BKN013 15/15 A3003 RMK AO2",2025-09-19 11:47:58.461767,2025-09-19 07:47:58.461814
"KGNC","Seminole/Gaines Cnty, TX, US",2025-09-19 11:35:00,"2025-09-19 11:35:00","VFR",16.5,14,0,0,NA,NA,1021.1,"METAR KGNC 191135Z AUTO 00000KT 10SM CLR 17/14 A3015 RMK AO2 T01650140",2025-09-19 11:47:58.46881,2025-09-19 07:47:58.468857
"KFPK","Charotte/Beach Fld, MI, US",2025-09-19 11:35:00,"2025-09-19 11:35:00","LIFR",14,14,80,2,NA,0.25,1019.4,"METAR KFPK 191135Z AUTO 08002KT M1/4SM FG VV000 14/14 A3010 RMK AO2",2025-09-19 11:47:58.475934,2025-09-19 07:47:58.475979
"KFRH","French Lick Muni, IN, US",2025-09-19 11:35:00,"2025-09-19 07:35:00","VFR",15,13,60,4,NA,NA,1018.4,"METAR KFRH 191135Z AUTO 06004KT 10SM CLR 15/13 A3007 RMK AO1",2025-09-19 11:47:58.483084,2025-09-19 07:47:58.483131
"KGHG","Marshfield Muni, MA, US",2025-09-19 11:35:00,"2025-09-19 11:35:00","VFR",17,14,0,0,NA,NA,1012.6,"METAR KGHG 191135Z AUTO 00000KT 10SM CLR 17/14 A2990 RMK AO2",2025-09-19 11:47:58.490243,2025-09-19 07:47:58.490293
"KFZG","Fitzgerald Muni, GA, US",2025-09-19 11:35:00,"2025-09-19 11:35:00","VFR",18.5,17,0,0,NA,NA,1017.4,"METAR KFZG 191135Z AUTO 00000KT 10SM CLR 19/17 A3004 RMK AO2 T01850170",2025-09-19 11:47:58.497268,2025-09-19 07:47:58.497315
"KFYJ","West Point/Middle Peninsula Arpt, VA, US",2025-09-19 11:35:00,"2025-09-19 11:35:00","MVFR",15.6,15.4,NA,NA,NA,5,1017.7,"METAR KFYJ 191135Z AUTO 5SM CLR 16/15 A3005 RMK AO1 T01560154",2025-09-19 11:47:58.504316,2025-09-19 07:47:58.504361
"KGGF","Grant Muni, NE, US",2025-09-19 11:35:00,"2025-09-19 11:35:00","VFR",9,9,150,4,NA,7,1018,"METAR KGGF 191135Z AUTO 15004KT 7SM CLR 09/09 A3006 RMK AO2",2025-09-19 11:47:58.511092,2025-09-19 07:47:58.511137
"KFSO","Highgate/Franklin Cnty, VT, US",2025-09-19 11:35:00,"2025-09-19 11:35:00","VFR",13.6,7.3,360,3,NA,NA,1017.4,"METAR KFSO 191135Z AUTO 36003KT 10SM OVC039 14/07 A3004 RMK AO2 T01360073",2025-09-19 11:47:58.517857,2025-09-19 07:47:58.517903
"KGOO","Grass Valley/Nevada Cnty, CA, US",2025-09-19 11:35:00,"2025-09-19 11:35:00","VFR",17,8,0,0,NA,NA,1014,"METAR KGOO 191135Z AUTO 00000KT 10SM SCT049 BKN065 OVC075 17/08 A2994 RMK A01",2025-09-19 11:47:58.524779,2025-09-19 07:47:58.524825
"KGCY","Greeneville/Greene Cnty, TN, US",2025-09-19 11:35:00,"2025-09-19 07:35:00","VFR",15,14,0,0,NA,9,1019.7,"METAR KGCY 191135Z AUTO 00000KT 9SM CLR 15/14 A3011 RMK A01",2025-09-19 11:47:58.531611,2025-09-19 07:47:58.531656
"KGCD","John Day/Grant Cnty, OR, US",2025-09-19 11:35:00,"2025-09-19 04:35:00","VFR",13.7,6.5,0,0,NA,NA,1016,"METAR KGCD 191135Z AUTO 00000KT 10SM CLR 14/07 A3000 RMK AO2 T01370065",2025-09-19 11:47:58.538393,2025-09-19 07:47:58.538437
"KFXY","Forest City Muni, IA, US",2025-09-19 11:35:00,"2025-09-19 06:35:00","IFR",18,17,150,9,NA,NA,1015.3,"METAR KFXY 191135Z AUTO 15009KT 10SM OVC007 18/17 A2998 RMK AO2",2025-09-19 11:47:58.545285,2025-09-19 07:47:58.545333
"KGNG","Gooding Muni, ID, US",2025-09-19 11:35:00,"2025-09-19 05:35:00","VFR",14,1,70,12,NA,NA,1016,"METAR KGNG 191135Z AUTO 07012KT 10SM SCT055 14/01 A3000 RMK AO2",2025-09-19 11:47:58.552287,2025-09-19 07:47:58.552332
"KGNB","Granby/Grand Cnty, CO, US",2025-09-19 11:35:00,"2025-09-19 11:35:00","VFR",-0.5,-2.5,120,3,NA,NA,1029.2,"METAR KGNB 191135Z AUTO 12003KT 10SM CLR 00/M02 A3039 RMK AO2 T10051025",2025-09-19 11:47:58.559285,2025-09-19 07:47:58.55933
"KFQD","Rutherfordton/Marchman Fld, NC, US",2025-09-19 11:30:00,"2025-09-19 11:30:00","VFR",16,16,0,0,NA,NA,1019.4,"METAR KFQD 191130Z AUTO 00000KT 10SM CLR 16/16 A3010 RMK AO2",2025-09-19 11:47:58.566159,2025-09-19 07:47:58.566207
"KGRB","Green Bay/Straubel Intl, WI, US",2025-09-19 11:20:00,"2025-09-19 06:20:00","VFR",16.7,15.6,50,9,NA,NA,1019.7,"SPECI KGRB 191120Z 05009KT 10SM SCT008 OVC070 17/16 A3011 RMK AO2 T01670156",2025-09-19 11:47:58.587927,2025-09-19 07:47:58.587977
"KGAI","Gaithersburg/Montgomery Cnty, MD, US",2025-09-19 11:20:00,"2025-09-19 07:20:00","MVFR",14,NA,0,0,NA,3,1017.4,"SPECI KGAI 191120Z AUTO 00000KT 3SM BR CLR 14/ A3004 RMK AO2 PNO $",2025-09-19 11:47:58.595516,2025-09-19 07:47:58.595568
"KFOZ","Bigfork Muni, MN, US",2025-09-19 11:16:00,"2025-09-19 11:16:00","MVFR",14,12,80,3,NA,NA,1020.1,"METAR KFOZ 191116Z 08003KT 10SM SCT015 BKN022 OVC090 14/12 A3012 RMK AO2",2025-09-19 11:47:58.602685,2025-09-19 07:47:58.602734
"KGOV","Grayling(AAF), MI, US",2025-09-19 11:15:00,"2025-09-19 11:15:00","MVFR",16,15,90,5,NA,9,1020.7,"SPECI KGOV 191115Z AUTO 09005KT 9SM SCT007 OVC020 16/15 A3014 RMK AO2 CIG 007V020 SLP210 $",2025-09-19 11:47:58.609641,2025-09-19 07:47:58.609687
"KFOD","Fort Dodge Rgnl, IA, US",2025-09-19 11:08:00,"2025-09-19 06:08:00","VFR",18,17,180,4,NA,NA,1015.3,"SPECI KFOD 191108Z AUTO 18004KT 10SM FEW006 SCT013 OVC048 18/17 A2998 RMK AO2 $",2025-09-19 11:47:58.616787,2025-09-19 07:47:58.616834
"KGSB","Goldsboro/Johnson AFB, NC, US",2025-09-19 11:04:00,"2025-09-19 07:04:00","LIFR",18,17,0,0,NA,0.25,1017,"SPECI KGSB 191104Z 00000KT 1/4SM R26/1400V4500FT FG VV000 18/17 A3003 RMK AO2A SLP172 $",2025-09-19 11:47:58.623837,2025-09-19 07:47:58.623881
"KGAD","Gadsden/NE Alabama Rgnl, AL, US",2025-09-19 10:56:00,"2025-09-19 05:56:00",NA,15.6,15.6,0,0,NA,NA,1018,"METAR KGAD 191056Z AUTO 00000KT CLR 16/16 A3006 RMK AO2 SLP178 T01560156 PWINO $",2025-09-19 11:47:58.630838,2025-09-19 07:47:58.630882
"KGTR","Golden Triangle Arpt, MS, US",2025-09-19 10:56:00,"2025-09-19 05:56:00","VFR",19.4,18.9,0,0,NA,NA,1017,"METAR KGTR 191056Z 00000KT 10SM CLR 19/19 A3003 RMK AO2 SLP170 T01940189",2025-09-19 11:47:58.637918,2025-09-19 07:47:58.637964
"KGBD","Great Bend Muni, KS, US",2025-09-19 10:56:00,"2025-09-19 05:56:00","VFR",13.3,12.8,0,0,NA,NA,1018.4,"METAR KGBD 191056Z AUTO 00000KT 10SM CLR 13/13 A3007 RMK AO2 SLP171 T01330128 $",2025-09-19 11:47:58.64511,2025-09-19 07:47:58.645157
"KFSD","Sioux Falls/Foss Fld, SD, US",2025-09-19 10:56:00,"2025-09-19 05:56:00","IFR",15,14.4,200,4,NA,NA,1013.3,"METAR KFSD 191056Z 20004KT 10SM OVC007 15/14 A2992 RMK AO2 SLP127 T01500144",2025-09-19 11:47:58.652239,2025-09-19 07:47:58.652285
"KGTU","Georgetown Muni, TX, US",2025-09-19 10:56:00,"2025-09-19 10:56:00","VFR",23.3,20.6,0,0,NA,NA,1017,"METAR KGTU 191056Z AUTO 00000KT 10SM CLR 23/21 A3003 RMK AO2 SLP161 T02330206",2025-09-19 11:47:58.659364,2025-09-19 07:47:58.659412
"KGUC","Gunnison Arpt, CO, US",2025-09-19 10:56:00,"2025-09-19 04:56:00","VFR",0.6,-2.8,0,0,NA,NA,1027.9,"METAR KGUC 191056Z AUTO 00000KT 10SM CLR 01/M03 A3035 RMK AO2 SLP223 T00061028 FZRANO $",2025-09-19 11:47:58.666301,2025-09-19 07:47:58.666355
"KGON","Groton-New London Arpt, CT, US",2025-09-19 10:56:00,"2025-09-19 06:56:00","VFR",13.3,NA,0,0,NA,NA,1013.3,"METAR KGON 191056Z 00000KT 10SM CLR 13/ A2992 RMK AO2 SLP133 T0133 $",2025-09-19 11:47:58.673264,2025-09-19 07:47:58.673309
"KGRD","Greenwood Cnty, GA, US",2025-09-19 10:56:00,"2025-09-19 06:56:00","VFR",17.2,16.1,0,0,NA,8,1018,"METAR KGRD 191056Z AUTO 00000KT 8SM CLR 17/16 A3006 RMK AO2 SLP174 T01720161",2025-09-19 11:47:58.680081,2025-09-19 07:47:58.680124
"KGPZ","Grand Rapids/Itasca Cnty, MN, US",2025-09-19 10:56:00,"2025-09-19 05:56:00","IFR",12.8,12.2,110,5,NA,NA,1018.4,"METAR KGPZ 191056Z AUTO 11005KT 10SM OVC005 13/12 A3007 RMK AO2 RAE52 SLP185 P0007 T01280122",2025-09-19 11:47:58.686942,2025-09-19 07:47:58.686988
"KGTB","Ft Drum/Wheeler AAF, NY, US",2025-09-19 10:55:00,"2025-09-19 10:55:00","VFR",9.6,8,360,5,NA,NA,1017.7,"METAR KGTB 191055Z AUTO 36005KT 10SM CLR 10/08 A3005 RMK AO2 SLP175 T00960080",2025-09-19 11:47:58.693779,2025-09-19 07:47:58.693824
"KGRF","Fort Lewis/Gray AAF, WA, US",2025-09-19 10:55:00,"2025-09-19 03:55:00","VFR",6.8,5.4,110,4,NA,NA,1015.3,"METAR KGRF 191055Z AUTO 11004KT 10SM CLR 07/05 A2998 RMK AO2 SLP156 T00680054 $",2025-09-19 11:47:58.700639,2025-09-19 07:47:58.700686
"KFTK","Fort Knox/Godman AAF, KY, US",2025-09-19 10:55:00,"2025-09-19 06:55:00","VFR",15.2,14.6,0,0,NA,NA,1017,"METAR KFTK 191055Z AUTO 00000KT 10SM CLR 15/15 A3003 RMK AO2 SLP166 T01520146 $",2025-09-19 11:47:58.707465,2025-09-19 07:47:58.707533
"KGUS","Peru/Grissom ARB, IN, US",2025-09-19 10:55:00,"2025-09-19 06:55:00","VFR",16,12.4,0,0,NA,NA,1017.4,"METAR KGUS 191055Z AUTO 00000KT 10SM CLR 16/12 A3004 RMK AO2 SLP170 T01600124 $",2025-09-19 11:47:58.727219,2025-09-19 07:47:58.727288
"KGRK","Killeen-Ft Hood Rgnl, TX, US",2025-09-19 10:55:00,"2025-09-19 05:55:00","VFR",23.7,20.2,0,0,NA,NA,1016.3,"METAR KGRK 191055Z AUTO 00000KT 10SM CLR 24/20 A3001 RMK AO2 SLP149 T02370202 $",2025-09-19 11:47:58.735003,2025-09-19 07:47:58.735052
"KGFA","Malmstrom AFB, MT, US",2025-09-19 10:55:00,"2025-09-19 04:55:00","VFR",11.1,7.6,230,3,NA,NA,1016.3,"METAR KGFA 191055Z 23003KT 10SM CLR 11/08 A3001 RMK AO2A SLP151 T01110076 $",2025-09-19 11:47:58.742166,2025-09-19 07:47:58.742213
"KGPI","Kalispell/Glacier Park Intl, MT, US",2025-09-19 10:55:00,"2025-09-19 04:55:00","VFR",7.8,6.7,0,0,NA,NA,1016,"METAR KGPI 191055Z AUTO 00000KT 10SM CLR 08/07 A3000 RMK AO2 SLP150 T00780067 $",2025-09-19 11:47:58.748967,2025-09-19 07:47:58.749012
"KGED","Georgetown/Sussex Cnty, DE, US",2025-09-19 10:54:00,"2025-09-19 06:54:00","MVFR",17.8,17.8,0,0,NA,4,1016,"METAR KGED 191054Z AUTO 00000KT 4SM BR FEW003 18/18 A3000 RMK AO2 SLP159 T01780178",2025-09-19 11:47:58.755667,2025-09-19 07:47:58.75571
"KFZY","Fulton/Oswego Cnty, NY, US",2025-09-19 10:54:00,"2025-09-19 10:54:00","VFR",12.2,9.4,30,4,NA,NA,1018.4,"METAR KFZY 191054Z AUTO 03004KT 10SM CLR 12/09 A3007 RMK AO2 SLP181 T01220094",2025-09-19 11:47:58.762362,2025-09-19 07:47:58.762407
"KGCK","Garden City Rgnl, KS, US",2025-09-19 10:54:00,"2025-09-19 05:54:00","MVFR",11.7,11.1,0,0,NA,3,1018.7,"METAR KGCK 191054Z AUTO 00000KT 3SM BR CLR 12/11 A3008 RMK AO2 SLP166 T01170111",2025-09-19 11:47:58.768996,2025-09-19 07:47:58.76904
"KGCN","Grand Canyon Park Arpt, AZ, US",2025-09-19 10:54:00,"2025-09-19 03:54:00","VFR",12.8,8.9,0,0,NA,NA,1022.8,"METAR KGCN 191054Z AUTO 00000KT 10SM SCT120 13/09 A3020 RMK AO2 SLP130 T01280089",2025-09-19 11:47:58.775705,2025-09-19 07:47:58.775752
"KFWA","Fort Wayne Intl, IN, US",2025-09-19 10:54:00,"2025-09-19 06:54:00","VFR",13.3,11.7,70,3,NA,NA,1018.4,"METAR KFWA 191054Z 07003KT 10SM FEW060 13/12 A3007 RMK AO2 SLP180 T01330117",2025-09-19 11:47:58.782408,2025-09-19 07:47:58.782454
"KGSO","Greensboro Intl, NC, US",2025-09-19 10:54:00,"2025-09-19 06:54:00","VFR",17.8,16.1,0,0,NA,NA,1017.7,"METAR KGSO 191054Z 00000KT 10SM FEW080 FEW250 18/16 A3005 RMK AO2 SLP167 T01780161",2025-09-19 11:47:58.789086,2025-09-19 07:47:58.78913
"KGRR","Grand Rapids Intl, MI, US",2025-09-19 10:53:00,"2025-09-19 06:53:00","LIFR",16.7,16.7,90,4,NA,0.75,1019.4,"METAR KGRR 191053Z 09004KT 3/4SM R26L/P6000FT BR OVC002 17/17 A3010 RMK AO2 SLP188 T01670167 $",2025-09-19 11:47:58.795648,2025-09-19 07:47:58.795692
"KGJT","Grand Junction Rgnl, CO, US",2025-09-19 10:53:00,"2025-09-19 04:53:00","VFR",12.2,0,80,8,NA,NA,1019.7,"METAR KGJT 191053Z AUTO 08008KT 10SM CLR 12/00 A3011 RMK AO2 SLP140 T01220000",2025-09-19 11:47:58.802352,2025-09-19 07:47:58.802401
"KFVE","Frenchville/N Aroostook Rgnl, ME, US",2025-09-19 10:53:00,"2025-09-19 06:53:00","VFR",10,7.2,330,11,19,NA,1010.9,"METAR KFVE 191053Z AUTO 33011G19KT 10SM CLR 10/07 A2985 RMK AO2 SLP105 T01000072",2025-09-19 11:47:58.809207,2025-09-19 07:47:58.809252
"KGFL","Glens Falls/Warren Cnty, NY, US",2025-09-19 10:53:00,"2025-09-19 06:53:00","VFR",12.8,11.7,0,0,NA,9,1015,"METAR KGFL 191053Z AUTO 00000KT 9SM CLR 13/12 A2997 RMK AO2 SLP149 T01280117",2025-09-19 11:47:58.81596,2025-09-19 07:47:58.816004
"KGGW","Glasgow Intl Arpt, MT, US",2025-09-19 10:53:00,"2025-09-19 04:53:00","VFR",10.6,10,110,10,NA,NA,1018,"METAR KGGW 191053Z AUTO 11010KT 10SM CLR 11/10 A3006 RMK AO2 SLP177 T01060100 TSNO ",2025-09-19 11:47:58.822702,2025-09-19 07:47:58.822755
"KFPR","Ft Pierce/Treasure Coast Intl, FL, US",2025-09-19 10:53:00,"2025-09-19 06:53:00","VFR",23.3,22.8,320,3,NA,NA,1014,"METAR KFPR 191053Z AUTO 32003KT 10SM CLR 23/23 A2994 RMK AO2 SLP138 T02330228",2025-09-19 11:47:58.829427,2025-09-19 07:47:58.829491
"KGEY","Greybull/South Big Horn Arpt, WY, US",2025-09-19 10:53:00,"2025-09-19 04:53:00","VFR",10.6,3.3,0,0,NA,NA,1018,"METAR KGEY 191053Z AUTO 00000KT 10SM CLR 11/03 A3006 RMK AO2 SLP151 T01060033",2025-09-19 11:47:58.836273,2025-09-19 07:47:58.836318
"KGFK","Grand Forks Intl, ND, US",2025-09-19 10:53:00,"2025-09-19 05:53:00","MVFR",16.1,15,80,6,NA,NA,1015.7,"METAR KGFK 191053Z 08006KT 10SM OVC015 16/15 A2999 RMK AO2 RAE06 SLP156 P0017 T01610150",2025-09-19 11:47:58.843358,2025-09-19 07:47:58.843405
"KGKJ","Meadville Arpt, PA, US",2025-09-19 10:53:00,"2025-09-19 06:53:00","VFR",13.3,12.8,0,0,NA,NA,1019.4,"METAR KGKJ 191053Z AUTO 00000KT 10SM FEW070 13/13 A3010 RMK AO2 SLP187 T01330128",2025-09-19 11:47:58.850267,2025-09-19 07:47:58.850312
"KGPT","Gulfport-Biloxi Intl, MS, US",2025-09-19 10:53:00,"2025-09-19 05:53:00","VFR",20.6,19.4,0,0,NA,NA,1016.7,"METAR KGPT 191053Z 00000KT 10SM CLR 21/19 A3002 RMK AO2 SLP164 T02060194",2025-09-19 11:47:58.871029,2025-09-19 07:47:58.871076
"KGVL","Gainesville/Gilmer Mem, GA, US",2025-09-19 10:53:00,"2025-09-19 06:53:00","VFR",19.4,17.8,0,0,NA,NA,1019,"METAR KGVL 191053Z AUTO 00000KT 10SM CLR 19/18 A3009 RMK AO2 SLP174 T01940178 $",2025-09-19 11:47:58.878573,2025-09-19 07:47:58.878621
"KFSM","Fort Smith Rgnl, AR, US",2025-09-19 10:53:00,"2025-09-19 05:53:00","VFR",19.4,18.9,100,4,NA,8,1016.7,"METAR KFSM 191053Z 10004KT 8SM CLR 19/19 A3002 RMK AO2 SLP160 T01940189",2025-09-19 11:47:58.885779,2025-09-19 07:47:58.885823
"KFXE","Ft Lauderdale Exec, FL, US",2025-09-19 10:53:00,"2025-09-19 06:53:00","VFR",24.4,23.9,0,0,NA,NA,1013.3,"METAR KFXE 191053Z 00000KT 10SM CLR 24/24 A2992 RMK AO2 SLP134 T02440239 $",2025-09-19 11:47:58.89254,2025-09-19 07:47:58.892586
"KGGG","Longview/Gregg Cnty, TX, US",2025-09-19 10:53:00,"2025-09-19 05:53:00","VFR",21.7,20,0,0,NA,NA,1016.3,"METAR KGGG 191053Z 00000KT 10SM CLR 22/20 A3001 RMK AO2 SLP155 T02170200 $",2025-09-19 11:47:58.89949,2025-09-19 07:47:58.899541
"KGEZ","Shelbyville Muni, IN, US",2025-09-19 10:53:00,"2025-09-19 10:53:00","VFR",13.9,12.8,60,3,NA,8,1018,"METAR KGEZ 191053Z AUTO 06003KT 8SM CLR 14/13 A3006 RMK AO2 SLP173 T01390128",2025-09-19 11:47:58.90631,2025-09-19 07:47:58.906356
"KGSP","Greenville-Spartanburg Intl, SC, US",2025-09-19 10:53:00,"2025-09-19 06:53:00","VFR",16.7,16.1,0,0,NA,NA,1018.4,"METAR KGSP 191053Z 00000KT 10SM CLR 17/16 A3007 RMK AO2 SLP172 T01670161",2025-09-19 11:47:58.913234,2025-09-19 07:47:58.913282
"KGIF","Winter Haven Rgnl, FL, US",2025-09-19 10:53:00,"2025-09-19 06:53:00","VFR",22.8,21.7,360,6,NA,NA,1015.7,"METAR KGIF 191053Z AUTO 36006KT 10SM CLR 23/22 A2999 RMK AO1 SLP155 T02280217 $",2025-09-19 11:47:58.920269,2025-09-19 07:47:58.920314
"KFTW","Fort Worth/Meacham Intl, TX, US",2025-09-19 10:53:00,"2025-09-19 05:53:00","VFR",23.9,18.3,0,0,NA,NA,1015.7,"METAR KFTW 191053Z 00000KT 10SM CLR 24/18 A2999 RMK AO2 SLP146 T02390183 $",2025-09-19 11:47:58.927808,2025-09-19 07:47:58.927862
"KFYV","Fayetteville/Drake Fld, AR, US",2025-09-19 10:53:00,"2025-09-19 05:53:00","MVFR",16.1,15,0,0,NA,3,1018,"METAR KFYV 191053Z 00000KT 3SM BR CLR 16/15 A3006 RMK AO2 SLP169 T01610150",2025-09-19 11:47:58.934919,2025-09-19 07:47:58.934964
"KGMU","Greenville/Downtown Arpt, SC, US",2025-09-19 10:53:00,"2025-09-19 06:53:00","VFR",20.6,16.1,10,4,NA,NA,1018.4,"METAR KGMU 191053Z 01004KT 10SM CLR 21/16 A3007 RMK AO2 SLP173 T02060161",2025-09-19 11:47:58.942119,2025-09-19 07:47:58.942165
"KGOK","Guthrie-Edmond Rgnl, OK, US",2025-09-19 10:53:00,"2025-09-19 05:53:00",NA,18.9,17.2,NA,NA,NA,NA,1017.4,"METAR KGOK 191053Z AUTO 10SM 19/17 A3004 RMK AO2 SLP166 T01890172 $",2025-09-19 11:47:58.949345,2025-09-19 07:47:58.949392
"KGLD","Goodland/Renner Fld, KS, US",2025-09-19 10:53:00,"2025-09-19 04:53:00","VFR",12.2,10,200,13,NA,NA,1018.7,"METAR KGLD 191053Z AUTO 20013KT 10SM CLR 12/10 A3008 RMK AO2 SLP159 T01220100",2025-09-19 11:47:58.9566,2025-09-19 07:47:58.956647
"KGUP","Gallup Muni, NM, US",2025-09-19 10:53:00,"2025-09-19 04:53:00","VFR",13.9,3.9,0,0,NA,NA,1023.8,"METAR KGUP 191053Z AUTO 00000KT 10SM BKN110 14/04 A3023 RMK AO2 SLP078 T01390039",2025-09-19 11:47:58.963716,2025-09-19 07:47:58.96376
"KFST","Fort Stockton/Pecos Cnty, TX, US",2025-09-19 10:53:00,"2025-09-19 05:53:00","VFR",22.2,13.9,140,6,NA,NA,1017.7,"METAR KFST 191053Z AUTO 14006KT 10SM CLR 22/14 A3005 RMK AO2 SLP125 T02220139",2025-09-19 11:47:58.970713,2025-09-19 07:47:58.970764
"KGAG","Gage Arpt, OK, US",2025-09-19 10:53:00,"2025-09-19 05:53:00","VFR",14.4,14.4,0,0,NA,9,1018.4,"METAR KGAG 191053Z AUTO 00000KT 9SM CLR 14/14 A3007 RMK AO2 SLP165 T01440144",2025-09-19 11:47:58.977556,2025-09-19 07:47:58.977602
"KFRG","Farmingdale/Republic Arpt, NY, US",2025-09-19 10:53:00,"2025-09-19 06:53:00","VFR",18.3,13.3,10,4,NA,NA,1014.6,"METAR KFRG 191053Z 01004KT 10SM CLR 18/13 A2996 RMK AO2 SLP144 T01830133",2025-09-19 11:47:58.984396,2025-09-19 07:47:58.984442
"KGLH","Greenville/Mid Delta Arpt, MS, US",2025-09-19 10:53:00,"2025-09-19 05:53:00","VFR",20,18.3,200,3,NA,NA,1016,"METAR KGLH 191053Z AUTO 20003KT 10SM CLR 20/18 A3000 RMK AO2 SLP165 T02000183",2025-09-19 11:47:58.991222,2025-09-19 07:47:58.991269
"KGUY","Guymon Muni, OK, US",2025-09-19 10:53:00,"2025-09-19 05:53:00","VFR",14.4,13.3,0,0,NA,NA,1019,"METAR KGUY 191053Z AUTO 00000KT 10SM BKN070 BKN085 OVC100 14/13 A3009 RMK AO2 LTG DSNT E RAB21E35 SLP154 P0000 T01440133",2025-09-19 11:47:58.997996,2025-09-19 07:47:58.99804
"KFOK","Westhampton/Gabreski Arpt, NY, US",2025-09-19 10:53:00,"2025-09-19 06:53:00","VFR",13.3,13.3,0,0,NA,NA,1014.6,"METAR KFOK 191053Z 00000KT 10SM CLR 13/13 A2996 RMK AO2 SLP145 T01330133 $",2025-09-19 11:47:59.020222,2025-09-19 07:47:59.020273
"KGNV","Gainesville Rgnl, FL, US",2025-09-19 10:53:00,"2025-09-19 06:53:00","LIFR",20,19.4,310,3,NA,NA,1017.4,"METAR KGNV 191053Z 31003KT 10SM BKN001 20/19 A3004 RMK AO2 SLP168 T02000194 $",2025-09-19 11:47:59.027939,2025-09-19 07:47:59.027987
"KGKY","Arlington Muni, TX, US",2025-09-19 10:53:00,"2025-09-19 10:53:00","VFR",22.2,18.9,110,3,NA,NA,1016,"METAR KGKY 191053Z AUTO 11003KT 10SM CLR 22/19 A3000 RMK AO2 SLP149 T02220189",2025-09-19 11:47:59.03515,2025-09-19 07:47:59.035195
"KFTY","Atlanta/Fulton Cnty, GA, US",2025-09-19 10:53:00,"2025-09-19 06:53:00","VFR",17.2,16.7,0,0,NA,7,1017.7,"METAR KFTY 191053Z 00000KT 7SM CLR 17/17 A3005 RMK AO2 SLP168 T01720167",2025-09-19 11:47:59.042017,2025-09-19 07:47:59.042063
"KGTF","Great Falls Intl, MT, US",2025-09-19 10:53:00,"2025-09-19 04:53:00","VFR",11.1,6.7,220,11,NA,NA,1017,"METAR KGTF 191053Z 22011KT 10SM CLR 11/07 A3003 RMK AO2 SLP148 T01110067 $",2025-09-19 11:47:59.049153,2025-09-19 07:47:59.049198
"KGRI","Grand Island Rgnl, NE, US",2025-09-19 10:53:00,"2025-09-19 05:53:00","VFR",10.6,10,260,3,NA,NA,1017.4,"METAR KGRI 191053Z AUTO 26003KT 10SM CLR 11/10 A3004 RMK AO2 SLP171 T01060100",2025-09-19 11:47:59.056331,2025-09-19 07:47:59.056377
"KGLR","Gaylord Rgnl, MI, US",2025-09-19 10:53:00,"2025-09-19 06:53:00","IFR",15,13.9,110,5,NA,NA,1021.4,"METAR KGLR 191053Z AUTO 11005KT 10SM OVC005 15/14 A3016 RMK AO2 SLP211 T01500139",2025-09-19 11:47:59.063299,2025-09-19 07:47:59.063345
"KFWN","Sussex Arpt, NJ, US",2025-09-19 10:53:00,"2025-09-19 10:53:00","VFR",11.1,10.6,0,0,NA,NA,1016,"METAR KFWN 191053Z AUTO 00000KT 10SM CLR 11/11 A3000 RMK AO2 SLP157 T01110106",2025-09-19 11:47:59.070344,2025-09-19 07:47:59.070392
"KFUL","Fullerton Muni, CA, US",2025-09-19 10:53:00,"2025-09-19 03:53:00","VFR",21.7,17.8,210,3,NA,NA,1011.3,"METAR KFUL 191053Z AUTO 21003KT 10SM BKN055 OVC090 22/18 A2986 RMK AO2 SLP109 T02170178",2025-09-19 11:47:59.077247,2025-09-19 07:47:59.077292
"KGSH","Goshen Muni, IN, US",2025-09-19 10:53:00,"2025-09-19 06:53:00","VFR",14.4,13.3,0,0,NA,NA,1018.4,"METAR KGSH 191053Z AUTO 00000KT 10SM -RA CLR 14/13 A3007 RMK AO2 RAB37 SLP177 P0000 T01440133",2025-09-19 11:47:59.084388,2025-09-19 07:47:59.084434
"KGCC","Gillette/Campbell Cnty, WY, US",2025-09-19 10:53:00,"2025-09-19 04:53:00","VFR",10,7.8,0,0,NA,NA,1019.4,"METAR KGCC 191053Z AUTO 00000KT 10SM CLR 10/08 A3010 RMK AO2 SLP162 T01000078",2025-09-19 11:47:59.091212,2025-09-19 07:47:59.091255
"KGEG","Spokane Intl, WA, US",2025-09-19 10:53:00,"2025-09-19 03:53:00","VFR",15,8.9,10,3,NA,NA,1014,"METAR KGEG 191053Z 01003KT 10SM CLR 15/09 A2994 RMK AO2 SLP121 T01500089 $",2025-09-19 11:47:59.097987,2025-09-19 07:47:59.098032
"KGLS","Galveston/Scholes Intl, TX, US",2025-09-19 10:52:00,"2025-09-19 05:52:00","VFR",25.6,21.7,30,4,NA,NA,1015.7,"METAR KGLS 191052Z 03004KT 10SM FEW033 26/22 A2999 RMK AO1 SLP155 T02560217 $",2025-09-19 11:47:59.104774,2025-09-19 07:47:59.104823
"KHUM","Houma/Terrebonne Arpt, LA, US",2025-09-19 11:47:00,"2025-09-19 06:47:00","VFR",21,21,0,0,NA,7,1017,"METAR KHUM 191147Z 00000KT 7SM CLR 21/21 A3003",2025-09-19 11:48:00.504092,2025-09-19 07:48:00.504185
"KHQM","Hoquiam/Bowerman Arpt, WA, US",2025-09-19 11:43:00,"2025-09-19 04:43:00","LIFR",8.9,8.9,0,0,NA,1.75,1016.3,"SPECI KHQM 191143Z AUTO 00000KT 1 3/4SM BR BKN003 09/09 A3001 RMK AO2 VIS 1V4 T00890089",2025-09-19 11:48:00.512885,2025-09-19 07:48:00.512934
"KHRJ","Erwin/Harnett Rgnl, NC, US",2025-09-19 11:40:00,"2025-09-19 11:40:00","LIFR",17.1,17.1,0,0,NA,0.25,1018.4,"METAR KHRJ 191140Z AUTO 00000KT M1/4SM FG OVC003 17/17 A3007 RMK AO2 T01710171",2025-09-19 11:48:00.520584,2025-09-19 07:48:00.520632
"KHTL","Houghton Lake/Blodgett Mem, MI, US",2025-09-19 11:36:00,"2025-09-19 07:36:00","IFR",16.1,15.6,80,5,NA,NA,1021.4,"SPECI KHTL 191136Z AUTO 08005KT 10SM BKN008 OVC024 16/16 A3016 RMK AO2 T01610156 $",2025-09-19 11:48:00.527773,2025-09-19 07:48:00.527819
"KHEF","Manassas Rgnl, VA, US",2025-09-19 11:36:00,"2025-09-19 07:36:00","IFR",13,13,0,0,NA,2.5,1017,"SPECI KHEF 191136Z AUTO 00000KT 2 1/2SM BR CLR 13/13 A3003 RMK AO2",2025-09-19 11:48:00.534851,2025-09-19 07:48:00.534894
"KHQZ","Mesquite Metro, TX, US",2025-09-19 11:35:00,"2025-09-19 11:35:00","VFR",20.4,18.6,150,3,NA,7,1016.7,"METAR KHQZ 191135Z AUTO 15003KT 7SM CLR 20/19 A3002 RMK AO1 T02040186",2025-09-19 11:48:00.542095,2025-09-19 07:48:00.542139
"KHFJ","Monett Muni, MO, US",2025-09-19 11:35:00,"2025-09-19 11:35:00","MVFR",16,16,130,4,NA,5,1018,"METAR KHFJ 191135Z AUTO 13004KT 5SM BR CLR 16/16 A3006 RMK AO2",2025-09-19 11:48:00.549332,2025-09-19 07:48:00.549377
"KHWY","Warrenton/Fauquier Arpt, VA, US",2025-09-19 11:35:00,"2025-09-19 11:35:00","LIFR",13.6,12.2,0,0,NA,0.75,1017,"METAR KHWY 191135Z AUTO 00000KT 3/4SM BR VV005 14/12 A3003 RMK AO2 T01360122",2025-09-19 11:48:00.556423,2025-09-19 07:48:00.556467
"KHYX","Saginaw Cnty Arpt, MI, US",2025-09-19 11:35:00,"2025-09-19 11:35:00","MVFR",17,17,50,4,NA,3,1020.1,"METAR KHYX 191135Z AUTO 05004KT 3SM BR OVC035 17/17 A3012 RMK AO2 VIS 2 1/2V4",2025-09-19 11:48:00.5634,2025-09-19 07:48:00.563445
"KHYW","Conway/Horry Cnty, SC, US",2025-09-19 11:35:00,"2025-09-19 11:35:00","LIFR",18,18,0,0,NA,0.25,1017.4,"METAR KHYW 191135Z AUTO 00000KT M1/4SM FG OVC001 18/18 A3004 RMK AO2",2025-09-19 11:48:00.570396,2025-09-19 07:48:00.57044
"KHIE","Mt Washington Rgnl, NH, US",2025-09-19 11:35:00,"2025-09-19 07:35:00","VFR",13.9,10,330,6,NA,NA,1015.3,"SPECI KHIE 191135Z AUTO 33006KT 10SM FEW017 SCT026 OVC034 14/10 A2998 RMK AO2 T01390100",2025-09-19 11:48:00.577467,2025-09-19 07:48:00.577609
"KHMZ","Bedford Arpt, PA, US",2025-09-19 11:35:00,"2025-09-19 11:35:00","VFR",10,9.5,0,0,NA,NA,1019.4,"METAR KHMZ 191135Z AUTO 00000KT 10SM CLR 10/10 A3010 RMK AO2 T01000095",2025-09-19 11:48:00.584879,2025-09-19 07:48:00.584924
"KHVC","Hopkinsville/Christian Cnty, KY, US",2025-09-19 11:35:00,"2025-09-19 11:35:00","VFR",15,13,0,0,NA,NA,1017,"METAR KHVC 191135Z AUTO 00000KT 10SM CLR 15/13 A3003 RMK AO2",2025-09-19 11:48:00.59215,2025-09-19 07:48:00.592195
"KGWR","Gwinner Muni, ND, US",2025-09-19 11:35:00,"2025-09-19 11:35:00","LIFR",18,18,100,6,NA,4,1014,"METAR KGWR 191135Z AUTO 10006KT 4SM BR OVC003 18/18 A2994 RMK A01",2025-09-19 11:48:00.599055,2025-09-19 07:48:00.599099
"KHHF","Canadian/Hemphill Cnty, TX, US",2025-09-19 11:35:00,"2025-09-19 11:35:00","VFR",16.2,15.5,0,0,NA,NA,1019,"METAR KHHF 191135Z AUTO 00000KT 10SM SCT080 16/16 A3009 RMK AO2 LTG DSNT SE T01620155",2025-09-19 11:48:00.606114,2025-09-19 07:48:00.60616
"KHAE","Hannibal Rgnl, MO, US",2025-09-19 11:35:00,"2025-09-19 11:35:00","MVFR",17,16,0,0,NA,4,1017.4,"METAR KHAE 191135Z AUTO 00000KT 4SM BR SCT002 17/16 A3004 RMK AO2",2025-09-19 11:48:00.613155,2025-09-19 07:48:00.613199
"KHRX","Hereford Muni, TX, US",2025-09-19 11:35:00,"2025-09-19 11:35:00","VFR",14.3,14.3,220,3,NA,NA,1020.7,"METAR KHRX 191135Z AUTO 22003KT 10SM CLR 14/14 A3014 RMK AO2 T01430143 TSNO",2025-09-19 11:48:00.620112,2025-09-19 07:48:00.620157
"KHAF","Half Moon Bay Arpt, CA, US",2025-09-19 11:35:00,"2025-09-19 04:35:00","IFR",15,15,0,0,NA,1.75,1011.9,"METAR KHAF 191135Z AUTO 00000KT 1 3/4SM BR OVC005 15/15 A2988 RMK AO2",2025-09-19 11:48:00.627028,2025-09-19 07:48:00.627076
"KHSD","Oklahoma City/Sundance Arpt, OK, US",2025-09-19 11:35:00,"2025-09-19 11:35:00","VFR",18,18,180,5,NA,NA,1018,"METAR KHSD 191135Z AUTO 18005KT 10SM SCT090 18/18 A3006 RMK A01",2025-09-19 11:48:00.634115,2025-09-19 07:48:00.634164
"KHEG","Jacksonville/Herlong Arpt, FL, US",2025-09-19 11:35:00,"2025-09-19 11:35:00","IFR",20,20,0,0,NA,2.5,1017.4,"METAR KHEG 191135Z AUTO 00000KT 2 1/2SM BR CLR 20/20 A3004 RMK AO2 TSNO",2025-09-19 11:48:00.655659,2025-09-19 07:48:00.655707
"KHDC","Hammond/Northshore Rgnl, LA, US",2025-09-19 11:35:00,"2025-09-19 11:35:00","VFR",18.3,18.3,0,0,NA,NA,1017.4,"METAR KHDC 191135Z AUTO 00000KT 10SM CLR 18/18 A3004 RMK AO2 T01830183",2025-09-19 11:48:00.66362,2025-09-19 07:48:00.66367
"KHCO","Hallock Muni, MN, US",2025-09-19 11:35:00,"2025-09-19 11:35:00","MVFR",16,15,90,4,NA,NA,1017,"METAR KHCO 191135Z AUTO 09004KT 10SM BKN016 OVC022 16/15 A3003 RMK AO2",2025-09-19 11:48:00.671338,2025-09-19 07:48:00.671389
"KHSP","Hot Springs/Ingalls Fld, VA, US",2025-09-19 11:35:00,"2025-09-19 07:35:00","VFR",16,9.7,320,4,NA,NA,1022.8,"METAR KHSP 191135Z AUTO 32004KT 10SM CLR 16/10 A3020 RMK AO2 T01600097",2025-09-19 11:48:00.678422,2025-09-19 07:48:00.678467
"KHLX","Hillsville/Twin Cnty, VA, US",2025-09-19 11:35:00,"2025-09-19 11:35:00","VFR",13,13,230,4,NA,NA,1021.4,"METAR KHLX 191135Z AUTO 23004KT 10SM CLR 13/13 A3016 RMK AO2",2025-09-19 11:48:00.685705,2025-09-19 07:48:00.685751
"KHOE","Homerville Arpt, GA, US",2025-09-19 11:35:00,"2025-09-19 11:35:00","VFR",20.1,18.6,0,0,NA,7,1017,"METAR KHOE 191135Z AUTO 00000KT 7SM BKN070 BKN085 20/18 A3003 RMK AO2 T02010186",2025-09-19 11:48:00.692914,2025-09-19 07:48:00.692963
"KHFY","Greenwood Muni, IN, US",2025-09-19 11:35:00,"2025-09-19 11:35:00","VFR",15.9,13.1,0,0,NA,NA,1018.7,"METAR KHFY 191135Z AUTO 00000KT 10SM CLR 16/13 A3008 RMK AO2 T01590131",2025-09-19 11:48:00.700205,2025-09-19 07:48:00.700254
"KHDE","Holdrege/Brewster Fld, NE, US",2025-09-19 11:35:00,"2025-09-19 06:35:00","VFR",11,10.2,0,0,NA,NA,1018.4,"METAR KHDE 191135Z AUTO 00000KT 10SM CLR 11/10 A3007 RMK AO2 T01100102",2025-09-19 11:48:00.707618,2025-09-19 07:48:00.707668
"KHII","Lake Havasu City Arpt, AZ, US",2025-09-19 11:35:00,"2025-09-19 04:35:00","VFR",22,20,0,0,NA,NA,1011.6,"METAR KHII 191135Z AUTO 00000KT 10SM SCT100 BKN120 22/20 A2987 RMK AO2",2025-09-19 11:48:00.714853,2025-09-19 07:48:00.714898
"KHQU","Thomson/McDuffie Cnty, GA, US",2025-09-19 11:35:00,"2025-09-19 11:35:00","VFR",18,17,0,0,NA,7,1019.4,"METAR KHQU 191135Z AUTO 00000KT 7SM CLR 18/17 A3010 RMK AO2",2025-09-19 11:48:00.721853,2025-09-19 07:48:00.721896
"KHBV","Hebbronville/Hogg Cnty, TX, US",2025-09-19 11:35:00,"2025-09-19 11:35:00","VFR",21.2,21.2,0,0,NA,9,1015.3,"METAR KHBV 191135Z AUTO 00000KT 9SM FEW017 21/21 A2998 RMK AO2 T02120212 $",2025-09-19 11:48:00.728899,2025-09-19 07:48:00.728943
"KHOB","Hobbs Arpt, NM, US",2025-09-19 11:35:00,"2025-09-19 05:35:00","VFR",17,12,200,5,NA,NA,1020.1,"METAR KHOB 191135Z AUTO 20005KT 10SM CLR 17/12 A3012 RMK AO2",2025-09-19 11:48:00.735975,2025-09-19 07:48:00.73602
"KHAI","Three Rivers Muni, MI, US",2025-09-19 11:35:00,"2025-09-19 07:35:00","IFR",13,13,40,1,NA,2.5,1018.7,"METAR KHAI 191135Z AUTO 04001KT 2 1/2SM BR CLR 13/13 A3008 RMK AO2 VIS 2V4",2025-09-19 11:48:00.742923,2025-09-19 07:48:00.742965
"KHNR","Harlan Muni, IA, US",2025-09-19 11:35:00,"2025-09-19 11:35:00","MVFR",17,17,220,4,NA,5,1015,"METAR KHNR 191135Z AUTO 22004KT 5SM BR FEW005 SCT013 17/17 A2997 RMK A01",2025-09-19 11:48:00.749984,2025-09-19 07:48:00.750029
"KHQG","Hugoton Muni, KS, US",2025-09-19 11:35:00,"2025-09-19 11:35:00","VFR",14,13,220,1,NA,NA,1019.7,"METAR KHQG 191135Z AUTO 22001KT 10SM SCT065 14/13 A3011 RMK AO2 TSNO",2025-09-19 11:48:00.757179,2025-09-19 07:48:00.757228
"KHVS","Hartsville Rgnl, SC, US",2025-09-19 11:35:00,"2025-09-19 07:35:00",NA,17,17,0,0,NA,6,1017.7,"METAR KHVS 191135Z AUTO 00000KT 6SM BR 17/17 A3005 RMK AO2",2025-09-19 11:48:00.764239,2025-09-19 07:48:00.764282
"KGWW","Goldsboro/Wayne Muni, NC, US",2025-09-19 11:35:00,"2025-09-19 11:35:00","LIFR",16.5,16.5,0,0,NA,0.25,1017.7,"METAR KGWW 191135Z AUTO 00000KT M1/4SM OVC001 17/17 A3005 RMK AO2 T01650165",2025-09-19 11:48:00.771372,2025-09-19 07:48:00.771418
"KHHW","Hugo/Stamper Muni, OK, US",2025-09-19 11:35:00,"2025-09-19 06:35:00","VFR",19,18,0,0,NA,NA,1016.7,"METAR KHHW 191135Z AUTO 00000KT 10SM SCT080 19/18 A3002 RMK AO2",2025-09-19 11:48:00.778738,2025-09-19 07:48:00.778792
"KGZN","Cisco/Simmons Mem, TX, US",2025-09-19 11:35:00,"2025-09-19 11:35:00","VFR",20,16,190,5,NA,NA,1017,"METAR KGZN 191135Z AUTO 19005KT 10SM BKN046 OVC055 20/16 A3003 RMK AO2",2025-09-19 11:48:00.785976,2025-09-19 07:48:00.786025
"KGZS","Pulaski/Abernathy Fld, TN, US",2025-09-19 11:35:00,"2025-09-19 11:35:00","LIFR",15,15,0,0,NA,1.25,1017.7,"METAR KGZS 191135Z AUTO 00000KT 1 1/4SM BR BKN003 BKN050 15/15 A3005 RMK A01",2025-09-19 11:48:00.808023,2025-09-19 07:48:00.808069
"KHLB","Batesville Arpt, IN, US",2025-09-19 11:35:00,"2025-09-19 07:35:00","IFR",12,12,0,0,NA,2.5,1018.7,"METAR KHLB 191135Z AUTO 00000KT 2 1/2SM BR CLR 12/12 A3008 RMK A01 VIS 1 1/2V4",2025-09-19 11:48:00.815937,2025-09-19 07:48:00.815983
"KHTH","Hawthorne Muni, NV, US",2025-09-19 11:35:00,"2025-09-19 04:35:00","VFR",18,8,130,10,NA,NA,1015.3,"METAR KHTH 191135Z AUTO 13010KT 10SM FEW085 18/08 A2998 RMK A01",2025-09-19 11:48:00.823317,2025-09-19 07:48:00.823362
"KHZD","Huntingdon/Carroll Cnty, TN, US",2025-09-19 11:35:00,"2025-09-19 11:35:00","VFR",19,16,0,0,NA,9,1016,"METAR KHZD 191135Z AUTO 00000KT 9SM SCT070 19/16 A3000 RMK A01",2025-09-19 11:48:00.830273,2025-09-19 07:48:00.830318
"KHCD","Hutchinson/Butler Fld, MN, US",2025-09-19 11:35:00,"2025-09-19 11:35:00","IFR",18.3,18,120,5,NA,7,1015,"METAR KHCD 191135Z AUTO 12005KT 7SM BKN005 OVC012 18/18 A2997 RMK AO2 T01830180",2025-09-19 11:48:00.837512,2025-09-19 07:48:00.837563
"KHEQ","Holyoke Arpt, CO, US",2025-09-19 11:35:00,"2025-09-19 11:35:00","VFR",8,8,200,3,NA,NA,1018.4,"METAR KHEQ 191135Z AUTO 20003KT 10SM CLR 08/08 A3007 RMK AO2",2025-09-19 11:48:00.844744,2025-09-19 07:48:00.844793
"KHJH","Hebron Muni, NE, US",2025-09-19 11:35:00,"2025-09-19 11:35:00","VFR",11.9,11.3,0,0,NA,NA,1017.7,"METAR KHJH 191135Z AUTO 00000KT 10SM CLR 12/11 A3005 RMK AO2 T01190113",2025-09-19 11:48:00.851974,2025-09-19 07:48:00.852023
"KGYB","Giddings/Lee Cnty, TX, US",2025-09-19 11:35:00,"2025-09-19 11:35:00","VFR",20.8,19.8,0,0,NA,NA,1018,"METAR KGYB 191135Z AUTO 00000KT 10SM CLR 21/20 A3006 RMK AO2 T02080198",2025-09-19 11:48:00.859122,2025-09-19 07:48:00.859172
"KHPT","Hampton Muni, IA, US",2025-09-19 11:35:00,"2025-09-19 06:35:00","MVFR",16,16,0,0,NA,NA,1015.3,"METAR KHPT 191135Z AUTO 00000KT 10SM BKN012 OVC060 16/16 A2998 RMK AO2",2025-09-19 11:48:00.866224,2025-09-19 07:48:00.86627
"KHSG","Thermopolis/Hot Springs Cnty, WY, US",2025-09-19 11:35:00,"2025-09-19 05:35:00","VFR",9.4,0.3,0,0,NA,NA,1019.4,"METAR KHSG 191135Z AUTO 00000KT 10SM CLR 09/00 A3010 RMK AO2 T00940003",2025-09-19 11:48:00.873337,2025-09-19 07:48:00.873384
"KHSB","Harrisburg/Raleigh Arpt, IL, US",2025-09-19 11:35:00,"2025-09-19 06:35:00","VFR",19.8,15.3,NA,NA,NA,NA,1017,"METAR KHSB 191135Z 10SM CLR 20/15 A3003 RMK AO2 LTG DSNT SW T01980153",2025-09-19 11:48:00.880505,2025-09-19 07:48:00.88057
"KHCR","Heber City Muni, UT, US",2025-09-19 11:35:00,"2025-09-19 11:35:00","VFR",4.9,2.8,0,0,NA,NA,1020.4,"METAR KHCR 191135Z AUTO 00000KT 10SM SCT220 05/03 A3013 RMK AO2 T00490028 $",2025-09-19 11:48:00.887808,2025-09-19 07:48:00.887854
"KGYL","Glencoe Muni, MN, US",2025-09-19 11:35:00,"2025-09-19 11:35:00","MVFR",18.9,18.2,100,5,NA,7,1014.6,"METAR KGYL 191135Z AUTO 10005KT 7SM SCT016 BKN022 OVC026 19/18 A2996 RMK AO2 T01890182",2025-09-19 11:48:00.894831,2025-09-19 07:48:00.894876
"KHVE","Hanksville Arpt, UT, US",2025-09-19 11:30:00,"2025-09-19 05:30:00","VFR",12,-1,0,0,NA,NA,1019,"METAR KHVE 191130Z AUTO 00000KT 10SM CLR 12/M01 A3009 RMK AO2",2025-09-19 11:48:00.901955,2025-09-19 07:48:00.902002
"KHNZ","Oxford-Henderson Arpt, NC, US",2025-09-19 11:30:00,"2025-09-19 11:30:00","VFR",15.6,15.5,0,0,NA,7,1018,"METAR KHNZ 191130Z AUTO 00000KT 7SM CLR 16/16 A3006 RMK AO2 T01560155",2025-09-19 11:48:00.908942,2025-09-19 07:48:00.908988
"KHBR","Hobart Muni, OK, US",2025-09-19 11:27:00,"2025-09-19 06:27:00","VFR",17.8,16.7,90,7,NA,8,1018.4,"SPECI KHBR 191127Z AUTO 09007KT 8SM -RA FEW050 SCT080 OVC110 18/17 A3007 RMK AO2 LTG DSNT E RAB13 PRESFR P0002 T01780167 $",2025-09-19 11:48:00.915952,2025-09-19 07:48:00.915998
"KHIB","Hibbing/Chisholm Arpt, MN, US",2025-09-19 11:16:00,"2025-09-19 06:16:00","IFR",12.2,11.7,90,7,NA,NA,1018.7,"SPECI KHIB 191116Z AUTO 09007KT 10SM BKN008 BKN012 OVC020 12/12 A3008 RMK AO2 RAE16 CIG 008V012 P0000 T01220117",2025-09-19 11:48:00.923148,2025-09-19 07:48:00.923196
"KGYI","Dennison/N Texas Rgnl, TX, US",2025-09-19 11:15:00,"2025-09-19 06:15:00","VFR",22.8,19.6,160,4,NA,NA,1017,"METAR KGYI 191115Z AUTO 16004KT 10SM FEW250 23/20 A3003 RMK AO2 LTG DSNT N T02280196 $",2025-09-19 11:48:00.930504,2025-09-19 07:48:00.930556
"KHON","Huron Rgnl, SD, US",2025-09-19 11:11:00,"2025-09-19 06:11:00","LIFR",15.6,15.6,330,7,NA,4,1013.3,"SPECI KHON 191111Z AUTO 33007KT 4SM BR OVC003 16/16 A2992 RMK AO2 RAB1056E10 P0000 T01560156",2025-09-19 11:48:00.95104,2025-09-19 07:48:00.951123
"KHHR","Hawthorne Muni, CA, US",2025-09-19 11:02:00,"2025-09-19 04:02:00","VFR",20.6,18.3,280,4,NA,NA,1011.6,"SPECI KHHR 191102Z AUTO 28004KT 10SM SCT009 21/18 A2987 RMK AO2 T02060183 $",2025-09-19 11:48:00.959993,2025-09-19 07:48:00.960044
"KHWD","Hayward Exec, CA, US",2025-09-19 11:01:00,"2025-09-19 04:01:00","MVFR",16.1,14.4,330,6,NA,9,1011.6,"SPECI KHWD 191101Z 33006KT 9SM OVC010 16/14 A2987 RMK AO2 T01610144",2025-09-19 11:48:00.967718,2025-09-19 07:48:00.967765
"KHWV","Brookhaven Arpt, NY, US",2025-09-19 10:56:00,"2025-09-19 06:56:00","VFR",15,15,290,4,NA,NA,1014.3,"METAR KHWV 191056Z AUTO 29004KT 10SM CLR 15/15 A2995 RMK AO2 SLP142 T01500150 $",2025-09-19 11:48:00.974779,2025-09-19 07:48:00.974827
"KHPN","White Plains/Westchester Cnty, NY, US",2025-09-19 10:56:00,"2025-09-19 06:56:00","VFR",16.7,13.3,0,0,NA,NA,1015,"METAR KHPN 191056Z 00000KT 10SM CLR 17/13 A2997 RMK AO2 SLP144 T01670133",2025-09-19 11:48:00.981813,2025-09-19 07:48:00.98186
"KGXY","Greeley/Weld Cnty Arpt, CO, US",2025-09-19 10:56:00,"2025-09-19 04:56:00","VFR",7.2,6.1,320,4,NA,NA,1019.7,"METAR KGXY 191056Z AUTO 32004KT 10SM CLR 07/06 A3011 RMK AO2 SLP175 T00720061 $",2025-09-19 11:48:00.98895,2025-09-19 07:48:00.989002
"KHYS","Hays Rgnl, KS, US",2025-09-19 10:56:00,"2025-09-19 05:56:00","VFR",11.7,11.1,0,0,NA,NA,1018.4,"METAR KHYS 191056Z AUTO 00000KT 10SM CLR 12/11 A3007 RMK AO2 SLP174 T01170111 $",2025-09-19 11:48:00.996129,2025-09-19 07:48:00.996175
"KHNB","Huntingburg Arpt, IN, US",2025-09-19 10:56:00,"2025-09-19 06:56:00","VFR",13.3,13.3,0,0,NA,NA,1017.7,"METAR KHNB 191056Z AUTO 00000KT 10SM CLR 13/13 A3005 RMK AO2 SLP174 T01330133",2025-09-19 11:48:01.003231,2025-09-19 07:48:01.003277
"KHYA","Hyannis/Barnstable Muni, MA, US",2025-09-19 10:56:00,"2025-09-19 06:56:00","VFR",17.8,13.9,310,4,NA,NA,1011.9,"METAR KHYA 191056Z 31004KT 10SM CLR 18/14 A2988 RMK AO2 SLP119 T01780139 $",2025-09-19 11:48:01.010314,2025-09-19 07:48:01.01036
"KHND","Henderson Exec, NV, US",2025-09-19 10:56:00,"2025-09-19 03:56:00","VFR",18.9,16.1,210,6,NA,NA,1015,"METAR KHND 191056Z AUTO 21006KT 10SM CLR 19/16 A2997 RMK AO2 SLP150 T01890161 $",2025-09-19 11:48:01.017361,2025-09-19 07:48:01.017408
"KHDN","Hayden/Yampa Valley Arpt, CO, US",2025-09-19 10:56:00,"2025-09-19 04:56:00","VFR",6.1,0,90,9,NA,NA,1024.1,"METAR KHDN 191056Z AUTO 09009KT 10SM CLR 06/00 A3024 RMK AO2 SLP185 T00610000 PNO $",2025-09-19 11:48:01.024332,2025-09-19 07:48:01.024378
"KHYI","San Marcos Muni, TX, US",2025-09-19 10:56:00,"2025-09-19 10:56:00","VFR",21.1,18.3,0,0,NA,NA,1016.7,"METAR KHYI 191056Z AUTO 00000KT 10SM CLR 21/18 A3002 RMK AO2 SLP157 T02110183",2025-09-19 11:48:01.031145,2025-09-19 07:48:01.031194
"KHEZ","Natchez/Adams Cnty, MS, US",2025-09-19 10:56:00,"2025-09-19 05:56:00","VFR",18.9,17.8,0,0,NA,NA,1017.7,"METAR KHEZ 191056Z AUTO 00000KT 10SM CLR 19/18 A3005 RMK AO2 SLP173 T01890178 $",2025-09-19 11:48:01.038021,2025-09-19 07:48:01.038067
"KHRT","Ft Walton Beach/Hurlburt Fld, FL, US",2025-09-19 10:55:00,"2025-09-19 10:55:00","VFR",20.9,19.2,330,3,NA,NA,1016,"METAR KHRT 191055Z 33003KT 10SM CLR 21/19 A3000 RMK AO2A SLP157 T02090192 $",2025-09-19 11:48:01.045007,2025-09-19 07:48:01.045053
"KHST","Homestead AFB, FL, US",2025-09-19 10:55:00,"2025-09-19 06:55:00","VFR",24.4,23.2,320,5,NA,NA,1013.3,"METAR KHST 191055Z AUTO 32005KT 10SM CLR 24/23 A2992 RMK AO2 SLP135 T02440232",2025-09-19 11:48:01.052117,2025-09-19 07:48:01.052164
"KHOP","Fort Campbell, KY, US",2025-09-19 10:55:00,"2025-09-19 05:55:00","VFR",17.2,13.5,90,3,NA,NA,1016.3,"METAR KHOP 191055Z AUTO 09003KT 10SM CLR 17/14 A3001 RMK AO2 SLP158 T01720135 $",2025-09-19 11:48:01.05912,2025-09-19 07:48:01.059166
"KHMN","Holloman AFB, NM, US",2025-09-19 10:55:00,"2025-09-19 04:55:00","VFR",17.9,13.6,330,3,NA,NA,1021.1,"METAR KHMN 191055Z AUTO 33003KT 10SM BKN075 18/14 A3015 RMK AO2 SLP146 T01790136 VISNO RWY04 $",2025-09-19 11:48:01.065991,2025-09-19 07:48:01.066037
"KHFF","Mackall(AAF), NC, US",2025-09-19 10:55:00,"2025-09-19 06:55:00","VFR",16.3,15.6,0,0,NA,NA,1016.7,"METAR KHFF 191055Z AUTO 00000KT 10SM CLR 16/16 A3002 RMK AO2 SLP166 T01630156 $",2025-09-19 11:48:01.072929,2025-09-19 07:48:01.072976
"KHLR","Killeen/Ft Hood AAF, TX, US",2025-09-19 10:55:00,"2025-09-19 05:55:00","VFR",23.5,20.4,150,3,NA,NA,1016.3,"METAR KHLR 191055Z AUTO 15003KT 10SM CLR 24/20 A3001 RMK AO2 SLP151 T02350204 $",2025-09-19 11:48:01.079904,2025-09-19 07:48:01.07995
"KHIF","Ogden/Hill AFB, UT, US",2025-09-19 10:55:00,"2025-09-19 04:55:00","VFR",16.3,-0.4,110,14,NA,NA,1017.7,"METAR KHIF 191055Z AUTO 11014KT 10SM OVC220 16/M00 A3005 RMK AO2 SLP121 T01631004",2025-09-19 11:48:01.103295,2025-09-19 07:48:01.103343
"KHAO","Hamilton/Butler Cnty, OH, US",2025-09-19 10:53:00,"2025-09-19 06:53:00","VFR",12.2,12.2,0,0,NA,9,1018.7,"METAR KHAO 191053Z AUTO 00000KT 9SM CLR 12/12 A3008 RMK AO2 SLP182 T01220122",2025-09-19 11:48:01.111048,2025-09-19 07:48:01.111094
"KHLG","Wheeling/Ohio Cnty, WV, US",2025-09-19 10:53:00,"2025-09-19 06:53:00","VFR",13.3,11.7,0,0,NA,NA,1019,"METAR KHLG 191053Z AUTO 00000KT 10SM CLR 13/12 A3009 RMK AO2 SLP185 T01330117",2025-09-19 11:48:01.118687,2025-09-19 07:48:01.118737
"KHFD","Hartford/Brainard Arpt, CT, US",2025-09-19 10:53:00,"2025-09-19 06:53:00","VFR",14.4,13.9,NA,3,NA,NA,1013.6,"METAR KHFD 191053Z VRB03KT 10SM MIFG CLR 14/14 A2993 RMK AO2 SLP136 T01440139",2025-09-19 11:48:01.125731,2025-09-19 07:48:01.125778
"KHKA","Blytheville Muni, AR, US",2025-09-19 10:53:00,"2025-09-19 05:53:00","VFR",20,16.7,50,4,NA,NA,1015,"METAR KHKA 191053Z AUTO 05004KT 10SM CLR 20/17 A2997 RMK AO2 SLP146 T02000167 $",2025-09-19 11:48:01.132834,2025-09-19 07:48:01.13288
"KHKY","Hickory Rgnl, NC, US",2025-09-19 10:53:00,"2025-09-19 06:53:00","VFR",17.2,15.6,280,3,NA,NA,1018.7,"METAR KHKY 191053Z 28003KT 10SM CLR 17/16 A3008 RMK AO2 SLP164 T01720156",2025-09-19 11:48:01.139963,2025-09-19 07:48:01.140009
"KHUF","Terre Haute/Hulman Fld, IN, US",2025-09-19 10:53:00,"2025-09-19 06:53:00","VFR",12.8,12.8,0,0,NA,NA,1017.4,"METAR KHUF 191053Z 00000KT 10SM CLR 13/13 A3004 RMK AO2 SLP170 T01280128",2025-09-19 11:48:01.147299,2025-09-19 07:48:01.147345
"KHVR","Havre/City Arpt, MT, US",2025-09-19 10:53:00,"2025-09-19 04:53:00","VFR",8.3,7.2,80,3,NA,NA,1016.3,"METAR KHVR 191053Z AUTO 08003KT 10SM CLR 08/07 A3001 RMK AO2 SLP155 T00830072",2025-09-19 11:48:01.154408,2025-09-19 07:48:01.154451
"KHWO","Hollywood/North Perry Aprt, FL, US",2025-09-19 10:53:00,"2025-09-19 06:53:00","VFR",25,23.3,330,3,NA,NA,1013.3,"METAR KHWO 191053Z 33003KT 10SM CLR 25/23 A2992 RMK AO2 SLP133 T02500233 $",2025-09-19 11:48:01.161431,2025-09-19 07:48:01.161491
"KHRI","Hermiston Muni, OR, US",2025-09-19 10:53:00,"2025-09-19 03:53:00","VFR",15,11.1,160,3,NA,NA,1012.3,"METAR KHRI 191053Z AUTO 16003KT 10SM CLR 15/11 A2989 RMK AO2 SLP116 T01500111 $",2025-09-19 11:48:01.168524,2025-09-19 07:48:01.168574
"KHOU","Houston/Hobby Arpt, TX, US",2025-09-19 10:53:00,"2025-09-19 05:53:00","VFR",24.4,21.1,300,3,NA,NA,1015.3,"METAR KHOU 191053Z 30003KT 10SM FEW013 24/21 A2998 RMK AO2 SLP158 T02440211",2025-09-19 11:48:01.175695,2025-09-19 07:48:01.175742
"KHUL","Houlton Intl, ME, US",2025-09-19 10:53:00,"2025-09-19 07:53:00","MVFR",14.4,10.6,320,4,NA,NA,1009.9,"METAR KHUL 191053Z AUTO 32004KT 10SM OVC023 14/11 A2982 RMK AO2 SLP098 T01440106",2025-09-19 11:48:01.18295,2025-09-19 07:48:01.182996
"KGWO","Greenwood/Leflore Arpt, MS, US",2025-09-19 10:53:00,"2025-09-19 05:53:00","VFR",20,18.9,0,0,NA,9,1016.7,"METAR KGWO 191053Z AUTO 00000KT 9SM CLR 20/19 A3002 RMK AO2 SLP163 T02000189",2025-09-19 11:48:01.190274,2025-09-19 07:48:01.190322
"KHSV","Huntsville Intl, AL, US",2025-09-19 10:53:00,"2025-09-19 05:53:00","VFR",18.9,16.7,90,4,NA,NA,1017.4,"METAR KHSV 191053Z 09004KT 10SM FEW080 19/17 A3004 RMK AO2 SLP163 T01890167 $",2025-09-19 11:48:01.197742,2025-09-19 07:48:01.197791
"KHGR","Hagerstown Rgnl, MD, US",2025-09-19 10:53:00,"2025-09-19 06:53:00","VFR",15.6,13.9,120,3,NA,9,1017.4,"METAR KHGR 191053Z 12003KT 9SM CLR 16/14 A3004 RMK AO2 SLP179 T01560139 $",2025-09-19 11:48:01.205034,2025-09-19 07:48:01.205082
"KHIO","Portland/Hillsboro Arpt, OR, US",2025-09-19 10:53:00,"2025-09-19 03:53:00","VFR",10.6,8.9,0,0,NA,NA,1014,"METAR KHIO 191053Z AUTO 00000KT 10SM CLR 11/09 A2994 RMK AO2 SLP137 T01060089",2025-09-19 11:48:01.212526,2025-09-19 07:48:01.21258
"KHRO","Harrison/Boone Cnty, AR, US",2025-09-19 10:53:00,"2025-09-19 05:53:00","VFR",16.7,15.6,0,0,NA,NA,1018,"METAR KHRO 191053Z AUTO 00000KT 10SM FEW120 17/16 A3006 RMK AO2 SLP166 T01670156",2025-09-19 11:48:01.220303,2025-09-19 07:48:01.220353
"KHLC","Hill City Muni, KS, US",2025-09-19 10:53:00,"2025-09-19 05:53:00","VFR",8.9,7.8,0,0,NA,8,1018.4,"METAR KHLC 191053Z AUTO 00000KT 8SM CLR 09/08 A3007 RMK AO2 SLP171 T00890078",2025-09-19 11:48:01.22794,2025-09-19 07:48:01.227986
"KHVN","New Haven/Tweed Arpt, CT, US",2025-09-19 10:53:00,"2025-09-19 06:53:00","VFR",17.2,15,260,3,NA,NA,1014.3,"METAR KHVN 191053Z 26003KT 10SM CLR 17/15 A2995 RMK AO2 SLP140 T01720150",2025-09-19 11:48:01.235355,2025-09-19 07:48:01.235404
"KHKS","Jackson/Hawkins Fld, MS, US",2025-09-19 10:53:00,"2025-09-19 05:53:00","VFR",20,17.8,130,3,NA,NA,1017.4,"METAR KHKS 191053Z AUTO 13003KT 10SM CLR 20/18 A3004 RMK AO2 SLP164 T02000178 $",2025-09-19 11:48:01.25794,2025-09-19 07:48:01.257993
"KHSI","Hastings Muni, NE, US",2025-09-19 10:53:00,"2025-09-19 05:53:00","VFR",11.7,10.6,0,0,NA,NA,1017.4,"METAR KHSI 191053Z AUTO 00000KT 10SM CLR 12/11 A3004 RMK AO2 SLP166 T01170106",2025-09-19 11:48:01.265955,2025-09-19 07:48:01.266005
"KHEI","Hettinger Muni, ND, US",2025-09-19 10:53:00,"2025-09-19 10:53:00","IFR",11.7,11.1,330,8,NA,NA,1018,"METAR KHEI 191053Z AUTO 33008KT 10SM OVC005 12/11 A3006 RMK AO2 SLP178 T01170111",2025-09-19 11:48:01.273484,2025-09-19 07:48:01.273536
"KGZH","Evergreen/Middleton Fld, AL, US",2025-09-19 10:53:00,"2025-09-19 10:53:00","VFR",19.4,17.2,0,0,NA,9,1017,"METAR KGZH 191053Z AUTO 00000KT 9SM CLR 19/17 A3003 RMK AO2 SLP165 T01940172",2025-09-19 11:48:01.280592,2025-09-19 07:48:01.280638
"KHBG","Hattiesburg/Chain Muni, MS, US",2025-09-19 10:53:00,"2025-09-19 05:53:00","VFR",20,17.8,0,0,NA,NA,1017.4,"METAR KHBG 191053Z AUTO 00000KT 10SM CLR 20/18 A3004 RMK AO2 SLP170 T02000178",2025-09-19 11:48:01.287977,2025-09-19 07:48:01.288028
"KHOT","Hot Springs Mem, AR, US",2025-09-19 10:53:00,"2025-09-19 05:53:00","VFR",21.1,18.9,0,0,NA,NA,1016.7,"METAR KHOT 191053Z AUTO 00000KT 10SM CLR 21/19 A3002 RMK AO2 SLP158 T02110189 $",2025-09-19 11:48:01.295324,2025-09-19 07:48:01.295374
"KHYR","Hayward Muni, WI, US",2025-09-19 10:53:00,"2025-09-19 05:53:00","MVFR",18.3,16.7,NA,3,NA,NA,1018.4,"METAR KHYR 191053Z AUTO VRB03KT 10SM OVC011 18/17 A3007 RMK AO2 RAE11 SLP180 P0000 T01830167",2025-09-19 11:48:01.302754,2025-09-19 07:48:01.302802
"KHLN","Helena Rgnl, MT, US",2025-09-19 10:53:00,"2025-09-19 04:53:00","VFR",9.4,4.4,300,3,NA,NA,1018.7,"METAR KHLN 191053Z AUTO 30003KT 10SM CLR 09/04 A3008 RMK AO2 SLP177 T00940044 $",2025-09-19 11:48:01.309951,2025-09-19 07:48:01.309998
"KHJO","Hanford Muni, CA, US",2025-09-19 10:53:00,"2025-09-19 10:53:00","VFR",18.9,17.2,340,6,NA,NA,1011.6,"METAR KHJO 191053Z AUTO 34006KT 10SM BKN049 OVC060 19/17 A2987 RMK AO2 SLP117 T01890172",2025-09-19 11:48:01.317132,2025-09-19 07:48:01.317177
"KHUT","Hutchinson Muni, KS, US",2025-09-19 10:52:00,"2025-09-19 05:52:00","VFR",13.3,13.3,0,0,NA,NA,1017.7,"METAR KHUT 191052Z 00000KT 10SM CLR 13/13 A3005 RMK AO2 SLP158 T01330133",2025-09-19 11:48:01.32419,2025-09-19 07:48:01.324236
"KHRL","Harlingen/Valley Intl, TX, US",2025-09-19 10:52:00,"2025-09-19 05:52:00","VFR",23.9,23.3,0,0,NA,NA,1014,"METAR KHRL 191052Z 00000KT 10SM BKN095 24/23 A2994 RMK AO2 SLP138 T02390233 $",2025-09-19 11:48:01.331242,2025-09-19 07:48:01.331287
"KHSE","Hatteras/Mitchell Fld, NC, US",2025-09-19 10:51:00,"2025-09-19 06:51:00","VFR",20,19.4,0,0,NA,NA,1017.4,"METAR KHSE 191051Z AUTO 00000KT 10SM FEW007 20/19 A3004 RMK AO2 SLP172 T02000194",2025-09-19 11:48:01.338276,2025-09-19 07:48:01.338324
"KHTS","Huntington/Ferguson Fld, WV, US",2025-09-19 10:51:00,"2025-09-19 06:51:00","VFR",15,12.8,0,0,NA,8,1018.4,"METAR KHTS 191051Z AUTO 00000KT 8SM CLR 15/13 A3007 RMK AO2 SLP175 T01500128 $",2025-09-19 11:48:01.345189,2025-09-19 07:48:01.345234
"KHDO","Hondo Muni, TX, US",2025-09-19 10:51:00,"2025-09-19 10:51:00","VFR",18.9,17.8,20,3,NA,NA,1016.7,"METAR KHDO 191051Z AUTO 02003KT 10SM CLR 19/18 A3002 RMK AO2 SLP149 T01890178",2025-09-19 11:48:01.352311,2025-09-19 07:48:01.352359
"KGYY","Gary Intl, IN, US",2025-09-19 10:50:00,"2025-09-19 05:50:00","VFR",17,17,0,0,NA,NA,1017,"METAR KGYY 191050Z 00000KT 10SM CLR 17/17 A3003",2025-09-19 11:48:01.35951,2025-09-19 07:48:01.359564
"KHXD","Hilton Head Arpt, SC, US",2025-09-19 10:50:00,"2025-09-19 06:50:00","VFR",22,21,0,0,NA,NA,1017.4,"METAR KHXD 191050Z 00000KT 10SM CLR 22/21 A3004",2025-09-19 11:48:01.366685,2025-09-19 07:48:01.366737
"KGYH","Greenville/Donaldson Fld, SC, US",2025-09-19 10:47:00,"2025-09-19 06:47:00","VFR",19,17,360,4,NA,NA,1018,"METAR KGYH 191047Z 36004KT 10SM CLR 19/17 A3006",2025-09-19 11:48:01.373843,2025-09-19 07:48:01.373891
"KJEF","Jefferson City Mem, MO, US",2025-09-19 11:43:00,"2025-09-19 06:43:00","LIFR",17.2,17.2,110,5,NA,0.75,1017,"SPECI KJEF 191143Z 11005KT 3/4SM BR VV002 17/17 A3003 RMK AO2 T01720172",2025-09-19 11:48:02.917732,2025-09-19 07:48:02.917777
"KI16","Pineville/Kee Fld, WV, US",2025-09-19 11:41:00,"2025-09-19 11:41:00","MVFR",12,12,NA,NA,NA,5,1022.8,"METAR KI16 191141Z AUTO 5SM BR CLR 12/12 A3020 RMK AO2",2025-09-19 11:48:02.924972,2025-09-19 07:48:02.925019
"KJNX","Smithfield/Johnston Rgnl, NC, US",2025-09-19 11:40:00,"2025-09-19 11:40:00","LIFR",17,17,0,0,NA,0.5,1017.7,"METAR KJNX 191140Z AUTO 00000KT 1/2SM FG OVC002 17/17 A3005 RMK AO2",2025-09-19 11:48:02.931969,2025-09-19 07:48:02.932014
"KJMS","Jamestown Rgnl, ND, US",2025-09-19 11:40:00,"2025-09-19 06:40:00","LIFR",16.1,15.6,30,5,NA,3,1014.6,"SPECI KJMS 191140Z AUTO 03005KT 3SM RA BR OVC004 16/16 A2996 RMK AO2 RAB14 P0009 T01610156",2025-09-19 11:48:02.939115,2025-09-19 07:48:02.939159
"KILM","Wilmington Intl, NC, US",2025-09-19 11:39:00,"2025-09-19 07:39:00","VFR",18.3,18.3,0,0,NA,8,1017.7,"SPECI KILM 191139Z 00000KT 8SM CLR 18/18 A3005 RMK AO2 T01830183",2025-09-19 11:48:02.946141,2025-09-19 07:48:02.946185
"KI69","Batavia/Clermont Cnty, OH, US",2025-09-19 11:36:00,"2025-09-19 11:36:00","VFR",14.5,14,0,0,NA,NA,1019,"METAR KI69 191136Z AUTO 00000KT 10SM CLR 15/14 A3009 RMK AO1 T01450140",2025-09-19 11:48:02.953109,2025-09-19 07:48:02.953155
"KIKK","Kankakee Arpt, IL, US",2025-09-19 11:36:00,"2025-09-19 06:36:00","VFR",16,14,0,0,NA,NA,1017.4,"METAR KIKK 191136Z AUTO 00000KT 10SM CLR 16/14 A3004 RMK AO2",2025-09-19 11:48:02.960215,2025-09-19 07:48:02.960261
"KIER","Natchitoches Rgnl, LA, US",2025-09-19 11:35:00,"2025-09-19 11:35:00","VFR",18.5,18.5,0,0,NA,7,1017,"METAR KIER 191135Z AUTO 00000KT 7SM CLR 19/19 A3003 RMK AO2 T01850185",2025-09-19 11:48:02.966976,2025-09-19 07:48:02.967018
"KIOB","Mount Sterling/Montgomery Cnty, KY, US",2025-09-19 11:35:00,"2025-09-19 11:35:00","VFR",13,12,0,0,NA,NA,1019.7,"METAR KIOB 191135Z AUTO 00000KT 10SM CLR 13/12 A3011 RMK AO2 PWINO",2025-09-19 11:48:02.973959,2025-09-19 07:48:02.974005
"KIPJ","Lincolnton/Lincoln Cnty, NC, US",2025-09-19 11:35:00,"2025-09-19 11:35:00","VFR",15.6,15.3,0,0,NA,NA,1018.7,"METAR KIPJ 191135Z AUTO 00000KT 10SM CLR 16/15 A3008 RMK AO2 T01560153",2025-09-19 11:48:02.980825,2025-09-19 07:48:02.980873
"KISQ","Manistique/Schoolcraft Cnty, MI, US",2025-09-19 11:35:00,"2025-09-19 07:35:00",NA,13.8,12.7,0,0,NA,NA,1021.1,"METAR KISQ 191135Z AUTO 00000KT 10SM 14/13 A3015 RMK AO2 T01380127",2025-09-19 11:48:02.987891,2025-09-19 07:48:02.987936
"KJSO","Jacksonvil0e/Cherokee Cnty, TX, US",2025-09-19 11:35:00,"2025-09-19 06:35:00","VFR",22.4,21.8,200,4,NA,NA,1016.3,"METAR KJSO 191135Z AUTO 20004KT 10SM CLR 22/22 A3001 RMK AO2 T02240218",2025-09-19 11:48:02.994756,2025-09-19 07:48:02.994802
"KI74","Urbana/Grimes Fld, OH, US",2025-09-19 11:35:00,"2025-09-19 11:35:00","VFR",10,8,0,0,NA,NA,1019,"METAR KI74 191135Z AUTO 00000KT 10SM CLR 10/08 A3009 RMK AO2",2025-09-19 11:48:03.001603,2025-09-19 07:48:03.001654
"KICL","Clarinda/Schenck Fld, IA, US",2025-09-19 11:35:00,"2025-09-19 06:35:00","LIFR",15,15,0,0,NA,2,1016.3,"METAR KICL 191135Z AUTO 00000KT 2SM BR OVC003 15/15 A3001 RMK AO2 VIS 1 1/4V5",2025-09-19 11:48:03.008329,2025-09-19 07:48:03.008373
"KI95","Kenton/Hardin Cnty, OH, US",2025-09-19 11:35:00,"2025-09-19 11:35:00","VFR",13,12,0,0,NA,NA,1018.7,"METAR KI95 191135Z AUTO 00000KT 10SM CLR 13/12 A3008 RMK A01",2025-09-19 11:48:03.01512,2025-09-19 07:48:03.015169
"KINF","Inverness Arpt, FL, US",2025-09-19 11:35:00,"2025-09-19 11:35:00","MVFR",18,18,0,0,NA,4,1016.7,"METAR KINF 191135Z AUTO 00000KT 4SM BR SCT002 18/18 A3002 RMK AO2",2025-09-19 11:48:03.116992,2025-09-19 07:48:03.117039
"KJMR","Mora Muni, MN, US",2025-09-19 11:35:00,"2025-09-19 11:35:00","LIFR",15,15,0,0,NA,7,1017.7,"METAR KJMR 191135Z AUTO 00000KT 7SM OVC003 15/15 A3005 RMK AO2",2025-09-19 11:48:03.123699,2025-09-19 07:48:03.123741
"KJKJ","Moorhead Muni, MN, US",2025-09-19 11:35:00,"2025-09-19 11:35:00","VFR",16,15,100,3,NA,NA,1015,"METAR KJKJ 191135Z AUTO 10003KT 10SM -RA BKN080 OVC100 16/15 A2997 RMK AO2",2025-09-19 11:48:03.130375,2025-09-19 07:48:03.130419
"KHZE","Hazen/Mercer Cnty, ND, US",2025-09-19 11:35:00,"2025-09-19 11:35:00","IFR",13,13,10,8,NA,NA,1018.7,"METAR KHZE 191135Z AUTO 01008KT 10SM OVC008 13/13 A3008 RMK AO2",2025-09-19 11:48:03.136964,2025-09-19 07:48:03.137006
"KIDI","Indiana/Stewart Arpt, PA, US",2025-09-19 11:35:00,"2025-09-19 07:35:00","VFR",11,11,0,0,NA,7,1019.4,"METAR KIDI 191135Z AUTO 00000KT 7SM CLR 11/11 A3010 RMK A01",2025-09-19 11:48:03.143718,2025-09-19 07:48:03.143761
"KIIY","Washington/Wilkes Cnty, GA, US",2025-09-19 11:35:00,"2025-09-19 11:35:00","MVFR",17.7,17.6,0,0,NA,4,1018,"METAR KIIY 191135Z AUTO 00000KT 4SM BR CLR 18/18 A3006 RMK AO2 T01770176",2025-09-19 11:48:03.150511,2025-09-19 07:48:03.150559
"KINJ","Hillsboro Muni, TX, US",2025-09-19 11:35:00,"2025-09-19 11:35:00","VFR",22.3,20,0,0,NA,NA,1016.3,"METAR KINJ 191135Z AUTO 00000KT 10SM CLR 22/20 A3001 RMK AO2 T02230200",2025-09-19 11:48:03.157486,2025-09-19 07:48:03.157536
"KJDD","Mineola/Wood Cnty, TX, US",2025-09-19 11:35:00,"2025-09-19 11:35:00","VFR",19.6,19.3,0,0,NA,9,1016.7,"METAR KJDD 191135Z AUTO 00000KT 9SM CLR 20/19 A3002 RMK AO2 T01960193 $",2025-09-19 11:48:03.164245,2025-09-19 07:48:03.164288
"KJFX","Jasper/Walker Cnty, AL, US",2025-09-19 11:35:00,"2025-09-19 11:35:00","MVFR",17,17,0,0,NA,4,1017.7,"METAR KJFX 191135Z AUTO 00000KT 4SM BR CLR 17/17 A3005 RMK AO2",2025-09-19 11:48:03.170982,2025-09-19 07:48:03.171026
"KJFZ","Tazewell Cnty, VA, US",2025-09-19 11:35:00,"2025-09-19 11:35:00","VFR",14.3,12,80,3,NA,NA,1022.1,"METAR KJFZ 191135Z AUTO 08003KT 10SM CLR 14/12 A3018 RMK AO2 T01430120",2025-09-19 11:48:03.177828,2025-09-19 07:48:03.177873
"KJGG","Williamsburg-Jamestown Arpt, VA, US",2025-09-19 11:35:00,"2025-09-19 11:35:00","VFR",NA,NA,200,3,NA,9,1017.4,"METAR KJGG 191135Z AUTO 20003KT 9SM CLR A3004 RMK AO2 $",2025-09-19 11:48:03.184432,2025-09-19 07:48:03.184496
"KHZL","Hazleton Muni, PA, US",2025-09-19 11:35:00,"2025-09-19 07:35:00","VFR",NA,NA,0,0,NA,NA,1019.4,"METAR KHZL 191135Z AUTO 00000KT 10SM SCT038 A3010 RMK AO2",2025-09-19 11:48:03.191341,2025-09-19 07:48:03.191389
"KI23","Washington Court House/Fayette Cnty, OH, US",2025-09-19 11:35:00,"2025-09-19 11:35:00","VFR",11,9,0,0,NA,NA,1018.7,"METAR KI23 191135Z AUTO 00000KT 10SM CLR 11/09 A3008 RMK AO1",2025-09-19 11:48:03.198103,2025-09-19 07:48:03.198147
"KJYG","St James Muni, MN, US",2025-09-19 11:35:00,"2025-09-19 11:35:00","IFR",19,19,160,5,NA,2,1013.6,"METAR KJYG 191135Z AUTO 16005KT 2SM RA BR BKN006 OVC014 19/19 A2993 RMK AO2 VIS 1V5",2025-09-19 11:48:03.204898,2025-09-19 07:48:03.204941
"KI75","Osceola Muni, IA, US",2025-09-19 11:35:00,"2025-09-19 11:35:00","LIFR",18,17.2,180,3,NA,1.75,1016,"METAR KI75 191135Z AUTO 18003KT 1 3/4SM BR OVC003 18/17 A3000 RMK AO2 T01800172",2025-09-19 11:48:03.211547,2025-09-19 07:48:03.211594
"KIIB","Independence Muni, IA, US",2025-09-19 11:35:00,"2025-09-19 11:35:00","VFR",17.3,17,100,4,NA,NA,1017,"METAR KIIB 191135Z AUTO 10004KT 10SM OVC090 17/17 A3003 RMK AO2 T01730170",2025-09-19 11:48:03.218249,2025-09-19 07:48:03.218294
"KJSV","Sallisaw Muni, OK, US",2025-09-19 11:35:00,"2025-09-19 11:35:00","VFR",18,18,50,4,NA,7,1016.7,"METAR KJSV 191135Z AUTO 05004KT 7SM FEW070 BKN090 18/18 A3002 RMK AO2 LTG DSNT W-N",2025-09-19 11:48:03.224859,2025-09-19 07:48:03.224903
"KJWG","Watonga Rgnl, OK, US",2025-09-19 11:35:00,"2025-09-19 11:35:00","VFR",17.4,17.2,0,0,NA,NA,1019,"METAR KJWG 191135Z AUTO 00000KT 10SM SCT075 17/17 A3009 RMK AO2 T01740172",2025-09-19 11:48:03.231582,2025-09-19 07:48:03.231628
"KI40","Coshocton/Downing Arpt, OH, US",2025-09-19 11:35:00,"2025-09-19 11:35:00","VFR",11,11,0,0,NA,7,1020.1,"METAR KI40 191135Z AUTO 00000KT 7SM CLR 11/11 A3012 RMK AO2",2025-09-19 11:48:03.238276,2025-09-19 07:48:03.238319
"KJYL","Sylvania/Plantation Arpk, GA, US",2025-09-19 11:35:00,"2025-09-19 11:35:00","MVFR",18.2,18,0,0,NA,5,1017.7,"METAR KJYL 191135Z AUTO 00000KT 5SM BR CLR 18/18 A3005 RMK AO2 T01820180",2025-09-19 11:48:03.257283,2025-09-19 07:48:03.257325
"KHZR","New Roads/False River Rgnl, LA, US",2025-09-19 11:35:00,"2025-09-19 11:35:00","VFR",19.5,18.8,0,0,NA,NA,1017.7,"METAR KHZR 191135Z AUTO 00000KT 10SM CLR 20/19 A3005 RMK AO2 T01950188",2025-09-19 11:48:03.263894,2025-09-19 07:48:03.263937
"KI67","Harrison/West Arpt, OH, US",2025-09-19 11:35:00,"2025-09-19 11:35:00","VFR",13,13,0,0,NA,7,1018.4,"METAR KI67 191135Z AUTO 00000KT 7SM CLR 13/13 A3007 RMK AO1",2025-09-19 11:48:03.270411,2025-09-19 07:48:03.270457
"KIMS","Madison Muni, IN, US",2025-09-19 11:35:00,"2025-09-19 07:35:00","VFR",13,13,0,0,NA,7,1019.4,"METAR KIMS 191135Z AUTO 00000KT 7SM CLR 13/13 A3010 RMK AO2",2025-09-19 11:48:03.276937,2025-09-19 07:48:03.276981
"KIZA","Santa Ynez Arpt, CA, US",2025-09-19 11:35:00,"2025-09-19 04:35:00","MVFR",17,17,0,0,NA,5,1011.9,"METAR KIZA 191135Z AUTO 00000KT 5SM UP BR BKN019 OVC027 17/17 A2988 RMK AO2",2025-09-19 11:48:03.283599,2025-09-19 07:48:03.283646
"KJAS","Jasper/Bell Fld, TX, US",2025-09-19 11:35:00,"2025-09-19 06:35:00",NA,19,19,0,0,NA,2,1017,"METAR KJAS 191135Z AUTO 00000KT 2SM BR 19/19 A3003 RMK AO2",2025-09-19 11:48:03.290125,2025-09-19 07:48:03.290168
"KJZI","Charleston Exec, SC, US",2025-09-19 11:35:00,"2025-09-19 11:35:00","MVFR",22,22,0,0,NA,4,1017,"METAR KJZI 191135Z AUTO 00000KT 4SM BR CLR 22/22 A3003 RMK AO2",2025-09-19 11:48:03.296622,2025-09-19 07:48:03.296669
"KJKA","Gulf Shores/Edwards Arpt, AL, US",2025-09-19 11:35:00,"2025-09-19 06:35:00","VFR",22,21,0,0,NA,NA,1016.7,"METAR KJKA 191135Z AUTO 00000KT 10SM CLR 22/21 A3002 RMK AO2",2025-09-19 11:48:03.303172,2025-09-19 07:48:03.303216
"KJYR","York Muni, NE, US",2025-09-19 11:35:00,"2025-09-19 11:35:00","VFR",12,12,280,6,NA,NA,1017,"METAR KJYR 191135Z AUTO 28006KT 10SM CLR 12/12 A3003 RMK AO2",2025-09-19 11:48:03.309713,2025-09-19 07:48:03.309756
"KIFA","Iowa Falls Muni, IA, US",2025-09-19 11:35:00,"2025-09-19 06:35:00","VFR",17.5,16.3,150,5,NA,NA,1016,"METAR KIFA 191135Z AUTO 15005KT 10SM SCT009 SCT021 BKN055 18/16 A3000 RMK AO2 P0001 T01750163",2025-09-19 11:48:03.316417,2025-09-19 07:48:03.316463
"KIRS","Sturgis/Kirsh Muni, MI, US",2025-09-19 11:35:00,"2025-09-19 07:35:00","VFR",15,15,60,3,NA,6,1018.7,"METAR KIRS 191135Z AUTO 06003KT 6SM BR CLR 15/15 A3008 RMK AO2",2025-09-19 11:48:03.323794,2025-09-19 07:48:03.32384
"KJWY","Midlothian/Mid-Way Rgnl, TX, US",2025-09-19 11:35:00,"2025-09-19 11:35:00","VFR",20.8,19.7,0,0,NA,NA,1016.7,"METAR KJWY 191135Z AUTO 00000KT 10SM CLR 21/20 A3002 RMK AO2 T02080197 $",2025-09-19 11:48:03.330555,2025-09-19 07:48:03.330601
"KHZX","McGregor/Iverson Arpt, MN, US",2025-09-19 11:35:00,"2025-09-19 11:35:00","LIFR",13,13,90,5,NA,3,1017.4,"METAR KHZX 191135Z AUTO 09005KT 3SM OVC003 13/13 A3004 RMK AO2",2025-09-19 11:48:03.337339,2025-09-19 07:48:03.337381
"KI68","Lebanon/Warren Cnty, OH, US",2025-09-19 11:35:00,"2025-09-19 11:35:00","VFR",16,15,0,0,NA,NA,1018.4,"METAR KI68 191135Z AUTO 00000KT 10SM CLR 16/15 A3007 RMK AO2",2025-09-19 11:48:03.344165,2025-09-19 07:48:03.34421
"KI35","Harlan/Guthrie Mem, KY, US",2025-09-19 11:35:00,"2025-09-19 11:35:00","LIFR",15,15,90,3,NA,0.5,1021.1,"METAR KI35 191135Z AUTO 09003KT 1/2SM OVC001 15/15 A3015 RMK AO2 T01500150",2025-09-19 11:48:03.351186,2025-09-19 07:48:03.351228
"KIBM","Kimball Muni, NE, US",2025-09-19 11:35:00,"2025-09-19 11:35:00","VFR",10.1,8.3,300,6,NA,NA,1018.7,"METAR KIBM 191135Z AUTO 30006KT 10SM CLR 10/08 A3008 RMK AO2 T01010083",2025-09-19 11:48:03.358175,2025-09-19 07:48:03.358221
"KJES","Jesup/Wayne Cnty, GA, US",2025-09-19 11:35:00,"2025-09-19 11:35:00","VFR",20,20,0,0,NA,7,1018,"METAR KJES 191135Z AUTO 00000KT 7SM CLR 20/20 A3006 RMK AO2",2025-09-19 11:48:03.365107,2025-09-19 07:48:03.365149
"KIKG","Kingsville/Kleberg Cnty, TX, US",2025-09-19 11:35:00,"2025-09-19 11:35:00","VFR",21.3,19.9,0,0,NA,NA,1015,"METAR KIKG 191135Z AUTO 00000KT 10SM CLR 21/20 A2997 RMK AO2 T02130199",2025-09-19 11:48:03.372111,2025-09-19 07:48:03.372156
"KIWA","Phoenix/Mesa Gateway Arpt, AZ, US",2025-09-19 11:35:00,"2025-09-19 04:35:00","VFR",25.3,18.7,0,0,NA,NA,1013,"METAR KIWA 191135Z AUTO 00000KT 10SM OVC095 25/19 A2991 RMK AO2 LTG DSNT N AND NE T02530187",2025-09-19 11:48:03.379231,2025-09-19 07:48:03.379276
"KIDP","Independence Muni, KS, US",2025-09-19 11:35:00,"2025-09-19 06:35:00","VFR",17,17,270,3,NA,7,1017,"METAR KIDP 191135Z AUTO 27003KT 7SM CLR 17/17 A3003 RMK AO2",2025-09-19 11:48:03.40033,2025-09-19 07:48:03.400372
"KIXA","Halifax/Northampton Rgnl, NC, US",2025-09-19 11:35:00,"2025-09-19 11:35:00","LIFR",15,15,0,0,NA,0.25,1017.7,"METAR KIXA 191135Z AUTO 00000KT 1/4SM FG OVC002 15/15 A3005 RMK AO2",2025-09-19 11:48:03.407514,2025-09-19 07:48:03.407562
"KI63","Mt Sterling Muni, IL, US",2025-09-19 11:35:00,"2025-09-19 11:35:00","MVFR",16.3,16.1,0,0,NA,5,1017,"METAR KI63 191135Z AUTO 00000KT 5SM BR SCT110 16/16 A3003 RMK AO2 T01630161",2025-09-19 11:48:03.414874,2025-09-19 07:48:03.414923
"KIGQ","Chicago/Lansing Muni, IL, US",2025-09-19 11:35:00,"2025-09-19 11:35:00","VFR",14.5,12.1,0,0,NA,NA,1017.4,"METAR KIGQ 191135Z AUTO 00000KT 10SM CLR 15/12 A3004 RMK AO2 T01450121",2025-09-19 11:48:03.42238,2025-09-19 07:48:03.422429
"KJOT","Joliet Rgnl, IL, US",2025-09-19 11:35:00,"2025-09-19 06:35:00","VFR",18.2,14.5,0,0,NA,NA,1017,"METAR KJOT 191135Z AUTO 00000KT 10SM CLR 18/15 A3003 RMK AO2 T01820145",2025-09-19 11:48:03.429957,2025-09-19 07:48:03.430006
"KIJX","Jacksonville Muni, IL, US",2025-09-19 11:35:00,"2025-09-19 11:35:00","VFR",17.3,17,0,0,NA,NA,1017,"METAR KIJX 191135Z AUTO 00000KT 10SM BKN120 17/17 A3003 RMK AO2 LTG DSNT S T01730170",2025-09-19 11:48:03.438258,2025-09-19 07:48:03.438307
"KIKV","Ankeny Rgnl, IA, US",2025-09-19 11:35:00,"2025-09-19 11:35:00","IFR",18,18,NA,4,NA,8,1015.7,"METAR KIKV 191135Z AUTO VRB04KT 8SM OVC005 18/18 A2999 RMK AO2",2025-09-19 11:48:03.445766,2025-09-19 07:48:03.445814
"KJXI","Gilmer/Stephens Fld, TX, US",2025-09-19 11:35:00,"2025-09-19 11:35:00","VFR",19.6,18.1,0,0,NA,NA,1016.7,"METAR KJXI 191135Z AUTO 00000KT 10SM CLR 20/18 A3002 RMK AO2 T01960181",2025-09-19 11:48:03.453329,2025-09-19 07:48:03.453375
"KJYO","Leesburg Exec, VA, US",2025-09-19 11:35:00,"2025-09-19 11:35:00","VFR",16,16,0,0,NA,NA,1017.7,"METAR KJYO 191135Z AUTO 00000KT 10SM CLR 16/16 A3005 RMK AO2",2025-09-19 11:48:03.460909,2025-09-19 07:48:03.460956
"KIMM","Immokalee Rgnl, FL, US",2025-09-19 11:35:00,"2025-09-19 07:35:00","VFR",22,22,0,0,NA,NA,1014.3,"METAR KIMM 191135Z AUTO 00000KT 10SM CLR 22/22 A2995 RMK AO2",2025-09-19 11:48:03.468311,2025-09-19 07:48:03.468357
"KIFP","Bullhead City Intl, AZ, US",2025-09-19 11:35:00,"2025-09-19 04:35:00","VFR",23,18,0,0,NA,NA,1011.6,"METAR KIFP 191135Z AUTO 00000KT 10SM FEW060 BKN110 23/18 A2987 RMK AO2",2025-09-19 11:48:03.475508,2025-09-19 07:48:03.47556
"KJVY","Jeffersonville/Clark Rgnl, IN, US",2025-09-19 11:35:00,"2025-09-19 11:35:00","MVFR",14,14,0,0,NA,4,1017.7,"METAR KJVY 191135Z AUTO 00000KT 4SM BR CLR 14/14 A3005 RMK AO2",2025-09-19 11:48:03.482854,2025-09-19 07:48:03.482902
"KJAU","Jacksboro/Campbell Cnty, TN, US",2025-09-19 11:30:00,"2025-09-19 11:30:00",NA,14,14,0,0,NA,6,1019,"METAR KJAU 191130Z AUTO 00000KT 6SM BR 14/14 A3009 RMK A01",2025-09-19 11:48:03.490047,2025-09-19 07:48:03.490091
"KISW","Wisconsin Rapids/S Wood Cnty, WI, US",2025-09-19 11:29:00,"2025-09-19 06:29:00","IFR",16.7,15.6,130,4,NA,NA,1019.7,"SPECI KISW 191129Z AUTO 13004KT 10SM OVC009 17/16 A3011 RMK AO2 T01670156",2025-09-19 11:48:03.497456,2025-09-19 07:48:03.497533
"KICR","Winner/Wiley Fld, SD, US",2025-09-19 11:28:00,"2025-09-19 11:28:00","MVFR",13.3,11.7,300,9,NA,NA,1016.3,"SPECI KICR 191128Z AUTO 30009KT 10SM OVC015 13/12 A3001 RMK AO2 T01330117",2025-09-19 11:48:03.504981,2025-09-19 07:48:03.505029
"KIRK","Kirksville Rgnl, MO, US",2025-09-19 11:27:00,"2025-09-19 06:27:00","MVFR",14.4,14.4,160,5,NA,3,1017,"SPECI KIRK 191127Z AUTO 16005KT 3SM BR CLR 14/14 A3003 RMK AO2 T01440144",2025-09-19 11:48:03.51244,2025-09-19 07:48:03.512505
"KILG","Wilmington/New Castle Arpt, DE, US",2025-09-19 11:20:00,"2025-09-19 07:20:00","LIFR",17.8,17.2,0,0,NA,0.25,1016.3,"SPECI KILG 191120Z AUTO 00000KT 1/4SM R01/P6000FT FG VV003 18/17 A3001 RMK AO2 T01780172 $",2025-09-19 11:48:03.51971,2025-09-19 07:48:03.519758
"KIXD","Olathe/New Century Arpt, KS, US",2025-09-19 11:12:00,"2025-09-19 06:12:00","MVFR",15.6,15.6,180,3,NA,3,1016.7,"SPECI KIXD 191112Z 18003KT 3SM BR CLR 16/16 A3002 RMK AO2 T01560156",2025-09-19 11:48:03.527043,2025-09-19 07:48:03.527091
"KIAD","Washington/Dulles Intl, VA, US",2025-09-19 10:59:00,"2025-09-19 06:59:00","MVFR",13.3,13.3,0,0,NA,5,1016.7,"SPECI KIAD 191059Z 00000KT 5SM BCFG CLR 13/13 A3002 RMK AO2 T01330133",2025-09-19 11:48:03.534384,2025-09-19 07:48:03.534429
"KJXN","Jackson Cnty, MI, US",2025-09-19 10:56:00,"2025-09-19 06:56:00","MVFR",14.4,14.4,40,4,NA,4,1019.7,"METAR KJXN 191056Z 04004KT 4SM BR CLR 14/14 A3011 RMK AO2 SLP190 T01440144",2025-09-19 11:48:03.55459,2025-09-19 07:48:03.554637
"KJHW","Jamestown/Chautauqua Cnty, NY, US",2025-09-19 10:56:00,"2025-09-19 06:56:00","LIFR",14.4,14.4,30,5,NA,0.25,1020.1,"METAR KJHW 191056Z AUTO 03005KT 1/4SM FG OVC001 14/14 A3012 RMK AO2 SLP197 T01440144 RVRNO",2025-09-19 11:48:03.561606,2025-09-19 07:48:03.56166
"KISO","Kinston Rgnl, NC, US",2025-09-19 10:56:00,"2025-09-19 06:56:00","LIFR",17,17,0,0,NA,2.5,1018,"METAR KISO 191056Z 00000KT 2 1/2SM BR OVC001 17/17 A3006",2025-09-19 11:48:03.568643,2025-09-19 07:48:03.568689
"KJAX","Jacksonville Intl, FL, US",2025-09-19 10:56:00,"2025-09-19 06:56:00","VFR",20,19.4,0,0,NA,7,1016.3,"METAR KJAX 191056Z 00000KT 7SM FEW004 20/19 A3001 RMK AO2 SLP162 T02000194 $",2025-09-19 11:48:03.575631,2025-09-19 07:48:03.575676
"KISM","Kissimmee Muni, FL, US",2025-09-19 10:56:00,"2025-09-19 06:56:00","VFR",22.8,21.7,350,5,NA,NA,1015.7,"METAR KISM 191056Z 35005KT 10SM CLR 23/22 A2999 RMK AO2 SLP156 T02280217 $",2025-09-19 11:48:03.582678,2025-09-19 07:48:03.582736
"KIWD","Ironwood/Iron Cnty, MI, US",2025-09-19 10:56:00,"2025-09-19 05:56:00","IFR",15,15,10,3,NA,9,1020.4,"METAR KIWD 191056Z AUTO 01003KT 9SM -RA BKN009 BKN014 OVC042 15/15 A3013 RMK AO2 LTG DSNT S SLP201 T01500150",2025-09-19 11:48:03.589941,2025-09-19 07:48:03.589987
"KINW","Winslow/Lindberg Rgnl, AZ, US",2025-09-19 10:56:00,"2025-09-19 03:56:00","VFR",16.1,14.4,130,13,NA,NA,1021.8,"METAR KINW 191056Z AUTO 13013KT 10SM -RA BKN085 OVC110 16/14 A3017 RMK AO2 LTG DSNT E AND SE SLP147 P0004 T01610144",2025-09-19 11:48:03.597286,2025-09-19 07:48:03.597332
"KJAC","Jackson Hole Arpt, WY, US",2025-09-19 10:56:00,"2025-09-19 04:56:00","VFR",2.8,0,20,4,NA,NA,1023.5,"METAR KJAC 191056Z AUTO 02004KT 10SM CLR 03/00 A3022 RMK AO2 SLP198 T00280000",2025-09-19 11:48:03.60472,2025-09-19 07:48:03.604767
"KISP","Islip/Macarthur Arpt, NY, US",2025-09-19 10:56:00,"2025-09-19 06:56:00","VFR",17.8,14.4,340,3,NA,NA,1014.3,"METAR KISP 191056Z 34003KT 10SM CLR 18/14 A2995 RMK SLP142 T01780144",2025-09-19 11:48:03.612016,2025-09-19 07:48:03.612063
"KITH","Ithaca/Tompkins Rgnl, NY, US",2025-09-19 10:55:00,"2025-09-19 06:55:00","MVFR",16,14,330,3,NA,NA,1018.7,"METAR KITH 191055Z 33003KT 10SM OVC018 16/14 A3008",2025-09-19 11:48:03.619281,2025-09-19 07:48:03.619328
"KINS","Indian Springs/Creech AFB, NV, US",2025-09-19 10:55:00,"2025-09-19 03:55:00","VFR",20.1,13.8,210,6,NA,NA,1015.3,"METAR KINS 191055Z AUTO 21006KT 10SM CLR 20/14 A2998 RMK AO2 SLP111 T02010138 $",2025-09-19 11:48:03.626412,2025-09-19 07:48:03.62646
"KJQF","Concord Rgnl, NC, US",2025-09-19 10:55:00,"2025-09-19 06:55:00","VFR",16,16,0,0,NA,NA,1019,"METAR KJQF 191055Z AUTO 00000KT 10SM CLR 16/16 A3009 RMK AO2",2025-09-19 11:48:03.633636,2025-09-19 07:48:03.633682
"KIAB","McConnell AFB, KS, US",2025-09-19 10:55:00,"2025-09-19 05:55:00","VFR",16,15,0,0,NA,NA,1017.4,"METAR KIAB 191055Z 00000KT 10SM CLR 16/15 A3004 RMK AO2A SLP157 WND DATA ESTMD ALSTG/SLP ESTMD RVRNO",2025-09-19 11:48:03.640946,2025-09-19 07:48:03.640991
"KIPT","Williamsport Rgnl, PA, US",2025-09-19 10:54:00,"2025-09-19 06:54:00","VFR",13.9,12.2,330,3,NA,NA,1017.4,"METAR KIPT 191054Z 33003KT 10SM CLR 14/12 A3004 RMK AO2 SLP169 T01390122 $",2025-09-19 11:48:03.648032,2025-09-19 07:48:03.648078
"KIZG","Fryeburg/Eastern Slopes Rgnl, ME, US",2025-09-19 10:54:00,"2025-09-19 06:54:00","VFR",13.3,11.7,0,0,NA,NA,1011.9,"METAR KIZG 191054Z AUTO 00000KT 10SM FEW060 13/12 A2988 RMK AO2 SLP119 T01330117",2025-09-19 11:48:03.655067,2025-09-19 07:48:03.655113
"KJAN","Jackson/Evers Intl, MS, US",2025-09-19 10:54:00,"2025-09-19 05:54:00","VFR",20,17.2,0,0,NA,NA,1017.4,"METAR KJAN 191054Z 00000KT 10SM CLR 20/17 A3004 RMK AO2 SLP167 T02000172",2025-09-19 11:48:03.661962,2025-09-19 07:48:03.662009
"KJST","Johnstown/Murtha Arpt, PA, US",2025-09-19 10:54:00,"2025-09-19 06:54:00","VFR",14.4,9.4,240,4,NA,NA,1019.7,"METAR KJST 191054Z AUTO 24004KT 10SM CLR 14/09 A3011 RMK AO2 SLP187 T01440094",2025-09-19 11:48:03.668909,2025-09-19 07:48:03.668955
"KILN","Wilmington Arpt, OH, US",2025-09-19 10:54:00,"2025-09-19 06:54:00","VFR",12.8,11.1,0,0,NA,NA,1018.7,"METAR KILN 191054Z AUTO 00000KT 10SM CLR 13/11 A3008 RMK AO2 SLP180 T01280111",2025-09-19 11:48:03.676003,2025-09-19 07:48:03.676048
"KIMT","Iron Mountain/Ford Aprt, MI, US",2025-09-19 10:54:00,"2025-09-19 05:54:00","VFR",13.3,13.3,0,0,NA,NA,1020.7,"METAR KIMT 191054Z AUTO 00000KT 10SM BKN075 13/13 A3014 RMK AO2 SLP208 T01330133 $",2025-09-19 11:48:03.683355,2025-09-19 07:48:03.683402
"KINL","International Falls/Einarson Fld, MN, US",2025-09-19 10:54:00,"2025-09-19 05:54:00","MVFR",14.4,11.7,100,8,NA,NA,1019.4,"METAR KINL 191054Z AUTO 10008KT 10SM OVC025 14/12 A3010 RMK AO2 SLP194 T01440117",2025-09-19 11:48:03.690508,2025-09-19 07:48:03.690558
"KIND","Indianapolis Intl, IN, US",2025-09-19 10:54:00,"2025-09-19 06:54:00","VFR",18.9,14.4,60,3,NA,NA,1018,"METAR KIND 191054Z 06003KT 10SM CLR 19/14 A3006 RMK AO2 SLP172 T01890144",2025-09-19 11:48:03.711893,2025-09-19 07:48:03.71195
"KINT","Winston-Salem/Reynolds Arpt, NC, US",2025-09-19 10:54:00,"2025-09-19 06:54:00","VFR",18.3,16.1,310,3,NA,NA,1018.4,"METAR KINT 191054Z 31003KT 10SM CLR 18/16 A3007 RMK AO2 SLP174 T01830161",2025-09-19 11:48:03.719328,2025-09-19 07:48:03.719373
"KJER","Jerome Cnty Arpt, ID, US",2025-09-19 10:53:00,"2025-09-19 10:53:00","VFR",13.9,1.7,100,8,NA,NA,1015.7,"METAR KJER 191053Z AUTO 10008KT 10SM CLR 14/02 A2999 RMK AO2 SLP120 T01390017",2025-09-19 11:48:03.726154,2025-09-19 07:48:03.726197
"KIAG","Niagara Falls Intl, NY, US",2025-09-19 10:53:00,"2025-09-19 06:53:00","MVFR",16.7,13.9,30,5,NA,NA,1019.4,"METAR KIAG 191053Z 03005KT 10SM OVC018 17/14 A3010 RMK AO2 SLP190 T01670139",2025-09-19 11:48:03.732959,2025-09-19 07:48:03.733003
"KIPL","Imperial Cnty Arpt, CA, US",2025-09-19 10:53:00,"2025-09-19 03:53:00","VFR",23.3,21.1,220,3,NA,NA,1009.2,"METAR KIPL 191053Z AUTO 22003KT 10SM CLR 23/21 A2980 RMK AO2 SLP092 T02330211",2025-09-19 11:48:03.73987,2025-09-19 07:48:03.739916
"KIML","Imperial Muni, NE, US",2025-09-19 10:53:00,"2025-09-19 04:53:00","VFR",10,9.4,NA,NA,NA,NA,1018.4,"METAR KIML 191053Z AUTO 10SM CLR 10/09 A3007 RMK AO2 SLP169 T01000094",2025-09-19 11:48:03.746723,2025-09-19 07:48:03.746773
"KJKL","Jackson/Carroll Arpt, KY, US",2025-09-19 10:53:00,"2025-09-19 10:53:00","VFR",16.1,14.4,0,0,NA,NA,1019,"METAR KJKL 191053Z AUTO 00000KT 10SM CLR 16/14 A3009 RMK AO2 SLP179 T01610144 $",2025-09-19 11:48:03.75336,2025-09-19 07:48:03.753403
"KJLN","Joplin Rgnl, MO, US",2025-09-19 10:53:00,"2025-09-19 05:53:00","VFR",16.7,16.1,0,0,NA,7,1017,"METAR KJLN 191053Z 00000KT 7SM CLR 17/16 A3003 RMK AO2 SLP161 T01670161",2025-09-19 11:48:03.760079,2025-09-19 07:48:03.760122
"KHZY","Ashtabula/NE Ohio Rgnl, OH, US",2025-09-19 10:53:00,"2025-09-19 06:53:00","VFR",12.8,12.8,0,0,NA,NA,1019,"METAR KHZY 191053Z AUTO 00000KT 10SM FEW055 SCT080 OVC110 13/13 A3009 RMK AO2 SLP186 T01280128 $",2025-09-19 11:48:03.766903,2025-09-19 07:48:03.766947
"KICT","Wichita/Eisenhower Arpt, KS, US",2025-09-19 10:53:00,"2025-09-19 05:53:00","VFR",15.6,15,0,0,NA,NA,1017.4,"METAR KICT 191053Z 00000KT 10SM FEW250 16/15 A3004 RMK AO2 SLP161 T01560150",2025-09-19 11:48:03.77368,2025-09-19 07:48:03.773726
"KITR","Burlington/Kit Carson Cnty, CO, US",2025-09-19 10:53:00,"2025-09-19 10:53:00","VFR",8.3,7.2,230,6,NA,NA,1019.7,"METAR KITR 191053Z AUTO 23006KT 10SM CLR 08/07 A3011 RMK AO2 SLP164 T00830072",2025-09-19 11:48:03.7806,2025-09-19 07:48:03.780644
"KIAH","Houston/Bush Intl, TX, US",2025-09-19 10:53:00,"2025-09-19 05:53:00","VFR",22.2,21.7,0,0,NA,NA,1015.7,"METAR KIAH 191053Z 00000KT 10SM FEW250 22/22 A2999 RMK AO2 SLP156 T02220217 $",2025-09-19 11:48:03.787341,2025-09-19 07:48:03.787385
"KIDA","Idaho Falls Rgnl, ID, US",2025-09-19 10:53:00,"2025-09-19 04:53:00","VFR",6.7,3.3,350,6,NA,NA,1018.7,"METAR KIDA 191053Z AUTO 35006KT 10SM CLR 07/03 A3008 RMK AO2 SLP154 T00670033",2025-09-19 11:48:03.794104,2025-09-19 07:48:03.794148
"KJBR","Jonesboro Muni, AR, US",2025-09-19 10:53:00,"2025-09-19 05:53:00","VFR",22.8,16.7,50,4,NA,NA,1015.7,"METAR KJBR 191053Z AUTO 05004KT 10SM CLR 23/17 A2999 RMK AO2 LTG DSNT NW SLP151 T02280167 $",2025-09-19 11:48:03.8008,2025-09-19 07:48:03.800845
"KIWI","Wiscasset Arpt, ME, US",2025-09-19 10:53:00,"2025-09-19 06:53:00","VFR",15,13.3,0,0,NA,NA,1011.6,"METAR KIWI 191053Z AUTO 00000KT 10SM CLR 15/13 A2987 RMK AO2 SLP114 T01500133",2025-09-19 11:48:03.807549,2025-09-19 07:48:03.807595
"KIEN","Pine Ridge Strip, SD, US",2025-09-19 10:52:00,"2025-09-19 04:52:00","VFR",10.6,10,190,5,NA,NA,1017.4,"METAR KIEN 191052Z AUTO 19005KT 10SM SCT090 11/10 A3004 RMK AO2 RAE30 TSE04 SLP161 P0006 T01060100 $",2025-09-19 11:48:03.814417,2025-09-19 07:48:03.814461
"KIJD","Willimantic/Windham Arpt, CT, US",2025-09-19 10:52:00,"2025-09-19 10:52:00","VFR",11.7,11.1,0,0,NA,NA,1014.6,"METAR KIJD 191052Z AUTO 00000KT 10SM CLR 12/11 A2996 RMK AO2 PRESRR SLP143 T01170111",2025-09-19 11:48:03.821112,2025-09-19 07:48:03.821156
"KIOW","Iowa City Muni, IA, US",2025-09-19 10:52:00,"2025-09-19 05:52:00","VFR",18.3,18.3,0,0,NA,NA,1016.3,"METAR KIOW 191052Z AUTO 00000KT 10SM OVC110 18/18 A3001 RMK AO2 SLP159 T01830183",2025-09-19 11:48:03.828027,2025-09-19 07:48:03.828071
"KJCT","Junction/Kimble Cnty, TX, US",2025-09-19 10:51:00,"2025-09-19 05:51:00","VFR",18.3,16.7,0,0,NA,NA,1018,"METAR KJCT 191051Z AUTO 00000KT 10SM CLR 18/17 A3006 RMK AO2 SLP143 T01830167",2025-09-19 11:48:03.834791,2025-09-19 07:48:03.834839
"KIGM","Kingman Arpt, AZ, US",2025-09-19 10:51:00,"2025-09-19 03:51:00","VFR",18.3,13.9,0,0,NA,NA,1016.3,"METAR KIGM 191051Z AUTO 00000KT 10SM CLR 18/14 A3001 RMK AO2 SLP104 T01830139",2025-09-19 11:48:03.854502,2025-09-19 07:48:03.854552
"KJFK","New York/JF Kennedy Intl, NY, US",2025-09-19 10:51:00,"2025-09-19 06:51:00","VFR",20.6,13.3,310,7,NA,NA,1015,"METAR KJFK 191051Z 31007KT 10SM FEW250 21/13 A2997 RMK AO2 SLP147 T02060133 $",2025-09-19 11:48:03.86144,2025-09-19 07:48:03.861504
"KJDN","Jordan Arpt, MT, US",2025-09-19 10:48:00,"2025-09-19 04:48:00",NA,8.9,8.3,0,0,NA,NA,1017.7,"METAR KJDN 191048Z AUTO 00000KT 09/08 A3005 RMK AO1 SLP182 T00890083",2025-09-19 11:48:03.868359,2025-09-19 07:48:03.868402
"KJVL","Janesville/S Wisconsin Rgnl, WI, US",2025-09-19 10:45:00,"2025-09-19 05:45:00","MVFR",17,17,30,4,NA,5,1017.7,"METAR KJVL 191045Z 03004KT 5SM BR BKN095 17/17 A3005",2025-09-19 11:48:03.875113,2025-09-19 07:48:03.875155
"KLBE","Latrobe/Palmer Rgnl, PA, US",2025-09-19 11:47:00,"2025-09-19 07:47:00","VFR",12,12,0,0,NA,NA,1020.1,"METAR KLBE 191147Z 00000KT 10SM CLR 12/12 A3012",2025-09-19 11:48:06.565814,2025-09-19 07:48:06.565862
"KLMS","Louisville/Winston Cnty, MS, US",2025-09-19 11:40:00,"2025-09-19 06:40:00","VFR",21,18,260,5,NA,NA,1018,"METAR KLMS 191140Z AUTO 26005KT 10SM CLR 21/18 A3006 RMK AO2",2025-09-19 11:48:06.57304,2025-09-19 07:48:06.573084
"KK62","Falmouth/Snyder Arpt, KY, US",2025-09-19 11:35:00,"2025-09-19 11:35:00","VFR",14,12,130,4,NA,NA,1018.7,"METAR KK62 191135Z AUTO 13004KT 10SM CLR 14/12 A3008 RMK AO2",2025-09-19 11:48:06.579932,2025-09-19 07:48:06.579977
"KLDJ","Linden Arpt, NJ, US",2025-09-19 11:35:00,"2025-09-19 07:35:00","VFR",18,12.5,0,0,NA,NA,1015.7,"METAR KLDJ 191135Z AUTO 00000KT 10SM CLR 18/13 A2999 RMK AO2 T01800125",2025-09-19 11:48:06.587073,2025-09-19 07:48:06.58712
"KLNL","Land OLakes Arpt, WI, US",2025-09-19 11:35:00,"2025-09-19 11:35:00","VFR",13.3,12,150,3,NA,7,1021.8,"METAR KLNL 191135Z AUTO 15003KT 7SM RA SCT030 BKN038 OVC045 13/12 A3017 RMK AO2 T01330120",2025-09-19 11:48:06.593959,2025-09-19 07:48:06.594
"KLQK","Pickens Cnty, SC, US",2025-09-19 11:35:00,"2025-09-19 07:35:00","MVFR",15.6,14.5,0,0,NA,5,1018.4,"METAR KLQK 191135Z AUTO 00000KT 5SM BR CLR 16/15 A3007 RMK AO2 T01560145",2025-09-19 11:48:06.600696,2025-09-19 07:48:06.600739
"KK88","Iola/Allen Cnty, KS, US",2025-09-19 11:35:00,"2025-09-19 11:35:00","LIFR",15,15,0,0,NA,0.25,1016.7,"METAR KK88 191135Z AUTO 00000KT M1/4SM FG VV000 15/15 A3002 RMK AO2",2025-09-19 11:48:06.607386,2025-09-19 07:48:06.607428
"KLMO","Longmont/Brand Arpt, CO, US",2025-09-19 11:35:00,"2025-09-19 11:35:00","VFR",8,4.7,0,0,NA,NA,1021.1,"METAR KLMO 191135Z AUTO 00000KT 10SM CLR 08/05 A3015 RMK AO2 T00800047",2025-09-19 11:48:06.614144,2025-09-19 07:48:06.614188
"KK83","Sabetha Muni, KS, US",2025-09-19 11:35:00,"2025-09-19 11:35:00","VFR",16,16,290,4,NA,7,1017,"METAR KK83 191135Z AUTO 29004KT 7SM BKN055 16/16 A3003 RMK AO2 P0001 T01600160",2025-09-19 11:48:06.620926,2025-09-19 07:48:06.620968
"KK82","Smith Center Arpt, KS, US",2025-09-19 11:35:00,"2025-09-19 11:35:00","LIFR",10,9.9,310,3,NA,0.5,1018.4,"METAR KK82 191135Z AUTO 31003KT 1/2SM FG VV005 10/10 A3007 RMK AO2 T01000099",2025-09-19 11:48:06.627734,2025-09-19 07:48:06.627778
"KLBO","Lebanon/Jones Arpt, MO, US",2025-09-19 11:35:00,"2025-09-19 11:35:00","VFR",17,16,250,3,NA,NA,1018,"METAR KLBO 191135Z AUTO 25003KT 10SM CLR 17/16 A3006 RMK AO2 LTG DSNT E",2025-09-19 11:48:06.63466,2025-09-19 07:48:06.634706
"KLDM","Ludington/Mason Cnty, MI, US",2025-09-19 11:35:00,"2025-09-19 07:35:00","MVFR",17,17,80,5,NA,4,1019.4,"METAR KLDM 191135Z AUTO 08005KT 4SM BR OVC100 17/17 A3010 RMK AO2",2025-09-19 11:48:06.655555,2025-09-19 07:48:06.655601
"KLKU","Louisa/Freeman Fld, VA, US",2025-09-19 11:35:00,"2025-09-19 07:35:00","LIFR",14.8,14.7,0,0,NA,0.75,1017.7,"METAR KLKU 191135Z AUTO 00000KT 3/4SM BR VV005 15/15 A3005 RMK AO2 VIS 1/4V5 T01480147",2025-09-19 11:48:06.662495,2025-09-19 07:48:06.662545
"KL08","Borrego Springs Arpt, CA, US",2025-09-19 11:35:00,"2025-09-19 04:35:00","VFR",21,21,0,0,NA,NA,1010.2,"METAR KL08 191135Z AUTO 00000KT 10SM CLR 21/21 A2983 RMK AO2",2025-09-19 11:48:06.66933,2025-09-19 07:48:06.669374
"KLNC","Lancaster Arpt, TX, US",2025-09-19 11:35:00,"2025-09-19 11:35:00",NA,21.1,18.2,0,0,NA,NA,1016.7,"METAR KLNC 191135Z AUTO 00000KT CLR 21/18 A3002 RMK AO2 T02110182 PWINO",2025-09-19 11:48:06.676155,2025-09-19 07:48:06.676198
"KLRJ","Le Mars Muni, IA, US",2025-09-19 11:35:00,"2025-09-19 06:35:00","VFR",15,15,180,5,NA,NA,1013.6,"METAR KLRJ 191135Z AUTO 18005KT 10SM CLR 15/15 A2993 RMK AO2",2025-09-19 11:48:06.683135,2025-09-19 07:48:06.683181
"KLHZ","Louisburg/Franklin Cnty, NC, US",2025-09-19 11:35:00,"2025-09-19 07:35:00","MVFR",15,15,0,0,NA,5,1018.4,"METAR KLHZ 191135Z AUTO 00000KT 5SM BR CLR 15/15 A3007 RMK AO2",2025-09-19 11:48:06.689978,2025-09-19 07:48:06.690024
"KLRY","Harrisonville/Smith, MO, US",2025-09-19 11:35:00,"2025-09-19 11:35:00","IFR",16,15,0,0,NA,1.75,1017.4,"METAR KLRY 191135Z AUTO 00000KT 1 3/4SM BR SCT003 16/15 A3004 RMK AO2 VIS 3/4V5",2025-09-19 11:48:06.696788,2025-09-19 07:48:06.696832
"KL35","Big Bear City Arpt, CA, US",2025-09-19 11:35:00,"2025-09-19 04:35:00","VFR",8,8,220,3,NA,NA,1021.1,"METAR KL35 191135Z AUTO 22003KT 10SM CLR 08/08 A3015 RMK AO2",2025-09-19 11:48:06.703624,2025-09-19 07:48:06.703671
"KLNN","Willoughby/Lake Cnty Exec, OH, US",2025-09-19 11:35:00,"2025-09-19 07:35:00","VFR",15.5,14.2,0,0,NA,NA,1019,"METAR KLNN 191135Z AUTO 00000KT 10SM SCT065 SCT120 16/14 A3009 RMK AO1 T01550142",2025-09-19 11:48:06.71033,2025-09-19 07:48:06.710374
"KLLN","Levelland Muni, TX, US",2025-09-19 11:35:00,"2025-09-19 11:35:00","VFR",16,13,0,0,NA,NA,1020.4,"METAR KLLN 191135Z AUTO 00000KT 10SM BKN049 16/13 A3013 RMK AO2",2025-09-19 11:48:06.717212,2025-09-19 07:48:06.717258
"KLCQ","Lake City/Gateway Arpt, FL, US",2025-09-19 11:35:00,"2025-09-19 07:35:00","MVFR",18,18,0,0,NA,4,1017,"METAR KLCQ 191135Z AUTO 00000KT 4SM BR CLR 18/18 A3003 RMK AO2",2025-09-19 11:48:06.724009,2025-09-19 07:48:06.724052
"KLNA","Lantana/Palm Beach Cnty, FL, US",2025-09-19 11:35:00,"2025-09-19 07:35:00","VFR",24.5,21.5,300,4,NA,NA,1014,"METAR KLNA 191135Z AUTO 30004KT 10SM CLR 25/22 A2994 RMK AO2 T02450215",2025-09-19 11:48:06.730942,2025-09-19 07:48:06.730989
"KLOM","Philadelphia/Wings Field Arpt, PA, US",2025-09-19 11:35:00,"2025-09-19 07:35:00","MVFR",14.9,NA,0,0,NA,5,1016.7,"METAR KLOM 191135Z AUTO 00000KT 5SM HZ CLR 15/ A3002 RMK AO2 T0149////",2025-09-19 11:48:06.737736,2025-09-19 07:48:06.737779
"KLKR","Lancaster Cnty, SC, US",2025-09-19 11:35:00,"2025-09-19 11:35:00","MVFR",17,16,0,0,NA,5,1018,"METAR KLKR 191135Z AUTO 00000KT 5SM BR CLR 17/16 A3006 RMK AO2",2025-09-19 11:48:06.744562,2025-09-19 07:48:06.744616
"KLHB","Hearne Muni, TX, US",2025-09-19 11:35:00,"2025-09-19 11:35:00","VFR",22,22,0,0,NA,6,1016.3,"METAR KLHB 191135Z AUTO 00000KT 6SM BR CLR 22/22 A3001 RMK AO2",2025-09-19 11:48:06.751324,2025-09-19 07:48:06.751368
"KLAM","Los Alamos Arpt, NM, US",2025-09-19 11:35:00,"2025-09-19 05:35:00","VFR",13.7,9.9,180,7,NA,9,1025.5,"METAR KLAM 191135Z AUTO 18007KT 9SM CLR 14/10 A3028 RMK AO2 T01370099 $",2025-09-19 11:48:06.758183,2025-09-19 07:48:06.758226
"KLRU","Las Cruces Intl, NM, US",2025-09-19 11:35:00,"2025-09-19 05:35:00","VFR",17.5,15.7,240,4,NA,7,1021.8,"METAR KLRU 191135Z AUTO 24004KT 7SM RA OVC100 18/16 A3017 RMK AO2 P0008 T01750157",2025-09-19 11:48:06.765065,2025-09-19 07:48:06.765113
"KLNP","Wise/Lonesome Pine Arpt, VA, US",2025-09-19 11:35:00,"2025-09-19 07:35:00","VFR",15,11,0,0,NA,NA,1022.1,"METAR KLNP 191135Z AUTO 00000KT 10SM CLR 15/11 A3018 RMK AO2",2025-09-19 11:48:06.772042,2025-09-19 07:48:06.772091
"KLJF","Litchfield Muni, MN, US",2025-09-19 11:35:00,"2025-09-19 11:35:00","IFR",18,18,110,5,NA,4,1014.6,"METAR KLJF 191135Z AUTO 11005KT 4SM BR BKN005 18/18 A2996 RMK AO2",2025-09-19 11:48:06.779056,2025-09-19 07:48:06.779106
"KLSB","Lordsburg Muni, NM, US",2025-09-19 11:35:00,"2025-09-19 05:35:00","VFR",18,16,170,4,NA,NA,1020.4,"METAR KLSB 191135Z AUTO 17004KT 10SM SCT065 BKN100 18/16 A3013 RMK AO2",2025-09-19 11:48:06.800809,2025-09-19 07:48:06.800862
"KLRO","Mt Pleasant Rgnl, SC, US",2025-09-19 11:35:00,"2025-09-19 11:35:00","IFR",20,20,0,0,NA,2.5,1017,"METAR KLRO 191135Z AUTO 00000KT 2 1/2SM BR FEW002 20/20 A3003 RMK AO2",2025-09-19 11:48:06.80761,2025-09-19 07:48:06.807653
"KLKP","Lake Placid Arpt, NY, US",2025-09-19 11:35:00,"2025-09-19 07:35:00","MVFR",11,9,330,6,NA,NA,1018,"METAR KLKP 191135Z AUTO 33006KT 10SM OVC010 11/09 A3006 RMK AO2",2025-09-19 11:48:06.814564,2025-09-19 07:48:06.81461
"KLHM","Lincoln Rgnl, CA, US",2025-09-19 11:35:00,"2025-09-19 11:35:00","VFR",21,16,120,3,NA,NA,1010.6,"METAR KLHM 191135Z AUTO 12003KT 10SM CLR 21/16 A2984 RMK AO1",2025-09-19 11:48:06.82135,2025-09-19 07:48:06.821393
"KLAX","Los Angeles Intl, CA, US",2025-09-19 11:35:00,"2025-09-19 04:35:00","IFR",20,17.8,260,6,NA,NA,1011.9,"SPECI KLAX 191135Z 26006KT 10SM FEW006 BKN009 BKN100 20/18 A2988 RMK AO2 T02000178",2025-09-19 11:48:06.828333,2025-09-19 07:48:06.828377
"KLCG","Wayne Muni, NE, US",2025-09-19 11:35:00,"2025-09-19 11:35:00","IFR",15.1,14.5,250,5,NA,NA,1015,"METAR KLCG 191135Z AUTO 25005KT 10SM OVC008 15/15 A2997 RMK AO2 T01510145",2025-09-19 11:48:06.835293,2025-09-19 07:48:06.83534
"KLBT","Lumberton Muni, NC, US",2025-09-19 11:34:00,"2025-09-19 07:34:00","LIFR",18.3,17.8,0,0,NA,0.25,1017.4,"SPECI KLBT 191134Z AUTO 00000KT M1/4SM FG VV002 18/18 A3004 RMK AO2 T01830178",2025-09-19 11:48:06.841972,2025-09-19 07:48:06.842015
"KLBF","N Platte/Lee Bird Fld, NE, US",2025-09-19 11:27:00,"2025-09-19 06:27:00","VFR",6.7,6.7,0,0,NA,7,1018.4,"SPECI KLBF 191127Z AUTO 00000KT 7SM SCT001 07/07 A3007 RMK AO2 T00670067",2025-09-19 11:48:06.848723,2025-09-19 07:48:06.848767
"KLPC","Lompoc Arpt, CA, US",2025-09-19 11:03:00,"2025-09-19 04:03:00","VFR",18,NA,100,4,NA,8,1011.6,"SPECI KLPC 191103Z AUTO 10004KT 8SM FEW003 SCT026 OVC044 18/ A2987 RMK AO2 RAE1059 P0000 $",2025-09-19 11:48:06.855554,2025-09-19 07:48:06.8556
"KLNR","Lone Rock/Tri Cnty Rgnl, WI, US",2025-09-19 10:56:00,"2025-09-19 05:56:00","VFR",17.8,16.1,0,0,NA,8,1017.7,"METAR KLNR 191056Z AUTO 00000KT 8SM FEW090 18/16 A3005 RMK AO2 SLP167 T01780161",2025-09-19 11:48:06.862334,2025-09-19 07:48:06.862377
"KLAS","Las Vegas/Reid Intl, NV, US",2025-09-19 10:56:00,"2025-09-19 03:56:00","VFR",20,17.2,210,4,NA,NA,1014.3,"METAR KLAS 191056Z 21004KT 10SM FEW130 SCT160 BKN240 20/17 A2995 RMK AO2 SLP125 T02000172",2025-09-19 11:48:06.869243,2025-09-19 07:48:06.869288
"KKLS","Kelso/Longview Arpt, WA, US",2025-09-19 10:56:00,"2025-09-19 03:56:00","VFR",11.1,9.4,0,0,NA,NA,1015.3,"METAR KKLS 191056Z AUTO 00000KT 10SM CLR 11/09 A2998 RMK AO2 SLP157 T01110094",2025-09-19 11:48:06.876102,2025-09-19 07:48:06.876147
"KLCI","Laconia Muni, NH, US",2025-09-19 10:56:00,"2025-09-19 06:56:00","VFR",16.1,14.4,210,3,NA,NA,1013.3,"METAR KLCI 191056Z AUTO 21003KT 10SM CLR 16/14 A2992 RMK AO2 SLP128 T01610144",2025-09-19 11:48:06.882916,2025-09-19 07:48:06.882961
"KLEW","Auburn-Lewiston Muni, ME, US",2025-09-19 10:56:00,"2025-09-19 06:56:00","VFR",11.1,10.6,0,0,NA,NA,1011.9,"METAR KLEW 191056Z AUTO 00000KT 10SM FEW002 11/11 A2988 RMK AO2 SLP123 T01110106",2025-09-19 11:48:06.889833,2025-09-19 07:48:06.889878
"KLGD","La Grande/Union Cnty, OR, US",2025-09-19 10:56:00,"2025-09-19 03:56:00","VFR",11.7,7.2,0,0,NA,NA,1015,"METAR KLGD 191056Z AUTO 00000KT 10SM CLR 12/07 A2997 RMK AO2 SLP132 T01170072 $",2025-09-19 11:48:06.896663,2025-09-19 07:48:06.896708
"KLRD","Laredo Intl, TX, US",2025-09-19 10:56:00,"2025-09-19 05:56:00","VFR",22.8,21.1,80,5,NA,NA,1015,"METAR KLRD 191056Z 08005KT 10SM OVC034 23/21 A2997 RMK AO2 SLP145 T02280211 $",2025-09-19 11:48:06.903591,2025-09-19 07:48:06.903637
"KLBL","Liberal/Mid America Rgnl, KS, US",2025-09-19 10:56:00,"2025-09-19 05:56:00","VFR",13.3,11.7,0,0,NA,NA,1019.4,"METAR KLBL 191056Z AUTO 00000KT 10SM CLR 13/12 A3010 RMK AO2 LTG DSNT SW SLP171 T01330117 PNO $",2025-09-19 11:48:06.91053,2025-09-19 07:48:06.910579
"KLHW","Ft Stewart/Mid Coast Rgnl, GA, US",2025-09-19 10:55:00,"2025-09-19 06:55:00","VFR",19.9,18.9,0,0,NA,NA,1015.7,"METAR KLHW 191055Z AUTO 00000KT 10SM CLR 20/19 A2999 RMK AO2 SLPNO T01990189 $",2025-09-19 11:48:06.917508,2025-09-19 07:48:06.917559
"KLGF","Laguna(AAF), AZ, US",2025-09-19 10:55:00,"2025-09-19 03:55:00","VFR",25.3,21.6,350,7,NA,NA,1009.6,"METAR KLGF 191055Z AUTO 35007KT 10SM CLR 25/22 A2981 RMK AO2 SLP092 T02530216 $",2025-09-19 11:48:06.924352,2025-09-19 07:48:06.924397
"KLRF","Little Rock AFB, AR, US",2025-09-19 10:55:00,"2025-09-19 05:55:00","VFR",21.8,19.5,0,0,NA,NA,1016,"METAR KLRF 191055Z AUTO 00000KT 10SM BKN120 22/20 A3000 RMK AO2 SLP158 T02180195",2025-09-19 11:48:06.945485,2025-09-19 07:48:06.945539
"KLCK","Columbus/Rickenbacker Intl, OH, US",2025-09-19 10:55:00,"2025-09-19 06:55:00","VFR",12.6,11.5,0,0,NA,NA,1018.7,"METAR KLCK 191055Z AUTO 00000KT 10SM CLR 13/12 A3008 RMK AO2 T01260115",2025-09-19 11:48:06.952618,2025-09-19 07:48:06.952664
"KLLJ","Challis Arpt, ID, US",2025-09-19 10:55:00,"2025-09-19 04:55:00","VFR",9.4,2.8,0,0,NA,NA,1019.4,"METAR KLLJ 191055Z AUTO 00000KT 10SM CLR 09/03 A3010 RMK AO2 SLP140 T00940028",2025-09-19 11:48:06.959642,2025-09-19 07:48:06.959689
"KLIC","Limon Muni, CO, US",2025-09-19 10:55:00,"2025-09-19 04:55:00","VFR",4.4,4.4,10,3,NA,NA,1021.1,"METAR KLIC 191055Z AUTO 01003KT 10SM CLR 04/04 A3015 RMK AO2 SLP166 T00440044",2025-09-19 11:48:06.966635,2025-09-19 07:48:06.96668
"KLFI","Langley AFB, VA, US",2025-09-19 10:55:00,"2025-09-19 06:55:00","VFR",17.5,16.3,230,5,NA,NA,1016.7,"METAR KLFI 191055Z 23005KT 10SM CLR 18/16 A3002 RMK AO2A SLP172 T01750163 $",2025-09-19 11:48:06.973737,2025-09-19 07:48:06.973787
"KLEX","Lexington/Blue Grass Aprt, KY, US",2025-09-19 10:54:00,"2025-09-19 06:54:00","VFR",14.4,12.2,160,4,NA,NA,1018.7,"METAR KLEX 191054Z 16004KT 10SM CLR 14/12 A3008 RMK AO2 SLP176 T01440122 $",2025-09-19 11:48:06.980943,2025-09-19 07:48:06.980991
"KLNK","Lincoln Arpt, NE, US",2025-09-19 10:54:00,"2025-09-19 05:54:00","VFR",13.9,12.2,0,0,NA,NA,1017,"METAR KLNK 191054Z 00000KT 10SM CLR 14/12 A3003 RMK AO2 SLP162 T01390122",2025-09-19 11:48:06.987979,2025-09-19 07:48:06.988023
"KLAF","Lafayette/Purdue Univ Arpt, IN, US",2025-09-19 10:54:00,"2025-09-19 06:54:00","VFR",15,14.4,0,0,NA,NA,1017.4,"METAR KLAF 191054Z 00000KT 10SM CLR 15/14 A3004 RMK AO2 SLP169 T01500144",2025-09-19 11:48:06.995121,2025-09-19 07:48:06.995168
"KLGB","Long Beach Arpt, CA, US",2025-09-19 10:53:00,"2025-09-19 03:53:00","VFR",21.1,18.3,200,3,NA,NA,1011.3,"METAR KLGB 191053Z AUTO 20003KT 10SM OVC095 21/18 A2986 RMK AO2 SLP110 T02110183 $",2025-09-19 11:48:07.00223,2025-09-19 07:48:07.002275
"KLNS","Lancaster Arpt, PA, US",2025-09-19 10:53:00,"2025-09-19 06:53:00","VFR",13.9,13.3,0,0,NA,7,1016.7,"METAR KLNS 191053Z 00000KT 7SM CLR 14/13 A3002 RMK AO2 SLP162 T01390133 $",2025-09-19 11:48:07.009262,2025-09-19 07:48:07.009305
"KLCH","Lake Charles Rgnl, LA, US",2025-09-19 10:53:00,"2025-09-19 05:53:00","VFR",21.7,20.6,60,4,NA,NA,1016.3,"METAR KLCH 191053Z AUTO 06004KT 10SM CLR 22/21 A3001 RMK AO2 SLP170 T02170206",2025-09-19 11:48:07.016286,2025-09-19 07:48:07.016331
"KLOU","Louisville/Bowman Fld, KY, US",2025-09-19 10:53:00,"2025-09-19 06:53:00","VFR",14.4,13.3,0,0,NA,NA,1017.7,"METAR KLOU 191053Z 00000KT 10SM CLR 14/13 A3005 RMK AO2 SLP171 T01440133",2025-09-19 11:48:07.023186,2025-09-19 07:48:07.023232
"KLHQ","Lancaster/Fairfield Cnty, OH, US",2025-09-19 10:53:00,"2025-09-19 10:53:00","VFR",8.9,8.9,0,0,NA,9,1019,"METAR KLHQ 191053Z AUTO 00000KT 9SM CLR 09/09 A3009 RMK AO2 SLP184 T00890089",2025-09-19 11:48:07.029986,2025-09-19 07:48:07.03003
"KLMT","Klamath Falls Intl, OR, US",2025-09-19 10:53:00,"2025-09-19 03:53:00","VFR",12.8,9.4,0,0,NA,NA,1015.3,"METAR KLMT 191053Z AUTO 00000KT 10SM CLR 13/09 A2998 RMK AO2 SLP108 T01280094",2025-09-19 11:48:07.036958,2025-09-19 07:48:07.037003
"KLOZ","London-Corbin Arpt, KY, US",2025-09-19 10:53:00,"2025-09-19 06:53:00","VFR",13.3,12.8,0,0,NA,9,1019,"METAR KLOZ 191053Z AUTO 00000KT 9SM CLR 13/13 A3009 RMK AO2 SLP181 T01330128 $",2025-09-19 11:48:07.043713,2025-09-19 07:48:07.043756
"KLOL","Lovelock/Derby Fld, NV, US",2025-09-19 10:53:00,"2025-09-19 03:53:00","VFR",18.3,2.8,150,5,NA,NA,1013.6,"METAR KLOL 191053Z AUTO 15005KT 10SM CLR 18/03 A2993 RMK AO2 SLP093 T01830028",2025-09-19 11:48:07.050514,2025-09-19 07:48:07.050562
"KLPR","Elyria/Lorain Cnty, OH, US",2025-09-19 10:53:00,"2025-09-19 10:53:00","VFR",13.9,12.8,0,0,NA,NA,1019,"METAR KLPR 191053Z AUTO 00000KT 10SM CLR 14/13 A3009 RMK AO2 SLP186 T01390128",2025-09-19 11:48:07.057402,2025-09-19 07:48:07.057448
"KLLQ","Monticello/Ellis Fld, AR, US",2025-09-19 10:53:00,"2025-09-19 10:53:00","VFR",21.7,18.3,0,0,NA,NA,1016.3,"METAR KLLQ 191053Z AUTO 00000KT 10SM CLR 22/18 A3001 RMK AO2 SLP157 T02170183",2025-09-19 11:48:07.06444,2025-09-19 07:48:07.064503
"KLFT","Lafayette Rgnl, LA, US",2025-09-19 10:53:00,"2025-09-19 05:53:00","VFR",21.1,20.6,0,0,NA,NA,1016.7,"METAR KLFT 191053Z 00000KT 10SM CLR 21/21 A3002 RMK AO2 SLP165 T02110206",2025-09-19 11:48:07.071573,2025-09-19 07:48:07.071622
"KLAN","Lansing/Capital City Arpt, MI, US",2025-09-19 10:53:00,"2025-09-19 06:53:00","VFR",16.1,15.6,50,3,NA,6,1019.7,"METAR KLAN 191053Z 05003KT 6SM BR CLR 16/16 A3011 RMK AO2 SLP193 T01610156 $",2025-09-19 11:48:07.092946,2025-09-19 07:48:07.092991
"KLEB","Lebanon Muni, NH, US",2025-09-19 10:53:00,"2025-09-19 06:53:00","VFR",14.4,12.8,0,0,NA,NA,1014,"METAR KLEB 191053Z 00000KT 10SM FEW027 OVC036 14/13 A2994 RMK AO2 SLP133 T01440128",2025-09-19 11:48:07.100408,2025-09-19 07:48:07.100455
"KLAA","Lamar Muni, CO, US",2025-09-19 10:53:00,"2025-09-19 04:53:00","VFR",13.3,12.2,80,3,NA,NA,1019,"METAR KLAA 191053Z AUTO 08003KT 10SM BKN060 13/12 A3009 RMK AO2 SLP150 T01330122",2025-09-19 11:48:07.109131,2025-09-19 07:48:07.109179
"KLEE","Leesburg Muni, FL, US",2025-09-19 10:53:00,"2025-09-19 06:53:00","VFR",21.1,20.6,340,3,NA,NA,1016,"METAR KLEE 191053Z 34003KT 10SM CLR 21/21 A3000 RMK AO2 SLP159 T02110206",2025-09-19 11:48:07.118578,2025-09-19 07:48:07.118628
"KLND","Lander/Hunt Fld, WY, US",2025-09-19 10:53:00,"2025-09-19 04:53:00","VFR",8.3,1.1,NA,NA,NA,NA,1020.1,"METAR KLND 191053Z AUTO 10SM CLR 08/01 A3012 RMK AO2 SLP147 T00830011",2025-09-19 11:48:07.126278,2025-09-19 07:48:07.126326
"KLKV","Lakeview/Lake Cnty, OR, US",2025-09-19 10:53:00,"2025-09-19 03:53:00","VFR",15,6.1,90,5,NA,NA,1016.7,"METAR KLKV 191053Z AUTO 09005KT 10SM SCT120 15/06 A3002 RMK AO2 SLP119 T01500061",2025-09-19 11:48:07.133965,2025-09-19 07:48:07.134014
"KLFK","Lufkin/Angelina Cnty, TX, US",2025-09-19 10:53:00,"2025-09-19 05:53:00","VFR",20.6,20,0,0,NA,9,1016.7,"METAR KLFK 191053Z AUTO 00000KT 9SM CLR 21/20 A3002 RMK AO2 SLP161 T02060200",2025-09-19 11:48:07.141277,2025-09-19 07:48:07.141323
"KLAR","Laramie Rgnl, WY, US",2025-09-19 10:53:00,"2025-09-19 04:53:00","VFR",2.8,0.6,160,7,NA,NA,1022.8,"METAR KLAR 191053Z AUTO 16007KT 10SM CLR 03/01 A3020 RMK AO2 SLP155 T00280006",2025-09-19 11:48:07.148918,2025-09-19 07:48:07.148967
"KLIT","Little Rock/Clinton Natl, AR, US",2025-09-19 10:53:00,"2025-09-19 05:53:00","VFR",22.8,18.9,10,3,NA,NA,1016.3,"METAR KLIT 191053Z 01003KT 10SM FEW120 BKN160 23/19 A3001 RMK AO2 SLP160 T02280189",2025-09-19 11:48:07.156311,2025-09-19 07:48:07.15636
"KLBB","Lubbock Intl Arpt, TX, US",2025-09-19 10:53:00,"2025-09-19 05:53:00","VFR",16.1,14.4,50,5,NA,NA,1019.4,"METAR KLBB 191053Z 05005KT 10SM CLR 16/14 A3010 RMK AO2 SLP148 T01610144",2025-09-19 11:48:07.163606,2025-09-19 07:48:07.163655
"KLAW","Lawton-Fort Sill Rgnl, OK, US",2025-09-19 10:53:00,"2025-09-19 05:53:00","VFR",19.4,17.2,50,7,NA,NA,1017.4,"METAR KLAW 191053Z AUTO 05007KT 10SM BKN090 19/17 A3004 RMK AO2 LTG DSNT NE-SE TSB0956E11 SLP160 T01940172 $",2025-09-19 11:48:07.17088,2025-09-19 07:48:07.170933
"KLBX","Angleton/Texas Gulf Coast Rgnl, TX, US",2025-09-19 10:53:00,"2025-09-19 05:53:00","VFR",21.1,20.6,360,3,NA,NA,1015.7,"METAR KLBX 191053Z AUTO 36003KT 10SM CLR 21/21 A2999 RMK AO2 SLP153 T02110206",2025-09-19 11:48:07.178236,2025-09-19 07:48:07.178283
"KLGA","New York/La Guardia Arpt, NY, US",2025-09-19 10:51:00,"2025-09-19 06:51:00","VFR",21.7,12.2,310,7,NA,NA,1014.6,"METAR KLGA 191051Z 31007KT 10SM FEW250 22/12 A2996 RMK AO2 SLP144 T02170122 $",2025-09-19 11:48:07.185462,2025-09-19 07:48:07.185529
"KLGU","Logan/Cache Arpt, UT, US",2025-09-19 10:51:00,"2025-09-19 04:51:00","VFR",9.4,3.9,0,0,NA,NA,1018,"METAR KLGU 191051Z AUTO 00000KT 10SM CLR 09/04 A3006 RMK AO2 SLP138 T00940039",2025-09-19 11:48:07.192617,2025-09-19 07:48:07.192667
"KLOT","Romeoville/Lewis Univ Arpt, IL, US",2025-09-19 10:45:00,"2025-09-19 05:45:00","VFR",19,15,80,4,NA,NA,1017,"METAR KLOT 191045Z 08004KT 10SM CLR 19/15 A3003",2025-09-19 11:48:07.199867,2025-09-19 07:48:07.199916
"KLVS","Las Vegas Muni, NM, US",2025-09-19 11:44:00,"2025-09-19 05:44:00","IFR",10,10,200,6,NA,2.5,1025.1,"SPECI KLVS 191144Z AUTO 20006KT 2 1/2SM BR CLR 10/10 A3027 RMK AO2 T01000100",2025-09-19 11:48:08.757462,2025-09-19 07:48:08.75753
"KLSF","Fort Benning/Lawson AAF, GA, US",2025-09-19 11:42:00,"2025-09-19 06:42:00","LIFR",17,16,0,0,NA,0.5,1016,"SPECI KLSF 191142Z AUTO 00000KT 1/2SM R33/2600V5500FT FG SCT001 17/16 A3000 RMK AO2 SLP162 $",2025-09-19 11:48:08.764378,2025-09-19 07:48:08.764422
"KMEB","Laurinberg/Maxton Arpt, NC, US",2025-09-19 11:42:00,"2025-09-19 07:42:00","LIFR",16.7,16.7,0,0,NA,0.25,1018,"SPECI KMEB 191142Z AUTO 00000KT 1/4SM FG OVC001 17/17 A3006 RMK AO2 T01670167",2025-09-19 11:48:08.771321,2025-09-19 07:48:08.771363
"KM08","Bolivar/Whitehurst Fld, TN, US",2025-09-19 11:40:00,"2025-09-19 11:40:00",NA,19,18,0,0,NA,NA,1016,"METAR KM08 191140Z AUTO 00000KT 10SM 19/18 A3000 RMK A01",2025-09-19 11:48:08.778219,2025-09-19 07:48:08.778263
"KLWC","Lawrence Muni, KS, US",2025-09-19 11:39:00,"2025-09-19 06:39:00","LIFR",16.1,16.1,0,0,NA,0.25,1016.7,"SPECI KLWC 191139Z AUTO 00000KT M1/4SM FG VV002 16/16 A3002 RMK AO1 T01610161",2025-09-19 11:48:08.785028,2025-09-19 07:48:08.78507
"KMCI","Kansas City Intl, MO, US",2025-09-19 11:38:00,"2025-09-19 06:38:00","IFR",17.8,17.8,0,0,NA,2,1016.3,"SPECI KMCI 191138Z 00000KT 2SM BR FEW002 BKN042 18/18 A3001 RMK AO2 TWR VIS 10 VIS LWR SE-SW T01780178 $",2025-09-19 11:48:08.791902,2025-09-19 07:48:08.79195
"KMCW","Mason City Muni, IA, US",2025-09-19 11:38:00,"2025-09-19 06:38:00","IFR",17.8,17.2,150,7,NA,NA,1015.3,"SPECI KMCW 191138Z AUTO 15007KT 10SM BKN008 BKN014 OVC020 18/17 A2998 RMK AO2 T01780172",2025-09-19 11:48:08.798809,2025-09-19 07:48:08.798855
"KLYO","Lyons/Rice Cnty, KS, US",2025-09-19 11:35:00,"2025-09-19 06:35:00","VFR",13.2,12.5,340,3,NA,NA,1018.4,"METAR KLYO 191135Z AUTO 34003KT 10SM CLR 13/13 A3007 RMK AO2 T01320125",2025-09-19 11:48:08.805496,2025-09-19 07:48:08.805547
"KLUG","Lewisburg/Ellington Arpt, TN, US",2025-09-19 11:35:00,"2025-09-19 11:35:00","VFR",13,13,0,0,NA,9,1017.7,"METAR KLUG 191135Z AUTO 00000KT 9SM CLR 13/13 A3005 RMK A01",2025-09-19 11:48:08.812042,2025-09-19 07:48:08.812083
"KLUM","Menomenie Muni, WI, US",2025-09-19 11:35:00,"2025-09-19 11:35:00","VFR",19.7,19.7,110,6,NA,7,1017.4,"METAR KLUM 191135Z AUTO 11006KT 7SM SCT009 BKN090 BKN120 20/20 A3004 RMK AO2 T01970197 PWINO",2025-09-19 11:48:08.818599,2025-09-19 07:48:08.818644
"KM91","Springfield/Robertson Cnty, TN, US",2025-09-19 11:35:00,"2025-09-19 11:35:00","VFR",15,15,0,0,NA,NA,1017,"METAR KM91 191135Z AUTO 00000KT 10SM CLR 15/15 A3003 RMK A01",2025-09-19 11:48:08.82536,2025-09-19 07:48:08.825406
"KMCC","McClellan AFB, CA, US",2025-09-19 11:35:00,"2025-09-19 04:35:00","VFR",22,17,160,9,NA,NA,1010.6,"METAR KMCC 191135Z AUTO 16009KT 10SM FEW055 OVC070 22/17 A2984 RMK AO2",2025-09-19 11:48:08.832283,2025-09-19 07:48:08.832329
"KLUX","Laurens Cnty, SC, US",2025-09-19 11:35:00,"2025-09-19 11:35:00","MVFR",16,16,0,0,NA,5,1018,"METAR KLUX 191135Z AUTO 00000KT 5SM BR CLR 16/16 A3006 RMK AO2",2025-09-19 11:48:08.839187,2025-09-19 07:48:08.83923
"KM02","Dickson Muni, TN, US",2025-09-19 11:35:00,"2025-09-19 11:35:00","VFR",16,15,0,0,NA,NA,1017.4,"METAR KM02 191135Z AUTO 00000KT 10SM FEW070 16/15 A3004 RMK A01",2025-09-19 11:48:08.846636,2025-09-19 07:48:08.846686
"KLWA","South Haven Rgnl, MI, US",2025-09-19 11:35:00,"2025-09-19 11:35:00","VFR",17,15,90,4,NA,9,1018.4,"METAR KLWA 191135Z AUTO 09004KT 9SM CLR 17/15 A3007 RMK AO2",2025-09-19 11:48:08.853735,2025-09-19 07:48:08.853781
"KMCD","Mackinac Isl Arpt, MI, US",2025-09-19 11:35:00,"2025-09-19 07:35:00","VFR",14,12,90,9,17,NA,1021.8,"METAR KMCD 191135Z AUTO 09009G17KT 10SM OVC035 14/12 A3017 RMK AO2",2025-09-19 11:48:08.860889,2025-09-19 07:48:08.860935
"KMDS","Madison Muni, SD, US",2025-09-19 11:35:00,"2025-09-19 06:35:00","LIFR",14,14,190,4,NA,0.25,1013.3,"METAR KMDS 191135Z AUTO 19004KT 1/4SM FG OVC002 14/14 A2992 RMK AO2 TSNO",2025-09-19 11:48:08.867881,2025-09-19 07:48:08.867923
"KLXL","Little Falls/Morrison Cnty, MN, US",2025-09-19 11:35:00,"2025-09-19 11:35:00","LIFR",15,15,90,3,NA,2,1015.3,"METAR KLXL 191135Z AUTO 09003KT 2SM BR OVC003 15/15 A2998 RMK AO2",2025-09-19 11:48:08.874769,2025-09-19 07:48:08.874814
"KM21","Greenville/Muhlenberg Cnty, KY, US",2025-09-19 11:35:00,"2025-09-19 11:35:00","VFR",13.9,13.7,0,0,NA,7,1017.4,"METAR KM21 191135Z AUTO 00000KT 7SM CLR 14/14 A3004 RMK AO2 T01390137",2025-09-19 11:48:08.881683,2025-09-19 07:48:08.881728
"KMDD","Midland Airpark, TX, US",2025-09-19 11:35:00,"2025-09-19 06:35:00","VFR",21,13.1,130,4,NA,NA,1019,"METAR KMDD 191135Z AUTO 13004KT 10SM CLR 21/13 A3009 RMK AO2 T02100131",2025-09-19 11:48:08.901606,2025-09-19 07:48:08.901653
"KLVL","Lawrenceville Muni, VA, US",2025-09-19 11:35:00,"2025-09-19 07:35:00","LIFR",16.6,15.8,0,0,NA,0.25,1018,"METAR KLVL 191135Z AUTO 00000KT M1/4SM OVC003 17/16 A3006 RMK AO1 T01660158",2025-09-19 11:48:08.908468,2025-09-19 07:48:08.908535
"KLXN","Lexington/Kelly Fld, NE, US",2025-09-19 11:35:00,"2025-09-19 06:35:00","VFR",9.5,8.7,0,0,NA,NA,1018.7,"METAR KLXN 191135Z AUTO 00000KT 10SM CLR 10/09 A3008 RMK AO2 T00950087",2025-09-19 11:48:08.915351,2025-09-19 07:48:08.915395
"KMDQ","Huntsville/Sharp Fld, AL, US",2025-09-19 11:35:00,"2025-09-19 11:35:00","VFR",16,15.7,0,0,NA,7,1018.4,"METAR KMDQ 191135Z AUTO 00000KT 7SM BR CLR 16/16 A3007 RMK A02 T01600157",2025-09-19 11:48:08.922096,2025-09-19 07:48:08.922139
"KMEZ","Mena Intermountain Muni, AR, US",2025-09-19 11:35:00,"2025-09-19 11:35:00","VFR",15.6,15.6,0,0,NA,7,1017.4,"METAR KMEZ 191135Z AUTO 00000KT 7SM CLR 16/16 A3004 RMK AO2 T01560156",2025-09-19 11:48:08.928901,2025-09-19 07:48:08.928945
"KMBY","Moberly/Bradley Arpt, MO, US",2025-09-19 11:35:00,"2025-09-19 06:35:00","MVFR",16,15,160,3,NA,4,1017,"METAR KMBY 191135Z AUTO 16003KT 4SM BR CLR 16/15 A3003 RMK AO2",2025-09-19 11:48:08.935979,2025-09-19 07:48:08.936022
"KLUD","Decatur Muni, TX, US",2025-09-19 11:35:00,"2025-09-19 11:35:00","VFR",23.5,17.7,220,3,NA,NA,1016.7,"METAR KLUD 191135Z AUTO 22003KT 10SM CLR 24/18 A3002 RMK AO2 T02350177",2025-09-19 11:48:08.943027,2025-09-19 07:48:08.943072
"KM30","Metropolis Muni, IL, US",2025-09-19 11:35:00,"2025-09-19 11:35:00","VFR",18.4,15,0,0,NA,NA,1016.7,"METAR KM30 191135Z AUTO 00000KT 10SM CLR 18/15 A3002 RMK AO2 T01840150",2025-09-19 11:48:08.949787,2025-09-19 07:48:08.949832
"KMCZ","Williamston/Martin Cnty, NC, US",2025-09-19 11:35:00,"2025-09-19 11:35:00","LIFR",16.1,16.1,0,0,NA,0.25,1017.7,"METAR KMCZ 191135Z AUTO 00000KT M1/4SM FG OVC001 16/16 A3005 RMK AO2 T01610161",2025-09-19 11:48:08.956441,2025-09-19 07:48:08.956503
"KM40","Aberdeen/Monroe Cnty, MS, US",2025-09-19 11:35:00,"2025-09-19 11:35:00","MVFR",18,18,160,3,NA,4,1017.4,"METAR KM40 191135Z AUTO 16003KT 4SM BR CLR 18/18 A3004 RMK AO2",2025-09-19 11:48:08.963277,2025-09-19 07:48:08.963321
"KMEV","Minden-Tahoe Arpt, NV, US",2025-09-19 11:35:00,"2025-09-19 04:35:00","VFR",13,8,80,5,NA,NA,1015.7,"METAR KMEV 191135Z AUTO 08005KT 10SM OVC120 13/08 A2999 RMK AO2",2025-09-19 11:48:08.970206,2025-09-19 07:48:08.970248
"KMGC","Michigan City Muni, IN, US",2025-09-19 11:35:00,"2025-09-19 06:35:00","VFR",15,14,0,0,NA,NA,1018.4,"METAR KMGC 191135Z AUTO 00000KT 10SM CLR 15/14 A3007 RMK AO2",2025-09-19 11:48:08.977046,2025-09-19 07:48:08.977091
"KMAO","Marion Cnty Arpt, SC, US",2025-09-19 11:35:00,"2025-09-19 11:35:00","LIFR",18,18,0,0,NA,0.25,1017.7,"METAR KMAO 191135Z AUTO 00000KT M1/4SM FG OVC001 18/18 A3005 RMK AO2",2025-09-19 11:48:08.983764,2025-09-19 07:48:08.983809
"KM75","Malta Arpt, MT, US",2025-09-19 11:35:00,"2025-09-19 05:35:00","VFR",10,10,60,6,NA,8,1017,"METAR KM75 191135Z AUTO 06006KT 8SM CLR 10/10 A3003 RMK A01",2025-09-19 11:48:08.990453,2025-09-19 07:48:08.990518
"KMBT","Murfreesboro Muni, TN, US",2025-09-19 11:35:00,"2025-09-19 11:35:00","VFR",16,15,0,0,NA,NA,1017.4,"METAR KMBT 191135Z AUTO 00000KT 10SM CLR 16/15 A3004 RMK A01",2025-09-19 11:48:08.99726,2025-09-19 07:48:08.997304
"KLUL","Laurel/Hesler-Noble Fld, MS, US",2025-09-19 11:35:00,"2025-09-19 06:35:00","VFR",18.3,17.5,340,3,NA,NA,1017.7,"METAR KLUL 191135Z AUTO 34003KT 10SM CLR 18/17 A3005 RMK A02 T01830175",2025-09-19 11:48:09.004188,2025-09-19 07:48:09.004234
"KLVN","Lakeville/Airlake Arpt, MN, US",2025-09-19 11:35:00,"2025-09-19 11:35:00",NA,18,18,0,0,NA,7,1015.7,"METAR KLVN 191135Z AUTO 00000KT 7SM 18/18 A2999 RMK AO2",2025-09-19 11:48:09.011098,2025-09-19 07:48:09.011142
"KLZZ","Lampasas Arpt, TX, US",2025-09-19 11:35:00,"2025-09-19 11:35:00","VFR",20,18,190,1,NA,NA,1017.4,"METAR KLZZ 191135Z AUTO 19001KT 10SM CLR 20/18 A3004 RMK AO2",2025-09-19 11:48:09.018052,2025-09-19 07:48:09.018097
"KM25","Mayfield/Grave Cnty, KY, US",2025-09-19 11:35:00,"2025-09-19 11:35:00","VFR",18.8,16.6,70,6,NA,NA,1016.3,"METAR KM25 191135Z AUTO 07006KT 10SM CLR 19/17 A3001 RMK AO2 T01880166",2025-09-19 11:48:09.025127,2025-09-19 07:48:09.025173
"KMAW","Malden Rgnl, MO, US",2025-09-19 11:35:00,"2025-09-19 06:35:00","VFR",21,17,300,12,NA,NA,1017,"METAR KMAW 191135Z AUTO 30012KT 10SM BKN085 21/17 A3003 RMK AO1 LTG DSNT SW THRU N",2025-09-19 11:48:09.044985,2025-09-19 07:48:09.04503
"KMDZ","Medford/Taylor Cnty, WI, US",2025-09-19 11:35:00,"2025-09-19 06:35:00","IFR",15.7,15.2,120,4,NA,NA,1019.4,"METAR KMDZ 191135Z AUTO 12004KT 10SM BKN007 BKN075 BKN120 16/15 A3010 RMK AO2 T01570152 PWINO",2025-09-19 11:48:09.052135,2025-09-19 07:48:09.052181
"KMFI","Marshfield Muni, WI, US",2025-09-19 11:30:00,"2025-09-19 06:30:00","IFR",16.1,15.6,130,4,NA,NA,1019.7,"SPECI KMFI 191130Z AUTO 13004KT 10SM BKN007 BKN060 OVC100 16/16 A3011 RMK AO2 RAE16 P0001 T01610156",2025-09-19 11:48:09.059051,2025-09-19 07:48:09.059095
"KM04","Covington Muni, TN, US",2025-09-19 11:30:00,"2025-09-19 11:30:00","VFR",18,18,0,0,NA,NA,1015.7,"METAR KM04 191130Z AUTO 00000KT 10SM CLR 18/18 A2999 RMK A01",2025-09-19 11:48:09.065879,2025-09-19 07:48:09.065923
"KM54","Lebanon Muni, TN, US",2025-09-19 11:30:00,"2025-09-19 11:30:00","VFR",15,15,0,0,NA,NA,1017,"METAR KM54 191130Z AUTO 00000KT 10SM CLR 15/15 A3003 RMK A01",2025-09-19 11:48:09.072846,2025-09-19 07:48:09.072892
"KMBG","Mobridge Muni, SD, US",2025-09-19 11:19:00,"2025-09-19 06:19:00","IFR",13.3,12.8,320,10,NA,NA,1014.6,"SPECI KMBG 191119Z AUTO 32010KT 10SM -RA OVC006 13/13 A2996 RMK AO2 P0001 T01330128",2025-09-19 11:48:09.079857,2025-09-19 07:48:09.079903
"KLUF","Phoenix/Luke AFB, AZ, US",2025-09-19 10:59:00,"2025-09-19 03:59:00","VFR",24.3,21.2,340,6,NA,NA,1011.3,"METAR KLUF 191059Z 34006KT 10SM SCT100 BKN130 24/21 A2986 RMK LTG DSNT NE RAE09DZB09E11 TSE59 SLP096 P0000 T02430212 $",2025-09-19 11:48:09.086745,2025-09-19 07:48:09.086789
"KMEI","Meridian/Key Fld, MS, US",2025-09-19 10:58:00,"2025-09-19 05:58:00","VFR",18.9,17.8,200,3,NA,NA,1017.4,"METAR KMEI 191058Z 20003KT 10SM CLR 19/18 A3004 RMK AO2 SLP167 T01890178",2025-09-19 11:48:09.094352,2025-09-19 07:48:09.094398
"KLWS","Lewiston/Nez Perce Cnty, ID, US",2025-09-19 10:56:00,"2025-09-19 03:56:00","VFR",17.8,8.9,0,0,NA,NA,1012.3,"METAR KLWS 191056Z AUTO 00000KT 10SM CLR 18/09 A2989 RMK AO2 SLP113 T01780089",2025-09-19 11:48:09.101394,2025-09-19 07:48:09.101442
"KM19","Newport Muni, AR, US",2025-09-19 10:56:00,"2025-09-19 10:56:00","VFR",22.2,17.8,300,15,NA,NA,1017.4,"METAR KM19 191056Z AUTO 30015KT 10SM VCTS SCT065 OVC080 22/18 A3004 RMK AO2 LTG DSNT ALQDS TSB55 SLP184 T02220178 $",2025-09-19 11:48:09.108598,2025-09-19 07:48:09.108645
"KMDT","Harrisburg Intl, PA, US",2025-09-19 10:56:00,"2025-09-19 06:56:00","VFR",16.1,13.3,340,4,NA,NA,1016.3,"METAR KMDT 191056Z 34004KT 10SM CLR 16/13 A3001 RMK AO2 SLP162 T01610133",2025-09-19 11:48:09.115653,2025-09-19 07:48:09.1157
"KMBL","Manistee/Blacker Arpt, MI, US",2025-09-19 10:56:00,"2025-09-19 06:56:00","VFR",16.7,16.1,100,4,NA,8,1019.4,"METAR KMBL 191056Z AUTO 10004KT 8SM FEW007 OVC085 17/16 A3010 RMK AO2 SLP193 T01670161",2025-09-19 11:48:09.122509,2025-09-19 07:48:09.122556
"KLZU","Lawrenceville/Gwinnett Cnty, GA, US",2025-09-19 10:56:00,"2025-09-19 06:56:00","VFR",17.8,17.8,0,0,NA,9,1018.4,"METAR KLZU 191056Z 00000KT 9SM CLR 18/18 A3007 RMK AO2 SLP185 T01780178",2025-09-19 11:48:09.129251,2025-09-19 07:48:09.129294
"KLSV","Nellis AFB, NV, US",2025-09-19 10:55:00,"2025-09-19 03:55:00","VFR",20.3,18.4,70,3,NA,NA,1012.6,"METAR KLSV 191055Z 07003KT 10SM FEW150 20/18 A2990 RMK AO2A SLPNO T02030184 $",2025-09-19 11:48:09.136075,2025-09-19 07:48:09.136118
"KMCF","Tampa/MacDill AFB, FL, US",2025-09-19 10:55:00,"2025-09-19 06:55:00","VFR",21.6,20.4,0,0,NA,NA,1015.3,"METAR KMCF 191055Z AUTO 00000KT 10SM CLR 22/20 A2998 RMK AO2 SLP155 T02160204",2025-09-19 11:48:09.142884,2025-09-19 07:48:09.142965
"KLTS","Altus AFB, OK, US",2025-09-19 10:55:00,"2025-09-19 05:55:00","VFR",18.6,16,30,8,NA,NA,1016,"METAR KLTS 191055Z 03008KT 10SM CLR 19/16 A3000 RMK AO2A SLP142 T01860160 $",2025-09-19 11:48:09.149891,2025-09-19 07:48:09.149936
"KLWT","Lewistown Muni, MT, US",2025-09-19 10:54:00,"2025-09-19 04:54:00","VFR",7.2,5.6,130,7,NA,NA,1018,"METAR KLWT 191054Z AUTO 13007KT 10SM CLR 07/06 A3006 RMK AO2 SLP157 T00720056",2025-09-19 11:48:09.156914,2025-09-19 07:48:09.156962
"KMEM","Memphis Intl, TN, US",2025-09-19 10:54:00,"2025-09-19 05:54:00","VFR",22.8,17.8,210,3,NA,NA,1015.7,"METAR KMEM 191054Z 21003KT 10SM SCT250 23/18 A2999 RMK AO2 SLP151 T02280178 $",2025-09-19 11:48:09.16396,2025-09-19 07:48:09.164006
"KLYH","Lynchburg/Glenn Fld, VA, US",2025-09-19 10:54:00,"2025-09-19 06:54:00","VFR",12.8,12.8,0,0,NA,NA,1018,"METAR KLYH 191054Z 00000KT 10SM CLR 13/13 A3006 RMK AO2 SLP172 T01280128",2025-09-19 11:48:09.170906,2025-09-19 07:48:09.170951
"KLWM","Lawrence Muni, MA, US",2025-09-19 10:54:00,"2025-09-19 06:54:00","VFR",15.6,13.3,200,3,NA,NA,1013.3,"METAR KLWM 191054Z 20003KT 10SM CLR 16/13 A2992 RMK AO2 SLP132 T01560133",2025-09-19 11:48:09.190993,2025-09-19 07:48:09.191038
"KMCO","Orlando Intl, FL, US",2025-09-19 10:53:00,"2025-09-19 06:53:00","VFR",22.2,21.1,360,5,NA,NA,1015.3,"METAR KMCO 191053Z 36005KT 10SM FEW040 FEW300 22/21 A2998 RMK AO2 SLP151 T02220211",2025-09-19 11:48:09.198107,2025-09-19 07:48:09.198154
"KMCK","McCook Muni, NE, US",2025-09-19 10:53:00,"2025-09-19 05:53:00","VFR",10.6,10,320,3,NA,6,1018,"METAR KMCK 191053Z AUTO 32003KT 6SM BR CLR 11/10 A3006 RMK AO2 SLP170 T01060100",2025-09-19 11:48:09.205024,2025-09-19 07:48:09.205067
"KLVM","Livingston/Mission Fld, MT, US",2025-09-19 10:53:00,"2025-09-19 04:53:00","VFR",5,4.4,200,3,NA,NA,1019.7,"METAR KLVM 191053Z AUTO 20003KT 10SM CLR 05/04 A3011 RMK AO2 SLP170 T00500044",2025-09-19 11:48:09.211975,2025-09-19 07:48:09.212019
"KLVK","Livermore Muni, CA, US",2025-09-19 10:53:00,"2025-09-19 03:53:00","VFR",16.1,13.9,280,4,NA,NA,1010.9,"METAR KLVK 191053Z AUTO 28004KT 10SM OVC100 16/14 A2985 RMK AO2 SLP105 T01610139",2025-09-19 11:48:09.219054,2025-09-19 07:48:09.219102
"KMAE","Madera Muni, CA, US",2025-09-19 10:53:00,"2025-09-19 03:53:00","VFR",18.9,17.8,60,5,NA,NA,1011.9,"METAR KMAE 191053Z AUTO 06005KT 10SM OVC050 19/18 A2988 RMK AO2 SLP114 T01890178",2025-09-19 11:48:09.226238,2025-09-19 07:48:09.226284
"KMFE","McAllen/Miller Intl, TX, US",2025-09-19 10:53:00,"2025-09-19 05:53:00","VFR",26.1,23.9,100,5,NA,NA,1014.3,"METAR KMFE 191053Z 10005KT 10SM SCT075 26/24 A2995 RMK AO2 SLP140 T02610239 $",2025-09-19 11:48:09.233277,2025-09-19 07:48:09.233323
"KMFR","Medford/Rogue Valley Intl, OR, US",2025-09-19 10:53:00,"2025-09-19 03:53:00","VFR",18.3,12.2,170,4,NA,NA,1012.6,"METAR KMFR 191053Z AUTO 17004KT 10SM CLR 18/12 A2990 RMK AO2 SLP113 T01830122 $",2025-09-19 11:48:09.240362,2025-09-19 07:48:09.240409
"KLWV","Lawrenceville-Vincennes Intl, IL, US",2025-09-19 10:53:00,"2025-09-19 05:53:00","VFR",14.4,13.3,100,7,NA,NA,1017.4,"METAR KLWV 191053Z AUTO 10007KT 10SM CLR 14/13 A3004 RMK AO2 SLP169 T01440133",2025-09-19 11:48:09.247428,2025-09-19 07:48:09.247488
"KLVJ","Houston/Pearland Rgnl, TX, US",2025-09-19 10:53:00,"2025-09-19 10:53:00","VFR",22.8,20.6,0,0,NA,9,1016,"METAR KLVJ 191053Z AUTO 00000KT 9SM CLR 23/21 A3000 RMK AO2 SLP158 T02280206",2025-09-19 11:48:09.254442,2025-09-19 07:48:09.254502
"KMAF","Midland Intl, TX, US",2025-09-19 10:53:00,"2025-09-19 05:53:00","VFR",21.1,13.9,160,5,NA,NA,1018.4,"METAR KMAF 191053Z 16005KT 10SM CLR 21/14 A3007 RMK AO2 SLP135 T02110139",2025-09-19 11:48:09.261644,2025-09-19 07:48:09.261689
"KMCB","McComb/Lewis Fld, MS, US",2025-09-19 10:53:00,"2025-09-19 05:53:00","VFR",18.3,17.2,0,0,NA,NA,1017.7,"METAR KMCB 191053Z AUTO 00000KT 10SM CLR 18/17 A3005 RMK AO2 SLP168 T01830172",2025-09-19 11:48:09.268721,2025-09-19 07:48:09.268768
"KMCN","Macon/Middle Georgia Rgnl, GA, US",2025-09-19 10:53:00,"2025-09-19 06:53:00","MVFR",17.8,17.8,0,0,NA,5,1016.7,"METAR KMCN 191053Z AUTO 00000KT 5SM BR CLR 18/18 A3002 RMK AO2 SLP161 T01780178 $",2025-09-19 11:48:09.275956,2025-09-19 07:48:09.276
"KLXV","Leadville/Lake Cnty, CO, US",2025-09-19 10:53:00,"2025-09-19 04:53:00","VFR",-2.2,-5,60,4,NA,NA,1030.6,"METAR KLXV 191053Z AUTO 06004KT 10SM CLR M02/M05 A3043 RMK AO2 SLP183 T10221050",2025-09-19 11:48:09.28319,2025-09-19 07:48:09.283237
"KMAI","Marianna Muni, FL, US",2025-09-19 10:53:00,"2025-09-19 10:53:00","VFR",20.6,18.3,0,0,NA,NA,1016.3,"METAR KMAI 191053Z AUTO 00000KT 10SM CLR 21/18 A3001 RMK AO2 SLP159 T02060183",2025-09-19 11:48:09.290248,2025-09-19 07:48:09.290298
"KMDW","Chicago/Midway Intl, IL, US",2025-09-19 10:53:00,"2025-09-19 05:53:00","VFR",21.1,16.1,130,3,NA,NA,1017,"METAR KMDW 191053Z 13003KT 10SM SCT140 21/16 A3003 RMK AO2 SLP161 T02110161 $",2025-09-19 11:48:09.297293,2025-09-19 07:48:09.297341
"KLUK","Cincinnati/Lunken Fld, OH, US",2025-09-19 10:53:00,"2025-09-19 06:53:00","VFR",14.4,13.9,0,0,NA,6,1018.4,"METAR KLUK 191053Z 00000KT 6SM BR CLR 14/14 A3007 RMK AO2 SLP178 T01440139",2025-09-19 11:48:09.304209,2025-09-19 07:48:09.304253
"KLSE","La Crosse Muni, WI, US",2025-09-19 10:53:00,"2025-09-19 05:53:00","VFR",18.9,17.8,110,6,NA,NA,1017,"METAR KLSE 191053Z 11006KT 10SM -RA FEW016 SCT075 OVC110 19/18 A3003 RMK AO2 RAB40 SLP162 P0000 T01890178",2025-09-19 11:48:09.311307,2025-09-19 07:48:09.311356
"KMCE","Merced/Macready Fld, CA, US",2025-09-19 10:53:00,"2025-09-19 03:53:00","VFR",18.3,17.2,130,3,NA,9,1010.9,"METAR KMCE 191053Z AUTO 13003KT 9SM CLR 18/17 A2985 RMK AO2 SLP109 T01830172",2025-09-19 11:48:09.318316,2025-09-19 07:48:09.318361
"KMBS","Saginaw Intl, MI, US",2025-09-19 10:53:00,"2025-09-19 06:53:00","VFR",17.8,16.7,90,3,NA,NA,1020.7,"METAR KMBS 191053Z 09003KT 10SM FEW026 OVC033 18/17 A3014 RMK AO2 SLP203 T01780167",2025-09-19 11:48:09.339331,2025-09-19 07:48:09.339375
"KLXT","Lee's Summit Muni, MO, US",2025-09-19 10:53:00,"2025-09-19 10:53:00","VFR",18.3,16.7,220,4,NA,NA,1016.3,"METAR KLXT 191053Z AUTO 22004KT 10SM CLR 18/17 A3001 RMK AO2 SLP157 T01830167 $",2025-09-19 11:48:09.346273,2025-09-19 07:48:09.346318
"KMFD","Mansfield/Lahm Rgnl, OH, US",2025-09-19 10:52:00,"2025-09-19 06:52:00","VFR",13.9,12.2,180,3,NA,NA,1019.4,"METAR KMFD 191052Z 18003KT 10SM CLR 14/12 A3010 RMK AO2 SLP186 T01390122",2025-09-19 11:48:09.353193,2025-09-19 07:48:09.353238
"KMDH","Murphysboro/S Illinois Arpt, IL, US",2025-09-19 10:52:00,"2025-09-19 05:52:00","VFR",17.2,16.1,0,0,NA,NA,1016.3,"METAR KMDH 191052Z AUTO 00000KT 10SM CLR 17/16 A3001 RMK AO2 SLP159 T01720161",2025-09-19 11:48:09.360042,2025-09-19 07:48:09.360087
"KMFV","Melfa/Accomack Cnty, VA, US",2025-09-19 10:35:00,"2025-09-19 06:35:00","LIFR",13.9,13.4,270,4,NA,0.5,1016.7,"METAR KMFV 191035Z AUTO 27004KT 1/2SM FG OVC003 14/13 A3002 RMK AO2 T01390134",2025-09-19 11:48:09.366883,2025-09-19 07:48:09.366927
"KMWA","Marion Rgnl, IL, US",2025-09-19 11:47:00,"2025-09-19 06:47:00","VFR",19,16,120,5,NA,NA,1016.7,"METAR KMWA 191147Z 12005KT 10SM SCT200 19/16 A3002",2025-09-19 11:48:10.730298,2025-09-19 07:48:10.730342
"KMRN","Morganton/Foothills Rgnl, NC, US",2025-09-19 11:45:00,"2025-09-19 07:45:00","VFR",14.5,14.3,0,0,NA,7,1020.7,"METAR KMRN 191145Z AUTO 00000KT 7SM CLR 15/14 A3014 RMK AO2 T01450143",2025-09-19 11:48:10.737206,2025-09-19 07:48:10.737248
"KMMU","Morristown Muni, NJ, US",2025-09-19 11:45:00,"2025-09-19 07:45:00","VFR",15,15,0,0,NA,NA,1016,"METAR KMMU 191145Z 00000KT 10SM SKC 15/15 A3000",2025-09-19 11:48:10.743922,2025-09-19 07:48:10.743964
"KMKE","Milwaukee/Mitchell Intl, WI, US",2025-09-19 11:41:00,"2025-09-19 06:41:00","LIFR",20,19.4,40,4,NA,6,1018,"SPECI KMKE 191141Z 04004KT 6SM BR BKN003 BKN130 20/19 A3006 RMK AO2 T02000194",2025-09-19 11:48:10.750376,2025-09-19 07:48:10.750418
"KMLC","McAlester Rgnl, OK, US",2025-09-19 11:41:00,"2025-09-19 06:41:00","IFR",20,18.9,320,9,21,1.75,1019,"SPECI KMLC 191141Z AUTO 32009G21KT 1 3/4SM +TSRA BR FEW029 BKN041 OVC050 20/19 A3009 RMK AO2 PK WND 28026/1127 LTG DSNT ALQDS RAB21 TSB16 T02000189 PNO $",2025-09-19 11:48:10.757007,2025-09-19 07:48:10.757052
"KMYR","Myrtle Beach Intl, SC, US",2025-09-19 11:40:00,"2025-09-19 07:40:00","LIFR",21,21,0,0,NA,1.75,1017.7,"SPECI KMYR 191140Z 00000KT 1 3/4SM BR OVC003 21/21 A3005 RMK AO2 VIS 3/4V4 $",2025-09-19 11:48:10.763652,2025-09-19 07:48:10.763696
"KMIV","Millville Muni, NJ, US",2025-09-19 11:37:00,"2025-09-19 07:37:00","LIFR",16.1,16.1,0,0,NA,NA,1016,"SPECI KMIV 191137Z AUTO 00000KT 10SM BKN001 16/16 A3000 RMK AO2 T01610161 $",2025-09-19 11:48:10.770445,2025-09-19 07:48:10.770512
"KMLI","Moline/Quad City Intl, IL, US",2025-09-19 11:37:00,"2025-09-19 06:37:00","VFR",18.9,17.8,70,9,NA,NA,1016,"SPECI KMLI 191137Z AUTO 07009KT 10SM FEW050 BKN090 BKN110 19/18 A3000 RMK AO2 RAB1054E28 TSB06E31 P0011 T01890178",2025-09-19 11:48:10.777185,2025-09-19 07:48:10.777231
"KMVE","Montevideo/Chippewa Cnty, MN, US",2025-09-19 11:35:00,"2025-09-19 06:35:00","MVFR",17,17,0,0,NA,5,1013.6,"METAR KMVE 191135Z AUTO 00000KT 5SM BR SCT065 BKN090 OVC110 17/17 A2993 RMK AO2",2025-09-19 11:48:10.797235,2025-09-19 07:48:10.797279
"KMWM","Windom Muni, MN, US",2025-09-19 11:35:00,"2025-09-19 11:35:00","VFR",18,17,0,0,NA,NA,1013.6,"METAR KMWM 191135Z AUTO 00000KT 10SM SCT010 BKN035 OVC100 18/17 A2993 RMK AO2",2025-09-19 11:48:10.804027,2025-09-19 07:48:10.804069
"KMQB","Macomb Muni, IL, US",2025-09-19 11:35:00,"2025-09-19 06:35:00","VFR",16.1,16,0,0,NA,NA,1017.7,"METAR KMQB 191135Z AUTO 00000KT 10SM SCT100 16/16 A3005 RMK AO2 T01610160",2025-09-19 11:48:10.810713,2025-09-19 07:48:10.81077
"KMKN","Comanche Cnty, TX, US",2025-09-19 11:35:00,"2025-09-19 11:35:00","VFR",23,17.1,220,5,NA,NA,1017.4,"METAR KMKN 191135Z AUTO 22005KT 10SM CLR 23/17 A3004 RMK AO2 T02300171",2025-09-19 11:48:10.817522,2025-09-19 07:48:10.817569
"KMPR","McPherson Arpt, KS, US",2025-09-19 11:35:00,"2025-09-19 11:35:00","VFR",14.3,13.4,0,0,NA,NA,1018,"METAR KMPR 191135Z AUTO 00000KT 10SM CLR 14/13 A3006 RMK AO2 T01430134",2025-09-19 11:48:10.824258,2025-09-19 07:48:10.824301
"KMXO","Monticello Rgnl, IA, US",2025-09-19 11:35:00,"2025-09-19 11:35:00","MVFR",18,18,250,3,NA,5,1016,"METAR KMXO 191135Z AUTO 25003KT 5SM BR FEW029 SCT045 BKN060 18/18 A3000 RMK AO2",2025-09-19 11:48:10.831006,2025-09-19 07:48:10.831052
"KMNZ","Hamilton Muni, TX, US",2025-09-19 11:35:00,"2025-09-19 11:35:00","VFR",20,19,210,8,NA,9,1017,"METAR KMNZ 191135Z AUTO 21008KT 9SM CLR 20/19 A3003 RMK AO2",2025-09-19 11:48:10.837782,2025-09-19 07:48:10.837826
"KMZZ","Marion Muni, IN, US",2025-09-19 11:35:00,"2025-09-19 07:35:00","VFR",13,11,0,0,NA,7,1018.7,"METAR KMZZ 191135Z AUTO 00000KT 7SM CLR 13/11 A3008 RMK AO2 T01300110",2025-09-19 11:48:10.844314,2025-09-19 07:48:10.844356
"KMQJ","Indianapolis Rgnl, IN, US",2025-09-19 11:35:00,"2025-09-19 11:35:00","VFR",12.5,12.5,0,0,NA,8,1018.4,"METAR KMQJ 191135Z AUTO 00000KT 8SM CLR 12/12 A3007 RMK AO2 T01250125 $",2025-09-19 11:48:10.850839,2025-09-19 07:48:10.850881
"KMJD","Picayune Muni, MS, US",2025-09-19 11:35:00,"2025-09-19 11:35:00","VFR",19,19,0,0,NA,8,1016.7,"METAR KMJD 191135Z AUTO 00000KT 8SM CLR 19/19 A3002 RMK AO2",2025-09-19 11:48:10.857307,2025-09-19 07:48:10.85735
"KMUT","Muscatine Muni, IA, US",2025-09-19 11:35:00,"2025-09-19 06:35:00","VFR",18,18,0,0,NA,7,1016.7,"METAR KMUT 191135Z AUTO 00000KT 7SM CLR 18/18 A3002 RMK AO2",2025-09-19 11:48:10.863864,2025-09-19 07:48:10.863907
"KMZJ","Marana/Pinal Aprk, AZ, US",2025-09-19 11:35:00,"2025-09-19 04:35:00","VFR",24,19,150,4,NA,NA,1013.6,"METAR KMZJ 191135Z AUTO 15004KT 10SM FEW120 24/19 A2993 RMK AO2",2025-09-19 11:48:10.870376,2025-09-19 07:48:10.87042
"KMWO","Middletown/Hook Fld, OH, US",2025-09-19 11:35:00,"2025-09-19 07:35:00","VFR",12,12,350,3,NA,7,1018.7,"METAR KMWO 191135Z AUTO 35003KT 7SM BR CLR 12/12 A3008 RMK AO2",2025-09-19 11:48:10.876775,2025-09-19 07:48:10.876818
"KMLJ","Milledgeville/Baldwin Cnty, GA, US",2025-09-19 11:35:00,"2025-09-19 11:35:00","MVFR",20,20,270,4,NA,5,1017,"METAR KMLJ 191135Z AUTO 27004KT 5SM BR CLR 20/20 A3003 RMK AO2",2025-09-19 11:48:10.883159,2025-09-19 07:48:10.883201
"KMHP","Metter Muni, GA, US",2025-09-19 11:35:00,"2025-09-19 11:35:00","VFR",20.3,19.4,0,0,NA,NA,1017.4,"METAR KMHP 191135Z AUTO 00000KT 10SM OVC095 20/19 A3004 RMK AO2 T02030194",2025-09-19 11:48:10.889694,2025-09-19 07:48:10.889741
"KMYJ","Mexico Mem, MO, US",2025-09-19 11:35:00,"2025-09-19 11:35:00","LIFR",16,16,140,4,NA,3,1017.4,"METAR KMYJ 191135Z AUTO 14004KT 3SM BR OVC001 16/16 A3004 RMK AO2",2025-09-19 11:48:10.896324,2025-09-19 07:48:10.896368
"KMWK","Mt Airy/Surry Cnty, NC, US",2025-09-19 11:35:00,"2025-09-19 11:35:00","VFR",14.5,14.2,0,0,NA,NA,1019.7,"METAR KMWK 191135Z AUTO 00000KT 10SM CLR 15/14 A3011 RMK AO2 T01450142",2025-09-19 11:48:10.902916,2025-09-19 07:48:10.902963
"KMOR","Morristown/Moore Arpt, TN, US",2025-09-19 11:35:00,"2025-09-19 11:35:00","VFR",16,16,100,3,NA,NA,1019.4,"METAR KMOR 191135Z AUTO 10003KT 10SM CLR 16/16 A3010 RMK A01",2025-09-19 11:48:10.909772,2025-09-19 07:48:10.909819
"KMMI","Athens/McMinn Cnty, TN, US",2025-09-19 11:35:00,"2025-09-19 07:35:00","VFR",14,14,0,0,NA,9,1019.4,"METAR KMMI 191135Z AUTO 00000KT 9SM CLR 14/14 A3010 RMK A01",2025-09-19 11:48:10.916442,2025-09-19 07:48:10.916505
"KMJQ","Jackson Muni, MN, US",2025-09-19 11:35:00,"2025-09-19 11:35:00","IFR",17,17,150,3,NA,NA,1014,"METAR KMJQ 191135Z AUTO 15003KT 10SM OVC007 17/17 A2994 RMK AO2",2025-09-19 11:48:10.93591,2025-09-19 07:48:10.935954
"KMQI","Manteo/Dare Cnty, NC, US",2025-09-19 11:35:00,"2025-09-19 07:35:00","VFR",17.9,17.6,0,0,NA,7,1018,"METAR KMQI 191135Z AUTO 00000KT 7SM CLR 18/18 A3006 RMK AO2 T01790176",2025-09-19 11:48:10.94264,2025-09-19 07:48:10.942683
"KMYZ","Marysville Muni, KS, US",2025-09-19 11:35:00,"2025-09-19 11:35:00","VFR",13,12,0,0,NA,NA,1017.4,"METAR KMYZ 191135Z AUTO 00000KT 10SM CLR 13/12 A3004 RMK AO2",2025-09-19 11:48:10.949511,2025-09-19 07:48:10.949558
"KMNI","Manning/Cooper Rgnl, SC, US",2025-09-19 11:35:00,"2025-09-19 11:35:00","VFR",18,17,0,0,NA,7,1017.7,"METAR KMNI 191135Z AUTO 00000KT 7SM CLR 18/17 A3005 RMK AO2",2025-09-19 11:48:10.956114,2025-09-19 07:48:10.956156
"KMKJ","Marion/Mountain Empire Arpt, VA, US",2025-09-19 11:35:00,"2025-09-19 11:35:00","VFR",9.6,8.4,0,0,NA,7,1022.8,"METAR KMKJ 191135Z AUTO 00000KT 7SM SCT050 10/08 A3020 RMK AO2 T00960084",2025-09-19 11:48:10.962791,2025-09-19 07:48:10.96284
"KMZH","Moose Lake/Carlton C, MN, US",2025-09-19 11:35:00,"2025-09-19 11:35:00","LIFR",14,13,60,6,NA,2,1018,"METAR KMZH 191135Z AUTO 06006KT 2SM BR OVC003 14/13 A3006 RMK AO2",2025-09-19 11:48:10.96951,2025-09-19 07:48:10.969558
"KMHR","Sacramento/Mather Fld, CA, US",2025-09-19 11:35:00,"2025-09-19 04:35:00","VFR",22,18,140,4,NA,NA,1010.6,"METAR KMHR 191135Z AUTO 14004KT 10SM FEW070 OVC100 22/18 A2984 RMK AO2",2025-09-19 11:48:10.976237,2025-09-19 07:48:10.976281
"KMOX","Morris Muni, MN, US",2025-09-19 11:35:00,"2025-09-19 11:35:00","IFR",18,18,70,5,NA,5,1013.3,"METAR KMOX 191135Z AUTO 07005KT 5SM -RA BR BKN005 OVC009 18/18 A2992 RMK AO2",2025-09-19 11:48:10.982807,2025-09-19 07:48:10.982851
"KMOP","Mount Pleasant Muni, MI, US",2025-09-19 11:35:00,"2025-09-19 11:35:00","IFR",18,18,50,3,NA,5,1020.4,"METAR KMOP 191135Z AUTO 05003KT 5SM BR SCT005 BKN008 OVC013 18/18 A3013 RMK AO2 T01800180",2025-09-19 11:48:10.989332,2025-09-19 07:48:10.989374
"KMGR","Moultrie Muni, GA, US",2025-09-19 11:35:00,"2025-09-19 07:35:00","VFR",19.8,19.6,0,0,NA,9,1017,"METAR KMGR 191135Z AUTO 00000KT 9SM SCT130 20/20 A3003 RMK AO2 T01980196 $",2025-09-19 11:48:10.995826,2025-09-19 07:48:10.995868
"KMQS","Coatesville/Chester Cnty, PA, US",2025-09-19 11:35:00,"2025-09-19 07:35:00","VFR",19,19,330,5,NA,NA,1017,"METAR KMQS 191135Z AUTO 33005KT 10SM CLR 19/19 A3003 RMK AO2",2025-09-19 11:48:11.002672,2025-09-19 07:48:11.002717
"KMPE","Philadelphia Muni, MS, US",2025-09-19 11:35:00,"2025-09-19 11:35:00","MVFR",NA,NA,0,0,NA,5,1016.7,"METAR KMPE 191135Z AUTO 00000KT 5SM CLR A3002 RMK AO2",2025-09-19 11:48:11.009329,2025-09-19 07:48:11.009372
"KMHL","Marshall Muni, MO, US",2025-09-19 11:35:00,"2025-09-19 06:35:00","MVFR",16,16,0,0,NA,4,1016.7,"METAR KMHL 191135Z AUTO 00000KT 4SM BR CLR 16/16 A3002 RMK AO2",2025-09-19 11:48:11.016025,2025-09-19 07:48:11.016067
"KMIO","Miami Muni, OK, US",2025-09-19 11:35:00,"2025-09-19 11:35:00","LIFR",NA,NA,0,0,NA,0.25,1017,"METAR KMIO 191135Z AUTO 00000KT M1/4SM FZFG VV000 A3003 RMK A01",2025-09-19 11:48:11.02268,2025-09-19 07:48:11.022725
"KMGN","Harbor Springs Arpt, MI, US",2025-09-19 11:35:00,"2025-09-19 11:35:00","MVFR",15.5,14,70,6,NA,NA,1021.4,"METAR KMGN 191135Z AUTO 07006KT 10SM OVC012 15/13 A3016 RMK AO2 T01550140",2025-09-19 11:48:11.029335,2025-09-19 07:48:11.029379
"KMGG","Maple Lake Muni, MN, US",2025-09-19 11:35:00,"2025-09-19 11:35:00","IFR",19.5,17.8,120,3,NA,7,1015.3,"METAR KMGG 191135Z AUTO 12003KT 7SM BKN007 OVC011 20/18 A2998 RMK AO2 T01950178",2025-09-19 11:48:11.035912,2025-09-19 07:48:11.035954
"KMNV","Madisonville/Monroe Cnty, TN, US",2025-09-19 11:35:00,"2025-09-19 11:35:00","MVFR",15,15,0,0,NA,3,1019,"METAR KMNV 191135Z AUTO 00000KT 3SM BR CLR 15/15 A3009 RMK A01",2025-09-19 11:48:11.042633,2025-09-19 07:48:11.042677
"KMPZ","Mount Pleasant Muni, IA, US",2025-09-19 11:35:00,"2025-09-19 06:35:00","MVFR",16,15,90,4,NA,5,1016.3,"METAR KMPZ 191135Z AUTO 09004KT 5SM BR CLR 16/15 A3001 RMK AO2",2025-09-19 11:48:11.049366,2025-09-19 07:48:11.04941
"KMTV","Martinsville/Blue Ridge Arpt, VA, US",2025-09-19 11:35:00,"2025-09-19 11:35:00","VFR",11.5,10.2,0,0,NA,7,1019.4,"METAR KMTV 191135Z AUTO 00000KT 7SM CLR 12/10 A3010 RMK AO2 T01150102",2025-09-19 11:48:11.05611,2025-09-19 07:48:11.056153
"KMKS","Moncks Corner/Berkeley Cnty, SC, US",2025-09-19 11:35:00,"2025-09-19 11:35:00","LIFR",19,7,0,0,NA,7,1017.4,"METAR KMKS 191135Z AUTO 00000KT 7SM BKN002 19/07 A3004 RMK AO2",2025-09-19 11:48:11.075983,2025-09-19 07:48:11.076025
"KMLE","Omaha/Millard Arpt, NE, US",2025-09-19 11:35:00,"2025-09-19 11:35:00","VFR",15,13.5,290,4,NA,NA,1016,"METAR KMLE 191135Z AUTO 29004KT 10SM CLR 15/14 A3000 RMK AO2 T01500135",2025-09-19 11:48:11.082974,2025-09-19 07:48:11.083021
"KN03","Cortland/Cortland Cnty, NY, US",2025-09-19 11:35:00,"2025-09-19 07:35:00","MVFR",15,13,0,0,NA,NA,1018.7,"METAR KN03 191135Z AUTO 00000KT 10SM OVC019 15/13 A3008 RMK AO2",2025-09-19 11:48:11.090071,2025-09-19 07:48:11.090116
"KMWC","Milwaukee/Timmerman Arpt, WI, US",2025-09-19 11:35:00,"2025-09-19 06:35:00","LIFR",18,18,0,0,NA,4,1019,"METAR KMWC 191135Z AUTO 00000KT 4SM BR OVC003 18/18 A3009 RMK AO2",2025-09-19 11:48:11.096787,2025-09-19 07:48:11.096829
"KMMH","Mammoth/Yosemite Arpt, CA, US",2025-09-19 11:35:00,"2025-09-19 04:35:00","VFR",9,6,0,0,NA,NA,1020.4,"METAR KMMH 191135Z AUTO 00000KT 10SM FEW031 BKN075 OVC090 09/06 A3013 RMK AO2",2025-09-19 11:48:11.103757,2025-09-19 07:48:11.103802
"KMHK","Manhattan Rgnl, KS, US",2025-09-19 11:34:00,"2025-09-19 06:34:00","LIFR",13.3,13.3,0,0,NA,0.25,1017.4,"SPECI KMHK 191134Z 00000KT 1/4SM FG VV002 13/13 A3004 RMK AO2 T01330133 $",2025-09-19 11:48:11.110597,2025-09-19 07:48:11.110641
"KMML","Marshall Muni, MN, US",2025-09-19 11:34:00,"2025-09-19 06:34:00","LIFR",18,17,100,3,NA,7,1013.3,"SPECI KMML 191134Z AUTO 10003KT 7SM BKN003 OVC050 18/17 A2992 RMK AO2 RAE16 P0000",2025-09-19 11:48:11.117378,2025-09-19 07:48:11.11742
"KMRT","Marysville/Union Cnty, OH, US",2025-09-19 11:33:00,"2025-09-19 11:33:00","VFR",10,10,0,0,NA,NA,1019.4,"METAR KMRT 191133Z 00000KT 10SM CLR 10/10 A3010 RMK AO2",2025-09-19 11:48:11.124301,2025-09-19 07:48:11.124347
"KMKO","Muskogee/Davis Fld, OK, US",2025-09-19 11:31:00,"2025-09-19 11:31:00","VFR",19.4,18.3,0,0,NA,7,1018,"SPECI KMKO 191131Z AUTO 00000KT 7SM VCTS BKN070 BKN080 19/18 A3006 RMK AO2 LTG DSNT ALQDS T01940183",2025-09-19 11:48:11.130969,2025-09-19 07:48:11.131012
"KMRC","Columbia/Maury Cnty, TN, US",2025-09-19 11:30:00,"2025-09-19 06:30:00","VFR",16,16,0,0,NA,9,1017,"METAR KMRC 191130Z AUTO 00000KT 9SM CLR 16/16 A3003 RMK A01",2025-09-19 11:48:11.137616,2025-09-19 07:48:11.137661
"KMLS","Miles City/Wiley Fld, MT, US",2025-09-19 11:30:00,"2025-09-19 05:30:00","LIFR",10,10,40,5,NA,1.75,1018.4,"SPECI KMLS 191130Z AUTO 04005KT 1 3/4SM BR BKN003 10/10 A3007 RMK AO2 T01000100",2025-09-19 11:48:11.144276,2025-09-19 07:48:11.144318
"KMIB","Minot AFB, ND, US",2025-09-19 11:27:00,"2025-09-19 06:27:00","LIFR",13,12,20,11,NA,3,1017.4,"SPECI KMIB 191127Z 02011KT 3SM BR OVC003 13/12 A3004 RMK CIG 002 RWY30 SLP179",2025-09-19 11:48:11.150891,2025-09-19 07:48:11.150935
"KMPV","Montpelier/Knapp Arpt, VT, US",2025-09-19 11:26:00,"2025-09-19 07:26:00","MVFR",13.3,9.4,310,9,NA,NA,1017.4,"SPECI KMPV 191126Z AUTO 31009KT 10SM BKN016 OVC021 13/09 A3004 RMK AO2 T01330094",2025-09-19 11:48:11.157603,2025-09-19 07:48:11.157649
"KMMT","Columbia/McEntire JNGB, SC, US",2025-09-19 11:25:00,"2025-09-19 07:25:00","MVFR",18,16,0,0,NA,4,1016.7,"SPECI KMMT 191125Z AUTO 00000KT 4SM BR CLR 18/16 A3002 RMK AO2 SLP167 $",2025-09-19 11:48:11.164196,2025-09-19 07:48:11.164238
"KMOT","Minot Intl, ND, US",2025-09-19 11:25:00,"2025-09-19 06:25:00","LIFR",12.2,11.7,340,7,NA,2,1018,"SPECI KMOT 191125Z AUTO 34007KT 2SM BR OVC003 12/12 A3006 RMK AO2 T01220117",2025-09-19 11:48:11.170963,2025-09-19 07:48:11.171005
"KMHV","Mojave Arpt, CA, US",2025-09-19 11:20:00,"2025-09-19 04:20:00","MVFR",18,17,40,7,NA,NA,1014.6,"METAR KMHV 191120Z AUTO 04007KT 10SM SCT024 BKN029 OVC042 18/17 A2996 RMK AO2",2025-09-19 11:48:11.177999,2025-09-19 07:48:11.178043
"KMSS","Massena Intl, NY, US",2025-09-19 11:18:00,"2025-09-19 07:18:00","MVFR",10.6,6.7,330,4,NA,NA,1018.7,"SPECI KMSS 191118Z AUTO 33004KT 10SM BKN026 11/07 A3008 RMK AO2 T01060067",2025-09-19 11:48:11.1849,2025-09-19 07:48:11.184947
"KMTW","Manitowoc Muni, WI, US",2025-09-19 11:18:00,"2025-09-19 06:18:00","IFR",17,17,30,4,NA,NA,1019.4,"SPECI KMTW 191118Z AUTO 03004KT 10SM BKN006 17/17 A3010 RMK AO2",2025-09-19 11:48:11.191764,2025-09-19 07:48:11.19181
"KMJX","Toms River/Miller Arpt, NJ, US",2025-09-19 11:11:00,"2025-09-19 07:11:00","MVFR",16,16,0,0,NA,4,1016,"SPECI KMJX 191111Z AUTO 00000KT 4SM BR SCT002 16/16 A3000 RMK AO2 $",2025-09-19 11:48:11.198441,2025-09-19 07:48:11.198511
"KMKT","Mankato Rgnl, MN, US",2025-09-19 11:07:00,"2025-09-19 11:07:00","VFR",18,18,140,7,NA,NA,1015,"SPECI KMKT 191107Z AUTO 14007KT 10SM FEW009 SCT036 18/18 A2997 RMK AO2",2025-09-19 11:48:11.218165,2025-09-19 07:48:11.218208
"KMRF","Marfa Muni, TX, US",2025-09-19 11:01:00,"2025-09-19 06:01:00",NA,16.1,14.4,50,3,NA,NA,1022.1,"METAR KMRF 191101Z AUTO 05003KT 10SM 16/14 A3018 RMK AO2 SLP155 T01610144 $",2025-09-19 11:48:11.224951,2025-09-19 07:48:11.224994
"KMLT","Millinocket Muni, ME, US",2025-09-19 11:00:00,"2025-09-19 11:00:00","MVFR",16.1,10.6,330,7,NA,NA,1011.3,"SPECI KMLT 191100Z AUTO 33007KT 10SM BKN030 OVC035 16/11 A2986 RMK AO2 T01610106",2025-09-19 11:48:11.231844,2025-09-19 07:48:11.231888
"KMRH","Beaufort/Smith Fld, NC, US",2025-09-19 10:58:00,"2025-09-19 10:58:00","VFR",17.2,17.2,0,0,NA,9,1017.4,"METAR KMRH 191058Z AUTO 00000KT 9SM CLR 17/17 A3004 RMK AO2 SLP172 T01720172",2025-09-19 11:48:11.238514,2025-09-19 07:48:11.238562
"KMNM","Menominee/Twin Cnty, MI, US",2025-09-19 10:57:00,"2025-09-19 05:57:00","VFR",13.9,13.9,350,4,NA,NA,1020.7,"METAR KMNM 191057Z AUTO 35004KT 10SM BKN090 14/14 A3014 RMK AO2 RAB08E23 SLP207 P0000 T01390139 $",2025-09-19 11:48:11.245319,2025-09-19 07:48:11.245363
"KMKY","Marco Island Arpt, FL, US",2025-09-19 10:56:00,"2025-09-19 06:56:00","VFR",23.3,22.8,10,5,NA,NA,NA,"METAR KMKY 191056Z AUTO 01005KT 10SM CLR 23/23 RMK AO2 SLPNO T02330228 PNO $",2025-09-19 11:48:11.252081,2025-09-19 07:48:11.252125
"KMVN","Mount Vernon Arpt, IL, US",2025-09-19 10:56:00,"2025-09-19 10:56:00","VFR",19.4,16.1,40,6,NA,NA,1017,"METAR KMVN 191056Z AUTO 04006KT 10SM CLR 19/16 A3003 RMK AO2 SLP167 T01940161 PNO $",2025-09-19 11:48:11.258778,2025-09-19 07:48:11.258827
"KMTC","Selfridge ANGB, MI, US",2025-09-19 10:56:00,"2025-09-19 06:56:00","VFR",18.3,17,10,4,NA,NA,1018.4,"METAR KMTC 191056Z 01004KT 10SM BKN100 18/17 A3007 RMK AO2A SLP185 T01830170 $",2025-09-19 11:48:11.265385,2025-09-19 07:48:11.265429
"KMOB","Mobile Rgnl, AL, US",2025-09-19 10:56:00,"2025-09-19 05:56:00","VFR",19.4,18.9,330,5,NA,NA,1017,"METAR KMOB 191056Z 33005KT 10SM FEW200 19/19 A3003 RMK AO2 SLP167 T01940189",2025-09-19 11:48:11.272187,2025-09-19 07:48:11.272231
"KMQY","Smyrna Arpt, TN, US",2025-09-19 10:56:00,"2025-09-19 05:56:00","VFR",16.1,NA,0,0,NA,NA,1018.4,"METAR KMQY 191056Z AUTO 00000KT 10SM CLR 16/ A3007 RMK AO2 SLP185 T0161",2025-09-19 11:48:11.279054,2025-09-19 07:48:11.279101
"KMKG","Muskegon Cnty Arpt, MI, US",2025-09-19 10:55:00,"2025-09-19 06:55:00","VFR",16.7,16.1,80,4,NA,NA,1019,"METAR KMKG 191055Z 08004KT 10SM BKN160 17/16 A3009 RMK AO2 SLP187 T01670161",2025-09-19 11:48:11.285785,2025-09-19 07:48:11.285838
"KMXF","Maxwell AFB, AL, US",2025-09-19 10:55:00,"2025-09-19 05:55:00","VFR",19.5,18.3,0,0,NA,9,1016,"METAR KMXF 191055Z AUTO 00000KT 9SM CLR 20/18 A3000 RMK AO2 SLP160 T01950183",2025-09-19 11:48:11.292446,2025-09-19 07:48:11.292508
"KMUI","Fort Indiantown Gap/Muir AAF, PA, US",2025-09-19 10:55:00,"2025-09-19 06:55:00","VFR",13,12.7,0,0,NA,NA,1016,"METAR KMUI 191055Z 00000KT 10SM CLR 13/13 A3000 RMK AO2A SLP160 T01300127",2025-09-19 11:48:11.299165,2025-09-19 07:48:11.299209
"KMGE","Marietta/Dobbins AFB, GA, US",2025-09-19 10:55:00,"2025-09-19 06:55:00","VFR",19.5,18,0,0,NA,NA,1017.4,"METAR KMGE 191055Z AUTO 00000KT 10SM CLR 20/18 A3004 RMK AO2 SLP163 T01950180 $",2025-09-19 11:48:11.305874,2025-09-19 07:48:11.305921
"KMUO","Mountain Home AFB, ID, US",2025-09-19 10:55:00,"2025-09-19 04:55:00","VFR",12.2,0.3,60,4,NA,7,1013.6,"METAR KMUO 191055Z AUTO 06004KT 7SM CLR 12/00 A2993 RMK AO2 SLP112 T01220003 $",2025-09-19 11:48:11.31254,2025-09-19 07:48:11.312584
"KMKC","Kansas City/Wheeler Downtown Arpt, MO, US",2025-09-19 10:54:00,"2025-09-19 05:54:00","VFR",17.8,17.8,220,3,NA,9,1015.7,"METAR KMKC 191054Z 22003KT 9SM CLR 18/18 A2999 RMK AO2 SLP152 T01780178",2025-09-19 11:48:11.319159,2025-09-19 07:48:11.319202
"KMVL","Morrisville-Stowe State Arpt, VT, US",2025-09-19 10:54:00,"2025-09-19 06:54:00","MVFR",13.3,8.9,0,0,NA,NA,1016.3,"METAR KMVL 191054Z AUTO 00000KT 10SM BKN029 OVC035 13/09 A3001 RMK AO2 SLP162 T01330089",2025-09-19 11:48:11.325915,2025-09-19 07:48:11.325958
"KMTP","Montauk Arpt, NY, US",2025-09-19 10:54:00,"2025-09-19 06:54:00",NA,20.6,17.8,280,4,NA,NA,1014,"METAR KMTP 191054Z AUTO 28004KT 21/18 A2994 RMK AO1 SLP138 T02060178",2025-09-19 11:48:11.332622,2025-09-19 07:48:11.332666
"KMGJ","Montgomery/Orange Cnty, NY, US",2025-09-19 10:54:00,"2025-09-19 06:54:00","VFR",11.7,10.6,230,3,NA,NA,1015.3,"METAR KMGJ 191054Z AUTO 23003KT 10SM CLR 12/11 A2998 RMK AO2 SLP151 T01170106 PNO $",2025-09-19 11:48:11.35204,2025-09-19 07:48:11.352112
"KMRY","Monterey Rgnl, CA, US",2025-09-19 10:54:00,"2025-09-19 03:54:00","LIFR",16.1,15,320,3,NA,5,1011.6,"METAR KMRY 191054Z AUTO 32003KT 5SM BR OVC004 16/15 A2987 RMK AO2 SLP126 T01610150",2025-09-19 11:48:11.359155,2025-09-19 07:48:11.359197
"KMHE","Mitchell Muni, SD, US",2025-09-19 10:53:00,"2025-09-19 05:53:00","IFR",15.6,15.6,270,4,NA,4,1013.3,"METAR KMHE 191053Z AUTO 27004KT 4SM -RA BR BKN007 OVC023 16/16 A2992 RMK AO2 RAB15 SLP129 P0000 T01560156",2025-09-19 11:48:11.365878,2025-09-19 07:48:11.365919
"KMOD","Modesto/Sham Fld, CA, US",2025-09-19 10:53:00,"2025-09-19 03:53:00","VFR",20.6,15.6,150,9,NA,NA,1010.2,"METAR KMOD 191053Z AUTO 15009KT 10SM SCT120 21/16 A2983 RMK AO2 SLP101 T02060156",2025-09-19 11:48:11.372427,2025-09-19 07:48:11.372489
"KMMK","Meriden/Markham Muni, CT, US",2025-09-19 10:53:00,"2025-09-19 10:53:00","VFR",13.3,12.8,0,0,NA,NA,1014.3,"METAR KMMK 191053Z AUTO 00000KT 10SM CLR 13/13 A2995 RMK AO2 SLP140 T01330128",2025-09-19 11:48:11.379071,2025-09-19 07:48:11.379116
"KMLB","Melbourne Intl, FL, US",2025-09-19 10:53:00,"2025-09-19 06:53:00","VFR",24.4,22.2,300,4,NA,NA,1014.3,"METAR KMLB 191053Z 30004KT 10SM FEW022 BKN033 BKN047 24/22 A2995 RMK AO2 RAB14E25 SLP142 P0000 T02440222",2025-09-19 11:48:11.385869,2025-09-19 07:48:11.385914
"KMIC","Minneapolis/Crystal Arpt, MN, US",2025-09-19 10:53:00,"2025-09-19 10:53:00","VFR",19.4,17.8,140,4,NA,NA,1015,"METAR KMIC 191053Z AUTO 14004KT 10SM BKN065 OVC100 19/18 A2997 RMK AO2 SLP145 T01940178",2025-09-19 11:48:11.392599,2025-09-19 07:48:11.392645
"KMWL","Mineral Wells Arpt, TX, US",2025-09-19 10:53:00,"2025-09-19 05:53:00","VFR",21.1,17.8,130,6,NA,NA,1015.7,"METAR KMWL 191053Z AUTO 13006KT 10SM CLR 21/18 A2999 RMK AO2 SLP142 T02110178",2025-09-19 11:48:11.399285,2025-09-19 07:48:11.399329
"KMTO","Mattoon/Coles Cnty, IL, US",2025-09-19 10:53:00,"2025-09-19 05:53:00","VFR",18.3,15,280,5,NA,NA,1017.4,"METAR KMTO 191053Z AUTO 28005KT 10SM CLR 18/15 A3004 RMK AO2 SLP166 T01830150",2025-09-19 11:48:11.406173,2025-09-19 07:48:11.406219
"KMGY","Dayton/Wright Brothers Arpt, OH, US",2025-09-19 10:53:00,"2025-09-19 06:53:00","VFR",14.4,12.2,50,4,NA,NA,1018,"METAR KMGY 191053Z AUTO 05004KT 10SM CLR 14/12 A3006 RMK AO2 SLP174 T01440122",2025-09-19 11:48:11.412992,2025-09-19 07:48:11.413036
"KMIA","Miami Intl, FL, US",2025-09-19 10:53:00,"2025-09-19 06:53:00","VFR",25.6,23.9,340,3,NA,NA,1013.3,"METAR KMIA 191053Z 34003KT 10SM FEW020 SCT250 26/24 A2992 RMK AO2 SLP132 T02560239 $",2025-09-19 11:48:11.419801,2025-09-19 07:48:11.419847
"KMGW","Morgantown Muni, WV, US",2025-09-19 10:53:00,"2025-09-19 06:53:00",NA,NA,NA,NA,NA,NA,NA,1019.4,"METAR KMGW 191053Z AUTO A3010 RMK AO2 SLPNO PWINO FZRANO $",2025-09-19 11:48:11.426518,2025-09-19 07:48:11.426566
"KMHT","Manchester Rgnl, NH, US",2025-09-19 10:53:00,"2025-09-19 06:53:00","VFR",13.9,11.7,330,3,NA,NA,1012.6,"METAR KMHT 191053Z 33003KT 10SM CLR 14/12 A2990 RMK AO2 SLP136 T01390117",2025-09-19 11:48:11.433329,2025-09-19 07:48:11.433373
"KMIW","Marshalltown Muni, IA, US",2025-09-19 10:53:00,"2025-09-19 10:53:00","VFR",17.2,16.1,130,5,NA,NA,1015.3,"METAR KMIW 191053Z AUTO 13005KT 10SM FEW031 SCT090 BKN110 17/16 A2998 RMK AO2 RAB39E47 SLP147 P0000 T01720161 $",2025-09-19 11:48:11.440262,2025-09-19 07:48:11.440305
"KMMV","McMinnville Muni, OR, US",2025-09-19 10:53:00,"2025-09-19 10:53:00","VFR",10.6,9.4,0,0,NA,NA,1014,"METAR KMMV 191053Z AUTO 00000KT 10SM CLR 11/09 A2994 RMK AO2 SLP136 T01060094",2025-09-19 11:48:11.447095,2025-09-19 07:48:11.447138
"KMSO","Missoula Intl, MT, US",2025-09-19 10:53:00,"2025-09-19 04:53:00","VFR",9.4,5,0,0,NA,NA,1017.4,"METAR KMSO 191053Z AUTO 00000KT 10SM CLR 09/05 A3004 RMK AO2 SLP155 T00940050",2025-09-19 11:48:11.454004,2025-09-19 07:48:11.454047
"KMSL","Muscle Shoals/NW Alabama Rgnl, AL, US",2025-09-19 10:53:00,"2025-09-19 05:53:00","VFR",20,17.8,0,0,NA,9,1017,"METAR KMSL 191053Z AUTO 00000KT 9SM FEW080 20/18 A3003 RMK AO2 SLP163 T02000178",2025-09-19 11:48:11.460729,2025-09-19 07:48:11.460772
"KMKL","Jackson/McKellar Rgnl, TN, US",2025-09-19 10:53:00,"2025-09-19 05:53:00","VFR",17.8,16.7,0,0,NA,9,1016.3,"METAR KMKL 191053Z AUTO 00000KT 9SM CLR 18/17 A3001 RMK AO1 SLP156 T01780167",2025-09-19 11:48:11.467538,2025-09-19 07:48:11.467585
"KMRB","Martinsburg/E West Virginia Rgnl, WV, US",2025-09-19 10:53:00,"2025-09-19 06:53:00","MVFR",12.2,12.2,0,0,NA,5,1017,"METAR KMRB 191053Z 00000KT 5SM BR CLR 12/12 A3003 RMK AO2 SLP168 T01220122",2025-09-19 11:48:11.474406,2025-09-19 07:48:11.474449
"KMLU","Monroe Rgnl, LA, US",2025-09-19 10:53:00,"2025-09-19 05:53:00","VFR",20.6,18.3,0,0,NA,NA,1017,"METAR KMLU 191053Z 00000KT 10SM CLR 21/18 A3003 RMK AO2 SLP166 T02060183",2025-09-19 11:48:11.494172,2025-09-19 07:48:11.494216
"KMYV","Marysville/Yuba Cnty, CA, US",2025-09-19 10:53:00,"2025-09-19 03:53:00","VFR",22.2,15,190,11,NA,NA,1009.9,"METAR KMYV 191053Z AUTO 19011KT 10SM OVC120 22/15 A2982 RMK AO2 SLP101 T02220150",2025-09-19 11:48:11.501202,2025-09-19 07:48:11.501247
"KMSY","New Orleans/Armstrong Intl, LA, US",2025-09-19 10:53:00,"2025-09-19 05:53:00","VFR",23.9,21.1,0,0,NA,NA,1016.7,"METAR KMSY 191053Z 00000KT 10SM FEW020 FEW250 24/21 A3002 RMK AO2 SLP168 T02390211",2025-09-19 11:48:11.508193,2025-09-19 07:48:11.508237
"KMYF","San Diego/Montgomery Arpt, CA, US",2025-09-19 10:53:00,"2025-09-19 03:53:00","VFR",20.6,18.3,310,5,NA,NA,1011.6,"METAR KMYF 191053Z AUTO 31005KT 10SM CLR 21/18 A2987 RMK AO2 SLP111 T02060183",2025-09-19 11:48:11.515079,2025-09-19 07:48:11.515123
"KMTH","Marathon Arpt, FL, US",2025-09-19 10:53:00,"2025-09-19 06:53:00","VFR",26.7,23.9,10,4,NA,NA,1013.3,"METAR KMTH 191053Z AUTO 01004KT 10SM CLR 27/24 A2992 RMK AO2 SLP130 T02670239 $",2025-09-19 11:48:11.52193,2025-09-19 07:48:11.521976
"KMPO","Mount Pocono Muni, PA, US",2025-09-19 10:53:00,"2025-09-19 06:53:00","VFR",12.8,10.6,300,6,NA,NA,1017.7,"METAR KMPO 191053Z AUTO 30006KT 10SM CLR 13/11 A3005 RMK AO2 SLP169 T01280106",2025-09-19 11:48:11.528975,2025-09-19 07:48:11.52902
"KMNN","Marion Muni, OH, US",2025-09-19 10:53:00,"2025-09-19 06:53:00","VFR",12.2,11.1,0,0,NA,NA,1019,"METAR KMNN 191053Z AUTO 00000KT 10SM CLR 12/11 A3009 RMK AO2 SLP186 T01220111",2025-09-19 11:48:11.536018,2025-09-19 07:48:11.536062
"KMVY","Marthas Vineyard Arpt, MA, US",2025-09-19 10:53:00,"2025-09-19 06:53:00","VFR",16.7,15,300,5,NA,NA,NA,"METAR KMVY 191053Z 30005KT 10SM CLR 17/15 RMK AO2 SLPNO T01670150 $",2025-09-19 11:48:11.54307,2025-09-19 07:48:11.543116
"KMGM","Montgomery Rgnl, AL, US",2025-09-19 10:53:00,"2025-09-19 05:53:00","VFR",18.3,17.8,0,0,NA,7,1017,"METAR KMGM 191053Z COR 00000KT 7SM CLR 18/18 A3003 RMK AO2 SLP165 T01830178",2025-09-19 11:48:11.549909,2025-09-19 07:48:11.549952
"KMSP","Minneapolis-St Paul Intl, MN, US",2025-09-19 10:53:00,"2025-09-19 05:53:00","VFR",19.4,17.2,150,7,NA,NA,1015.3,"METAR KMSP 191053Z 15007KT 130V230 10SM FEW045 SCT060 19/17 A2998 RMK AO2 SLP149 T01940172",2025-09-19 11:48:11.556861,2025-09-19 07:48:11.556906
"KMIE","Muncie/Johnson Fld, IN, US",2025-09-19 10:53:00,"2025-09-19 06:53:00","VFR",12.8,10.6,0,0,NA,NA,1018.4,"METAR KMIE 191053Z 00000KT 10SM CLR 13/11 A3007 RMK AO2 SLP173 T01280106",2025-09-19 11:48:11.563895,2025-09-19 07:48:11.563941
"KMSN","Madison/Dane Cnty Rgnl, WI, US",2025-09-19 10:53:00,"2025-09-19 05:53:00","IFR",17.8,17.2,360,5,NA,6,1018,"METAR KMSN 191053Z 36005KT 6SM BR BKN006 BKN110 18/17 A3006 RMK AO2 RAE07 SLP175 P0000 T01780172",2025-09-19 11:48:11.570812,2025-09-19 07:48:11.570855
"KMTJ","Montrose Rgnl, CO, US",2025-09-19 10:53:00,"2025-09-19 04:53:00","VFR",8.3,0,160,5,NA,NA,1022.8,"METAR KMTJ 191053Z AUTO 16005KT 10SM CLR 08/00 A3020 RMK AO2 SLP163 T00830000",2025-09-19 11:48:11.577789,2025-09-19 07:48:11.577835
"KMLF","Milford Muni, UT, US",2025-09-19 10:52:00,"2025-09-19 10:52:00","VFR",18.3,6.1,200,9,NA,NA,1018.7,"METAR KMLF 191052Z AUTO 20009KT 10SM OVC110 18/06 A3008 RMK AO2 SLP118 T01830061 $",2025-09-19 11:48:11.584715,2025-09-19 07:48:11.584761
"KMWH","Moses Lake/Grant Cnty, WA, US",2025-09-19 10:52:00,"2025-09-19 03:52:00","VFR",15,8.9,0,0,NA,NA,1012.3,"METAR KMWH 191052Z AUTO 00000KT 10SM CLR 15/09 A2989 RMK AO2 SLP116 T01500089",2025-09-19 11:48:11.591709,2025-09-19 07:48:11.591753
"KMYL","McCall Muni, ID, US",2025-09-19 10:51:00,"2025-09-19 04:51:00","VFR",8.3,5.6,0,0,NA,NA,1018.4,"METAR KMYL 191051Z AUTO 00000KT 10SM CLR 08/06 A3007 RMK AO2 SLP144 T00830056",2025-09-19 11:48:11.598687,2025-09-19 07:48:11.598735
"KMWN","Mount Washington(OBS), NH, US",2025-09-19 10:51:00,"2025-09-19 10:51:00","LIFR",6,6,290,49,56,0.06,NA,"METAR KMWN 191051Z 29049G56KT 1/16SM FG VV000 06/06 RMK",2025-09-19 11:48:11.605535,2025-09-19 07:48:11.605579
"KMTN","Baltimore/Martin State Arpt, MD, US",2025-09-19 10:49:00,"2025-09-19 06:49:00","VFR",15,15,0,0,NA,NA,1016.3,"METAR KMTN 191049Z 00000KT 10SM BR CLR 15/15 A3001",2025-09-19 11:48:11.612514,2025-09-19 07:48:11.612566
"KNRA","Coupeville, Out, WA, US",2025-09-19 11:46:00,"2025-09-19 11:46:00","VFR",5.6,5.6,0,0,NA,NA,1016.3,"METAR KNRA 191146Z AUTO 00000KT 10SM CLR 06/06 A3001 RMK AO2 SLP107 T00560056 10100 20050 55002 TSNO $ ",2025-09-19 11:48:17.734172,2025-09-19 07:48:17.734221
"KOAJ","Jacksonville/Ellis Arpt, NC, US",2025-09-19 11:41:00,"2025-09-19 07:41:00","LIFR",17,17,0,0,NA,1.25,1018,"SPECI KOAJ 191141Z 00000KT 1 1/4SM BR BKN001 OVC008 17/17 A3006 RMK AO2 VIS 1/2V2 1/2 $",2025-09-19 11:48:17.741282,2025-09-19 07:48:17.741326
"KNFE","Fentress(NALF), VA, US",2025-09-19 11:39:00,"2025-09-19 11:39:00","IFR",15.6,15.6,0,0,NA,1.25,1017.7,"SPECI KNFE 191139Z AUTO 00000KT 1 1/4SM BR SCT002 16/16 A3005 RMK AO2 T01560156",2025-09-19 11:48:17.748435,2025-09-19 07:48:17.748502
"KOCF","Ocala Rgnl, FL, US",2025-09-19 11:38:00,"2025-09-19 07:38:00","LIFR",19,19,350,4,NA,1.75,1017,"SPECI KOCF 191138Z 35004KT 1 3/4SM BR OVC002 19/19 A3003 RMK AO2",2025-09-19 11:48:17.755426,2025-09-19 07:48:17.755485
"KOFP","Richmond/Hanover Cnty, VA, US",2025-09-19 11:38:00,"2025-09-19 11:38:00","LIFR",17.2,17.2,0,0,NA,0.75,1017.4,"SPECI KOFP 191138Z AUTO 00000KT 3/4SM BR CLR 17/17 A3004 RMK AO2 T01720172 TSNO",2025-09-19 11:48:17.762351,2025-09-19 07:48:17.762395
"KOCW","Washington/Warren Arpt, NC, US",2025-09-19 11:35:00,"2025-09-19 07:35:00","LIFR",16.2,15.5,0,0,NA,0.25,1018,"METAR KOCW 191135Z AUTO 00000KT M1/4SM FG OVC002 16/16 A3006 RMK AO2 T01620155",2025-09-19 11:48:17.769282,2025-09-19 07:48:17.769327
"KOAR","Marina Muni, CA, US",2025-09-19 11:35:00,"2025-09-19 04:35:00","LIFR",15,15,0,0,NA,4,1011.6,"METAR KOAR 191135Z AUTO 00000KT 4SM BR OVC003 15/15 A2987 RMK AO2",2025-09-19 11:48:17.776271,2025-09-19 07:48:17.776315
"KOGS","Ogdensburg Intl, NY, US",2025-09-19 11:35:00,"2025-09-19 07:35:00","VFR",9,8,0,0,NA,NA,1018.4,"METAR KOGS 191135Z AUTO 00000KT 10SM CLR 09/08 A3007 RMK AO2",2025-09-19 11:48:17.783322,2025-09-19 07:48:17.783368
"KOIN","Oberlin Muni, KS, US",2025-09-19 11:35:00,"2025-09-19 11:35:00","VFR",11,11,230,3,NA,NA,1018,"METAR KOIN 191135Z AUTO 23003KT 10SM CLR 11/11 A3006 RMK AO2",2025-09-19 11:48:17.790415,2025-09-19 07:48:17.790461
"KNY0","Johnstown/Fulton Cnty, NY, US",2025-09-19 11:35:00,"2025-09-19 11:35:00","VFR",13.7,13.5,270,6,NA,NA,1016.7,"METAR KNY0 191135Z AUTO 27006KT 10SM SCT043 SCT055 14/14 A3002 RMK AO2 T01370135",2025-09-19 11:48:17.797282,2025-09-19 07:48:17.797326
"KOEB","Coldwater/Branch Cnty, MI, US",2025-09-19 11:35:00,"2025-09-19 11:35:00","MVFR",14,14,70,2,NA,4,1019,"METAR KOEB 191135Z AUTO 07002KT 4SM BR CLR 14/14 A3009 RMK AO2 VIS 1/2V5",2025-09-19 11:48:17.803967,2025-09-19 07:48:17.80401
"KOEO","Osceola/Simenstad Muni, WI, US",2025-09-19 11:35:00,"2025-09-19 06:35:00","VFR",19.5,18.2,120,8,NA,NA,1017.4,"METAR KOEO 191135Z AUTO 12008KT 10SM SCT060 OVC095 20/18 A3004 RMK AO2 T01950182 PWINO",2025-09-19 11:48:17.810754,2025-09-19 07:48:17.8108
"KOCQ","Oconto/Blake Mem, WI, US",2025-09-19 11:35:00,"2025-09-19 11:35:00","VFR",14.5,14.2,10,4,NA,NA,1020.4,"METAR KOCQ 191135Z AUTO 01004KT 10SM SCT055 BKN080 OVC120 15/14 A3013 RMK AO1 T01450142",2025-09-19 11:48:17.817696,2025-09-19 07:48:17.81774
"KNUQ","Moffett Fed Airfld, CA, US",2025-09-19 11:35:00,"2025-09-19 04:35:00","IFR",17,15,360,7,NA,8,1011.6,"METAR KNUQ 191135Z AUTO 36007KT 8SM OVC008 17/15 A2987 RMK AO2",2025-09-19 11:48:17.824451,2025-09-19 07:48:17.824534
"KOEL","Oakley Muni, KS, US",2025-09-19 11:35:00,"2025-09-19 11:35:00","VFR",9.6,8.1,220,3,NA,NA,1018.7,"METAR KOEL 191135Z AUTO 22003KT 10SM CLR 10/08 A3008 RMK AO1 T00960081",2025-09-19 11:48:17.831398,2025-09-19 07:48:17.831444
"KNRN","Norton Muni, KS, US",2025-09-19 11:35:00,"2025-09-19 11:35:00","VFR",10,10,270,3,NA,NA,1018,"METAR KNRN 191135Z AUTO 27003KT 10SM CLR 10/10 A3006 RMK AO2",2025-09-19 11:48:17.838456,2025-09-19 07:48:17.838523
"KO69","Petaluma Muni, CA, US",2025-09-19 11:35:00,"2025-09-19 11:35:00","IFR",13,13,320,4,NA,8,1011.9,"METAR KO69 191135Z AUTO 32004KT 8SM OVC007 13/13 A2988 RMK A01",2025-09-19 11:48:17.859754,2025-09-19 07:48:17.859804
"KN38","Wellsboro/Grand Canyon Rgnl, PA, US",2025-09-19 11:35:00,"2025-09-19 11:35:00","MVFR",14,14,0,0,NA,NA,1019,"METAR KN38 191135Z AUTO 00000KT 10SM FEW010 SCT013 BKN029 14/14 A3009 RMK AO2",2025-09-19 11:48:17.867449,2025-09-19 07:48:17.867523
"KOIC","Norwich/Eaton Arpt, NY, US",2025-09-19 11:35:00,"2025-09-19 07:35:00","MVFR",14,13,180,1,NA,NA,1018,"METAR KOIC 191135Z AUTO 18001KT 10SM OVC014 14/13 A3006 RMK AO2",2025-09-19 11:48:17.874573,2025-09-19 07:48:17.874619
"KOGA","Ogalla/Searle Fld, NE, US",2025-09-19 11:35:00,"2025-09-19 05:35:00","VFR",8.6,8.1,90,4,NA,NA,1018.7,"METAR KOGA 191135Z AUTO 09004KT 10SM CLR 09/08 A3008 RMK AO2 T00860081",2025-09-19 11:48:17.881521,2025-09-19 07:48:17.881571
"KN79","Shamokin/Northumberland Cnty, PA, US",2025-09-19 11:35:00,"2025-09-19 11:35:00","VFR",12.4,12.4,0,0,NA,NA,1017.7,"METAR KN79 191135Z AUTO 00000KT 10SM CLR 12/12 A3005 RMK AO2 T01240124",2025-09-19 11:48:17.88842,2025-09-19 07:48:17.888466
"KNQA","Millington Rgnl, TN, US",2025-09-19 11:35:00,"2025-09-19 06:35:00",NA,19,19,0,0,NA,7,1015.3,"METAR KNQA 191135Z AUTO 00000KT 7SM 19/19 A2998 RMK A01",2025-09-19 11:48:17.895414,2025-09-19 07:48:17.89546
"KO22","Columbia Arpt, CA, US",2025-09-19 11:35:00,"2025-09-19 04:35:00","VFR",18,16,0,0,NA,NA,1013.3,"METAR KO22 191135Z AUTO 00000KT 10SM BKN050 OVC060 18/16 A2992 RMK A01",2025-09-19 11:48:17.902632,2025-09-19 07:48:17.902681
"KO32","Reedley Muni, CA, US",2025-09-19 11:35:00,"2025-09-19 11:35:00","VFR",19.1,19.1,330,3,NA,7,1011.3,"METAR KO32 191135Z AUTO 33003KT 7SM OVC055 19/19 A2986 RMK AO2 RAE1115 P0000 T01910191 $",2025-09-19 11:48:17.909612,2025-09-19 07:48:17.909658
"KO86","Trinity Center Arpt, CA, US",2025-09-19 11:30:00,"2025-09-19 11:30:00","VFR",16,10,260,4,NA,NA,1014.3,"METAR KO86 191130Z AUTO 26004KT 10SM CLR 16/10 A2995 RMK A01",2025-09-19 11:48:17.916597,2025-09-19 07:48:17.916643
"KNOW","Port Angeles(CGAS), WA, US",2025-09-19 11:30:00,"2025-09-19 11:30:00","VFR",NA,NA,0,0,NA,NA,1017,"METAR KNOW 191130Z AUTO 00000KT 10SM CLR A3003 RMK AO2",2025-09-19 11:48:17.923624,2025-09-19 07:48:17.923668
"KOJA","Weatherford/Stafford Arpt, OK, US",2025-09-19 11:30:00,"2025-09-19 11:30:00","VFR",17.5,15.9,100,4,NA,NA,1018.7,"METAR KOJA 191130Z AUTO 10004KT 10SM SCT060 SCT110 18/16 A3008 RMK AO2 T01750159",2025-09-19 11:48:17.930459,2025-09-19 07:48:17.930525
"KO05","Chester/Rogers Fld, CA, US",2025-09-19 11:30:00,"2025-09-19 11:30:00","VFR",16,6,340,3,NA,NA,1016.7,"METAR KO05 191130Z AUTO 34003KT 10SM BKN080 OVC110 16/06 A3002 RMK A01",2025-09-19 11:48:17.937286,2025-09-19 07:48:17.93733
"KNTD","Pt Mugu (NAS), CA, US",2025-09-19 11:26:00,"2025-09-19 04:26:00","VFR",19.4,18.3,150,5,NA,7,1011.6,"SPECI KNTD 191126Z AUTO 15005KT 7SM SCT006 OVC046 19/18 A2987 RMK AO2 T01940183 $",2025-09-19 11:48:17.943968,2025-09-19 07:48:17.94401
"KOCH","Nacogdoches Rgnl, TX, US",2025-09-19 11:24:00,"2025-09-19 06:24:00","MVFR",20,19,0,0,NA,3,1017.4,"SPECI KOCH 191124Z AUTO 00000KT 3SM BR CLR 20/19 A3004 RMK AO2",2025-09-19 11:48:17.95054,2025-09-19 07:48:17.950584
"KNID","China Lake (NAF), CA, US",2025-09-19 11:21:00,"2025-09-19 11:21:00","VFR",19.4,18.3,NA,NA,NA,NA,1015,"SPECI KNID 191121Z AUTO 10SM FEW008 OVC095 19/18 A2997 RMK AO2 RAE09 P0000 T01940183 $",2025-09-19 11:48:17.95722,2025-09-19 07:48:17.957262
"KNKT","Cherry Point MCAS, NC, US",2025-09-19 11:10:00,"2025-09-19 11:10:00","VFR",16.7,16.1,0,0,NA,NA,1018,"SPECI KNKT 191110Z 00000KT 10SM SCT002 17/16 A3006 RMK AO2 T01670161",2025-09-19 11:48:17.963913,2025-09-19 07:48:17.963957
"KNUW","Whidbey Island(NAS), WA, US",2025-09-19 11:02:00,"2025-09-19 04:02:00","VFR",8.3,8.3,0,0,NA,7,1016.3,"SPECI KNUW 191102Z COR 00000KT 7SM MIFG FEW060 08/08 A3001 RMK AO2 T00830083 $",2025-09-19 11:48:17.970589,2025-09-19 07:48:17.970632
"KNEL","Lakehurst(NAS), NJ, US",2025-09-19 11:00:00,"2025-09-19 07:00:00",NA,14.4,14.4,0,0,NA,NA,1015,"METAR KNEL 191100Z AUTO 00000KT CLR 14/14 A2997 RMK AO2 SLP148 T01440144 PNO $",2025-09-19 11:48:17.977118,2025-09-19 07:48:17.97716
"KNGU","Norfolk NAS, VA, US",2025-09-19 10:59:00,"2025-09-19 06:59:00","VFR",17.2,16.7,230,4,NA,9,1017.4,"METAR KNGU 191059Z 23004KT 9SM FEW250 17/17 A3004 RMK AO2 SLP173 T01720167",2025-09-19 11:48:17.98369,2025-09-19 07:48:17.983734
"KNJW","Meridian Range B, MS, US",2025-09-19 10:57:00,"2025-09-19 10:57:00","VFR",18.9,17.2,0,0,NA,NA,1018,"METAR KNJW 191057Z AUTO 00000KT 10SM CLR 19/17 A3006 RMK AO2 SLP094 T01890172",2025-09-19 11:48:18.004092,2025-09-19 07:48:18.004172
"KNFL","Fallon (NAS), NV, US",2025-09-19 10:57:00,"2025-09-19 03:57:00","VFR",18.3,6.1,160,10,NA,NA,1014,"METAR KNFL 191057Z AUTO 16010KT 10SM CLR 18/06 A2994 RMK AO2 SLP110 T01830061",2025-09-19 11:48:18.012066,2025-09-19 07:48:18.012112
"KNYL","Yuma (MCAS), AZ, US",2025-09-19 10:57:00,"2025-09-19 03:57:00","VFR",25.6,20.6,350,5,NA,NA,1009.6,"METAR KNYL 191057Z AUTO 35005KT 10SM CLR 26/21 A2981 RMK AO2 SLP090 T02560206",2025-09-19 11:48:18.01925,2025-09-19 07:48:18.019294
"KNDZ","Milton/Whiting-S(NAS, FL, US",2025-09-19 10:56:00,"2025-09-19 10:56:00","VFR",18.9,18.3,320,5,NA,NA,1016.7,"METAR KNDZ 191056Z 32005KT 10SM CLR 19/18 A3002 RMK SLP150 T01890183",2025-09-19 11:48:18.026061,2025-09-19 07:48:18.026104
"KOFK","Norfolk/Stefan Mem, NE, US",2025-09-19 10:56:00,"2025-09-19 05:56:00","MVFR",15,12.8,260,6,NA,NA,1015.7,"METAR KOFK 191056Z AUTO 26006KT 10SM FEW018 OVC026 15/13 A2999 RMK AO2 SLP148 T01500128",2025-09-19 11:48:18.032961,2025-09-19 07:48:18.033006
"KNGP","Corpus Christi/Truax Fld NAS, TX, US",2025-09-19 10:56:00,"2025-09-19 10:56:00","VFR",26.1,22.2,0,0,NA,NA,1014.3,"METAR KNGP 191056Z 00000KT 10SM FEW025 BKN250 26/22 A2995 RMK AO2 SLP142 T02610222",2025-09-19 11:48:18.039922,2025-09-19 07:48:18.039967
"KNLC","Lemoore (NAS), CA, US",2025-09-19 10:56:00,"2025-09-19 03:56:00","MVFR",18.9,18.3,80,4,NA,5,1011.6,"METAR KNLC 191056Z AUTO 08004KT 5SM -RA BR FEW015 SCT070 OVC100 19/18 A2987 RMK AO2 SLP114 P0004 T01890183 $",2025-09-19 11:48:18.046683,2025-09-19 07:48:18.046733
"KNPA","Pensacola (NAS), FL, US",2025-09-19 10:56:00,"2025-09-19 05:56:00","VFR",21.1,20.6,340,4,NA,NA,1016.3,"METAR KNPA 191056Z 34004KT 10SM CLR 21/21 A3001 RMK AO2 SLP163 T02110206",2025-09-19 11:48:18.053456,2025-09-19 07:48:18.053529
"KNBC","Beaufort(MCAS), SC, US",2025-09-19 10:56:00,"2025-09-19 10:56:00","MVFR",20,19.4,0,0,NA,5,1017,"METAR KNBC 191056Z 00000KT 5SM BR FEW120 20/19 A3003 RMK AO2 SLP169 FIRST T02000194",2025-09-19 11:48:18.060092,2025-09-19 07:48:18.060135
"KNOG","Orange Grove(NAS), TX, US",2025-09-19 10:56:00,"2025-09-19 10:56:00","VFR",22.8,20,330,3,NA,NA,1015.3,"METAR KNOG 191056Z AUTO 33003KT 10SM CLR 23/20 A2998 RMK AO2 SLP133 T02280200 $",2025-09-19 11:48:18.066952,2025-09-19 07:48:18.066997
"KNYG","Quantico (MCAF), VA, US",2025-09-19 10:56:00,"2025-09-19 10:56:00","VFR",17.8,16.7,0,0,NA,7,NA,"METAR KNYG 191056Z AUTO 00000KT 7SM CLR 18/17 RMK AO2 SLPNO T01780167 $",2025-09-19 11:48:18.073575,2025-09-19 07:48:18.073619
"KNQI","Kingsville(NAS), TX, US",2025-09-19 10:56:00,"2025-09-19 05:56:00","VFR",21.7,20.6,20,3,NA,NA,1014.6,"METAR KNQI 191056Z AUTO 02003KT 10SM CLR 22/21 A2996 RMK AO2 SLP143 T02170206 $",2025-09-19 11:48:18.080434,2025-09-19 07:48:18.080503
"KNSE","Milton/Whiting N(NAS, FL, US",2025-09-19 10:56:00,"2025-09-19 05:56:00","VFR",20,19.4,330,5,NA,NA,1016.7,"METAR KNSE 191056Z 33005KT 10SM CLR 20/19 A3002 RMK AO2 SLP151 T02000194 $",2025-09-19 11:48:18.087379,2025-09-19 07:48:18.087423
"KNMM","Meridian/MCCain(NAS), MS, US",2025-09-19 10:56:00,"2025-09-19 10:56:00","VFR",18.9,17.2,0,0,NA,NA,1017.4,"METAR KNMM 191056Z 00000KT 10SM CLR 19/17 A3004 RMK AO2 SLP178 T01890172 $",2025-09-19 11:48:18.094587,2025-09-19 07:48:18.094633
"KNTU","Oceana(NAS), VA, US",2025-09-19 10:56:00,"2025-09-19 06:56:00","VFR",16.1,15.6,240,3,NA,NA,1017,"METAR KNTU 191056Z 24003KT 10SM CLR 16/16 A3003 RMK AO2 VIS 2 RWY 5R SLP170 T01610156",2025-09-19 11:48:18.101458,2025-09-19 07:48:18.101525
"KNBG","New Orleans (NAS), LA, US",2025-09-19 10:55:00,"2025-09-19 05:55:00","MVFR",18.9,18.9,NA,3,NA,4,1016.3,"METAR KNBG 191055Z VRB03KT 4SM BR SCT250 19/19 A3001 RMK AO2 SLP162 T01890189",2025-09-19 11:48:18.108211,2025-09-19 07:48:18.108256
"KOBE","Okeechobee Cnty Arpt, FL, US",2025-09-19 10:55:00,"2025-09-19 06:55:00",NA,NA,NA,NA,NA,NA,NA,1014,"METAR KOBE 191055Z AUTO A2994 RMK AO2",2025-09-19 11:48:18.114954,2025-09-19 07:48:18.114997
"KNKX","Miramar (MCAS), CA, US",2025-09-19 10:55:00,"2025-09-19 03:55:00","VFR",20,18.3,310,4,NA,NA,1011.6,"METAR KNKX 191055Z AUTO 31004KT 10SM CLR 20/18 A2987 RMK AO2 SLP107 T02000183",2025-09-19 11:48:18.121683,2025-09-19 07:48:18.121726
"KOFF","Bellevue/Offutt AFB, NE, US",2025-09-19 10:55:00,"2025-09-19 05:55:00","VFR",16.8,15,260,6,NA,NA,1015.3,"METAR KOFF 191055Z 26006KT 10SM CLR 17/15 A2998 RMK AO2A SLP152 T01680150 $",2025-09-19 11:48:18.128488,2025-09-19 07:48:18.128539
"KNXP","Twentynine Palms/Self Arpt, CA, US",2025-09-19 10:54:00,"2025-09-19 10:54:00",NA,19.4,18.3,150,4,NA,NA,1015.7,"METAR KNXP 191054Z AUTO 15004KT 10SM 19/18 A2999 RMK AO2 SLP123 T01940183 PWINO $",2025-09-19 11:48:18.1481,2025-09-19 07:48:18.148179
"KODO","Odessa/Schlemeyer Fld, TX, US",2025-09-19 10:53:00,"2025-09-19 10:53:00","VFR",19.4,13.3,0,0,NA,NA,1018.7,"METAR KODO 191053Z AUTO 00000KT 10SM CLR 19/13 A3008 RMK AO2 SLP140 T01940133 $",2025-09-19 11:48:18.155968,2025-09-19 07:48:18.156015
"KOAK","Oakland Intl, CA, US",2025-09-19 10:53:00,"2025-09-19 03:53:00","MVFR",16.1,14.4,290,9,NA,NA,1011.6,"METAR KOAK 191053Z 29009KT 10SM FEW006 BKN011 OVC017 16/14 A2987 RMK AO2 RAB32E44 SLP115 P0000 T01610144",2025-09-19 11:48:18.162839,2025-09-19 07:48:18.162883
"KNRS","Imperial Beach(NAS), CA, US",2025-09-19 10:53:00,"2025-09-19 03:53:00","LIFR",19.4,19.4,0,0,NA,NA,1011.6,"METAR KNRS 191053Z AUTO 00000KT 10SM OVC002 19/19 A2987 RMK AO2 SLP113 T01940194 $",2025-09-19 11:48:18.169399,2025-09-19 07:48:18.169443
"KOGB","Orangeburg Muni, SC, US",2025-09-19 10:53:00,"2025-09-19 06:53:00","MVFR",17.8,17.8,0,0,NA,4,1017.4,"METAR KOGB 191053Z AUTO 00000KT 4SM BR FEW100 18/18 A3004 RMK AO2 SLP169 T01780178",2025-09-19 11:48:18.17589,2025-09-19 07:48:18.175932
"KNEW","New Orleans/Lakefront Arpt, LA, US",2025-09-19 10:53:00,"2025-09-19 05:53:00","VFR",26.1,21.7,0,0,NA,NA,1017,"METAR KNEW 191053Z AUTO 00000KT 10SM CLR 26/22 A3003 RMK AO1 SLP161 T02610217",2025-09-19 11:48:18.182584,2025-09-19 07:48:18.182628
"KNUI","St Inigoes/Webster Fld, MD, US",2025-09-19 10:53:00,"2025-09-19 10:53:00","VFR",18.9,18.3,240,6,NA,NA,1016.3,"METAR KNUI 191053Z AUTO 24006KT 10SM CLR 19/18 A3001 RMK AO2 SLP160 T01890183",2025-09-19 11:48:18.189184,2025-09-19 07:48:18.189229
"KOJC","Olathe/Johnson Cnty, KS, US",2025-09-19 10:53:00,"2025-09-19 05:53:00","LIFR",16.1,16.1,0,0,NA,0.25,1016.3,"METAR KOJC 191053Z AUTO 00000KT 1/4SM FG VV002 16/16 A3001 RMK AO2 SLP155 T01610161",2025-09-19 11:48:18.195687,2025-09-19 07:48:18.19573
"KODX","Ord/Sharp Fld, NE, US",2025-09-19 10:53:00,"2025-09-19 10:53:00","VFR",10.6,10,0,0,NA,NA,1016.7,"METAR KODX 191053Z AUTO 00000KT 10SM CLR 11/10 A3002 RMK AO2 SLP164 T01060100",2025-09-19 11:48:18.202177,2025-09-19 07:48:18.202221
"KNIP","Jacksonville (NAS), FL, US",2025-09-19 10:53:00,"2025-09-19 06:53:00","VFR",22.8,21.7,320,5,NA,NA,1016.7,"METAR KNIP 191053Z 32005KT 10SM FEW250 23/22 A3002 RMK AO2 SLP160 T02280217",2025-09-19 11:48:18.208709,2025-09-19 07:48:18.208755
"KNQX","Key West (NAS), FL, US",2025-09-19 10:53:00,"2025-09-19 06:53:00","VFR",25.6,23.9,50,3,NA,NA,1013.3,"METAR KNQX 191053Z 05003KT 10SM FEW025 26/24 A2992 RMK AO2 SLP132 T02560239 $",2025-09-19 11:48:18.215347,2025-09-19 07:48:18.21539
"KOGD","Ogden/Hinckley Arpt, UT, US",2025-09-19 10:53:00,"2025-09-19 04:53:00","VFR",16.1,0.6,180,6,NA,NA,1016.7,"METAR KOGD 191053Z AUTO 18006KT 10SM CLR 16/01 A3002 RMK AO2 SLP113 T01610006",2025-09-19 11:48:18.221949,2025-09-19 07:48:18.221992
"KNSI","San Nicholas Island Arpt, CA, US",2025-09-19 10:53:00,"2025-09-19 10:53:00","VFR",18.3,16.7,0,0,NA,NA,1011.3,"METAR KNSI 191053Z AUTO 00000KT 10SM OVC040 18/17 A2986 RMK AO2 SLP107 T01830167 $",2025-09-19 11:48:18.228444,2025-09-19 07:48:18.228507
"KNFG","Camp Pendleton(MCB), CA, US",2025-09-19 10:52:00,"2025-09-19 10:52:00","VFR",17.8,17.2,0,0,NA,9,1011.3,"METAR KNFG 191052Z AUTO 00000KT 9SM CLR 18/17 A2986 RMK AO2 SLP112 T01780172 $",2025-09-19 11:48:18.235118,2025-09-19 07:48:18.235162
"KNRB","Mayport (NS), FL, US",2025-09-19 10:52:00,"2025-09-19 06:52:00","VFR",23.3,22.8,310,4,NA,NA,1016.3,"METAR KNRB 191052Z 31004KT 10SM CLR 23/23 A3001 RMK AO2 SLP160 T02330228",2025-09-19 11:48:18.241806,2025-09-19 07:48:18.241851
"KOKC","Oklahoma City/Will Rogers Intl, OK, US",2025-09-19 10:52:00,"2025-09-19 05:52:00","VFR",17.8,17.2,230,4,NA,NA,1018,"METAR KOKC 191052Z 23004KT 10SM -RA SCT080 BKN160 BKN250 18/17 A3006 RMK AO2 RAB48 SLP167 OCNL LTGIC DSNT W CB DSNT W MOV SE T01780172 PNO $",2025-09-19 11:48:18.248414,2025-09-19 07:48:18.248457
"KNHK","Patuxent River NAS, MD, US",2025-09-19 10:52:00,"2025-09-19 06:52:00","VFR",18.9,18.3,230,8,NA,NA,1016,"METAR KNHK 191052Z 23008KT 10SM CLR 19/18 A3000 RMK AO2 SLP159 T01890183 $",2025-09-19 11:48:18.255059,2025-09-19 07:48:18.255103
"KOKB","Oceanside Muni, CA, US",2025-09-19 10:52:00,"2025-09-19 03:52:00","VFR",17.8,17.2,0,0,NA,6,1010.9,"METAR KOKB 191052Z AUTO 00000KT 6SM BR CLR 18/17 A2985 RMK AO2 SLP109 T01780172",2025-09-19 11:48:18.261651,2025-09-19 07:48:18.261696
"KNZY","San Diego/North Island NAS, CA, US",2025-09-19 10:52:00,"2025-09-19 03:52:00","VFR",20.6,19.4,340,3,NA,NA,1010.9,"METAR KNZY 191052Z 34003KT 10SM FEW008 21/19 A2985 RMK AO2 SLP109 T02060194",2025-09-19 11:48:18.268553,2025-09-19 07:48:18.268599
"KNFW","Fort Worth/Carswell NAS, TX, US",2025-09-19 10:52:00,"2025-09-19 05:52:00","VFR",23.9,18.9,160,5,NA,NA,1016,"METAR KNFW 191052Z 16005KT 10SM CLR 24/19 A3000 RMK AO2 SLP143 T02390189 $",2025-09-19 11:48:18.288833,2025-09-19 07:48:18.288916
"KNJM","Swansboro/Bogue Fld, NC, US",2025-09-19 10:51:00,"2025-09-19 10:51:00","VFR",17.8,17.2,0,0,NA,7,1017.4,"METAR KNJM 191051Z AUTO 00000KT 7SM CLR 18/17 A3004 RMK AO2 SLP177 T01780172",2025-09-19 11:48:18.297003,2025-09-19 07:48:18.297049
"KOTG","Worthington Muni, MN, US",2025-09-19 11:46:00,"2025-09-19 11:46:00","MVFR",17,17,230,4,NA,NA,1014,"SPECI KOTG 191146Z AUTO 23004KT 10SM FEW005 SCT011 OVC018 17/17 A2994 RMK AO2",2025-09-19 11:48:19.893103,2025-09-19 07:48:19.893149
"KPIR","Pierre Muni, SD, US",2025-09-19 11:45:00,"2025-09-19 06:45:00","MVFR",13.9,12.8,330,10,NA,NA,1015.7,"SPECI KPIR 191145Z AUTO 33010KT 10SM BKN013 OVC018 14/13 A2999 RMK AO2 T01390128",2025-09-19 11:48:19.900297,2025-09-19 07:48:19.900341
"KPHL","Philadelphia Intl, PA, US",2025-09-19 11:45:00,"2025-09-19 07:45:00","LIFR",20,18.9,260,3,NA,5,1016,"SPECI KPHL 191145Z 26003KT 5SM BR BKN002 BKN010 20/19 A3000 RMK AO2 VIS SW 2 T02000189 $",2025-09-19 11:48:19.907207,2025-09-19 07:48:19.90725
"KOXD","Oxford/Miami Univ Arpt, OH, US",2025-09-19 11:44:00,"2025-09-19 07:44:00","VFR",14,12,0,0,NA,NA,1018.7,"METAR KOXD 191144Z 00000KT 10SM CLR 14/12 A3008 RMK AO2",2025-09-19 11:48:19.913852,2025-09-19 07:48:19.913895
"KPEO","Penn Yan Arpt, NY, US",2025-09-19 11:44:00,"2025-09-19 11:44:00","MVFR",16.7,13.9,NA,3,NA,NA,1019.4,"SPECI KPEO 191144Z AUTO VRB03KT 10SM BKN011 OVC017 17/14 A3010 RMK AO2 T01670139",2025-09-19 11:48:19.920496,2025-09-19 07:48:19.920546
"KPMH","Portsmouth Rgnl, OH, US",2025-09-19 11:41:00,"2025-09-19 07:41:00","VFR",11,11,0,0,NA,NA,1019,"METAR KPMH 191141Z 00000KT 10SM CLR 11/11 A3009 RMK AO2",2025-09-19 11:48:19.92708,2025-09-19 07:48:19.927123
"KP33","Wilcox/Chocise Cnty, AZ, US",2025-09-19 11:36:00,"2025-09-19 04:36:00","VFR",19,17,10,4,NA,NA,1019.4,"METAR KP33 191136Z AUTO 01004KT 10SM SCT075 SCT085 SCT120 19/17 A3010 RMK AO2",2025-09-19 11:48:19.933619,2025-09-19 07:48:19.933664
"KPHF","Newport News/Williamsburg Intl, VA, US",2025-09-19 11:36:00,"2025-09-19 07:36:00","MVFR",16.7,16.7,0,0,NA,3,1017.7,"SPECI KPHF 191136Z 00000KT 3SM CLR 17/17 A3005 RMK AO2 T01670167",2025-09-19 11:48:19.940233,2025-09-19 07:48:19.940276
"KP52","Cottonwood Arpt, AZ, US",2025-09-19 11:35:00,"2025-09-19 11:35:00","VFR",18,18,170,4,NA,NA,1018.7,"METAR KP52 191135Z AUTO 17004KT 10SM VCTS FEW003 SCT070 BKN080 18/18 A3008 RMK AO2 LTG DSNT SE-SW",2025-09-19 11:48:19.946879,2025-09-19 07:48:19.946923
"KPHT","Paris/Henry Cnty, TN, US",2025-09-19 11:35:00,"2025-09-19 06:35:00","VFR",19,16,50,4,NA,NA,1016.3,"METAR KPHT 191135Z AUTO 05004KT 10SM FEW080 19/16 A3001 RMK A01",2025-09-19 11:48:19.953396,2025-09-19 07:48:19.95344
"KOLE","Olean/Cattaraugus Cnty, NY, US",2025-09-19 11:35:00,"2025-09-19 11:35:00","LIFR",NA,NA,0,0,NA,4,1020.4,"METAR KOLE 191135Z AUTO 00000KT 4SM HZ BKN002 BKN006 OVC011 A3013 RMK AO2",2025-09-19 11:48:19.959814,2025-09-19 07:48:19.959857
"KPEQ","Pecos Muni, TX, US",2025-09-19 11:35:00,"2025-09-19 06:35:00","VFR",21.5,13.8,80,4,NA,NA,1017.7,"METAR KPEQ 191135Z AUTO 08004KT 10SM CLR 22/14 A3005 RMK AO2 T02150138 PWINO",2025-09-19 11:48:19.966362,2025-09-19 07:48:19.966406
"KOSC","Wurtsmith(AFB), MI, US",2025-09-19 11:35:00,"2025-09-19 07:35:00","MVFR",17,14,90,8,NA,NA,1021.1,"METAR KOSC 191135Z AUTO 09008KT 10SM OVC016 17/14 A3015 RMK AO2",2025-09-19 11:48:19.986968,2025-09-19 07:48:19.987015
"KOXI","Knox/Starke Cnty, IN, US",2025-09-19 11:35:00,"2025-09-19 11:35:00","VFR",12,12,70,1,NA,7,1018,"METAR KOXI 191135Z AUTO 07001KT 7SM CLR 12/12 A3006 RMK AO2",2025-09-19 11:48:19.994376,2025-09-19 07:48:19.994419
"KOLY","Olney/Noble Arpt, IL, US",2025-09-19 11:35:00,"2025-09-19 11:35:00","VFR",14.2,14.2,0,0,NA,NA,1017.7,"METAR KOLY 191135Z AUTO 00000KT 10SM CLR 14/14 A3005 RMK AO2 LTG DSNT W T01420142",2025-09-19 11:48:20.001193,2025-09-19 07:48:20.001236
"KOWI","Ottawa Muni, KS, US",2025-09-19 11:35:00,"2025-09-19 11:35:00","LIFR",15,15,0,0,NA,0.25,1016,"METAR KOWI 191135Z AUTO 00000KT 1/4SM FG BKN001 15/15 A3000 RMK AO2 PWINO",2025-09-19 11:48:20.007776,2025-09-19 07:48:20.007818
"KPCW","Port Clinton/Erie-Ottawa Arpt, OH, US",2025-09-19 11:35:00,"2025-09-19 11:35:00","MVFR",20,19,90,4,NA,9,1018.7,"METAR KPCW 191135Z AUTO 09004KT 9SM BKN012 20/19 A3008 RMK AO2",2025-09-19 11:48:20.014288,2025-09-19 07:48:20.01433
"KP08","Coolidge Muni, AZ, US",2025-09-19 11:35:00,"2025-09-19 11:35:00","VFR",27,16,80,7,NA,NA,1012.6,"METAR KP08 191135Z AUTO 08007KT 10SM CLR 27/16 A2990 RMK AO2 LTG DSNT N",2025-09-19 11:48:20.020928,2025-09-19 07:48:20.020974
"KPEZ","Pleasanton Muni, TX, US",2025-09-19 11:35:00,"2025-09-19 11:35:00","VFR",20.6,18.2,290,5,NA,NA,1017,"METAR KPEZ 191135Z AUTO 29005KT 10SM SCT023 21/18 A3003 RMK AO2 T02060182",2025-09-19 11:48:20.027421,2025-09-19 07:48:20.027465
"KOSA","Mount Pleasant Rgnl, TX, US",2025-09-19 11:35:00,"2025-09-19 11:35:00","VFR",19.5,19,0,0,NA,7,1017,"METAR KOSA 191135Z AUTO 00000KT 7SM BR CLR 19/19 A3003 RMK AO2 T01950190",2025-09-19 11:48:20.033867,2025-09-19 07:48:20.03391
"KONL","O'Neill Muni, NE, US",2025-09-19 11:35:00,"2025-09-19 06:35:00","MVFR",13.3,11,300,12,18,NA,1016.3,"METAR KONL 191135Z AUTO 30012G18KT 10SM BKN014 13/11 A3001 RMK AO2 T01330110",2025-09-19 11:48:20.040386,2025-09-19 07:48:20.040429
"KPEA","Pella Muni, IA, US",2025-09-19 11:35:00,"2025-09-19 11:35:00","VFR",16.3,16,210,4,NA,NA,1015.7,"METAR KPEA 191135Z AUTO 21004KT 10SM CLR 16/16 A2999 RMK AO2 T01630160",2025-09-19 11:48:20.046922,2025-09-19 07:48:20.046965
"KPJC","Zelienople Muni, PA, US",2025-09-19 11:35:00,"2025-09-19 11:35:00","MVFR",3,3,0,0,NA,5,1018.4,"METAR KPJC 191135Z AUTO 00000KT 5SM CLR 03/03 A3007 RMK AO2",2025-09-19 11:48:20.053411,2025-09-19 07:48:20.053454
"KPAN","Payson Arpt, AZ, US",2025-09-19 11:35:00,"2025-09-19 04:35:00","IFR",15,14,290,3,NA,2,1022.4,"METAR KPAN 191135Z AUTO 29003KT 2SM TSRA BR SCT006 BKN029 OVC050 15/14 A3019 RMK AO2 LTG DSNT ALQDS VIS 1 1/2V5",2025-09-19 11:48:20.059999,2025-09-19 07:48:20.06004
"KONX","Currituck Cnty, NC, US",2025-09-19 11:35:00,"2025-09-19 11:35:00","LIFR",15.4,15.1,0,0,NA,0.75,1017.7,"METAR KONX 191135Z AUTO 00000KT 3/4SM BR OVC002 15/15 A3005 RMK AO2 T01540151",2025-09-19 11:48:20.066428,2025-09-19 07:48:20.066486
"KOLG","Solon Springs Muni, WI, US",2025-09-19 11:35:00,"2025-09-19 11:35:00","IFR",15,14,40,6,NA,NA,1018.4,"METAR KOLG 191135Z AUTO 04006KT 10SM OVC006 15/14 A3007 RMK AO1",2025-09-19 11:48:20.073031,2025-09-19 07:48:20.073075
"KOLV","Olive Branch Arpt, MS, US",2025-09-19 11:35:00,"2025-09-19 06:35:00","VFR",21,18,0,0,NA,NA,1015.7,"METAR KOLV 191135Z AUTO 00000KT 10SM CLR 21/18 A2999 RMK A01",2025-09-19 11:48:20.079674,2025-09-19 07:48:20.079719
"KOMH","Orange Cnty Arpt, VA, US",2025-09-19 11:35:00,"2025-09-19 11:35:00","IFR",13,13,0,0,NA,1.25,1017.4,"METAR KOMH 191135Z AUTO 00000KT 1 1/4SM BR VV007 13/13 A3004 RMK AO2",2025-09-19 11:48:20.086145,2025-09-19 07:48:20.086187
"KOWP","Sand Springs/Pogue Mem, OK, US",2025-09-19 11:35:00,"2025-09-19 11:35:00","VFR",19.8,19.5,190,3,NA,7,1018,"METAR KOWP 191135Z AUTO 19003KT 7SM CLR 20/20 A3006 RMK AO2 T01980195",2025-09-19 11:48:20.092558,2025-09-19 07:48:20.092602
"KOYM","St Marys Muni, PA, US",2025-09-19 11:35:00,"2025-09-19 07:35:00","VFR",14,12,0,0,NA,NA,1020.7,"METAR KOYM 191135Z AUTO 00000KT 10SM BKN100 BKN120 14/12 A3014 RMK AO2 PWINO",2025-09-19 11:48:20.099239,2025-09-19 07:48:20.099282
"KPBH","Phillips/Price Cnty, WI, US",2025-09-19 11:35:00,"2025-09-19 11:35:00","IFR",16.5,16,110,4,NA,NA,1019.7,"METAR KPBH 191135Z AUTO 11004KT 10SM OVC007 17/16 A3011 RMK AO2 T01650160",2025-09-19 11:48:20.105852,2025-09-19 07:48:20.105898
"KPGV","Greenville/Pitt Arpt, NC, US",2025-09-19 11:35:00,"2025-09-19 07:35:00","LIFR",17,17,0,0,NA,0.25,1017.7,"METAR KPGV 191135Z AUTO 00000KT M1/4SM FG OVC002 17/17 A3005 RMK AO2",2025-09-19 11:48:20.126119,2025-09-19 07:48:20.126163
"KPIM","Pine Mountain/Harris Cnty, GA, US",2025-09-19 11:35:00,"2025-09-19 07:35:00","VFR",17,17,0,0,NA,8,1018,"METAR KPIM 191135Z AUTO 00000KT 8SM FEW070 17/17 A3006 RMK AO2",2025-09-19 11:48:20.13355,2025-09-19 07:48:20.133595
"KPBX","Pikeville/Pike Cnty, KY, US",2025-09-19 11:35:00,"2025-09-19 07:35:00","VFR",15,15,170,3,NA,NA,1020.1,"METAR KPBX 191135Z AUTO 17003KT 10SM CLR 15/15 A3012 RMK AO2 T01500150",2025-09-19 11:48:20.14027,2025-09-19 07:48:20.140313
"KOKV","Winchester Rgnl, VA, US",2025-09-19 11:35:00,"2025-09-19 07:35:00","VFR",13,12,0,0,NA,NA,1018,"METAR KOKV 191135Z AUTO 00000KT 10SM CLR 13/12 A3006 RMK AO2",2025-09-19 11:48:20.14703,2025-09-19 07:48:20.147072
"KONA","Winona Muni, MN, US",2025-09-19 11:35:00,"2025-09-19 11:35:00","VFR",18,17,120,5,NA,NA,1017,"METAR KONA 191135Z AUTO 12005KT 10SM BKN075 BKN090 18/17 A3003 RMK AO2 TSNO",2025-09-19 11:48:20.153744,2025-09-19 07:48:20.153789
"KONM","Socorro Muni, NM, US",2025-09-19 11:35:00,"2025-09-19 11:35:00","VFR",17.8,12.7,180,7,NA,NA,1021.8,"METAR KONM 191135Z AUTO 18007KT 10SM CLR 18/13 A3017 RMK AO2 T01780127",2025-09-19 11:48:20.160596,2025-09-19 07:48:20.160643
"KONZ","Grosse Isle Muni, MI, US",2025-09-19 11:35:00,"2025-09-19 11:35:00","VFR",18,17,40,8,NA,NA,1019.4,"METAR KONZ 191135Z AUTO 04008KT 10SM FEW060 FEW110 18/17 A3010 RMK AO2",2025-09-19 11:48:20.167184,2025-09-19 07:48:20.167228
"KOVL","Olivia Rgnl, MN, US",2025-09-19 11:35:00,"2025-09-19 11:35:00","MVFR",18,17,100,5,NA,5,1014,"METAR KOVL 191135Z AUTO 10005KT 5SM BR SCT003 BKN040 OVC046 18/17 A2994 RMK AO2",2025-09-19 11:48:20.173636,2025-09-19 07:48:20.173679
"KOWA","Owatonna/Degner Rgnl, MN, US",2025-09-19 11:35:00,"2025-09-19 06:35:00","MVFR",18.2,18.2,130,5,NA,NA,1015,"METAR KOWA 191135Z AUTO 13005KT 10SM SCT009 BKN014 BKN021 OVC120 18/18 A2997 RMK AO2 T01820182",2025-09-19 11:48:20.180198,2025-09-19 07:48:20.180242
"KPLD","Portland Muni, IN, US",2025-09-19 11:35:00,"2025-09-19 11:35:00","MVFR",15.1,9.6,0,0,NA,5,1018.7,"METAR KPLD 191135Z AUTO 00000KT 5SM HZ CLR 15/10 A3008 RMK AO2 T01510096",2025-09-19 11:48:20.186651,2025-09-19 07:48:20.186695
"KOQN","West Chester/Brandywine Rgnl, PA, US",2025-09-19 11:35:00,"2025-09-19 11:35:00","VFR",17,15,0,0,NA,NA,1016.7,"METAR KOQN 191135Z AUTO 00000KT 10SM CLR 17/15 A3002 RMK AO2",2025-09-19 11:48:20.193398,2025-09-19 07:48:20.193442
"KOPL","Opelousas/St Landry, LA, US",2025-09-19 11:35:00,"2025-09-19 11:35:00","VFR",18.1,17.6,0,0,NA,NA,1017,"METAR KOPL 191135Z AUTO 00000KT 10SM CLR 18/18 A3003 RMK AO2 T01810176",2025-09-19 11:48:20.200073,2025-09-19 07:48:20.200118
"KONP","Newport Muni, OR, US",2025-09-19 11:35:00,"2025-09-19 04:35:00","LIFR",8,8,0,0,NA,0.5,1015.3,"METAR KONP 191135Z AUTO 00000KT 1/2SM FG OVC003 08/08 A2998 RMK AO2",2025-09-19 11:48:20.206896,2025-09-19 07:48:20.206938
"KPEX","Paynesville Muni, MN, US",2025-09-19 11:35:00,"2025-09-19 11:35:00","LIFR",18,18,90,6,NA,4,1015,"METAR KPEX 191135Z AUTO 09006KT 4SM BR BKN004 OVC017 18/18 A2997 RMK AO2",2025-09-19 11:48:20.214045,2025-09-19 07:48:20.214088
"KPCZ","Waupaca Muni, WI, US",2025-09-19 11:35:00,"2025-09-19 11:35:00","MVFR",17.8,16.1,60,4,NA,NA,1020.7,"METAR KPCZ 191135Z AUTO 06004KT 10SM OVC010 18/16 A3014 RMK AO2 T01780161",2025-09-19 11:48:20.221078,2025-09-19 07:48:20.221136
"KOPN","Thomaston/Upson Cnty, GA, US",2025-09-19 11:35:00,"2025-09-19 11:35:00","VFR",18,18,30,3,NA,7,1018.4,"METAR KOPN 191135Z AUTO 03003KT 7SM CLR 18/18 A3007 RMK AO2",2025-09-19 11:48:20.228022,2025-09-19 07:48:20.228066
"KPCM","Plant City Arpt, FL, US",2025-09-19 11:35:00,"2025-09-19 11:35:00","VFR",23,22,0,0,NA,7,1016.7,"METAR KPCM 191135Z AUTO 00000KT 7SM CLR 23/22 A3002 RMK AO2",2025-09-19 11:48:20.234857,2025-09-19 07:48:20.234898
"KOZW","Howell/Hardy Arpt, MI, US",2025-09-19 11:35:00,"2025-09-19 11:35:00","MVFR",16,16,60,3,NA,4,1020.1,"METAR KOZW 191135Z AUTO 06003KT 4SM BR FEW080 16/16 A3012 RMK AO2",2025-09-19 11:48:20.241539,2025-09-19 07:48:20.241584
"KPDC","Prairie Du Chien Muni, WI, US",2025-09-19 11:35:00,"2025-09-19 06:35:00","VFR",18,17.7,60,4,NA,NA,1016.7,"METAR KPDC 191135Z AUTO 06004KT 10SM -RA OVC110 18/18 A3002 RMK AO2 P0001 T01800177",2025-09-19 11:48:20.248297,2025-09-19 07:48:20.248342
"KPHN","Port Huron/St Clair Cnty, MI, US",2025-09-19 11:35:00,"2025-09-19 07:35:00","VFR",16,16,0,0,NA,NA,1020.4,"METAR KPHN 191135Z AUTO 00000KT 10SM OVC090 16/16 A3013 RMK AO2",2025-09-19 11:48:20.268968,2025-09-19 07:48:20.269016
"KPLR","Pell City/St Clair Cnty, AL, US",2025-09-19 11:35:00,"2025-09-19 06:35:00","IFR",17,17,0,0,NA,1.75,1018,"METAR KPLR 191135Z AUTO 00000KT 1 3/4SM BR CLR 17/17 A3006 RMK A01",2025-09-19 11:48:20.276407,2025-09-19 07:48:20.27645
"KPLU","Tacoma/Pierce Cnty, WA, US",2025-09-19 11:35:00,"2025-09-19 11:35:00","VFR",8,8,0,0,NA,NA,1016.3,"METAR KPLU 191135Z AUTO 00000KT 10SM -DZ OVC042 08/08 A3001 RMK AO2",2025-09-19 11:48:20.283072,2025-09-19 07:48:20.283118
"KOWX","Ottawa/Putnam Cnty, OH, US",2025-09-19 11:35:00,"2025-09-19 11:35:00","VFR",12,12,100,2,NA,NA,1019.4,"METAR KOWX 191135Z AUTO 10002KT 10SM CLR 12/12 A3010 RMK AO2",2025-09-19 11:48:20.289763,2025-09-19 07:48:20.289807
"KPKV","Port Lavaca/Calhoun Cnty, TX, US",2025-09-19 11:35:00,"2025-09-19 11:35:00","VFR",23.5,22.2,10,4,NA,NA,1015.7,"METAR KPKV 191135Z AUTO 01004KT 10SM CLR 24/22 A2999 RMK AO2 T02350222",2025-09-19 11:48:20.296434,2025-09-19 07:48:20.296496
"KORS","Eastsound/Orcas Island Arpt, WA, US",2025-09-19 11:35:00,"2025-09-19 04:35:00","VFR",14,14,0,0,NA,9,1016.3,"METAR KORS 191135Z AUTO 00000KT 9SM CLR 14/14 A3001 RMK AO2",2025-09-19 11:48:20.303086,2025-09-19 07:48:20.30313
"KOUN","Norman/Univ Oklahoma Arpt, OK, US",2025-09-19 11:35:00,"2025-09-19 06:35:00","VFR",18.3,17,160,5,NA,NA,1017.7,"METAR KOUN 191135Z AUTO 16005KT 10SM BKN100 BKN120 18/17 A3005 RMK AO2 T01830170",2025-09-19 11:48:20.309761,2025-09-19 07:48:20.309808
"KPMU","Panola Cnty, MS, US",2025-09-19 11:35:00,"2025-09-19 11:35:00","MVFR",19,19,0,0,NA,4,1016.3,"METAR KPMU 191135Z AUTO 00000KT 4SM BR CLR 19/19 A3001 RMK AO2 TSNO",2025-09-19 11:48:20.316437,2025-09-19 07:48:20.316498
"KPHG","Phillipsburg Muni, KS, US",2025-09-19 11:35:00,"2025-09-19 11:35:00","VFR",10,10,320,3,NA,NA,1018,"METAR KPHG 191135Z AUTO 32003KT 10SM CLR 10/10 A3006 RMK AO2",2025-09-19 11:48:20.323207,2025-09-19 07:48:20.323252
"KOZA","Ozona Muni, TX, US",2025-09-19 11:35:00,"2025-09-19 06:35:00","VFR",20,15,160,4,NA,NA,1019.4,"METAR KOZA 191135Z AUTO 16004KT 10SM CLR 20/15 A3010 RMK AO2",2025-09-19 11:48:20.329951,2025-09-19 07:48:20.329997
"KOXV","Knoxville Muni, IA, US",2025-09-19 11:35:00,"2025-09-19 11:35:00","MVFR",18,17,200,4,NA,NA,1015.7,"METAR KOXV 191135Z AUTO 20004KT 10SM OVC011 18/17 A2999 RMK AO2",2025-09-19 11:48:20.336636,2025-09-19 07:48:20.336681
"KORG","Orange/Orange Cnty, TX, US",2025-09-19 11:35:00,"2025-09-19 11:35:00","VFR",21,20.1,0,0,NA,7,1017,"METAR KORG 191135Z AUTO 00000KT 7SM CLR 21/20 A3003 RMK AO2 T02100201 PWINO",2025-09-19 11:48:20.343162,2025-09-19 07:48:20.343205
"KOOA","Oskaloosa Muni, IA, US",2025-09-19 11:35:00,"2025-09-19 11:35:00","MVFR",16.8,16.2,160,3,NA,4,1016.3,"METAR KOOA 191135Z AUTO 16003KT 4SM CLR 17/16 A3001 RMK AO2 T01680162",2025-09-19 11:48:20.349631,2025-09-19 07:48:20.349675
"KOLZ","Oelwein Muni, IA, US",2025-09-19 11:35:00,"2025-09-19 11:35:00","VFR",17,17,0,0,NA,8,1016.3,"METAR KOLZ 191135Z AUTO 00000KT 8SM OVC100 17/17 A3001 RMK A01",2025-09-19 11:48:20.356152,2025-09-19 07:48:20.356193
"KOKM","Okmulgee Rgnl, OK, US",2025-09-19 11:35:00,"2025-09-19 06:35:00","VFR",19.5,19.5,110,5,NA,NA,1018,"METAR KOKM 191135Z AUTO 11005KT 10SM -VCTSRA SCT040 SCT070 BKN110 20/20 A3006 RMK AO2 LTG DSNT ALQS P0030 T01950195",2025-09-19 11:48:20.362874,2025-09-19 07:48:20.362919
"KPMD","Palmdale Rgnl, CA, US",2025-09-19 11:31:00,"2025-09-19 04:31:00","MVFR",18.3,16.7,170,3,NA,NA,1014.3,"SPECI KPMD 191131Z AUTO 17003KT 10SM BKN012 BKN048 18/17 A2995 RMK AO2 T01830167",2025-09-19 11:48:20.369579,2025-09-19 07:48:20.369625
"KPIL","Port Isabel/Cameron Cnty, TX, US",2025-09-19 11:28:00,"2025-09-19 11:28:00","VFR",24.4,23.3,0,0,NA,NA,1014.3,"SPECI KPIL 191128Z AUTO 00000KT 10SM FEW015 BKN049 OVC065 24/23 A2995 RMK AO2 T02440233",2025-09-19 11:48:20.376303,2025-09-19 07:48:20.376346
"KOLF","Wolf Point/Clayton Arpt, MT, US",2025-09-19 11:23:00,"2025-09-19 05:23:00","VFR",7.2,6.7,80,4,NA,8,1019.4,"SPECI KOLF 191123Z AUTO 08004KT 8SM FEW004 07/07 A3010 RMK AO2 T00720067",2025-09-19 11:48:20.382926,2025-09-19 07:48:20.382969
"KOTM","Ottumwa Rgnl, IA, US",2025-09-19 11:20:00,"2025-09-19 06:20:00","LIFR",15,15,0,0,NA,0.5,1016,"SPECI KOTM 191120Z AUTO 00000KT 1/2SM FG CLR 15/15 A3000 RMK AO2 T01500150",2025-09-19 11:48:20.389519,2025-09-19 07:48:20.389565
"KOSH","Oshkosh/Wittman Rgnl, WI, US",2025-09-19 11:02:00,"2025-09-19 06:02:00","IFR",18.3,16.7,70,6,NA,NA,1019,"SPECI KOSH 191102Z 07006KT 10SM OVC009 18/17 A3009 RMK AO2 T01830167",2025-09-19 11:48:20.409955,2025-09-19 07:48:20.410003
"KOKK","Kokomo Muni, IN, US",2025-09-19 10:56:00,"2025-09-19 06:56:00","VFR",15,13.3,0,0,NA,NA,1018.4,"METAR KOKK 191056Z AUTO 00000KT 10SM CLR 15/13 A3007 RMK AO2 SLP180 T01500133 $",2025-09-19 11:48:20.417345,2025-09-19 07:48:20.417389
"KOTH","North Bend/SW Oregon Rgnl, OR, US",2025-09-19 10:56:00,"2025-09-19 03:56:00","MVFR",11.7,11.7,350,5,NA,3,1014,"METAR KOTH 191056Z AUTO 35005KT 3SM BR CLR 12/12 A2994 RMK AO2 SLP137 T01170117",2025-09-19 11:48:20.424111,2025-09-19 07:48:20.424152
"KPIB","Hattiesburg/Laurel Rgnl, MS, US",2025-09-19 10:56:00,"2025-09-19 05:56:00","VFR",19.4,17.8,0,0,NA,6,1017.7,"METAR KPIB 191056Z AUTO 00000KT 6SM BR CLR 19/18 A3005 RMK AO2 SLP173 T01940178 PNO $",2025-09-19 11:48:20.430663,2025-09-19 07:48:20.430705
"KOWB","Owensboro/Daviess Cnty, KY, US",2025-09-19 10:56:00,"2025-09-19 05:56:00","VFR",17.2,13.9,0,0,NA,NA,1017.4,"METAR KOWB 191056Z 00000KT 10SM CLR 17/14 A3004 RMK AO2 SLP170 T01720139",2025-09-19 11:48:20.437239,2025-09-19 07:48:20.437283
"KOXC","Oxford Arpt, CT, US",2025-09-19 10:56:00,"2025-09-19 06:56:00","VFR",13.3,13.3,0,0,NA,NA,1015,"METAR KOXC 191056Z 00000KT 10SM CLR 13/13 A2997 RMK AO2 SLP159 T01330133 $",2025-09-19 11:48:20.444152,2025-09-19 07:48:20.444198
"KOLU","Columbus Muni, NE, US",2025-09-19 10:56:00,"2025-09-19 10:56:00","VFR",12.8,12.2,260,6,NA,NA,1016.7,"METAR KOLU 191056Z AUTO 26006KT 10SM CLR 13/12 A3002 RMK AO2 SLP164 T01280122 PNO $",2025-09-19 11:48:20.450979,2025-09-19 07:48:20.451024
"KPHP","Philip Muni, SD, US",2025-09-19 10:55:00,"2025-09-19 04:55:00","MVFR",12.8,11.7,300,4,NA,NA,1017.7,"METAR KPHP 191055Z AUTO 30004KT 10SM OVC015 13/12 A3005 RMK AO2 SLP166 T01280117 $",2025-09-19 11:48:20.457928,2025-09-19 07:48:20.457973
"KOZR","Ozark/Cairns AAF, AL, US",2025-09-19 10:55:00,"2025-09-19 05:55:00","VFR",20.1,17.9,310,3,NA,NA,1015.7,"METAR KOZR 191055Z AUTO 31003KT 10SM CLR 20/18 A2999 RMK AO2 SLP155 T02010179 $",2025-09-19 11:48:20.464744,2025-09-19 07:48:20.464789
"KPAM","Tyndall AFB, FL, US",2025-09-19 10:55:00,"2025-09-19 05:55:00","VFR",23.6,20.5,360,4,NA,NA,1016,"METAR KPAM 191055Z AUTO 36004KT 10SM CLR 24/21 A3000 RMK AO2 SLP162 T02360205 $",2025-09-19 11:48:20.471542,2025-09-19 07:48:20.471591
"KORH","Worcester Muni, MA, US",2025-09-19 10:54:00,"2025-09-19 06:54:00","VFR",16.1,11.7,290,10,NA,NA,1014,"METAR KORH 191054Z 29010KT 10SM CLR 16/12 A2994 RMK AO2 SLP138 T01610117 $",2025-09-19 11:48:20.478383,2025-09-19 07:48:20.478427
"KPIA","Peoria Intl, IL, US",2025-09-19 10:54:00,"2025-09-19 05:54:00","VFR",18.9,16.7,0,0,NA,NA,1017,"METAR KPIA 191054Z 00000KT 10SM CLR 19/17 A3003 RMK AO2 SLP164 T01890167",2025-09-19 11:48:20.485416,2025-09-19 07:48:20.48546
"KOLM","Olympia Rgnl, WA, US",2025-09-19 10:54:00,"2025-09-19 03:54:00","VFR",6.7,5.6,0,0,NA,NA,1016.3,"METAR KOLM 191054Z AUTO 00000KT 10SM CLR 07/06 A3001 RMK AO2 SLP161 T00670056",2025-09-19 11:48:20.492412,2025-09-19 07:48:20.492468
"KOLS","Nogales Intl, AZ, US",2025-09-19 10:54:00,"2025-09-19 03:54:00","VFR",17.2,16.7,0,0,NA,NA,1017.7,"METAR KOLS 191054Z AUTO 00000KT 10SM CLR 17/17 A3005 RMK AO2 SLP113 T01720167",2025-09-19 11:48:20.499402,2025-09-19 07:48:20.499446
"KPLN","Pellston Rgnl, MI, US",2025-09-19 10:54:00,"2025-09-19 06:54:00","MVFR",13.9,12.8,0,0,NA,NA,1021.4,"METAR KPLN 191054Z AUTO 00000KT 10SM OVC018 14/13 A3016 RMK AO2 SLP213 T01390128",2025-09-19 11:48:20.506486,2025-09-19 07:48:20.506537
"KPIH","Pocatello Rgnl, ID, US",2025-09-19 10:53:00,"2025-09-19 04:53:00","VFR",7.2,2.8,0,0,NA,NA,1017.7,"METAR KPIH 191053Z AUTO 00000KT 10SM CLR 07/03 A3005 RMK AO2 SLP140 T00720028",2025-09-19 11:48:20.513557,2025-09-19 07:48:20.513606
"KPAE","Everett/Paine Fld, WA, US",2025-09-19 10:53:00,"2025-09-19 03:53:00","VFR",11.1,10,0,0,NA,NA,1016.3,"METAR KPAE 191053Z AUTO 00000KT 10SM CLR 11/10 A3001 RMK AO2 SLP160 T01110100",2025-09-19 11:48:20.520692,2025-09-19 07:48:20.520737
"KPIE","St Petersburg-Clearwater Intl, FL, US",2025-09-19 10:53:00,"2025-09-19 06:53:00","VFR",24.4,22.2,40,5,NA,NA,1015.3,"METAR KPIE 191053Z 04005KT 10SM CLR 24/22 A2998 RMK AO2 SLP153 T02440222",2025-09-19 11:48:20.52776,2025-09-19 07:48:20.527806
"KONT","Ontario Intl, CA, US",2025-09-19 10:53:00,"2025-09-19 03:53:00","VFR",21.7,17.2,0,0,NA,NA,1011.9,"METAR KONT 191053Z 00000KT 10SM BKN085 22/17 A2988 RMK AO2 SLP102 T02170172 $",2025-09-19 11:48:20.534876,2025-09-19 07:48:20.534922
"KONO","Ontario Muni, OR, US",2025-09-19 10:53:00,"2025-09-19 04:53:00","VFR",11.7,6.7,300,5,NA,NA,1013,"METAR KONO 191053Z AUTO 30005KT 10SM CLR 12/07 A2991 RMK AO2 SLP117 T01170067",2025-09-19 11:48:20.555935,2025-09-19 07:48:20.555983
"KPMP","Pompano Beach Arpt, FL, US",2025-09-19 10:53:00,"2025-09-19 06:53:00","VFR",24.4,23.9,310,3,NA,NA,1013.6,"METAR KPMP 191053Z AUTO 31003KT 10SM CLR 24/24 A2993 RMK AO2 SLP134 T02440239",2025-09-19 11:48:20.56352,2025-09-19 07:48:20.563568
"KOWD","Norwood Mem, MA, US",2025-09-19 10:53:00,"2025-09-19 06:53:00","VFR",11.1,11.1,0,0,NA,NA,1013,"METAR KOWD 191053Z 00000KT 10SM CLR 11/11 A2991 RMK AO2 SLP129 T01110111",2025-09-19 11:48:20.570454,2025-09-19 07:48:20.57052
"KPKD","Park Rapids/Konshok Fld, MN, US",2025-09-19 10:53:00,"2025-09-19 05:53:00","IFR",13.9,13.3,90,9,NA,NA,1016.3,"METAR KPKD 191053Z AUTO 09009KT 10SM OVC005 14/13 A3001 RMK AO2 RAE0957 SLP162 P0000 T01390133",2025-09-19 11:48:20.577383,2025-09-19 07:48:20.577427
"KPKB","Parkersburg/Mid Ohio Valley Rgnl, WV, US",2025-09-19 10:53:00,"2025-09-19 06:53:00","VFR",10.6,8.9,0,0,NA,9,1018.7,"METAR KPKB 191053Z 00000KT 9SM CLR 11/09 A3008 RMK AO2 SLP181 T01060089",2025-09-19 11:48:20.584233,2025-09-19 07:48:20.584279
"KPGD","Punta Gorda Arpt, FL, US",2025-09-19 10:53:00,"2025-09-19 06:53:00","VFR",22.2,21.7,20,6,NA,NA,1015.3,"METAR KPGD 191053Z 02006KT 10SM CLR 22/22 A2998 RMK AO2 SLP151 T02220217",2025-09-19 11:48:20.591174,2025-09-19 07:48:20.591221
"KPDT","Pendleton/E Oregon Rgnl, OR, US",2025-09-19 10:53:00,"2025-09-19 03:53:00","VFR",15,10.6,140,6,NA,NA,1013.3,"METAR KPDT 191053Z AUTO 14006KT 10SM CLR 15/11 A2992 RMK AO2 SLP115 T01500106",2025-09-19 11:48:20.59797,2025-09-19 07:48:20.598014
"KPDK","Atlanta/Dekalb-Peachtree Arpt, GA, US",2025-09-19 10:53:00,"2025-09-19 06:53:00","MVFR",18.9,17.8,0,0,NA,5,1018,"METAR KPDK 191053Z AUTO 00000KT 5SM BR CLR 19/18 A3006 RMK AO2 SLP162 T01890178",2025-09-19 11:48:20.604793,2025-09-19 07:48:20.604837
"KPGA","Page Muni, AZ, US",2025-09-19 10:53:00,"2025-09-19 03:53:00","VFR",21.1,8.3,110,5,NA,NA,1017.7,"METAR KPGA 191053Z AUTO 11005KT 10SM SCT100 21/08 A3005 RMK AO2 SLP108 T02110083",2025-09-19 11:48:20.611646,2025-09-19 07:48:20.611692
"KPDX","Portland Intl, OR, US",2025-09-19 10:53:00,"2025-09-19 03:53:00","VFR",14.4,10.6,330,3,NA,NA,1014.3,"METAR KPDX 191053Z 33003KT 10SM CLR 14/11 A2995 RMK AO2 SLP140 T01440106 $",2025-09-19 11:48:20.618539,2025-09-19 07:48:20.61859
"KPBG","Plattsburgh Intl, NY, US",2025-09-19 10:53:00,"2025-09-19 06:53:00","VFR",13.9,8.9,350,8,NA,NA,1016.7,"METAR KPBG 191053Z AUTO 35008KT 10SM OVC035 14/09 A3002 RMK AO2 SLP166 T01390089",2025-09-19 11:48:20.625345,2025-09-19 07:48:20.62539
"KPAH","Paducah/Barkley Rgnl, KY, US",2025-09-19 10:53:00,"2025-09-19 05:53:00","VFR",17.2,15.6,80,4,NA,NA,1016.3,"METAR KPAH 191053Z 08004KT 10SM CLR 17/16 A3001 RMK AO2 SLP157 T01720156",2025-09-19 11:48:20.63208,2025-09-19 07:48:20.632128
"KOSU","Columbus/Ohio State Univ Arpt, OH, US",2025-09-19 10:53:00,"2025-09-19 06:53:00","VFR",13.3,11.1,0,0,NA,NA,1018.7,"METAR KOSU 191053Z 00000KT 10SM CLR 13/11 A3008 RMK AO2 SLP181 T01330111",2025-09-19 11:48:20.638748,2025-09-19 07:48:20.638796
"KORL","Orlando/Executive, FL, US",2025-09-19 10:53:00,"2025-09-19 06:53:00","VFR",22.8,21.1,330,3,NA,NA,1015.7,"METAR KORL 191053Z 33003KT 10SM CLR 23/21 A2999 RMK AO2 SLP157 T02280211",2025-09-19 11:48:20.645293,2025-09-19 07:48:20.645338
"KOPF","Miami/Opa Locka Arpt, FL, US",2025-09-19 10:53:00,"2025-09-19 06:53:00","VFR",25,23.9,350,5,NA,NA,1013.6,"METAR KOPF 191053Z 35005KT 10SM CLR 25/24 A2993 RMK AO2 SLP135 T02500239",2025-09-19 11:48:20.651978,2025-09-19 07:48:20.652021
"KOMK","Omak Arpt, WA, US",2025-09-19 10:53:00,"2025-09-19 03:53:00","VFR",18.9,6.1,320,11,NA,NA,1014,"METAR KOMK 191053Z AUTO 32011KT 10SM CLR 19/06 A2994 RMK AO2 SLP131 T01890061",2025-09-19 11:48:20.658664,2025-09-19 07:48:20.658709
"KPBI","Palm Beach Intl, FL, US",2025-09-19 10:53:00,"2025-09-19 06:53:00","VFR",23.3,22.2,300,5,NA,NA,1013.6,"METAR KPBI 191053Z 30005KT 10SM SCT035 SCT200 23/22 A2993 RMK AO2 SLP134 T02330222 $",2025-09-19 11:48:20.665255,2025-09-19 07:48:20.665299
"KPHD","New Philadelphia/Clever Fld, OH, US",2025-09-19 10:53:00,"2025-09-19 06:53:00","VFR",12.2,11.1,0,0,NA,NA,1019,"METAR KPHD 191053Z AUTO 00000KT 10SM CLR 12/11 A3009 RMK AO2 SLP187 T01220111",2025-09-19 11:48:20.671917,2025-09-19 07:48:20.671961
"KPBF","Pine Bluff/Grider Fld, AR, US",2025-09-19 10:53:00,"2025-09-19 05:53:00","VFR",22.8,19.4,0,0,NA,NA,1016,"METAR KPBF 191053Z AUTO 00000KT 10SM CLR 23/19 A3000 RMK AO2 LTG DSNT E SLP157 T02280194 $",2025-09-19 11:48:20.678571,2025-09-19 07:48:20.678623
"KOXB","Ocean City Muni, MD, US",2025-09-19 10:53:00,"2025-09-19 06:53:00","VFR",18.3,17.8,300,5,NA,NA,1016.3,"METAR KOXB 191053Z AUTO 30005KT 10SM CLR 18/18 A3001 RMK AO2 SLP160 T01830178",2025-09-19 11:48:20.699759,2025-09-19 07:48:20.699814
"KOVS","Boscobel Arpt, WI, US",2025-09-19 10:53:00,"2025-09-19 10:53:00","LIFR",17.8,17.8,0,0,NA,4,1017.7,"METAR KOVS 191053Z AUTO 00000KT 4SM BR OVC003 18/18 A3005 RMK AO2 SLP174 T01780178",2025-09-19 11:48:20.707054,2025-09-19 07:48:20.707098
"KORE","Orange Muni, MA, US",2025-09-19 10:52:00,"2025-09-19 10:52:00","VFR",9.4,8.9,0,0,NA,NA,1014.6,"METAR KORE 191052Z AUTO 00000KT 10SM CLR 09/09 A2996 RMK AO2 SLP145 T00940089",2025-09-19 11:48:20.713771,2025-09-19 07:48:20.713814
"KOMA","Omaha/Eppley Fld, NE, US",2025-09-19 10:52:00,"2025-09-19 05:52:00","VFR",16.7,15.6,270,4,NA,NA,1015.7,"METAR KOMA 191052Z 27004KT 10SM FEW055 SCT170 17/16 A2999 RMK AO2 SLP150 T01670156",2025-09-19 11:48:20.720535,2025-09-19 07:48:20.720582
"KPIT","Pittsburgh Intl, PA, US",2025-09-19 10:51:00,"2025-09-19 06:51:00","VFR",13.9,11.1,0,0,NA,NA,1018.7,"METAR KPIT 191051Z 00000KT 10SM CLR 14/11 A3008 RMK AO2 SLP186 T01390111",2025-09-19 11:48:20.727346,2025-09-19 07:48:20.727391
"KORD","Chicago/O'Hare Intl, IL, US",2025-09-19 10:51:00,"2025-09-19 05:51:00","VFR",19.4,16.1,0,0,NA,NA,1017,"METAR KORD 191051Z 00000KT 10SM FEW150 SCT250 19/16 A3003 RMK AO2 SLP164 T01940161",2025-09-19 11:48:20.734227,2025-09-19 07:48:20.734272
"KPHX","Phoenix/Sky Harbor Intl, AZ, US",2025-09-19 10:51:00,"2025-09-19 03:51:00","VFR",26.7,20,340,5,NA,NA,1011.3,"METAR KPHX 191051Z 34005KT 10SM SCT080 SCT100 BKN140 27/20 A2986 RMK AO2 SLP092 CONS LTGCGIC DSNT N-NE AND NW CB DSNT N-NE AND NW T02670200",2025-09-19 11:48:20.741027,2025-09-19 07:48:20.741071
"KORF","Norfolk Intl, VA, US",2025-09-19 10:51:00,"2025-09-19 06:51:00","VFR",17.2,16.7,210,6,NA,NA,1017,"METAR KORF 191051Z 21006KT 10SM CLR 17/17 A3003 RMK AO2 SLP169 T01720167",2025-09-19 11:48:20.747591,2025-09-19 07:48:20.747637
"KOXR","Oxnard Arpt, CA, US",2025-09-19 10:51:00,"2025-09-19 03:51:00","IFR",20,17.8,0,0,NA,NA,1011.3,"METAR KOXR 191051Z AUTO 00000KT 10SM BKN008 OVC035 20/18 A2986 RMK AO2 SLP111 T02000178",2025-09-19 11:48:20.754191,2025-09-19 07:48:20.754236
"KOMN","Ormond Beach Muni, FL, US",2025-09-19 10:50:00,"2025-09-19 10:50:00","VFR",20,20,0,0,NA,7,1015.3,"METAR KOMN 191050Z 00000KT 7SM CLR 20/20 A2998 RMK FIRST",2025-09-19 11:48:20.760982,2025-09-19 07:48:20.761024
"KPTN","Patterson/Williams Mem, LA, US",2025-09-19 11:45:00,"2025-09-19 06:45:00","LIFR",21,21,0,0,NA,0.5,1017,"SPECI KPTN 191145Z AUTO 00000KT 1/2SM FG VV002 21/21 A3003 RMK AO2 $",2025-09-19 11:48:22.30694,2025-09-19 07:48:22.306983
"KRHI","Rhinelander/Oneida Cnty, WI, US",2025-09-19 11:45:00,"2025-09-19 06:45:00","MVFR",13.9,12.2,110,6,NA,NA,1020.7,"SPECI KRHI 191145Z AUTO 11006KT 10SM BKN010 BKN070 OVC100 14/12 A3014 RMK AO2 T01390122",2025-09-19 11:48:22.313689,2025-09-19 07:48:22.313734
"KPPF","Parsons/Tri City Arpt, KS, US",2025-09-19 11:45:00,"2025-09-19 06:45:00","IFR",16.1,15.6,180,3,NA,1.5,1017.4,"SPECI KPPF 191145Z AUTO 18003KT 1 1/2SM BR FEW002 16/16 A3004 RMK AO2 VIS 1/2V4 T01610156 PWINO",2025-09-19 11:48:22.320257,2025-09-19 07:48:22.320301
"KPNM","Princeton Arpt, MN, US",2025-09-19 11:43:00,"2025-09-19 11:43:00","LIFR",18,17,120,4,NA,7,1016,"METAR KPNM 191143Z 12004KT 7SM BKN003 OVC010 18/17 A3000 RMK AO2",2025-09-19 11:48:22.340807,2025-09-19 07:48:22.340875
"KPVB","Platteville Muni, WI, US",2025-09-19 11:40:00,"2025-09-19 11:40:00","VFR",NA,NA,60,6,NA,NA,1017.4,"METAR KPVB 191140Z AUTO 06006KT 10SM SCT090 BKN120 A3004 RMK AO1",2025-09-19 11:48:22.34846,2025-09-19 07:48:22.348531
"KPTT","Pratt Rgnl, KS, US",2025-09-19 11:40:00,"2025-09-19 06:40:00","VFR",13.5,13.3,0,0,NA,NA,1018.4,"METAR KPTT 191140Z AUTO 00000KT 10SM CLR 14/13 A3007 RMK AO2 T01350133",2025-09-19 11:48:22.355116,2025-09-19 07:48:22.355159
"KRCZ","Rockingham/Richmond Cnty, NC, US",2025-09-19 11:40:00,"2025-09-19 11:40:00","VFR",17.5,16,0,0,NA,7,1017.7,"METAR KRCZ 191140Z AUTO 00000KT 7SM CLR 18/16 A3005 RMK AO2 T01750160",2025-09-19 11:48:22.361412,2025-09-19 07:48:22.361456
"KPQL","Pascagoula/Lott Intl, MS, US",2025-09-19 11:39:00,"2025-09-19 06:39:00","LIFR",17.8,17.8,0,0,NA,0.25,1017,"SPECI KPQL 191139Z AUTO 00000KT 1/4SM FG VV003 18/18 A3003 RMK AO2 T01780178",2025-09-19 11:48:22.367788,2025-09-19 07:48:22.367831
"KRDR","Grand Forks AFB, ND, US",2025-09-19 11:39:00,"2025-09-19 06:39:00","MVFR",16,15,90,5,NA,NA,1015.3,"SPECI KRDR 191139Z AUTO 09005KT 10SM SCT005 OVC013 16/15 A2998 RMK AO2 RAB02E13DZB13E29 CIG 005V013 SLP158 $",2025-09-19 11:48:22.374335,2025-09-19 07:48:22.374382
"KPOF","Poplar Bluff Muni, MO, US",2025-09-19 11:38:00,"2025-09-19 06:38:00","VFR",20,18.3,10,4,NA,NA,1016.3,"SPECI KPOF 191138Z AUTO 01004KT 10SM VCTS -RA FEW075 FEW090 OVC110 20/18 A3001 RMK AO2 LTG DSNT ALQDS RAB01 TSB1057E32 P0003 T02000183",2025-09-19 11:48:22.380882,2025-09-19 07:48:22.380926
"KRBW","Walterboro/Lowcountry Rgnl, SC, US",2025-09-19 11:35:00,"2025-09-19 07:35:00","VFR",18,18,0,0,NA,NA,1017.7,"METAR KRBW 191135Z AUTO 00000KT 10SM SCT100 18/18 A3005 RMK AO2",2025-09-19 11:48:22.387368,2025-09-19 07:48:22.387413
"KPUJ","Dallas/Paulding Cnty, GA, US",2025-09-19 11:35:00,"2025-09-19 11:35:00","MVFR",18,17,0,0,NA,5,1019,"METAR KPUJ 191135Z AUTO 00000KT 5SM BR CLR 18/17 A3009 RMK AO2",2025-09-19 11:48:22.393802,2025-09-19 07:48:22.393844
"KPVJ","Pauls Valley Muni, OK, US",2025-09-19 11:35:00,"2025-09-19 11:35:00","VFR",17.7,17.5,130,4,NA,NA,1018.7,"METAR KPVJ 191135Z AUTO 13004KT 10SM SCT110 18/18 A3008 RMK AO2 LTG DSNT SE THRU SW P0004 T01770175",2025-09-19 11:48:22.400238,2025-09-19 07:48:22.400281
"KPNA","Pinedale/Wentz Fld, WY, US",2025-09-19 11:35:00,"2025-09-19 05:35:00","VFR",0,-1,300,5,NA,NA,1023.8,"METAR KPNA 191135Z AUTO 30005KT 10SM CLR 00/M01 A3023 RMK AO2",2025-09-19 11:48:22.406814,2025-09-19 07:48:22.40686
"KRKW","Rockwood Muni, TN, US",2025-09-19 11:35:00,"2025-09-19 06:35:00","VFR",16,15,0,0,NA,NA,1019.7,"METAR KRKW 191135Z AUTO 00000KT 10SM CLR 16/15 A3011 RMK A01",2025-09-19 11:48:22.413271,2025-09-19 07:48:22.413316
"KPTD","Potsdam Muni, NY, US",2025-09-19 11:35:00,"2025-09-19 11:35:00","VFR",8,8,0,0,NA,NA,1018.7,"METAR KPTD 191135Z AUTO 00000KT 10SM CLR 08/08 A3008 RMK AO2 PNO",2025-09-19 11:48:22.419737,2025-09-19 07:48:22.419782
"KRBO","Robstown/Nueces Cnty, TX, US",2025-09-19 11:35:00,"2025-09-19 11:35:00",NA,22.4,20.1,20,4,NA,NA,1015.3,"METAR KRBO 191135Z AUTO 02004KT 10SM 22/20 A2998 RMK AO2 T02240201",2025-09-19 11:48:22.426255,2025-09-19 07:48:22.426298
"KRGK","Red Wing Rgnl, WI, US",2025-09-19 11:35:00,"2025-09-19 11:35:00","VFR",19,16,120,8,NA,NA,1015.7,"METAR KRGK 191135Z AUTO 12008KT 10SM -DZ OVC085 19/16 A2999 RMK AO2",2025-09-19 11:48:22.432839,2025-09-19 07:48:22.432884
"KRNP","Owosso Community Arpt, MI, US",2025-09-19 11:35:00,"2025-09-19 11:35:00","MVFR",16.7,16.7,0,0,NA,4,1020.1,"METAR KRNP 191135Z AUTO 00000KT 4SM BR SCT075 17/17 A3012 RMK AO2 T01670167",2025-09-19 11:48:22.439444,2025-09-19 07:48:22.439507
"KPPQ","Pittsfield/Penstone Muni, IL, US",2025-09-19 11:35:00,"2025-09-19 11:35:00","MVFR",17.5,17.2,0,0,NA,5,1017.4,"METAR KPPQ 191135Z AUTO 00000KT 5SM SCT095 SCT110 18/17 A3004 RMK AO2 LTG DSNT S T01750172",2025-09-19 11:48:22.446187,2025-09-19 07:48:22.446229
"KRAS","Port Aransas/Mustang Beach Arpt, TX, US",2025-09-19 11:35:00,"2025-09-19 11:35:00","VFR",27.8,21.4,100,4,NA,NA,1015.3,"METAR KRAS 191135Z AUTO 10004KT 10SM CLR 28/21 A2998 RMK AO2 T02780214",2025-09-19 11:48:22.452847,2025-09-19 07:48:22.452891
"KPRS","Presidio/Lely Intl, TX, US",2025-09-19 11:35:00,"2025-09-19 11:35:00","VFR",24.3,14.5,20,7,NA,NA,1017.7,"METAR KPRS 191135Z AUTO 02007KT 10SM CLR 24/15 A3005 RMK AO2 T02430145",2025-09-19 11:48:22.459546,2025-09-19 07:48:22.459594
"KPXE","Perry/Houston Cnty, GA, US",2025-09-19 11:35:00,"2025-09-19 11:35:00","VFR",19,NA,320,3,NA,NA,1017.7,"METAR KPXE 191135Z AUTO 32003KT 10SM CLR 19/ A3005 RMK AO2",2025-09-19 11:48:22.480282,2025-09-19 07:48:22.48033
"KPVW","Plainview/Hale Cnty, TX, US",2025-09-19 11:35:00,"2025-09-19 06:35:00","VFR",13.5,12.2,0,0,NA,NA,1019.7,"METAR KPVW 191135Z AUTO 00000KT 10SM CLR 14/12 A3011 RMK AO2 T01350122",2025-09-19 11:48:22.48793,2025-09-19 07:48:22.487997
"KPOY","Powell Muni, WY, US",2025-09-19 11:35:00,"2025-09-19 05:35:00","VFR",7,3,310,7,NA,NA,1019.4,"METAR KPOY 191135Z AUTO 31007KT 10SM CLR 07/03 A3010 RMK AO2",2025-09-19 11:48:22.49495,2025-09-19 07:48:22.494993
"KPYX","Perryton/Ochiltree Cnty, TX, US",2025-09-19 11:35:00,"2025-09-19 11:35:00",NA,15.8,15,180,5,NA,NA,1019.4,"METAR KPYX 191135Z AUTO 18005KT 16/15 A3010 RMK AO2 T01580150",2025-09-19 11:48:22.50135,2025-09-19 07:48:22.501393
"KPZQ","Rogers City/Presque Isle Arpt, MI, US",2025-09-19 11:35:00,"2025-09-19 11:35:00","MVFR",15,12,90,4,NA,NA,1021.8,"METAR KPZQ 191135Z AUTO 09004KT 10SM BKN024 BKN040 15/12 A3017 RMK AO2",2025-09-19 11:48:22.507946,2025-09-19 07:48:22.507992
"KRAW","Warsaw Muni, MO, US",2025-09-19 11:35:00,"2025-09-19 11:35:00","LIFR",15.6,15.6,0,0,NA,2.5,1017.4,"METAR KRAW 191135Z AUTO 00000KT 2 1/2SM BR BKN003 16/16 A3004 RMK AO2 T01560156",2025-09-19 11:48:22.514704,2025-09-19 07:48:22.514755
"KRNV","Cleveland Muni, MS, US",2025-09-19 11:35:00,"2025-09-19 11:35:00","VFR",21.8,21.3,200,5,NA,NA,1016,"METAR KRNV 191135Z AUTO 20005KT 10SM FEW200 22/21 A3000 RMK AO2 T02180213",2025-09-19 11:48:22.521531,2025-09-19 07:48:22.521579
"KPSK","Dublin/New River Valley Arpt, VA, US",2025-09-19 11:35:00,"2025-09-19 07:35:00","VFR",11.9,10.9,0,0,NA,NA,1021.1,"METAR KPSK 191135Z AUTO 00000KT 10SM CLR 12/11 A3015 RMK AO2 T01190109",2025-09-19 11:48:22.528454,2025-09-19 07:48:22.528551
"KRPD","Rice Lake Rgnl, WI, US",2025-09-19 11:35:00,"2025-09-19 06:35:00","IFR",18.7,16.6,130,9,NA,NA,1018.4,"METAR KRPD 191135Z AUTO 13009KT 10SM OVC008 19/17 A3007 RMK AO2 T01870166",2025-09-19 11:48:22.535445,2025-09-19 07:48:22.535513
"KRCX","Ladysmith/Rusk Cnty, WI, US",2025-09-19 11:35:00,"2025-09-19 11:35:00","VFR",17,16,110,4,NA,NA,1019.4,"METAR KRCX 191135Z AUTO 11004KT 10SM SCT065 BKN075 OVC100 17/16 A3010 RMK AO2 T01700160",2025-09-19 11:48:22.54231,2025-09-19 07:48:22.542354
"KRMY","Marshall/Brooks Fld, MI, US",2025-09-19 11:35:00,"2025-09-19 11:35:00","LIFR",14.8,14.6,0,0,NA,0.5,1019.7,"METAR KRMY 191135Z AUTO 00000KT 1/2SM FG VV005 15/15 A3011 RMK AO2 VIS 1/4V1 3/4 T01480146",2025-09-19 11:48:22.548979,2025-09-19 07:48:22.549023
"KPPA","Pampa/Lefors Fld, TX, US",2025-09-19 11:35:00,"2025-09-19 06:35:00","VFR",17,15.8,140,8,NA,NA,1020.1,"METAR KPPA 191135Z AUTO 14008KT 10SM CLR 17/16 A3012 RMK AO2 T01700158",2025-09-19 11:48:22.555738,2025-09-19 07:48:22.555782
"KPVF","Placerville Arpt, CA, US",2025-09-19 11:35:00,"2025-09-19 04:35:00","VFR",15,12,0,0,NA,9,1014.3,"METAR KPVF 191135Z AUTO 00000KT 9SM FEW034 SCT060 OVC070 15/12 A2995 RMK AO1 P0001",2025-09-19 11:48:22.562425,2025-09-19 07:48:22.562466
"KPMV","Plattsmouth Muni, NE, US",2025-09-19 11:35:00,"2025-09-19 11:35:00","VFR",14.7,13.9,270,5,NA,NA,1016.3,"METAR KPMV 191135Z AUTO 27005KT 10SM CLR 15/14 A3001 RMK AO2 T01470139",2025-09-19 11:48:22.569158,2025-09-19 07:48:22.569203
"KPRG","Paris/Edgar Cnty, IL, US",2025-09-19 11:35:00,"2025-09-19 11:35:00","VFR",12.5,11.5,0,0,NA,NA,1018,"METAR KPRG 191135Z AUTO 00000KT 10SM CLR 13/12 A3006 RMK AO2 T01250115",2025-09-19 11:48:22.576051,2025-09-19 07:48:22.576096
"KPNT","Pontiac Muni, IL, US",2025-09-19 11:35:00,"2025-09-19 11:35:00","VFR",13.5,12.7,100,4,NA,7,1017,"METAR KPNT 191135Z AUTO 10004KT 7SM CLR 14/13 A3003 RMK AO2 T01350127",2025-09-19 11:48:22.582755,2025-09-19 07:48:22.582802
"KPRO","Perry Muni, IA, US",2025-09-19 11:35:00,"2025-09-19 06:35:00","MVFR",17.8,17.8,210,3,NA,NA,1014.6,"METAR KPRO 191135Z AUTO 21003KT 10SM OVC011 18/18 A2996 RMK AO2 CIG 007V013 T01780178",2025-09-19 11:48:22.589643,2025-09-19 07:48:22.589688
"KPSN","Palestine Muni, TX, US",2025-09-19 11:35:00,"2025-09-19 06:35:00","VFR",22,21,0,0,NA,8,1016.7,"METAR KPSN 191135Z AUTO 00000KT 8SM CLR 22/21 A3002 RMK AO2",2025-09-19 11:48:22.596596,2025-09-19 07:48:22.596641
"KPSO","Pagosa Springs/Stevens Fld, CO, US",2025-09-19 11:35:00,"2025-09-19 05:35:00","VFR",5,-3,220,2,NA,NA,1027.2,"METAR KPSO 191135Z AUTO 22002KT 10SM CLR 05/M03 A3033 RMK AO2",2025-09-19 11:48:22.603563,2025-09-19 07:48:22.60361
"KPTS","Pittsburg/Atkinson Muni, KS, US",2025-09-19 11:35:00,"2025-09-19 11:35:00","VFR",16,16,190,2,NA,7,1017,"METAR KPTS 191135Z AUTO 19002KT 7SM BR CLR 16/16 A3003 RMK AO2",2025-09-19 11:48:22.624668,2025-09-19 07:48:22.624714
"KRFI","Henderson/Rusk Cnty, TX, US",2025-09-19 11:35:00,"2025-09-19 11:35:00","MVFR",21.1,18.5,0,0,NA,5,1017.7,"METAR KRFI 191135Z AUTO 00000KT 5SM HZ CLR 21/19 A3005 RMK AO2 T02110185",2025-09-19 11:48:22.631922,2025-09-19 07:48:22.631964
"KPWD","Plentywood/Sher-Wood Arpt, MT, US",2025-09-19 11:35:00,"2025-09-19 05:35:00","MVFR",9,9,0,0,NA,NA,1020.1,"METAR KPWD 191135Z AUTO 00000KT 10SM BKN019 BKN041 OVC048 09/09 A3012 RMK AO2",2025-09-19 11:48:22.638788,2025-09-19 07:48:22.638831
"KRNC","McMinnville/Warren Cnty, TN, US",2025-09-19 11:35:00,"2025-09-19 06:35:00","LIFR",14,14,0,0,NA,0.25,1018.4,"METAR KRNC 191135Z AUTO 00000KT 1/4SM FG VV002 14/14 A3007 RMK A01",2025-09-19 11:48:22.645314,2025-09-19 07:48:22.645356
"KRID","Richmond Muni, IN, US",2025-09-19 11:35:00,"2025-09-19 11:35:00","VFR",11,10,0,0,NA,NA,1019,"METAR KRID 191135Z AUTO 00000KT 10SM CLR 11/10 A3009 RMK AO2",2025-09-19 11:48:22.651907,2025-09-19 07:48:22.651953
"KRMN","Stafford Rgnl, VA, US",2025-09-19 11:35:00,"2025-09-19 11:35:00","MVFR",16,15,0,0,NA,4,1017,"METAR KRMN 191135Z AUTO 00000KT 4SM BR CLR 16/15 A3003 RMK AO2 T01600150",2025-09-19 11:48:22.658698,2025-09-19 07:48:22.658752
"KPTB","Petersburg/Dinwiddie Cnty, VA, US",2025-09-19 11:35:00,"2025-09-19 07:35:00","IFR",15.1,14.5,0,0,NA,2.5,1017.7,"METAR KPTB 191135Z AUTO 00000KT 2 1/2SM BR SCT002 15/15 A3005 RMK AO2 VIS 1/2V5 T01510145",2025-09-19 11:48:22.665429,2025-09-19 07:48:22.665486
"KPWC","Pine River Rgnl, MN, US",2025-09-19 11:35:00,"2025-09-19 11:35:00","IFR",14,13,70,4,NA,NA,1017.7,"METAR KPWC 191135Z AUTO 07004KT 10SM OVC005 14/13 A3005 RMK AO2",2025-09-19 11:48:22.672273,2025-09-19 07:48:22.672317
"KROS","Rush City Rgnl, MN, US",2025-09-19 11:35:00,"2025-09-19 11:35:00","LIFR",16.1,15.8,50,4,NA,5,1016.7,"METAR KROS 191135Z AUTO 05004KT 5SM BR OVC002 16/16 A3002 RMK AO2 T01610158",2025-09-19 11:48:22.679181,2025-09-19 07:48:22.679225
"KPOV","Ravenna/Portage Cnty, OH, US",2025-09-19 11:35:00,"2025-09-19 11:35:00","VFR",13.6,12.8,0,0,NA,NA,1019.4,"METAR KPOV 191135Z AUTO 00000KT 10SM SCT047 14/13 A3010 RMK AO2 T01360128 PWINO",2025-09-19 11:48:22.686417,2025-09-19 07:48:22.686464
"KRCR","Rochester/Fulton Cnty, IN, US",2025-09-19 11:35:00,"2025-09-19 07:35:00","VFR",13,NA,0,0,NA,9,1018.4,"METAR KRCR 191135Z AUTO 00000KT 9SM CLR 13/ A3007 RMK AO2",2025-09-19 11:48:22.69327,2025-09-19 07:48:22.693313
"KRKR","Poteau/Kerr Arpt, OK, US",2025-09-19 11:35:00,"2025-09-19 11:35:00","LIFR",18,17,0,0,NA,2.5,1016.7,"METAR KRKR 191135Z AUTO 00000KT 2 1/2SM BR OVC001 18/17 A3002 RMK AO2 LTG DSNT N",2025-09-19 11:48:22.700119,2025-09-19 07:48:22.700161
"KRLD","Richland Arpt, WA, US",2025-09-19 11:35:00,"2025-09-19 11:35:00","VFR",15,11.4,0,0,NA,NA,1011.9,"METAR KRLD 191135Z AUTO 00000KT 10SM CLR 15/11 A2988 RMK AO2 T01500114",2025-09-19 11:48:22.706958,2025-09-19 07:48:22.707004
"KRNH","New Richmond Muni, WI, US",2025-09-19 11:35:00,"2025-09-19 11:35:00","VFR",18.7,17.5,110,5,NA,NA,1016.7,"METAR KRNH 191135Z AUTO 11005KT 10SM SCT090 OVC110 19/18 A3002 RMK AO2 T01870175",2025-09-19 11:48:22.713869,2025-09-19 07:48:22.713913
"KPPO","La Porte Muni, IN, US",2025-09-19 11:35:00,"2025-09-19 06:35:00","VFR",14,14,80,3,NA,NA,1018.4,"METAR KPPO 191135Z AUTO 08003KT 10SM CLR 14/14 A3007 RMK AO2",2025-09-19 11:48:22.720927,2025-09-19 07:48:22.720973
"KRHP","Andrews/W Carolina Rgnl, NC, US",2025-09-19 11:31:00,"2025-09-19 11:31:00","MVFR",12.4,11.6,0,0,NA,5,1021.1,"METAR KRHP 191131Z AUTO 00000KT 5SM BR CLR 12/12 A3015 RMK AO2 T01240116",2025-09-19 11:48:22.727703,2025-09-19 07:48:22.727747
"KPQI","Presque Isle Intl, ME, US",2025-09-19 11:30:00,"2025-09-19 07:30:00","VFR",13,9,350,13,NA,NA,1011.6,"SPECI KPQI 191130Z AUTO 35013KT 10SM FEW021 13/09 A2987 RMK AO2",2025-09-19 11:48:22.734378,2025-09-19 07:48:22.734423
"KRNM","Ramona Arpt, CA, US",2025-09-19 11:30:00,"2025-09-19 11:30:00","IFR",16.1,16.1,0,0,NA,1.5,1012.6,"SPECI KRNM 191130Z AUTO 00000KT 1 1/2SM BR FEW007 16/16 A2990 RMK AO2 VIS 3/4V4 T01610161 $",2025-09-19 11:48:22.741066,2025-09-19 07:48:22.741111
"KPTK","Pontiac/Oakland Intl, MI, US",2025-09-19 11:27:00,"2025-09-19 07:27:00","IFR",16.7,16.1,80,5,NA,5,1020.4,"SPECI KPTK 191127Z COR 08005KT 5SM BR BKN006 BKN120 BKN250 17/16 A3013 RMK SLPNO T01670161",2025-09-19 11:48:22.74793,2025-09-19 07:48:22.747974
"KPVG","Portsmouth/Hampton Roads Exec, VA, US",2025-09-19 11:21:00,"2025-09-19 11:21:00","MVFR",14,14,0,0,NA,5,1017.7,"SPECI KPVG 191121Z AUTO 00000KT 5SM BR SCT003 14/14 A3005 RMK AO2 $",2025-09-19 11:48:22.769625,2025-09-19 07:48:22.769672
"KPRC","Prescott/Love Fld, AZ, US",2025-09-19 11:16:00,"2025-09-19 04:16:00","VFR",16.1,13.3,140,4,NA,NA,1020.7,"SPECI KPRC 191116Z AUTO 14004KT 10SM VCTS SCT065 SCT110 16/13 A3014 RMK AO2 LTG DSNT E-S T01610133",2025-09-19 11:48:22.776881,2025-09-19 07:48:22.776927
"KPRX","Paris/Cox Fld, TX, US",2025-09-19 11:15:00,"2025-09-19 06:15:00","VFR",20,19,130,3,NA,NA,1016.7,"SPECI KPRX 191115Z AUTO 13003KT 10SM CLR 20/19 A3002 RMK AO2 TSE09",2025-09-19 11:48:22.783714,2025-09-19 07:48:22.783759
"KPRN","Greenville/Crenshaw Mem, AL, US",2025-09-19 11:00:00,"2025-09-19 11:00:00","VFR",20,17.8,0,0,NA,NA,1017,"METAR KPRN 191100Z AUTO 00000KT 10SM CLR 20/18 A3003 RMK AO2 SLP114 T02000178 PNO $",2025-09-19 11:48:22.790568,2025-09-19 07:48:22.790613
"KROG","Rogers Muni/Carter Fld, AR, US",2025-09-19 10:58:00,"2025-09-19 05:58:00","VFR",17.2,16.7,0,0,NA,8,1018.4,"METAR KROG 191058Z 00000KT 8SM SCT002 17/17 A3007 RMK AO2 SLP172 T01720167",2025-09-19 11:48:22.797387,2025-09-19 07:48:22.797432
"KPTV","Porterville Muni, CA, US",2025-09-19 10:56:00,"2025-09-19 03:56:00","VFR",20,18.9,0,0,NA,8,1011.9,"METAR KPTV 191056Z AUTO 00000KT 8SM FEW065 BKN120 20/19 A2988 RMK AO2 RAE0957 SLP117 T02000189 $",2025-09-19 11:48:22.804326,2025-09-19 07:48:22.804369
"KRDM","Redmond Muni, OR, US",2025-09-19 10:56:00,"2025-09-19 03:56:00","VFR",9.4,5,170,5,NA,NA,1015,"METAR KRDM 191056Z AUTO 17005KT 10SM CLR 09/05 A2997 RMK AO2 SLP128 T00940050",2025-09-19 11:48:22.81126,2025-09-19 07:48:22.811305
"KRKD","Rockland/Knox Cnty, ME, US",2025-09-19 10:56:00,"2025-09-19 06:56:00","VFR",15.6,15.6,290,3,NA,NA,1010.9,"METAR KRKD 191056Z AUTO 29003KT 10SM CLR 16/16 A2985 RMK AO2 SLP108 T01560156 PNO $",2025-09-19 11:48:22.818035,2025-09-19 07:48:22.818079
"KPWG","Mc Gregor Exec, TX, US",2025-09-19 10:56:00,"2025-09-19 10:56:00","VFR",22.8,21.1,170,5,NA,NA,1016.7,"METAR KPWG 191056Z AUTO 17005KT 10SM CLR 23/21 A3002 RMK AO2 SLP157 T02280211",2025-09-19 11:48:22.824611,2025-09-19 07:48:22.824655
"KPVC","Provincetown Muni, MA, US",2025-09-19 10:56:00,"2025-09-19 06:56:00","VFR",17.8,17.2,280,4,NA,NA,1012.3,"METAR KPVC 191056Z AUTO 28004KT 10SM CLR 18/17 A2989 RMK AO2 SLP122 T01780172 PNO $",2025-09-19 11:48:22.831148,2025-09-19 07:48:22.831191
"KPVU","Provo Muni, UT, US",2025-09-19 10:56:00,"2025-09-19 04:56:00","VFR",13.3,4.4,160,6,NA,NA,1018.4,"METAR KPVU 191056Z AUTO 16006KT 10SM CLR 13/04 A3007 RMK AO2 SLP137 T01330044",2025-09-19 11:48:22.837641,2025-09-19 07:48:22.837686
"KPWT","Bremerton Arpt, WA, US",2025-09-19 10:56:00,"2025-09-19 03:56:00","VFR",7.2,7.2,0,0,NA,NA,1016.3,"METAR KPWT 191056Z AUTO 00000KT 10SM CLR 07/07 A3001 RMK AO2 SLP164 T00720072",2025-09-19 11:48:22.84409,2025-09-19 07:48:22.844133
"KRIV","Riverside/March ARB, CA, US",2025-09-19 10:55:00,"2025-09-19 03:55:00","VFR",21.8,17.8,0,0,NA,NA,1011.9,"METAR KRIV 191055Z AUTO 00000KT 10SM OVC050 22/18 A2988 RMK AO2 SLP104 T02180178",2025-09-19 11:48:22.850569,2025-09-19 07:48:22.850615
"KPOE","Fort Polk AAF, LA, US",2025-09-19 10:55:00,"2025-09-19 05:55:00","VFR",19.5,18.5,0,0,NA,9,1016.3,"METAR KPOE 191055Z AUTO 00000KT 9SM CLR 20/19 A3001 RMK AO2 SLP161 T01950185",2025-09-19 11:48:22.857026,2025-09-19 07:48:22.857068
"KRNO","Reno/Tahoe Intl, NV, US",2025-09-19 10:55:00,"2025-09-19 03:55:00","VFR",20,6.1,120,4,NA,NA,1015.3,"METAR KRNO 191055Z 12004KT 10SM BKN100 OVC150 20/06 A2998 RMK AO2 SLP091 T02000061",2025-09-19 11:48:22.863592,2025-09-19 07:48:22.863636
"KPOB","Pope AAF, NC, US",2025-09-19 10:55:00,"2025-09-19 06:55:00","VFR",16.4,15.9,0,0,NA,NA,1017,"METAR KPOB 191055Z AUTO 00000KT 10SM CLR 16/16 A3003 RMK AO2 SLP170 T01640159 $",2025-09-19 11:48:22.87009,2025-09-19 07:48:22.870134
"KRND","Randolph AFB, TX, US",2025-09-19 10:55:00,"2025-09-19 05:55:00","VFR",22.1,19.4,0,0,NA,NA,1016.3,"METAR KRND 191055Z AUTO 00000KT 10SM CLR 22/19 A3001 RMK AO2 SLP153 T02210194",2025-09-19 11:48:22.876663,2025-09-19 07:48:22.876708
"KPSM","Portsmouth Intl, NH, US",2025-09-19 10:55:00,"2025-09-19 06:55:00","VFR",18.1,14.2,280,8,NA,NA,1011.6,"METAR KPSM 191055Z 28008KT 10SM FEW200 18/14 A2987 RMK AO2A SLP117 T01810142",2025-09-19 11:48:22.88336,2025-09-19 07:48:22.883406
"KRCA","Ellsworth AFB, SD, US",2025-09-19 10:55:00,"2025-09-19 04:55:00","IFR",9.6,8.8,260,3,NA,NA,1017,"METAR KRCA 191055Z AUTO 26003KT 10SM BKN009 10/09 A3003 RMK AO2 BKN V FEW CIG 008 RWY13 SLP162 T00960088 PWINO $",2025-09-19 11:48:22.890427,2025-09-19 07:48:22.89049
"KRKS","Rock Springs/SW Wyoming Rgnl, WY, US",2025-09-19 10:54:00,"2025-09-19 04:54:00","VFR",6.7,-2.8,170,6,NA,NA,1022.4,"METAR KRKS 191054Z AUTO 17006KT 10SM CLR 07/M03 A3019 RMK AO2 SLP161 T00671028",2025-09-19 11:48:22.911924,2025-09-19 07:48:22.911972
"KROC","Rochester Intl Arpt, NY, US",2025-09-19 10:54:00,"2025-09-19 06:54:00","MVFR",16.7,11.7,40,8,NA,NA,1019.4,"METAR KROC 191054Z 04008KT 10SM OVC023 17/12 A3010 RMK AO2 SLP193 T01670117 $",2025-09-19 11:48:22.919179,2025-09-19 07:48:22.919222
"KROA","Roanoke Rgnl, VA, US",2025-09-19 10:54:00,"2025-09-19 06:54:00","VFR",15.6,13.3,50,3,NA,NA,1019.4,"METAR KROA 191054Z 05003KT 10SM CLR 16/13 A3010 RMK AO2 SLP183 T01560133 $",2025-09-19 11:48:22.926028,2025-09-19 07:48:22.926072
"KRDG","Reading/Spaatz Fld, PA, US",2025-09-19 10:54:00,"2025-09-19 06:54:00","VFR",14.4,12.2,0,0,NA,9,1016.3,"METAR KRDG 191054Z 00000KT 9SM CLR 14/12 A3001 RMK AO2 SLP165 T01440122 $",2025-09-19 11:48:22.932647,2025-09-19 07:48:22.93269
"KPTW","Pottstown/Heritage Fld, PA, US",2025-09-19 10:54:00,"2025-09-19 06:54:00","VFR",12.8,11.7,0,0,NA,9,1016.7,"METAR KPTW 191054Z AUTO 00000KT 9SM CLR 13/12 A3002 RMK AO2 SLP163 T01280117",2025-09-19 11:48:22.939277,2025-09-19 07:48:22.939321
"KPSF","Pittsfield Muni, MA, US",2025-09-19 10:54:00,"2025-09-19 06:54:00","VFR",16.1,12.8,260,7,NA,NA,1015.3,"METAR KPSF 191054Z AUTO 26007KT 10SM BKN036 16/13 A2998 RMK AO2 SLP132 T01610128",2025-09-19 11:48:22.946394,2025-09-19 07:48:22.946438
"KRFD","Rockford Intl, IL, US",2025-09-19 10:54:00,"2025-09-19 05:54:00","VFR",17.2,15,0,0,NA,NA,1017.7,"METAR KRFD 191054Z 00000KT 10SM BKN100 17/15 A3005 RMK AO2 SLP173 T01720150",2025-09-19 11:48:22.9533,2025-09-19 07:48:22.953347
"KPNE","Philadelphia/NE Arpt, PA, US",2025-09-19 10:54:00,"2025-09-19 06:54:00","VFR",16.7,15.6,0,0,NA,8,1016,"METAR KPNE 191054Z AUTO 00000KT 8SM CLR 17/16 A3000 RMK AO2 SLP159 T01670156 TSNO",2025-09-19 11:48:22.960178,2025-09-19 07:48:22.96022
"KRIC","Richmond Intl, VA, US",2025-09-19 10:54:00,"2025-09-19 06:54:00","VFR",17.2,16.7,200,3,NA,7,1016.7,"METAR KRIC 191054Z 20003KT 7SM CLR 17/17 A3002 RMK AO2 SLP168 T01720167",2025-09-19 11:48:22.966832,2025-09-19 07:48:22.966875
"KRBL","Red Bluff Muni, CA, US",2025-09-19 10:54:00,"2025-09-19 03:54:00","VFR",20.6,10.6,350,3,NA,NA,1010.9,"METAR KRBL 191054Z AUTO 35003KT 10SM CLR 21/11 A2985 RMK AO2 SLP104 T02060106",2025-09-19 11:48:22.973549,2025-09-19 07:48:22.973594
"KRMG","Rome/Russell Arpt, GA, US",2025-09-19 10:53:00,"2025-09-19 06:53:00","VFR",17.8,15,20,4,NA,NA,1017.7,"METAR KRMG 191053Z AUTO 02004KT 10SM CLR 18/15 A3005 RMK AO2 SLP167 T01780150",2025-09-19 11:48:22.980166,2025-09-19 07:48:22.98021
"KRME","Rome/Griffiss Intl, NY, US",2025-09-19 10:53:00,"2025-09-19 06:53:00","MVFR",15.6,12.2,310,5,NA,NA,1017.7,"METAR KRME 191053Z 31005KT 10SM BKN020 OVC029 16/12 A3005 RMK AO2 SLP172 T01560122",2025-09-19 11:48:22.987027,2025-09-19 07:48:22.987073
"KPRB","Paso Robles Muni, CA, US",2025-09-19 10:53:00,"2025-09-19 03:53:00","VFR",20,15,310,4,NA,NA,1013,"METAR KPRB 191053Z AUTO 31004KT 10SM BKN110 20/15 A2991 RMK AO2 SLP119 T02000150",2025-09-19 11:48:22.993784,2025-09-19 07:48:22.993828
"KPOU","Poughkeepsie/Hudson Valley Rgnl, NY, US",2025-09-19 10:53:00,"2025-09-19 06:53:00","VFR",12.2,11.7,0,0,NA,NA,1014.6,"METAR KPOU 191053Z 00000KT 10SM CLR 12/12 A2996 RMK AO2 SLP142 T01220117",2025-09-19 11:48:23.000352,2025-09-19 07:48:23.000395
"KRIW","Riverton Rgnl, WY, US",2025-09-19 10:53:00,"2025-09-19 04:53:00","VFR",8.3,2.2,300,10,NA,NA,1020.1,"METAR KRIW 191053Z AUTO 30010KT 10SM CLR 08/02 A3012 RMK AO2 SLP151 T00830022",2025-09-19 11:48:23.006965,2025-09-19 07:48:23.00701
"KRKP","Rockport/Aransas Cnty, TX, US",2025-09-19 10:53:00,"2025-09-19 05:53:00","VFR",25,21.7,150,3,NA,NA,1014.6,"METAR KRKP 191053Z AUTO 15003KT 10SM CLR 25/22 A2996 RMK AO2 SLP147 T02500217 $",2025-09-19 11:48:23.013523,2025-09-19 07:48:23.013571
"KPUB","Pueblo Mem Arpt, CO, US",2025-09-19 10:53:00,"2025-09-19 04:53:00","VFR",9.4,8.3,310,6,NA,NA,1020.1,"METAR KPUB 191053Z AUTO 31006KT 10SM CLR 09/08 A3012 RMK AO2 SLP159 T00940083",2025-09-19 11:48:23.020164,2025-09-19 07:48:23.020207
"KPSP","Palm Springs Intl, CA, US",2025-09-19 10:53:00,"2025-09-19 03:53:00","VFR",23.9,21.1,0,0,NA,NA,1010.6,"METAR KPSP 191053Z AUTO 00000KT 10SM CLR 24/21 A2984 RMK AO2 SLP102 T02390211 $",2025-09-19 11:48:23.027045,2025-09-19 07:48:23.02709
"KPUC","Price/Buck Fld, UT, US",2025-09-19 10:53:00,"2025-09-19 04:53:00","VFR",12.2,0.6,0,0,NA,NA,1020.7,"METAR KPUC 191053Z AUTO 00000KT 10SM CLR 12/01 A3014 RMK AO2 SLP147 T01220006",2025-09-19 11:48:23.047183,2025-09-19 07:48:23.047266
"KRAL","Riverside Muni, CA, US",2025-09-19 10:53:00,"2025-09-19 03:53:00","VFR",21.7,17.2,0,0,NA,NA,1011.9,"METAR KRAL 191053Z AUTO 00000KT 10SM FEW055 22/17 A2988 RMK AO2 SLP102 T02170172 $",2025-09-19 11:48:23.055065,2025-09-19 07:48:23.055115
"KPSC","Pasco/Tri Cities Arpt, WA, US",2025-09-19 10:53:00,"2025-09-19 03:53:00","VFR",13.3,11.7,320,3,NA,NA,1011.9,"METAR KPSC 191053Z AUTO 32003KT 10SM CLR 13/12 A2988 RMK AO2 SLP114 T01330117",2025-09-19 11:48:23.061911,2025-09-19 07:48:23.061955
"KPUW","Pullman/Moscow Rgnl, WA, US",2025-09-19 10:53:00,"2025-09-19 03:53:00","VFR",11.7,6.1,0,0,NA,NA,1014.3,"METAR KPUW 191053Z AUTO 00000KT 10SM CLR 12/06 A2995 RMK AO2 SLP128 T01170061",2025-09-19 11:48:23.068553,2025-09-19 07:48:23.068599
"KRIL","Rifle/Garfield Cnty, CO, US",2025-09-19 10:53:00,"2025-09-19 04:53:00","VFR",6.7,-2.8,0,0,NA,NA,1022.8,"METAR KRIL 191053Z AUTO 00000KT 10SM CLR 07/M03 A3020 RMK AO2 SLP176 T00671028",2025-09-19 11:48:23.075228,2025-09-19 07:48:23.075271
"KPSX","Palacios Muni, TX, US",2025-09-19 10:53:00,"2025-09-19 05:53:00","VFR",22.2,21.1,30,5,NA,8,1015.3,"METAR KPSX 191053Z AUTO 03005KT 8SM CLR 22/21 A2998 RMK AO2 SLP150 T02220211 $",2025-09-19 11:48:23.082057,2025-09-19 07:48:23.082099
"KRBG","Roseburg Rgnl, OR, US",2025-09-19 10:53:00,"2025-09-19 03:53:00","VFR",16.7,11.1,0,0,NA,NA,1013,"METAR KRBG 191053Z AUTO 00000KT 10SM CLR 17/11 A2991 RMK AO2 SLP125 T01670111",2025-09-19 11:48:23.089016,2025-09-19 07:48:23.089061
"KPNC","Ponca City Rgnl, OK, US",2025-09-19 10:53:00,"2025-09-19 05:53:00","VFR",16.7,16.1,0,0,NA,NA,1017.7,"METAR KPNC 191053Z AUTO 00000KT 10SM CLR 17/16 A3005 RMK AO2 SLP165 T01670161 TSNO $",2025-09-19 11:48:23.095628,2025-09-19 07:48:23.095678
"KPWA","Oklahoma City/Wiley Post Arpt, OK, US",2025-09-19 10:53:00,"2025-09-19 05:53:00","VFR",18.3,16.7,0,0,NA,NA,1017.7,"METAR KPWA 191053Z AUTO 00000KT 10SM SCT090 18/17 A3005 RMK AO2 LTG DSNT SW SLP162 T01830167",2025-09-19 11:48:23.102543,2025-09-19 07:48:23.102588
"KRNT","Renton Muni, WA, US",2025-09-19 10:53:00,"2025-09-19 03:53:00","VFR",14.4,11.7,0,0,NA,NA,1015.7,"METAR KRNT 191053Z 00000KT 10SM CLR 14/12 A2999 RMK AO2 SLP161 T01440117",2025-09-19 11:48:23.109138,2025-09-19 07:48:23.109181
"KRAC","Racine/Batten Intl, WI, US",2025-09-19 10:53:00,"2025-09-19 05:53:00","VFR",18.9,18.3,50,4,NA,9,1018.7,"METAR KRAC 191053Z AUTO 05004KT 9SM BKN100 19/18 A3008 RMK AO2 SLP182 T01890183",2025-09-19 11:48:23.11568,2025-09-19 07:48:23.115724
"KRBD","Dallas/Executive Arpt, TX, US",2025-09-19 10:53:00,"2025-09-19 05:53:00","VFR",23.9,19.4,100,4,NA,NA,1016.3,"METAR KRBD 191053Z AUTO 10004KT 10SM CLR 24/19 A3001 RMK AO2 SLP151 T02390194 $",2025-09-19 11:48:23.122202,2025-09-19 07:48:23.122246
"KPNS","Pensacola Intl, FL, US",2025-09-19 10:53:00,"2025-09-19 05:53:00","VFR",21.1,19.4,340,6,NA,NA,1016.3,"METAR KPNS 191053Z 34006KT 10SM CLR 21/19 A3001 RMK AO2 SLP162 T02110194",2025-09-19 11:48:23.128735,2025-09-19 07:48:23.128778
"KRAP","Rapid City Rgnl, SD, US",2025-09-19 10:52:00,"2025-09-19 04:52:00","VFR",8.3,7.2,340,3,NA,NA,1018.4,"METAR KRAP 191052Z AUTO 34003KT 10SM SCT011 08/07 A3007 RMK AO2 SLP174 T00830072",2025-09-19 11:48:23.135212,2025-09-19 07:48:23.135254
"KPWK","Chicago Exec, IL, US",2025-09-19 10:52:00,"2025-09-19 05:52:00","VFR",19.4,17.2,0,0,NA,NA,1017.7,"METAR KPWK 191052Z 00000KT 10SM FEW100 19/17 A3005 RMK AO2 SLP172 T01940172",2025-09-19 11:48:23.141676,2025-09-19 07:48:23.14172
"KREO","Rome/State Arpt, OR, US",2025-09-19 10:52:00,"2025-09-19 04:52:00",NA,13.9,0.6,60,6,NA,NA,1015,"METAR KREO 191052Z AUTO 06006KT 14/01 A2997 RMK AO1 SLP109 T01390006",2025-09-19 11:48:23.148081,2025-09-19 07:48:23.148123
"KPYM","Plymouth Muni, MA, US",2025-09-19 10:52:00,"2025-09-19 06:52:00","VFR",14.4,13.3,280,4,NA,NA,1012.6,"METAR KPYM 191052Z AUTO 28004KT 10SM CLR 14/13 A2990 RMK AO2 SLP126 T01440133",2025-09-19 11:48:23.154535,2025-09-19 07:48:23.154581
"KPVD","Providence/Green Mem, RI, US",2025-09-19 10:51:00,"2025-09-19 06:51:00","VFR",16.1,13.3,270,6,NA,NA,1013.3,"METAR KPVD 191051Z 27006KT 10SM FEW200 16/13 A2992 RMK AO2 SLP131 T01610133 $",2025-09-19 11:48:23.161211,2025-09-19 07:48:23.161254
"KROW","Roswell/Ind Arpt, NM, US",2025-09-19 10:51:00,"2025-09-19 04:51:00","VFR",18.3,14.4,0,0,NA,NA,1019,"METAR KROW 191051Z AUTO 00000KT 10SM CLR 18/14 A3009 RMK AO2 SLP129 T01830144 $",2025-09-19 11:48:23.167927,2025-09-19 07:48:23.16797
"KPWM","Portland Intl, ME, US",2025-09-19 10:51:00,"2025-09-19 06:51:00","VFR",13.3,12.8,0,0,NA,NA,1011.6,"METAR KPWM 191051Z 00000KT 10SM FEW100 13/13 A2987 RMK AO2 SLP113 T01330128 $",2025-09-19 11:48:23.188632,2025-09-19 07:48:23.188679
"KRDU","Raleigh-Durham Intl, NC, US",2025-09-19 10:51:00,"2025-09-19 06:51:00","VFR",17.8,17.2,0,0,NA,8,1017.7,"METAR KRDU 191051Z 00000KT 8SM FEW075 FEW085 18/17 A3005 RMK AO2 SLP171 T01780172",2025-09-19 11:48:23.196173,2025-09-19 07:48:23.196218
"KSCH","Schenectady Cnty, NY, US",2025-09-19 11:45:00,"2025-09-19 07:45:00","VFR",18,14,290,9,NA,NA,1015.7,"METAR KSCH 191145Z 29009KT 10SM SCT045 SCT055 OVC065 18/14 A2999 RMK FIRST",2025-09-19 11:48:24.522141,2025-09-19 07:48:24.522189
"KSAW","Marquette/Sawyer Intl, MI, US",2025-09-19 11:45:00,"2025-09-19 07:45:00","VFR",13,12,40,6,NA,NA,1021.4,"METAR KSAW 191145Z 04006KT 10SM BKN075 BKN100 13/12 A3016",2025-09-19 11:48:24.529253,2025-09-19 07:48:24.529298
"KSDL","Scottsdale Muni, AZ, US",2025-09-19 11:44:00,"2025-09-19 04:44:00","VFR",25.6,17.2,30,11,NA,NA,1013,"SPECI KSDL 191144Z AUTO 03011KT 10SM SCT085 BKN110 26/17 A2991 RMK AO2 LTG DSNT NW-NE TSB12E27 T02560172",2025-09-19 11:48:24.536318,2025-09-19 07:48:24.536363
"KSAN","San Diego Intl Arpt, CA, US",2025-09-19 11:43:00,"2025-09-19 04:43:00","IFR",20.6,20,320,4,NA,8,1011.9,"SPECI KSAN 191143Z 32004KT 8SM BKN005 21/20 A2988 RMK AO2 T02060200",2025-09-19 11:48:24.543304,2025-09-19 07:48:24.543348
"KSBD","San Bernardino Intl, CA, US",2025-09-19 11:40:00,"2025-09-19 04:40:00","VFR",21.5,16.3,0,0,NA,NA,1012.3,"METAR KSBD 191140Z AUTO 00000KT 10SM SCT065 SCT080 22/16 A2989 RMK AO2 T02150163",2025-09-19 11:48:24.55028,2025-09-19 07:48:24.550325
"KSJC","San Jose Intl Arpt, CA, US",2025-09-19 11:40:00,"2025-09-19 04:40:00","MVFR",16.7,14.4,340,5,NA,NA,1011.6,"SPECI KSJC 191140Z AUTO 34005KT 10SM BKN012 17/14 A2987 RMK AO2 T01670144 $",2025-09-19 11:48:24.557176,2025-09-19 07:48:24.557221
"KRRL","Merrill Muni, WI, US",2025-09-19 11:40:00,"2025-09-19 06:40:00","IFR",15.6,15.2,140,4,NA,NA,1020.1,"METAR KRRL 191140Z AUTO 14004KT 10SM OVC008 16/15 A3012 RMK AO2 T01560152 TSNO",2025-09-19 11:48:24.564169,2025-09-19 07:48:24.564214
"KSBY","Salisbury/Ocean City, MD, US",2025-09-19 11:37:00,"2025-09-19 07:37:00","VFR",17.8,17.8,190,3,NA,6,1016.7,"SPECI KSBY 191137Z 19003KT 6SM BR CLR 18/18 A3002 RMK AO2 T01780178",2025-09-19 11:48:24.570858,2025-09-19 07:48:24.570901
"KRWI","Rocky Mount/Wilson Rgnl, NC, US",2025-09-19 11:36:00,"2025-09-19 07:36:00","LIFR",16.7,16.7,0,0,NA,0.25,1018,"SPECI KRWI 191136Z AUTO 00000KT 1/4SM FG VV002 17/17 A3006 RMK AO2 T01670167",2025-09-19 11:48:24.577558,2025-09-19 07:48:24.577603
"KSEE","San Diego/Gillespie Fld, CA, US",2025-09-19 11:35:00,"2025-09-19 04:35:00","VFR",20,18,0,0,NA,NA,1011.6,"METAR KSEE 191135Z AUTO 00000KT 10SM CLR 20/18 A2987 RMK AO2",2025-09-19 11:48:24.584702,2025-09-19 07:48:24.584751
"KSEP","Stephenville/Clark Rgnl, TX, US",2025-09-19 11:35:00,"2025-09-19 06:35:00","VFR",20,16.8,0,0,NA,NA,1018,"METAR KSEP 191135Z AUTO 00000KT 10SM CLR 20/17 A3006 RMK AO2 T02000168",2025-09-19 11:48:24.591889,2025-09-19 07:48:24.591935
"KS24","Fremont/Sandusky Cnty, OH, US",2025-09-19 11:35:00,"2025-09-19 11:35:00","LIFR",14,14,0,0,NA,NA,1019,"METAR KS24 191135Z AUTO 00000KT 10SM BKN004 14/14 A3009 RMK AO2",2025-09-19 11:48:24.598904,2025-09-19 07:48:24.598952
"KRWV","Caldwell Muni, TX, US",2025-09-19 11:35:00,"2025-09-19 11:35:00","VFR",NA,NA,0,0,NA,7,1017,"METAR KRWV 191135Z AUTO 00000KT 7SM CLR A3003 RMK AO2 PWINO",2025-09-19 11:48:24.620257,2025-09-19 07:48:24.620303
"KRZN","Siren/Burnett Cnty, WI, US",2025-09-19 11:35:00,"2025-09-19 11:35:00","VFR",17.6,17.1,0,0,NA,7,1017.4,"METAR KRZN 191135Z AUTO 00000KT 7SM SCT080 18/17 A3004 RMK AO2 T01760171",2025-09-19 11:48:24.62776,2025-09-19 07:48:24.627804
"KRZR","Cleveland Rgnl, TN, US",2025-09-19 11:35:00,"2025-09-19 11:35:00","VFR",14,14,0,0,NA,7,1018,"METAR KRZR 191135Z AUTO 00000KT 7SM CLR 14/14 A3006 RMK A01",2025-09-19 11:48:24.634526,2025-09-19 07:48:24.634572
"KS39","Prineville Arpt, OR, US",2025-09-19 11:35:00,"2025-09-19 04:35:00","VFR",10,6,0,0,NA,NA,1015.3,"METAR KS39 191135Z AUTO 00000KT 10SM CLR 10/06 A2998 RMK AO2",2025-09-19 11:48:24.641286,2025-09-19 07:48:24.64133
"KRPH","Graham Muni, TX, US",2025-09-19 11:35:00,"2025-09-19 11:35:00","VFR",19.4,16.5,0,0,NA,NA,1016,"METAR KRPH 191135Z AUTO 00000KT 10SM CLR 19/16 A3000 RMK AO2 T01940165 $",2025-09-19 11:48:24.648068,2025-09-19 07:48:24.648115
"KSAA","Saratoga/Shively Fld, WY, US",2025-09-19 11:35:00,"2025-09-19 05:35:00","VFR",7,-1,140,10,NA,NA,1023.5,"METAR KSAA 191135Z AUTO 14010KT 10SM CLR 07/M01 A3022 RMK AO2",2025-09-19 11:48:24.65484,2025-09-19 07:48:24.654886
"KSHD","Staunton/Shenandoah Valley Rgnl, VA, US",2025-09-19 11:35:00,"2025-09-19 07:35:00","VFR",9.8,9.8,0,0,NA,7,1020.1,"METAR KSHD 191135Z AUTO 00000KT 7SM SCT002 10/10 A3012 RMK AO2 T00980098",2025-09-19 11:48:24.66152,2025-09-19 07:48:24.661566
"KRVL","Reedsville/Mifflin Cnty, PA, US",2025-09-19 11:35:00,"2025-09-19 07:35:00","VFR",12,11,0,0,NA,6,1018,"METAR KRVL 191135Z AUTO 00000KT 6SM BR CLR 12/11 A3006 RMK AO2",2025-09-19 11:48:24.66818,2025-09-19 07:48:24.668226
"KSHL","Sheldon Muni, IA, US",2025-09-19 11:35:00,"2025-09-19 11:35:00","MVFR",16,16,230,3,NA,NA,1013.3,"METAR KSHL 191135Z AUTO 23003KT 10SM OVC021 16/16 A2992 RMK AO2",2025-09-19 11:48:24.675145,2025-09-19 07:48:24.67519
"KRZT","Chillicothe/Ross Cnty, OH, US",2025-09-19 11:35:00,"2025-09-19 11:35:00","MVFR",10,10,0,0,NA,4,1019.4,"METAR KRZT 191135Z AUTO 00000KT 4SM CLR 10/10 A3010 RMK AO2 PWINO",2025-09-19 11:48:24.681936,2025-09-19 07:48:24.681979
"KSIF","Eden/Shiloh Arpt, NC, US",2025-09-19 11:35:00,"2025-09-19 11:35:00","VFR",13.9,13.6,0,0,NA,7,1018.7,"METAR KSIF 191135Z AUTO 00000KT 7SM CLR 14/14 A3008 RMK AO2 T01390136",2025-09-19 11:48:24.688812,2025-09-19 07:48:24.688859
"KS12","Albany Muni, OR, US",2025-09-19 11:35:00,"2025-09-19 11:35:00","VFR",12,11,340,4,NA,NA,1013.3,"METAR KS12 191135Z AUTO 34004KT 10SM CLR 12/11 A2992 RMK AO2",2025-09-19 11:48:24.695813,2025-09-19 07:48:24.695858
"KS34","Plains Arpt, MT, US",2025-09-19 11:35:00,"2025-09-19 11:35:00","VFR",8,8,0,0,NA,NA,1016,"METAR KS34 191135Z AUTO 00000KT 10SM CLR 08/08 A3000 RMK AO2",2025-09-19 11:48:24.702654,2025-09-19 07:48:24.702698
"KSGS","South St Paul Muni, MN, US",2025-09-19 11:35:00,"2025-09-19 11:35:00","VFR",19.5,18.2,150,5,NA,NA,1015.7,"METAR KSGS 191135Z AUTO 15005KT 10SM SCT090 SCT120 20/18 A2999 RMK AO2 T01950182",2025-09-19 11:48:24.709421,2025-09-19 07:48:24.709487
"KRRT","Warroad Intl, MN, US",2025-09-19 11:35:00,"2025-09-19 06:35:00","MVFR",14,13,100,11,18,5,1018.7,"METAR KRRT 191135Z AUTO 10011G18KT 5SM RA OVC014 14/13 A3008 RMK AO2",2025-09-19 11:48:24.716151,2025-09-19 07:48:24.716196
"KRUG","Rugby Muni, ND, US",2025-09-19 11:35:00,"2025-09-19 11:35:00","IFR",13,13,10,7,NA,NA,1017.4,"METAR KRUG 191135Z AUTO 01007KT 10SM OVC005 13/13 A3004 RMK AO2",2025-09-19 11:48:24.723096,2025-09-19 07:48:24.723143
"KS25","Watford City Muni, ND, US",2025-09-19 11:35:00,"2025-09-19 11:35:00","IFR",13,13,0,0,NA,NA,1019.4,"METAR KS25 191135Z AUTO 00000KT 10SM OVC006 13/13 A3010 RMK AO2",2025-09-19 11:48:24.729961,2025-09-19 07:48:24.730007
"KSBO","Swainsboro/E Georgia Rgnl, GA, US",2025-09-19 11:35:00,"2025-09-19 11:35:00","VFR",19,18,0,0,NA,NA,1017.7,"METAR KSBO 191135Z AUTO 00000KT 10SM CLR 19/18 A3005 RMK AO2",2025-09-19 11:48:24.737026,2025-09-19 07:48:24.737073
"KSCD","Sylacauga Muni, AL, US",2025-09-19 11:35:00,"2025-09-19 11:35:00",NA,17.5,17,0,0,NA,NA,1017.7,"METAR KSCD 191135Z AUTO 00000KT 18/17 A3005 RMK AO2 T01750170 PWINO",2025-09-19 11:48:24.743847,2025-09-19 07:48:24.743891
"KSJX","Beaver Island Arpt, MI, US",2025-09-19 11:35:00,"2025-09-19 11:35:00","MVFR",16,14,90,7,NA,NA,1021.1,"METAR KSJX 191135Z AUTO 09007KT 10SM BKN010 BKN120 16/14 A3015 RMK AO2",2025-09-19 11:48:24.764875,2025-09-19 07:48:24.764925
"KSIK","Sikeston Arpt, MO, US",2025-09-19 11:35:00,"2025-09-19 06:35:00",NA,20.6,17.1,90,5,NA,NA,1015.7,"METAR KSIK 191135Z AUTO 09005KT OVC180 21/17 A2999 RMK AO2 T02060171 PWINO $",2025-09-19 11:48:24.772158,2025-09-19 07:48:24.772203
"KSDC","Williamson-Sodus Arpt, NY, US",2025-09-19 11:35:00,"2025-09-19 11:35:00","MVFR",16,10,0,0,NA,NA,1019.7,"METAR KSDC 191135Z AUTO 00000KT 10SM OVC029 16/10 A3011 RMK AO2",2025-09-19 11:48:24.779062,2025-09-19 07:48:24.779109
"KSDA","Shenandoah Muni, IA, US",2025-09-19 11:35:00,"2025-09-19 11:35:00","VFR",16,16,230,3,NA,6,1015.3,"METAR KSDA 191135Z AUTO 23003KT 6SM BR SCT002 BKN065 16/16 A2998 RMK AO2",2025-09-19 11:48:24.785914,2025-09-19 07:48:24.785959
"KSAR","Sparta/Hunter Fld, IL, US",2025-09-19 11:35:00,"2025-09-19 06:35:00","VFR",20,17.8,0,0,NA,NA,1017,"METAR KSAR 191135Z AUTO 00000KT 10SM CLR 20/18 A3003 RMK AO2 LTG DSNT S T02000178",2025-09-19 11:48:24.792864,2025-09-19 07:48:24.792912
"KRSV","Robinson Muni, IL, US",2025-09-19 11:35:00,"2025-09-19 11:35:00","VFR",13,12,330,1,NA,7,1017.4,"METAR KRSV 191135Z AUTO 33001KT 7SM CLR 13/12 A3004 RMK AO2",2025-09-19 11:48:24.799774,2025-09-19 07:48:24.799818
"KSEZ","Sedona Arpt, AZ, US",2025-09-19 11:35:00,"2025-09-19 04:35:00","VFR",16,14,0,0,NA,NA,1020.7,"METAR KSEZ 191135Z AUTO 00000KT 10SM VCTS RA FEW046 SCT070 BKN085 16/14 A3014 RMK AO2 LTG DSNT SE-SW",2025-09-19 11:48:24.806868,2025-09-19 07:48:24.806912
"KSCX","Oneida/Scott Muni, TN, US",2025-09-19 11:35:00,"2025-09-19 11:35:00","VFR",14,14,0,0,NA,7,1019.4,"METAR KSCX 191135Z AUTO 00000KT 7SM CLR 14/14 A3010 RMK A01",2025-09-19 11:48:24.813828,2025-09-19 07:48:24.813872
"KS21","Sunriver Arpt, OR, US",2025-09-19 11:35:00,"2025-09-19 04:35:00","VFR",8,6,360,3,NA,NA,1018,"METAR KS21 191135Z AUTO 36003KT 10SM CLR 08/06 A3006 RMK AO2",2025-09-19 11:48:24.820862,2025-09-19 07:48:24.820906
"KSBX","Shelby/Toole Cnty Arpt, MT, US",2025-09-19 11:35:00,"2025-09-19 05:35:00","VFR",8,5,300,4,NA,NA,1018,"METAR KSBX 191135Z AUTO 30004KT 10SM CLR 08/05 A3006 RMK AO2",2025-09-19 11:48:24.827893,2025-09-19 07:48:24.827937
"KSEM","Selma/Craig Fld, AL, US",2025-09-19 11:35:00,"2025-09-19 06:35:00","VFR",18,18,0,0,NA,NA,1017,"METAR KSEM 191135Z AUTO 00000KT 10SM CLR 18/18 A3003 RMK AO2",2025-09-19 11:48:24.834823,2025-09-19 07:48:24.834869
"KRSN","Ruston Rgnl, LA, US",2025-09-19 11:35:00,"2025-09-19 06:35:00","VFR",20.9,18.9,NA,4,NA,NA,1017,"METAR KRSN 191135Z AUTO VRB04KT 10SM CLR 21/19 A3003 RMK AO2 T02090189",2025-09-19 11:48:24.841682,2025-09-19 07:48:24.841726
"KS32","Cooperstown Muni, ND, US",2025-09-19 11:35:00,"2025-09-19 11:35:00",NA,16,16,70,7,NA,1.75,1015.3,"METAR KS32 191135Z AUTO 07007KT 1 3/4SM BR 16/16 A2998 RMK AO2 TSNO",2025-09-19 11:48:24.848287,2025-09-19 07:48:24.848328
"KSBS","Steamboat Springs/Adams Fld, CO, US",2025-09-19 11:35:00,"2025-09-19 05:35:00","VFR",1.6,-1,0,0,NA,NA,1024.8,"METAR KSBS 191135Z AUTO 00000KT 10SM CLR 02/M01 A3026 RMK AO1 T00161010",2025-09-19 11:48:24.855139,2025-09-19 07:48:24.855184
"KRQB","Big Rapids/Roben Hood Arpt, MI, US",2025-09-19 11:35:00,"2025-09-19 07:35:00","VFR",17,17,70,3,NA,7,1020.1,"METAR KRQB 191135Z AUTO 07003KT 7SM BKN080 17/17 A3012 RMK AO2",2025-09-19 11:48:24.862004,2025-09-19 07:48:24.862046
"KSAZ","Staples Muni, MN, US",2025-09-19 11:35:00,"2025-09-19 11:35:00","LIFR",16,14,70,3,NA,3,1016,"METAR KSAZ 191135Z AUTO 07003KT 3SM BR OVC002 16/14 A3000 RMK AO2",2025-09-19 11:48:24.868934,2025-09-19 07:48:24.868979
"KRUQ","Salisbury/Rowan Cnty, NC, US",2025-09-19 11:35:00,"2025-09-19 07:35:00",NA,14.5,14.2,0,0,NA,7,1018.4,"METAR KRUQ 191135Z AUTO 00000KT 7SM 15/14 A3007 RMK AO2 T01450142",2025-09-19 11:48:24.876082,2025-09-19 07:48:24.876126
"KSFQ","Suffolk Muni, VA, US",2025-09-19 11:35:00,"2025-09-19 11:35:00",NA,15.2,15.2,NA,NA,NA,NA,1018,"METAR KSFQ 191135Z AUTO OVC003 15/15 A3006 RMK AO2 T01520152 PWINO TSNO",2025-09-19 11:48:24.883174,2025-09-19 07:48:24.88322
"KRQO","El Reno Rgnl, OK, US",2025-09-19 11:35:00,"2025-09-19 06:35:00","VFR",17,NA,100,6,NA,NA,1018,"METAR KRQO 191135Z AUTO 10006KT 10SM SCT110 17/ A3006 RMK AO2",2025-09-19 11:48:24.904451,2025-09-19 07:48:24.904544
"KRZL","Rensselaer/Jasper Cnty, IN, US",2025-09-19 11:35:00,"2025-09-19 06:35:00","VFR",13,13,60,4,NA,NA,1018,"METAR KRZL 191135Z AUTO 06004KT 10SM CLR 13/13 A3006 RMK AO2",2025-09-19 11:48:24.912807,2025-09-19 07:48:24.91286
"KRPJ","Rochelle/Kontz Fld, IL, US",2025-09-19 11:35:00,"2025-09-19 11:35:00","VFR",15.3,12.9,40,3,NA,7,1017.4,"METAR KRPJ 191135Z AUTO 04003KT 7SM CLR 15/13 A3004 RMK AO2 T01530129",2025-09-19 11:48:24.920008,2025-09-19 07:48:24.920051
"KS33","Madras Muni, OR, US",2025-09-19 11:35:00,"2025-09-19 04:35:00","VFR",11,7,NA,NA,NA,NA,1015,"METAR KS33 191135Z AUTO 10SM CLR 11/07 A2997 RMK AO2",2025-09-19 11:48:24.927014,2025-09-19 07:48:24.927059
"KRVJ","Reidsville/Smith Fld, GA, US",2025-09-19 11:35:00,"2025-09-19 11:35:00","VFR",20.6,19.5,80,6,NA,NA,1017.4,"METAR KRVJ 191135Z AUTO 08006KT 10SM SCT065 BKN075 BKN095 21/20 A3004 RMK AO2 T02060195",2025-09-19 11:48:24.934229,2025-09-19 07:48:24.934276
"KSEF","Sebring Rgnl, FL, US",2025-09-19 11:35:00,"2025-09-19 07:35:00","VFR",22,21.9,330,5,NA,NA,1015.7,"METAR KSEF 191135Z AUTO 33005KT 10SM CLR 22/22 A2999 RMK AO2 T02200219",2025-09-19 11:48:24.941503,2025-09-19 07:48:24.941556
"KRYV","Watertown Muni, WI, US",2025-09-19 11:35:00,"2025-09-19 11:35:00","VFR",17.5,17.2,60,3,NA,7,1018,"METAR KRYV 191135Z AUTO 06003KT 7SM SCT120 18/17 A3006 RMK AO2 T01750172",2025-09-19 11:48:24.948554,2025-09-19 07:48:24.948599
"KS52","Methow Valley State Arpt, WA, US",2025-09-19 11:30:00,"2025-09-19 11:30:00","VFR",8.6,7.9,0,0,NA,NA,1015.7,"METAR KS52 191130Z AUTO 00000KT 10SM SCT070 BKN090 OVC110 09/08 A2999 RMK AO2 T00860079",2025-09-19 11:48:24.955583,2025-09-19 07:48:24.955628
"KSBA","Santa Barbara Muni, CA, US",2025-09-19 11:27:00,"2025-09-19 04:27:00","MVFR",18.9,18.3,50,3,NA,3,1011.3,"SPECI KSBA 191127Z AUTO 05003KT 3SM BR FEW004 BKN022 OVC028 19/18 A2986 RMK AO2 RAE07 P0001 T01890183 $",2025-09-19 11:48:24.962546,2025-09-19 07:48:24.96259
"KSDM","San Diego/Brown Fld, CA, US",2025-09-19 11:22:00,"2025-09-19 04:22:00","LIFR",19.4,18.9,0,0,NA,3,1011.6,"SPECI KSDM 191122Z AUTO 00000KT 3SM BR OVC002 19/19 A2987 RMK AO2 T01940189",2025-09-19 11:48:24.96959,2025-09-19 07:48:24.969636
"KRTN","Raton/Crews Fld, NM, US",2025-09-19 11:19:00,"2025-09-19 05:19:00","MVFR",12.2,11.7,260,3,NA,NA,1023.8,"SPECI KRTN 191119Z AUTO 26003KT 10SM OVC014 12/12 A3023 RMK AO2 T01220117",2025-09-19 11:48:24.976585,2025-09-19 07:48:24.97663
"KSFO","San Francisco Intl, CA, US",2025-09-19 10:56:00,"2025-09-19 03:56:00","MVFR",15.6,14.4,290,7,NA,NA,1011.6,"METAR KSFO 191056Z 29007KT 10SM R28R/4500V5000FT FEW004 BKN012 16/14 A2987 RMK AO2 SLP114 T01560144 $",2025-09-19 11:48:24.983484,2025-09-19 07:48:24.983534
"KSFM","Sanford Rgnl, ME, US",2025-09-19 10:56:00,"2025-09-19 06:56:00","VFR",16.1,15,300,6,NA,NA,1012.3,"METAR KSFM 191056Z AUTO 30006KT 10SM CLR 16/15 A2989 RMK AO2 SLP123 T01610150",2025-09-19 11:48:24.990334,2025-09-19 07:48:24.99038
"KSBP","San Luis Obispo/San Luis Cnty, CA, US",2025-09-19 10:56:00,"2025-09-19 03:56:00","VFR",17.2,15,0,0,NA,NA,1011.3,"METAR KSBP 191056Z AUTO 00000KT 10SM OVC095 17/15 A2986 RMK AO2 SLP110 T01720150",2025-09-19 11:48:24.99722,2025-09-19 07:48:24.997265
"KSHV","Shreveport Rgnl, LA, US",2025-09-19 10:56:00,"2025-09-19 05:56:00","VFR",23,20,210,4,NA,NA,1016.3,"METAR KSHV 191056Z 21004KT 10SM FEW150 23/20 A3001 RMK SLPNO",2025-09-19 11:48:25.004657,2025-09-19 07:48:25.004705
"KRUT","Rutland/S Vermont Rgnl, VT, US",2025-09-19 10:56:00,"2025-09-19 06:56:00","MVFR",16.1,13.3,320,6,NA,NA,1015.3,"METAR KRUT 191056Z AUTO 32006KT 10SM OVC024 16/13 A2998 RMK AO2 SLP145 T01610133 $",2025-09-19 11:48:25.011705,2025-09-19 07:48:25.011751
"KSGJ","St Augustine Arpt, FL, US",2025-09-19 10:56:00,"2025-09-19 06:56:00","VFR",21.1,20,0,0,NA,NA,1016.3,"METAR KSGJ 191056Z 00000KT 10SM CLR 21/20 A3001 RMK AO2 SLP162 T02110200 $",2025-09-19 11:48:25.018734,2025-09-19 07:48:25.018785
"KSDF","Louisville Intl, KY, US",2025-09-19 10:56:00,"2025-09-19 06:56:00","VFR",18.3,15,0,0,NA,NA,1017.7,"METAR KSDF 191056Z 00000KT 10SM FEW300 18/15 A3005 RMK AO2 SLP171 T01830150",2025-09-19 11:48:25.025601,2025-09-19 07:48:25.025647
"KSGU","Saint George Muni, UT, US",2025-09-19 10:56:00,"2025-09-19 04:56:00","VFR",22.8,11.7,0,0,NA,NA,1015,"METAR KSGU 191056Z AUTO 00000KT 10SM CLR 23/12 A2997 RMK AO2 SLP115 T02280117",2025-09-19 11:48:25.03241,2025-09-19 07:48:25.032454
"KSFZ","Pawtucket/N Central State Arpt, RI, US",2025-09-19 10:56:00,"2025-09-19 06:56:00","VFR",16.1,13.9,300,3,NA,NA,1013.6,"METAR KSFZ 191056Z AUTO 30003KT 10SM CLR 16/14 A2993 RMK AO2 SLP135 T01610139 $",2025-09-19 11:48:25.062208,2025-09-19 07:48:25.062257
"KSGT","Stuttgart Muni, AR, US",2025-09-19 10:56:00,"2025-09-19 05:56:00","VFR",22.8,21.7,230,3,NA,NA,1016,"METAR KSGT 191056Z AUTO 23003KT 10SM BKN100 23/22 A3000 RMK AO2 LTG DSNT SE AND S SLP158 T02280217",2025-09-19 11:48:25.069859,2025-09-19 07:48:25.069908
"KSGH","Springfield Muni, OH, US",2025-09-19 10:56:00,"2025-09-19 06:56:00","VFR",11.7,10.6,0,0,NA,NA,1019,"METAR KSGH 191056Z AUTO 00000KT 10SM CLR 12/11 A3009 RMK AO2 SLP185 T01170106",2025-09-19 11:48:25.077145,2025-09-19 07:48:25.077189
"KSKA","Spokane/Fairchild AFB, WA, US",2025-09-19 10:55:00,"2025-09-19 03:55:00","VFR",15,7.8,30,5,NA,NA,1013.6,"METAR KSKA 191055Z 03005KT 10SM CLR 15/08 A2993 RMK AO2A SLP116 T01500078 $",2025-09-19 11:48:25.083904,2025-09-19 07:48:25.083949
"KSKF","Lackland AFB/Kelly Fld, TX, US",2025-09-19 10:55:00,"2025-09-19 05:55:00","VFR",22,19,0,0,NA,NA,1015.3,"METAR KSKF 191055Z AUTO 00000KT 10SM FEW021 22/19 A2998 RMK AO2 SLP144 T02200190 $",2025-09-19 11:48:25.090876,2025-09-19 07:48:25.090921
"KRYM","Camp Ripley/Miller AAF, MN, US",2025-09-19 10:55:00,"2025-09-19 10:55:00","LIFR",16.3,15.5,90,7,NA,NA,1015,"METAR KRYM 191055Z AUTO 09007KT 10SM OVC004 16/16 A2997 RMK AO2 SLP150 T01630155 $",2025-09-19 11:48:25.097975,2025-09-19 07:48:25.098021
"KSEQ","Seguin/Randolph AUX, TX, US",2025-09-19 10:55:00,"2025-09-19 10:55:00","VFR",21.6,20.4,0,0,NA,9,1014.6,"METAR KSEQ 191055Z AUTO 00000KT 9SM CLR 22/20 A2996 RMK AO2 SLP140 T02160204",2025-09-19 11:48:25.104944,2025-09-19 07:48:25.104991
"KSCK","Stockton Metro, CA, US",2025-09-19 10:55:00,"2025-09-19 03:55:00","VFR",21.1,16.1,160,9,NA,NA,1010.2,"METAR KSCK 191055Z AUTO 16009KT 10SM OVC110 21/16 A2983 RMK AO2 SLP102 T02110161",2025-09-19 11:48:25.112211,2025-09-19 07:48:25.112266
"KSBN","South Bend Rgnl, IN, US",2025-09-19 10:54:00,"2025-09-19 06:54:00","VFR",16.1,15,0,0,NA,9,1018.7,"METAR KSBN 191054Z 00000KT 9SM CLR 16/15 A3008 RMK AO2 SLP181 T01610150",2025-09-19 11:48:25.119164,2025-09-19 07:48:25.119209
"KRST","Rochester Intl, MN, US",2025-09-19 10:54:00,"2025-09-19 05:54:00","VFR",17.8,16.7,140,7,NA,8,1016.3,"METAR KRST 191054Z 14007KT 8SM BKN100 OVC110 18/17 A3001 RMK AO2 RAB0956E41 SLP159 P0001 T01780167",2025-09-19 11:48:25.126245,2025-09-19 07:48:25.126291
"KSJN","St Johns Ind Arpt, AZ, US",2025-09-19 10:54:00,"2025-09-19 03:54:00","VFR",18.9,10.6,310,8,NA,NA,1022.4,"METAR KSJN 191054Z AUTO 31008KT 10SM -RA BKN065 OVC090 19/11 A3019 RMK AO2 LTG DSNT E AND W AND NW RAB53 SLP121 P0000 T01890106",2025-09-19 11:48:25.133448,2025-09-19 07:48:25.133525
"KSET","St Charles/Smartt Arpt, MO, US",2025-09-19 10:54:00,"2025-09-19 10:54:00","VFR",18.9,17.2,240,3,NA,NA,1016.7,"METAR KSET 191054Z AUTO 24003KT 10SM SCT110 19/17 A3002 RMK AO2 SLP159 T01890172",2025-09-19 11:48:25.141833,2025-09-19 07:48:25.141882
"KSEG","Selinsgrove/Penn Valley Arpt, PA, US",2025-09-19 10:53:00,"2025-09-19 06:53:00","VFR",11.1,11.1,0,0,NA,8,1017.4,"METAR KSEG 191053Z AUTO 00000KT 8SM CLR 11/11 A3004 RMK AO2 SLP172 T01110111",2025-09-19 11:48:25.150917,2025-09-19 07:48:25.150962
"KRWL","Rawlins Muni, WY, US",2025-09-19 10:53:00,"2025-09-19 04:53:00","VFR",3.9,-2.2,0,0,NA,NA,1022.8,"METAR KRWL 191053Z AUTO 00000KT 10SM CLR 04/M02 A3020 RMK AO2 SLP163 T00391022",2025-09-19 11:48:25.158237,2025-09-19 07:48:25.158283
"KSHR","Sheridan Cnty Arpt, WY, US",2025-09-19 10:53:00,"2025-09-19 04:53:00","VFR",6.1,5.6,300,5,NA,NA,1018.4,"METAR KSHR 191053Z AUTO 30005KT 10SM CLR 06/06 A3007 RMK AO2 SLP164 T00610056",2025-09-19 11:48:25.165394,2025-09-19 07:48:25.165447
"KSGR","Houston/Sugar Land Rgnl, TX, US",2025-09-19 10:53:00,"2025-09-19 05:53:00","VFR",21.7,20.6,0,0,NA,6,1015.7,"METAR KSGR 191053Z AUTO 00000KT 6SM BR CLR 22/21 A2999 RMK AO2 SLP157 T02170206",2025-09-19 11:48:25.172566,2025-09-19 07:48:25.172617
"KRSL","Russell Muni, KS, US",2025-09-19 10:53:00,"2025-09-19 05:53:00","VFR",12.2,11.7,250,3,NA,NA,1017.7,"METAR KRSL 191053Z AUTO 25003KT 10SM CLR 12/12 A3005 RMK AO2 SLP167 T01220117",2025-09-19 11:48:25.179826,2025-09-19 07:48:25.179876
"KSAC","Sacramento Exec, CA, US",2025-09-19 10:53:00,"2025-09-19 03:53:00","VFR",19.4,8.9,220,6,NA,NA,1010.6,"METAR KSAC 191053Z AUTO 22006KT 10SM FEW110 19/09 A2984 RMK AO2 SLP105 T01940089",2025-09-19 11:48:25.18694,2025-09-19 07:48:25.186989
"KSFF","Spokane/Felts Fld, WA, US",2025-09-19 10:53:00,"2025-09-19 03:53:00","VFR",13.9,10.6,0,0,NA,NA,1013.6,"METAR KSFF 191053Z AUTO 00000KT 10SM CLR 14/11 A2993 RMK AO2 SLP120 T01390106",2025-09-19 11:48:25.194082,2025-09-19 07:48:25.194129
"KSAV","Savannah Intl, GA, US",2025-09-19 10:53:00,"2025-09-19 06:53:00","VFR",20,19.4,0,0,NA,8,1017,"METAR KSAV 191053Z 00000KT 8SM MIFG FEW080 20/19 A3003 RMK AO2 SLP169 T02000194",2025-09-19 11:48:25.214888,2025-09-19 07:48:25.214936
"KRQE","Window Rock Arpt, AZ, US",2025-09-19 10:53:00,"2025-09-19 10:53:00","VFR",9.4,-0.6,NA,3,NA,NA,1024.1,"METAR KRQE 191053Z AUTO VRB03KT 10SM CLR 09/M01 A3024 RMK AO2 SLP130 T00941006",2025-09-19 11:48:25.222739,2025-09-19 07:48:25.222792
"KRSW","Ft Myers/SW Florida Intl, FL, US",2025-09-19 10:53:00,"2025-09-19 06:53:00","VFR",23.3,22.8,10,5,NA,NA,1014.6,"METAR KRSW 191053Z 01005KT 10SM CLR 23/23 A2996 RMK AO1 SLP141 T02330228",2025-09-19 11:48:25.230453,2025-09-19 07:48:25.23052
"KRUE","Russellville Rgnl, AR, US",2025-09-19 10:53:00,"2025-09-19 10:53:00","VFR",19.4,17.2,0,0,NA,8,1016.3,"METAR KRUE 191053Z AUTO 00000KT 8SM CLR 19/17 A3001 RMK AO2 SLP154 T01940172 $",2025-09-19 11:48:25.23734,2025-09-19 07:48:25.237385
"KRVS","Tulsa/Jones Arpt, OK, US",2025-09-19 10:53:00,"2025-09-19 05:53:00","VFR",19.4,19.4,0,0,NA,NA,1017,"METAR KRVS 191053Z AUTO 00000KT 10SM FEW055 SCT120 19/19 A3003 RMK AO2 LTG DSNT E-S RAB09E22 TSE03 SLP171 P0000 T01940194",2025-09-19 11:48:25.244434,2025-09-19 07:48:25.2445
"KSFB","Sanford Intl, FL, US",2025-09-19 10:53:00,"2025-09-19 06:53:00","VFR",22.2,21.1,330,5,NA,NA,1015.3,"METAR KSFB 191053Z 33005KT 10SM CLR 22/21 A2998 RMK AO1 SLP151 T02220211",2025-09-19 11:48:25.251638,2025-09-19 07:48:25.251687
"KRXE","Rexburg/Madison Cnty, ID, US",2025-09-19 10:53:00,"2025-09-19 04:53:00","VFR",6.7,2.8,40,3,NA,NA,1019,"METAR KRXE 191053Z AUTO 04003KT 10SM CLR 07/03 A3009 RMK AO2 SLP160 T00670028",2025-09-19 11:48:25.258868,2025-09-19 07:48:25.258914
"KSHN","Shelton/Sanderson Fld, WA, US",2025-09-19 10:53:00,"2025-09-19 03:53:00","VFR",5.6,5,0,0,NA,NA,1015.7,"METAR KSHN 191053Z AUTO 00000KT 10SM CLR 06/05 A2999 RMK AO2 SLP155 T00560050 $",2025-09-19 11:48:25.266016,2025-09-19 07:48:25.266063
"KSBM","Sheboygan Cnty Mem, WI, US",2025-09-19 10:53:00,"2025-09-19 05:53:00","LIFR",17.2,17.2,60,6,NA,NA,1019,"METAR KSBM 191053Z AUTO 06006KT 10SM OVC004 17/17 A3009 RMK AO2 SLP188 T01720172",2025-09-19 11:48:25.273132,2025-09-19 07:48:25.273181
"KSAF","Santa Fe Cnty Muni, NM, US",2025-09-19 10:53:00,"2025-09-19 04:53:00","VFR",11.1,9.4,350,3,NA,NA,1024.5,"METAR KSAF 191053Z AUTO 35003KT 10SM CLR 11/09 A3025 RMK AO2 SLP151 T01110094",2025-09-19 11:48:25.280175,2025-09-19 07:48:25.280221
"KSEA","Seattle-Tacoma Intl, WA, US",2025-09-19 10:53:00,"2025-09-19 03:53:00","VFR",11.7,9.4,360,6,NA,NA,1016,"METAR KSEA 191053Z 36006KT 10SM CLR 12/09 A3000 RMK AO2 SLP164 T01170094 $",2025-09-19 11:48:25.287054,2025-09-19 07:48:25.287098
"KSGF","Springfield Muni, MO, US",2025-09-19 10:52:00,"2025-09-19 05:52:00","VFR",17.2,16.7,180,3,NA,6,1017.4,"METAR KSGF 191052Z 18003KT 6SM BR CLR 17/17 A3004 RMK AO2 SLP163 T01720167",2025-09-19 11:48:25.293994,2025-09-19 07:48:25.294036
"KSJT","San Angelo/Mathis Fld, TX, US",2025-09-19 10:51:00,"2025-09-19 05:51:00","VFR",17.8,13.9,0,0,NA,NA,1017.4,"METAR KSJT 191051Z AUTO 00000KT 10SM CLR 18/14 A3004 RMK AO2 SLP151 T01780139",2025-09-19 11:48:25.300875,2025-09-19 07:48:25.300921
"KSAT","San Antonio Intl, TX, US",2025-09-19 10:51:00,"2025-09-19 05:51:00","VFR",22.2,20,0,0,NA,NA,1016.7,"METAR KSAT 191051Z 00000KT 10SM FEW250 22/20 A3002 RMK AO2 SLP146 T02220200",2025-09-19 11:48:25.307762,2025-09-19 07:48:25.307811
"KSAD","Safford Rgnl, AZ, US",2025-09-19 10:51:00,"2025-09-19 03:51:00","VFR",21.1,17.2,80,8,NA,NA,1017.4,"METAR KSAD 191051Z AUTO 08008KT 10SM CLR 21/17 A3004 RMK AO2 SLP118 T02110172",2025-09-19 11:48:25.314703,2025-09-19 07:48:25.314754
"KRYY","Marietta/Cobb Cnty, GA, US",2025-09-19 10:50:00,"2025-09-19 10:50:00","VFR",18.3,17.8,0,0,NA,6,1018.7,"METAR KRYY 191050Z 00000KT 6SM BR CLR 18/18 A3008 RMK AO2 SLP916 T01830178 $",2025-09-19 11:48:25.32139,2025-09-19 07:48:25.321435
"KSWF","Newburgh/Stewart Intl, NY, US",2025-09-19 11:45:00,"2025-09-19 07:45:00","VFR",17,14,260,8,NA,NA,1015.3,"METAR KSWF 191145Z 26008KT 10SM SKC 17/14 A2998",2025-09-19 11:48:26.92134,2025-09-19 07:48:26.921386
"KSTS","Santa Rosa/Schulz Arpt, CA, US",2025-09-19 11:41:00,"2025-09-19 04:41:00","IFR",13.3,12.8,0,0,NA,NA,1011.9,"SPECI KSTS 191141Z AUTO 00000KT 10SM OVC005 13/13 A2988 RMK AO2 RAE22 P0000 T01330128",2025-09-19 11:48:26.92821,2025-09-19 07:48:26.928254
"KTCL","Tuscaloosa Rgnl, AL, US",2025-09-19 11:38:00,"2025-09-19 06:38:00","IFR",18.3,17.8,0,0,NA,2,1017,"SPECI KTCL 191138Z AUTO 00000KT 2SM BR CLR 18/18 A3003 RMK AO2 T01830178",2025-09-19 11:48:26.934833,2025-09-19 07:48:26.934877
"KSTJ","St Joseph/Rosecrans Mem, MO, US",2025-09-19 11:36:00,"2025-09-19 06:36:00","LIFR",17.8,17.8,0,0,NA,1.25,1016.3,"SPECI KSTJ 191136Z AUTO 00000KT 1 1/4SM BR OVC002 18/18 A3001 RMK AO2 T01780178",2025-09-19 11:48:26.941554,2025-09-19 07:48:26.941598
"KSRR","Ruidoso Rgnl, NM, US",2025-09-19 11:35:00,"2025-09-19 05:35:00","VFR",13,9,0,0,NA,NA,1026.2,"METAR KSRR 191135Z AUTO 00000KT 10SM CLR 13/09 A3030 RMK AO2",2025-09-19 11:48:26.948413,2025-09-19 07:48:26.948457
"KSUO","Rosebud/Sioux Tribal Arpt, SD, US",2025-09-19 11:35:00,"2025-09-19 11:35:00","MVFR",12,12,NA,5,NA,NA,1017,"METAR KSUO 191135Z AUTO VRB05KT 10SM OVC012 12/12 A3003 RMK AO2",2025-09-19 11:48:26.95514,2025-09-19 07:48:26.955184
"KSYI","Shelbyville/Bomar Fld, TN, US",2025-09-19 11:35:00,"2025-09-19 06:35:00","VFR",16,15,100,4,NA,NA,1017.7,"METAR KSYI 191135Z AUTO 10004KT 10SM CLR 16/15 A3005 RMK A01",2025-09-19 11:48:26.961827,2025-09-19 07:48:26.96187
"KSNL","Shawnee Rgnl, OK, US",2025-09-19 11:35:00,"2025-09-19 06:35:00","VFR",18.2,17.1,200,5,NA,NA,1018,"METAR KSNL 191135Z AUTO 20005KT 10SM SCT120 18/17 A3006 RMK AO2 P0001 T01820171",2025-09-19 11:48:26.968434,2025-09-19 07:48:26.968494
"KSSI","Brunswick/McKinnon St Simons Arpt, GA, US",2025-09-19 11:35:00,"2025-09-19 07:35:00","VFR",23,23,320,4,NA,9,1016.3,"METAR KSSI 191135Z AUTO 32004KT 9SM FEW060 23/23 A3001 RMK AO2",2025-09-19 11:48:26.974991,2025-09-19 07:48:26.975034
"KSYF","St Francis/Cheyenne Cnty, KS, US",2025-09-19 11:35:00,"2025-09-19 11:35:00","VFR",11,10,210,5,NA,NA,1018.4,"METAR KSYF 191135Z AUTO 21005KT 10SM CLR 11/10 A3007 RMK AO2",2025-09-19 11:48:26.981591,2025-09-19 07:48:26.981635
"KSUT","Southport/Cape Fear Rgnl, NC, US",2025-09-19 11:35:00,"2025-09-19 11:35:00","MVFR",19,19,30,2,NA,3,1017.4,"METAR KSUT 191135Z AUTO 03002KT 3SM BR CLR 19/19 A3004 RMK AO2",2025-09-19 11:48:26.988073,2025-09-19 07:48:26.988117
"KSLH","Cheboygan Cnty Arpt, MI, US",2025-09-19 11:35:00,"2025-09-19 11:35:00","MVFR",16,13,90,9,NA,NA,1021.8,"METAR KSLH 191135Z AUTO 09009KT 10SM OVC022 16/13 A3017 RMK AO2",2025-09-19 11:48:26.994979,2025-09-19 07:48:26.995028
"KSXK","Maurice/Sioux Cnty Rgnl, IA, US",2025-09-19 11:35:00,"2025-09-19 11:35:00","VFR",14,14,220,7,NA,NA,1013,"METAR KSXK 191135Z AUTO 22007KT 10SM CLR 14/14 A2991 RMK AO2",2025-09-19 11:48:27.002255,2025-09-19 07:48:27.002298
"KT74","Taylor Muni, TX, US",2025-09-19 11:35:00,"2025-09-19 11:35:00","VFR",21,20,180,3,NA,NA,1018.4,"METAR KT74 191135Z AUTO 18003KT 10SM CLR 21/20 A3007 RMK AO2",2025-09-19 11:48:27.009698,2025-09-19 07:48:27.009749
"KSPA","Spartanburg/Downtown Arpt, SC, US",2025-09-19 11:35:00,"2025-09-19 07:35:00",NA,17,16,0,0,NA,NA,1018.4,"METAR KSPA 191135Z AUTO 00000KT 10SM 17/16 A3007 RMK AO2",2025-09-19 11:48:27.017013,2025-09-19 07:48:27.017059
"KSMD","Fort Wayne/Smith Fld, IN, US",2025-09-19 11:35:00,"2025-09-19 07:35:00","VFR",16,15,0,0,NA,NA,1019,"METAR KSMD 191135Z AUTO 00000KT 10SM CLR 16/15 A3009 RMK A01",2025-09-19 11:48:27.02407,2025-09-19 07:48:27.024122
"KSLR","Sulphur Springs Muni, TX, US",2025-09-19 11:35:00,"2025-09-19 06:35:00","VFR",22.5,20.1,170,4,NA,NA,1017.4,"METAR KSLR 191135Z AUTO 17004KT 10SM CLR 23/20 A3004 RMK AO2 T02250201 PWINO",2025-09-19 11:48:27.03111,2025-09-19 07:48:27.031156
"KSNK","Snyder/Winston Fld, TX, US",2025-09-19 11:35:00,"2025-09-19 06:35:00","VFR",20.4,11.2,200,3,NA,NA,1018.7,"METAR KSNK 191135Z AUTO 20003KT 10SM CLR 20/11 A3008 RMK AO2 T02040112",2025-09-19 11:48:27.038066,2025-09-19 07:48:27.03811
"KSMS","Sumter Muni, SC, US",2025-09-19 11:35:00,"2025-09-19 07:35:00","MVFR",16,16,0,0,NA,3,1017.7,"METAR KSMS 191135Z AUTO 00000KT 3SM BR CLR 16/16 A3005 RMK AO2",2025-09-19 11:48:27.058968,2025-09-19 07:48:27.059013
"KT35","Cameron Muni, TX, US",2025-09-19 11:35:00,"2025-09-19 11:35:00","VFR",22,21,0,0,NA,NA,1016.7,"METAR KT35 191135Z AUTO 00000KT 10SM CLR 22/21 A3002 RMK AO2 T02200210",2025-09-19 11:48:27.066596,2025-09-19 07:48:27.066646
"KSNC","Chester Arpt, CT, US",2025-09-19 11:35:00,"2025-09-19 11:35:00","VFR",20,15,310,4,NA,NA,1014.3,"METAR KSNC 191135Z AUTO 31004KT 10SM CLR 20/15 A2995 RMK AO2",2025-09-19 11:48:27.073672,2025-09-19 07:48:27.073716
"KT69","Sinton/Thomas Arpt, TX, US",2025-09-19 11:35:00,"2025-09-19 11:35:00","VFR",22,22,NA,NA,NA,9,1015.3,"METAR KT69 191135Z AUTO 9SM CLR 22/22 A2998 RMK A01",2025-09-19 11:48:27.080601,2025-09-19 07:48:27.080649
"KTEX","Telluride Rgnl, CO, US",2025-09-19 11:35:00,"2025-09-19 05:35:00","VFR",7,-5,140,5,NA,NA,1029.2,"METAR KTEX 191135Z AUTO 14005KT 10SM CLR 07/M05 A3039 RMK AO2",2025-09-19 11:48:27.087694,2025-09-19 07:48:27.087741
"KSOA","Sonora Muni, TX, US",2025-09-19 11:35:00,"2025-09-19 11:35:00","VFR",19,16,0,0,NA,NA,1020.1,"METAR KSOA 191135Z AUTO 00000KT 10SM CLR 19/16 A3012 RMK AO2",2025-09-19 11:48:27.094563,2025-09-19 07:48:27.094609
"KTBR","Statesboro Muni, GA, US",2025-09-19 11:35:00,"2025-09-19 07:35:00","VFR",21,21,200,1,NA,7,1016.7,"METAR KTBR 191135Z AUTO 20001KT 7SM FEW080 BKN090 OVC110 21/21 A3002 RMK AO2",2025-09-19 11:48:27.101689,2025-09-19 07:48:27.101733
"KSLO","Salem/Leckrone Arpt, IL, US",2025-09-19 11:35:00,"2025-09-19 06:35:00","VFR",20.2,15.5,50,3,NA,NA,1016.7,"METAR KSLO 191135Z AUTO 05003KT 10SM CLR 20/16 A3002 RMK AO2 LTG DSNT SW T02020155",2025-09-19 11:48:27.108461,2025-09-19 07:48:27.10853
"KSLB","Storm Lake Muni, IA, US",2025-09-19 11:35:00,"2025-09-19 06:35:00","LIFR",17,17,190,6,NA,1.25,1014.3,"METAR KSLB 191135Z AUTO 19006KT 1 1/4SM BR OVC002 17/17 A2995 RMK AO2",2025-09-19 11:48:27.115284,2025-09-19 07:48:27.115331
"KSME","Somerset/Lake Cumberland Rgnl, KY, US",2025-09-19 11:35:00,"2025-09-19 07:35:00","MVFR",13,13,0,0,NA,4,1018.7,"METAR KSME 191135Z AUTO 00000KT 4SM BR CLR 13/13 A3008 RMK AO2",2025-09-19 11:48:27.121988,2025-09-19 07:48:27.122031
"KSPK","Spanish Fork Muni, UT, US",2025-09-19 11:35:00,"2025-09-19 11:35:00","VFR",16,1,120,9,NA,NA,1018,"METAR KSPK 191135Z AUTO 12009KT 10SM FEW041 FEW050 16/01 A3006 RMK AO2",2025-09-19 11:48:27.128762,2025-09-19 07:48:27.128807
"KSVE","Susanville Muni, CA, US",2025-09-19 11:35:00,"2025-09-19 04:35:00","VFR",20,6,350,10,NA,NA,1015.3,"METAR KSVE 191135Z AUTO 35010KT 10SM CLR 20/06 A2998 RMK A01 P000",2025-09-19 11:48:27.135494,2025-09-19 07:48:27.135544
"KSRB","Sparta/Upper Cumberland Rgnl, TN, US",2025-09-19 11:35:00,"2025-09-19 11:35:00","LIFR",12,12,0,0,NA,0.25,1018.7,"METAR KSRB 191135Z AUTO 00000KT M1/4SM FG VV000 12/12 A3008 RMK A01",2025-09-19 11:48:27.142069,2025-09-19 07:48:27.14211
"KSRE","Seminole Muni, OK, US",2025-09-19 11:35:00,"2025-09-19 11:35:00","VFR",18,17,0,0,NA,NA,1017.4,"METAR KSRE 191135Z AUTO 00000KT 10SM VCTS FEW023 FEW029 FEW085 18/17 A3004 RMK AO2 LTG DSNT NE AND E",2025-09-19 11:48:27.148807,2025-09-19 07:48:27.148851
"KTCY","Tracy Muni, CA, US",2025-09-19 11:35:00,"2025-09-19 11:35:00","VFR",20,20,350,5,NA,NA,1010.6,"METAR KTCY 191135Z AUTO 35005KT 10SM FEW030 SCT041 BKN055 20/20 A2984 RMK A01",2025-09-19 11:48:27.15559,2025-09-19 07:48:27.155637
"KSUW","Superior/Bong Arpt, WI, US",2025-09-19 11:35:00,"2025-09-19 06:35:00","IFR",13.6,12.5,50,10,20,NA,1019,"METAR KSUW 191135Z AUTO 05010G20KT 10SM OVC007 14/13 A3009 RMK AO2 T01360125",2025-09-19 11:48:27.162331,2025-09-19 07:48:27.162376
"KSUZ","Benton/Saline Cnty, AR, US",2025-09-19 11:35:00,"2025-09-19 11:35:00","VFR",20,20,0,0,NA,8,1016.7,"METAR KSUZ 191135Z AUTO 00000KT 8SM CLR 20/20 A3002 RMK A01",2025-09-19 11:48:27.169165,2025-09-19 07:48:27.169208
"KT78","Liberty Muni, TX, US",2025-09-19 11:35:00,"2025-09-19 11:35:00","IFR",19,19,0,0,NA,2.5,1016,"METAR KT78 191135Z AUTO 00000KT 2 1/2SM BR FEW033 FEW040 19/19 A3000 RMK AO2 VIS 3/4V5",2025-09-19 11:48:27.176092,2025-09-19 07:48:27.176139
"KSTF","Starkville/Bryan Arpt, MS, US",2025-09-19 11:35:00,"2025-09-19 11:35:00","VFR",18,18,0,0,NA,9,1016.3,"METAR KSTF 191135Z AUTO 00000KT 9SM CLR 18/18 A3001 RMK AO2",2025-09-19 11:48:27.182966,2025-09-19 07:48:27.183008
"KSQL","San Carlos Arpt, CA, US",2025-09-19 11:35:00,"2025-09-19 04:35:00","MVFR",17,16,330,5,NA,NA,1011.6,"METAR KSQL 191135Z AUTO 33005KT 10SM OVC014 17/16 A2987 RMK AO2",2025-09-19 11:48:27.203762,2025-09-19 07:48:27.203809
"KTEW","Mason/Jewett Fld, MI, US",2025-09-19 11:35:00,"2025-09-19 11:35:00","IFR",16,16,0,0,NA,2.5,1019.7,"METAR KTEW 191135Z AUTO 00000KT 2 1/2SM BR CLR 16/16 A3011 RMK AO2 T01600160",2025-09-19 11:48:27.211142,2025-09-19 07:48:27.211189
"KSVH","Statesville Muni, NC, US",2025-09-19 11:35:00,"2025-09-19 07:35:00","VFR",15.2,15,0,0,NA,NA,1019,"METAR KSVH 191135Z AUTO 00000KT 10SM CLR 15/15 A3009 RMK AO2 T01520150",2025-09-19 11:48:27.218186,2025-09-19 07:48:27.21823
"KSPF","Spearfish/Clyde Fld, SD, US",2025-09-19 11:35:00,"2025-09-19 05:35:00","VFR",7,7,220,4,NA,NA,1019,"METAR KSPF 191135Z AUTO 22004KT 10SM CLR 07/07 A3009 RMK AO2",2025-09-19 11:48:27.225076,2025-09-19 07:48:27.225123
"KT82","Fredericksburg/Gillespie Cnty, TX, US",2025-09-19 11:35:00,"2025-09-19 11:35:00","VFR",17.7,16.3,0,0,NA,NA,1018,"METAR KT82 191135Z AUTO 00000KT 10SM CLR 18/16 A3006 RMK AO2 T01770163",2025-09-19 11:48:27.232296,2025-09-19 07:48:27.232343
"KTDF","Roxboro/Person Cnty, NC, US",2025-09-19 11:35:00,"2025-09-19 11:35:00","IFR",14,14,0,0,NA,1,1018.7,"METAR KTDF 191135Z AUTO 00000KT 1SM BR VV007 14/14 A3008 RMK AO2",2025-09-19 11:48:27.239026,2025-09-19 07:48:27.239069
"KSYN","Stanton Arpt, MN, US",2025-09-19 11:35:00,"2025-09-19 06:35:00","VFR",19,18.4,120,4,NA,NA,1015.7,"METAR KSYN 191135Z AUTO 12004KT 10SM -RA BKN120 19/18 A2999 RMK AO2 T01900184",2025-09-19 11:48:27.245832,2025-09-19 07:48:27.245878
"KSOW","Show Low Muni, AZ, US",2025-09-19 11:35:00,"2025-09-19 04:35:00","VFR",14,13,310,8,NA,NA,1024.8,"METAR KSOW 191135Z AUTO 31008KT 10SM CLR 14/13 A3026 RMK AO2 LTG DSNT W",2025-09-19 11:48:27.252635,2025-09-19 07:48:27.252681
"KSPI","Springfield/Lincoln Capital Arpt, IL, US",2025-09-19 11:35:00,"2025-09-19 06:35:00","VFR",18.9,16.1,NA,3,NA,NA,1017,"SPECI KSPI 191135Z VRB03KT 10SM SCT095 BKN120 19/16 A3003 RMK AO2 LTG DSNT NE-SE T01890161",2025-09-19 11:48:27.259437,2025-09-19 07:48:27.259499
"KSVC","Silver City/Grant Cnty, NM, US",2025-09-19 11:35:00,"2025-09-19 05:35:00","VFR",16.6,15,350,6,NA,NA,1023.1,"METAR KSVC 191135Z AUTO 35006KT 10SM -DZ OVC095 17/15 A3021 RMK AO2 LTG DSNT N P0001 T01660150",2025-09-19 11:48:27.266087,2025-09-19 07:48:27.266131
"KT20","Gonzales Muni, TX, US",2025-09-19 11:35:00,"2025-09-19 11:35:00","VFR",22,21,0,0,NA,NA,1016.3,"METAR KT20 191135Z AUTO 00000KT 10SM CLR 22/21 A3001 RMK AO2 T02200210",2025-09-19 11:48:27.272893,2025-09-19 07:48:27.272939
"KSUN","Hailey/Friedman Mem, ID, US",2025-09-19 11:35:00,"2025-09-19 05:35:00","VFR",9,1,320,7,NA,NA,1020.4,"METAR KSUN 191135Z AUTO 32007KT 10SM CLR 09/01 A3013 RMK AO2",2025-09-19 11:48:27.279685,2025-09-19 07:48:27.279729
"KTDZ","Toledo Executive Arpt, OH, US",2025-09-19 11:32:00,"2025-09-19 07:32:00","VFR",18.9,17.8,50,3,NA,6,1019.4,"SPECI KTDZ 191132Z AUTO 05003KT 6SM BR FEW009 19/18 A3010 RMK AO2 T01890178",2025-09-19 11:48:27.286325,2025-09-19 07:48:27.286369
"KSNH","Savannah/Hardin Cnty, TN, US",2025-09-19 11:30:00,"2025-09-19 11:30:00","VFR",19,19,0,0,NA,NA,1016,"METAR KSNH 191130Z AUTO 00000KT 10SM CLR 19/19 A3000 RMK A01",2025-09-19 11:48:27.293275,2025-09-19 07:48:27.29332
"KSZT","Sandpoint Arpt, ID, US",2025-09-19 11:30:00,"2025-09-19 11:30:00","VFR",8,7,0,0,NA,NA,1014.6,"METAR KSZT 191130Z AUTO 00000KT 10SM CLR 08/07 A2996 RMK AO2",2025-09-19 11:48:27.300139,2025-09-19 07:48:27.300184
"KT41","La Porte Muni, TX, US",2025-09-19 11:30:00,"2025-09-19 11:30:00","VFR",22.8,21.9,60,4,NA,NA,1016.3,"METAR KT41 191130Z AUTO 06004KT 10SM CLR 23/22 A3001 RMK AO2 TSNO T02280219",2025-09-19 11:48:27.307173,2025-09-19 07:48:27.307219
"KSZL","Whiteman AFB, MO, US",2025-09-19 11:30:00,"2025-09-19 06:30:00","LIFR",17,16,190,4,NA,0.5,1016.7,"SPECI KSZL 191130Z 19004KT 1/2SM FG VV001 17/16 A3002 RMK AO2A TWR VIS 1600 SLP165 RVRNO $",2025-09-19 11:48:27.314036,2025-09-19 07:48:27.31408
"KSSF","San Antonio/Stinson Muni, TX, US",2025-09-19 11:28:00,"2025-09-19 06:28:00","MVFR",22.2,18.9,0,0,NA,NA,1016,"SPECI KSSF 191128Z AUTO 00000KT 10SM BKN024 22/19 A3000 RMK AO2 T02220189",2025-09-19 11:48:27.320878,2025-09-19 07:48:27.320924
"KSPW","Spencer Muni, IA, US",2025-09-19 11:19:00,"2025-09-19 06:19:00","IFR",17.2,16.7,180,5,NA,NA,1014,"SPECI KSPW 191119Z AUTO 18005KT 10SM OVC009 17/17 A2994 RMK AO2 T01720167 PNO $",2025-09-19 11:48:27.327704,2025-09-19 07:48:27.327753
"KSMO","Santa Monica Muni, CA, US",2025-09-19 11:18:00,"2025-09-19 04:18:00","IFR",20,18.3,240,4,NA,NA,1011.6,"SPECI KSMO 191118Z 24004KT 10SM BKN009 20/18 A2987 RMK AO2 T02000183 $",2025-09-19 11:48:27.348361,2025-09-19 07:48:27.348408
"KTAZ","Taylorville Muni, IL, US",2025-09-19 11:18:00,"2025-09-19 11:18:00","VFR",18,17,NA,NA,NA,7,1017.4,"METAR KTAZ 191118Z AUTO 7SM -TSRA SCT080 OVC090 18/17 A3004 RMK AO2 LTG DSNT N THRU SE P0003",2025-09-19 11:48:27.355776,2025-09-19 07:48:27.355823
"KSMX","Santa Maria/Hancock Fld, CA, US",2025-09-19 11:15:00,"2025-09-19 04:15:00","IFR",17.8,17.2,80,6,NA,1.75,1011.6,"SPECI KSMX 191115Z AUTO 08006KT 1 3/4SM RA BR BKN030 OVC049 18/17 A2987 RMK AO2 P0005 T01780172 $",2025-09-19 11:48:27.362703,2025-09-19 07:48:27.362753
"KSUE","Sturgeon Bay/Door Cnty, WI, US",2025-09-19 10:57:00,"2025-09-19 05:57:00","VFR",15.6,14.4,60,6,NA,NA,1020.4,"METAR KSUE 191057Z AUTO 06006KT 10SM CLR 16/14 A3013 RMK AO2 SLP201 T01560144",2025-09-19 11:48:27.369834,2025-09-19 07:48:27.369883
"KSMN","Salmon/Lemhi Cnty, ID, US",2025-09-19 10:56:00,"2025-09-19 04:56:00","VFR",7.8,5,0,0,NA,NA,1019,"METAR KSMN 191056Z AUTO 00000KT 10SM CLR 08/05 A3009 RMK AO2 SLP166 T00780050",2025-09-19 11:48:27.377244,2025-09-19 07:48:27.37729
"KSRC","Searcy Muni, AR, US",2025-09-19 10:56:00,"2025-09-19 10:56:00","VFR",23.3,18.3,360,5,NA,NA,1017,"METAR KSRC 191056Z AUTO 36005KT 10SM OVC110 23/18 A3003 RMK AO2 LTG DSNT N-E SLP165 T02330183 $",2025-09-19 11:48:27.384532,2025-09-19 07:48:27.384581
"KSLG","Siloam Springs/Smith Fld, AR, US",2025-09-19 10:56:00,"2025-09-19 05:56:00","VFR",17.2,NA,0,0,NA,6,1018,"METAR KSLG 191056Z AUTO 00000KT 6SM HZ FEW120 17/ A3006 RMK AO2 LTG DSNT SW SLP171 T0172",2025-09-19 11:48:27.391554,2025-09-19 07:48:27.391599
"KSOP","Southern Pines/Moore Cnty, NC, US",2025-09-19 10:56:00,"2025-09-19 06:56:00","VFR",16.7,16.7,0,0,NA,NA,1018,"METAR KSOP 191056Z AUTO 00000KT 10SM CLR 17/17 A3006 RMK AO2 SLP180 T01670167 $",2025-09-19 11:48:27.398318,2025-09-19 07:48:27.398363
"KSLE","Salem Muni, OR, US",2025-09-19 10:56:00,"2025-09-19 03:56:00","VFR",11.1,9.4,270,3,NA,NA,1013.6,"METAR KSLE 191056Z AUTO 27003KT 10SM CLR 11/09 A2993 RMK AO2 SLP133 T01110094",2025-09-19 11:48:27.404972,2025-09-19 07:48:27.405017
"KSQI","Sterling-Rock Falls Arpt, IL, US",2025-09-19 10:56:00,"2025-09-19 05:56:00","VFR",16.1,16.1,0,0,NA,9,1017,"METAR KSQI 191056Z AUTO 00000KT 9SM CLR 16/16 A3003 RMK AO2 SLP164 T01610161 PWINO $",2025-09-19 11:48:27.411691,2025-09-19 07:48:27.411736
"KSSC","Shaw AFB, SC, US",2025-09-19 10:55:00,"2025-09-19 06:55:00","VFR",20.2,19,0,0,NA,NA,1016.3,"METAR KSSC 191055Z 00000KT 10SM FEW090 20/19 A3001 RMK AO2A SLP162 T02020190 $",2025-09-19 11:48:27.418377,2025-09-19 07:48:27.418421
"KSUU","Fairfield/Travis AFB, CA, US",2025-09-19 10:55:00,"2025-09-19 03:55:00","VFR",17.4,13.3,200,8,NA,NA,1009.9,"METAR KSUU 191055Z AUTO 20008KT 10SM FEW100 SCT140 BKN170 17/13 A2982 RMK AO2 SLP104 T01740133 $",2025-09-19 11:48:27.425111,2025-09-19 07:48:27.425155
"KTCM","Tacoma/McChord AFB, WA, US",2025-09-19 10:55:00,"2025-09-19 03:55:00","VFR",6.8,6.1,0,0,NA,7,1016,"METAR KTCM 191055Z AUTO 00000KT 7SM CLR 07/06 A3000 RMK AO2 SLP162 T00680061 $",2025-09-19 11:48:27.431627,2025-09-19 07:48:27.431669
"KSVN","Savannah/Hunter AAF, GA, US",2025-09-19 10:55:00,"2025-09-19 06:55:00","VFR",21.1,20.1,0,0,NA,8,1015.7,"METAR KSVN 191055Z AUTO 00000KT 8SM CLR 21/20 A2999 RMK AO2 SLP158 T02110201 $",2025-09-19 11:48:27.438069,2025-09-19 07:48:27.438112
"KTBN","Waynesville-St Robert Rgnl, MO, US",2025-09-19 10:55:00,"2025-09-19 05:55:00","VFR",17.8,17.3,0,0,NA,NA,1016.3,"METAR KTBN 191055Z AUTO 00000KT 10SM BKN140 18/17 A3001 RMK AO2 SLP156 T01780173 $",2025-09-19 11:48:27.444682,2025-09-19 07:48:27.444727
"KSLI","Los Alamitos AAF, CA, US",2025-09-19 10:55:00,"2025-09-19 10:55:00","VFR",21.1,17.9,200,3,NA,9,1010.2,"METAR KSLI 191055Z AUTO 20003KT 9SM OVC090 21/18 A2983 RMK AO2 SLP104 T02110179 $",2025-09-19 11:48:27.451243,2025-09-19 07:48:27.451285
"KSLC","Salt Lake City Intl, UT, US",2025-09-19 10:54:00,"2025-09-19 04:54:00","VFR",17.2,4.4,150,8,NA,NA,1016.7,"METAR KSLC 191054Z 15008KT 10SM BKN230 17/04 A3002 RMK AO2 SLP116 T01720044 $",2025-09-19 11:48:27.457977,2025-09-19 07:48:27.458021
"KTAD","Trinidad/Stokes Arpt, CO, US",2025-09-19 10:54:00,"2025-09-19 04:54:00","VFR",10,8.9,210,5,NA,NA,1021.8,"METAR KTAD 191054Z AUTO 21005KT 10SM CLR 10/09 A3017 RMK AO2 SLP152 T01000089",2025-09-19 11:48:27.464754,2025-09-19 07:48:27.4648
"KSYR","Syracuse/Hancock Intl, NY, US",2025-09-19 10:54:00,"2025-09-19 06:54:00","VFR",13.3,10.6,300,6,NA,NA,1018.4,"METAR KSYR 191054Z 30006KT 10SM SCT026 13/11 A3007 RMK AO2 SLP179 T01330106 $",2025-09-19 11:48:27.484037,2025-09-19 07:48:27.484133
"KSUS","St Louis/Spirit of St Louis Arpt, MO, US",2025-09-19 10:54:00,"2025-09-19 05:54:00","VFR",18.9,17.8,0,0,NA,NA,1016.7,"METAR KSUS 191054Z 00000KT 10SM SCT120 19/18 A3002 RMK AO2 SLP158 T01890178",2025-09-19 11:48:27.492326,2025-09-19 07:48:27.492377
"KSTC","St Cloud Rgnl, MN, US",2025-09-19 10:53:00,"2025-09-19 05:53:00","LIFR",17.2,16.7,80,6,NA,1.25,1015.3,"METAR KSTC 191053Z AUTO 08006KT 1 1/4SM BR OVC003 17/17 A2998 RMK AO2 SLP156 T01720167 $",2025-09-19 11:48:27.499746,2025-09-19 07:48:27.499793
"KSRQ","Sarasota-Bradenton Intl, FL, US",2025-09-19 10:53:00,"2025-09-19 06:53:00","VFR",23.3,22.2,40,4,NA,NA,1015.3,"METAR KSRQ 191053Z 04004KT 10SM CLR 23/22 A2998 RMK AO2 SLP150 T02330222",2025-09-19 11:48:27.507116,2025-09-19 07:48:27.50716
"KSPG","St Petersburg/Whitted Arpt, FL, US",2025-09-19 10:53:00,"2025-09-19 06:53:00","VFR",24.4,23.3,360,5,NA,NA,1014.6,"METAR KSPG 191053Z 36005KT 10SM CLR 24/23 A2996 RMK AO2 SLP146 T02440233 $",2025-09-19 11:48:27.514109,2025-09-19 07:48:27.514154
"KSPB","Scappoose Ind Arpk, OR, US",2025-09-19 10:53:00,"2025-09-19 10:53:00","VFR",14.4,8.9,340,6,NA,NA,1014,"METAR KSPB 191053Z AUTO 34006KT 10SM CLR 14/09 A2994 RMK AO2 SLP138 T01440089",2025-09-19 11:48:27.521138,2025-09-19 07:48:27.521183
"KSNA","Santa Ana/Wayne Arpt, CA, US",2025-09-19 10:53:00,"2025-09-19 03:53:00","VFR",21.7,18.3,0,0,NA,NA,1011.3,"METAR KSNA 191053Z AUTO 00000KT 10SM OVC085 22/18 A2986 RMK AO2 SLP111 T02170183",2025-09-19 11:48:27.527872,2025-09-19 07:48:27.527917
"KSMF","Sacramento Intl, CA, US",2025-09-19 10:53:00,"2025-09-19 03:53:00","VFR",18.9,12.8,170,7,NA,NA,1010.2,"METAR KSMF 191053Z 17007KT 10SM BKN120 BKN150 19/13 A2983 RMK AO2 SLP102 T01890128",2025-09-19 11:48:27.534573,2025-09-19 07:48:27.534617
"KSWO","Stillwater Muni, OK, US",2025-09-19 10:53:00,"2025-09-19 05:53:00","VFR",17.2,16.7,260,4,NA,NA,1017.7,"METAR KSWO 191053Z AUTO 26004KT 10SM CLR 17/17 A3005 RMK AO2 SLP164 T01720167",2025-09-19 11:48:27.541412,2025-09-19 07:48:27.541456
"KSLN","Salina Rgnl, KS, US",2025-09-19 10:53:00,"2025-09-19 05:53:00","VFR",14.4,13.9,320,4,NA,NA,1017.7,"METAR KSLN 191053Z AUTO 32004KT 10SM CLR 14/14 A3005 RMK AO2 SLP167 T01440139",2025-09-19 11:48:27.548212,2025-09-19 07:48:27.548255
"KSNS","Salinas Muni, CA, US",2025-09-19 10:53:00,"2025-09-19 03:53:00","IFR",16.7,15,0,0,NA,9,1011.3,"METAR KSNS 191053Z 00000KT 9SM OVC006 17/15 A2986 RMK AO2 SLP121 T01670150",2025-09-19 11:48:27.554966,2025-09-19 07:48:27.555009
"KSMQ","Somerville/Somerset Arpt, NJ, US",2025-09-19 10:53:00,"2025-09-19 10:53:00","VFR",12.2,12.2,NA,NA,NA,7,1015.3,"METAR KSMQ 191053Z AUTO 7SM CLR 12/12 A2998 RMK AO2 SLP150 T01220122",2025-09-19 11:48:27.561533,2025-09-19 07:48:27.561578
"KTCS","Truth or Consequence Muni, NM, US",2025-09-19 10:53:00,"2025-09-19 04:53:00","VFR",18.3,14.4,0,0,NA,NA,1021.4,"METAR KTCS 191053Z AUTO 00000KT 10SM CLR 18/14 A3016 RMK AO2 SLP130 T01830144 $",2025-09-19 11:48:27.568168,2025-09-19 07:48:27.568213
"KSNY","Sidney/Carr Fld, NE, US",2025-09-19 10:53:00,"2025-09-19 04:53:00","VFR",8.3,7.8,200,5,NA,NA,1017.7,"METAR KSNY 191053Z AUTO 20005KT 10SM CLR 08/08 A3005 RMK AO2 SLP149 T00830078",2025-09-19 11:48:27.574889,2025-09-19 07:48:27.574935
"KTCC","Tucumcari Muni, NM, US",2025-09-19 10:53:00,"2025-09-19 04:53:00","VFR",12.2,NA,0,0,NA,NA,1020.1,"METAR KTCC 191053Z AUTO 00000KT 10SM CLR 12/ A3012 RMK AO2 SLP155 T0122 $",2025-09-19 11:48:27.581603,2025-09-19 07:48:27.581652
"KSTP","Saint Paul/Downtown Arpt, MN, US",2025-09-19 10:53:00,"2025-09-19 05:53:00","VFR",20,17.8,140,5,NA,NA,1015.7,"METAR KSTP 191053Z 14005KT 10SM BKN055 20/18 A2999 RMK AO2 SLP149 T02000178",2025-09-19 11:48:27.588315,2025-09-19 07:48:27.588359
"KTAN","Taunton Muni, MA, US",2025-09-19 10:52:00,"2025-09-19 10:52:00","VFR",12.2,12.2,0,0,NA,8,1013,"METAR KTAN 191052Z AUTO 00000KT 8SM CLR 12/12 A2991 RMK AO2 SLP127 T01220122",2025-09-19 11:48:27.594996,2025-09-19 07:48:27.595038
"KSUX","Sioux City/Day Fld, IA, US",2025-09-19 10:52:00,"2025-09-19 05:52:00","VFR",13.9,13.3,230,4,NA,NA,1014.3,"METAR KSUX 191052Z 23004KT 10SM CLR 14/13 A2995 RMK AO2 SLP141 T01390133",2025-09-19 11:48:27.601845,2025-09-19 07:48:27.60189
"KSPS","Wichita Falls Rgnl, TX, US",2025-09-19 10:52:00,"2025-09-19 05:52:00","VFR",21.1,16.1,70,12,19,NA,1016.7,"METAR KSPS 191052Z 07012G19KT 10SM SCT085 21/16 A3002 RMK AO2 LTG DSNT NE AND E RAB28E43 SLP150 P0001 T02110161",2025-09-19 11:48:27.608792,2025-09-19 07:48:27.608839
"KSTL","St Louis/Lambert Intl, MO, US",2025-09-19 10:51:00,"2025-09-19 05:51:00","VFR",20,17.2,330,4,NA,NA,1017,"METAR KSTL 191051Z 33004KT 10SM SCT100 BKN130 OVC250 20/17 A3003 RMK AO2 RAE0958 SLP155 P0000 T02000172",2025-09-19 11:48:27.629035,2025-09-19 07:48:27.629132
"KSLK","Saranac Lake/Adirondack Rgnl, NY, US",2025-09-19 10:51:00,"2025-09-19 06:51:00","MVFR",10.6,8.3,0,0,NA,NA,1017,"METAR KSLK 191051Z AUTO 00000KT 10SM OVC013 11/08 A3003 RMK AO2 SLP168 T01060083",2025-09-19 11:48:27.637215,2025-09-19 07:48:27.637271
"KTEB","Teterboro Arpt, NJ, US",2025-09-19 10:51:00,"2025-09-19 06:51:00","VFR",18.3,11.7,320,4,NA,NA,1014.6,"METAR KTEB 191051Z 32004KT 10SM CLR 18/12 A2996 RMK AO2 SLP145 T01830117 $",2025-09-19 11:48:27.645107,2025-09-19 07:48:27.645155
"KSUA","Stuart/Witham Fld, FL, US",2025-09-19 10:47:00,"2025-09-19 06:47:00","VFR",24,24,320,6,NA,7,1013.3,"METAR KSUA 191047Z 32006KT 7SM VCSH SCT020 SCT030 24/24 A2992",2025-09-19 11:48:27.652102,2025-09-19 07:48:27.652146
"KTFP","Aransas Pass/McCampbell-Porter Arpt, TX, US",2025-09-19 10:35:00,"2025-09-19 10:35:00","VFR",24,21.6,20,3,NA,NA,1014.6,"METAR KTFP 191035Z AUTO 02003KT 10SM CLR 24/22 A2996 RMK AO1 T02400216",2025-09-19 11:48:27.659083,2025-09-19 07:48:27.659129
"KTZR","Columbus/Bolton Fld, OH, US",2025-09-19 11:47:00,"2025-09-19 11:47:00","VFR",11,9,300,5,NA,NA,1019.4,"METAR KTZR 191147Z 30005KT 10SM CLR 11/09 A3010",2025-09-19 11:48:29.37132,2025-09-19 07:48:29.371369
"KUES","Waukesha Cnty, WI, US",2025-09-19 11:45:00,"2025-09-19 06:45:00","LIFR",19,18,60,5,NA,2,1019,"METAR KUES 191145Z 06005KT 2SM BR OVC003 19/18 A3009",2025-09-19 11:48:29.378369,2025-09-19 07:48:29.378411
"KVAY","Mount Holly/S Jersey Rgnl, NJ, US",2025-09-19 11:42:00,"2025-09-19 07:42:00","LIFR",15.6,15.6,0,0,NA,0.5,1016,"SPECI KVAY 191142Z AUTO 00000KT 1/2SM FG VV002 16/16 A3000 RMK AO2 T01560156 $",2025-09-19 11:48:29.385124,2025-09-19 07:48:29.385165
"KUKF","Wilkesboro/Wilkes Cnty, NC, US",2025-09-19 11:40:00,"2025-09-19 07:40:00","VFR",14,14,0,0,NA,NA,1021.1,"METAR KUKF 191140Z AUTO 00000KT 10SM CLR 14/14 A3015 RMK AO2",2025-09-19 11:48:29.391891,2025-09-19 07:48:29.391936
"KTPH","Tonopah Arpt, NV, US",2025-09-19 11:40:00,"2025-09-19 04:40:00","MVFR",13.9,13.3,120,10,16,6,1018.7,"SPECI KTPH 191140Z AUTO 12010G16KT 6SM -RA BR SCT007 BKN016 OVC022 14/13 A3008 RMK AO2 P0003 T01390133",2025-09-19 11:48:29.398522,2025-09-19 07:48:29.398568
"KTOP","Topeka/Billard Muni, KS, US",2025-09-19 11:36:00,"2025-09-19 06:36:00","LIFR",15.6,15.6,0,0,NA,0.5,1016.7,"SPECI KTOP 191136Z AUTO 00000KT 1/2SM FG VV002 16/16 A3002 RMK AO2 T01560156",2025-09-19 11:48:29.40507,2025-09-19 07:48:29.405112
"KUWL","New Castle/Henry Cnty, IN, US",2025-09-19 11:35:00,"2025-09-19 11:35:00","VFR",14,12,0,0,NA,NA,1018.7,"METAR KUWL 191135Z AUTO 00000KT 10SM CLR 14/12 A3008 RMK A01",2025-09-19 11:48:29.411779,2025-09-19 07:48:29.411823
"KTHA","Tullahoma Rgnl, TN, US",2025-09-19 11:35:00,"2025-09-19 06:35:00","VFR",14,14,0,0,NA,NA,1018,"METAR KTHA 191135Z AUTO 00000KT 10SM CLR 14/14 A3006 RMK A01",2025-09-19 11:48:29.418401,2025-09-19 07:48:29.418445
"KU52","Beaver Muni, UT, US",2025-09-19 11:35:00,"2025-09-19 11:35:00","VFR",13,5,150,5,NA,NA,1020.4,"METAR KU52 191135Z AUTO 15005KT 10SM -DZ FEW050 BKN075 OVC090 13/05 A3013 RMK AO2",2025-09-19 11:48:29.425091,2025-09-19 07:48:29.425134
"KU55","Panguitch Muni, UT, US",2025-09-19 11:35:00,"2025-09-19 05:35:00","VFR",13,6,250,6,NA,NA,1023.5,"METAR KU55 191135Z AUTO 25006KT 10SM SCT042 SCT050 OVC065 13/06 A3022 RMK A01",2025-09-19 11:48:29.431823,2025-09-19 07:48:29.431869
"KUSE","Wauseon/Fulton Cnty, OH, US",2025-09-19 11:35:00,"2025-09-19 11:35:00","IFR",16,16,50,4,NA,1,1019,"METAR KUSE 191135Z AUTO 05004KT 1SM BR CLR 16/16 A3009 RMK AO2",2025-09-19 11:48:29.451705,2025-09-19 07:48:29.451756
"KVCV","Victorville/S California Arpt, CA, US",2025-09-19 11:35:00,"2025-09-19 04:35:00","VFR",18,17,0,0,NA,NA,1015.3,"METAR KVCV 191135Z AUTO 00000KT 10SM SCT008 18/17 A2998 RMK AO2",2025-09-19 11:48:29.459015,2025-09-19 07:48:29.459063
"KTIF","Thedford/Thomas Cnty, NE, US",2025-09-19 11:35:00,"2025-09-19 11:35:00","VFR",8.5,8.2,320,4,NA,NA,1019,"METAR KTIF 191135Z AUTO 32004KT 10SM SCT090 SCT110 09/08 A3009 RMK AO2 T00850082",2025-09-19 11:48:29.465965,2025-09-19 07:48:29.466008
"KTRK","Truckee/Tahoe Arpt, CA, US",2025-09-19 11:35:00,"2025-09-19 04:35:00","VFR",12,6,190,3,NA,NA,1018.4,"METAR KTRK 191135Z AUTO 19003KT 10SM BKN110 12/06 A3007 RMK AO2",2025-09-19 11:48:29.472639,2025-09-19 07:48:29.472684
"KU68","Cowley/N Big Horn Cnty, WY, US",2025-09-19 11:35:00,"2025-09-19 11:35:00","VFR",8,6,0,0,NA,NA,1018.4,"METAR KU68 191135Z AUTO 00000KT 10SM CLR 08/06 A3007 RMK AO2",2025-09-19 11:48:29.479317,2025-09-19 07:48:29.479364
"KTWT","Sturgis Muni, KY, US",2025-09-19 11:35:00,"2025-09-19 11:35:00",NA,NA,NA,0,0,NA,NA,1017.4,"METAR KTWT 191135Z AUTO 00000KT 10SM A3004 RMK AO2",2025-09-19 11:48:29.485994,2025-09-19 07:48:29.486038
"KU69","Duchesne Muni, UT, US",2025-09-19 11:35:00,"2025-09-19 11:35:00","VFR",10,2,290,6,NA,NA,1021.4,"METAR KU69 191135Z AUTO 29006KT 10SM CLR 10/02 A3016 RMK A01",2025-09-19 11:48:29.492555,2025-09-19 07:48:29.492601
"KULS","Ulysses Arpt, KS, US",2025-09-19 11:35:00,"2025-09-19 11:35:00","LIFR",13,13,230,4,NA,0.25,1019,"METAR KULS 191135Z AUTO 23004KT M1/4SM FG OVC060 13/13 A3009 RMK AO2",2025-09-19 11:48:29.498992,2025-09-19 07:48:29.499034
"KVDI","Vidalia Rgnl, GA, US",2025-09-19 11:35:00,"2025-09-19 07:35:00","VFR",20,19,70,2,NA,8,1017.4,"METAR KVDI 191135Z AUTO 07002KT 8SM SCT065 20/19 A3004 RMK AO2",2025-09-19 11:48:29.505409,2025-09-19 07:48:29.505451
"KTKC","Tracy Muni, MN, US",2025-09-19 11:35:00,"2025-09-19 11:35:00","MVFR",17,17,130,4,NA,5,1013.3,"METAR KTKC 191135Z AUTO 13004KT 5SM BR SCT003 BKN024 OVC030 17/17 A2992 RMK AO2",2025-09-19 11:48:29.511807,2025-09-19 07:48:29.51185
"KTYQ","Indianapolis Exec, IN, US",2025-09-19 11:35:00,"2025-09-19 11:35:00","VFR",11.7,10.6,0,0,NA,7,1018.7,"METAR KTYQ 191135Z AUTO 00000KT 7SM CLR 12/11 A3008 RMK AO2 T01170106",2025-09-19 11:48:29.518176,2025-09-19 07:48:29.518218
"KTVY","Tooele Valley Arpt, UT, US",2025-09-19 11:35:00,"2025-09-19 11:35:00","VFR",16,1,200,11,NA,NA,1017,"METAR KTVY 191135Z AUTO 20011KT 10SM CLR 16/01 A3003 RMK AO2",2025-09-19 11:48:29.524654,2025-09-19 07:48:29.5247
"KUYF","London/Madison Cnty, OH, US",2025-09-19 11:35:00,"2025-09-19 11:35:00","VFR",10,10,NA,NA,NA,NA,1019.7,"METAR KUYF 191135Z AUTO 10SM CLR 10/10 A3011 RMK AO2",2025-09-19 11:48:29.531208,2025-09-19 07:48:29.531254
"KTTA","Sanford/Lee Cnty, NC, US",2025-09-19 11:35:00,"2025-09-19 11:35:00","VFR",14.2,14.2,0,0,NA,NA,1018,"METAR KTTA 191135Z AUTO 00000KT 10SM CLR 14/14 A3006 RMK AO2 T01420142",2025-09-19 11:48:29.537747,2025-09-19 07:48:29.537793
"KTMK","Tillamook Arpt, OR, US",2025-09-19 11:35:00,"2025-09-19 04:35:00","LIFR",7,7,150,3,NA,0.25,1015.3,"METAR KTMK 191135Z AUTO 15003KT M1/4SM FG OVC002 07/07 A2998 RMK AO2",2025-09-19 11:48:29.544135,2025-09-19 07:48:29.544176
"KUKL","Burlington/Coffey Cnty, KS, US",2025-09-19 11:35:00,"2025-09-19 11:35:00","LIFR",15.1,14.8,0,0,NA,0.25,1017,"METAR KUKL 191135Z AUTO 00000KT 1/4SM FG VV002 15/15 A3003 RMK AO2 T01510148",2025-09-19 11:48:29.550538,2025-09-19 07:48:29.550583
"KTQH","Tahlequah Muni, OK, US",2025-09-19 11:35:00,"2025-09-19 11:35:00",NA,17,17,0,0,NA,7,NA,"METAR KTQH 191135Z AUTO 00000KT 7SM 17/17 RMK AO2 P0012",2025-09-19 11:48:29.556915,2025-09-19 07:48:29.556957
"KTTF","Monroe/Custer Arpt, MI, US",2025-09-19 11:35:00,"2025-09-19 11:35:00","IFR",17,15,10,4,NA,2.5,1019.4,"METAR KTTF 191135Z AUTO 01004KT 2 1/2SM BR CLR 17/15 A3010 RMK AO2",2025-09-19 11:48:29.563334,2025-09-19 07:48:29.563379
"KTWM","Two Harbors/Helgeson Arpt, MN, US",2025-09-19 11:35:00,"2025-09-19 11:35:00","IFR",11,11,60,11,16,NA,1019.4,"METAR KTWM 191135Z AUTO 06011G16KT 10SM BKN008 OVC014 11/11 A3010 RMK AO2",2025-09-19 11:48:29.569875,2025-09-19 07:48:29.569919
"KUBE","Cumberland Muni, WI, US",2025-09-19 11:35:00,"2025-09-19 11:35:00","IFR",19,18,130,6,NA,7,1018,"METAR KUBE 191135Z AUTO 13006KT 7SM OVC006 19/18 A3006 RMK AO2",2025-09-19 11:48:29.589654,2025-09-19 07:48:29.589703
"KTQK","Scott City Muni, KS, US",2025-09-19 11:35:00,"2025-09-19 11:35:00","VFR",11.1,10.5,220,3,NA,NA,1019.4,"METAR KTQK 191135Z AUTO 22003KT 10SM CLR 11/11 A3010 RMK AO2 T01110105",2025-09-19 11:48:29.597007,2025-09-19 07:48:29.597054
"KTME","Houston/Executive Arpt, TX, US",2025-09-19 11:35:00,"2025-09-19 11:35:00","MVFR",21,21,20,3,NA,4,1016.7,"METAR KTME 191135Z AUTO 02003KT 4SM BR CLR 21/21 A3002 RMK AO2",2025-09-19 11:48:29.604162,2025-09-19 07:48:29.604211
"KTOC","Toccoa/Lefourneau Fld, GA, US",2025-09-19 11:35:00,"2025-09-19 07:35:00","VFR",19.1,18.1,330,3,NA,NA,1018.7,"METAR KTOC 191135Z AUTO 33003KT 10SM CLR 19/18 A3008 RMK AO2 T01910181",2025-09-19 11:48:29.611037,2025-09-19 07:48:29.611083
"KTNU","Newton Muni, IA, US",2025-09-19 11:35:00,"2025-09-19 06:35:00","MVFR",17,17,0,0,NA,NA,1015.3,"METAR KTNU 191135Z AUTO 00000KT 10SM BKN013 17/17 A2998 RMK A01",2025-09-19 11:48:29.617893,2025-09-19 07:48:29.617939
"KUKT","Quakertown Arpt, PA, US",2025-09-19 11:35:00,"2025-09-19 07:35:00","VFR",13,13,0,0,NA,NA,1016.7,"METAR KUKT 191135Z AUTO 00000KT 10SM CLR 13/13 A3002 RMK AO2",2025-09-19 11:48:29.624625,2025-09-19 07:48:29.62467
"KTKV","Tomahawk Rgnl, WI, US",2025-09-19 11:35:00,"2025-09-19 11:35:00","MVFR",15,12.7,0,0,NA,NA,1020.4,"METAR KTKV 191135Z AUTO 00000KT 10SM OVC010 15/13 A3013 RMK AO2 T01500127 PWINO",2025-09-19 11:48:29.631235,2025-09-19 07:48:29.63128
"KTMA","Tifton/Myers Arpt, GA, US",2025-09-19 11:35:00,"2025-09-19 07:35:00","VFR",18.6,18.3,0,0,NA,9,1017.4,"METAR KTMA 191135Z AUTO 00000KT 9SM CLR 19/18 A3004 RMK AO2 T01860183",2025-09-19 11:48:29.637781,2025-09-19 07:48:29.637826
"KUUV","Sullivan Rgnl, MO, US",2025-09-19 11:35:00,"2025-09-19 11:35:00","MVFR",17,17,0,0,NA,5,1018,"METAR KUUV 191135Z AUTO 00000KT 5SM BR CLR 17/17 A3006 RMK AO2 LTG DSNT SE",2025-09-19 11:48:29.644305,2025-09-19 07:48:29.644348
"KTVK","Centerville Muni, IA, US",2025-09-19 11:35:00,"2025-09-19 11:35:00",NA,17,17,160,5,NA,9,1016.7,"METAR KTVK 191135Z AUTO 16005KT 9SM -DZ 17/17 A3002 RMK AO2",2025-09-19 11:48:29.650817,2025-09-19 07:48:29.65086
"KTVI","Thomasville Rgnl, GA, US",2025-09-19 11:35:00,"2025-09-19 07:35:00","VFR",19,18,0,0,NA,7,1017.4,"METAR KTVI 191135Z AUTO 00000KT 7SM CLR 19/18 A3004 RMK AO2",2025-09-19 11:48:29.657247,2025-09-19 07:48:29.657288
"KTIP","Rantoul/Chanute AFB, IL, US",2025-09-19 11:35:00,"2025-09-19 11:35:00","VFR",15.3,11.8,0,0,NA,NA,1017.4,"METAR KTIP 191135Z AUTO 00000KT 10SM CLR 15/12 A3004 RMK AO2 T01530118",2025-09-19 11:48:29.66376,2025-09-19 07:48:29.663803
"KTKX","Kennett Arpt, MO, US",2025-09-19 11:35:00,"2025-09-19 06:35:00","VFR",21,19,30,5,NA,NA,1015.3,"METAR KTKX 191135Z AUTO 03005KT 10SM CLR 21/19 A2998 RMK AO2",2025-09-19 11:48:29.670204,2025-09-19 07:48:29.670248
"KTSP","Tehachapi Muni, CA, US",2025-09-19 11:35:00,"2025-09-19 04:35:00","MVFR",17,16,110,8,NA,NA,1016.3,"METAR KTSP 191135Z AUTO 11008KT 10SM OVC028 17/16 A3001 RMK AO2",2025-09-19 11:48:29.676736,2025-09-19 07:48:29.67678
"KTYL","Taylor Arpt, AZ, US",2025-09-19 11:35:00,"2025-09-19 04:35:00","VFR",15,14,0,0,NA,NA,1024.1,"METAR KTYL 191135Z AUTO 00000KT 10SM FEW060 FEW090 15/14 A3024 RMK AO2 LTG DSNT NE AND W",2025-09-19 11:48:29.683244,2025-09-19 07:48:29.683288
"KUNU","Juneau/Dodge Cnty, WI, US",2025-09-19 11:35:00,"2025-09-19 06:35:00","MVFR",16.2,16,30,3,NA,5,1019,"METAR KUNU 191135Z AUTO 03003KT 5SM BR SCT100 16/16 A3009 RMK AO2 T01620160 TSNO",2025-09-19 11:48:29.689708,2025-09-19 07:48:29.68975
"KUOX","Oxford/University Arpt, MS, US",2025-09-19 11:35:00,"2025-09-19 06:35:00","VFR",19,19,0,0,NA,NA,1017.4,"METAR KUOX 191135Z AUTO 00000KT 10SM CLR 19/19 A3004 RMK AO2 PWINO",2025-09-19 11:48:29.696231,2025-09-19 07:48:29.696275
"KUTA","Tunica Muni, MS, US",2025-09-19 11:35:00,"2025-09-19 06:35:00","VFR",20.5,19.8,0,0,NA,NA,1016,"METAR KUTA 191135Z AUTO 00000KT 10SM BKN190 20/20 A3000 RMK AO2 T02050198 $",2025-09-19 11:48:29.702775,2025-09-19 07:48:29.70282
"KUVA","Uvalde/Garner Fld, TX, US",2025-09-19 11:35:00,"2025-09-19 06:35:00",NA,19.2,19.2,70,4,NA,NA,1017.4,"METAR KUVA 191135Z AUTO 07004KT 19/19 A3004 RMK AO2 T01920192 PWINO",2025-09-19 11:48:29.709247,2025-09-19 07:48:29.709289
"KUXL","Sulphur/Southland Fld, LA, US",2025-09-19 11:35:00,"2025-09-19 11:35:00","VFR",21.3,21.3,0,0,NA,7,1016.7,"METAR KUXL 191135Z AUTO 00000KT 7SM CLR 21/21 A3002 RMK AO2 T02130213",2025-09-19 11:48:29.728633,2025-09-19 07:48:29.72868
"KUMP","Indianapolis Metro, IN, US",2025-09-19 11:35:00,"2025-09-19 11:35:00","VFR",14.8,14.8,0,0,NA,7,1018.4,"METAR KUMP 191135Z AUTO 00000KT 7SM CLR 15/15 A3007 RMK AO2 T01480148 $",2025-09-19 11:48:29.735688,2025-09-19 07:48:29.735735
"KULM","New Ulm Muni, MN, US",2025-09-19 11:35:00,"2025-09-19 06:35:00","IFR",18,17,120,7,NA,7,1014,"METAR KULM 191135Z AUTO 12007KT 7SM BKN006 BKN028 OVC070 18/17 A2994 RMK AO2",2025-09-19 11:48:29.742338,2025-09-19 07:48:29.742381
"KTOB","Dodge Center Arpt, MN, US",2025-09-19 11:35:00,"2025-09-19 11:35:00","VFR",17.5,17.1,140,8,NA,NA,1016,"METAR KTOB 191135Z AUTO 14008KT 10SM OVC100 17/17 A3000 RMK AO2 T01750171",2025-09-19 11:48:29.748916,2025-09-19 07:48:29.74896
"KUZA","Rock Hill/Bryant Fld, SC, US",2025-09-19 11:34:00,"2025-09-19 07:34:00","MVFR",16.1,16.1,0,0,NA,3,1018.4,"SPECI KUZA 191134Z AUTO 00000KT 3SM BR CLR 16/16 A3007 RMK AO2 T01610161",2025-09-19 11:48:29.755449,2025-09-19 07:48:29.755511
"KTOI","Troy Muni, AL, US",2025-09-19 11:30:00,"2025-09-19 06:30:00","MVFR",17.2,16.7,0,0,NA,4,1017.4,"SPECI KTOI 191130Z AUTO 00000KT 4SM BR CLR 17/17 A3004 RMK AO2 T01720167 $",2025-09-19 11:48:29.761935,2025-09-19 07:48:29.761978
"KUIL","Quillayute State Arpt, WA, US",2025-09-19 11:14:00,"2025-09-19 04:14:00","VFR",5.6,5.6,0,0,NA,NA,1016.3,"SPECI KUIL 191114Z AUTO 00000KT 10SM -RA FEW002 06/06 A3001 RMK AO2 P0000 T00560056 $",2025-09-19 11:48:29.76846,2025-09-19 07:48:29.768524
"KTRM","Thermal Arpt, CA, US",2025-09-19 11:09:00,"2025-09-19 04:09:00","VFR",21.1,21.1,0,0,NA,6,1009.2,"SPECI KTRM 191109Z AUTO 00000KT 6SM BR CLR 21/21 A2980 RMK AO2 T02110211 TSNO $",2025-09-19 11:48:29.774994,2025-09-19 07:48:29.775037
"KUDG","Darlington Cnty, SC, US",2025-09-19 11:05:00,"2025-09-19 11:05:00","LIFR",16,16,0,0,NA,0.25,1017.7,"SPECI KUDG 191105Z AUTO 00000KT 1/4SM FG OVC002 16/16 A3005 RMK AO2 $",2025-09-19 11:48:29.781544,2025-09-19 07:48:29.781589
"KVBT","Bentonville Muni, AR, US",2025-09-19 10:56:00,"2025-09-19 10:56:00","VFR",17.8,NA,160,4,NA,NA,1018.4,"METAR KVBT 191056Z AUTO 16004KT 10SM CLR 18/ A3007 RMK AO2 SLP177 T0178",2025-09-19 11:48:29.788239,2025-09-19 07:48:29.788285
"KUCP","New Castle Muni, PA, US",2025-09-19 10:56:00,"2025-09-19 10:56:00","VFR",12.2,12.2,0,0,NA,NA,1019.4,"METAR KUCP 191056Z AUTO 00000KT 10SM CLR 12/12 A3010 RMK AO2 SLP203 T01220122",2025-09-19 11:48:29.79527,2025-09-19 07:48:29.795314
"KUKI","Ukiah Muni, CA, US",2025-09-19 10:56:00,"2025-09-19 03:56:00","VFR",16.7,12.2,170,6,NA,NA,1010.9,"METAR KUKI 191056Z AUTO 17006KT 10SM CLR 17/12 A2985 RMK AO2 LTG DSNT N AND E SLP098 T01670122",2025-09-19 11:48:29.802054,2025-09-19 07:48:29.802099
"KTVF","Thief River Rgnl, MN, US",2025-09-19 10:56:00,"2025-09-19 05:56:00","VFR",14.4,13.3,100,11,NA,NA,1017,"METAR KTVF 191056Z AUTO 10011KT 10SM BKN048 BKN100 14/13 A3003 RMK AO2 TSB12E27RAE38 SLP171 P0005 T01440133",2025-09-19 11:48:29.808845,2025-09-19 07:48:29.808889
"KVAD","Valdosta/Moody AFB, GA, US",2025-09-19 10:55:00,"2025-09-19 06:55:00","VFR",20.4,17.8,0,0,NA,NA,1016,"METAR KVAD 191055Z AUTO 00000KT 10SM CLR 20/18 A3000 RMK AO2 SLP159 T02040178 $",2025-09-19 11:48:29.815665,2025-09-19 07:48:29.815708
"KTTS","NASA Shuttle Landing Arpt, FL, US",2025-09-19 10:55:00,"2025-09-19 10:55:00","VFR",22,20.8,20,3,NA,NA,1014,"METAR KTTS 191055Z AUTO 02003KT 10SM CLR 22/21 A2994 RMK AO2 SLP143 T02200208 FZRANO $",2025-09-19 11:48:29.822239,2025-09-19 07:48:29.822284
"KTIK","Tinker AFB, OK, US",2025-09-19 10:55:00,"2025-09-19 05:55:00","VFR",18.3,16.1,130,7,NA,NA,1016,"METAR KTIK 191055Z AUTO 13007KT 10SM BKN170 18/16 A3000 RMK AO2 SLP150 T01830161",2025-09-19 11:48:29.828942,2025-09-19 07:48:29.828986
"KUIN","Quincy/Baldwin Fld, IL, US",2025-09-19 10:54:00,"2025-09-19 05:54:00","VFR",16.7,16.7,0,0,NA,6,1016.7,"METAR KUIN 191054Z AUTO 00000KT 6SM BR BKN100 17/17 A3002 RMK AO2 SLP160 T01670167",2025-09-19 11:48:29.835532,2025-09-19 07:48:29.835579
"KTQE","Tekamah Muni, NE, US",2025-09-19 10:54:00,"2025-09-19 10:54:00","VFR",14.4,13.9,230,4,NA,NA,1015,"METAR KTQE 191054Z AUTO 23004KT 10SM CLR 14/14 A2997 RMK AO2 SLP142 T01440139 $",2025-09-19 11:48:29.842354,2025-09-19 07:48:29.8424
"KTTD","Portland/Troutdale Arpt, OR, US",2025-09-19 10:53:00,"2025-09-19 03:53:00","VFR",11.7,10.6,0,0,NA,NA,1014.3,"METAR KTTD 191053Z AUTO 00000KT 10SM CLR 12/11 A2995 RMK AO2 SLP140 T01170106",2025-09-19 11:48:29.849234,2025-09-19 07:48:29.849279
"KTVC","Traverse City/Cherry Capital Arpt, MI, US",2025-09-19 10:53:00,"2025-09-19 06:53:00","MVFR",17.8,16.1,50,3,NA,NA,1019.7,"METAR KTVC 191053Z 05003KT 10SM BKN022 BKN090 18/16 A3011 RMK AO2 SLP194 T01780161",2025-09-19 11:48:29.86976,2025-09-19 07:48:29.869805
"KTVL","Lake Tahoe Arpt, CA, US",2025-09-19 10:53:00,"2025-09-19 03:53:00","VFR",11.1,9.4,0,0,NA,NA,1018,"METAR KTVL 191053Z AUTO 00000KT 10SM OVC100 11/09 A3006 RMK AO2 SLP122 T01110094",2025-09-19 11:48:29.877022,2025-09-19 07:48:29.877068
"KVCB","Vacaville/Nut Tree Arpt, CA, US",2025-09-19 10:53:00,"2025-09-19 10:53:00","VFR",19.4,12.2,200,4,NA,NA,1010.6,"METAR KVCB 191053Z AUTO 20004KT 10SM FEW110 19/12 A2984 RMK AO2 SLP101 T01940122 $",2025-09-19 11:48:29.883821,2025-09-19 07:48:29.883865
"KTVR","Vicksburg/Tallulah Rgnl, LA, US",2025-09-19 10:53:00,"2025-09-19 10:53:00","VFR",19.4,18.3,0,0,NA,8,1017,"METAR KTVR 191053Z AUTO 00000KT 8SM CLR 19/18 A3003 RMK AO2 SLP175 T01940183",2025-09-19 11:48:29.890438,2025-09-19 07:48:29.8905
"KUNO","West Plains Rgnl, MO, US",2025-09-19 10:53:00,"2025-09-19 10:53:00","VFR",17.2,16.7,0,0,NA,NA,1018,"METAR KUNO 191053Z AUTO 00000KT 10SM CLR 17/17 A3006 RMK AO2 SLP165 T01720167",2025-09-19 11:48:29.897219,2025-09-19 07:48:29.897264
"KTXK","Texarkana Rgnl, AR, US",2025-09-19 10:53:00,"2025-09-19 05:53:00","VFR",21.1,19.4,0,0,NA,NA,1016.3,"METAR KTXK 191053Z 00000KT 10SM FEW095 21/19 A3001 RMK AO2 SLP156 T02110194",2025-09-19 11:48:29.90402,2025-09-19 07:48:29.904064
"KTUL","Tulsa Intl Arpt, OK, US",2025-09-19 10:53:00,"2025-09-19 05:53:00","VFR",20.6,18.9,160,4,NA,NA,1017,"METAR KTUL 191053Z 16004KT 10SM SCT090 SCT110 21/19 A3003 RMK AO2 SLP162 OCNL LTGICCC DSNT E-SE CB DSNT E-SE MOV E T02060189",2025-09-19 11:48:29.910936,2025-09-19 07:48:29.910979
"KTRI","Bristol/Tri-Cities Arpt, TN, US",2025-09-19 10:53:00,"2025-09-19 06:53:00","VFR",12.2,12.2,0,0,NA,NA,1019.7,"METAR KTRI 191053Z 00000KT 10SM CLR 12/12 A3011 RMK AO2 SLP177 T01220122 $",2025-09-19 11:48:29.917774,2025-09-19 07:48:29.917819
"KTTN","Trenton/Mercer Arpt, NJ, US",2025-09-19 10:53:00,"2025-09-19 06:53:00","VFR",16.1,13.9,290,3,NA,NA,1015.3,"METAR KTTN 191053Z 29003KT 10SM CLR 16/14 A2998 RMK AO2 SLP146 T01610139",2025-09-19 11:48:29.924646,2025-09-19 07:48:29.92469
"KTUP","Tupelo Rgnl, MS, US",2025-09-19 10:53:00,"2025-09-19 05:53:00","VFR",19.4,18.3,0,0,NA,9,1016.7,"METAR KTUP 191053Z 00000KT 9SM CLR 19/18 A3002 RMK AO2 SLPNO T01940183 $",2025-09-19 11:48:29.931196,2025-09-19 07:48:29.931239
"KTWF","Twin Falls/Joslin Fld, ID, US",2025-09-19 10:53:00,"2025-09-19 04:53:00","VFR",10,1.1,50,5,NA,NA,1015.7,"METAR KTWF 191053Z AUTO 05005KT 10SM CLR 10/01 A2999 RMK AO2 SLP107 T01000011 $",2025-09-19 11:48:29.937761,2025-09-19 07:48:29.937806
"KVEL","Vernal Rgnl, UT, US",2025-09-19 10:53:00,"2025-09-19 04:53:00","VFR",10,3.3,250,4,NA,NA,1020.1,"METAR KVEL 191053Z AUTO 25004KT 10SM CLR 10/03 A3012 RMK AO2 SLP151 T01000033",2025-09-19 11:48:29.944309,2025-09-19 07:48:29.944352
"KTKI","McKinney Muni, TX, US",2025-09-19 10:53:00,"2025-09-19 10:53:00","VFR",21.1,19.4,0,0,NA,8,1016,"METAR KTKI 191053Z AUTO 00000KT 8SM CLR 21/19 A3000 RMK AO2 SLP154 T02110194",2025-09-19 11:48:29.950903,2025-09-19 07:48:29.950945
"KTLH","Tallahassee Intl, FL, US",2025-09-19 10:53:00,"2025-09-19 06:53:00","VFR",19.4,18.9,0,0,NA,NA,1016.3,"METAR KTLH 191053Z 00000KT 10SM CLR 19/19 A3001 RMK AO2 SLP162 T01940189",2025-09-19 11:48:29.957498,2025-09-19 07:48:29.957547
"KTOR","Torrington Muni, WY, US",2025-09-19 10:53:00,"2025-09-19 04:53:00","VFR",8.9,7.2,10,5,NA,NA,1018,"METAR KTOR 191053Z AUTO 01005KT 10SM CLR 09/07 A3006 RMK AO2 SLP151 T00890072 $",2025-09-19 11:48:29.964166,2025-09-19 07:48:29.96421
"KTUS","Tucson Intl Arpt, AZ, US",2025-09-19 10:53:00,"2025-09-19 03:53:00","VFR",22.8,18.3,170,8,NA,NA,1015.3,"METAR KTUS 191053Z 17008KT 10SM FEW090 23/18 A2998 RMK AO2 SLP101 T02280183",2025-09-19 11:48:29.970963,2025-09-19 07:48:29.971006
"KTYS","Knoxville/Tyson Arpt, TN, US",2025-09-19 10:53:00,"2025-09-19 06:53:00","VFR",16.7,15.6,70,3,NA,7,1018,"METAR KTYS 191053Z 07003KT 7SM FEW075 17/16 A3006 RMK AO2 SLP171 T01670156",2025-09-19 11:48:29.977542,2025-09-19 07:48:29.977587
"KUNV","State College/Univ Park Arpt, PA, US",2025-09-19 10:53:00,"2025-09-19 06:53:00","VFR",14,11,0,0,NA,NA,1018.4,"METAR KUNV 191053Z 00000KT 10SM CLR 14/11 A3007",2025-09-19 11:48:29.984176,2025-09-19 07:48:29.98422
"KTHV","York Arpt, PA, US",2025-09-19 10:53:00,"2025-09-19 06:53:00","VFR",11.1,11.1,0,0,NA,7,1016.7,"METAR KTHV 191053Z AUTO 00000KT 7SM CLR 11/11 A3002 RMK AO2 SLP167 T01110111",2025-09-19 11:48:30.003412,2025-09-19 07:48:30.003463
"KUTS","Huntsville Muni, TX, US",2025-09-19 10:53:00,"2025-09-19 05:53:00","VFR",22.8,21.1,0,0,NA,8,1016.7,"METAR KUTS 191053Z AUTO 00000KT 8SM CLR 23/21 A3002 RMK AO2 SLP159 T02280211",2025-09-19 11:48:30.010852,2025-09-19 07:48:30.0109
"KUAO","Aurora State Arpt, OR, US",2025-09-19 10:53:00,"2025-09-19 10:53:00","VFR",12.2,10.6,0,0,NA,NA,1014.3,"METAR KUAO 191053Z AUTO 00000KT 10SM CLR 12/11 A2995 RMK AO2 SLP141 T01220106 $",2025-09-19 11:48:30.018193,2025-09-19 07:48:30.01824
"KTYR","Tyler/Pounds Fld, TX, US",2025-09-19 10:53:00,"2025-09-19 05:53:00","VFR",22.2,20.6,190,3,NA,NA,1016.7,"METAR KTYR 191053Z AUTO 19003KT 10SM CLR 22/21 A3002 RMK AO2 SLP159 T02220206",2025-09-19 11:48:30.024992,2025-09-19 07:48:30.025036
"KTRL","Terrell Muni, TX, US",2025-09-19 10:53:00,"2025-09-19 05:53:00","VFR",21.7,20,190,3,NA,8,1016.3,"METAR KTRL 191053Z AUTO 19003KT 8SM CLR 22/20 A3001 RMK AO2 SLP157 T02170200",2025-09-19 11:48:30.031655,2025-09-19 07:48:30.031699
"KTPA","Tampa Intl Arpt, FL, US",2025-09-19 10:53:00,"2025-09-19 06:53:00","VFR",23.3,21.7,20,3,NA,NA,1015.7,"METAR KTPA 191053Z 02003KT 10SM FEW250 23/22 A2999 RMK AO2 SLP154 T02330217 $",2025-09-19 11:48:30.038412,2025-09-19 07:48:30.038457
"KTMB","Miami Exec Arpt, FL, US",2025-09-19 10:53:00,"2025-09-19 06:53:00",NA,NA,NA,NA,NA,NA,NA,1013.3,"METAR KTMB 191053Z AUTO A2992 RMK AO2 SLP133 PWINO $",2025-09-19 11:48:30.044995,2025-09-19 07:48:30.045038
"KTIW","Tacoma Narrows Arpt, WA, US",2025-09-19 10:53:00,"2025-09-19 03:53:00","VFR",11.1,9.4,0,0,NA,NA,1016,"METAR KTIW 191053Z AUTO 00000KT 10SM CLR 11/09 A3000 RMK AO2 SLP156 T01110094",2025-09-19 11:48:30.051799,2025-09-19 07:48:30.051843
"KTOL","Toledo/Express Arpt, OH, US",2025-09-19 10:52:00,"2025-09-19 06:52:00","MVFR",16.1,15.6,0,0,NA,5,1018.7,"METAR KTOL 191052Z 00000KT 5SM BR CLR 16/16 A3008 RMK AO2 SLP183 T01610156 $",2025-09-19 11:48:30.058455,2025-09-19 07:48:30.058517
"KTPL","Temple/Miller Rgnl, TX, US",2025-09-19 10:51:00,"2025-09-19 05:51:00",NA,22.2,20.6,170,4,NA,NA,1017,"METAR KTPL 191051Z AUTO 17004KT CLR 22/21 A3003 RMK AO2 SLP157 T02220206 PWINO RVRNO $",2025-09-19 11:48:30.065165,2025-09-19 07:48:30.065208
"KVCT","Victoria Rgnl, TX, US",2025-09-19 10:51:00,"2025-09-19 05:51:00","VFR",21.1,20.6,20,5,NA,6,1015.7,"METAR KVCT 191051Z AUTO 02005KT 6SM BR SCT028 21/21 A2999 RMK AO2 SLP153 T02110206",2025-09-19 11:48:30.071918,2025-09-19 07:48:30.071963
"KUGN","Waukegan Rgnl, IL, US",2025-09-19 10:51:00,"2025-09-19 05:51:00","VFR",20,19.4,40,4,NA,NA,1017.4,"METAR KUGN 191051Z 04004KT 10SM CLR 20/19 A3004 RMK AO2 SLP163 T02000194 $",2025-09-19 11:48:30.078702,2025-09-19 07:48:30.078755
"KTIX","Titusville/Space Coast Rgnl, FL, US",2025-09-19 10:47:00,"2025-09-19 06:47:00","VFR",24,22,0,0,NA,7,1015.3,"METAR KTIX 191047Z 00000KT 7SM SKC 24/22 A2998",2025-09-19 11:48:30.085527,2025-09-19 07:48:30.085579
"KWDG","Enid/Woodring Arpt, OK, US",2025-09-19 11:45:00,"2025-09-19 06:45:00","VFR",16,15,0,0,NA,NA,1018,"METAR KWDG 191145Z 00000KT 10SM CLR 16/15 A3006",2025-09-19 11:48:31.324509,2025-09-19 07:48:31.324561
"KVTA","Newark/Heath Arpt, OH, US",2025-09-19 11:42:00,"2025-09-19 11:42:00","IFR",10,10,0,0,NA,1.5,1019,"SPECI KVTA 191142Z AUTO 00000KT 1 1/2SM BR CLR 10/10 A3009 RMK AO2 T01000100",2025-09-19 11:48:31.331501,2025-09-19 07:48:31.33155
"KVER","Boonville/Vertel Mem, MO, US",2025-09-19 11:35:00,"2025-09-19 11:35:00","LIFR",14.9,14.9,0,0,NA,0.25,1017,"METAR KVER 191135Z AUTO 00000KT M1/4SM FG OVC002 15/15 A3003 RMK AO2 T01490149",2025-09-19 11:48:31.351433,2025-09-19 07:48:31.351551
"KVNW","Van Wert Cnty Arpt, OH, US",2025-09-19 11:35:00,"2025-09-19 11:35:00","VFR",12,9,0,0,NA,NA,1019,"METAR KVNW 191135Z AUTO 00000KT 10SM CLR 12/09 A3009 RMK AO2",2025-09-19 11:48:31.359661,2025-09-19 07:48:31.35971
"KW31","Kenbridge/Lunenburg Cnty, VA, US",2025-09-19 11:35:00,"2025-09-19 11:35:00","LIFR",16.1,16.1,0,0,NA,0.5,1017.4,"METAR KW31 191135Z AUTO 00000KT 1/2SM OVC001 16/16 A3004 RMK AO1 T01610161",2025-09-19 11:48:31.367029,2025-09-19 07:48:31.367075
"KVMR","Vermillion/Davidson Fld, SD, US",2025-09-19 11:35:00,"2025-09-19 11:35:00","IFR",16,16,250,8,NA,2.5,1014,"METAR KVMR 191135Z AUTO 25008KT 2 1/2SM BR OVC005 16/16 A2994 RMK AO2",2025-09-19 11:48:31.373812,2025-09-19 07:48:31.373855
"KW81","Crewe Muni, VA, US",2025-09-19 11:35:00,"2025-09-19 11:35:00","MVFR",14.9,13.5,0,0,NA,4,1017.4,"METAR KW81 191135Z AUTO 00000KT 4SM SCT002 15/14 A3004 RMK AO1 T01490135",2025-09-19 11:48:31.380409,2025-09-19 07:48:31.380453
"KVVV","Ortonville Muni, MN, US",2025-09-19 11:35:00,"2025-09-19 11:35:00","LIFR",18,18,0,0,NA,7,1013.6,"METAR KVVV 191135Z AUTO 00000KT 7SM -RA BKN004 BKN060 OVC090 18/18 A2993 RMK AO2",2025-09-19 11:48:31.387078,2025-09-19 07:48:31.387125
"KW43","Hulett Muni, WY, US",2025-09-19 11:35:00,"2025-09-19 11:35:00","MVFR",6,5,180,7,NA,5,1020.1,"METAR KW43 191135Z AUTO 18007KT 5SM -SN CLR 06/05 A3012 RMK AO2",2025-09-19 11:48:31.393893,2025-09-19 07:48:31.393935
"KVWU","Waskish Muni, MN, US",2025-09-19 11:35:00,"2025-09-19 11:35:00",NA,16,16,90,7,NA,NA,1018.4,"METAR KVWU 191135Z AUTO 09007KT OVC016 16/16 A3007 RMK AO2 PWINO",2025-09-19 11:48:31.400725,2025-09-19 07:48:31.400769
"KY31","West Branch Arpt, MI, US",2025-09-19 11:35:00,"2025-09-19 07:35:00","VFR",16,15.8,40,4,NA,NA,1021.1,"METAR KY31 191135Z AUTO 04004KT 10SM SCT014 OVC032 16/16 A3015 RMK AO2 T01600158",2025-09-19 11:48:31.407688,2025-09-19 07:48:31.407733
"KVVS","Connellsville/Hardy Aprt, PA, US",2025-09-19 11:35:00,"2025-09-19 11:35:00","VFR",13.5,10.4,80,3,NA,NA,1019.7,"METAR KVVS 191135Z AUTO 08003KT 10SM CLR 13/10 A3011 RMK AO2 T01350104",2025-09-19 11:48:31.414452,2025-09-19 07:48:31.414518
"KWDR","Winder/Barrow Cnty, GA, US",2025-09-19 11:35:00,"2025-09-19 07:35:00","VFR",18,17,NA,NA,NA,NA,1019,"METAR KWDR 191135Z 10SM CLR 18/17 A3009 RMK AO2 LTG DSNT NW",2025-09-19 11:48:31.42125,2025-09-19 07:48:31.421295
"KZER","Pottsville/Schuylkill Cnty, PA, US",2025-09-19 11:35:00,"2025-09-19 11:35:00","VFR",17,11,300,6,NA,NA,1018.7,"METAR KZER 191135Z AUTO 30006KT 10SM CLR 17/11 A3008 RMK AO2",2025-09-19 11:48:31.428226,2025-09-19 07:48:31.428276
"KVLL","Oakland-Troy Arpt, MI, US",2025-09-19 11:35:00,"2025-09-19 11:35:00","VFR",18,17,40,6,NA,9,1020.1,"METAR KVLL 191135Z AUTO 04006KT 9SM FEW005 SCT090 SCT110 18/17 A3012 RMK AO2",2025-09-19 11:48:31.435157,2025-09-19 07:48:31.4352
"KY51","Viroqua Muni, WI, US",2025-09-19 11:35:00,"2025-09-19 11:35:00","VFR",17,17,110,3,NA,7,1018.4,"METAR KY51 191135Z AUTO 11003KT 7SM SCT120 17/17 A3007 RMK AO1 T01700170",2025-09-19 11:48:31.441951,2025-09-19 07:48:31.441996
"KVGC","Hamilton Muni, NY, US",2025-09-19 11:35:00,"2025-09-19 11:35:00","MVFR",14,13,290,3,NA,NA,1018.4,"METAR KVGC 191135Z AUTO 29003KT 10SM SCT007 BKN022 14/13 A3007 RMK AO2",2025-09-19 11:48:31.448811,2025-09-19 07:48:31.448856
"KVTI","Vinton/Veterans Mem, IA, US",2025-09-19 11:35:00,"2025-09-19 11:35:00","VFR",17.3,16.8,90,3,NA,NA,1016,"METAR KVTI 191135Z AUTO 09003KT 10SM OVC110 17/17 A3000 RMK AO2 T01730168",2025-09-19 11:48:31.455597,2025-09-19 07:48:31.455642
"KY23","Chetek Muni, WI, US",2025-09-19 11:35:00,"2025-09-19 11:35:00","IFR",19,18.5,130,10,14,NA,1018,"METAR KY23 191135Z AUTO 13010G14KT 10SM BKN009 BKN065 OVC100 19/19 A3006 RMK AO2 T01900185",2025-09-19 11:48:31.462399,2025-09-19 07:48:31.462443
"KVJI","Abingdon/Virginia Highlands Arpt, VA, US",2025-09-19 11:35:00,"2025-09-19 07:35:00","VFR",14,13,80,6,NA,NA,1021.1,"METAR KVJI 191135Z AUTO 08006KT 10SM CLR 14/13 A3015 RMK AO2",2025-09-19 11:48:31.469408,2025-09-19 07:48:31.469454
"KX26","Sabastian Arpt, FL, US",2025-09-19 11:35:00,"2025-09-19 11:35:00","VFR",23,23,330,4,NA,NA,1014.3,"METAR KX26 191135Z AUTO 33004KT 10SM SCT025 SCT030 BKN039 23/23 A2995 RMK AO2",2025-09-19 11:48:31.476558,2025-09-19 07:48:31.476607
"KVPC","Cartersville Arpt, GA, US",2025-09-19 11:35:00,"2025-09-19 11:35:00","VFR",17,16,0,0,NA,9,1018.7,"METAR KVPC 191135Z AUTO 00000KT 9SM CLR 17/16 A3008 RMK AO2",2025-09-19 11:48:31.497498,2025-09-19 07:48:31.497551
"KVYS","Peru/Illinois Valley Rgnl, IL, US",2025-09-19 11:35:00,"2025-09-19 06:35:00","VFR",15.3,14,50,3,NA,7,1016.7,"METAR KVYS 191135Z AUTO 05003KT 7SM CLR 15/14 A3002 RMK AO2 T01530140 TSNO",2025-09-19 11:48:31.505178,2025-09-19 07:48:31.505226
"KVHN","Van Horn/Culberson Cnty, TX, US",2025-09-19 11:35:00,"2025-09-19 06:35:00","VFR",18.6,17.6,80,4,NA,NA,1021.4,"METAR KVHN 191135Z AUTO 08004KT 10SM OVC100 19/18 A3016 RMK AO2 T01860176",2025-09-19 11:48:31.51285,2025-09-19 07:48:31.512901
"KVUJ","Albemarle/Stanly Cnty, NC, US",2025-09-19 11:35:00,"2025-09-19 11:35:00","VFR",15.5,15.1,0,0,NA,NA,1019.7,"METAR KVUJ 191135Z AUTO 00000KT 10SM CLR 16/15 A3011 RMK AO2 T01550151",2025-09-19 11:48:31.519836,2025-09-19 07:48:31.51988
"KW40","Mt Olive Muni, NC, US",2025-09-19 11:35:00,"2025-09-19 11:35:00","LIFR",16.3,16.2,0,0,NA,0.25,1018,"METAR KW40 191135Z AUTO 00000KT M1/4SM FG OVC001 16/16 A3006 RMK AO2 T01630162",2025-09-19 11:48:31.526656,2025-09-19 07:48:31.526703
"KXBP","Bridgeport Muni, TX, US",2025-09-19 11:35:00,"2025-09-19 11:35:00","VFR",18.2,18.2,0,0,NA,NA,1017,"METAR KXBP 191135Z AUTO 00000KT 10SM CLR 18/18 A3003 RMK AO2 T01820182",2025-09-19 11:48:31.533428,2025-09-19 07:48:31.533489
"KW96","Quinton/New Kent Cnty, VA, US",2025-09-19 11:35:00,"2025-09-19 11:35:00","IFR",16.2,16,0,0,NA,1.25,1017,"METAR KW96 191135Z AUTO 00000KT 1 1/4SM VV007 16/16 A3003 RMK AO1 VIS 1/4V5 T01620160",2025-09-19 11:48:31.540089,2025-09-19 07:48:31.540132
"KWYS","West Yellowstone Arpt, MT, US",2025-09-19 11:35:00,"2025-09-19 05:35:00","VFR",-2,-2,0,0,NA,NA,1023.5,"METAR KWYS 191135Z AUTO 00000KT 10SM CLR M02/M02 A3022 RMK AO2",2025-09-19 11:48:31.546802,2025-09-19 07:48:31.546847
"KY19","Mandan Muni, ND, US",2025-09-19 11:35:00,"2025-09-19 11:35:00",NA,12,12,350,11,NA,NA,1017,"METAR KY19 191135Z AUTO 35011KT 10SM 12/12 A3003 RMK AO2",2025-09-19 11:48:31.553558,2025-09-19 07:48:31.553604
"KVKS","Vicksburg Arpt, MS, US",2025-09-19 11:35:00,"2025-09-19 06:35:00","VFR",19,19,0,0,NA,NA,1017,"METAR KVKS 191135Z AUTO 00000KT 10SM CLR 19/19 A3003 RMK A01",2025-09-19 11:48:31.560204,2025-09-19 07:48:31.560247
"KVES","Versailles/Darke Cnty, OH, US",2025-09-19 11:35:00,"2025-09-19 11:35:00","VFR",14,11,250,1,NA,9,1018.7,"METAR KVES 191135Z AUTO 25001KT 9SM CLR 14/11 A3008 RMK AO2",2025-09-19 11:48:31.566903,2025-09-19 07:48:31.566945
"KXSA","Tappahannock/Essex Cnty, VA, US",2025-09-19 11:35:00,"2025-09-19 11:35:00","IFR",16.6,16.6,0,0,NA,2.5,1017.4,"METAR KXSA 191135Z AUTO 00000KT 2 1/2SM BR CLR 17/17 A3004 RMK AO2 VIS 1 3/4V4 T01660166",2025-09-19 11:48:31.573586,2025-09-19 07:48:31.573629
"KY70","Ionia Cnty Arpt, MI, US",2025-09-19 11:35:00,"2025-09-19 11:35:00","LIFR",17,17,70,6,NA,0.25,1019.7,"METAR KY70 191135Z AUTO 07006KT 1/4SM FG BKN001 OVC018 17/17 A3011 RMK AO2",2025-09-19 11:48:31.580195,2025-09-19 07:48:31.580237
"KW78","South Boston/Tuck Arpr, VA, US",2025-09-19 11:35:00,"2025-09-19 11:35:00","MVFR",14.5,13.7,0,0,NA,4,1018,"METAR KW78 191135Z AUTO 00000KT 4SM SCT080 15/14 A3006 RMK AO1 T01450137",2025-09-19 11:48:31.58679,2025-09-19 07:48:31.586834
"KW22","Buckhannon/Upshur Cnty, WV, US",2025-09-19 11:35:00,"2025-09-19 11:35:00","VFR",31,31,0,0,NA,9,1020.1,"METAR KW22 191135Z AUTO 00000KT 9SM CLR 31/31 A3012 RMK AO2",2025-09-19 11:48:31.593449,2025-09-19 07:48:31.593513
"KWWR","Woodward Arpt, OK, US",2025-09-19 11:35:00,"2025-09-19 06:35:00","VFR",13,12,0,0,NA,NA,1019.7,"METAR KWWR 191135Z AUTO 00000KT 10SM CLR 13/12 A3011 RMK AO2",2025-09-19 11:48:31.600268,2025-09-19 07:48:31.600314
"KXLL","Allentown/Queen City, PA, US",2025-09-19 11:35:00,"2025-09-19 11:35:00","VFR",15,13,230,3,NA,NA,1017,"METAR KXLL 191135Z AUTO 23003KT 10SM CLR 15/13 A3003 RMK AO2 TSNO",2025-09-19 11:48:31.607246,2025-09-19 07:48:31.607291
"KX60","Williston Muni, FL, US",2025-09-19 11:35:00,"2025-09-19 11:35:00","LIFR",18.2,18.2,0,0,NA,0.25,1017,"METAR KX60 191135Z AUTO 00000KT 1/4SM FG OVC002 18/18 A3003 RMK AO2 T01820182",2025-09-19 11:48:31.614023,2025-09-19 07:48:31.614067
"KXVG","Longville Muni, MN, US",2025-09-19 11:33:00,"2025-09-19 11:33:00","MVFR",13,13,60,3,NA,NA,1017,"METAR KXVG 191133Z AUTO 06003KT 10SM -RA SCT005 BKN027 OVC050 13/13 A3003 RMK AO2",2025-09-19 11:48:31.620943,2025-09-19 07:48:31.620988
"KWRI","McGuire AFB, NJ, US",2025-09-19 11:32:00,"2025-09-19 07:32:00","MVFR",17,16,0,0,NA,3,1015.3,"SPECI KWRI 191132Z 00000KT 3SM BR CLR 17/16 A2998 M RMK SLPNO ALSTG ESTMD $",2025-09-19 11:48:31.641904,2025-09-19 07:48:31.641952
"KWVL","Waterville/Lafleur Arpt, ME, US",2025-09-19 11:28:00,"2025-09-19 07:28:00","MVFR",17,14,320,4,NA,NA,1011.3,"SPECI KWVL 191128Z AUTO 32004KT 10SM BKN025 17/14 A2986 RMK AO2",2025-09-19 11:48:31.649621,2025-09-19 07:48:31.649671
"KVIS","Visalia Muni, CA, US",2025-09-19 11:22:00,"2025-09-19 04:22:00","LIFR",20,19,300,5,NA,2.5,1011.9,"SPECI KVIS 191122Z AUTO 30005KT 2 1/2SM BR BKN004 OVC060 20/19 A2988 RMK AO2 $",2025-09-19 11:48:31.656858,2025-09-19 07:48:31.656901
"KVIH","Vichy/Rolla Arpt, MO, US",2025-09-19 11:15:00,"2025-09-19 06:15:00","MVFR",15.6,15.6,100,4,NA,3,1017.7,"SPECI KVIH 191115Z AUTO 10004KT 3SM BR CLR 16/16 A3005 RMK AO2 T01560156",2025-09-19 11:48:31.66379,2025-09-19 07:48:31.663835
"KVTN","Valentine/Miller Fld, NE, US",2025-09-19 11:13:00,"2025-09-19 06:13:00","MVFR",11.7,10,290,4,NA,NA,1017.7,"SPECI KVTN 191113Z AUTO 29004KT 10SM BKN013 BKN120 12/10 A3005 RMK AO2 T01170100",2025-09-19 11:48:31.670967,2025-09-19 07:48:31.671014
"KWLD","Winfield/Strother Fld, KS, US",2025-09-19 11:06:00,"2025-09-19 06:06:00","VFR",16.1,15,0,0,NA,NA,1018,"SPECI KWLD 191106Z AUTO 00000KT 10SM CLR 16/15 A3006 RMK AO2 T01610150",2025-09-19 11:48:31.678038,2025-09-19 07:48:31.678086
"KY50","Wautoma Muni, WI, US",2025-09-19 10:56:00,"2025-09-19 10:56:00","IFR",17.2,16.1,80,5,NA,NA,1019.4,"METAR KY50 191056Z AUTO 08005KT 10SM OVC007 17/16 A3010 RMK AO2 SLP187 T01720161 $",2025-09-19 11:48:31.685222,2025-09-19 07:48:31.685269
"KVPZ","Valparaiso/Port Cnty, IN, US",2025-09-19 10:56:00,"2025-09-19 05:56:00","VFR",15.6,13.9,60,4,NA,NA,1018,"METAR KVPZ 191056Z AUTO 06004KT 10SM CLR 16/14 A3006 RMK AO2 SLP175 T01560139",2025-09-19 11:48:31.692387,2025-09-19 07:48:31.692435
"KWWD","Wildwood/Cape May Cnty, NJ, US",2025-09-19 10:56:00,"2025-09-19 06:56:00","VFR",19.4,18.9,270,3,NA,NA,1016.3,"METAR KWWD 191056Z AUTO 27003KT 10SM CLR 19/19 A3001 RMK AO2 SLP162 T01940189",2025-09-19 11:48:31.699607,2025-09-19 07:48:31.699654
"KWJF","Lancaster/Fox Arfld, CA, US",2025-09-19 10:56:00,"2025-09-19 03:56:00","VFR",19.4,16.1,0,0,NA,NA,1014,"METAR KWJF 191056Z AUTO 00000KT 10SM FEW021 FEW026 OVC045 19/16 A2994 RMK AO2 SLP122 T01940161 $",2025-09-19 11:48:31.706656,2025-09-19 07:48:31.706703
"KYKN","Yankton/Gurney Muni, SD, US",2025-09-19 10:56:00,"2025-09-19 05:56:00","IFR",15.6,15.6,260,12,NA,9,1014,"METAR KYKN 191056Z AUTO 26012KT 9SM OVC006 16/16 A2994 RMK AO2 RAB01E54 CIG 005V011 SLP146 P0001 T01560156",2025-09-19 11:48:31.713586,2025-09-19 07:48:31.71363
"KWMC","Winnemucca Muni, NV, US",2025-09-19 10:56:00,"2025-09-19 03:56:00","VFR",16.1,-2.8,160,5,NA,NA,1014.6,"METAR KWMC 191056Z AUTO 16005KT 10SM CLR 16/M03 A2996 RMK AO2 SLP096 T01611028",2025-09-19 11:48:31.720433,2025-09-19 07:48:31.7205
"KVPS","Valparaiso/Eglin AFB, FL, US",2025-09-19 10:55:00,"2025-09-19 05:55:00","VFR",21.5,19,360,3,NA,NA,1016,"METAR KVPS 191055Z AUTO 36003KT 10SM CLR 22/19 A3000 RMK AO2 SLP165 T02150190 $",2025-09-19 11:48:31.7273,2025-09-19 07:48:31.727345
"KVOK","Camp Douglas/Volk Fld, WI, US",2025-09-19 10:55:00,"2025-09-19 05:55:00",NA,NA,NA,100,3,NA,NA,NA,"METAR KVOK 191055Z AUTO 10003KT M M M M M RMK AO2 SLPNO RVRNO TSNO $",2025-09-19 11:48:31.734132,2025-09-19 07:48:31.734175
"KWRB","Warner Robins AFB, GA, US",2025-09-19 10:55:00,"2025-09-19 06:55:00","VFR",19.4,18.2,0,0,NA,NA,1016,"METAR KWRB 191055Z AUTO 00000KT 10SM CLR 19/18 A3000 RMK AO2 SLP159 T01940182",2025-09-19 11:48:31.741046,2025-09-19 07:48:31.74109
"KXNO","North/Aux Arfd, SC, US",2025-09-19 10:55:00,"2025-09-19 10:55:00","VFR",17.8,16.5,0,0,NA,NA,1016.7,"METAR KXNO 191055Z AUTO 00000KT 10SM CLR 18/17 A3002 RMK AO2 SLP166 T01780165 $",2025-09-19 11:48:31.748008,2025-09-19 07:48:31.748054
"KXMR","Cape Kennedy AF Skid, FL, US",2025-09-19 10:55:00,"2025-09-19 10:55:00","VFR",24.6,21.7,10,5,NA,7,1013.3,"METAR KXMR 191055Z AUTO 01005KT 7SM FEW030 25/22 A2992 RMK AO2 SLP135 T02460217 $",2025-09-19 11:48:31.754922,2025-09-19 07:48:31.754964
"KVSF","Springfield/Hartness State Arpt, VT, US",2025-09-19 10:54:00,"2025-09-19 06:54:00","VFR",12.2,10.6,0,0,NA,NA,1014.3,"METAR KVSF 191054Z AUTO 00000KT 10SM OVC043 12/11 A2995 RMK AO2 SLP143 T01220106",2025-09-19 11:48:31.761865,2025-09-19 07:48:31.761912
"KWAL","Wallops Island Facility Arpt, VA, US",2025-09-19 10:54:00,"2025-09-19 06:54:00","MVFR",18.9,18.9,280,5,NA,5,1016.7,"METAR KWAL 191054Z AUTO 28005KT 5SM BR CLR 19/19 A3002 RMK AO2 SLP161 T01890189",2025-09-19 11:48:31.768608,2025-09-19 07:48:31.768654
"KWST","Westerly State Arpt, RI, US",2025-09-19 10:53:00,"2025-09-19 06:53:00","VFR",15.6,14.4,0,0,NA,NA,1013.3,"METAR KWST 191053Z AUTO 00000KT 10SM CLR 16/14 A2992 RMK AO2 SLP132 T01560144",2025-09-19 11:48:31.789362,2025-09-19 07:48:31.789412
"KVGT","Las Vegas/North Arpt, NV, US",2025-09-19 10:53:00,"2025-09-19 03:53:00","VFR",19.4,18.3,10,3,NA,NA,1014,"METAR KVGT 191053Z AUTO 01003KT 10SM CLR 19/18 A2994 RMK AO2 SLP139 T01940183",2025-09-19 11:48:31.797122,2025-09-19 07:48:31.797167
"KXNA","Fayetteville/NW Arkansas Rgnl, AR, US",2025-09-19 10:53:00,"2025-09-19 05:53:00","VFR",16.7,15.6,0,0,NA,9,1017.7,"METAR KXNA 191053Z 00000KT 9SM CLR 17/16 A3005 RMK AO2 SLP167 T01670156",2025-09-19 11:48:31.804152,2025-09-19 07:48:31.804193
"KVUO","Vancouver/Pearson Fld, WA, US",2025-09-19 10:53:00,"2025-09-19 10:53:00","VFR",14.4,10,NA,3,NA,NA,1014.6,"METAR KVUO 191053Z AUTO VRB03KT 10SM CLR 14/10 A2996 RMK AO2 SLP146 T01440100",2025-09-19 11:48:31.81099,2025-09-19 07:48:31.811037
"KWVI","Watsonville Muni, CA, US",2025-09-19 10:53:00,"2025-09-19 03:53:00","IFR",15.6,14.4,0,0,NA,6,1011.6,"METAR KWVI 191053Z AUTO 00000KT 6SM BR BKN006 OVC110 16/14 A2987 RMK AO2 SLP115 T01560144",2025-09-19 11:48:31.817903,2025-09-19 07:48:31.817948
"KVLD","Valdosta Rgnl, GA, US",2025-09-19 10:53:00,"2025-09-19 06:53:00","VFR",18.9,17.8,0,0,NA,NA,1016.7,"METAR KVLD 191053Z 00000KT 10SM CLR 19/18 A3002 RMK AO2 SLP170 T01890178",2025-09-19 11:48:31.824839,2025-09-19 07:48:31.824885
"KYKM","Yakima/McAllister Fld, WA, US",2025-09-19 10:53:00,"2025-09-19 03:53:00","VFR",15,8.3,270,9,NA,NA,1013,"METAR KYKM 191053Z 27009KT 10SM CLR 15/08 A2991 RMK AO2 SLP123 T01500083 $",2025-09-19 11:48:31.831863,2025-09-19 07:48:31.831908
"KYIP","Detroit/Willow Run Arpt, MI, US",2025-09-19 10:53:00,"2025-09-19 06:53:00","VFR",17.2,16.1,30,5,NA,7,1019.7,"METAR KYIP 191053Z 03005KT 7SM BKN110 17/16 A3011 RMK AO2 SLP189 T01720161 $",2025-09-19 11:48:31.838801,2025-09-19 07:48:31.838845
"KZZV","Zanesville Muni, OH, US",2025-09-19 10:53:00,"2025-09-19 06:53:00","VFR",11.1,10,0,0,NA,NA,1018.7,"METAR KZZV 191053Z AUTO 00000KT 10SM CLR 11/10 A3008 RMK AO2 SLP182 T01110100",2025-09-19 11:48:31.845886,2025-09-19 07:48:31.845932
"KVRB","Vero Beach Muni, FL, US",2025-09-19 10:53:00,"2025-09-19 06:53:00","VFR",23.3,22.2,0,0,NA,NA,1014.3,"METAR KVRB 191053Z AUTO 00000KT 10SM OVC110 23/22 A2995 RMK AO2 SLP141 T02330222",2025-09-19 11:48:31.852908,2025-09-19 07:48:31.852956
"KWRL","Worland Muni, WY, US",2025-09-19 10:53:00,"2025-09-19 04:53:00","VFR",7.2,1.1,0,0,NA,NA,1018,"METAR KWRL 191053Z AUTO 00000KT 10SM CLR 07/01 A3006 RMK AO2 SLP154 T00720011",2025-09-19 11:48:31.859928,2025-09-19 07:48:31.859973
"KVNY","Van Nuys Arpt, CA, US",2025-09-19 10:51:00,"2025-09-19 03:51:00","VFR",21.1,17.2,120,4,NA,NA,1011.6,"METAR KVNY 191051Z AUTO 12004KT 10SM CLR 21/17 A2987 RMK AO2 SLP104 T02110172",2025-09-19 11:48:31.867018,2025-09-19 07:48:31.867064
"KYNG","Youngstown-Warren Rgnl, OH, US",2025-09-19 10:51:00,"2025-09-19 06:51:00","VFR",14.4,13.3,330,3,NA,NA,1019,"METAR KYNG 191051Z 33003KT 10SM SCT120 14/13 A3009 RMK AO2 SLP186 T01440133",2025-09-19 11:48:31.87397,2025-09-19 07:48:31.874015
"KXWA","Williston/Basin Intl, ND, US",2025-09-19 10:51:00,"2025-09-19 05:51:00","MVFR",11.1,10.6,30,5,NA,NA,1019.7,"METAR KXWA 191051Z AUTO 03005KT 10SM OVC023 11/11 A3011 RMK AO2 SLP204 T01110106",2025-09-19 11:48:31.880929,2025-09-19 07:48:31.880974
"KVQQ","Jacksonville/Cecil Arpt, FL, US",2025-09-19 10:50:00,"2025-09-19 06:50:00","LIFR",18,18,0,0,NA,2,1016.7,"METAR KVQQ 191050Z 00000KT 2SM BR BKN003 18/18 A3002",2025-09-19 11:48:31.887878,2025-09-19 07:48:31.887923
"PAEM","Emmonak Arpt, AK, US",2025-09-19 11:38:00,"2025-09-19 03:38:00","LIFR",7,7,50,3,NA,0.5,995.7,"SPECI PAEM 191138Z AUTO 05003KT 1/2SM FG OVC003 07/07 A2940 RMK AO2",2025-09-19 11:48:33.054818,2025-09-19 07:48:33.054862
"PAFR","Ft Richardson/Bryant AAF, AK, US",2025-09-19 11:37:00,"2025-09-19 03:37:00","VFR",8,8,0,0,NA,8,995,"SPECI PAFR 191137Z AUTO 00000KT 8SM -RA FEW040 FEW050 SCT060 OVC085 08/08 A2938 RMK AO2 RAB1055E05RAB37 SLP952 $",2025-09-19 11:48:33.075124,2025-09-19 07:48:33.075171
"PAAD","Point Thomson Arpt, AK, US",2025-09-19 11:35:00,"2025-09-19 11:35:00","LIFR",0.6,0.6,260,7,NA,0.5,1002.8,"METAR PAAD 191135Z AUTO 26007KT 1/2SM FG OVC004 01/01 A2961 RMK AO2 T00060006 FZRANO",2025-09-19 11:48:33.082382,2025-09-19 07:48:33.082427
"PAGH","Shungnak Arpt, AK, US",2025-09-19 11:35:00,"2025-09-19 03:35:00","MVFR",1,1,120,3,NA,3,999.7,"SPECI PAGH 191135Z AUTO 12003KT 3SM BR CLR 01/01 A2952 RMK AO2 FZRANO",2025-09-19 11:48:33.089416,2025-09-19 07:48:33.089459
"PAGN","Angoon, AK, US",2025-09-19 11:34:00,"2025-09-19 03:34:00","MVFR",12,11,90,5,NA,NA,1005.8,"SPECI PAGN 191134Z AUTO 09005KT 10SM -RA OVC028 12/11 A2970 RMK AO2 RAB32 P0000 $",2025-09-19 11:48:33.09604,2025-09-19 07:48:33.096084
"PAEN","Kenai Muni, AK, US",2025-09-19 11:34:00,"2025-09-19 03:34:00","VFR",10,8.9,10,7,NA,8,994.7,"SPECI PAEN 191134Z AUTO 01007KT 8SM -RA SCT009 BKN037 OVC060 10/09 A2937 RMK AO2 P0001 T01000089 TSNO",2025-09-19 11:48:33.102612,2025-09-19 07:48:33.102655
"PABA","Barter Island Arpt, AK, US",2025-09-19 11:31:00,"2025-09-19 03:31:00","LIFR",2,2,290,12,NA,3,1001.1,"SPECI PABA 191131Z AUTO 29012KT 3SM BR BKN004 OVC007 02/02 A2956 RMK AO2 UPB09E29 P0000 FZRANO TSNO",2025-09-19 11:48:33.109035,2025-09-19 07:48:33.109077
"PAAK","Atka Arpt, AK, US",2025-09-19 11:26:00,"2025-09-19 02:26:00","MVFR",9,9,270,10,NA,7,1000.1,"SPECI PAAK 191126Z AUTO 27010KT 7SM -RA BKN010 OVC014 09/09 A2953 RMK AO2 CIG 008V013 TSNO PNO $",2025-09-19 11:48:33.115452,2025-09-19 07:48:33.115514
"PADQ","Kodiak Arpt, AK, US",2025-09-19 11:20:00,"2025-09-19 03:20:00","MVFR",10.6,8.9,280,3,NA,NA,991.3,"SPECI PADQ 191120Z AUTO 28003KT 10SM BKN026 OVC031 11/09 A2927 RMK AO2 T01060089 TSNO $",2025-09-19 11:48:33.12191,2025-09-19 07:48:33.121954
"PAGS","Gustavus Arpt, AK, US",2025-09-19 11:20:00,"2025-09-19 03:20:00","VFR",12,11,150,12,17,NA,1003.5,"SPECI PAGS 191120Z AUTO 15012G17KT 10SM -RA FEW023 OVC031 12/11 A2963 RMK AO2 P0001",2025-09-19 11:48:33.128342,2025-09-19 07:48:33.128386
"PABR","Utqiaġvik/Wiley Post-Will Rogers Mem, AK, US",2025-09-19 11:14:00,"2025-09-19 03:14:00","IFR",0,-1.1,30,10,NA,9,1005.2,"SPECI PABR 191114Z AUTO 03010KT 9SM OVC008 00/M01 A2968 RMK AO2 T00001011 $",2025-09-19 11:48:33.134725,2025-09-19 07:48:33.134776
"PAGM","Gambell Arpt, AK, US",2025-09-19 11:09:00,"2025-09-19 03:09:00","MVFR",6,4,20,21,NA,9,1001.1,"SPECI PAGM 191109Z AUTO 02021KT 9SM -RA OVC013 06/04 A2956 RMK AO2 PK WND 02026/1104 RAB07 P0000",2025-09-19 11:48:33.14111,2025-09-19 07:48:33.141152
"PAHX","Shageluk Arpt, AK, US",2025-09-19 11:02:00,"2025-09-19 03:02:00","VFR",8.3,8.3,70,3,NA,NA,995.7,"METAR PAHX 191102Z AUTO 07003KT 10SM BKN050 OVC100 08/08 A2940 RMK AO2 SLP956 T00830083",2025-09-19 11:48:33.14773,2025-09-19 07:48:33.147776
"PAFS","Nikolai Arpt, AK, US",2025-09-19 11:01:00,"2025-09-19 03:01:00","VFR",7.2,6.7,70,5,NA,NA,995.3,"METAR PAFS 191101Z AUTO 07005KT 10SM OVC080 07/07 A2939 RMK AO2 SLP960 T00720067",2025-09-19 11:48:33.154508,2025-09-19 07:48:33.154555
"PAGL","Golovin Arpt, AK, US",2025-09-19 10:56:00,"2025-09-19 02:56:00","VFR",7.8,6.7,290,6,NA,NA,998.1,"METAR PAGL 191056Z AUTO 29006KT 10SM BKN040 OVC047 08/07 A2947 RMK AO2 RAE03 SLP974 P0000 T00780067 $",2025-09-19 11:48:33.161069,2025-09-19 07:48:33.161113
"PABL","Buckland Arpt, AK, US",2025-09-19 10:56:00,"2025-09-19 02:56:00","VFR",6.1,5,0,0,NA,NA,999.4,"METAR PABL 191056Z AUTO 00000KT 10SM BKN047 OVC060 06/05 A2951 RMK AO2 RAB30E54 SLP994 P0000 T00610050",2025-09-19 11:48:33.1677,2025-09-19 07:48:33.167747
"PAFE","Kake Arpt, AK, US",2025-09-19 10:56:00,"2025-09-19 10:56:00","MVFR",11.7,11.1,110,11,18,NA,1007.5,"METAR PAFE 191056Z AUTO 11011G18KT 10SM -RA BKN030 OVC044 12/11 A2975 RMK AO2 RAB10 SLP080 P0000 T01170111 $",2025-09-19 11:48:33.174403,2025-09-19 07:48:33.174447
"PADK","Adak (NAS), AK, US",2025-09-19 10:56:00,"2025-09-19 01:56:00","MVFR",8.3,6.7,330,18,23,NA,1002.8,"METAR PADK 191056Z AUTO 33018G23KT 10SM OVC012 08/07 A2961 RMK AO2 SLP027 T00830067",2025-09-19 11:48:33.181373,2025-09-19 07:48:33.181419
"PAHC","Holy Cross Arpt, AK, US",2025-09-19 10:56:00,"2025-09-19 02:56:00","VFR",8.3,6.1,30,3,NA,NA,994.7,"METAR PAHC 191056Z AUTO 03003KT 10SM SCT100 08/06 A2937 RMK AO2 SLP949 T00830061",2025-09-19 11:48:33.188077,2025-09-19 07:48:33.188123
"PAEI","Fairbanks/Eielson AFB, AK, US",2025-09-19 10:56:00,"2025-09-19 02:56:00","VFR",2.4,1.8,0,0,NA,NA,995.7,"METAR PAEI 191056Z 00000KT 10SM SCT130 BKN200 02/02 A2940 RMK AO2A SLP961 T00240018",2025-09-19 11:48:33.194749,2025-09-19 07:48:33.194802
"PADL","Dillingham Arpt, AK, US",2025-09-19 10:56:00,"2025-09-19 02:56:00","VFR",8.9,8.9,10,7,NA,NA,992.3,"METAR PADL 191056Z AUTO 01007KT 10SM -RA FEW044 BKN060 OVC075 09/09 A2930 RMK AO2 SLP924 P0002 T00890089",2025-09-19 11:48:33.215547,2025-09-19 07:48:33.215595
"PAHL","Huslia Arpt, AK, US",2025-09-19 10:56:00,"2025-09-19 02:56:00","VFR",6.1,5,40,3,NA,NA,998.4,"METAR PAHL 191056Z AUTO 04003KT 10SM CLR 06/05 A2948 RMK AO2 SLP983 T00610050 TSNO",2025-09-19 11:48:33.223194,2025-09-19 07:48:33.223244
"PABV","Birchwood Arpt, AK, US",2025-09-19 10:56:00,"2025-09-19 10:56:00","VFR",8.3,7.8,0,0,NA,NA,996.4,"METAR PABV 191056Z AUTO 00000KT 10SM OVC090 08/08 A2942 RMK AO2 RAE09B32E42 SLP962 P0000 T00830078",2025-09-19 11:48:33.230566,2025-09-19 07:48:33.230612
"PACX","Coldfoot Arpt, AK, US",2025-09-19 10:56:00,"2025-09-19 02:56:00","VFR",1.7,0.6,70,6,NA,NA,1000.1,"METAR PACX 191056Z AUTO 07006KT 10SM CLR 02/01 A2953 RMK AO2 SLP629 T00170006 FZRANO",2025-09-19 11:48:33.237686,2025-09-19 07:48:33.237732
"PADU","Dutch Harbor/Unalaska Arpt, AK, US",2025-09-19 10:56:00,"2025-09-19 02:56:00","MVFR",9.4,7.8,0,0,NA,7,991.3,"METAR PADU 191056Z AUTO 00000KT 7SM FEW017 SCT023 OVC030 09/08 A2927 RMK AO2 RAB22E56 SLP911 P0001 T00940078",2025-09-19 11:48:33.244708,2025-09-19 07:48:33.244754
"PAGA","Galena Arpt, AK, US",2025-09-19 10:56:00,"2025-09-19 02:56:00","VFR",5.6,5,10,3,NA,NA,997.7,"METAR PAGA 191056Z AUTO 01003KT 10SM FEW037 BKN070 OVC085 06/05 A2946 RMK AO2 SLP977 T00560050 TSNO $",2025-09-19 11:48:33.251689,2025-09-19 07:48:33.251746
"PAEH","Cape Newenham Arpt, AK, US",2025-09-19 10:55:00,"2025-09-19 02:55:00","LIFR",8.2,7.8,40,8,NA,3,990.9,"METAR PAEH 191055Z AUTO 04008KT 010V110 3SM -SHRA BR OVC002 08/08 A2926 RMK AO2 SHRAB0928 SLP909 P0003 T00820078 $",2025-09-19 11:48:33.258394,2025-09-19 07:48:33.258436
"PAFB","Fairbanks/Ladd AAF, AK, US",2025-09-19 10:55:00,"2025-09-19 02:55:00","VFR",6.5,3.6,70,5,NA,NA,996,"METAR PAFB 191055Z 07005KT 10SM FEW150 SCT180 07/04 A2941 RMK AO2A SLP966 T00650036",2025-09-19 11:48:33.265095,2025-09-19 07:48:33.265139
"PAED","Anchorage/Elmendorf AFB, AK, US",2025-09-19 10:55:00,"2025-09-19 02:55:00","VFR",8.6,7.2,0,0,NA,NA,994.7,"METAR PAED 191055Z 00000KT 10SM FEW004 BKN065 OVC080 09/07 A2937 RMK AO2A SLP942 P0000 T00860072",2025-09-19 11:48:33.271897,2025-09-19 07:48:33.271941
"PAHN","Haines Arpt, AK, US",2025-09-19 10:54:00,"2025-09-19 02:54:00","MVFR",9.4,8.3,90,5,NA,3,1004.5,"METAR PAHN 191054Z AUTO 09005KT 3SM -RA BR BKN017 OVC023 09/08 A2966 RMK AO2 SLP047 P0006 T00940083 TSNO",2025-09-19 11:48:33.278597,2025-09-19 07:48:33.278642
"PAGY","Skagway Arpt, AK, US",2025-09-19 10:53:00,"2025-09-19 02:53:00","VFR",8.3,8.3,0,0,NA,8,1005.2,"METAR PAGY 191053Z AUTO 00000KT 8SM -RA FEW002 SCT014 OVC065 08/08 A2968 RMK AO2 RAB40 SLP049 P0001 T00830083 TSNO",2025-09-19 11:48:33.285186,2025-09-19 07:48:33.285228
"PABE","Bethel Arpt, AK, US",2025-09-19 10:53:00,"2025-09-19 02:53:00","VFR",6.7,5,360,5,NA,NA,993.3,"METAR PABE 191053Z 36005KT 10SM BKN060 OVC070 07/05 A2933 RMK AO2 SLP933 T00670050 $",2025-09-19 11:48:33.291906,2025-09-19 07:48:33.291949
"PAGK","Gulkana Arpt, AK, US",2025-09-19 10:53:00,"2025-09-19 02:53:00","VFR",6.1,5.6,360,3,NA,NA,998.1,"METAR PAGK 191053Z AUTO 36003KT 10SM -RA OVC060 06/06 A2947 RMK AO2 SLP989 P0003 T00610056 TSNO",2025-09-19 11:48:33.29874,2025-09-19 07:48:33.298791
"PACV","Cordova/Smith Arpt, AK, US",2025-09-19 10:53:00,"2025-09-19 02:53:00","VFR",9.4,8.3,0,0,NA,NA,995.7,"METAR PACV 191053Z 00000KT 10SM -RA SCT039 OVC046 09/08 A2940 RMK AO2 RAB19 SLP955 P0000 T00940083",2025-09-19 11:48:33.305434,2025-09-19 07:48:33.305496
"PAFA","Fairbanks Intl, AK, US",2025-09-19 10:53:00,"2025-09-19 02:53:00","VFR",5.6,3.3,60,5,NA,NA,996.7,"METAR PAFA 191053Z 06005KT 10SM SCT130 BKN180 06/03 A2943 RMK AO2 SLP970 T00560033 $",2025-09-19 11:48:33.31212,2025-09-19 07:48:33.312164
"PABI","Ft Greely/Allen Fld, AK, US",2025-09-19 10:53:00,"2025-09-19 02:53:00","VFR",4.4,1.7,220,3,NA,NA,997,"METAR PABI 191053Z AUTO 22003KT 10SM CLR 04/02 A2944 RMK AO2 SLP975 T00440017 TSNO $",2025-09-19 11:48:33.318712,2025-09-19 07:48:33.318763
"PABT","Bettles Arpt, AK, US",2025-09-19 10:53:00,"2025-09-19 02:53:00","VFR",2.2,1.1,340,4,NA,NA,999.4,"METAR PABT 191053Z 34004KT 10SM CLR 02/01 A2951 RMK AO2 SLP002 T00220011 $",2025-09-19 11:48:33.325571,2025-09-19 07:48:33.325617
"PAAQ","Palmer Muni, AK, US",2025-09-19 10:53:00,"2025-09-19 02:53:00","VFR",7.2,6.1,0,0,NA,NA,995,"METAR PAAQ 191053Z AUTO 00000KT 10SM SCT070 BKN090 OVC110 07/06 A2938 RMK AO2 SLP952 T00720061 TSNO $",2025-09-19 11:48:33.332342,2025-09-19 07:48:33.332388
"PACD","Cold Bay Arpt, AK, US",2025-09-19 10:53:00,"2025-09-19 02:53:00","MVFR",8.9,7.8,260,8,NA,NA,988.6,"METAR PACD 191053Z AUTO 26008KT 10SM OVC016 09/08 A2919 RMK AO2 SLP884 T00890078 TSNO",2025-09-19 11:48:33.352558,2025-09-19 07:48:33.352612
"PALP","Deadhorse/Alpine Arstrp, AK, US",2025-09-19 11:45:00,"2025-09-19 11:45:00","LIFR",2,1,320,4,NA,2,1003.5,"METAR PALP 191145Z 32004KT 2SM -SHRA BR OVC003 02/01 A2963",2025-09-19 11:48:34.67209,2025-09-19 07:48:34.672132
"PATQ","Atqasuk/Burnell Mem, AK, US",2025-09-19 11:44:00,"2025-09-19 03:44:00","LIFR",2,2,30,7,NA,0.5,1004.5,"SPECI PATQ 191144Z AUTO 03007KT 1/2SM FG OVC005 02/02 A2966 RMK AO2 RAB16E28 CIG 003V008 P0000 FZRANO TSNO",2025-09-19 11:48:34.679083,2025-09-19 07:48:34.679127
"PFYU","Fort Yukon Arpt, AK, US",2025-09-19 11:41:00,"2025-09-19 03:41:00","IFR",3,3,40,3,NA,2.5,999.1,"SPECI PFYU 191141Z AUTO 04003KT 2 1/2SM BR FEW001 03/03 A2950 RMK AO2 VIS 1 1/4V5 TSNO",2025-09-19 11:48:34.685797,2025-09-19 07:48:34.685844
"PAKP","Anaktuvuk Pass Arpt, AK, US",2025-09-19 11:37:00,"2025-09-19 03:37:00","LIFR",-6,-7,50,7,NA,0.75,992.3,"SPECI PAKP 191137Z AUTO 05007KT 3/4SM BR OVC002 M06/M07 A2930 RMK AO2 FZRANO PNO $",2025-09-19 11:48:34.692634,2025-09-19 07:48:34.692676
"PAYA","Yakutat Arpt, AK, US",2025-09-19 11:36:00,"2025-09-19 03:36:00","IFR",10.6,10,100,10,18,2,997,"SPECI PAYA 191136Z AUTO 10010G18KT 2SM -RA BR OVC008 11/10 A2944 RMK AO2 P0003 T01060100 TSNO",2025-09-19 11:48:34.699311,2025-09-19 07:48:34.699354
"PAPE","Perryville Arpt, AK, US",2025-09-19 11:34:00,"2025-09-19 03:34:00","MVFR",11,11,110,14,NA,5,987.9,"SPECI PAPE 191134Z AUTO 11014KT 5SM -RA BR FEW009 BKN037 OVC045 11/11 A2917 RMK AO2 P0006",2025-09-19 11:48:34.705986,2025-09-19 07:48:34.706028
"PHLI","Lihue Arpt, HI, US",2025-09-19 11:32:00,"2025-09-19 01:32:00","MVFR",26.1,22.8,60,13,NA,NA,1017.7,"SPECI PHLI 191132Z AUTO 06013KT 10SM BKN020 26/23 A3005 RMK AO2 T02610228 TSNO $",2025-09-19 11:48:34.712804,2025-09-19 07:48:34.712853
"PAII","Egegik Arpt, AK, US",2025-09-19 11:31:00,"2025-09-19 03:31:00","IFR",9,8,90,6,NA,NA,991.6,"SPECI PAII 191131Z AUTO 09006KT 10SM BKN008 OVC050 09/08 A2928 RMK AO2",2025-09-19 11:48:34.719661,2025-09-19 07:48:34.719706
"PAVA","Chevak Arpt, AK, US",2025-09-19 11:31:00,"2025-09-19 03:31:00","IFR",7,7,10,8,NA,NA,996,"SPECI PAVA 191131Z AUTO 01008KT 10SM BKN006 07/07 A2941 RMK AO2",2025-09-19 11:48:34.726554,2025-09-19 07:48:34.7266
"PFCB","Chenega Bay Arpt, AK, US",2025-09-19 11:30:00,"2025-09-19 03:30:00","MVFR",12.8,12.4,10,11,14,4,994.7,"METAR PFCB 191130Z AUTO 01011G14KT 4SM RA SCT009 BKN015 OVC021 13/12 A2937 RMK AO2 P0003 T01280124",2025-09-19 11:48:34.733396,2025-09-19 07:48:34.73344
"PAKH","Akhiok Arpt, AK, US",2025-09-19 11:30:00,"2025-09-19 03:30:00","MVFR",10,10,40,3,NA,NA,991.6,"SPECI PAKH 191130Z AUTO 04003KT 10SM SCT006 SCT013 OVC027 10/10 A2928 RMK AO2",2025-09-19 11:48:34.740358,2025-09-19 07:48:34.740403
"PAMD","Middleton Isl Arpt, AK, US",2025-09-19 11:23:00,"2025-09-19 03:23:00","IFR",12,12,100,21,27,1.25,992.3,"SPECI PAMD 191123Z AUTO 10021G27KT 1 1/4SM -RA BR OVC005 12/12 A2930 RMK AO2 PK WND 10029/1101 CIG 003V007 P0000 $",2025-09-19 11:48:34.747202,2025-09-19 07:48:34.747245
"PAPN","Pilot Point Arpt, AK, US",2025-09-19 11:21:00,"2025-09-19 03:21:00","MVFR",8,8,110,6,NA,8,989.9,"SPECI PAPN 191121Z AUTO 11006KT 8SM BKN026 BKN100 08/08 A2923 RMK AO2 PNO $",2025-09-19 11:48:34.754039,2025-09-19 07:48:34.754081
"PASL","Sleetmute Arpt, AK, US",2025-09-19 11:20:00,"2025-09-19 03:20:00","VFR",6,6,0,0,NA,NA,996.4,"SPECI PASL 191120Z AUTO 00000KT 10SM SCT001 OVC065 06/06 A2942 RMK AO2",2025-09-19 11:48:34.774828,2025-09-19 07:48:34.774934
"PATA","Tanana/Calhoun Mem, AK, US",2025-09-19 11:10:00,"2025-09-19 03:10:00","VFR",NA,NA,30,4,NA,NA,997,"SPECI PATA 191110Z AUTO 03004KT 10SM FEW002 A2944 RMK AO2 TSNO $",2025-09-19 11:48:34.783042,2025-09-19 07:48:34.783094
"PAKT","Ketchikan Intl, AK, US",2025-09-19 11:10:00,"2025-09-19 03:10:00","IFR",11.7,11.7,140,13,21,1.75,1012.3,"SPECI PAKT 191110Z AUTO 14013G21KT 1 3/4SM RA BR FEW007 OVC012 12/12 A2989 RMK AO2 P0003 T01170117 TSNO",2025-09-19 11:48:34.790373,2025-09-19 07:48:34.790418
"PHHI","Wheeler(AAF), HI, US",2025-09-19 11:10:00,"2025-09-19 01:10:00","VFR",24,21,70,8,NA,NA,1017.7,"SPECI PHHI 191110Z AUTO 07008KT 10SM SCT022 SCT029 BKN038 24/21 A3005 RMK AO2 SLP165 $",2025-09-19 11:48:34.797499,2025-09-19 07:48:34.79755
"PARC","Arctic Village Arpt, AK, US",2025-09-19 11:09:00,"2025-09-19 03:09:00","VFR",-1,-1,0,0,NA,NA,999.4,"SPECI PARC 191109Z AUTO 00000KT 10SM SCT016 M01/M01 A2951 RMK AO2 FZRANO TSNO",2025-09-19 11:48:34.804266,2025-09-19 07:48:34.804311
"PASN","St Paul Island Arpt, AK, US",2025-09-19 11:08:00,"2025-09-19 03:08:00","MVFR",8.9,7.8,30,11,NA,NA,992,"SPECI PASN 191108Z AUTO 03011KT 10SM FEW009 BKN014 OVC055 09/08 A2929 RMK AO2 RAE01 P0000 T00890078 TSNO $",2025-09-19 11:48:34.811276,2025-09-19 07:48:34.811321
"PAPB","St George Arpt, AK, US",2025-09-19 11:01:00,"2025-09-19 03:01:00","IFR",8.9,8.3,30,16,NA,NA,990.3,"SPECI PAPB 191101Z AUTO 03016KT 10SM -RA OVC005 09/08 A2924 RMK AO2 T00890083 TSNO PNO $",2025-09-19 11:48:34.818015,2025-09-19 07:48:34.818059
"PFTO","Tok Junction Arpt, AK, US",2025-09-19 10:56:00,"2025-09-19 02:56:00","VFR",2.8,1.7,80,3,NA,NA,997.4,"METAR PFTO 191056Z AUTO 08003KT 10SM OVC100 03/02 A2945 RMK AO2 SLP623 T00280017 $",2025-09-19 11:48:34.824771,2025-09-19 07:48:34.824815
"PANW","New Stuyahok Arpt, AK, US",2025-09-19 10:56:00,"2025-09-19 02:56:00","VFR",8.9,7.8,80,5,NA,NA,993.3,"METAR PANW 191056Z AUTO 08005KT 10SM -RA OVC055 09/08 A2933 RMK AO2 RAB00 SLP936 P0000 T00890078",2025-09-19 11:48:34.831564,2025-09-19 07:48:34.831611
"PAOO","Tooksok Bay Arpt, AK, US",2025-09-19 10:56:00,"2025-09-19 02:56:00","VFR",6.7,4.4,330,8,NA,NA,994.7,"METAR PAOO 191056Z AUTO 33008KT 10SM BKN110 07/04 A2937 RMK AO2 SLP950 T00670044 TSNO $",2025-09-19 11:48:34.838294,2025-09-19 07:48:34.838338
"PANU","Nulato Arpt, AK, US",2025-09-19 10:56:00,"2025-09-19 02:56:00","VFR",7.2,5.6,10,4,NA,NA,998.4,"METAR PANU 191056Z AUTO 01004KT 10SM SCT031 07/06 A2948 RMK AO2 SLP894 T00720056",2025-09-19 11:48:34.844959,2025-09-19 07:48:34.845003
"PAPG","Petersburg Arpt, AK, US",2025-09-19 10:56:00,"2025-09-19 02:56:00","MVFR",11.7,11.1,320,5,NA,4,1009.6,"METAR PAPG 191056Z AUTO 32005KT 4SM -RA BR BKN019 BKN024 OVC040 12/11 A2981 RMK AO2 SLP098 P0003 T01170111 TSNO",2025-09-19 11:48:34.85155,2025-09-19 07:48:34.851594
"PAPM","Platinum Arpt, AK, US",2025-09-19 10:56:00,"2025-09-19 02:56:00","MVFR",8.9,NA,60,18,NA,NA,990.9,"METAR PAPM 191056Z AUTO 06018KT 10SM OVC017 09/ A2926 RMK AO2 SLP909 T0089 TSNO",2025-09-19 11:48:34.858212,2025-09-19 07:48:34.858255
"PARS","Russian Mission Arpt, AK, US",2025-09-19 10:56:00,"2025-09-19 02:56:00","VFR",6.7,4.4,0,0,NA,NA,994.3,"METAR PARS 191056Z AUTO 00000KT 10SM SCT055 OVC110 07/04 A2936 RMK AO2 SLP946 T00670044 PNO $",2025-09-19 11:48:34.864985,2025-09-19 07:48:34.86503
"PARY","Ruby Arpt, AK, US",2025-09-19 10:56:00,"2025-09-19 02:56:00","VFR",7.8,5,80,5,NA,NA,997.4,"METAR PARY 191056Z AUTO 08005KT 10SM CLR 08/05 A2945 RMK AO2 SLP979 T00780050 TSNO",2025-09-19 11:48:34.872193,2025-09-19 07:48:34.872241
"PASD","Sand Point Arpt, AK, US",2025-09-19 10:56:00,"2025-09-19 02:56:00","VFR",10,7.8,270,5,NA,NA,988.2,"METAR PASD 191056Z AUTO 27005KT 10SM FEW021 SCT033 10/08 A2918 RMK AO2 SLP884 T01000078 $",2025-09-19 11:48:34.879392,2025-09-19 07:48:34.879439
"PAIN","McKinley Park Arpt, AK, US",2025-09-19 10:56:00,"2025-09-19 02:56:00",NA,5.6,2.8,0,0,NA,NA,997,"METAR PAIN 191056Z AUTO 00000KT SCT048 06/03 A2944 RMK AO2 SLP980 T00560028 PWINO TSNO $",2025-09-19 11:48:34.886447,2025-09-19 07:48:34.886512
"PAIW","Wales Arpt, AK, US",2025-09-19 10:56:00,"2025-09-19 02:56:00","MVFR",7.2,7.2,30,10,NA,NA,1001.1,"METAR PAIW 191056Z AUTO 03010KT 10SM OVC013 07/07 A2956 RMK AO2 SLP010 T00720072",2025-09-19 11:48:34.893412,2025-09-19 07:48:34.893458
"PAKF","False Pass Arpt, AK, US",2025-09-19 10:56:00,"2025-09-19 02:56:00","VFR",7.8,7.8,250,3,NA,NA,988.9,"METAR PAKF 191056Z AUTO 25003KT 10SM BKN036 OVC044 08/08 A2920 RMK AO2 SLP887 T00780078",2025-09-19 11:48:34.900404,2025-09-19 07:48:34.90045
"PASX","Soldotna Arpt, AK, US",2025-09-19 10:56:00,"2025-09-19 02:56:00","IFR",9.4,8.3,60,3,NA,NA,995,"METAR PASX 191056Z AUTO 06003KT 10SM -RA OVC008 09/08 A2938 RMK AO2 SLP954 P0002 T00940083 TSNO",2025-09-19 11:48:34.925246,2025-09-19 07:48:34.925297
"PATG","Togiak Arpt, AK, US",2025-09-19 10:56:00,"2025-09-19 02:56:00","MVFR",8.3,8.3,10,7,NA,NA,992.3,"METAR PATG 191056Z AUTO 01007KT 10SM -RA OVC020 08/08 A2930 RMK AO2 SLP921 P0002 T00830083",2025-09-19 11:48:34.93303,2025-09-19 07:48:34.933081
"PFKO","Kotlik Arpt, AK, US",2025-09-19 10:56:00,"2025-09-19 02:56:00","VFR",6.1,5.6,0,0,NA,NA,NA,"METAR PFKO 191056Z AUTO 00000KT 10SM SCT065 06/06 RMK AO2 SLPNO T00610056 $",2025-09-19 11:48:34.940699,2025-09-19 07:48:34.94075
"PAMB","Manokotak Arpt, AK, US",2025-09-19 10:56:00,"2025-09-19 02:56:00","VFR",8.3,7.8,30,6,NA,NA,992.3,"METAR PAMB 191056Z AUTO 03006KT 10SM -RA OVC037 08/08 A2930 RMK AO2 SLP924 P0000 T00830078",2025-09-19 11:48:34.948582,2025-09-19 07:48:34.948633
"PAMH","Minchumina Arpt, AK, US",2025-09-19 10:56:00,"2025-09-19 02:56:00","VFR",6.1,3.9,0,0,NA,NA,995.7,"METAR PAMH 191056Z AUTO 00000KT 10SM CLR 06/04 A2940 RMK AO2 SLP954 T00610039 TSNO",2025-09-19 11:48:34.955871,2025-09-19 07:48:34.955918
"PAMM","Metlakatla, AK, US",2025-09-19 10:56:00,"2025-09-19 02:56:00","MVFR",13.3,11.7,150,10,25,6,1013,"METAR PAMM 191056Z AUTO 15010G25KT 6SM -RA BR BKN010 13/12 A2991 RMK AO2 SLP120 P0006 T01330117 $",2025-09-19 11:48:34.962786,2025-09-19 07:48:34.962832
"PAMO","Mountain Village Arpt, AK, US",2025-09-19 10:56:00,"2025-09-19 02:56:00","VFR",5.6,3.9,20,7,NA,NA,995.7,"METAR PAMO 191056Z AUTO 02007KT 10SM CLR 06/04 A2940 RMK AO2 SLP957 T00560039",2025-09-19 11:48:34.96971,2025-09-19 07:48:34.969757
"PAMY","Mekoryuk Arpt, AK, US",2025-09-19 10:56:00,"2025-09-19 02:56:00","VFR",9.4,6.7,20,12,NA,NA,994.3,"METAR PAMY 191056Z AUTO 02012KT 10SM OVC100 09/07 A2936 RMK AO2 SLP942 T00940067",2025-09-19 11:48:34.976557,2025-09-19 07:48:34.976602
"PAQH","Quinhagak Arpt, AK, US",2025-09-19 10:56:00,"2025-09-19 02:56:00","VFR",7.8,6.7,30,6,NA,NA,992.3,"METAR PAQH 191056Z AUTO 03006KT 10SM -RA OVC032 08/07 A2930 RMK AO2 RAB53 SLP924 P0000 T00780067",2025-09-19 11:48:34.983462,2025-09-19 07:48:34.983529
"PFCL","Clarks Point Arpt, AK, US",2025-09-19 10:56:00,"2025-09-19 02:56:00","VFR",8.9,NA,NA,NA,NA,NA,992.3,"METAR PFCL 191056Z AUTO 10SM OVC040 09/ A2930 RMK AO2 RAE07B28E48 SLP914 P0000 T0089 $",2025-09-19 11:48:34.990568,2025-09-19 07:48:34.990616
"PFEL","Elim Arpt, AK, US",2025-09-19 10:56:00,"2025-09-19 02:56:00","VFR",8.9,5.6,350,7,NA,NA,997.7,"METAR PFEL 191056Z AUTO 35007KT 10SM BKN042 BKN049 OVC055 09/06 A2946 RMK AO2 SLP978 T00890056 TSNO",2025-09-19 11:48:34.997557,2025-09-19 07:48:34.997603
"PFNO","Noorvik/Curtis Mem, AK, US",2025-09-19 10:56:00,"2025-09-19 02:56:00","VFR",5.6,2.8,30,6,NA,NA,1000.1,"METAR PFNO 191056Z AUTO 03006KT 10SM OVC095 06/03 A2953 RMK AO2 SLP002 T00560028 $",2025-09-19 11:48:35.004351,2025-09-19 07:48:35.004396
"PFWS","South Naknek Arpt, AK, US",2025-09-19 10:56:00,"2025-09-19 02:56:00","VFR",8.3,7.2,90,4,NA,NA,NA,"METAR PFWS 191056Z AUTO 09004KT 10SM -RA OVC055 08/07 RMK AO2 RAB11E31B53 SLPNO P0000 T00830072 $",2025-09-19 11:48:35.011323,2025-09-19 07:48:35.011369
"PAMK","St Michael Arpt, AK, US",2025-09-19 10:56:00,"2025-09-19 02:56:00","VFR",NA,NA,60,4,NA,NA,996.7,"METAR PAMK 191056Z AUTO 06004KT 10SM OVC060 A2943 RMK AO2 SLPNO FZRANO $",2025-09-19 11:48:35.0182,2025-09-19 07:48:35.018245
"PANA","Napakiak Arpt, AK, US",2025-09-19 10:56:00,"2025-09-19 02:56:00","VFR",6.1,5,20,4,NA,6,993.3,"METAR PANA 191056Z AUTO 02004KT 6SM BR OVC055 06/05 A2933 RMK AO2 SLP931 T00610050 TSNO",2025-09-19 11:48:35.025166,2025-09-19 07:48:35.025218
"PAOU","Nelson Lagoon Arpt, AK, US",2025-09-19 10:56:00,"2025-09-19 02:56:00",NA,8.9,7.8,220,10,NA,NA,988.2,"METAR PAOU 191056Z AUTO 22010KT 10SM 09/08 A2918 RMK AO2 SLP879 T00890078",2025-09-19 11:48:35.032337,2025-09-19 07:48:35.032382
"PAPH","Port Heiden Arpt, AK, US",2025-09-19 10:56:00,"2025-09-19 02:56:00","VFR",10,10,160,8,NA,NA,989.2,"METAR PAPH 191056Z AUTO 16008KT 10SM -RA OVC065 10/10 A2921 RMK AO2 RAB32 SLP891 P0000 T01000100 $",2025-09-19 11:48:35.039393,2025-09-19 07:48:35.039443
"PAPO","Point Hope Arpt, AK, US",2025-09-19 10:56:00,"2025-09-19 02:56:00","VFR",2.8,1.1,40,7,NA,NA,1003.1,"METAR PAPO 191056Z AUTO 04007KT 10SM SCT011 03/01 A2962 RMK AO2 SLP030 T00280011",2025-09-19 11:48:35.046494,2025-09-19 07:48:35.046546
"PASA","Savoonga Arpt, AK, US",2025-09-19 10:56:00,"2025-09-19 02:56:00","MVFR",6.7,5.6,20,15,NA,NA,1000.4,"METAR PASA 191056Z AUTO 02015KT 10SM OVC010 07/06 A2954 RMK AO2 SLP002 T00670056 $",2025-09-19 11:48:35.053808,2025-09-19 07:48:35.053858
"PAWG","Wrangell Arpt, AK, US",2025-09-19 10:56:00,"2025-09-19 02:56:00","VFR",12.8,10.6,120,12,16,NA,1010.6,"METAR PAWG 191056Z AUTO 12012G16KT 10SM -RA BKN038 OVC050 13/11 A2984 RMK AO2 SLP104 T01280106 TSNO PNO $",2025-09-19 11:48:35.075366,2025-09-19 07:48:35.075415
"PAWM","White Mouintain Arpt, AK, US",2025-09-19 10:56:00,"2025-09-19 02:56:00","VFR",6.1,4.4,360,10,NA,NA,997.7,"METAR PAWM 191056Z AUTO 36010KT 10SM BKN045 06/04 A2946 RMK AO2 SLP979 T00610044",2025-09-19 11:48:35.083109,2025-09-19 07:48:35.083158
"PAWN","Noatak Arpt, AK, US",2025-09-19 10:56:00,"2025-09-19 02:56:00","VFR",1.7,0,340,5,NA,NA,NA,"METAR PAWN 191056Z AUTO 34005KT 10SM BKN110 02/00 RMK AO2 SLPNO T00170000 FZRANO $",2025-09-19 11:48:35.090957,2025-09-19 07:48:35.091011
"PAIG","Igiugig Arpt, AK, US",2025-09-19 10:56:00,"2025-09-19 02:56:00","VFR",NA,NA,60,8,NA,NA,992.6,"METAR PAIG 191056Z AUTO 06008KT 10SM BKN110 A2931 RMK AO2 SLPNO FZRANO PNO $",2025-09-19 11:48:35.098902,2025-09-19 07:48:35.098949
"PAJZ","Koliganek Arpt, AK, US",2025-09-19 10:56:00,"2025-09-19 02:56:00","VFR",8.9,7.8,60,6,NA,8,995,"METAR PAJZ 191056Z AUTO 06006KT 8SM -RA OVC049 09/08 A2938 RMK AO2 RAB39 SLP946 P0000 T00890078",2025-09-19 11:48:35.106367,2025-09-19 07:48:35.106416
"PAKI","Kipnuk Arpt, AK, US",2025-09-19 10:56:00,"2025-09-19 02:56:00","VFR",7.8,7.2,20,8,NA,NA,993,"METAR PAKI 191056Z AUTO 02008KT 10SM BKN110 08/07 A2932 RMK AO2 SLP928 T00780072",2025-09-19 11:48:35.113633,2025-09-19 07:48:35.113681
"PAKK","Koyuk Arpt, AK, US",2025-09-19 10:56:00,"2025-09-19 02:56:00","VFR",7.8,6.1,360,7,NA,NA,996.4,"METAR PAKK 191056Z AUTO 36007KT 10SM OVC060 08/06 A2942 RMK AO2 SLP971 T00780061",2025-09-19 11:48:35.120754,2025-09-19 07:48:35.120801
"PANV","Anvik Arpt, AK, US",2025-09-19 10:56:00,"2025-09-19 02:56:00","VFR",8.3,7.8,50,6,NA,NA,995,"METAR PANV 191056Z AUTO 05006KT 10SM FEW004 OVC100 08/08 A2938 RMK AO2 SLP999 T00830078 TSNO",2025-09-19 11:48:35.12767,2025-09-19 07:48:35.127715
"PAOH","Hoonah, AK, US",2025-09-19 10:56:00,"2025-09-19 02:56:00","MVFR",10.6,10,80,10,NA,7,1004.1,"METAR PAOH 191056Z AUTO 08010KT 7SM RA FEW019 OVC025 11/10 A2965 RMK AO2 SLP042 P0001 T01060100",2025-09-19 11:48:35.134339,2025-09-19 07:48:35.134381
"PFSH","Shaktoolik Arpt, AK, US",2025-09-19 10:56:00,"2025-09-19 02:56:00","VFR",7.2,6.7,50,4,NA,NA,997.7,"METAR PFSH 191056Z AUTO 05004KT 10SM FEW031 OVC049 07/07 A2946 RMK AO2 RAE30 SLP974 T00720067 TSNO PNO $",2025-09-19 11:48:35.141111,2025-09-19 07:48:35.141156
"PAUN","Unalakleet Arpt, AK, US",2025-09-19 10:56:00,"2025-09-19 02:56:00","VFR",7.8,6.7,70,6,NA,NA,997,"METAR PAUN 191056Z AUTO 07006KT 10SM SCT100 08/07 A2944 RMK AO2 SLP973 T00780067",2025-09-19 11:48:35.147893,2025-09-19 07:48:35.147938
"PAHY","Hydaburg, AK, US",2025-09-19 10:56:00,"2025-09-19 02:56:00","MVFR",13.9,12.2,110,18,29,5,1009.9,"METAR PAHY 191056Z AUTO 11018G29KT 5SM -RA BR BKN010 OVC021 14/12 A2982 RMK AO2 PK WND 12034/1005 SLP096 P0001 T01390122 $",2025-09-19 11:48:35.15468,2025-09-19 07:48:35.154725
"PASM","St Marys Arpt, AK, US",2025-09-19 10:56:00,"2025-09-19 02:56:00","VFR",4.4,4.4,60,4,NA,NA,995.7,"METAR PASM 191056Z AUTO 06004KT 10SM CLR 04/04 A2940 RMK AO2 SLP963 T00440044",2025-09-19 11:48:35.161559,2025-09-19 07:48:35.161606
"PAVD","Valdez Arpt, AK, US",2025-09-19 10:56:00,"2025-09-19 02:56:00","VFR",7.2,7.2,90,3,NA,NA,999.4,"METAR PAVD 191056Z AUTO 09003KT 10SM FEW004 SCT049 OVC100 07/07 A2951 RMK AO2 RAB12E54 SLP990 P0000 T00720072 TSNO $",2025-09-19 11:48:35.168364,2025-09-19 07:48:35.16841
"PAWS","Wasilla Arpt, AK, US",2025-09-19 10:56:00,"2025-09-19 02:56:00","MVFR",7.8,7.8,0,0,NA,4,996,"METAR PAWS 191056Z AUTO 00000KT 4SM BR OVC080 08/08 A2941 RMK AO2 RAE56 SLP962 P0001 T00780078",2025-09-19 11:48:35.175176,2025-09-19 07:48:35.175218
"PANI","Aniak Arpt, AK, US",2025-09-19 10:56:00,"2025-09-19 02:56:00","VFR",7.8,6.1,0,0,NA,NA,994,"METAR PANI 191056Z AUTO 00000KT 10SM BKN045 BKN055 08/06 A2935 RMK AO2 SLP942 T00780061 $",2025-09-19 11:48:35.18217,2025-09-19 07:48:35.182217
"PATL","Tatalina Arpt, AK, US",2025-09-19 10:55:00,"2025-09-19 02:55:00","VFR",6,5.3,70,3,NA,NA,996.4,"METAR PATL 191055Z AUTO 07003KT 10SM BKN130 06/05 A2942 RMK AO2 SLP964 T00600053",2025-09-19 11:48:35.189119,2025-09-19 07:48:35.189164
"PASY","Shemya/Eareckson Arpt, AK, US",2025-09-19 10:55:00,"2025-09-19 01:55:00","VFR",7.2,5,10,5,NA,NA,1011.9,"METAR PASY 191055Z AUTO 01005KT 10SM CLR 07/05 A2988 RMK AO2 SLP122 T00720050 FZRANO $",2025-09-19 11:48:35.196028,2025-09-19 07:48:35.196078
"PASV","Sparrevohn Arpt, AK, US",2025-09-19 10:55:00,"2025-09-19 02:55:00","VFR",7.6,4,30,5,NA,NA,994.3,"METAR PASV 191055Z AUTO 03005KT 10SM OVC055 08/04 A2936 RMK AO2 SLP943 T00760040",2025-09-19 11:48:35.20308,2025-09-19 07:48:35.203125
"PALU","Cape Lisburne Arpt, AK, US",2025-09-19 10:55:00,"2025-09-19 02:55:00","IFR",6.1,5.1,70,14,NA,NA,1004.5,"METAR PALU 191055Z AUTO 07014KT 10SM OVC008 06/05 A2966 RMK AO2 SLP041 T00610051",2025-09-19 11:48:35.224231,2025-09-19 07:48:35.224284
"PAKN","King Salmon Arpt, AK, US",2025-09-19 10:54:00,"2025-09-19 02:54:00","VFR",7.8,7.2,0,0,NA,NA,990.9,"METAR PAKN 191054Z 00000KT 10SM OVC060 08/07 A2926 RMK AO2 RAB11E38 SLP909 P0000 T00780072",2025-09-19 11:48:35.231801,2025-09-19 07:48:35.231848
"PASI","Sitka/Gutierrez Arpt, AK, US",2025-09-19 10:53:00,"2025-09-19 02:53:00","MVFR",15.6,10,120,10,NA,5,1003.5,"METAR PASI 191053Z 12010KT 5SM -RA FEW014 SCT022 OVC027 16/10 A2963 RMK AO2 RAE04B20 SLP033 P0006 T01560100",2025-09-19 11:48:35.239055,2025-09-19 07:48:35.239102
"PATK","Talkeetna Arpt, AK, US",2025-09-19 10:53:00,"2025-09-19 02:53:00","VFR",9.4,8.3,0,0,NA,NA,996,"METAR PATK 191053Z AUTO 00000KT 10SM OVC050 09/08 A2941 RMK AO2 RAE13 SLP962 P0000 T00940083 TSNO",2025-09-19 11:48:35.246554,2025-09-19 07:48:35.246599
"PAWD","Seward Arpt, AK, US",2025-09-19 10:53:00,"2025-09-19 02:53:00",NA,8.9,8.3,10,4,NA,NA,994.3,"METAR PAWD 191053Z AUTO 01004KT SCT050 OVC070 09/08 A2936 RMK AO2 SLP941 T00890083 TSNO $",2025-09-19 11:48:35.253514,2025-09-19 07:48:35.253568
"PHJR","Kalaeloa Arpt, HI, US",2025-09-19 10:53:00,"2025-09-19 00:53:00","VFR",24.4,20.6,40,4,NA,NA,1017.4,"METAR PHJR 191053Z AUTO 04004KT 10SM CLR 24/21 A3004 RMK AO2 SLP178 T02440206 TSNO",2025-09-19 11:48:35.260531,2025-09-19 07:48:35.260579
"PASC","Deadhorse Arpt, AK, US",2025-09-19 10:53:00,"2025-09-19 02:53:00","IFR",1.7,1.7,270,6,NA,1.5,1003.1,"METAR PASC 191053Z 27006KT 1 1/2SM BR OVC005 02/02 A2962 RMK AO2 SLP031 T00170017 $",2025-09-19 11:48:35.267362,2025-09-19 07:48:35.267406
"PAKW","Klawock Arpt, AK, US",2025-09-19 10:53:00,"2025-09-19 02:53:00","VFR",16.1,12.8,170,6,NA,NA,1008.5,"METAR PAKW 191053Z AUTO 17006KT 10SM -RA FEW020 OVC032 16/13 A2978 RMK AO2 SLP083 P0000 T01610128 TSNO",2025-09-19 11:48:35.274281,2025-09-19 07:48:35.274327
"PAKV","Kaltag Arpt, AK, US",2025-09-19 10:53:00,"2025-09-19 02:53:00","VFR",4.4,4.4,0,0,NA,NA,998.1,"METAR PAKV 191053Z AUTO 00000KT 10SM SCT060 BKN100 04/04 A2947 RMK AO2 SLP983 T00440044 TSNO $",2025-09-19 11:48:35.281133,2025-09-19 07:48:35.281177
"PAMC","McGrath Arpt, AK, US",2025-09-19 10:53:00,"2025-09-19 02:53:00","VFR",3.3,3.3,NA,NA,NA,NA,995.7,"METAR PAMC 191053Z AUTO 10SM CLR 03/03 A2940 RMK AO2 SLP959 T00330033 TSNO $",2025-09-19 11:48:35.287891,2025-09-19 07:48:35.287936
"PASO","Seldovia Arpt, AK, US",2025-09-19 10:53:00,"2025-09-19 02:53:00","IFR",9.4,8.9,NA,NA,NA,NA,993.6,"METAR PASO 191053Z AUTO 10SM OVC007 09/09 A2934 RMK AO2 CIG 003V011 SLP937 T00940089 TSNO $",2025-09-19 11:48:35.294572,2025-09-19 07:48:35.294616
"PAMR","Anchorage/Merrill Fld, AK, US",2025-09-19 10:53:00,"2025-09-19 02:53:00","VFR",8.9,7.8,0,0,NA,NA,995.3,"METAR PAMR 191053Z 00000KT 10SM FEW005 OVC075 09/08 A2939 RMK AO2 RAE51 SLP952 P0001 T00890078",2025-09-19 11:48:35.301433,2025-09-19 07:48:35.301492
"PALH","Lake Hood, AK, US",2025-09-19 10:53:00,"2025-09-19 10:53:00","VFR",8.3,7.8,0,0,NA,NA,995.7,"METAR PALH 191053Z 00000KT 10SM -RA OVC075 08/08 A2940 RMK AO2 SLP956 P0002 T00830078",2025-09-19 11:48:35.308043,2025-09-19 07:48:35.308088
"PHKO","Keahole Point/Kona Intl, HI, US",2025-09-19 10:53:00,"2025-09-19 00:53:00","VFR",26.7,20.6,180,4,NA,NA,1015.3,"METAR PHKO 191053Z AUTO 18004KT 10SM FEW021 FEW046 BKN055 27/21 A2998 RMK AO2 SLP149 T02670206",2025-09-19 11:48:35.314634,2025-09-19 07:48:35.314678
"PAJN","Juneau Intl, AK, US",2025-09-19 10:53:00,"2025-09-19 02:53:00","MVFR",10.6,9.4,120,14,20,6,1005.2,"METAR PAJN 191053Z 12014G20KT 6SM -RA BR FEW005 BKN028 OVC055 11/09 A2968 RMK AO2 SLP051 P0005 T01060094",2025-09-19 11:48:35.321144,2025-09-19 07:48:35.321188
"PAOR","Northway Arpt, AK, US",2025-09-19 10:53:00,"2025-09-19 02:53:00","VFR",3.9,2.8,0,0,NA,NA,997,"METAR PAOR 191053Z 00000KT 10SM FEW120 04/03 A2944 RMK AO2 SLP978 T00390028 PNO $",2025-09-19 11:48:35.327967,2025-09-19 07:48:35.328012
"PANC","Anchorage Intl, AK, US",2025-09-19 10:53:00,"2025-09-19 02:53:00","VFR",8.3,7.8,70,3,NA,NA,995.3,"METAR PANC 191053Z 07003KT 10SM -RA OVC065 08/08 A2939 RMK AO2 SLP952 P0001 T00830078",2025-09-19 11:48:35.334713,2025-09-19 07:48:35.334769
"PANN","Nenana Muni, AK, US",2025-09-19 10:53:00,"2025-09-19 02:53:00","VFR",2.8,1.7,0,0,NA,NA,995.7,"METAR PANN 191053Z AUTO 00000KT 10SM CLR 03/02 A2940 RMK AO2 SLP960 T00280017 TSNO $",2025-09-19 11:48:35.341464,2025-09-19 07:48:35.341534
"PAOT","Kotzebue/Wien Mem, AK, US",2025-09-19 10:53:00,"2025-09-19 02:53:00","VFR",5.6,2.2,10,4,NA,NA,999.7,"METAR PAOT 191053Z AUTO 01004KT 10SM OVC075 06/02 A2952 RMK AO2 SLP996 T00560022 TSNO",2025-09-19 11:48:35.348279,2025-09-19 07:48:35.348323
"PAQT","Nuiqsut Arpt, AK, US",2025-09-19 10:53:00,"2025-09-19 02:53:00","MVFR",2.8,1.1,280,3,NA,NA,1004.5,"METAR PAQT 191053Z AUTO 28003KT 10SM -RA OVC022 03/01 A2966 RMK AO2 SLP045 P0000 T00280011 TSNO $",2025-09-19 11:48:35.369142,2025-09-19 07:48:35.369191
"PHBK","Kekaha/Barking Sands Arpt, HI, US",2025-09-19 10:51:00,"2025-09-19 00:51:00","VFR",25,18.3,20,4,NA,NA,1017,"METAR PHBK 191051Z AUTO 02004KT 10SM FEW065 25/18 A3003 RMK AO2 SLP171 T02500183 $",2025-09-19 11:48:35.376953,2025-09-19 07:48:35.377
"PHNG","Kaneohe Bay (MCAS), HI, US",2025-09-19 11:42:00,"2025-09-19 01:42:00",NA,25.6,22.2,70,11,15,NA,1016,"METAR PHNG 191142Z AUTO 07011G15KT SCT019 SCT024 26/22 A3000 RMK AO2 T02560222 $",2025-09-19 11:48:36.781081,2025-09-19 07:48:36.781126
"PHNY","Lanai Arpt, HI, US",2025-09-19 10:56:00,"2025-09-19 00:56:00","VFR",22.2,19.4,10,6,NA,NA,1018.7,"METAR PHNY 191056Z AUTO 01006KT 10SM CLR 22/19 A3008 RMK AO2 SLP162 T02220194 $",2025-09-19 11:48:36.788121,2025-09-19 07:48:36.788166
"PHSF","Bradshaw(AAF), HI, US",2025-09-19 10:55:00,"2025-09-19 00:55:00","VFR",14.8,5.8,120,5,15,NA,1026.8,"METAR PHSF 191055Z AUTO 12005G15KT 10SM FEW220 15/06 A3032 RMK AO2 SLP137 T01480058 $",2025-09-19 11:48:36.794891,2025-09-19 07:48:36.794936
"PHMK","Molokai Arpt, HI, US",2025-09-19 10:54:00,"2025-09-19 00:54:00","VFR",25,20.6,40,9,17,NA,1017.4,"METAR PHMK 191054Z AUTO 04009G17KT 10SM SCT042 25/21 A3004 RMK AO2 SLP171 T02500206 TSNO",2025-09-19 11:48:36.801707,2025-09-19 07:48:36.801753
"PHOG","Kahului Arpt, HI, US",2025-09-19 10:54:00,"2025-09-19 00:54:00","VFR",25.6,19.4,30,13,NA,NA,1016.7,"METAR PHOG 191054Z AUTO 03013KT 10SM CLR 26/19 A3002 RMK AO2 SLP169 T02560194 TSNO",2025-09-19 11:48:36.808338,2025-09-19 07:48:36.808382
"PHTO","Hilo Intl, HI, US",2025-09-19 10:53:00,"2025-09-19 00:53:00","VFR",22.8,20.6,230,4,NA,NA,1017,"METAR PHTO 191053Z AUTO 23004KT 10SM SCT075 23/21 A3003 RMK AO2 SLP167 T02280206 TSNO",2025-09-19 11:48:36.814987,2025-09-19 07:48:36.815032
"PHNL","Honolulu Intl, HI, US",2025-09-19 10:53:00,"2025-09-19 00:53:00","VFR",26.1,20.6,50,7,17,NA,1017,"METAR PHNL 191053Z 05007G17KT 10SM FEW026 SCT040 26/21 A3003 RMK AO2 SLP168 T02610206 $",2025-09-19 11:48:36.821854,2025-09-19 07:48:36.8219
