icao,site,observed_utc,observed_local,flight_category,temp_c,dewpoint_c,wind_dir_deg,wind_kts,gust_kts,vis_sm,altimeter_hpa,raw_text,fetched_at_utc,fetched_at_local
CBBC,"Bella Bella Arpt, BC, CA",2025-09-10T01:00:00Z,2025-09-09T21:00:00Z,VFR,18,13,VAR,2,0,9,1014.6,METAR CBBC 100100Z AUTO VRB02KT 9SM CLR 18/13 A2996 RMK SLP149 DENSITY ALT 500FT,2025-09-10T01:10:59Z,2025-09-09T21:10:59Z
CWJC,"Ennadai Lake(MAPS), NU, CA",2025-09-10T01:00:00Z,2025-09-09T21:00:00Z,NA,11.4,2.7,170,6,0,NA,NA,METAR CWJC 100100Z AUTO 17006KT 11/03 RMK AO1 SLP162 T01140027 56007,2025-09-10T01:11:21Z,2025-09-09T21:11:21Z
CYAM,"Sault Ste Marie Arpt, ON, CA",2025-09-09T15:00:00Z,2025-09-09T11:00:00Z,VFR,17,12,210,5,0,20,1019.4,METAR CYAM 091500Z 21005KT 150V240 20SM FEW018 SCT110 BKN150 OVC250 17/12 A3010 RMK CU1AC2AS3CS2 SLP198 DENSITY ALT 900FT,2025-09-09T15:51:24Z,2025-09-09T11:51:24Z
CYAM,"Sault Ste Marie Arpt, ON, CA",2025-09-09T16:00:00Z,2025-09-09T12:00:00Z,VFR,18,12,190,11,17,20,1019,METAR CYAM 091600Z 19011G17KT 20SM FEW018 SCT082 BKN099 BKN150 OVC250 18/12 A3009 RMK CU1AC2AC2AS2CI1 SLP193 DENSITY ALT 1000FT,2025-09-09T16:11:11Z,2025-09-09T12:11:11Z
CYAM,"Sault Ste Marie Arpt, ON, CA",2025-09-09T17:00:00Z,2025-09-09T13:00:00Z,VFR,19,13,230,6,0,20,1019.4,METAR CYAM 091700Z 23006KT 170V260 20SM FEW024 SCT066 BKN100 OVC250 19/13 A3010 RMK CU1AC4AS3CS1 CU TR SLP199 DENSITY ALT 1100FT,2025-09-09T17:12:44Z,2025-09-09T13:12:44Z
CYAM,"Sault Ste Marie Arpt, ON, CA",2025-09-09T18:00:00Z,2025-09-09T14:00:00Z,VFR,19,12,210,7,0,20,1019.7,METAR CYAM 091800Z 21007KT 20SM FEW024 FEW069 BKN098 BKN110 OVC250 19/12 A3011 RMK CU1AC2ACC3AS2CS1 CU TR ACC N MOV E SLP201 DENSITY ALT 1100FT,2025-09-09T18:09:16Z,2025-09-09T14:09:16Z
CYAM,"Sault Ste Marie Arpt, ON, CA",2025-09-09T19:00:00Z,2025-09-09T15:00:00Z,VFR,19,12,210,8,0,20,1019.4,METAR CYAM 091900Z 21008KT 20SM FEW024 SCT068 BKN099 BKN120 OVC250 19/12 A3010 RMK CU1AC2ACC2AS2CS1 ACC N MOV E SLP199 DENSITY ALT 1000FT,2025-09-09T19:20:44Z,2025-09-09T15:20:44Z
CYAM,"Sault Ste Marie Arpt, ON, CA",2025-09-09T20:00:00Z,2025-09-09T16:00:00Z,VFR,20,13,190,8,0,15,1019,METAR CYAM 092000Z 19008KT 15SM FEW024 SCT070 BKN081 BKN140 OVC250 20/13 A3009 RMK CU1AC2AC2AS2CI1 SLP195 DENSITY ALT 1200FT,2025-09-09T20:10:07Z,2025-09-09T16:10:07Z
CYAM,"Sault Ste Marie Arpt, ON, CA",2025-09-09T21:00:00Z,2025-09-09T17:00:00Z,VFR,19,12,210,6,0,15,1019,METAR CYAM 092100Z 21006KT 15SM FEW024 SCT069 BKN096 OVC120 19/12 A3009 RMK CU1AC2AC2AS3 SLP195 DENSITY ALT 1100FT,2025-09-09T21:12:35Z,2025-09-09T17:12:35Z
CYAM,"Sault Ste Marie Arpt, ON, CA",2025-09-09T22:00:00Z,2025-09-09T18:00:00Z,VFR,19,11,200,8,0,15,1019.4,METAR CYAM 092200Z 20008KT 15SM FEW024 SCT069 BKN096 OVC120 19/11 A3010 RMK CU1AC2ACC2AS3 ACC W MOV E SLP196 DENSITY ALT 1000FT,2025-09-09T22:20:10Z,2025-09-09T18:20:10Z
CYAM,"Sault Ste Marie Arpt, ON, CA",2025-09-09T23:00:00Z,2025-09-09T19:00:00Z,VFR,18,12,190,4,0,15,1019.4,METAR CYAM 092300Z 19004KT 15SM FEW024 SCT069 BKN084 OVC100 18/12 A3010 RMK CU1AC3ACC3AS2 CU TR ACC S-SW-W MOV E SH DIST S SLP197 DENSITY ALT 1000FT,2025-09-09T23:21:12Z,2025-09-09T19:21:12Z
CYAM,"Sault Ste Marie Arpt, ON, CA",2025-09-10T01:00:00Z,2025-09-09T21:00:00Z,VFR,16,13,140,4,0,15,1019.4,METAR CYAM 100100Z 14004KT 15SM BKN076 OVC250 16/13 A3010 RMK AC7CI1 SLP196,2025-09-10T01:11:21Z,2025-09-09T21:11:21Z
CYAT,"Attawapisket Arpt, ON, CA",2025-09-09T15:37:00Z,2025-09-09T11:37:00Z,VFR,14,11,VAR,5,0,9,1011.6,SPECI CYAT 091537Z AUTO VRB05KT 9SM FEW050 OVC081 14/11 A2987 RMK SLP118,2025-09-09T15:51:24Z,2025-09-09T11:51:24Z
CYAT,"Attawapisket Arpt, ON, CA",2025-09-09T16:00:00Z,2025-09-09T12:00:00Z,VFR,12,11,230,5,0,9,1011.6,METAR CYAT 091600Z AUTO 23005KT 190V260 9SM FEW006 BKN050 OVC086 12/11 A2987 RMK SLP117,2025-09-09T16:11:11Z,2025-09-09T12:11:11Z
CYAT,"Attawapisket Arpt, ON, CA",2025-09-09T16:29:00Z,2025-09-09T12:29:00Z,IFR,13,11,250,6,0,9,1011.6,SPECI CYAT 091629Z AUTO 25006KT 9SM BKN008 OVC055 13/11 A2987 RMK SLP117,2025-09-09T16:36:21Z,2025-09-09T12:36:21Z
CYAT,"Attawapisket Arpt, ON, CA",2025-09-09T17:09:00Z,2025-09-09T13:09:00Z,MVFR,13,12,250,8,0,9,1011.6,SPECI CYAT 091709Z AUTO 25008KT 9SM BKN010 OVC050 13/12 A2987 RMK SLP117,2025-09-09T17:12:43Z,2025-09-09T13:12:43Z
CYAT,"Attawapisket Arpt, ON, CA",2025-09-09T18:00:00Z,2025-09-09T14:00:00Z,MVFR,14,12,260,8,0,9,1011.9,METAR CYAT 091800Z AUTO 26008KT 9SM OVC012 14/12 A2988 RMK SLP119,2025-09-09T18:09:15Z,2025-09-09T14:09:15Z
CYAT,"Attawapisket Arpt, ON, CA",2025-09-09T19:00:00Z,2025-09-09T15:00:00Z,MVFR,14,12,260,8,0,9,1012.3,METAR CYAT 091900Z AUTO 26008KT 9SM BKN015 OVC020 14/12 A2989 RMK SLP123,2025-09-09T19:20:43Z,2025-09-09T15:20:43Z
CYAT,"Attawapisket Arpt, ON, CA",2025-09-09T20:00:00Z,2025-09-09T16:00:00Z,MVFR,14,12,310,9,0,9,1013,METAR CYAT 092000Z AUTO 31009KT 280V340 9SM SCT012 BKN023 OVC030 14/12 A2991 RMK SLP129,2025-09-09T20:10:07Z,2025-09-09T16:10:07Z
CYAT,"Attawapisket Arpt, ON, CA",2025-09-09T20:13:00Z,2025-09-09T16:13:00Z,VFR,15,12,320,9,0,9,1013,SPECI CYAT 092013Z AUTO 32009KT 9SM FEW012 SCT023 BKN033 15/12 A2991 RMK SLP129,2025-09-09T20:31:12Z,2025-09-09T16:31:12Z
CYAT,"Attawapisket Arpt, ON, CA",2025-09-09T21:00:00Z,2025-09-09T17:00:00Z,VFR,16,11,340,4,0,9,1013,METAR CYAT 092100Z AUTO 34004KT 290V010 9SM FEW033 16/11 A2991 RMK SLP130,2025-09-09T21:12:35Z,2025-09-09T17:12:35Z
CYAT,"Attawapisket Arpt, ON, CA",2025-09-09T22:00:00Z,2025-09-09T18:00:00Z,VFR,16,11,350,4,0,9,1013.3,METAR CYAT 092200Z AUTO 35004KT 310V010 9SM FEW028 16/11 A2992 RMK SLP135,2025-09-09T22:20:10Z,2025-09-09T18:20:10Z
CYAT,"Attawapisket Arpt, ON, CA",2025-09-09T23:00:00Z,2025-09-09T19:00:00Z,VFR,15,13,0,0,0,9,1014,METAR CYAT 092300Z AUTO 00000KT 9SM FEW043 BKN055 OVC079 15/13 A2994 RMK SLP140,2025-09-09T23:21:12Z,2025-09-09T19:21:12Z
CYAT,"Attawapisket Arpt, ON, CA",2025-09-10T01:00:00Z,2025-09-09T21:00:00Z,VFR,13,11,10,5,0,9,1015,METAR CYAT 100100Z AUTO 01005KT 280V020 9SM BKN032 BKN040 13/11 A2997 RMK SLP150,2025-09-10T01:11:21Z,2025-09-09T21:11:21Z
CYAW,"Shearwater(AFB), NS, CA",2025-09-10T01:00:00Z,2025-09-09T21:00:00Z,VFR,13,10,360,3,0,15,1028.9,METAR CYAW 100100Z 36003KT 15SM SCT250 13/10 A3038 RMK CI4 DENSITY ALT -459FT SLP290,2025-09-10T01:11:21Z,2025-09-09T21:11:21Z
CYAY,"St Anthony Arpt, NL, CA",2025-09-10T01:00:00Z,2025-09-09T21:00:00Z,VFR,11,7,240,9,15,9,1025.1,METAR CYAY 100100Z AUTO 24009G15KT 9SM CLR 11/07 A3027 RMK SLP255,2025-09-10T01:11:21Z,2025-09-09T21:11:21Z
CYAZ,"Tofino Arpt, BC, CA",2025-09-09T15:00:00Z,2025-09-09T11:00:00Z,LIFR,13,13,310,3,0,0.25,1015,METAR CYAZ 091500Z 31003KT 1/4SM FG VV002 13/13 A2997 RMK FG8 SLP151,2025-09-09T15:51:26Z,2025-09-09T11:51:26Z
CYAZ,"Tofino Arpt, BC, CA",2025-09-09T16:00:00Z,2025-09-09T12:00:00Z,LIFR,14,14,VAR,2,0,0.25,1015,METAR CYAZ 091600Z VRB02KT 1/4SM FG VV002 14/14 A2997 RMK FG8 SLP150,2025-09-09T16:11:12Z,2025-09-09T12:11:12Z
CYAZ,"Tofino Arpt, BC, CA",2025-09-09T17:00:00Z,2025-09-09T13:00:00Z,LIFR,15,15,0,0,0,0.25,1015,METAR CYAZ 091700Z 00000KT 1/4SM FG OVC002 15/15 A2997 RMK SF8 SLP150,2025-09-09T17:12:45Z,2025-09-09T13:12:45Z
CYAZ,"Tofino Arpt, BC, CA",2025-09-09T18:00:00Z,2025-09-09T14:00:00Z,VFR,15,15,190,3,0,15,1014.6,METAR CYAZ 091800Z 19003KT 140V210 15SM BCFG FEW001 15/15 A2996 RMK SF1 VIS LWR ALG SHR SLP148,2025-09-09T18:09:17Z,2025-09-09T14:09:17Z
CYAZ,"Tofino Arpt, BC, CA",2025-09-09T19:00:00Z,2025-09-09T15:00:00Z,VFR,16,16,190,6,0,15,1014.6,METAR CYAZ 091900Z 19006KT 15SM BCFG FEW001 16/16 A2996 RMK SF1 SF TR VIS LWR ALG SHR SLP147,2025-09-09T19:20:46Z,2025-09-09T15:20:46Z
CYAZ,"Tofino Arpt, BC, CA",2025-09-09T20:00:00Z,2025-09-09T16:00:00Z,VFR,17,15,190,6,0,15,1014.6,METAR CYAZ 092000Z 19006KT 15SM BCFG SKC 17/15 A2996 RMK FG BANK ALG SHR SLP148 DENSITY ALT 300FT,2025-09-09T20:10:10Z,2025-09-09T16:10:10Z
CYAZ,"Tofino Arpt, BC, CA",2025-09-09T21:00:00Z,2025-09-09T17:00:00Z,VFR,19,16,200,5,0,15,1014.6,METAR CYAZ 092100Z 20005KT 180V260 15SM SKC 19/16 A2996 RMK FG BANK ALG SHR SLP147 DENSITY ALT 600FT,2025-09-09T21:12:38Z,2025-09-09T17:12:38Z
CYAZ,"Tofino Arpt, BC, CA",2025-09-09T22:00:00Z,2025-09-09T18:00:00Z,VFR,18,15,180,5,0,15,1014.3,METAR CYAZ 092200Z 18005KT 15SM SKC 18/15 A2995 RMK FG BANK OFSHR SLP143 DENSITY ALT 500FT,2025-09-09T22:20:11Z,2025-09-09T18:20:11Z
CYAZ,"Tofino Arpt, BC, CA",2025-09-09T23:00:00Z,2025-09-09T19:00:00Z,VFR,16,14,180,6,0,15,1013.6,METAR CYAZ 092300Z 18006KT 15SM BCFG FEW001 16/14 A2993 RMK SF1 SF TR FG BANK ALG SHR SLP139 DENSITY ALT 300FT,2025-09-09T23:21:13Z,2025-09-09T19:21:13Z
CYAZ,"Tofino Arpt, BC, CA",2025-09-10T01:00:00Z,2025-09-09T21:00:00Z,VFR,16,14,170,5,0,15,1013.3,METAR CYAZ 100100Z 17005KT 150V210 15SM FEW001 16/14 A2992 RMK SF1 SF TR FG BANK ALG SHR LAST STFD OBS/NXT 101300Z SLP133 DENSITY ALT 300FT,2025-09-10T01:11:21Z,2025-09-09T21:11:21Z
CYBC,"Baie Comeau Arpt, QC, CA",2025-09-09T15:00:00Z,2025-09-09T11:00:00Z,VFR,13,7,220,8,0,9,1028.2,METAR CYBC 091500Z AUTO 22008KT 9SM CLR 13/07 A3036 RMK SLP283,2025-09-09T15:51:24Z,2025-09-09T11:51:24Z
CYBC,"Baie Comeau Arpt, QC, CA",2025-09-09T16:00:00Z,2025-09-09T12:00:00Z,VFR,13,7,210,10,0,9,1028.2,METAR CYBC 091600Z AUTO 21010KT 9SM FEW150 13/07 A3036 RMK SLP282,2025-09-09T16:11:11Z,2025-09-09T12:11:11Z
CYBC,"Baie Comeau Arpt, QC, CA",2025-09-09T17:00:00Z,2025-09-09T13:00:00Z,VFR,14,8,220,11,0,9,1027.5,METAR CYBC 091700Z AUTO 22011KT 9SM CLR 14/08 A3034 RMK SLP278,2025-09-09T17:12:44Z,2025-09-09T13:12:44Z
CYBC,"Baie Comeau Arpt, QC, CA",2025-09-09T18:00:00Z,2025-09-09T14:00:00Z,VFR,15,7,220,11,0,9,1027.2,METAR CYBC 091800Z AUTO 22011KT 9SM CLR 15/07 A3033 RMK SLP275,2025-09-09T18:09:16Z,2025-09-09T14:09:16Z
CYBC,"Baie Comeau Arpt, QC, CA",2025-09-09T19:00:00Z,2025-09-09T15:00:00Z,VFR,15,6,230,10,0,9,1026.8,METAR CYBC 091900Z AUTO 23010KT 9SM CLR 15/06 A3032 RMK SLP270,2025-09-09T19:20:44Z,2025-09-09T15:20:44Z
CYBC,"Baie Comeau Arpt, QC, CA",2025-09-09T20:00:00Z,2025-09-09T16:00:00Z,VFR,15,5,230,9,0,9,1026.5,METAR CYBC 092000Z AUTO 23009KT 9SM CLR 15/05 A3031 RMK SLP267,2025-09-09T20:10:07Z,2025-09-09T16:10:07Z
CYBC,"Baie Comeau Arpt, QC, CA",2025-09-09T21:00:00Z,2025-09-09T17:00:00Z,VFR,15,5,230,8,0,9,1026.5,METAR CYBC 092100Z AUTO 23008KT 9SM BKN190 15/05 A3031 RMK SLP265,2025-09-09T21:12:35Z,2025-09-09T17:12:35Z
CYBC,"Baie Comeau Arpt, QC, CA",2025-09-09T22:00:00Z,2025-09-09T18:00:00Z,VFR,14,6,190,2,0,9,1026.2,METAR CYBC 092200Z AUTO 19002KT 9SM OVC180 14/06 A3030 RMK SLP262,2025-09-09T22:20:10Z,2025-09-09T18:20:10Z
CYBC,"Baie Comeau Arpt, QC, CA",2025-09-09T23:00:00Z,2025-09-09T19:00:00Z,VFR,11,7,60,3,0,9,1025.8,METAR CYBC 092300Z AUTO 06003KT 040V120 9SM SCT240 11/07 A3029 RMK SLP261,2025-09-09T23:21:12Z,2025-09-09T19:21:12Z
CYBC,"Baie Comeau Arpt, QC, CA",2025-09-10T01:00:00Z,2025-09-09T21:00:00Z,VFR,10,8,70,2,0,9,1026.2,METAR CYBC 100100Z AUTO 07002KT 9SM BKN190 10/08 A3030 RMK SLP263,2025-09-10T01:11:21Z,2025-09-09T21:11:21Z
CYBD,"Bella Coola Arpt, BC, CA",2025-09-10T01:00:00Z,2025-09-09T21:00:00Z,VFR,21,13,300,8,16,15,1011.6,METAR CYBD 100100Z 30008G16KT 260V330 15SM BKN190 21/13 A2987 RMK AC7 VIRGA E LAST STFD OBS/NXT 101300 SLP116 DENSITY ALT 1000FT,2025-09-10T01:11:21Z,2025-09-09T21:11:21Z
CYBG,"Bagotville(MIL), QC, CA",2025-09-09T15:00:00Z,2025-09-09T11:00:00Z,VFR,14,9,90,6,0,25,1027.9,METAR CYBG 091500Z 09006KT 25SM FEW021 BKN240 14/09 A3035 RMK CU1CI6 DENSITY ALT 130FT CIG PDMTLY TRANSPARENT SLP283,2025-09-09T15:51:26Z,2025-09-09T11:51:26Z
CYBG,"Bagotville(MIL), QC, CA",2025-09-09T16:00:00Z,2025-09-09T12:00:00Z,VFR,15,9,90,6,0,25,1027.5,METAR CYBG 091600Z 09006KT 25SM FEW025 BKN180 15/09 A3034 RMK CU2AC5 DENSITY ALT 348FT SLP280,2025-09-09T16:11:12Z,2025-09-09T12:11:12Z
CYBG,"Bagotville(MIL), QC, CA",2025-09-09T17:00:00Z,2025-09-09T13:00:00Z,VFR,16,9,100,5,0,25,1027.2,METAR CYBG 091700Z 10005KT 25SM FEW055 BKN180 16/09 A3033 RMK CU2AC5 DENSITY ALT 483FT SLP275,2025-09-09T17:12:45Z,2025-09-09T13:12:45Z
CYBG,"Bagotville(MIL), QC, CA",2025-09-09T18:00:00Z,2025-09-09T14:00:00Z,VFR,17,8,80,2,0,25,1026.5,METAR CYBG 091800Z 08002KT 25SM SCT055 BKN160 17/08 A3031 RMK SC4AC3 DENSITY ALT 564FT SLP270,2025-09-09T18:09:17Z,2025-09-09T14:09:17Z
CYBG,"Bagotville(MIL), QC, CA",2025-09-09T19:00:00Z,2025-09-09T15:00:00Z,VFR,18,9,130,4,0,25,1025.8,METAR CYBG 091900Z 13004KT 25SM SCT055 BKN180 18/09 A3029 RMK SC3AC4 DENSITY ALT 679FT SLP263,2025-09-09T19:20:46Z,2025-09-09T15:20:46Z
CYBG,"Bagotville(MIL), QC, CA",2025-09-09T20:00:00Z,2025-09-09T16:00:00Z,VFR,18,8,60,4,0,25,1025.1,METAR CYBG 092000Z 06004KT 25SM FEW060 BKN180 18/08 A3027 RMK SC2AC3 DENSITY ALT 759FT SLP255,2025-09-09T20:10:11Z,2025-09-09T16:10:11Z
CYBG,"Bagotville(MIL), QC, CA",2025-09-09T21:00:00Z,2025-09-09T17:00:00Z,VFR,17,9,90,6,0,25,1024.8,METAR CYBG 092100Z 09006KT 25SM FEW060 BKN180 17/09 A3026 RMK SC1AC5 DENSITY ALT 689FT SLP253,2025-09-09T21:12:38Z,2025-09-09T17:12:38Z
CYBG,"Bagotville(MIL), QC, CA",2025-09-09T22:00:00Z,2025-09-09T18:00:00Z,VFR,16,8,70,4,0,25,1024.8,METAR CYBG 092200Z 07004KT 25SM FEW060 SCT160 SCT250 16/08 A3026 RMK SC1AC3CI1 DENSITY ALT 555FT SC TR SLP253,2025-09-09T22:20:11Z,2025-09-09T18:20:11Z
CYBG,"Bagotville(MIL), QC, CA",2025-09-09T23:00:00Z,2025-09-09T19:00:00Z,VFR,12,9,110,3,0,25,1025.1,METAR CYBG 092300Z 11003KT 25SM FEW060 SCT250 12/09 A3027 RMK SC2CI1 DENSITY ALT 78FT SLP256,2025-09-09T23:21:13Z,2025-09-09T19:21:13Z
CYBG,"Bagotville(MIL), QC, CA",2025-09-10T01:00:00Z,2025-09-09T21:00:00Z,VFR,9,8,180,3,0,25,1025.1,METAR CYBG 100100Z 18003KT 25SM FEW060 SCT190 SCT210 09/08 A3027 RMK SC1AC2CI1 DENSITY ALT -322FT SLP254,2025-09-10T01:11:21Z,2025-09-09T21:11:21Z
CYBK,"Baker Lake Arpt, NU, CA",2025-09-09T15:00:00Z,2025-09-09T11:00:00Z,MVFR,5,1,350,3,0,20,1016.7,METAR CYBK 091500Z 35003KT 300V010 20SM BKN018 05/01 A3002 RMK SC6 SLP169,2025-09-09T15:51:26Z,2025-09-09T11:51:26Z
CYBK,"Baker Lake Arpt, NU, CA",2025-09-09T16:00:00Z,2025-09-09T12:00:00Z,MVFR,6,1,230,3,0,20,1016.7,METAR CYBK 091600Z 23003KT 200V320 20SM BKN019 06/01 A3002 RMK SC6 SLP169,2025-09-09T16:11:12Z,2025-09-09T12:11:12Z
CYBK,"Baker Lake Arpt, NU, CA",2025-09-09T17:00:00Z,2025-09-09T13:00:00Z,MVFR,7,1,180,6,0,20,1016.7,METAR CYBK 091700Z 18006KT 170V260 20SM BKN020 BKN075 07/01 A3002 RMK SC5AC1 AC TR SLP169,2025-09-09T17:12:45Z,2025-09-09T13:12:45Z
CYBK,"Baker Lake Arpt, NU, CA",2025-09-09T18:00:00Z,2025-09-09T14:00:00Z,VFR,7,1,220,5,0,20,1016.3,METAR CYBK 091800Z 22005KT 150V240 20SM SCT021 BKN075 07/01 A3001 RMK SC4AC2 SLP166,2025-09-09T18:09:17Z,2025-09-09T14:09:17Z
CYBK,"Baker Lake Arpt, NU, CA",2025-09-09T19:00:00Z,2025-09-09T15:00:00Z,VFR,8,2,210,5,0,20,1016.3,METAR CYBK 091900Z 21005KT 160V220 20SM FEW021 BKN075 08/02 A3001 RMK SC2AC4 SLP167,2025-09-09T19:20:46Z,2025-09-09T15:20:46Z
CYBK,"Baker Lake Arpt, NU, CA",2025-09-09T20:00:00Z,2025-09-09T16:00:00Z,VFR,8,2,150,8,0,20,1016.3,METAR CYBK 092000Z 15008KT 20SM FEW024 BKN080 08/02 A3001 RMK SC1AC5 SLP167,2025-09-09T20:10:11Z,2025-09-09T16:10:11Z
CYBK,"Baker Lake Arpt, NU, CA",2025-09-09T21:00:00Z,2025-09-09T17:00:00Z,VFR,9,2,210,5,0,20,1016.3,METAR CYBK 092100Z 21005KT 20SM FEW025 BKN100 09/02 A3001 RMK SC1AC6 SC TR SLP166,2025-09-09T21:12:38Z,2025-09-09T17:12:38Z
CYBK,"Baker Lake Arpt, NU, CA",2025-09-09T22:00:00Z,2025-09-09T18:00:00Z,VFR,9,3,150,6,0,20,1016,METAR CYBK 092200Z 15006KT 20SM FEW025 BKN120 09/03 A3000 RMK SC1AC5 SC TR SLP163,2025-09-09T22:20:11Z,2025-09-09T18:20:11Z
CYBK,"Baker Lake Arpt, NU, CA",2025-09-09T23:00:00Z,2025-09-09T19:00:00Z,VFR,8,4,110,9,0,20,1016,METAR CYBK 092300Z 11009KT 20SM FEW025 FEW120 08/04 A3000 RMK SC1AC1 SC TR SLP163,2025-09-09T23:21:13Z,2025-09-09T19:21:13Z
CYBK,"Baker Lake Arpt, NU, CA",2025-09-10T01:00:00Z,2025-09-09T21:00:00Z,VFR,7,5,110,8,0,20,1016,METAR CYBK 100100Z 11008KT 20SM FEW120 FEW200 07/05 A3000 RMK AC1CI1 AC TR CI TR SLP163,2025-09-10T01:11:21Z,2025-09-09T21:11:21Z
CYBL,"Campbell River Arpt, BC, CA",2025-09-09T15:00:00Z,2025-09-09T11:00:00Z,MVFR,12,12,280,2,0,15,1015.7,METAR CYBL 091500Z 28002KT 15SM FEW004 BKN018 12/12 A2999 RMK SF1SC7 SF TR SLP157,2025-09-09T15:51:26Z,2025-09-09T11:51:26Z
CYBL,"Campbell River Arpt, BC, CA",2025-09-09T16:00:00Z,2025-09-09T12:00:00Z,MVFR,15,14,310,7,0,20,1015.3,METAR CYBL 091600Z 31007KT 20SM FEW007 BKN017 15/14 A2998 RMK SF1SC7 SF TR VIS LWR S-SW DUE LO CLD SLP156,2025-09-09T16:11:12Z,2025-09-09T12:11:12Z
CYBL,"Campbell River Arpt, BC, CA",2025-09-09T17:00:00Z,2025-09-09T13:00:00Z,MVFR,16,14,320,7,0,20,1015.3,METAR CYBL 091700Z 32007KT 20SM FEW007 BKN015 16/14 A2998 RMK SF1SC7 SF TR SLP156 DENSITY ALT 600FT,2025-09-09T17:12:45Z,2025-09-09T13:12:45Z
CYBL,"Campbell River Arpt, BC, CA",2025-09-09T18:00:00Z,2025-09-09T14:00:00Z,MVFR,17,14,350,6,0,20,1015.3,METAR CYBL 091800Z 35006KT 300V010 20SM OVC016 17/14 A2998 RMK SC8 SLP154 DENSITY ALT 600FT,2025-09-09T18:09:17Z,2025-09-09T14:09:17Z
CYBL,"Campbell River Arpt, BC, CA",2025-09-09T19:00:00Z,2025-09-09T15:00:00Z,MVFR,17,14,VAR,2,0,20,1015,METAR CYBL 091900Z VRB02KT 20SM BKN015 17/14 A2997 RMK SC7 SLP152 DENSITY ALT 700FT,2025-09-09T19:20:46Z,2025-09-09T15:20:46Z
CYBL,"Campbell River Arpt, BC, CA",2025-09-09T20:00:00Z,2025-09-09T16:00:00Z,MVFR,18,14,340,6,0,20,1015,METAR CYBL 092000Z 34006KT 310V040 20SM BKN017 18/14 A2997 RMK SC7 SLP151 DENSITY ALT 800FT,2025-09-09T20:10:11Z,2025-09-09T16:10:11Z
CYBL,"Campbell River Arpt, BC, CA",2025-09-09T21:00:00Z,2025-09-09T17:00:00Z,MVFR,19,15,350,3,0,30,1014.6,METAR CYBL 092100Z 35003KT 300V070 30SM BKN020 19/15 A2996 RMK SC7 SLP148 DENSITY ALT 900FT,2025-09-09T21:12:38Z,2025-09-09T17:12:38Z
CYBL,"Campbell River Arpt, BC, CA",2025-09-09T22:00:00Z,2025-09-09T18:00:00Z,VFR,20,15,60,4,0,30,1014,METAR CYBL 092200Z 06004KT 30SM SCT020 BKN260 20/15 A2994 RMK SC3CI3 SLP140 DENSITY ALT 1000FT,2025-09-09T22:20:11Z,2025-09-09T18:20:11Z
CYBL,"Campbell River Arpt, BC, CA",2025-09-09T23:00:00Z,2025-09-09T19:00:00Z,VFR,20,15,70,7,0,30,1013.6,METAR CYBL 092300Z 07007KT 30SM FEW025 SCT260 20/15 A2993 RMK CU1CI3 SLP137 DENSITY ALT 1100FT,2025-09-09T23:21:13Z,2025-09-09T19:21:13Z
CYBL,"Campbell River Arpt, BC, CA",2025-09-10T01:00:00Z,2025-09-09T21:00:00Z,VFR,19,14,350,3,0,30,1012.6,METAR CYBL 100100Z 35003KT 340V080 30SM FEW025 SCT180 19/14 A2990 RMK SC1AC3 SC TR SLP129 DENSITY ALT 1000FT,2025-09-10T01:11:21Z,2025-09-09T21:11:21Z
CYBQ,"Tadoule Lake Arpt, MB, CA",2025-09-10T01:00:00Z,2025-09-09T21:00:00Z,VFR,12,4,120,5,0,9,1017,METAR CYBQ 100100Z AUTO 12005KT 9SM CLR 12/04 A3003 RMK SLP187,2025-09-10T01:11:21Z,2025-09-09T21:11:21Z
CYBR,"Brandon Arpt, MB, CA",2025-09-09T15:00:00Z,2025-09-09T11:00:00Z,VFR,17,14,70,7,0,15,1015.3,METAR CYBR 091500Z 07007KT 15SM FEW250 17/14 A2998 RMK CI2 SLP159 DENSITY ALT 1900FT,2025-09-09T15:51:24Z,2025-09-09T11:51:24Z
CYBR,"Brandon Arpt, MB, CA",2025-09-09T16:00:00Z,2025-09-09T12:00:00Z,VFR,19,13,70,8,0,15,1015.7,METAR CYBR 091600Z 07008KT 15SM FEW250 19/13 A2999 RMK CI2 SLP162 DENSITY ALT 2100FT,2025-09-09T16:11:11Z,2025-09-09T12:11:11Z
CYBR,"Brandon Arpt, MB, CA",2025-09-09T17:00:00Z,2025-09-09T13:00:00Z,VFR,21,13,70,7,0,15,1015.7,METAR CYBR 091700Z 07007KT 040V110 15SM FEW250 21/13 A2999 RMK CI2 SLP162 DENSITY ALT 2300FT,2025-09-09T17:12:44Z,2025-09-09T13:12:44Z
CYBR,"Brandon Arpt, MB, CA",2025-09-09T18:00:00Z,2025-09-09T14:00:00Z,VFR,23,11,90,3,0,15,1015.7,METAR CYBR 091800Z 09003KT 040V120 15SM FEW250 23/11 A2999 RMK CI2 SLP161 DENSITY ALT 2500FT,2025-09-09T18:09:16Z,2025-09-09T14:09:16Z
CYBR,"Brandon Arpt, MB, CA",2025-09-09T19:00:00Z,2025-09-09T15:00:00Z,VFR,24,11,140,4,0,15,1015.3,METAR CYBR 091900Z 14004KT 070V160 15SM FEW250 24/11 A2998 RMK CI2 SLP158 DENSITY ALT 2700FT,2025-09-09T19:20:44Z,2025-09-09T15:20:44Z
CYBR,"Brandon Arpt, MB, CA",2025-09-09T20:00:00Z,2025-09-09T16:00:00Z,VFR,25,10,30,6,0,15,1015,METAR CYBR 092000Z 03006KT 350V090 15SM FEW060 FEW250 25/10 A2997 RMK CU1CI2 CU TR SLP156 DENSITY ALT 2800FT,2025-09-09T20:10:07Z,2025-09-09T16:10:07Z
CYBR,"Brandon Arpt, MB, CA",2025-09-09T21:00:00Z,2025-09-09T17:00:00Z,VFR,25,10,VAR,2,0,15,1015,METAR CYBR 092100Z VRB02KT 15SM FEW060 FEW250 25/10 A2997 RMK CU1CI2 CU TR SLP157 DENSITY ALT 2800FT,2025-09-09T21:12:35Z,2025-09-09T17:12:35Z
CYBR,"Brandon Arpt, MB, CA",2025-09-09T22:00:00Z,2025-09-09T18:00:00Z,VFR,25,11,100,7,0,15,1015,METAR CYBR 092200Z 10007KT 15SM FEW060 SCT250 25/11 A2997 RMK CU1CI3 CU TR SLP157 DENSITY ALT 2800FT,2025-09-09T22:20:10Z,2025-09-09T18:20:10Z
CYBR,"Brandon Arpt, MB, CA",2025-09-09T23:00:00Z,2025-09-09T19:00:00Z,VFR,25,11,40,10,0,15,1015.3,METAR CYBR 092300Z 04010KT 030V130 15SM FEW060 FEW250 25/11 A2998 RMK CU1CI2 CU TR SLP161 DENSITY ALT 2800FT,2025-09-09T23:21:12Z,2025-09-09T19:21:12Z
CYBR,"Brandon Arpt, MB, CA",2025-09-10T01:00:00Z,2025-09-09T21:00:00Z,VFR,20,11,60,8,0,15,1015.7,METAR CYBR 100100Z 06008KT 15SM FEW060 FEW250 20/11 A2999 RMK CU1CI1 CU TR SLP166 DENSITY ALT 2100FT,2025-09-10T01:11:21Z,2025-09-09T21:11:21Z
CYBU,"Nipawin(AUTO), SK, CA",2025-09-10T01:00:00Z,2025-09-09T21:00:00Z,VFR,19,11,40,7,0,9,1014.6,METAR CYBU 100100Z AUTO 04007KT 9SM CLR 19/11 A2996 RMK SLP156 DENSITY ALT 2000FT,2025-09-10T01:11:21Z,2025-09-09T21:11:21Z
CYBW,"Calgary/Springbank Arpt, AB, CA",2025-09-10T01:00:00Z,2025-09-09T21:00:00Z,VFR,21,10,180,7,0,9,1012.3,METAR CYBW 100100Z AUTO 18007KT 9SM CLR 21/10 A2989 RMK SLP127 DENSITY ALT 5600FT,2025-09-10T01:11:21Z,2025-09-09T21:11:21Z
CYBX,"Blanc Sablon Arpt, QC, CA",2025-09-10T01:00:00Z,2025-09-09T21:00:00Z,VFR,7,7,50,4,0,15,1025.5,METAR CYBX 100100Z 05004KT 15SM SKC 07/07 A3028 RMK SLP256,2025-09-10T01:11:21Z,2025-09-09T21:11:21Z
CYCA,"Cartwright Arpt, NL, CA",2025-09-10T01:00:00Z,2025-09-09T21:00:00Z,VFR,9,5,210,5,0,9,1022.4,METAR CYCA 100100Z AUTO 21005KT 9SM CLR 09/05 A3019 RMK SLP227,2025-09-10T01:11:21Z,2025-09-09T21:11:21Z
CYCB,"Cambridge Bay Arpt, NU, CA",2025-09-10T01:00:00Z,2025-09-09T21:00:00Z,VFR,4,2,120,10,0,15,1011.9,METAR CYCB 100100Z 12010KT 15SM FEW006 FEW012 BKN220 04/02 A2988 RMK SF1SC1CI5 SF TR SLP122,2025-09-10T01:11:21Z,2025-09-09T21:11:21Z
CYCD,"Nanaimo Arpt, BC, CA",2025-09-09T15:00:00Z,2025-09-09T11:00:00Z,VFR,16,13,VAR,2,0,20,1014.6,METAR CYCD 091500Z VRB02KT 20SM BKN045 16/13 A2996 RMK SC7 SLP149,2025-09-09T15:51:26Z,2025-09-09T11:51:26Z
CYCD,"Nanaimo Arpt, BC, CA",2025-09-09T16:00:00Z,2025-09-09T12:00:00Z,VFR,17,14,20,6,0,20,1015,METAR CYCD 091600Z 02006KT 20SM FEW006 BKN046 17/14 A2997 RMK SF1SC7 SF TR SLP150 DENSITY ALT 300FT,2025-09-09T16:11:12Z,2025-09-09T12:11:12Z
CYCD,"Nanaimo Arpt, BC, CA",2025-09-09T17:00:00Z,2025-09-09T13:00:00Z,VFR,18,14,340,5,0,20,1015,METAR CYCD 091700Z 34005KT 330V040 20SM OVC047 18/14 A2997 RMK SC8 SLP150 DENSITY ALT 500FT,2025-09-09T17:12:45Z,2025-09-09T13:12:45Z
CYCD,"Nanaimo Arpt, BC, CA",2025-09-09T18:00:00Z,2025-09-09T14:00:00Z,VFR,21,14,360,8,0,20,1014.6,METAR CYCD 091800Z 36008KT 340V070 20SM FEW035 FEW046 SCT150 21/14 A2996 RMK SC1SC1AC1 SLP147 DENSITY ALT 800FT,2025-09-09T18:09:17Z,2025-09-09T14:09:17Z
CYCD,"Nanaimo Arpt, BC, CA",2025-09-09T19:00:00Z,2025-09-09T15:00:00Z,VFR,22,14,10,9,0,20,1014,METAR CYCD 091900Z 01009KT 20SM FEW040 FEW250 22/14 A2994 RMK CF1CI1 SLP142 DENSITY ALT 900FT,2025-09-09T19:20:46Z,2025-09-09T15:20:46Z
CYCD,"Nanaimo Arpt, BC, CA",2025-09-09T20:00:00Z,2025-09-09T16:00:00Z,VFR,21,14,30,8,0,20,1014,METAR CYCD 092000Z 03008KT 20SM FEW040 21/14 A2994 RMK SC2 SLP140 DENSITY ALT 900FT,2025-09-09T20:10:10Z,2025-09-09T16:10:10Z
CYCD,"Nanaimo Arpt, BC, CA",2025-09-09T21:00:00Z,2025-09-09T17:00:00Z,VFR,22,14,360,8,0,20,1013.6,METAR CYCD 092100Z 36008KT 20SM FEW040 22/14 A2993 RMK CU1 SLP139 DENSITY ALT 900FT,2025-09-09T21:12:38Z,2025-09-09T17:12:38Z
CYCD,"Nanaimo Arpt, BC, CA",2025-09-09T22:00:00Z,2025-09-09T18:00:00Z,VFR,22,14,40,5,0,20,1013.3,METAR CYCD 092200Z 04005KT 330V050 20SM FEW040 22/14 A2992 RMK CU1 SLP133 DENSITY ALT 1000FT,2025-09-09T22:20:11Z,2025-09-09T18:20:11Z
CYCD,"Nanaimo Arpt, BC, CA",2025-09-09T23:00:00Z,2025-09-09T19:00:00Z,VFR,23,14,10,3,0,20,1012.6,METAR CYCD 092300Z 01003KT 340V100 20SM FEW040 23/14 A2990 RMK CU1 CU TR SLP126 DENSITY ALT 1100FT,2025-09-09T23:21:13Z,2025-09-09T19:21:13Z
CYCD,"Nanaimo Arpt, BC, CA",2025-09-10T01:00:00Z,2025-09-09T21:00:00Z,VFR,22,14,20,5,0,20,1011.9,METAR CYCD 100100Z 02005KT 20SM FEW040 22/14 A2988 RMK CF1 SLP121 DENSITY ALT 1000FT,2025-09-10T01:11:21Z,2025-09-09T21:11:21Z
CYCG,"Castlegar Rgnl, BC, CA",2025-09-10T01:00:00Z,2025-09-09T21:00:00Z,VFR,25,11,10,5,0,15,1009.2,METAR CYCG 100100Z 01005KT 15SM FEW150 25/11 A2980 RMK AC1 CB TOP DIST E SLP090 DENSITY ALT 3300FT,2025-09-10T01:11:21Z,2025-09-09T21:11:21Z
CYCK,"Chatham/Kent Arpt, ON, CA",2025-09-09T15:00:00Z,2025-09-09T11:00:00Z,VFR,21,11,180,11,0,9,1024.8,METAR CYCK 091500Z AUTO 18011KT 9SM CLR 21/11 A3026 RMK SLP249 DENSITY ALT 1100FT,2025-09-09T15:51:27Z,2025-09-09T11:51:27Z
CYCK,"Chatham/Kent Arpt, ON, CA",2025-09-09T16:00:00Z,2025-09-09T12:00:00Z,VFR,21,9,220,8,0,9,1024.8,METAR CYCK 091600Z AUTO 22008KT 180V240 9SM CLR 21/09 A3026 RMK SLP249 DENSITY ALT 1200FT,2025-09-09T16:11:14Z,2025-09-09T12:11:14Z
CYCK,"Chatham/Kent Arpt, ON, CA",2025-09-09T17:00:00Z,2025-09-09T13:00:00Z,VFR,23,7,180,10,15,9,1024.1,METAR CYCK 091700Z AUTO 18010G15KT 150V230 9SM CLR 23/07 A3024 RMK SLP243 DENSITY ALT 1300FT,2025-09-09T17:12:49Z,2025-09-09T13:12:49Z
CYCK,"Chatham/Kent Arpt, ON, CA",2025-09-09T18:00:00Z,2025-09-09T14:00:00Z,VFR,22,6,180,8,0,9,1023.8,METAR CYCK 091800Z AUTO 18008KT 9SM CLR 22/06 A3023 RMK SLP239 DENSITY ALT 1300FT,2025-09-09T18:09:19Z,2025-09-09T14:09:19Z
CYCK,"Chatham/Kent Arpt, ON, CA",2025-09-09T19:00:00Z,2025-09-09T15:00:00Z,VFR,23,6,170,10,0,9,1023.1,METAR CYCK 091900Z AUTO 17010KT 130V210 9SM CLR 23/06 A3021 RMK SLP234 DENSITY ALT 1400FT,2025-09-09T19:20:52Z,2025-09-09T15:20:52Z
CYCK,"Chatham/Kent Arpt, ON, CA",2025-09-09T20:00:00Z,2025-09-09T16:00:00Z,VFR,22,7,160,5,0,9,1022.8,METAR CYCK 092000Z AUTO 16005KT 130V210 9SM CLR 22/07 A3020 RMK SLP227 DENSITY ALT 1400FT,2025-09-09T20:10:12Z,2025-09-09T16:10:12Z
CYCK,"Chatham/Kent Arpt, ON, CA",2025-09-09T21:00:00Z,2025-09-09T17:00:00Z,VFR,22,7,150,5,0,9,1022.1,METAR CYCK 092100Z AUTO 15005KT 100V180 9SM CLR 22/07 A3018 RMK SLP223 DENSITY ALT 1400FT,2025-09-09T21:12:40Z,2025-09-09T17:12:40Z
CYCK,"Chatham/Kent Arpt, ON, CA",2025-09-09T22:00:00Z,2025-09-09T18:00:00Z,VFR,21,10,130,6,0,9,1022.1,METAR CYCK 092200Z AUTO 13006KT 9SM CLR 21/10 A3018 RMK SLP224 DENSITY ALT 1200FT,2025-09-09T22:20:13Z,2025-09-09T18:20:13Z
CYCK,"Chatham/Kent Arpt, ON, CA",2025-09-09T23:00:00Z,2025-09-09T19:00:00Z,VFR,19,11,100,7,0,9,1022.1,METAR CYCK 092300Z AUTO 10007KT 9SM CLR 19/11 A3018 RMK SLP221 DENSITY ALT 1000FT,2025-09-09T23:21:15Z,2025-09-09T19:21:15Z
CYCK,"Chatham/Kent Arpt, ON, CA",2025-09-10T01:00:00Z,2025-09-09T21:00:00Z,VFR,15,10,100,5,0,9,1021.8,METAR CYCK 100100Z AUTO 10005KT 9SM CLR 15/10 A3017 RMK SLP219,2025-09-10T01:11:21Z,2025-09-09T21:11:21Z
CYCO,"Coppermine/Kugluktuk Arpt, NU, CA",2025-09-09T15:00:00Z,2025-09-09T11:00:00Z,MVFR,6,5,230,2,0,5,1008.5,METAR CYCO 091500Z 23002KT 5SM FU BKN035 06/05 A2978 RMK FU5 SLP087,2025-09-09T15:51:26Z,2025-09-09T11:51:26Z
CYCO,"Coppermine/Kugluktuk Arpt, NU, CA",2025-09-09T16:07:00Z,2025-09-09T12:07:00Z,VFR,9,7,320,3,0,6,1008.2,SPECI CYCO 091607Z 32003KT 200V350 6SM FU BKN210 09/07 A2977 RMK CS7 SLP084,2025-09-09T16:11:12Z,2025-09-09T12:11:12Z
CYCO,"Coppermine/Kugluktuk Arpt, NU, CA",2025-09-09T17:00:00Z,2025-09-09T13:00:00Z,MVFR,10,7,350,4,0,5,1007.9,METAR CYCO 091700Z 35004KT 5SM FU FEW160 BKN210 10/07 A2976 RMK AS1CS5 SLP082,2025-09-09T17:12:45Z,2025-09-09T13:12:45Z
CYCO,"Coppermine/Kugluktuk Arpt, NU, CA",2025-09-09T18:00:00Z,2025-09-09T14:00:00Z,MVFR,11,7,20,4,0,5,1007.9,METAR CYCO 091800Z 02004KT 5SM FU FEW160 SCT210 11/07 A2976 RMK AS1CS2 SLP080,2025-09-09T18:09:17Z,2025-09-09T14:09:17Z
CYCO,"Coppermine/Kugluktuk Arpt, NU, CA",2025-09-09T19:00:00Z,2025-09-09T15:00:00Z,VFR,12,8,50,5,0,6,1007.5,METAR CYCO 091900Z 05005KT 6SM FU FEW160 BKN210 12/08 A2975 RMK AC1CS4 SLP078,2025-09-09T19:20:46Z,2025-09-09T15:20:46Z
CYCO,"Coppermine/Kugluktuk Arpt, NU, CA",2025-09-09T20:00:00Z,2025-09-09T16:00:00Z,MVFR,12,8,70,9,0,5,1007.2,METAR CYCO 092000Z 07009KT 5SM FU FEW160 BKN210 12/08 A2974 RMK AC1CS6 SLP073,2025-09-09T20:10:11Z,2025-09-09T16:10:11Z
CYCO,"Coppermine/Kugluktuk Arpt, NU, CA",2025-09-09T21:00:00Z,2025-09-09T17:00:00Z,VFR,11,7,70,12,0,6,1006.9,METAR CYCO 092100Z 07012KT 6SM FU BKN200 11/07 A2973 RMK CS6 SLP070,2025-09-09T21:12:38Z,2025-09-09T17:12:38Z
CYCO,"Coppermine/Kugluktuk Arpt, NU, CA",2025-09-09T22:00:00Z,2025-09-09T18:00:00Z,VFR,11,7,80,13,0,6,1006.5,METAR CYCO 092200Z 08013KT 6SM FU FEW150 BKN210 11/07 A2972 RMK AC1CS5 SLP066,2025-09-09T22:20:11Z,2025-09-09T18:20:11Z
CYCO,"Coppermine/Kugluktuk Arpt, NU, CA",2025-09-09T23:00:00Z,2025-09-09T19:00:00Z,VFR,9,6,90,14,0,6,1005.8,METAR CYCO 092300Z 09014KT 6SM FU FEW180 BKN210 09/06 A2970 RMK AC2CI5 SLP062,2025-09-09T23:21:13Z,2025-09-09T19:21:13Z
CYCO,"Coppermine/Kugluktuk Arpt, NU, CA",2025-09-10T01:00:00Z,2025-09-09T21:00:00Z,VFR,10,7,90,11,0,NA,1005.8,METAR CYCO 100100Z 09011KT 10SM FEW160 BKN230 10/07 A2970 RMK AC2CI5 FU SLP061,2025-09-10T01:11:21Z,2025-09-09T21:11:21Z
CYCP,"Blue River Arpt, BC, CA",2025-09-10T01:00:00Z,2025-09-09T21:00:00Z,VFR,19,15,0,0,0,15,1011.9,METAR CYCP 100100Z 00000KT 15SM FEW095TCU SCT140 BKN210 19/15 A2988 RMK TCU1AC2CI3 HZ ALQDS LAST STFD OBS/NXT 101300Z SLP123 DENSITY ALT 3400FT,2025-09-10T01:11:21Z,2025-09-09T21:11:21Z
CYCQ,"Chetwynd Arpt, BC, CA",2025-09-10T01:00:00Z,2025-09-09T21:00:00Z,VFR,23,6,230,12,0,35,1008.2,METAR CYCQ 100100Z 23012KT 35SM FEW060 FEW130 SCT250 23/06 A2977 RMK CU1AC1CI3 CU TR FU DIST W LAST STFD OBS/NXT 101300Z SLP090 DENSITY ALT 3600FT,2025-09-10T01:11:21Z,2025-09-09T21:11:21Z
CYCX,"Gagetown (MIL), NB, CA",2025-09-10T01:00:00Z,2025-09-09T21:00:00Z,VFR,13,8,190,5,0,15,1028.5,METAR CYCX 100100Z 19005KT 15SM FEW250 13/08 A3037 RMK CI1 DENSITY ALT -365FT SLP285,2025-09-10T01:11:21Z,2025-09-09T21:11:21Z
CYCY,"Cylde River Arpt, NU, CA",2025-09-10T01:00:00Z,2025-09-09T21:00:00Z,VFR,2,-3,270,9,0,9,1007.2,METAR CYCY 100100Z AUTO 27009KT 9SM CLR 02/M03 A2974 RMK SLP075,2025-09-10T01:11:21Z,2025-09-09T21:11:21Z
CYDA,"Dawson Arpt, YT, CA",2025-09-10T01:00:00Z,2025-09-09T21:00:00Z,VFR,14,10,VAR,2,0,20,1006.9,METAR CYDA 100100Z VRB02KT 20SM FEW015 BKN230 14/10 A2973 RMK ST1CI5 ST TR SLP083 DENSITY ALT 1700FT,2025-09-10T01:11:21Z,2025-09-09T21:11:21Z
CYDB,"Burwash Arpt, YT, CA",2025-09-10T01:00:00Z,2025-09-09T21:00:00Z,VFR,15,3,120,17,23,15,1005.2,METAR CYDB 100100Z 12017G23KT 15SM SCT200 15/03 A2968 RMK CI4 LAST STFD OBS/NEXT 10 1300Z SLP080 DENSITY ALT 3600FT,2025-09-10T01:11:21Z,2025-09-09T21:11:21Z
CYDC,"Princeton Arpt, BC, CA",2025-09-10T01:00:00Z,2025-09-09T21:00:00Z,VFR,21,9,0,0,0,20,1012.3,METAR CYDC 100100Z CCA 00000KT 20SM FEW050 FEW064 SCT082 BKN110 21/09 A2989 RMK FU1SC1AC2AS2 FU LAST STFD OBS/NEXT 10 1300Z SLP117 DENSITY ALT 3600FT,2025-09-10T01:11:21Z,2025-09-09T21:11:21Z
CYDF,"Deer Lake Arpt, NL, CA",2025-09-09T15:00:00Z,2025-09-09T11:00:00Z,VFR,18,5,240,14,19,15,1025.1,METAR CYDF 091500Z 24014G19KT 220V280 15SM FEW050 SCT250 18/05 A3027 RMK CU2CI1 SLP254,2025-09-09T15:51:26Z,2025-09-09T11:51:26Z
CYDF,"Deer Lake Arpt, NL, CA",2025-09-09T16:00:00Z,2025-09-09T12:00:00Z,VFR,18,5,240,15,22,15,1025.1,METAR CYDF 091600Z 24015G22KT 220V290 15SM SCT056 SCT250 18/05 A3027 RMK CU3CI1 SLP254,2025-09-09T16:11:12Z,2025-09-09T12:11:12Z
CYDF,"Deer Lake Arpt, NL, CA",2025-09-09T17:00:00Z,2025-09-09T13:00:00Z,VFR,18,4,250,13,20,15,1025.8,METAR CYDF 091700Z 25013G20KT 15SM BKN052 18/04 A3029 RMK CU5 SLP258,2025-09-09T17:12:45Z,2025-09-09T13:12:45Z
CYDF,"Deer Lake Arpt, NL, CA",2025-09-09T18:00:00Z,2025-09-09T14:00:00Z,VFR,18,4,260,15,21,15,1025.8,METAR CYDF 091800Z 26015G21KT 15SM SCT056 SCT250 18/04 A3029 RMK CU3CI1 SLP260,2025-09-09T18:09:17Z,2025-09-09T14:09:17Z
CYDF,"Deer Lake Arpt, NL, CA",2025-09-09T19:00:00Z,2025-09-09T15:00:00Z,VFR,17,6,260,11,22,15,1026.5,METAR CYDF 091900Z 26011G22KT 15SM SCT056 SCT250 17/06 A3031 RMK CU3CI1 CI TR SLP265,2025-09-09T19:20:46Z,2025-09-09T15:20:46Z
CYDF,"Deer Lake Arpt, NL, CA",2025-09-09T20:00:00Z,2025-09-09T16:00:00Z,VFR,16,4,270,12,21,15,1026.5,METAR CYDF 092000Z 27012G21KT 15SM FEW056 SCT250 16/04 A3031 RMK CU2CI1 SLP267,2025-09-09T20:10:11Z,2025-09-09T16:10:11Z
CYDF,"Deer Lake Arpt, NL, CA",2025-09-09T21:00:00Z,2025-09-09T17:00:00Z,VFR,15,6,250,10,19,15,1026.8,METAR CYDF 092100Z 25010G19KT 15SM FEW056 FEW250 15/06 A3032 RMK CU1CI1 SLP271,2025-09-09T21:12:38Z,2025-09-09T17:12:38Z
CYDF,"Deer Lake Arpt, NL, CA",2025-09-09T22:00:00Z,2025-09-09T18:00:00Z,VFR,14,7,240,4,0,15,1027.5,METAR CYDF 092200Z 24004KT 15SM FEW056 FEW250 14/07 A3034 RMK CF1CI1 CF TR SLP275,2025-09-09T22:20:11Z,2025-09-09T18:20:11Z
CYDF,"Deer Lake Arpt, NL, CA",2025-09-09T23:00:00Z,2025-09-09T19:00:00Z,VFR,10,7,220,4,0,15,1027.9,METAR CYDF 092300Z 22004KT 15SM FEW056 FEW250 10/07 A3035 RMK CF1CI1 SLP280,2025-09-09T23:21:13Z,2025-09-09T19:21:13Z
CYDF,"Deer Lake Arpt, NL, CA",2025-09-10T01:00:00Z,2025-09-09T21:00:00Z,VFR,8,6,220,3,0,15,1028.2,METAR CYDF 100100Z 22003KT 190V310 15SM FEW250 08/06 A3036 RMK CI2 SLP283,2025-09-10T01:11:21Z,2025-09-09T21:11:21Z
CYDL,"Dease Lake Arpt, BC, CA",2025-09-10T01:00:00Z,2025-09-09T21:00:00Z,VFR,18,4,220,8,0,9,1013,METAR CYDL 100100Z AUTO 22008KT 200V310 9SM CLR 18/04 A2991 RMK SLP135 DENSITY ALT 3600FT,2025-09-10T01:11:21Z,2025-09-09T21:11:21Z
CYDN,"Dauphin Arpt, MB, CA",2025-09-10T01:00:00Z,2025-09-09T21:00:00Z,VFR,16,12,100,5,0,9,1016,METAR CYDN 100100Z AUTO 10005KT 9SM CLR 16/12 A3000 RMK SLP167 DENSITY ALT 1400FT,2025-09-10T01:11:21Z,2025-09-09T21:11:21Z
CYDP,"Nain Arpt, NL, CA",2025-09-09T15:00:00Z,2025-09-09T11:00:00Z,VFR,12,3,290,13,18,15,1016.3,METAR CYDP 091500Z 29013G18KT 15SM SCT048 SCT060 12/03 A3001 RMK SC3CF1 CF TR SLP164,2025-09-09T15:51:26Z,2025-09-09T11:51:26Z
CYDP,"Nain Arpt, NL, CA",2025-09-09T16:00:00Z,2025-09-09T12:00:00Z,VFR,12,2,300,17,25,15,1016.7,METAR CYDP 091600Z 30017G25KT 15SM BKN051 12/02 A3002 RMK SC5 SLP167,2025-09-09T16:11:12Z,2025-09-09T12:11:12Z
CYDP,"Nain Arpt, NL, CA",2025-09-09T17:00:00Z,2025-09-09T13:00:00Z,VFR,13,2,290,19,25,15,1016.7,METAR CYDP 091700Z 29019G25KT 15SM SCT051 13/02 A3002 RMK SC4 SLP169,2025-09-09T17:12:45Z,2025-09-09T13:12:45Z
CYDP,"Nain Arpt, NL, CA",2025-09-09T18:00:00Z,2025-09-09T14:00:00Z,VFR,13,2,300,18,26,15,1016.7,METAR CYDP 091800Z 30018G26KT 15SM FEW054 13/02 A3002 RMK SC3 SLP169,2025-09-09T18:09:17Z,2025-09-09T14:09:17Z
CYDP,"Nain Arpt, NL, CA",2025-09-09T18:00:00Z,2025-09-09T14:00:00Z,VFR,13,2,300,18,26,15,1016.7,METAR CYDP 091800Z CCA 30018G26KT 15SM SCT054 13/02 A3002 RMK SC3 SLP169,2025-09-09T19:00:51Z,2025-09-09T15:00:51Z
CYDP,"Nain Arpt, NL, CA",2025-09-09T19:00:00Z,2025-09-09T15:00:00Z,VFR,12,3,310,15,20,15,1017,METAR CYDP 091900Z 31015G20KT 15SM SCT054 12/03 A3003 RMK SC3 SLP173,2025-09-09T19:20:46Z,2025-09-09T15:20:46Z
CYDP,"Nain Arpt, NL, CA",2025-09-09T20:00:00Z,2025-09-09T16:00:00Z,VFR,13,2,290,14,0,15,1017,METAR CYDP 092000Z 29014KT 15SM BKN054 13/02 A3003 RMK SC6 SLP173,2025-09-09T20:10:11Z,2025-09-09T16:10:11Z
CYDP,"Nain Arpt, NL, CA",2025-09-09T21:00:00Z,2025-09-09T17:00:00Z,VFR,12,3,290,8,0,15,1017.4,METAR CYDP 092100Z 29008KT 15SM FEW056 12/03 A3004 RMK SC2 SLP175,2025-09-09T21:12:38Z,2025-09-09T17:12:38Z
CYDP,"Nain Arpt, NL, CA",2025-09-09T22:00:00Z,2025-09-09T18:00:00Z,VFR,11,4,250,6,0,15,1017.7,METAR CYDP 092200Z 25006KT 15SM FEW056 11/04 A3005 RMK SC2 SLP178,2025-09-09T22:20:11Z,2025-09-09T18:20:11Z
CYDP,"Nain Arpt, NL, CA",2025-09-09T23:00:00Z,2025-09-09T19:00:00Z,VFR,10,3,260,5,0,15,1018,METAR CYDP 092300Z 26005KT 15SM FEW056 10/03 A3006 RMK SC1 LAST STAFFED OB/ NEXT 100800 SLP182,2025-09-09T23:21:13Z,2025-09-09T19:21:13Z
CYDQ,"Dawson Creek Arpt, BC, CA",2025-09-09T15:00:00Z,2025-09-09T11:00:00Z,VFR,18,6,120,5,0,9,1008.9,METAR CYDQ 091500Z AUTO 12005KT 100V170 9SM CLR 18/06 A2979 RMK SLP091 DENSITY ALT 3100FT,2025-09-09T15:51:27Z,2025-09-09T11:51:27Z
CYDQ,"Dawson Creek Arpt, BC, CA",2025-09-09T16:00:00Z,2025-09-09T12:00:00Z,VFR,21,6,240,6,0,9,1008.5,METAR CYDQ 091600Z AUTO 24006KT 190V320 9SM CLR 21/06 A2978 RMK SLP089 DENSITY ALT 3500FT,2025-09-09T16:11:14Z,2025-09-09T12:11:14Z
CYDQ,"Dawson Creek Arpt, BC, CA",2025-09-09T17:00:00Z,2025-09-09T13:00:00Z,VFR,22,6,260,11,0,9,1008.9,METAR CYDQ 091700Z AUTO 26011KT 9SM CLR 22/06 A2979 RMK SLP091 DENSITY ALT 3700FT,2025-09-09T17:12:49Z,2025-09-09T13:12:49Z
CYDQ,"Dawson Creek Arpt, BC, CA",2025-09-09T18:00:00Z,2025-09-09T14:00:00Z,VFR,24,4,270,16,21,9,1008.9,METAR CYDQ 091800Z AUTO 27016G21KT 9SM CLR 24/04 A2979 RMK SLP092 DENSITY ALT 3800FT,2025-09-09T18:09:19Z,2025-09-09T14:09:19Z
CYDQ,"Dawson Creek Arpt, BC, CA",2025-09-09T19:00:00Z,2025-09-09T15:00:00Z,VFR,23,5,270,17,0,9,1009.2,METAR CYDQ 091900Z AUTO 27017KT 9SM CLR 23/05 A2980 RMK SLP095 DENSITY ALT 3800FT,2025-09-09T19:20:52Z,2025-09-09T15:20:52Z
CYDQ,"Dawson Creek Arpt, BC, CA",2025-09-09T20:00:00Z,2025-09-09T16:00:00Z,VFR,24,6,260,13,0,9,1008.9,METAR CYDQ 092000Z AUTO 26013KT 9SM CLR 24/06 A2979 RMK SLP095 DENSITY ALT 3900FT,2025-09-09T20:10:12Z,2025-09-09T16:10:12Z
CYDQ,"Dawson Creek Arpt, BC, CA",2025-09-09T21:00:00Z,2025-09-09T17:00:00Z,VFR,24,5,280,7,16,9,1008.9,METAR CYDQ 092100Z AUTO 28007G16KT 9SM CLR 24/05 A2979 RMK SLP092 DENSITY ALT 3900FT,2025-09-09T21:12:40Z,2025-09-09T17:12:40Z
CYDQ,"Dawson Creek Arpt, BC, CA",2025-09-09T21:36:00Z,2025-09-09T17:36:00Z,VFR,24,5,220,11,0,9,1008.5,SPECI CYDQ 092136Z AUTO 22011KT 9SM CLR 24/05 A2978 RMK WSHFT AT 2121Z SLP090 DENSITY ALT 3900FT,2025-09-09T21:39:37Z,2025-09-09T17:39:37Z
CYDQ,"Dawson Creek Arpt, BC, CA",2025-09-09T22:00:00Z,2025-09-09T18:00:00Z,VFR,25,4,270,11,0,9,1008.5,METAR CYDQ 092200Z AUTO 27011KT 9SM CLR 25/04 A2978 RMK SLP088 DENSITY ALT 4000FT,2025-09-09T22:20:13Z,2025-09-09T18:20:13Z
CYDQ,"Dawson Creek Arpt, BC, CA",2025-09-09T23:00:00Z,2025-09-09T19:00:00Z,VFR,25,4,270,6,0,9,1008.2,METAR CYDQ 092300Z AUTO 27006KT 9SM CLR 25/04 A2977 RMK SLP084 DENSITY ALT 4000FT,2025-09-09T23:21:15Z,2025-09-09T19:21:15Z
CYDQ,"Dawson Creek Arpt, BC, CA",2025-09-10T01:00:00Z,2025-09-09T21:00:00Z,VFR,24,4,300,5,0,9,1007.9,METAR CYDQ 100100Z AUTO 30005KT 9SM CLR 24/04 A2976 RMK SLP079 DENSITY ALT 4000FT,2025-09-10T01:11:21Z,2025-09-09T21:11:21Z
CYEG,"Edmonton Intl Arpt, AB, CA",2025-09-09T15:32:00Z,2025-09-09T11:32:00Z,VFR,16,11,160,4,0,8,1011.9,SPECI CYEG 091532Z 16004KT 8SM SKC 16/11 A2988 RMK FU SLP125 DENSITY ALT 3100FT,2025-09-09T15:51:24Z,2025-09-09T11:51:24Z
CYEG,"Edmonton Intl Arpt, AB, CA",2025-09-09T16:00:00Z,2025-09-09T12:00:00Z,VFR,17,11,180,6,0,8,1011.9,METAR CYEG 091600Z 18006KT 8SM SKC 17/11 A2988 RMK FU SLP124 DENSITY ALT 3200FT,2025-09-09T16:11:11Z,2025-09-09T12:11:11Z
CYEG,"Edmonton Intl Arpt, AB, CA",2025-09-09T17:00:00Z,2025-09-09T13:00:00Z,VFR,20,11,170,7,0,8,1011.9,METAR CYEG 091700Z 17007KT 8SM SKC 20/11 A2988 RMK FU SLP122 DENSITY ALT 3600FT,2025-09-09T17:12:43Z,2025-09-09T13:12:43Z
CYEG,"Edmonton Intl Arpt, AB, CA",2025-09-09T18:00:00Z,2025-09-09T14:00:00Z,VFR,22,11,150,8,0,8,1011.3,METAR CYEG 091800Z 15008KT 8SM SKC 22/11 A2986 RMK FU SLP115 DENSITY ALT 3900FT,2025-09-09T18:09:15Z,2025-09-09T14:09:15Z
CYEG,"Edmonton Intl Arpt, AB, CA",2025-09-09T19:00:00Z,2025-09-09T15:00:00Z,VFR,24,11,180,10,0,8,1010.9,METAR CYEG 091900Z 18010KT 140V210 8SM SKC 24/11 A2985 RMK FU SLP112 DENSITY ALT 4100FT,2025-09-09T19:20:43Z,2025-09-09T15:20:43Z
CYEG,"Edmonton Intl Arpt, AB, CA",2025-09-09T19:22:00Z,2025-09-09T15:22:00Z,VFR,30,11,150,8,0,8,1010.9,SPECI CYEG 091922Z 15008KT 130V210 8SM SKC 30/11 A2985 RMK FU SLP106 DENSITY ALT 4700FT,2025-09-09T19:30:34Z,2025-09-09T15:30:34Z
CYEG,"Edmonton Intl Arpt, AB, CA",2025-09-09T20:00:00Z,2025-09-09T16:00:00Z,VFR,26,11,170,10,0,NA,1010.6,METAR CYEG 092000Z 17010KT 10SM SKC 26/11 A2984 RMK FU SLP106 DENSITY ALT 4300FT,2025-09-09T20:10:07Z,2025-09-09T16:10:07Z
CYEG,"Edmonton Intl Arpt, AB, CA",2025-09-09T21:00:00Z,2025-09-09T17:00:00Z,VFR,28,9,180,13,0,NA,1009.9,METAR CYEG 092100Z 18013KT 170V230 10SM SKC 28/09 A2982 RMK FU SLP100 DENSITY ALT 4500FT,2025-09-09T21:12:35Z,2025-09-09T17:12:35Z
CYEG,"Edmonton Intl Arpt, AB, CA",2025-09-09T22:00:00Z,2025-09-09T18:00:00Z,VFR,27,10,230,11,18,NA,1009.9,METAR CYEG 092200Z 23011G18KT 10SM SKC 27/10 A2982 RMK FU SLP099 DENSITY ALT 4500FT,2025-09-09T22:20:10Z,2025-09-09T18:20:10Z
CYEG,"Edmonton Intl Arpt, AB, CA",2025-09-09T23:00:00Z,2025-09-09T19:00:00Z,VFR,27,10,210,9,0,NA,1009.6,METAR CYEG 092300Z 21009KT 10SM SKC 27/10 A2981 RMK FU SLP097 DENSITY ALT 4400FT,2025-09-09T23:21:12Z,2025-09-09T19:21:12Z
CYEG,"Edmonton Intl Arpt, AB, CA",2025-09-10T01:00:00Z,2025-09-09T21:00:00Z,VFR,24,12,280,6,0,8,1009.6,METAR CYEG 100100Z 28006KT 8SM FEW250 24/12 A2981 RMK CI1 FU SLP099 DENSITY ALT 4100FT,2025-09-10T01:11:21Z,2025-09-09T21:11:21Z
CYEK,"Arviat/Eskimo Pt Arpt, NU, CA",2025-09-10T01:00:00Z,2025-09-09T21:00:00Z,VFR,6,5,190,8,0,9,1018,METAR CYEK 100100Z AUTO 19008KT 9SM CLR 06/05 A3006 RMK SLP183,2025-09-10T01:11:21Z,2025-09-09T21:11:21Z
CYEN,"Estevan Arpt, SK, CA",2025-09-10T01:00:00Z,2025-09-09T21:00:00Z,VFR,23,8,90,5,0,9,1014.6,METAR CYEN 100100Z AUTO 09005KT 9SM CLR 23/08 A2996 RMK SLP155 DENSITY ALT 3200FT,2025-09-10T01:11:21Z,2025-09-09T21:11:21Z
CYER,"Ft Severn Arpt, ON, CA",2025-09-09T15:00:00Z,2025-09-09T11:00:00Z,MVFR,7,7,30,8,0,9,1015.3,METAR CYER 091500Z AUTO 03008KT 9SM BKN013 OVC022 07/07 A2998 RMK SLP156,2025-09-09T15:51:24Z,2025-09-09T11:51:24Z
CYER,"Ft Severn Arpt, ON, CA",2025-09-09T16:00:00Z,2025-09-09T12:00:00Z,MVFR,9,6,40,7,0,9,1015.7,METAR CYER 091600Z AUTO 04007KT 360V060 9SM BKN015 OVC024 09/06 A2999 RMK SLP159,2025-09-09T16:11:11Z,2025-09-09T12:11:11Z
CYER,"Ft Severn Arpt, ON, CA",2025-09-09T16:25:00Z,2025-09-09T12:25:00Z,MVFR,9,5,20,8,0,9,1016,SPECI CYER 091625Z AUTO 02008KT 9SM SCT017 BKN028 BKN250 09/05 A3000 RMK SLP161,2025-09-09T16:36:21Z,2025-09-09T12:36:21Z
CYER,"Ft Severn Arpt, ON, CA",2025-09-09T16:37:00Z,2025-09-09T12:37:00Z,MVFR,9,5,40,6,0,9,1016,SPECI CYER 091637Z AUTO 04006KT 9SM FEW016 BKN021 BKN028 BKN240 09/05 A3000 RMK SLP162,2025-09-09T16:53:58Z,2025-09-09T12:53:58Z
CYER,"Ft Severn Arpt, ON, CA",2025-09-09T17:00:00Z,2025-09-09T13:00:00Z,MVFR,9,5,10,6,0,9,1016,METAR CYER 091700Z AUTO 01006KT 350V070 9SM OVC019 09/05 A3000 RMK SLP163,2025-09-09T17:12:43Z,2025-09-09T13:12:43Z
CYER,"Ft Severn Arpt, ON, CA",2025-09-09T18:00:00Z,2025-09-09T14:00:00Z,MVFR,9,5,20,6,0,9,1016.7,METAR CYER 091800Z AUTO 02006KT 360V070 9SM OVC025 09/05 A3002 RMK SLP168,2025-09-09T18:09:15Z,2025-09-09T14:09:15Z
CYER,"Ft Severn Arpt, ON, CA",2025-09-09T19:00:00Z,2025-09-09T15:00:00Z,VFR,9,5,30,8,0,9,1017,METAR CYER 091900Z AUTO 03008KT 9SM FEW022 SCT028 OVC037 09/05 A3003 RMK SLP173,2025-09-09T19:20:43Z,2025-09-09T15:20:43Z
CYER,"Ft Severn Arpt, ON, CA",2025-09-09T20:00:00Z,2025-09-09T16:00:00Z,VFR,9,3,40,7,0,9,1017.4,METAR CYER 092000Z AUTO 04007KT 9SM OVC060 09/03 A3004 RMK SLP176,2025-09-09T20:10:07Z,2025-09-09T16:10:07Z
CYER,"Ft Severn Arpt, ON, CA",2025-09-09T21:00:00Z,2025-09-09T17:00:00Z,VFR,8,3,30,6,0,9,1017.7,METAR CYER 092100Z AUTO 03006KT 9SM FEW042 OVC066 08/03 A3005 RMK SLP180,2025-09-09T21:12:35Z,2025-09-09T17:12:35Z
CYER,"Ft Severn Arpt, ON, CA",2025-09-09T22:00:00Z,2025-09-09T18:00:00Z,VFR,8,3,20,6,0,9,1018.4,METAR CYER 092200Z AUTO 02006KT 9SM SCT048 BKN060 OVC075 08/03 A3007 RMK SLP185,2025-09-09T22:20:10Z,2025-09-09T18:20:10Z
CYER,"Ft Severn Arpt, ON, CA",2025-09-09T23:00:00Z,2025-09-09T19:00:00Z,VFR,8,4,30,5,0,9,1018.7,METAR CYER 092300Z AUTO 03005KT 9SM SCT055 OVC073 08/04 A3008 RMK SLP189,2025-09-09T23:21:12Z,2025-09-09T19:21:12Z
CYER,"Ft Severn Arpt, ON, CA",2025-09-10T01:00:00Z,2025-09-09T21:00:00Z,VFR,6,4,340,3,0,9,1019.7,METAR CYER 100100Z AUTO 34003KT 9SM OVC081 06/04 A3011 RMK SLP199,2025-09-10T01:11:21Z,2025-09-09T21:11:21Z
CYET,"Edson Arpt, AB, CA",2025-09-10T00:16:00Z,2025-09-09T20:16:00Z,VFR,23,11,350,9,15,9,1010.2,SPECI CYET 100016Z AUTO 35009G15KT 9SM OVC066 23/11 A2983 RMK LTNG DIST N NE SLP103 DENSITY ALT 4800FT,2025-09-10T00:33:13Z,2025-09-09T20:33:13Z
CYET,"Edson Arpt, AB, CA",2025-09-10T01:00:00Z,2025-09-09T21:00:00Z,VFR,22,11,350,4,0,9,1010.6,METAR CYET 100100Z AUTO 35004KT 9SM CLR 22/11 A2984 RMK LTNG DIST NE SLP105 DENSITY ALT 4700FT,2025-09-10T01:11:21Z,2025-09-09T21:11:21Z
CYEV,"Inuvik/Zubko Arpt, NT, CA",2025-09-10T01:00:00Z,2025-09-09T21:00:00Z,VFR,11,8,310,7,0,15,1007.9,METAR CYEV 100100Z 31007KT 290V350 15SM FEW045 BKN058 BKN250 11/08 A2976 RMK CU1SC6CI1 CU TR CI TR SLP084,2025-09-10T01:11:21Z,2025-09-09T21:11:21Z
CYFB,"Iqaluit Arpt, NU, CA",2025-09-09T15:00:00Z,2025-09-09T11:00:00Z,MVFR,7,3,320,16,21,30,1009.9,METAR CYFB 091500Z 32016G21KT 30SM OVC015 07/03 A2982 RMK SC8 SLP103,2025-09-09T15:51:26Z,2025-09-09T11:51:26Z
CYFB,"Iqaluit Arpt, NU, CA",2025-09-09T16:00:00Z,2025-09-09T12:00:00Z,MVFR,7,4,320,11,18,30,1009.9,METAR CYFB 091600Z 32011G18KT 30SM BKN018 07/04 A2982 RMK SC7 SLP102,2025-09-09T16:11:12Z,2025-09-09T12:11:12Z
CYFB,"Iqaluit Arpt, NU, CA",2025-09-09T17:00:00Z,2025-09-09T13:00:00Z,MVFR,8,3,320,15,21,30,1009.9,METAR CYFB 091700Z 32015G21KT 30SM BKN024 08/03 A2982 RMK SC7 CVCTV CLD EMBD SLP103,2025-09-09T17:12:45Z,2025-09-09T13:12:45Z
CYFB,"Iqaluit Arpt, NU, CA",2025-09-09T18:00:00Z,2025-09-09T14:00:00Z,MVFR,8,3,320,15,0,30,1010.2,METAR CYFB 091800Z 32015KT 30SM BKN022 08/03 A2983 RMK SC7 SLP105,2025-09-09T18:09:17Z,2025-09-09T14:09:17Z
CYFB,"Iqaluit Arpt, NU, CA",2025-09-09T19:00:00Z,2025-09-09T15:00:00Z,MVFR,8,3,330,18,0,30,1010.6,METAR CYFB 091900Z 33018KT 30SM OVC024 08/03 A2984 RMK SC8 SLP107,2025-09-09T19:20:46Z,2025-09-09T15:20:46Z
CYFB,"Iqaluit Arpt, NU, CA",2025-09-09T20:00:00Z,2025-09-09T16:00:00Z,MVFR,8,3,330,15,20,30,1010.6,METAR CYFB 092000Z 33015G20KT 30SM OVC024 08/03 A2984 RMK SC8 SLP110,2025-09-09T20:10:10Z,2025-09-09T16:10:10Z
CYFB,"Iqaluit Arpt, NU, CA",2025-09-09T21:00:00Z,2025-09-09T17:00:00Z,VFR,8,2,310,14,0,30,1010.6,METAR CYFB 092100Z 31014KT 30SM OVC038 08/02 A2984 RMK SC8 CIG RAG SLP110,2025-09-09T21:12:38Z,2025-09-09T17:12:38Z
CYFB,"Iqaluit Arpt, NU, CA",2025-09-09T22:00:00Z,2025-09-09T18:00:00Z,VFR,7,2,330,12,0,30,1010.9,METAR CYFB 092200Z 33012KT 30SM BKN041 07/02 A2985 RMK SC7 CIG RAG SLP113,2025-09-09T22:20:11Z,2025-09-09T18:20:11Z
CYFB,"Iqaluit Arpt, NU, CA",2025-09-09T23:00:00Z,2025-09-09T19:00:00Z,VFR,6,2,330,7,0,30,1011.3,METAR CYFB 092300Z 33007KT 30SM BKN036 06/02 A2986 RMK SC5 SLP116,2025-09-09T23:21:13Z,2025-09-09T19:21:13Z
CYFB,"Iqaluit Arpt, NU, CA",2025-09-10T01:00:00Z,2025-09-09T21:00:00Z,VFR,3,1,300,4,0,15,1012.3,METAR CYFB 100100Z 30004KT 15SM SCT035 03/01 A2989 RMK SC4 SLP124,2025-09-10T01:11:21Z,2025-09-09T21:11:21Z
CYFC,"Fredericton Intl, NB, CA",2025-09-09T15:00:00Z,2025-09-09T11:00:00Z,VFR,17,9,210,3,0,9,1029.5,METAR CYFC 091500Z AUTO 21003KT 130V230 9SM CLR 17/09 A3040 RMK SLP299,2025-09-09T15:51:26Z,2025-09-09T11:51:26Z
CYFC,"Fredericton Intl, NB, CA",2025-09-09T16:00:00Z,2025-09-09T12:00:00Z,VFR,19,8,VAR,5,0,9,1028.9,METAR CYFC 091600Z AUTO VRB05KT 9SM CLR 19/08 A3038 RMK SLP290,2025-09-09T16:11:12Z,2025-09-09T12:11:12Z
CYFC,"Fredericton Intl, NB, CA",2025-09-09T17:00:00Z,2025-09-09T13:00:00Z,VFR,19,8,VAR,4,0,9,1028.5,METAR CYFC 091700Z AUTO VRB04KT 9SM CLR 19/08 A3037 RMK SLP286,2025-09-09T17:12:45Z,2025-09-09T13:12:45Z
CYFC,"Fredericton Intl, NB, CA",2025-09-09T18:00:00Z,2025-09-09T14:00:00Z,VFR,20,6,VAR,2,0,9,1027.9,METAR CYFC 091800Z AUTO VRB02KT 9SM CLR 20/06 A3035 RMK SLP282 DENSITY ALT 300FT,2025-09-09T18:09:17Z,2025-09-09T14:09:17Z
CYFC,"Fredericton Intl, NB, CA",2025-09-09T19:00:00Z,2025-09-09T15:00:00Z,VFR,21,6,70,6,0,9,1027.9,METAR CYFC 091900Z AUTO 07006KT 060V150 9SM CLR 21/06 A3035 RMK SLP280 DENSITY ALT 300FT,2025-09-09T19:20:46Z,2025-09-09T15:20:46Z
CYFC,"Fredericton Intl, NB, CA",2025-09-09T20:00:00Z,2025-09-09T16:00:00Z,VFR,21,7,VAR,2,0,9,1027.5,METAR CYFC 092000Z AUTO VRB02KT 9SM CLR 21/07 A3034 RMK SLP277 DENSITY ALT 300FT,2025-09-09T20:10:11Z,2025-09-09T16:10:11Z
CYFC,"Fredericton Intl, NB, CA",2025-09-09T21:00:00Z,2025-09-09T17:00:00Z,VFR,21,7,90,4,0,9,1027.2,METAR CYFC 092100Z AUTO 09004KT 050V120 9SM CLR 21/07 A3033 RMK SLP274 DENSITY ALT 300FT,2025-09-09T21:12:38Z,2025-09-09T17:12:38Z
CYFC,"Fredericton Intl, NB, CA",2025-09-09T22:00:00Z,2025-09-09T18:00:00Z,VFR,18,10,70,3,0,9,1027.5,METAR CYFC 092200Z AUTO 07003KT 9SM CLR 18/10 A3034 RMK SLP276,2025-09-09T22:20:11Z,2025-09-09T18:20:11Z
CYFC,"Fredericton Intl, NB, CA",2025-09-09T23:00:00Z,2025-09-09T19:00:00Z,VFR,14,11,170,2,0,9,1027.5,METAR CYFC 092300Z AUTO 17002KT 9SM CLR 14/11 A3034 RMK SLP278,2025-09-09T23:21:13Z,2025-09-09T19:21:13Z
CYFC,"Fredericton Intl, NB, CA",2025-09-10T01:00:00Z,2025-09-09T21:00:00Z,VFR,11,9,200,5,0,9,1028.2,METAR CYFC 100100Z AUTO 20005KT 9SM CLR 11/09 A3036 RMK SLP284,2025-09-10T01:11:21Z,2025-09-09T21:11:21Z
CYFS,"Fort Simpson Arpt, NT, CA",2025-09-10T00:20:00Z,2025-09-09T20:20:00Z,VFR,19,11,320,10,0,15,1004.1,SPECI CYFS 100020Z CCA 32010KT 15SM -SHRA SCT060 BKN085 BKN110 19/11 A2965 RMK CU3AC2AC1 VIS LWR SE SLP046 DENSITY ALT 1500FT,2025-09-10T00:33:13Z,2025-09-09T20:33:13Z
CYFS,"Fort Simpson Arpt, NT, CA",2025-09-10T01:00:00Z,2025-09-09T21:00:00Z,VFR,18,11,330,14,0,15,1004.8,METAR CYFS 100100Z CCA 33014KT 15SM -SHRA BKN062 BKN087 BKN100 BKN250 18/11 A2967 RMK RA1SC5AC1AC1CI1 AC TR CI TR -SHRA START 0059Z CVCTV CLD EMBD SLP053 DENSITY ALT 1400FT,2025-09-10T01:11:22Z,2025-09-09T21:11:22Z
CYGK,"Kingston Arpt, ON, CA",2025-09-09T15:00:00Z,2025-09-09T11:00:00Z,VFR,18,11,170,11,0,15,1028.2,METAR CYGK 091500Z 17011KT 15SM FEW018 BKN240 18/11 A3036 RMK CU2CS4 SLP285,2025-09-09T15:51:24Z,2025-09-09T11:51:24Z
CYGK,"Kingston Arpt, ON, CA",2025-09-09T16:00:00Z,2025-09-09T12:00:00Z,VFR,18,12,170,10,0,15,1028.2,METAR CYGK 091600Z 17010KT 15SM FEW024 OVC240 18/12 A3036 RMK CU2CS6 SLP284,2025-09-09T16:11:11Z,2025-09-09T12:11:11Z
CYGK,"Kingston Arpt, ON, CA",2025-09-09T17:00:00Z,2025-09-09T13:00:00Z,VFR,18,12,160,8,0,15,1027.5,METAR CYGK 091700Z 16008KT 15SM FEW020 FEW250 18/12 A3034 RMK SC1CI1 SLP277,2025-09-09T17:12:44Z,2025-09-09T13:12:44Z
CYGK,"Kingston Arpt, ON, CA",2025-09-09T18:00:00Z,2025-09-09T14:00:00Z,VFR,19,12,170,7,0,15,1026.8,METAR CYGK 091800Z 17007KT 15SM FEW020 FEW250 19/12 A3032 RMK SC1CI1 SLP271,2025-09-09T18:09:16Z,2025-09-09T14:09:16Z
CYGK,"Kingston Arpt, ON, CA",2025-09-09T19:00:00Z,2025-09-09T15:00:00Z,VFR,19,11,160,6,0,15,1026.2,METAR CYGK 091900Z 16006KT 15SM FEW020 FEW250 19/11 A3030 RMK SC1CI1 SC TR SLP266,2025-09-09T19:20:44Z,2025-09-09T15:20:44Z
CYGK,"Kingston Arpt, ON, CA",2025-09-09T20:00:00Z,2025-09-09T16:00:00Z,VFR,19,11,160,6,0,15,1025.5,METAR CYGK 092000Z 16006KT 140V200 15SM FEW020 FEW240 19/11 A3028 RMK SC1CI2 SC TR SLP258,2025-09-09T20:10:07Z,2025-09-09T16:10:07Z
CYGK,"Kingston Arpt, ON, CA",2025-09-09T21:00:00Z,2025-09-09T17:00:00Z,VFR,19,10,160,7,0,15,1025.1,METAR CYGK 092100Z 16007KT 15SM SCT250 19/10 A3027 RMK CI3 SLP256,2025-09-09T21:12:35Z,2025-09-09T17:12:35Z
CYGK,"Kingston Arpt, ON, CA",2025-09-09T22:00:00Z,2025-09-09T18:00:00Z,VFR,19,9,170,3,0,15,1025.1,METAR CYGK 092200Z 17003KT 15SM FEW250 19/09 A3027 RMK CI2 SLP254,2025-09-09T22:20:10Z,2025-09-09T18:20:10Z
CYGK,"Kingston Arpt, ON, CA",2025-09-09T23:00:00Z,2025-09-09T19:00:00Z,VFR,17,9,VAR,2,0,15,1024.5,METAR CYGK 092300Z VRB02KT 15SM SCT250 17/09 A3025 RMK CI4 SLP248,2025-09-09T23:21:12Z,2025-09-09T19:21:12Z
CYGK,"Kingston Arpt, ON, CA",2025-09-10T01:00:00Z,2025-09-09T21:00:00Z,VFR,13,9,350,4,0,15,1024.5,METAR CYGK 100100Z 35004KT 15SM FEW250 13/09 A3025 RMK CI2 SLP247,2025-09-10T01:11:22Z,2025-09-09T21:11:22Z
CYGL,"La Grande Riviere Arpt, QC, CA",2025-09-09T15:31:00Z,2025-09-09T11:31:00Z,VFR,11,11,200,7,0,15,1014,SPECI CYGL 091531Z 20007KT 15SM -DZ SCT012 OVC051 11/11 A2994 RMK SC4SC4 SLP151,2025-09-09T15:51:27Z,2025-09-09T11:51:27Z
CYGL,"La Grande Riviere Arpt, QC, CA",2025-09-09T16:00:00Z,2025-09-09T12:00:00Z,VFR,12,10,200,8,0,15,1014,METAR CYGL 091600Z 20008KT 15SM -DZ SCT015 OVC053 12/10 A2994 RMK SC4SC4 SLP148,2025-09-09T16:11:14Z,2025-09-09T12:11:14Z
CYGL,"La Grande Riviere Arpt, QC, CA",2025-09-09T16:27:00Z,2025-09-09T12:27:00Z,VFR,12,10,210,7,0,15,1014,SPECI CYGL 091627Z 21007KT 15SM SCT022 BKN051 OVC090 12/10 A2994 RMK SC3SC3AC2 SLP148,2025-09-09T16:36:25Z,2025-09-09T12:36:25Z
CYGL,"La Grande Riviere Arpt, QC, CA",2025-09-09T17:00:00Z,2025-09-09T13:00:00Z,VFR,13,10,200,12,0,15,1013.6,METAR CYGL 091700Z 20012KT 15SM SCT018 BKN052 OVC082 13/10 A2993 RMK SC3SC3AC2 SLP145,2025-09-09T17:12:49Z,2025-09-09T13:12:49Z
CYGL,"La Grande Riviere Arpt, QC, CA",2025-09-09T17:26:00Z,2025-09-09T13:26:00Z,VFR,12,10,210,8,0,NA,1013.6,SPECI CYGL 091726Z 21008KT 10SM -RA FEW020 BKN055 OVC080 12/10 A2993 RMK SC1SC4AC3 SLP145,2025-09-09T17:30:32Z,2025-09-09T13:30:32Z
CYGL,"La Grande Riviere Arpt, QC, CA",2025-09-09T18:00:00Z,2025-09-09T14:00:00Z,VFR,12,10,220,7,0,8,1013.6,METAR CYGL 091800Z 22007KT 8SM -RA FEW020 OVC057 12/10 A2993 RMK SC1SC7 SLP145,2025-09-09T18:09:19Z,2025-09-09T14:09:19Z
CYGL,"La Grande Riviere Arpt, QC, CA",2025-09-09T19:00:00Z,2025-09-09T15:00:00Z,VFR,12,11,190,3,0,NA,1013.3,METAR CYGL 091900Z 19003KT 150V220 10SM -RA FEW020 OVC060 12/11 A2992 RMK SC1SC7 SLP141,2025-09-09T19:20:52Z,2025-09-09T15:20:52Z
CYGL,"La Grande Riviere Arpt, QC, CA",2025-09-09T20:00:00Z,2025-09-09T16:00:00Z,MVFR,12,11,230,3,0,15,1013,METAR CYGL 092000Z 23003KT 15SM -RA BKN022 OVC059 12/11 A2991 RMK SC5SC3 SLP139,2025-09-09T20:10:12Z,2025-09-09T16:10:12Z
CYGL,"La Grande Riviere Arpt, QC, CA",2025-09-09T21:00:00Z,2025-09-09T17:00:00Z,MVFR,12,11,240,6,0,NA,1013.3,METAR CYGL 092100Z 24006KT 10SM -RA BKN020 OVC040 12/11 A2992 RMK SC5SC3 SLP142,2025-09-09T21:12:40Z,2025-09-09T17:12:40Z
CYGL,"La Grande Riviere Arpt, QC, CA",2025-09-09T22:00:00Z,2025-09-09T18:00:00Z,VFR,12,12,220,5,0,15,1013.3,METAR CYGL 092200Z 22005KT 15SM -RA SCT014 OVC065 12/12 A2992 RMK SC4SC4 SLP142,2025-09-09T22:20:13Z,2025-09-09T18:20:13Z
CYGL,"La Grande Riviere Arpt, QC, CA",2025-09-09T22:46:00Z,2025-09-09T18:46:00Z,IFR,12,12,230,7,0,15,1013.3,SPECI CYGL 092246Z 23007KT 15SM -RA BKN009 BKN020 OVC070 12/12 A2992 RMK SF5SC2AC1 CIG RAG SLP143,2025-09-09T22:58:30Z,2025-09-09T18:58:30Z
CYGL,"La Grande Riviere Arpt, QC, CA",2025-09-09T23:00:00Z,2025-09-09T19:00:00Z,MVFR,12,12,220,8,0,15,1013.3,METAR CYGL 092300Z 22008KT 15SM -RA FEW009 BKN013 BKN030 OVC070 12/12 A2992 RMK SF2SC4SC1AC1 CIG RAG SLP143,2025-09-09T23:21:15Z,2025-09-09T19:21:15Z
CYGL,"La Grande Riviere Arpt, QC, CA",2025-09-10T01:00:00Z,2025-09-09T21:00:00Z,IFR,12,12,200,7,0,15,1013.3,METAR CYGL 100100Z 20007KT 15SM -RA OVC005 12/12 A2992 RMK SF8 SLP141,2025-09-10T01:11:22Z,2025-09-09T21:11:22Z
CYGP,"Gasp Arpt, QC, CA",2025-09-10T01:00:00Z,2025-09-09T21:00:00Z,VFR,7,6,VAR,3,0,15,1028.2,METAR CYGP 100100Z VRB03KT 15SM SKC 07/06 A3036 RMK SLP284,2025-09-10T01:11:22Z,2025-09-09T21:11:22Z
CYGR,"les de la Madeleine Arpt, QC, CA",2025-09-10T01:00:00Z,2025-09-09T21:00:00Z,VFR,13,7,180,4,0,20,1028.9,METAR CYGR 100100Z 18004KT 20SM FEW270 13/07 A3038 RMK CI2 SLP291,2025-09-10T01:11:22Z,2025-09-09T21:11:22Z
CYGV,"Havre St Pierre Arpt, QC, CA",2025-09-09T15:00:00Z,2025-09-09T11:00:00Z,VFR,13,3,260,14,20,9,1026.8,METAR CYGV 091500Z AUTO 26014G20KT 9SM CLR 13/03 A3032 RMK SLP271,2025-09-09T15:51:27Z,2025-09-09T11:51:27Z
CYGV,"Havre St Pierre Arpt, QC, CA",2025-09-09T16:00:00Z,2025-09-09T12:00:00Z,VFR,14,4,250,13,21,9,1026.8,METAR CYGV 091600Z AUTO 25013G21KT 9SM SCT160 14/04 A3032 RMK SLP271,2025-09-09T16:11:14Z,2025-09-09T12:11:14Z
CYGV,"Havre St Pierre Arpt, QC, CA",2025-09-09T17:00:00Z,2025-09-09T13:00:00Z,VFR,14,3,250,17,22,9,1026.8,METAR CYGV 091700Z AUTO 25017G22KT 9SM CLR 14/03 A3032 RMK SLP271,2025-09-09T17:12:49Z,2025-09-09T13:12:49Z
CYGV,"Havre St Pierre Arpt, QC, CA",2025-09-09T18:00:00Z,2025-09-09T14:00:00Z,VFR,14,4,250,17,22,9,1026.5,METAR CYGV 091800Z AUTO 25017G22KT 9SM CLR 14/04 A3031 RMK SLP268,2025-09-09T18:09:19Z,2025-09-09T14:09:19Z
CYGV,"Havre St Pierre Arpt, QC, CA",2025-09-09T19:00:00Z,2025-09-09T15:00:00Z,VFR,14,5,260,16,22,9,1026.5,METAR CYGV 091900Z AUTO 26016G22KT 9SM CLR 14/05 A3031 RMK SLP268,2025-09-09T19:20:52Z,2025-09-09T15:20:52Z
CYGV,"Havre St Pierre Arpt, QC, CA",2025-09-09T20:00:00Z,2025-09-09T16:00:00Z,VFR,13,6,250,14,20,9,1026.2,METAR CYGV 092000Z AUTO 25014G20KT 9SM CLR 13/06 A3030 RMK SLP265,2025-09-09T20:10:12Z,2025-09-09T16:10:12Z
CYGV,"Havre St Pierre Arpt, QC, CA",2025-09-09T21:00:00Z,2025-09-09T17:00:00Z,VFR,13,5,260,12,21,9,1026.2,METAR CYGV 092100Z AUTO 26012G21KT 9SM CLR 13/05 A3030 RMK SLP265,2025-09-09T21:12:40Z,2025-09-09T17:12:40Z
CYGV,"Havre St Pierre Arpt, QC, CA",2025-09-09T22:00:00Z,2025-09-09T18:00:00Z,VFR,11,6,260,10,17,9,1026.5,METAR CYGV 092200Z AUTO 26010G17KT 9SM CLR 11/06 A3031 RMK SLP266,2025-09-09T22:20:13Z,2025-09-09T18:20:13Z
CYGV,"Havre St Pierre Arpt, QC, CA",2025-09-09T23:00:00Z,2025-09-09T19:00:00Z,VFR,10,7,260,8,0,9,1026.5,METAR CYGV 092300Z AUTO 26008KT 9SM CLR 10/07 A3031 RMK SLP269,2025-09-09T23:21:15Z,2025-09-09T19:21:15Z
CYGV,"Havre St Pierre Arpt, QC, CA",2025-09-10T01:00:00Z,2025-09-09T21:00:00Z,VFR,10,8,250,8,0,9,1026.8,METAR CYGV 100100Z AUTO 25008KT 9SM OVC190 10/08 A3032 RMK SLP270,2025-09-10T01:11:22Z,2025-09-09T21:11:22Z
CYGW,"Kuujjuarapik Arpt, QC, CA",2025-09-10T01:00:00Z,2025-09-09T21:00:00Z,VFR,8,6,20,7,0,9,1014,METAR CYGW 100100Z AUTO 02007KT 9SM OVC055 08/06 A2994 RMK SLP142,2025-09-10T01:11:22Z,2025-09-09T21:11:22Z
CYHA,"Quaqtaq Arpt, QC, CA",2025-09-09T15:00:00Z,2025-09-09T11:00:00Z,VFR,7,3,290,6,0,15,1013.3,METAR CYHA 091500Z 29006KT 15SM FEW038 FEW070 07/03 A2992 RMK SC1AC1 SC TR SLP135,2025-09-09T15:51:27Z,2025-09-09T11:51:27Z
CYHA,"Quaqtaq Arpt, QC, CA",2025-09-09T16:00:00Z,2025-09-09T12:00:00Z,VFR,8,3,300,6,0,15,1013.3,METAR CYHA 091600Z 30006KT 15SM FEW035 FEW070 08/03 A2992 RMK SC1AC1 AC TR SLP135,2025-09-09T16:11:14Z,2025-09-09T12:11:14Z
CYHA,"Quaqtaq Arpt, QC, CA",2025-09-09T17:00:00Z,2025-09-09T13:00:00Z,VFR,8,3,270,5,0,15,1013.3,METAR CYHA 091700Z 27005KT 240V310 15SM FEW025 BKN033 08/03 A2992 RMK SC1SC6 SC TR CONTRAILS SLP137,2025-09-09T17:12:49Z,2025-09-09T13:12:49Z
CYHA,"Quaqtaq Arpt, QC, CA",2025-09-09T18:00:00Z,2025-09-09T14:00:00Z,VFR,8,2,330,10,0,15,1013.6,METAR CYHA 091800Z 33010KT 15SM BKN035 08/02 A2993 RMK SC6 SLP139,2025-09-09T18:09:18Z,2025-09-09T14:09:18Z
CYHA,"Quaqtaq Arpt, QC, CA",2025-09-09T19:00:00Z,2025-09-09T15:00:00Z,VFR,7,3,340,6,0,15,1013.6,METAR CYHA 091900Z 34006KT 15SM FEW035 FEW250 07/03 A2993 RMK SC1CI1 SC TR CI TR LAST OBS/NEXT 101200 UTC SLP139,2025-09-09T19:20:52Z,2025-09-09T15:20:52Z
CYHD,"Dryden Rgnl, ON, CA",2025-09-09T15:00:00Z,2025-09-09T11:00:00Z,VFR,14,11,VAR,2,0,9,1015.3,METAR CYHD 091500Z AUTO VRB02KT 9SM CLR 14/11 A2998 RMK SLP163,2025-09-09T15:51:26Z,2025-09-09T11:51:26Z
CYHD,"Dryden Rgnl, ON, CA",2025-09-09T16:00:00Z,2025-09-09T12:00:00Z,VFR,17,11,50,5,0,9,1015.7,METAR CYHD 091600Z AUTO 05005KT 020V140 9SM CLR 17/11 A2999 RMK SLP164 DENSITY ALT 1800FT,2025-09-09T16:11:12Z,2025-09-09T12:11:12Z
CYHD,"Dryden Rgnl, ON, CA",2025-09-09T17:00:00Z,2025-09-09T13:00:00Z,VFR,19,12,VAR,2,0,9,1015.7,METAR CYHD 091700Z AUTO VRB02KT 9SM CLR 19/12 A2999 RMK SLP166 DENSITY ALT 2100FT,2025-09-09T17:12:45Z,2025-09-09T13:12:45Z
CYHD,"Dryden Rgnl, ON, CA",2025-09-09T18:00:00Z,2025-09-09T14:00:00Z,VFR,20,11,VAR,7,0,9,1015.7,METAR CYHD 091800Z AUTO VRB07KT 9SM CLR 20/11 A2999 RMK SLP164 DENSITY ALT 2200FT,2025-09-09T18:09:17Z,2025-09-09T14:09:17Z
CYHD,"Dryden Rgnl, ON, CA",2025-09-09T19:00:00Z,2025-09-09T15:00:00Z,VFR,21,10,190,4,0,9,1015.7,METAR CYHD 091900Z AUTO 19004KT 180V310 9SM CLR 21/10 A2999 RMK SLP165 DENSITY ALT 2300FT,2025-09-09T19:20:46Z,2025-09-09T15:20:46Z
CYHD,"Dryden Rgnl, ON, CA",2025-09-09T20:00:00Z,2025-09-09T16:00:00Z,VFR,21,11,260,3,0,9,1015.7,METAR CYHD 092000Z AUTO 26003KT 230V040 9SM CLR 21/11 A2999 RMK SLP164 DENSITY ALT 2400FT,2025-09-09T20:10:11Z,2025-09-09T16:10:11Z
CYHD,"Dryden Rgnl, ON, CA",2025-09-09T21:00:00Z,2025-09-09T17:00:00Z,VFR,22,11,350,5,0,9,1015.7,METAR CYHD 092100Z AUTO 35005KT 320V030 9SM CLR 22/11 A2999 RMK SLP164 DENSITY ALT 2400FT,2025-09-09T21:12:38Z,2025-09-09T17:12:38Z
CYHD,"Dryden Rgnl, ON, CA",2025-09-09T22:00:00Z,2025-09-09T18:00:00Z,VFR,22,11,340,6,0,9,1015.7,METAR CYHD 092200Z AUTO 34006KT 320V050 9SM CLR 22/11 A2999 RMK SLP163 DENSITY ALT 2400FT,2025-09-09T22:20:11Z,2025-09-09T18:20:11Z
CYHD,"Dryden Rgnl, ON, CA",2025-09-09T23:00:00Z,2025-09-09T19:00:00Z,VFR,22,11,VAR,2,0,9,1016,METAR CYHD 092300Z AUTO VRB02KT 9SM FEW240 22/11 A3000 RMK SLP168 DENSITY ALT 2400FT,2025-09-09T23:21:13Z,2025-09-09T19:21:13Z
CYHD,"Dryden Rgnl, ON, CA",2025-09-10T01:00:00Z,2025-09-09T21:00:00Z,VFR,18,12,50,5,0,9,1016.3,METAR CYHD 100100Z AUTO 05005KT 040V110 9SM CLR 18/12 A3001 RMK SLP174 DENSITY ALT 1900FT,2025-09-10T01:11:22Z,2025-09-09T21:11:22Z
CYHE,"Hope Rgnl Airpark, BC, CA",2025-09-10T01:04:00Z,2025-09-09T21:04:00Z,VFR,23,14,290,11,20,9,1010.9,SPECI CYHE 100104Z AUTO 29011G20KT 250V330 9SM CLR 23/14 A2985 RMK LTNG DIST SE S SLP110 DENSITY ALT 1200FT,2025-09-10T01:11:22Z,2025-09-09T21:11:22Z
CYHK,"Gjoa Haven Arpt, NU, CA",2025-09-10T01:00:00Z,2025-09-09T21:00:00Z,IFR,2,1,0,0,0,9,1015,METAR CYHK 100100Z AUTO 00000KT 9SM OVC007 02/01 A2997 RMK SLP155,2025-09-10T01:11:22Z,2025-09-09T21:11:22Z
CYHM,"Hamilton/Munro Intl, ON, CA",2025-09-09T15:00:00Z,2025-09-09T11:00:00Z,VFR,19,12,130,3,0,15,1026.2,METAR CYHM 091500Z 13003KT 100V180 15SM SKC 19/12 A3030 RMK SLP265 DENSITY ALT 1000FT,2025-09-09T15:51:26Z,2025-09-09T11:51:26Z
CYHM,"Hamilton/Munro Intl, ON, CA",2025-09-09T16:00:00Z,2025-09-09T12:00:00Z,VFR,21,10,140,10,0,15,1025.8,METAR CYHM 091600Z 14010KT 130V200 15SM FEW050 21/10 A3029 RMK CU1 SLP262 DENSITY ALT 1300FT,2025-09-09T16:11:12Z,2025-09-09T12:11:12Z
CYHM,"Hamilton/Munro Intl, ON, CA",2025-09-09T17:00:00Z,2025-09-09T13:00:00Z,VFR,22,9,230,5,0,15,1025.1,METAR CYHM 091700Z 23005KT 100V250 15SM SCT050 22/09 A3027 RMK CU4 SLP255 DENSITY ALT 1400FT,2025-09-09T17:12:45Z,2025-09-09T13:12:45Z
CYHM,"Hamilton/Munro Intl, ON, CA",2025-09-09T18:00:00Z,2025-09-09T14:00:00Z,VFR,21,8,230,6,0,15,1024.8,METAR CYHM 091800Z 23006KT 150V250 15SM SCT055 SCT220 21/08 A3026 RMK CU3CI1 CI TR SLP250 DENSITY ALT 1400FT,2025-09-09T18:09:17Z,2025-09-09T14:09:17Z
CYHM,"Hamilton/Munro Intl, ON, CA",2025-09-09T19:00:00Z,2025-09-09T15:00:00Z,VFR,23,7,150,7,16,15,1024.1,METAR CYHM 091900Z 15007G16KT 140V230 15SM FEW060 SCT240 23/07 A3024 RMK CF1CI2 SLP243 DENSITY ALT 1500FT,2025-09-09T19:20:46Z,2025-09-09T15:20:46Z
CYHM,"Hamilton/Munro Intl, ON, CA",2025-09-09T20:00:00Z,2025-09-09T16:00:00Z,VFR,23,7,170,7,0,15,1023.8,METAR CYHM 092000Z 17007KT 15SM FEW065 FEW260 23/07 A3023 RMK CF1CI1 CF TR SLP241 DENSITY ALT 1500FT,2025-09-09T20:10:11Z,2025-09-09T16:10:11Z
CYHM,"Hamilton/Munro Intl, ON, CA",2025-09-09T21:00:00Z,2025-09-09T17:00:00Z,VFR,22,6,190,8,0,15,1023.5,METAR CYHM 092100Z 19008KT 130V190 15SM FEW260 22/06 A3022 RMK CI2 SLP236 DENSITY ALT 1500FT,2025-09-09T21:12:38Z,2025-09-09T17:12:38Z
CYHM,"Hamilton/Munro Intl, ON, CA",2025-09-09T22:00:00Z,2025-09-09T18:00:00Z,VFR,21,6,200,6,0,15,1023.5,METAR CYHM 092200Z 20006KT 150V220 15SM FEW260 21/06 A3022 RMK CI2 SLP237 DENSITY ALT 1400FT,2025-09-09T22:20:11Z,2025-09-09T18:20:11Z
CYHM,"Hamilton/Munro Intl, ON, CA",2025-09-09T23:00:00Z,2025-09-09T19:00:00Z,VFR,19,8,0,0,0,15,1023.5,METAR CYHM 092300Z 00000KT 15SM BKN260 19/08 A3022 RMK CI6 SLP236 DENSITY ALT 1200FT,2025-09-09T23:21:13Z,2025-09-09T19:21:13Z
CYHM,"Hamilton/Munro Intl, ON, CA",2025-09-10T01:00:00Z,2025-09-09T21:00:00Z,VFR,13,13,40,7,0,15,1023.1,METAR CYHM 100100Z 04007KT 15SM FEW240 13/13 A3021 RMK CI2 SLP235,2025-09-10T01:11:23Z,2025-09-09T21:11:23Z
CYHU,"Montreal/St Hubert, QC, CA",2025-09-09T15:00:00Z,2025-09-09T11:00:00Z,VFR,17,10,180,5,0,9,1028.5,METAR CYHU 091500Z AUTO 18005KT 120V240 9SM CLR 17/10 A3037 RMK SLP286,2025-09-09T15:51:24Z,2025-09-09T11:51:24Z
CYHU,"Montreal/St Hubert, QC, CA",2025-09-09T16:00:00Z,2025-09-09T12:00:00Z,VFR,19,11,VAR,4,0,9,1028.2,METAR CYHU 091600Z AUTO VRB04KT 9SM CLR 19/11 A3036 RMK SLP283,2025-09-09T16:11:11Z,2025-09-09T12:11:11Z
CYHU,"Montreal/St Hubert, QC, CA",2025-09-09T17:00:00Z,2025-09-09T13:00:00Z,VFR,20,10,220,6,0,9,1027.5,METAR CYHU 091700Z AUTO 22006KT 130V240 9SM CLR 20/10 A3034 RMK SLP277,2025-09-09T17:12:44Z,2025-09-09T13:12:44Z
CYHU,"Montreal/St Hubert, QC, CA",2025-09-09T18:00:00Z,2025-09-09T14:00:00Z,VFR,20,10,VAR,6,0,9,1026.8,METAR CYHU 091800Z AUTO VRB06KT 9SM CLR 20/10 A3032 RMK SLP270 DENSITY ALT 300FT,2025-09-09T18:09:16Z,2025-09-09T14:09:16Z
CYHU,"Montreal/St Hubert, QC, CA",2025-09-09T19:00:00Z,2025-09-09T15:00:00Z,VFR,21,7,210,8,0,9,1026.5,METAR CYHU 091900Z AUTO 21008KT 180V260 9SM CLR 21/07 A3031 RMK SLP265 DENSITY ALT 400FT,2025-09-09T19:20:44Z,2025-09-09T15:20:44Z
CYHU,"Montreal/St Hubert, QC, CA",2025-09-09T20:00:00Z,2025-09-09T16:00:00Z,VFR,21,6,280,7,0,9,1025.5,METAR CYHU 092000Z AUTO 28007KT 9SM CLR 21/06 A3028 RMK SLP257 DENSITY ALT 400FT,2025-09-09T20:10:07Z,2025-09-09T16:10:07Z
CYHU,"Montreal/St Hubert, QC, CA",2025-09-09T21:00:00Z,2025-09-09T17:00:00Z,VFR,21,8,220,5,0,9,1025.5,METAR CYHU 092100Z AUTO 22005KT 210V290 9SM CLR 21/08 A3028 RMK SLP255 DENSITY ALT 400FT,2025-09-09T21:12:35Z,2025-09-09T17:12:35Z
CYHU,"Montreal/St Hubert, QC, CA",2025-09-09T22:00:00Z,2025-09-09T18:00:00Z,VFR,20,9,300,3,0,9,1025.5,METAR CYHU 092200Z AUTO 30003KT 240V320 9SM CLR 20/09 A3028 RMK SLP255 DENSITY ALT 300FT,2025-09-09T22:20:10Z,2025-09-09T18:20:10Z
CYHU,"Montreal/St Hubert, QC, CA",2025-09-09T23:17:00Z,2025-09-09T19:17:00Z,IFR,18,9,0,0,0,1.5,1025.1,SPECI CYHU 092317Z AUTO 00000KT 1 1/2SM HZ CLR 18/09 A3027 RMK VIS VRB 1/2-3 SLP253,2025-09-09T23:21:12Z,2025-09-09T19:21:12Z
CYHU,"Montreal/St Hubert, QC, CA",2025-09-09T23:39:00Z,2025-09-09T19:39:00Z,VFR,17,9,VAR,2,0,7,1025.1,SPECI CYHU 092339Z AUTO VRB02KT 7SM CLR 17/09 A3027 RMK SLP252,2025-09-09T23:42:21Z,2025-09-09T19:42:21Z
CYHU,"Montreal/St Hubert, QC, CA",2025-09-10T01:00:00Z,2025-09-09T21:00:00Z,VFR,13,10,50,2,0,9,1025.1,METAR CYHU 100100Z AUTO 05002KT 9SM CLR 13/10 A3027 RMK SLP252,2025-09-10T01:11:23Z,2025-09-09T21:11:23Z
CYHY,"Hay River/Carter Arpt, NT, CA",2025-09-10T01:00:00Z,2025-09-09T21:00:00Z,VFR,17,12,330,5,0,12,1003.1,METAR CYHY 100100Z 33005KT 12SM FEW110 FEW140 17/12 A2962 RMK AC2AC1 AC TR FU SLP036 DENSITY ALT 1300FT,2025-09-10T01:11:22Z,2025-09-09T21:11:22Z
CYHZ,"Halifax/Stanfield Intl, NS, CA",2025-09-09T15:00:00Z,2025-09-09T11:00:00Z,VFR,19,8,60,6,0,15,1028.9,METAR CYHZ 091500Z 06006KT 010V110 15SM FEW040 BKN250 19/08 A3038 RMK CU2CS4 CI ASOCTD SLP292,2025-09-09T15:51:24Z,2025-09-09T11:51:24Z
CYHZ,"Halifax/Stanfield Intl, NS, CA",2025-09-09T16:00:00Z,2025-09-09T12:00:00Z,VFR,19,8,310,4,0,15,1028.9,METAR CYHZ 091600Z 31004KT 280V010 15SM FEW045 BKN250 19/08 A3038 RMK CU2CS5 CI ASOCTD SLP292,2025-09-09T16:11:11Z,2025-09-09T12:11:11Z
CYHZ,"Halifax/Stanfield Intl, NS, CA",2025-09-09T17:00:00Z,2025-09-09T13:00:00Z,VFR,19,7,330,4,0,15,1028.5,METAR CYHZ 091700Z 33004KT 15SM FEW040 BKN250 19/07 A3037 RMK CU2CS5 SLP288,2025-09-09T17:12:43Z,2025-09-09T13:12:43Z
CYHZ,"Halifax/Stanfield Intl, NS, CA",2025-09-09T18:00:00Z,2025-09-09T14:00:00Z,VFR,20,7,VAR,4,0,15,1028.5,METAR CYHZ 091800Z VRB04KT 15SM FEW040 BKN250 20/07 A3037 RMK CU1CS6 SLP286 DENSITY ALT 700FT,2025-09-09T18:09:15Z,2025-09-09T14:09:15Z
CYHZ,"Halifax/Stanfield Intl, NS, CA",2025-09-09T19:00:00Z,2025-09-09T15:00:00Z,VFR,19,7,VAR,4,0,15,1028.2,METAR CYHZ 091900Z VRB04KT 15SM FEW045 FEW190 BKN250 19/07 A3036 RMK CU1AC1CS6 CU TR SLP283,2025-09-09T19:20:43Z,2025-09-09T15:20:43Z
CYHZ,"Halifax/Stanfield Intl, NS, CA",2025-09-09T20:00:00Z,2025-09-09T16:00:00Z,VFR,19,8,250,4,0,15,1027.9,METAR CYHZ 092000Z 25004KT 15SM FEW045 FEW190 BKN250 19/08 A3035 RMK CU1AC1CS6 CU TR CI ASOCTD SLP282,2025-09-09T20:10:07Z,2025-09-09T16:10:07Z
CYHZ,"Halifax/Stanfield Intl, NS, CA",2025-09-09T21:00:00Z,2025-09-09T17:00:00Z,VFR,19,10,180,7,0,15,1028.5,METAR CYHZ 092100Z CCA 18007KT 15SM FEW050 FEW190 BKN250 19/10 A3037 RMK CU1AC1CS5 CU TR CI ASOCTD SLP287,2025-09-09T21:12:35Z,2025-09-09T17:12:35Z
CYHZ,"Halifax/Stanfield Intl, NS, CA",2025-09-09T22:00:00Z,2025-09-09T18:00:00Z,VFR,17,10,160,5,0,15,1028.5,METAR CYHZ 092200Z 16005KT 15SM FEW180 BKN250 17/10 A3037 RMK AC1CI6 AC TR SLP288,2025-09-09T22:20:10Z,2025-09-09T18:20:10Z
CYHZ,"Halifax/Stanfield Intl, NS, CA",2025-09-09T23:00:00Z,2025-09-09T19:00:00Z,VFR,15,9,190,4,0,15,1028.9,METAR CYHZ 092300Z 19004KT 15SM FEW240 BKN310 15/09 A3038 RMK CI2CI4 SLP291,2025-09-09T23:21:12Z,2025-09-09T19:21:12Z
CYHZ,"Halifax/Stanfield Intl, NS, CA",2025-09-10T01:00:00Z,2025-09-09T21:00:00Z,VFR,14,8,220,4,0,15,1028.9,METAR CYHZ 100100Z 22004KT 15SM FEW250 14/08 A3038 RMK CI2 SLP293,2025-09-10T01:11:23Z,2025-09-09T21:11:23Z
CYIO,"Pond Inlet Arpt, NU, CA",2025-09-10T01:00:00Z,2025-09-09T21:00:00Z,VFR,0,-2,160,7,0,9,1008.2,METAR CYIO 100100Z AUTO 16007KT 9SM CLR M00/M02 A2977 RMK ICE SLP089,2025-09-10T01:11:22Z,2025-09-09T21:11:22Z
CYIV,"Island Lake Arpt, MB, CA",2025-09-10T01:00:00Z,2025-09-09T21:00:00Z,VFR,13,6,10,6,0,9,1018.4,METAR CYIV 100100Z AUTO 01006KT 9SM CLR 13/06 A3007 RMK SLP193,2025-09-10T01:11:23Z,2025-09-09T21:11:23Z
CYKA,"Kamloops Arpt, BC, CA",2025-09-10T01:00:00Z,2025-09-09T21:00:00Z,VFR,28,9,180,13,21,40,1008.5,METAR CYKA 100100Z 18013G21KT 080V200 40SM SCT090CB BKN130 BKN250 28/09 A2978 RMK CB4AC2CI1 SLP085 DENSITY ALT 3000FT,2025-09-10T01:11:22Z,2025-09-09T21:11:22Z
CYKF,"Waterloo Intl, ON, CA",2025-09-09T15:00:00Z,2025-09-09T11:00:00Z,VFR,19,10,150,7,0,9,1025.8,METAR CYKF 091500Z AUTO 15007KT 110V180 9SM CLR 19/10 A3029 RMK SLP263 DENSITY ALT 1300FT,2025-09-09T15:51:26Z,2025-09-09T11:51:26Z
CYKF,"Waterloo Intl, ON, CA",2025-09-09T16:00:00Z,2025-09-09T12:00:00Z,VFR,20,8,180,7,0,9,1025.8,METAR CYKF 091600Z AUTO 18007KT 150V220 9SM CLR 20/08 A3029 RMK SLP260 DENSITY ALT 1600FT,2025-09-09T16:11:12Z,2025-09-09T12:11:12Z
CYKF,"Waterloo Intl, ON, CA",2025-09-09T17:00:00Z,2025-09-09T13:00:00Z,VFR,21,8,170,8,0,9,1025.1,METAR CYKF 091700Z AUTO 17008KT 150V230 9SM FEW055 21/08 A3027 RMK SLP255 DENSITY ALT 1700FT,2025-09-09T17:12:45Z,2025-09-09T13:12:45Z
CYKF,"Waterloo Intl, ON, CA",2025-09-09T18:00:00Z,2025-09-09T14:00:00Z,VFR,21,7,250,5,0,9,1024.5,METAR CYKF 091800Z AUTO 25005KT 170V260 9SM SCT060 21/07 A3025 RMK SLP249 DENSITY ALT 1700FT,2025-09-09T18:09:17Z,2025-09-09T14:09:17Z
CYKF,"Waterloo Intl, ON, CA",2025-09-09T19:00:00Z,2025-09-09T15:00:00Z,VFR,22,7,160,10,0,9,1023.8,METAR CYKF 091900Z AUTO 16010KT 9SM FEW060 22/07 A3023 RMK SLP242 DENSITY ALT 1800FT,2025-09-09T19:20:46Z,2025-09-09T15:20:46Z
CYKF,"Waterloo Intl, ON, CA",2025-09-09T20:00:00Z,2025-09-09T16:00:00Z,VFR,21,7,160,8,0,9,1023.5,METAR CYKF 092000Z AUTO 16008KT 130V220 9SM SCT060 21/07 A3022 RMK SLP238 DENSITY ALT 1700FT,2025-09-09T20:10:11Z,2025-09-09T16:10:11Z
CYKF,"Waterloo Intl, ON, CA",2025-09-09T21:00:00Z,2025-09-09T17:00:00Z,VFR,22,7,170,8,0,9,1023.1,METAR CYKF 092100Z AUTO 17008KT 9SM CLR 22/07 A3021 RMK SLP234 DENSITY ALT 1800FT,2025-09-09T21:12:38Z,2025-09-09T17:12:38Z
CYKF,"Waterloo Intl, ON, CA",2025-09-09T22:00:00Z,2025-09-09T18:00:00Z,VFR,21,5,160,9,0,9,1023.5,METAR CYKF 092200Z AUTO 16009KT 9SM CLR 21/05 A3022 RMK SLP237 DENSITY ALT 1700FT,2025-09-09T22:20:11Z,2025-09-09T18:20:11Z
CYKF,"Waterloo Intl, ON, CA",2025-09-09T23:00:00Z,2025-09-09T19:00:00Z,VFR,18,6,140,6,0,9,1023.1,METAR CYKF 092300Z AUTO 14006KT 9SM CLR 18/06 A3021 RMK SLP237 DENSITY ALT 1400FT,2025-09-09T23:21:13Z,2025-09-09T19:21:13Z
CYKF,"Waterloo Intl, ON, CA",2025-09-10T01:00:00Z,2025-09-09T21:00:00Z,VFR,13,10,110,5,0,9,1023.1,METAR CYKF 100100Z AUTO 11005KT 9SM CLR 13/10 A3021 RMK SLP236,2025-09-10T01:11:22Z,2025-09-09T21:11:22Z
CYKJ,"Key Lake Arpt, SK, CA",2025-09-09T15:00:00Z,2025-09-09T11:00:00Z,VFR,10,8,140,5,0,9,1016,METAR CYKJ 091500Z AUTO 14005KT 9SM CLR 10/08 A3000 RMK SLP180,2025-09-09T15:51:27Z,2025-09-09T11:51:27Z
CYKJ,"Key Lake Arpt, SK, CA",2025-09-09T16:00:00Z,2025-09-09T12:00:00Z,VFR,13,8,170,7,0,9,1015.7,METAR CYKJ 091600Z AUTO 17007KT 9SM CLR 13/08 A2999 RMK SLP175,2025-09-09T16:11:14Z,2025-09-09T12:11:14Z
CYKJ,"Key Lake Arpt, SK, CA",2025-09-09T17:00:00Z,2025-09-09T13:00:00Z,VFR,15,7,190,10,0,9,1015.7,METAR CYKJ 091700Z AUTO 19010KT 9SM CLR 15/07 A2999 RMK SLP175 DENSITY ALT 2000FT,2025-09-09T17:12:49Z,2025-09-09T13:12:49Z
CYKJ,"Key Lake Arpt, SK, CA",2025-09-09T18:00:00Z,2025-09-09T14:00:00Z,VFR,16,8,180,6,17,9,1015.7,METAR CYKJ 091800Z AUTO 18006G17KT 110V200 9SM CLR 16/08 A2999 RMK SLP173 DENSITY ALT 2200FT,2025-09-09T18:09:18Z,2025-09-09T14:09:18Z
CYKJ,"Key Lake Arpt, SK, CA",2025-09-09T19:00:00Z,2025-09-09T15:00:00Z,VFR,17,8,190,6,0,9,1015.3,METAR CYKJ 091900Z AUTO 19006KT 140V210 9SM CLR 17/08 A2998 RMK SLP169 DENSITY ALT 2300FT,2025-09-09T19:20:52Z,2025-09-09T15:20:52Z
CYKJ,"Key Lake Arpt, SK, CA",2025-09-09T20:00:00Z,2025-09-09T16:00:00Z,VFR,18,7,170,10,0,9,1014.6,METAR CYKJ 092000Z AUTO 17010KT 120V190 9SM CLR 18/07 A2996 RMK SLP164 DENSITY ALT 2500FT,2025-09-09T20:10:12Z,2025-09-09T16:10:12Z
CYKJ,"Key Lake Arpt, SK, CA",2025-09-09T21:00:00Z,2025-09-09T17:00:00Z,VFR,19,8,150,10,0,9,1014,METAR CYKJ 092100Z AUTO 15010KT 130V190 9SM CLR 19/08 A2994 RMK SLP158 DENSITY ALT 2600FT,2025-09-09T21:12:40Z,2025-09-09T17:12:40Z
CYKJ,"Key Lake Arpt, SK, CA",2025-09-09T22:00:00Z,2025-09-09T18:00:00Z,VFR,20,8,140,10,16,9,1014,METAR CYKJ 092200Z AUTO 14010G16KT 120V180 9SM CLR 20/08 A2994 RMK SLP155 DENSITY ALT 2600FT,2025-09-09T22:20:13Z,2025-09-09T18:20:13Z
CYKJ,"Key Lake Arpt, SK, CA",2025-09-09T23:00:00Z,2025-09-09T19:00:00Z,VFR,20,8,170,10,0,9,1013.6,METAR CYKJ 092300Z AUTO 17010KT 130V200 9SM CLR 20/08 A2993 RMK SLP154 DENSITY ALT 2600FT,2025-09-09T23:21:15Z,2025-09-09T19:21:15Z
CYKJ,"Key Lake Arpt, SK, CA",2025-09-10T01:00:00Z,2025-09-09T21:00:00Z,VFR,17,9,150,7,0,9,1013,METAR CYKJ 100100Z AUTO 15007KT 9SM CLR 17/09 A2991 RMK SLP149 DENSITY ALT 2400FT,2025-09-10T01:11:23Z,2025-09-09T21:11:23Z
CYKP,"Ogoki Post, ON, CA",2025-09-10T01:00:00Z,2025-09-09T21:00:00Z,VFR,13,8,360,4,0,9,1016.7,METAR CYKP 100100Z AUTO 36004KT 9SM FEW190 BKN210 13/08 A3002 RMK SLP169,2025-09-10T01:11:22Z,2025-09-09T21:11:22Z
CYKY,"Kindersley Arpt, SK, CA",2025-09-10T01:00:00Z,2025-09-09T21:00:00Z,VFR,24,6,130,7,0,15,1012.6,METAR CYKY 100100Z 13007KT 15SM FEW050 FEW250 24/06 A2990 RMK CU1CI1 CU TR SLP125 DENSITY ALT 3900FT,2025-09-10T01:11:22Z,2025-09-09T21:11:22Z
CYLD,"Chapleau Arpt, ON, CA",2025-09-10T01:00:00Z,2025-09-09T21:00:00Z,VFR,14,14,180,5,0,15,1019,METAR CYLD 100100Z 18005KT 15SM -RA OVC039 14/14 A3009 RMK SC8 LAST STFD OBS/NEXT 101000UTC SLP203,2025-09-10T01:11:22Z,2025-09-09T21:11:22Z
CYLH,"Lansdowne House Arpt, ON, CA",2025-09-10T01:00:00Z,2025-09-09T21:00:00Z,VFR,12,9,10,4,0,9,1017.7,METAR CYLH 100100Z AUTO 01004KT 9SM BKN200 12/09 A3005 RMK SLP185,2025-09-10T01:11:23Z,2025-09-09T21:11:23Z
CYLK,"Lutselke Arpt, NT, CA",2025-09-09T15:00:00Z,2025-09-09T11:00:00Z,VFR,11,7,90,5,0,25,1010.2,METAR CYLK 091500Z 09005KT 050V140 25SM SCT120 BKN140 BKN240 11/07 A2983 RMK AC3AC2CI1 FU SLP112,2025-09-09T15:51:27Z,2025-09-09T11:51:27Z
CYLK,"Lutselke Arpt, NT, CA",2025-09-09T16:00:00Z,2025-09-09T12:00:00Z,VFR,14,8,90,4,0,25,1009.9,METAR CYLK 091600Z 09004KT 060V150 25SM FEW065 SCT120 BKN210 14/08 A2982 RMK SC2AC1CI3 FU SLP106,2025-09-09T16:11:14Z,2025-09-09T12:11:14Z
CYLK,"Lutselke Arpt, NT, CA",2025-09-09T17:00:00Z,2025-09-09T13:00:00Z,VFR,15,8,100,3,0,25,1009.2,METAR CYLK 091700Z 10003KT 050V150 25SM SCT062 BKN110 BKN210 15/08 A2980 RMK SC3AC2CI1 FU SLP101 DENSITY ALT 900FT,2025-09-09T17:12:49Z,2025-09-09T13:12:49Z
CYLK,"Lutselke Arpt, NT, CA",2025-09-09T18:00:00Z,2025-09-09T14:00:00Z,VFR,17,6,110,6,0,25,1008.5,METAR CYLK 091800Z 11006KT 060V150 25SM SCT063 SCT110 BKN210 17/06 A2978 RMK SC3AC1CS2 FU SLP092 DENSITY ALT 1100FT,2025-09-09T18:09:18Z,2025-09-09T14:09:18Z
CYLK,"Lutselke Arpt, NT, CA",2025-09-09T19:00:00Z,2025-09-09T15:00:00Z,VFR,17,6,110,6,0,25,1007.5,METAR CYLK 091900Z 11006KT 060V160 25SM BKN070 BKN100 BKN180 OVC210 17/06 A2975 RMK AC5AC1AC1CI1 FU SLP084 DENSITY ALT 1200FT,2025-09-09T19:20:52Z,2025-09-09T15:20:52Z
CYLK,"Lutselke Arpt, NT, CA",2025-09-09T20:00:00Z,2025-09-09T16:00:00Z,VFR,16,5,120,6,0,25,1007.2,METAR CYLK 092000Z 12006KT 060V140 25SM FEW053 SCT066 BKN120 OVC140 16/05 A2974 RMK SC1AC3AC2AC2 FU SLP079 DENSITY ALT 1100FT,2025-09-09T20:10:12Z,2025-09-09T16:10:12Z
CYLK,"Lutselke Arpt, NT, CA",2025-09-09T20:25:00Z,2025-09-09T16:25:00Z,VFR,15,8,140,7,0,15,1007.5,SPECI CYLK 092025Z 14007KT 080V180 15SM -RA BKN056 OVC090 15/08 A2975 RMK SC6AC2 FU SLP083 DENSITY ALT 900FT,2025-09-09T20:31:16Z,2025-09-09T16:31:16Z
CYLK,"Lutselke Arpt, NT, CA",2025-09-09T21:00:00Z,2025-09-09T17:00:00Z,VFR,14,8,120,8,0,15,1006.9,METAR CYLK 092100Z 12008KT 090V170 15SM -RA BKN048 OVC100 14/08 A2973 RMK SC5AC3 FU SLP077 DENSITY ALT 800FT,2025-09-09T21:12:40Z,2025-09-09T17:12:40Z
CYLK,"Lutselke Arpt, NT, CA",2025-09-09T21:30:00Z,2025-09-09T17:30:00Z,MVFR,12,10,110,12,0,3,1006.2,SPECI CYLK 092130Z CCA 11012KT 080V140 3SM RA SCT034 BKN084 OVC110 12/10 A2971 RMK SC3AC4AC1 FU SLP072,2025-09-09T21:39:37Z,2025-09-09T17:39:37Z
CYLK,"Lutselke Arpt, NT, CA",2025-09-09T21:42:00Z,2025-09-09T17:42:00Z,VFR,12,10,110,10,16,NA,1006.5,SPECI CYLK 092142Z 11010G16KT 10SM -RA BKN036 OVC087 12/10 A2972 RMK SC6AC2 FU SLP073,2025-09-09T21:50:14Z,2025-09-09T17:50:14Z
CYLK,"Lutselke Arpt, NT, CA",2025-09-09T22:27:00Z,2025-09-09T18:27:00Z,VFR,12,10,110,6,0,20,1005.8,SPECI CYLK 092227Z 11006KT 080V150 20SM -RA SCT047 OVC092 12/10 A2970 RMK SC3AC5 FU SLP069,2025-09-09T22:37:45Z,2025-09-09T18:37:45Z
CYLK,"Lutselke Arpt, NT, CA",2025-09-09T22:47:00Z,2025-09-09T18:47:00Z,VFR,12,10,110,5,17,25,1005.8,SPECI CYLK 092247Z 11005G17KT 25SM SCT037 BKN070 OVC096 12/10 A2970 RMK SC4AC2AC2 FU SLP066,2025-09-09T22:58:30Z,2025-09-09T18:58:30Z
CYLK,"Lutselke Arpt, NT, CA",2025-09-09T23:00:00Z,2025-09-09T19:00:00Z,MVFR,12,10,0,0,0,3,1005.8,METAR CYLK 092300Z 00000KT 3SM -RA SCT033 BKN054 OVC071 12/10 A2970 RMK SC4SC3AC1 FU INTMT-RA SLP068,2025-09-09T23:21:15Z,2025-09-09T19:21:15Z
CYLL,"Lloydminster Arpt, AB, CA",2025-09-10T01:00:00Z,2025-09-09T21:00:00Z,VFR,25,8,160,7,0,15,1010.9,METAR CYLL 100100Z 16007KT 15SM FEW260 25/08 A2985 RMK CI1 SLP114 DENSITY ALT 4000FT,2025-09-10T01:11:23Z,2025-09-09T21:11:23Z
CYLW,"Kelowna Arpt, BC, CA",2025-09-09T15:00:00Z,2025-09-09T11:00:00Z,VFR,14,11,60,2,0,9,1013.3,METAR CYLW 091500Z AUTO 06002KT 9SM CLR 14/11 A2992 RMK SLP133 DENSITY ALT 1700FT,2025-09-09T15:51:24Z,2025-09-09T11:51:24Z
CYLW,"Kelowna Arpt, BC, CA",2025-09-09T16:00:00Z,2025-09-09T12:00:00Z,VFR,18,12,0,0,0,9,1013.3,METAR CYLW 091600Z AUTO 00000KT 9SM CLR 18/12 A2992 RMK SLP132 DENSITY ALT 2100FT,2025-09-09T16:11:11Z,2025-09-09T12:11:11Z
CYLW,"Kelowna Arpt, BC, CA",2025-09-09T17:00:00Z,2025-09-09T13:00:00Z,VFR,20,12,VAR,3,0,9,1013.3,METAR CYLW 091700Z AUTO VRB03KT 9SM CLR 20/12 A2992 RMK SLP130 DENSITY ALT 2400FT,2025-09-09T17:12:44Z,2025-09-09T13:12:44Z
CYLW,"Kelowna Arpt, BC, CA",2025-09-09T18:00:00Z,2025-09-09T14:00:00Z,VFR,22,12,VAR,2,0,9,1012.6,METAR CYLW 091800Z AUTO VRB02KT 9SM CLR 22/12 A2990 RMK SLP123 DENSITY ALT 2700FT,2025-09-09T18:09:16Z,2025-09-09T14:09:16Z
CYLW,"Kelowna Arpt, BC, CA",2025-09-09T19:00:00Z,2025-09-09T15:00:00Z,VFR,24,12,330,7,15,9,1011.6,METAR CYLW 091900Z AUTO 33007G15KT 300V360 9SM CLR 24/12 A2987 RMK SLP114 DENSITY ALT 2900FT,2025-09-09T19:20:43Z,2025-09-09T15:20:43Z
CYLW,"Kelowna Arpt, BC, CA",2025-09-09T20:00:00Z,2025-09-09T16:00:00Z,VFR,26,11,VAR,3,0,9,1010.9,METAR CYLW 092000Z AUTO VRB03KT 9SM CLR 26/11 A2985 RMK LTNG DIST E SE SLP107 DENSITY ALT 3100FT,2025-09-09T20:10:07Z,2025-09-09T16:10:07Z
CYLW,"Kelowna Arpt, BC, CA",2025-09-09T20:43:00Z,2025-09-09T16:43:00Z,VFR,26,11,0,0,0,9,1010.6,SPECI CYLW 092043Z AUTO 00000KT 9SM VCTS CLR 26/11 A2984 RMK LTNG DIST NE E SLP104 DENSITY ALT 3100FT,2025-09-09T20:53:55Z,2025-09-09T16:53:55Z
CYLW,"Kelowna Arpt, BC, CA",2025-09-09T21:00:00Z,2025-09-09T17:00:00Z,VFR,26,12,200,6,0,9,1010.6,METAR CYLW 092100Z AUTO 20006KT 180V310 9SM VCTS CLR 26/12 A2984 RMK LTNG DIST NE E SLP101 DENSITY ALT 3200FT,2025-09-09T21:12:35Z,2025-09-09T17:12:35Z
CYLW,"Kelowna Arpt, BC, CA",2025-09-09T21:22:00Z,2025-09-09T17:22:00Z,VFR,25,13,190,6,0,9,1010.6,SPECI CYLW 092122Z AUTO 19006KT 9SM VCTS SCT170 25/13 A2984 RMK LTNG DIST E W NW SLP102 DENSITY ALT 3100FT,2025-09-09T21:28:16Z,2025-09-09T17:28:16Z
CYLW,"Kelowna Arpt, BC, CA",2025-09-09T21:55:00Z,2025-09-09T17:55:00Z,VFR,27,9,VAR,4,0,9,1010.2,SPECI CYLW 092155Z AUTO VRB04KT 9SM BKN140 BKN160 27/09 A2983 RMK LTNG DIST S SW NW SLP100 DENSITY ALT 3200FT,2025-09-09T22:00:03Z,2025-09-09T18:00:03Z
CYLW,"Kelowna Arpt, BC, CA",2025-09-09T22:00:00Z,2025-09-09T18:00:00Z,VFR,27,9,90,6,0,9,1010.2,METAR CYLW 092200Z AUTO 09006KT 050V200 9SM BKN140 27/09 A2983 RMK LTNG DIST W NW SLP098 DENSITY ALT 3300FT,2025-09-09T22:20:10Z,2025-09-09T18:20:10Z
CYLW,"Kelowna Arpt, BC, CA",2025-09-09T23:00:00Z,2025-09-09T19:00:00Z,VFR,27,7,100,7,0,9,1009.9,METAR CYLW 092300Z AUTO 10007KT 050V150 9SM SCT110 BKN130 27/07 A2982 RMK SLP097 DENSITY ALT 3200FT,2025-09-09T23:21:12Z,2025-09-09T19:21:12Z
CYLW,"Kelowna Arpt, BC, CA",2025-09-10T01:00:00Z,2025-09-09T21:00:00Z,VFR,27,8,230,5,0,9,1009.6,METAR CYLW 100100Z AUTO 23005KT 100V260 9SM FEW130 SCT150 27/08 A2981 RMK SLP095 DENSITY ALT 3200FT,2025-09-10T01:11:22Z,2025-09-09T21:11:22Z
CYMA,"Mayo Arpt, YT, CA",2025-09-10T01:00:00Z,2025-09-09T21:00:00Z,VFR,15,9,100,7,0,20,1008.2,METAR CYMA 100100Z 10007KT 20SM SCT030TCU BKN070 BKN090 15/09 A2977 RMK TCU3AC2AC1 SLP099 DENSITY ALT 2300FT,2025-09-10T01:11:22Z,2025-09-09T21:11:22Z
CYMH,"Mary's Harbor Arpt, NL, CA",2025-09-09T15:00:00Z,2025-09-09T11:00:00Z,VFR,14,5,330,9,18,9,1020.4,METAR CYMH 091500Z AUTO 33009G18KT 280V340 9SM CLR 14/05 A3013 RMK SLP205,2025-09-09T15:51:26Z,2025-09-09T11:51:26Z
CYMH,"Mary's Harbor Arpt, NL, CA",2025-09-09T16:00:00Z,2025-09-09T12:00:00Z,VFR,13,5,300,8,16,9,1020.7,METAR CYMH 091600Z AUTO 30008G16KT 280V360 9SM SCT044 13/05 A3014 RMK SLP209,2025-09-09T16:11:12Z,2025-09-09T12:11:12Z
CYMH,"Mary's Harbor Arpt, NL, CA",2025-09-09T17:00:00Z,2025-09-09T13:00:00Z,VFR,16,6,340,4,0,9,1020.7,METAR CYMH 091700Z AUTO 34004KT 270V010 9SM SCT055 16/06 A3014 RMK SLP210,2025-09-09T17:12:45Z,2025-09-09T13:12:45Z
CYMH,"Mary's Harbor Arpt, NL, CA",2025-09-09T18:00:00Z,2025-09-09T14:00:00Z,VFR,17,5,330,8,18,9,1021.1,METAR CYMH 091800Z AUTO 33008G18KT 9SM SCT060 17/05 A3015 RMK SLP211,2025-09-09T18:09:17Z,2025-09-09T14:09:17Z
CYMH,"Mary's Harbor Arpt, NL, CA",2025-09-09T19:00:00Z,2025-09-09T15:00:00Z,VFR,17,4,310,8,15,9,1021.4,METAR CYMH 091900Z AUTO 31008G15KT 280V340 9SM BKN066 17/04 A3016 RMK SLP214,2025-09-09T19:20:46Z,2025-09-09T15:20:46Z
CYMH,"Mary's Harbor Arpt, NL, CA",2025-09-09T20:00:00Z,2025-09-09T16:00:00Z,VFR,16,3,310,12,17,9,1021.4,METAR CYMH 092000Z AUTO 31012G17KT 270V350 9SM CLR 16/03 A3016 RMK SLP216,2025-09-09T20:10:11Z,2025-09-09T16:10:11Z
CYMH,"Mary's Harbor Arpt, NL, CA",2025-09-09T21:00:00Z,2025-09-09T17:00:00Z,VFR,16,4,310,7,0,9,1021.8,METAR CYMH 092100Z AUTO 31007KT 9SM CLR 16/04 A3017 RMK SLP219,2025-09-09T21:12:38Z,2025-09-09T17:12:38Z
CYMH,"Mary's Harbor Arpt, NL, CA",2025-09-09T22:00:00Z,2025-09-09T18:00:00Z,VFR,12,6,260,5,0,9,1022.4,METAR CYMH 092200Z AUTO 26005KT 9SM CLR 12/06 A3019 RMK SLP227,2025-09-09T22:20:11Z,2025-09-09T18:20:11Z
CYMH,"Mary's Harbor Arpt, NL, CA",2025-09-09T23:00:00Z,2025-09-09T19:00:00Z,VFR,11,4,270,5,0,9,1023.5,METAR CYMH 092300Z AUTO 27005KT 9SM SCT081 11/04 A3022 RMK SLP235,2025-09-09T23:21:13Z,2025-09-09T19:21:13Z
CYMH,"Mary's Harbor Arpt, NL, CA",2025-09-10T01:00:00Z,2025-09-09T21:00:00Z,VFR,7,4,VAR,2,0,9,1024.1,METAR CYMH 100100Z AUTO VRB02KT 9SM CLR 07/04 A3024 RMK SLP242,2025-09-10T01:11:23Z,2025-09-09T21:11:23Z
CYMJ,"Moose Jaw Arpt(CFB), SK, CA",2025-09-10T00:07:00Z,2025-09-09T20:07:00Z,VFR,27,7,130,3,0,NA,1014,SPECI CYMJ 100007Z 13003KT 100V160 10SM FEW080 FEW300 27/07 A2994 RMK CU1CI1 DENSITY ALT 3856FT FU LAST OBS /NEXT 101000 UTC SLP144,2025-09-10T00:12:35Z,2025-09-09T20:12:35Z
CYMM,"Fort McMurray Arpt, AB, CA",2025-09-09T15:00:00Z,2025-09-09T11:00:00Z,MVFR,12,9,100,7,0,5,1011.3,METAR CYMM 091500Z AUTO 10007KT 5SM HZ CLR 12/09 A2986 RMK SLP125,2025-09-09T15:51:24Z,2025-09-09T11:51:24Z
CYMM,"Fort McMurray Arpt, AB, CA",2025-09-09T16:00:00Z,2025-09-09T12:00:00Z,MVFR,15,10,90,6,0,5,1010.9,METAR CYMM 091600Z AUTO 09006KT 5SM HZ CLR 15/10 A2985 RMK SLP121 DENSITY ALT 1600FT,2025-09-09T16:11:11Z,2025-09-09T12:11:11Z
CYMM,"Fort McMurray Arpt, AB, CA",2025-09-09T16:51:00Z,2025-09-09T12:51:00Z,VFR,18,12,90,4,0,6,1010.6,SPECI CYMM 091651Z AUTO 09004KT 060V140 6SM HZ BKN100 18/12 A2984 RMK SLP114 DENSITY ALT 2000FT,2025-09-09T16:53:58Z,2025-09-09T12:53:58Z
CYMM,"Fort McMurray Arpt, AB, CA",2025-09-09T17:00:00Z,2025-09-09T13:00:00Z,VFR,18,12,80,6,0,6,1010.6,METAR CYMM 091700Z AUTO 08006KT 6SM HZ BKN100 18/12 A2984 RMK SLP114 DENSITY ALT 2000FT,2025-09-09T17:12:44Z,2025-09-09T13:12:44Z
CYMM,"Fort McMurray Arpt, AB, CA",2025-09-09T18:00:00Z,2025-09-09T14:00:00Z,VFR,23,13,110,8,0,9,1009.9,METAR CYMM 091800Z AUTO 11008KT 9SM CLR 23/13 A2982 RMK SLP105 DENSITY ALT 2600FT,2025-09-09T18:09:15Z,2025-09-09T14:09:15Z
CYMM,"Fort McMurray Arpt, AB, CA",2025-09-09T19:00:00Z,2025-09-09T15:00:00Z,VFR,26,13,120,12,0,9,1008.9,METAR CYMM 091900Z AUTO 12012KT 9SM CLR 26/13 A2979 RMK SLP096 DENSITY ALT 3000FT,2025-09-09T19:20:44Z,2025-09-09T15:20:44Z
CYMM,"Fort McMurray Arpt, AB, CA",2025-09-09T20:00:00Z,2025-09-09T16:00:00Z,VFR,27,13,120,15,0,9,1008.2,METAR CYMM 092000Z AUTO 12015KT 9SM CLR 27/13 A2977 RMK SLP088 DENSITY ALT 3100FT,2025-09-09T20:10:07Z,2025-09-09T16:10:07Z
CYMM,"Fort McMurray Arpt, AB, CA",2025-09-09T21:00:00Z,2025-09-09T17:00:00Z,VFR,27,13,140,15,0,9,1007.9,METAR CYMM 092100Z AUTO 14015KT 9SM CLR 27/13 A2976 RMK SLP083 DENSITY ALT 3100FT,2025-09-09T21:12:35Z,2025-09-09T17:12:35Z
CYMM,"Fort McMurray Arpt, AB, CA",2025-09-09T22:00:00Z,2025-09-09T18:00:00Z,VFR,29,14,180,8,17,9,1007.2,METAR CYMM 092200Z AUTO 18008G17KT 130V200 9SM CLR 29/14 A2974 RMK SLP079 DENSITY ALT 3300FT,2025-09-09T22:20:10Z,2025-09-09T18:20:10Z
CYMM,"Fort McMurray Arpt, AB, CA",2025-09-09T23:00:00Z,2025-09-09T19:00:00Z,VFR,28,13,160,7,0,9,1006.9,METAR CYMM 092300Z AUTO 16007KT 9SM CLR 28/13 A2973 RMK SLP074 DENSITY ALT 3300FT,2025-09-09T23:21:12Z,2025-09-09T19:21:12Z
CYMM,"Fort McMurray Arpt, AB, CA",2025-09-10T01:00:00Z,2025-09-09T21:00:00Z,VFR,25,16,150,3,0,9,1006.5,METAR CYMM 100100Z AUTO 15003KT 140V200 9SM BKN081 25/16 A2972 RMK SLP071 DENSITY ALT 3000FT,2025-09-10T01:11:23Z,2025-09-09T21:11:23Z
CYMO,"Moosonee Arpt, ON, CA",2025-09-09T15:00:00Z,2025-09-09T11:00:00Z,MVFR,13,11,200,11,0,9,1014.6,METAR CYMO 091500Z AUTO 20011KT 9SM BKN013 OVC037 13/11 A2996 RMK SLP146,2025-09-09T15:51:24Z,2025-09-09T11:51:24Z
CYMO,"Moosonee Arpt, ON, CA",2025-09-09T15:53:00Z,2025-09-09T11:53:00Z,IFR,13,12,190,8,0,9,1014.3,SPECI CYMO 091553Z AUTO 19008KT 9SM OVC009 13/12 A2995 RMK SLP145,2025-09-09T16:05:56Z,2025-09-09T12:05:56Z
CYMO,"Moosonee Arpt, ON, CA",2025-09-09T16:00:00Z,2025-09-09T12:00:00Z,IFR,13,12,190,9,0,9,1014.3,METAR CYMO 091600Z AUTO 19009KT 9SM OVC009 13/12 A2995 RMK SLP145,2025-09-09T16:11:11Z,2025-09-09T12:11:11Z
CYMO,"Moosonee Arpt, ON, CA",2025-09-09T16:33:00Z,2025-09-09T12:33:00Z,MVFR,14,13,190,6,0,9,1014.3,SPECI CYMO 091633Z AUTO 19006KT 9SM SCT007 OVC019 14/13 A2995 RMK SLP143,2025-09-09T16:36:21Z,2025-09-09T12:36:21Z
CYMO,"Moosonee Arpt, ON, CA",2025-09-09T17:00:00Z,2025-09-09T13:00:00Z,MVFR,14,13,190,7,0,9,1014,METAR CYMO 091700Z AUTO 19007KT 9SM FEW012 OVC021 14/13 A2994 RMK SLP142,2025-09-09T17:12:44Z,2025-09-09T13:12:44Z
CYMO,"Moosonee Arpt, ON, CA",2025-09-09T18:00:00Z,2025-09-09T14:00:00Z,MVFR,16,13,210,10,0,9,1013.6,METAR CYMO 091800Z AUTO 21010KT 9SM OVC016 16/13 A2993 RMK SLP137,2025-09-09T18:09:16Z,2025-09-09T14:09:16Z
CYMO,"Moosonee Arpt, ON, CA",2025-09-09T19:00:00Z,2025-09-09T15:00:00Z,MVFR,16,13,210,9,0,9,1013.6,METAR CYMO 091900Z AUTO 21009KT 9SM OVC018 16/13 A2993 RMK SLP138,2025-09-09T19:20:44Z,2025-09-09T15:20:44Z
CYMO,"Moosonee Arpt, ON, CA",2025-09-09T20:00:00Z,2025-09-09T16:00:00Z,MVFR,16,13,210,9,15,9,1013.6,METAR CYMO 092000Z AUTO 21009G15KT 9SM OVC020 16/13 A2993 RMK SLP137,2025-09-09T20:10:07Z,2025-09-09T16:10:07Z
CYMO,"Moosonee Arpt, ON, CA",2025-09-09T21:00:00Z,2025-09-09T17:00:00Z,MVFR,16,13,220,8,0,9,1013.6,METAR CYMO 092100Z AUTO 22008KT 9SM OVC018 16/13 A2993 RMK SLP139,2025-09-09T21:12:35Z,2025-09-09T17:12:35Z
CYMO,"Moosonee Arpt, ON, CA",2025-09-09T22:17:00Z,2025-09-09T18:17:00Z,MVFR,16,14,190,7,0,9,1014.3,SPECI CYMO 092217Z AUTO 19007KT 9SM BKN025 16/14 A2995 RMK SLP143,2025-09-09T22:20:10Z,2025-09-09T18:20:10Z
CYMO,"Moosonee Arpt, ON, CA",2025-09-09T23:00:00Z,2025-09-09T19:00:00Z,VFR,16,13,210,8,0,9,1014.3,METAR CYMO 092300Z AUTO 21008KT 9SM CLR 16/13 A2995 RMK SLP145,2025-09-09T23:21:12Z,2025-09-09T19:21:12Z
CYMO,"Moosonee Arpt, ON, CA",2025-09-10T01:00:00Z,2025-09-09T21:00:00Z,VFR,13,13,200,6,0,9,1015,METAR CYMO 100100Z AUTO 20006KT 9SM SCT096 13/13 A2997 RMK SLP150,2025-09-10T01:11:22Z,2025-09-09T21:11:22Z
CYMT,"Chibougamau Arpt, QC, CA",2025-09-09T15:45:00Z,2025-09-09T11:45:00Z,VFR,13,9,180,14,0,9,1023.1,SPECI CYMT 091545Z AUTO 18014KT 9SM SCT047 BKN066 OVC084 13/09 A3021 RMK SLP243,2025-09-09T15:51:27Z,2025-09-09T11:51:27Z
CYMT,"Chibougamau Arpt, QC, CA",2025-09-09T16:00:00Z,2025-09-09T12:00:00Z,VFR,13,9,200,11,19,9,1023.5,METAR CYMT 091600Z AUTO 20011G19KT 9SM BKN045 BKN071 OVC083 13/09 A3022 RMK SLP246,2025-09-09T16:11:14Z,2025-09-09T12:11:14Z
CYMT,"Chibougamau Arpt, QC, CA",2025-09-09T16:15:00Z,2025-09-09T12:15:00Z,VFR,13,9,190,14,23,9,1023.1,SPECI CYMT 091615Z AUTO 19014G23KT 9SM -RA BKN045 OVC050 13/09 A3021 RMK SLP244,2025-09-09T16:36:25Z,2025-09-09T12:36:25Z
CYMT,"Chibougamau Arpt, QC, CA",2025-09-09T16:44:00Z,2025-09-09T12:44:00Z,VFR,13,8,190,13,19,9,1022.8,SPECI CYMT 091644Z AUTO 19013G19KT 9SM -RA BKN048 OVC060 13/08 A3020 RMK SLP239,2025-09-09T16:54:01Z,2025-09-09T12:54:01Z
CYMT,"Chibougamau Arpt, QC, CA",2025-09-09T17:10:00Z,2025-09-09T13:10:00Z,VFR,13,7,190,17,22,9,1022.8,SPECI CYMT 091710Z AUTO 19017G22KT 9SM OVC049 13/07 A3020 RMK SLP238,2025-09-09T17:12:49Z,2025-09-09T13:12:49Z
CYMT,"Chibougamau Arpt, QC, CA",2025-09-09T18:00:00Z,2025-09-09T14:00:00Z,VFR,13,7,190,14,25,9,1022.4,METAR CYMT 091800Z AUTO 19014G25KT 9SM OVC046 13/07 A3019 RMK SLP236,2025-09-09T18:09:19Z,2025-09-09T14:09:19Z
CYMT,"Chibougamau Arpt, QC, CA",2025-09-09T18:25:00Z,2025-09-09T14:25:00Z,VFR,13,7,200,18,26,9,1022.4,SPECI CYMT 091825Z AUTO 20018G26KT 9SM -RA BKN046 OVC060 13/07 A3019 RMK SLP236,2025-09-09T18:38:55Z,2025-09-09T14:38:55Z
CYMT,"Chibougamau Arpt, QC, CA",2025-09-09T19:00:00Z,2025-09-09T15:00:00Z,VFR,12,9,190,11,16,9,1022.8,METAR CYMT 091900Z AUTO 19011G16KT 9SM -RA BKN055 OVC072 12/09 A3020 RMK SLP238,2025-09-09T19:20:52Z,2025-09-09T15:20:52Z
CYMT,"Chibougamau Arpt, QC, CA",2025-09-09T20:00:00Z,2025-09-09T16:00:00Z,VFR,11,10,170,8,0,9,1022.1,METAR CYMT 092000Z AUTO 17008KT 9SM -RA OVC076 11/10 A3018 RMK PCPN 1.0MM PAST HR SLP233,2025-09-09T20:10:12Z,2025-09-09T16:10:12Z
CYMT,"Chibougamau Arpt, QC, CA",2025-09-09T21:00:00Z,2025-09-09T17:00:00Z,VFR,11,10,170,8,0,9,1021.8,METAR CYMT 092100Z AUTO 17008KT 9SM -RA BKN066 OVC080 11/10 A3017 RMK PCPN 0.8MM PAST HR SLP231,2025-09-09T21:12:40Z,2025-09-09T17:12:40Z
CYMT,"Chibougamau Arpt, QC, CA",2025-09-09T22:00:00Z,2025-09-09T18:00:00Z,VFR,11,10,170,7,15,9,1021.8,METAR CYMT 092200Z AUTO 17007G15KT 9SM -RA OVC050 11/10 A3017 RMK PCPN 1.0MM PAST HR SLP231,2025-09-09T22:20:13Z,2025-09-09T18:20:13Z
CYMT,"Chibougamau Arpt, QC, CA",2025-09-09T23:00:00Z,2025-09-09T19:00:00Z,VFR,11,10,150,8,0,9,1021.4,METAR CYMT 092300Z AUTO 15008KT 9SM -RA OVC046 11/10 A3016 RMK PCPN 0.5MM PAST HR SLP228,2025-09-09T23:21:15Z,2025-09-09T19:21:15Z
CYMT,"Chibougamau Arpt, QC, CA",2025-09-10T00:06:00Z,2025-09-09T20:06:00Z,VFR,11,10,160,9,0,9,1021.4,SPECI CYMT 100006Z AUTO 16009KT 9SM OVC036 11/10 A3016 RMK SLP225,2025-09-10T00:12:35Z,2025-09-09T20:12:35Z
CYMT,"Chibougamau Arpt, QC, CA",2025-09-10T00:19:00Z,2025-09-09T20:19:00Z,VFR,11,10,160,9,15,9,1021.4,SPECI CYMT 100019Z AUTO 16009G15KT 9SM -RA OVC034 11/10 A3016 RMK SLP226,2025-09-10T00:33:15Z,2025-09-09T20:33:15Z
CYMT,"Chibougamau Arpt, QC, CA",2025-09-10T01:00:00Z,2025-09-09T21:00:00Z,VFR,11,10,160,8,0,9,1021.1,METAR CYMT 100100Z AUTO 16008KT 9SM -RA OVC032 11/10 A3015 RMK SLP221,2025-09-10T01:11:22Z,2025-09-09T21:11:22Z
CYMX,"Montreal/Mirabel Arpt, QC, CA",2025-09-10T01:00:00Z,2025-09-09T21:00:00Z,VFR,12,9,0,0,0,25,1025.1,METAR CYMX 100100Z 00000KT 25SM FEW250 12/09 A3027 RMK CI2 SLP254,2025-09-10T01:11:22Z,2025-09-09T21:11:22Z
CYNA,"Natashquan Arpt, QC, CA",2025-09-10T01:00:00Z,2025-09-09T21:00:00Z,VFR,9,7,260,7,0,9,1026.8,METAR CYNA 100100Z AUTO 26007KT 9SM CLR 09/07 A3032 RMK SLP271,2025-09-10T01:11:24Z,2025-09-09T21:11:24Z
CYND,"Gatineau/Ottawa Exec, QC, CA",2025-09-10T01:00:00Z,2025-09-09T21:00:00Z,VFR,12,9,0,0,0,15,1024.5,METAR CYND 100100Z 00000KT 15SM SCT250 12/09 A3025 RMK CI3 LAST STFD OBS/NXT 101100Z SLP246,2025-09-10T01:11:24Z,2025-09-09T21:11:24Z
CYNE,"Norway House Arpt, MB, CA",2025-09-10T01:00:00Z,2025-09-09T21:00:00Z,VFR,14,9,110,3,0,9,1017.7,METAR CYNE 100100Z AUTO 11003KT 9SM CLR 14/09 A3005 RMK SLP186,2025-09-10T01:11:24Z,2025-09-09T21:11:24Z
CYNM,"Matagami Arpt, QC, CA",2025-09-10T00:01:00Z,2025-09-09T20:01:00Z,IFR,12,12,190,8,0,3,1018,SPECI CYNM 100001Z AUTO 19008KT 3SM -RA BR OVC005 12/12 A3006 RMK SLP190,2025-09-10T00:12:35Z,2025-09-09T20:12:35Z
CYNM,"Matagami Arpt, QC, CA",2025-09-10T00:30:00Z,2025-09-09T20:30:00Z,IFR,12,12,190,8,0,1.75,1018,SPECI CYNM 100030Z AUTO 19008KT 1 3/4SM -RA BR OVC005 12/12 A3006 RMK SLP191,2025-09-10T00:33:15Z,2025-09-09T20:33:15Z
CYNM,"Matagami Arpt, QC, CA",2025-09-10T01:00:00Z,2025-09-09T21:00:00Z,IFR,12,12,200,7,0,2.25,1018,METAR CYNM 100100Z AUTO 20007KT 2 1/4SM -RA BR OVC005 12/12 A3006 RMK PCPN 0.5MM PAST HR SLP190,2025-09-10T01:11:24Z,2025-09-09T21:11:24Z
CYOD,"Cold Lake (Mil), AB, CA",2025-09-09T15:00:00Z,2025-09-09T11:00:00Z,VFR,14,11,120,7,0,8,1013.6,METAR CYOD 091500Z 12007KT 8SM FEW080 FEW250 14/11 A2993 RMK AC1CI1 DENSITY ALT 2258FT FU SLP143,2025-09-09T15:51:26Z,2025-09-09T11:51:26Z
CYOD,"Cold Lake (Mil), AB, CA",2025-09-09T16:00:00Z,2025-09-09T12:00:00Z,VFR,17,11,120,6,0,8,1013.6,METAR CYOD 091600Z 12006KT 8SM FEW250 17/11 A2993 RMK CI1 DENSITY ALT 2593FT FU SLP144,2025-09-09T16:11:12Z,2025-09-09T12:11:12Z
CYOD,"Cold Lake (Mil), AB, CA",2025-09-09T17:00:00Z,2025-09-09T13:00:00Z,VFR,20,12,90,5,0,NA,1013.6,METAR CYOD 091700Z 09005KT 10SM FEW080 FEW250 20/12 A2993 RMK AC1CI1 DENSITY ALT 2995FT SLP140,2025-09-09T17:12:45Z,2025-09-09T13:12:45Z
CYOD,"Cold Lake (Mil), AB, CA",2025-09-09T18:00:00Z,2025-09-09T14:00:00Z,VFR,23,13,120,6,0,8,1013.3,METAR CYOD 091800Z 12006KT 8SM FEW250 23/13 A2992 RMK CI1 DENSITY ALT 3367FT FU SLP135,2025-09-09T18:09:17Z,2025-09-09T14:09:17Z
CYOD,"Cold Lake (Mil), AB, CA",2025-09-09T19:00:00Z,2025-09-09T15:00:00Z,VFR,26,13,120,9,0,8,1012.6,METAR CYOD 091900Z 12009KT 8SM FEW250 26/13 A2990 RMK CI2 DENSITY ALT 3724FT FU SLP127,2025-09-09T19:20:46Z,2025-09-09T15:20:46Z
CYOD,"Cold Lake (Mil), AB, CA",2025-09-09T20:00:00Z,2025-09-09T16:00:00Z,VFR,28,10,170,11,0,8,1011.9,METAR CYOD 092000Z 17011KT 8SM FEW250 28/10 A2988 RMK CI1 DENSITY ALT 3978FT FU SLP120,2025-09-09T20:10:11Z,2025-09-09T16:10:11Z
CYOD,"Cold Lake (Mil), AB, CA",2025-09-09T21:00:00Z,2025-09-09T17:00:00Z,VFR,28,8,150,11,18,8,1011.3,METAR CYOD 092100Z 15011G18KT 8SM FEW080 FEW250 28/08 A2986 RMK AC1CI1 DENSITY ALT 4026FT FU SLP114,2025-09-09T21:12:38Z,2025-09-09T17:12:38Z
CYOD,"Cold Lake (Mil), AB, CA",2025-09-09T22:00:00Z,2025-09-09T18:00:00Z,VFR,29,10,160,12,18,8,1010.9,METAR CYOD 092200Z 16012G18KT 8SM FEW250 29/10 A2985 RMK CI1 DENSITY ALT 4077FT FU SLP111,2025-09-09T22:20:11Z,2025-09-09T18:20:11Z
CYOD,"Cold Lake (Mil), AB, CA",2025-09-09T23:00:00Z,2025-09-09T19:00:00Z,VFR,29,9,170,9,17,8,1010.6,METAR CYOD 092300Z 17009G17KT 8SM FEW070 FEW250 29/09 A2984 RMK CU1CI1 DENSITY ALT 4077FT FU SLP105,2025-09-09T23:21:13Z,2025-09-09T19:21:13Z
CYOD,"Cold Lake (Mil), AB, CA",2025-09-10T01:00:00Z,2025-09-09T21:00:00Z,VFR,25,10,150,7,0,8,1009.9,METAR CYOD 100100Z 15007KT 8SM FEW080 FEW250 25/10 A2982 RMK AC1CI1 DENSITY ALT 3689FT FU SLP102,2025-09-10T01:11:24Z,2025-09-09T21:11:24Z
CYOJ,"High Level Arpt, AB, CA",2025-09-10T01:00:00Z,2025-09-09T21:00:00Z,VFR,21,10,280,5,0,12,1005.5,METAR CYOJ 100100Z 28005KT 220V300 12SM FEW040 BKN080 21/10 A2969 RMK FU1AC6 FU TR LAST STFD OBS/NXT 101400Z SLP064 DENSITY ALT 2400FT,2025-09-10T01:11:24Z,2025-09-09T21:11:24Z
CYOO,"Oshawa Arpt, ON, CA",2025-09-10T01:00:00Z,2025-09-09T21:00:00Z,VFR,15,11,80,5,0,9,1023.5,METAR CYOO 100100Z AUTO 08005KT 9SM CLR 15/11 A3022 RMK SLP238,2025-09-10T01:11:24Z,2025-09-09T21:11:24Z
CYOW,"Ottawa/Cartier Intl, ON, CA",2025-09-09T15:00:00Z,2025-09-09T11:00:00Z,VFR,15,9,170,3,0,15,1028.2,METAR CYOW 091500Z 17003KT 130V270 15SM FEW250 15/09 A3036 RMK CI1 CI TR SLP285,2025-09-09T15:51:24Z,2025-09-09T11:51:24Z
CYOW,"Ottawa/Cartier Intl, ON, CA",2025-09-09T16:00:00Z,2025-09-09T12:00:00Z,VFR,18,9,270,3,0,15,1027.9,METAR CYOW 091600Z 27003KT 180V330 15SM FEW250 18/09 A3035 RMK CI1 CI TR SLP282,2025-09-09T16:11:11Z,2025-09-09T12:11:11Z
CYOW,"Ottawa/Cartier Intl, ON, CA",2025-09-09T17:00:00Z,2025-09-09T13:00:00Z,VFR,19,9,220,5,0,15,1027.2,METAR CYOW 091700Z 22005KT 130V250 15SM FEW040 FEW250 19/09 A3033 RMK CU1CI1 CU TR SLP275 DENSITY ALT 600FT,2025-09-09T17:12:43Z,2025-09-09T13:12:43Z
CYOW,"Ottawa/Cartier Intl, ON, CA",2025-09-09T18:00:00Z,2025-09-09T14:00:00Z,VFR,21,8,170,6,0,15,1026.5,METAR CYOW 091800Z 17006KT 15SM FEW050 FEW250 21/08 A3031 RMK CU1CI1 SLP266 DENSITY ALT 700FT,2025-09-09T18:09:15Z,2025-09-09T14:09:15Z
CYOW,"Ottawa/Cartier Intl, ON, CA",2025-09-09T19:00:00Z,2025-09-09T15:00:00Z,VFR,21,8,180,9,0,15,1025.5,METAR CYOW 091900Z 18009KT 130V230 15SM FEW050 BKN250 21/08 A3028 RMK CU1CI5 CU TR SLP257 DENSITY ALT 800FT,2025-09-09T19:20:44Z,2025-09-09T15:20:44Z
CYOW,"Ottawa/Cartier Intl, ON, CA",2025-09-09T20:00:00Z,2025-09-09T16:00:00Z,VFR,22,9,180,8,0,15,1024.8,METAR CYOW 092000Z 18008KT 140V230 15SM FEW050 BKN250 22/09 A3026 RMK CU1CI6 CU TR SLP251 DENSITY ALT 900FT,2025-09-09T20:10:07Z,2025-09-09T16:10:07Z
CYOW,"Ottawa/Cartier Intl, ON, CA",2025-09-09T21:00:00Z,2025-09-09T17:00:00Z,VFR,22,8,180,5,0,15,1024.5,METAR CYOW 092100Z 18005KT 140V220 15SM BKN250 22/08 A3025 RMK CI6 SLP248 DENSITY ALT 900FT,2025-09-09T21:12:35Z,2025-09-09T17:12:35Z
CYOW,"Ottawa/Cartier Intl, ON, CA",2025-09-09T22:00:00Z,2025-09-09T18:00:00Z,VFR,20,8,160,6,0,15,1024.8,METAR CYOW 092200Z 16006KT 15SM BKN250 20/08 A3026 RMK CI6 SLP250 DENSITY ALT 800FT,2025-09-09T22:20:10Z,2025-09-09T18:20:10Z
CYOW,"Ottawa/Cartier Intl, ON, CA",2025-09-09T23:00:00Z,2025-09-09T19:00:00Z,VFR,18,8,160,5,0,15,1024.8,METAR CYOW 092300Z 16005KT 15SM SCT250 18/08 A3026 RMK CI3 SLP250,2025-09-09T23:21:12Z,2025-09-09T19:21:12Z
CYOW,"Ottawa/Cartier Intl, ON, CA",2025-09-10T01:00:00Z,2025-09-09T21:00:00Z,VFR,16,7,170,5,0,15,1024.8,METAR CYOW 100100Z 17005KT 15SM BKN250 16/07 A3026 RMK CI6 SLP250,2025-09-10T01:11:24Z,2025-09-09T21:11:24Z
CYOY,"Valcartier Arpt, QC, CA",2025-09-10T01:00:00Z,2025-09-09T21:00:00Z,VFR,10,10,10,2,0,15,1026.2,METAR CYOY 100100Z 01002KT 15SM FEW250 10/10 A3030 RMK CI2 DENSITY ALT -209FT SLP264,2025-09-10T01:11:24Z,2025-09-09T21:11:24Z
CYPA,"Prince Albert Arpt, SK, CA",2025-09-10T01:00:00Z,2025-09-09T21:00:00Z,VFR,21,13,100,3,0,15,1013.6,METAR CYPA 100100Z 10003KT 15SM FEW270 21/13 A2993 RMK CI2 FU SLP147 DENSITY ALT 2400FT,2025-09-10T01:11:24Z,2025-09-09T21:11:24Z
CYPC,"Paulatuk Arpt, NT, CA",2025-09-09T15:00:00Z,2025-09-09T11:00:00Z,VFR,5,4,0,0,0,15,1005.8,METAR CYPC 091500Z 00000KT 15SM SCT180 BKN210 05/04 A2970 RMK AC3CS3 SLP061,2025-09-09T15:51:27Z,2025-09-09T11:51:27Z
CYPC,"Paulatuk Arpt, NT, CA",2025-09-09T16:00:00Z,2025-09-09T12:00:00Z,VFR,6,6,60,2,0,15,1005.8,METAR CYPC 091600Z 06002KT 15SM SCT190 BKN250 06/06 A2970 RMK AC4CS2 SLP058,2025-09-09T16:11:14Z,2025-09-09T12:11:14Z
CYPC,"Paulatuk Arpt, NT, CA",2025-09-09T17:00:00Z,2025-09-09T13:00:00Z,VFR,5,5,360,3,0,15,1005.8,METAR CYPC 091700Z 36003KT 15SM FEW190 SCT250 05/05 A2970 RMK AC2CS1 DIST TCU TOP SW SLP058,2025-09-09T17:12:49Z,2025-09-09T13:12:49Z
CYPC,"Paulatuk Arpt, NT, CA",2025-09-09T18:00:00Z,2025-09-09T14:00:00Z,VFR,7,6,340,2,0,15,1005.5,METAR CYPC 091800Z 34002KT 15SM FEW190 FEW250 07/06 A2969 RMK AC1CS1 DIST TCU TOP SW SLP057,2025-09-09T18:09:19Z,2025-09-09T14:09:19Z
CYPC,"Paulatuk Arpt, NT, CA",2025-09-09T19:00:00Z,2025-09-09T15:00:00Z,VFR,6,5,340,3,0,15,1005.8,METAR CYPC 091900Z 34003KT 15SM FEW080 FEW190 06/05 A2970 RMK ACC1AC1 ACC TR SLP058,2025-09-09T19:20:52Z,2025-09-09T15:20:52Z
CYPC,"Paulatuk Arpt, NT, CA",2025-09-09T20:00:00Z,2025-09-09T16:00:00Z,VFR,10,7,50,4,0,15,1005.8,METAR CYPC 092000Z 05004KT 330V070 15SM FEW190 10/07 A2970 RMK AC2 SLP058,2025-09-09T20:10:12Z,2025-09-09T16:10:12Z
CYPC,"Paulatuk Arpt, NT, CA",2025-09-09T21:00:00Z,2025-09-09T17:00:00Z,VFR,10,8,80,3,0,15,1005.5,METAR CYPC 092100Z 08003KT 15SM FEW190 10/08 A2969 RMK AC2 SLP055,2025-09-09T21:12:40Z,2025-09-09T17:12:40Z
CYPC,"Paulatuk Arpt, NT, CA",2025-09-09T22:00:00Z,2025-09-09T18:00:00Z,VFR,12,8,60,7,0,15,1005.2,METAR CYPC 092200Z 06007KT 15SM SCT140 12/08 A2968 RMK AC4 SLP053,2025-09-09T22:20:13Z,2025-09-09T18:20:13Z
CYPC,"Paulatuk Arpt, NT, CA",2025-09-09T23:00:00Z,2025-09-09T19:00:00Z,VFR,11,8,60,7,0,15,1005.2,METAR CYPC 092300Z 06007KT 15SM BKN140 11/08 A2968 RMK AC6 LAST STFD OBS/ NEXT 101300 SLP053,2025-09-09T23:21:15Z,2025-09-09T19:21:15Z
CYPD,"Port Hawkesbury Arpt, NS, CA",2025-09-10T01:00:00Z,2025-09-09T21:00:00Z,VFR,10,7,30,5,0,9,1029.2,METAR CYPD 100100Z AUTO 03005KT 9SM CLR 10/07 A3039 RMK SLP295,2025-09-10T01:11:24Z,2025-09-09T21:11:24Z
CYPE,"Peace River Arpt, AB, CA",2025-09-10T01:00:00Z,2025-09-09T21:00:00Z,VFR,23,10,260,9,16,9,1006.9,METAR CYPE 100100Z AUTO 26009G16KT 9SM CLR 23/10 A2973 RMK SLP077 DENSITY ALT 3500FT,2025-09-10T01:11:24Z,2025-09-09T21:11:24Z
CYPG,"Portage la Prairie/Southport Arpt, MB, CA",2025-09-10T01:00:00Z,2025-09-09T21:00:00Z,VFR,20,14,360,4,0,12,1016,METAR CYPG 100100Z 36004KT 12SM SKC 20/14 A3000 RMK DENSITY ALT 1773FT SLP160,2025-09-10T01:11:24Z,2025-09-09T21:11:24Z
CYPH,"Inukjuak Arpt, QC, CA",2025-09-10T00:09:00Z,2025-09-09T20:09:00Z,MVFR,6,3,330,9,0,9,1016.7,SPECI CYPH 100009Z AUTO 33009KT 9SM SCT017 OVC030 06/03 A3002 RMK SLP169,2025-09-10T00:33:15Z,2025-09-09T20:33:15Z
CYPH,"Inukjuak Arpt, QC, CA",2025-09-10T01:00:00Z,2025-09-09T21:00:00Z,VFR,5,3,350,7,0,9,1016.7,METAR CYPH 100100Z AUTO 35007KT 9SM BKN036 05/03 A3002 RMK SLP171,2025-09-10T01:11:24Z,2025-09-09T21:11:24Z
CYPL,"Pickle Lake Arpt, ON, CA",2025-09-09T15:00:00Z,2025-09-09T11:00:00Z,VFR,15,11,10,3,0,9,1014.6,METAR CYPL 091500Z AUTO 01003KT 330V070 9SM CLR 15/11 A2996 RMK SLP155 DENSITY ALT 1600FT,2025-09-09T15:51:24Z,2025-09-09T11:51:24Z
CYPL,"Pickle Lake Arpt, ON, CA",2025-09-09T16:00:00Z,2025-09-09T12:00:00Z,VFR,17,11,360,3,0,9,1015,METAR CYPL 091600Z AUTO 36003KT 310V060 9SM CLR 17/11 A2997 RMK SLP158 DENSITY ALT 1800FT,2025-09-09T16:11:11Z,2025-09-09T12:11:11Z
CYPL,"Pickle Lake Arpt, ON, CA",2025-09-09T17:00:00Z,2025-09-09T13:00:00Z,VFR,19,10,330,3,0,9,1015,METAR CYPL 091700Z AUTO 33003KT 310V040 9SM CLR 19/10 A2997 RMK SLP157 DENSITY ALT 2000FT,2025-09-09T17:12:43Z,2025-09-09T13:12:43Z
CYPL,"Pickle Lake Arpt, ON, CA",2025-09-09T18:00:00Z,2025-09-09T14:00:00Z,VFR,20,9,10,4,0,9,1015,METAR CYPL 091800Z AUTO 01004KT 300V090 9SM CLR 20/09 A2997 RMK SLP157 DENSITY ALT 2100FT,2025-09-09T18:09:15Z,2025-09-09T14:09:15Z
CYPL,"Pickle Lake Arpt, ON, CA",2025-09-09T19:00:00Z,2025-09-09T15:00:00Z,VFR,21,8,VAR,3,0,9,1015,METAR CYPL 091900Z AUTO VRB03KT 9SM CLR 21/08 A2997 RMK SLP159 DENSITY ALT 2200FT,2025-09-09T19:20:44Z,2025-09-09T15:20:44Z
CYPL,"Pickle Lake Arpt, ON, CA",2025-09-09T20:00:00Z,2025-09-09T16:00:00Z,VFR,20,9,0,0,0,9,1015,METAR CYPL 092000Z AUTO 00000KT 9SM FEW066 SCT084 20/09 A2997 RMK SLP158 DENSITY ALT 2100FT,2025-09-09T20:10:07Z,2025-09-09T16:10:07Z
CYPL,"Pickle Lake Arpt, ON, CA",2025-09-09T21:00:00Z,2025-09-09T17:00:00Z,VFR,20,9,360,3,0,9,1015,METAR CYPL 092100Z AUTO 36003KT 9SM SCT060 OVC077 20/09 A2997 RMK SLP160 DENSITY ALT 2200FT,2025-09-09T21:12:35Z,2025-09-09T17:12:35Z
CYPL,"Pickle Lake Arpt, ON, CA",2025-09-09T22:00:00Z,2025-09-09T18:00:00Z,VFR,20,10,VAR,2,0,9,1015.3,METAR CYPL 092200Z AUTO VRB02KT 9SM SCT071 BKN089 20/10 A2998 RMK SLP162 DENSITY ALT 2100FT,2025-09-09T22:20:10Z,2025-09-09T18:20:10Z
CYPL,"Pickle Lake Arpt, ON, CA",2025-09-09T23:00:00Z,2025-09-09T19:00:00Z,VFR,18,9,50,9,15,9,1016.3,METAR CYPL 092300Z AUTO 05009G15KT 9SM BKN066 OVC089 18/09 A3001 RMK SLP171 DENSITY ALT 1900FT,2025-09-09T23:21:12Z,2025-09-09T19:21:12Z
CYPL,"Pickle Lake Arpt, ON, CA",2025-09-10T01:00:00Z,2025-09-09T21:00:00Z,VFR,16,8,50,7,0,9,1017.4,METAR CYPL 100100Z AUTO 05007KT 9SM FEW071 OVC095 16/08 A3004 RMK SLP183 DENSITY ALT 1600FT,2025-09-10T01:11:24Z,2025-09-09T21:11:24Z
CYPO,"Peawanuck Arpt, ON, CA",2025-09-10T00:29:00Z,2025-09-09T20:29:00Z,MVFR,6,5,350,8,0,9,1018.4,SPECI CYPO 100029Z AUTO 35008KT 9SM -RA OVC012 06/05 A3007 RMK SLP185,2025-09-10T00:33:15Z,2025-09-09T20:33:15Z
CYPO,"Peawanuck Arpt, ON, CA",2025-09-10T01:00:00Z,2025-09-09T21:00:00Z,MVFR,6,5,350,4,0,9,1018.4,METAR CYPO 100100Z AUTO 35004KT 9SM FEW010 OVC018 06/05 A3007 RMK SLP186,2025-09-10T01:11:24Z,2025-09-09T21:11:24Z
CYPQ,"Peterborough Muni, ON, CA",2025-09-10T01:00:00Z,2025-09-09T21:00:00Z,VFR,11,10,0,0,0,9,1023.8,METAR CYPQ 100100Z AUTO 00000KT 9SM CLR 11/10 A3023 RMK SLP245,2025-09-10T01:11:24Z,2025-09-09T21:11:24Z
CYPR,"Prince Rupert Arpt, BC, CA",2025-09-09T15:00:00Z,2025-09-09T11:00:00Z,NA,12,12,VAR,2,0,NA,1017.7,METAR CYPR 091500Z AUTO VRB02KT OVC002 12/12 A3005 RMK WX MISG VIS MISG SLP178,2025-09-09T15:51:26Z,2025-09-09T11:51:26Z
CYPR,"Prince Rupert Arpt, BC, CA",2025-09-09T16:00:00Z,2025-09-09T12:00:00Z,NA,13,12,360,3,0,NA,1017.7,METAR CYPR 091600Z AUTO 36003KT 310V020 OVC002 13/12 A3005 RMK WX MISG VIS MISG SLP178,2025-09-09T16:11:12Z,2025-09-09T12:11:12Z
CYPR,"Prince Rupert Arpt, BC, CA",2025-09-09T16:31:00Z,2025-09-09T12:31:00Z,NA,13,13,VAR,2,0,NA,1017.4,SPECI CYPR 091631Z AUTO VRB02KT BKN006 OVC009 13/13 A3004 RMK WX MISG VIS MISG SLP176,2025-09-09T16:36:22Z,2025-09-09T12:36:22Z
CYPR,"Prince Rupert Arpt, BC, CA",2025-09-09T17:00:00Z,2025-09-09T13:00:00Z,NA,14,12,330,4,0,NA,1017.4,METAR CYPR 091700Z AUTO 33004KT 290V030 OVC008 14/12 A3004 RMK WX MISG VIS MISG SLP176,2025-09-09T17:12:45Z,2025-09-09T13:12:45Z
CYPR,"Prince Rupert Arpt, BC, CA",2025-09-09T18:00:00Z,2025-09-09T14:00:00Z,NA,14,12,300,4,0,NA,1017.4,METAR CYPR 091800Z AUTO 30004KT 250V320 OVC008 14/12 A3004 RMK WX MISG VIS MISG SLP175,2025-09-09T18:09:17Z,2025-09-09T14:09:17Z
CYPR,"Prince Rupert Arpt, BC, CA",2025-09-09T18:38:00Z,2025-09-09T14:38:00Z,NA,15,13,340,5,0,NA,1017.4,SPECI CYPR 091838Z AUTO 34005KT 250V360 SCT008 BKN013 15/13 A3004 RMK WX MISG VIS MISG SLP174,2025-09-09T18:38:53Z,2025-09-09T14:38:53Z
CYPR,"Prince Rupert Arpt, BC, CA",2025-09-09T18:47:00Z,2025-09-09T14:47:00Z,NA,16,13,340,6,0,NA,1017,SPECI CYPR 091847Z AUTO 34006KT 280V010 FEW008 SCT013 16/13 A3003 RMK WX MISG VIS MISG SLP173,2025-09-09T18:50:43Z,2025-09-09T14:50:43Z
CYPR,"Prince Rupert Arpt, BC, CA",2025-09-09T18:50:00Z,2025-09-09T14:50:00Z,NA,16,12,360,7,0,NA,1017,SPECI CYPR 091850Z AUTO 36007KT 280V020 BKN013 16/12 A3003 RMK WX MISG VIS MISG SLP172,2025-09-09T19:00:51Z,2025-09-09T15:00:51Z
CYPR,"Prince Rupert Arpt, BC, CA",2025-09-09T19:00:00Z,2025-09-09T15:00:00Z,NA,15,12,320,6,0,NA,1017,METAR CYPR 091900Z AUTO 32006KT 310V030 SCT013 15/12 A3003 RMK WX MISG VIS MISG SLP172,2025-09-09T19:20:46Z,2025-09-09T15:20:46Z
CYPR,"Prince Rupert Arpt, BC, CA",2025-09-09T19:28:00Z,2025-09-09T15:28:00Z,NA,15,12,230,6,0,NA,1017,SPECI CYPR 091928Z AUTO 23006KT 200V330 BKN013 15/12 A3003 RMK WX MISG VIS MISG SLP171,2025-09-09T19:30:36Z,2025-09-09T15:30:36Z
CYPR,"Prince Rupert Arpt, BC, CA",2025-09-09T19:39:00Z,2025-09-09T15:39:00Z,NA,15,13,290,4,0,NA,1017,SPECI CYPR 091939Z AUTO 29004KT 230V340 SCT013 15/13 A3003 RMK WX MISG VIS MISG SLP172,2025-09-09T19:41:11Z,2025-09-09T15:41:11Z
CYPR,"Prince Rupert Arpt, BC, CA",2025-09-09T20:00:00Z,2025-09-09T16:00:00Z,NA,15,13,240,4,0,NA,1017,METAR CYPR 092000Z AUTO 24004KT 200V300 FEW015 15/13 A3003 RMK WX MISG VIS MISG SLP173,2025-09-09T20:10:11Z,2025-09-09T16:10:11Z
CYPR,"Prince Rupert Arpt, BC, CA",2025-09-09T21:00:00Z,2025-09-09T17:00:00Z,NA,16,13,270,4,0,NA,1017.4,METAR CYPR 092100Z AUTO 27004KT 250V320 CLR 16/13 A3004 RMK WX MISG VIS MISG SLP174,2025-09-09T21:12:38Z,2025-09-09T17:12:38Z
CYPR,"Prince Rupert Arpt, BC, CA",2025-09-09T22:00:00Z,2025-09-09T18:00:00Z,NA,16,13,270,6,0,NA,1016.7,METAR CYPR 092200Z AUTO 27006KT 220V290 CLR 16/13 A3002 RMK WX MISG VIS MISG SLP168,2025-09-09T22:20:11Z,2025-09-09T18:20:11Z
CYPR,"Prince Rupert Arpt, BC, CA",2025-09-09T23:00:00Z,2025-09-09T19:00:00Z,NA,16,12,240,4,0,NA,1016.3,METAR CYPR 092300Z AUTO 24004KT 210V330 FEW150 16/12 A3001 RMK WX MISG VIS MISG SLP166,2025-09-09T23:21:13Z,2025-09-09T19:21:13Z
CYPR,"Prince Rupert Arpt, BC, CA",2025-09-10T01:00:00Z,2025-09-09T21:00:00Z,NA,15,12,280,7,0,NA,1016,METAR CYPR 100100Z AUTO 28007KT BKN150 15/12 A3000 RMK WX MISG VIS MISG SLP162,2025-09-10T01:11:24Z,2025-09-09T21:11:24Z
CYPW,"Powell River Arpt, BC, CA",2025-09-10T01:00:00Z,2025-09-09T21:00:00Z,VFR,19,15,290,8,0,30,1012.6,METAR CYPW 100100Z 29008KT 30SM FEW020 FEW250 19/15 A2990 RMK SC1CI1 SC TR SLP128 DENSITY ALT 1000FT,2025-09-10T01:11:24Z,2025-09-09T21:11:24Z
CYPX,"Puvungnituq Arpt, QC, CA",2025-09-10T01:00:00Z,2025-09-09T21:00:00Z,MVFR,6,6,270,5,0,9,1016,METAR CYPX 100100Z AUTO 27005KT 9SM OVC018 06/06 A3000 RMK SLP162,2025-09-10T01:11:24Z,2025-09-09T21:11:24Z
CYPY,"Fort Chipewyan Arpt, AB, CA",2025-09-10T01:00:00Z,2025-09-09T21:00:00Z,VFR,24,14,170,5,0,9,1003.8,METAR CYPY 100100Z AUTO 17005KT 150V220 9SM OVC100 24/14 A2964 RMK SLP045 DENSITY ALT 2300FT,2025-09-10T01:11:24Z,2025-09-09T21:11:24Z
CYQA,"Muskoka Arpt, ON, CA",2025-09-09T15:00:00Z,2025-09-09T11:00:00Z,VFR,17,9,170,10,15,9,1026.2,METAR CYQA 091500Z AUTO 17010G15KT 150V210 9SM CLR 17/09 A3030 RMK SLP268,2025-09-09T15:51:24Z,2025-09-09T11:51:24Z
CYQA,"Muskoka Arpt, ON, CA",2025-09-09T16:00:00Z,2025-09-09T12:00:00Z,VFR,19,7,160,11,0,9,1025.8,METAR CYQA 091600Z AUTO 16011KT 150V210 9SM CLR 19/07 A3029 RMK SLP265 DENSITY ALT 1200FT,2025-09-09T16:11:11Z,2025-09-09T12:11:11Z
CYQA,"Muskoka Arpt, ON, CA",2025-09-09T17:00:00Z,2025-09-09T13:00:00Z,VFR,20,7,190,8,16,9,1025.5,METAR CYQA 091700Z AUTO 19008G16KT 180V240 9SM CLR 20/07 A3028 RMK SLP260 DENSITY ALT 1400FT,2025-09-09T17:12:44Z,2025-09-09T13:12:44Z
CYQA,"Muskoka Arpt, ON, CA",2025-09-09T18:00:00Z,2025-09-09T14:00:00Z,VFR,20,7,190,8,16,9,1024.5,METAR CYQA 091800Z AUTO 19008G16KT 130V220 9SM CLR 20/07 A3025 RMK SLP252 DENSITY ALT 1400FT,2025-09-09T18:09:15Z,2025-09-09T14:09:15Z
CYQA,"Muskoka Arpt, ON, CA",2025-09-09T19:00:00Z,2025-09-09T15:00:00Z,VFR,21,8,230,3,15,9,1023.8,METAR CYQA 091900Z AUTO 23003G15KT 180V250 9SM CLR 21/08 A3023 RMK SLP245 DENSITY ALT 1500FT,2025-09-09T19:20:44Z,2025-09-09T15:20:44Z
CYQA,"Muskoka Arpt, ON, CA",2025-09-09T20:00:00Z,2025-09-09T16:00:00Z,VFR,21,9,220,9,0,9,1023.5,METAR CYQA 092000Z AUTO 22009KT 140V240 9SM SCT050 21/09 A3022 RMK SLP241 DENSITY ALT 1600FT,2025-09-09T20:10:07Z,2025-09-09T16:10:07Z
CYQA,"Muskoka Arpt, ON, CA",2025-09-09T21:00:00Z,2025-09-09T17:00:00Z,VFR,21,8,210,5,0,9,1023.1,METAR CYQA 092100Z AUTO 21005KT 9SM FEW055 21/08 A3021 RMK SLP238 DENSITY ALT 1500FT,2025-09-09T21:12:35Z,2025-09-09T17:12:35Z
CYQA,"Muskoka Arpt, ON, CA",2025-09-09T22:00:00Z,2025-09-09T18:00:00Z,VFR,21,7,190,9,0,9,1023.1,METAR CYQA 092200Z AUTO 19009KT 170V230 9SM BKN060 21/07 A3021 RMK SLP236 DENSITY ALT 1500FT,2025-09-09T22:20:10Z,2025-09-09T18:20:10Z
CYQA,"Muskoka Arpt, ON, CA",2025-09-09T23:00:00Z,2025-09-09T19:00:00Z,VFR,18,9,150,3,0,9,1023.1,METAR CYQA 092300Z AUTO 15003KT 9SM OVC066 18/09 A3021 RMK SLP236 DENSITY ALT 1300FT,2025-09-09T23:21:12Z,2025-09-09T19:21:12Z
CYQA,"Muskoka Arpt, ON, CA",2025-09-10T01:00:00Z,2025-09-09T21:00:00Z,VFR,13,9,150,3,0,9,1022.8,METAR CYQA 100100Z AUTO 15003KT 9SM CLR 13/09 A3020 RMK SLP235,2025-09-10T01:11:24Z,2025-09-09T21:11:24Z
CYQB,"Quebec/Lesage Intl, QC, CA",2025-09-09T15:00:00Z,2025-09-09T11:00:00Z,VFR,16,7,130,3,0,30,1029.2,METAR CYQB 091500Z 13003KT 30SM FEW050 FEW100 FEW250 16/07 A3039 RMK SC1AC1CI2 SC TR AC TR SLP297,2025-09-09T15:51:24Z,2025-09-09T11:51:24Z
CYQB,"Quebec/Lesage Intl, QC, CA",2025-09-09T16:00:00Z,2025-09-09T12:00:00Z,VFR,17,6,VAR,2,0,30,1028.9,METAR CYQB 091600Z VRB02KT 30SM FEW050 FEW100 FEW250 17/06 A3038 RMK SC1AC1CI1 SC TR AC TR SLP292,2025-09-09T16:11:11Z,2025-09-09T12:11:11Z
CYQB,"Quebec/Lesage Intl, QC, CA",2025-09-09T17:00:00Z,2025-09-09T13:00:00Z,VFR,18,5,230,4,0,30,1028.5,METAR CYQB 091700Z 23004KT 180V280 30SM FEW051 FEW100 SCT250 18/05 A3037 RMK SC1AC1CI1 SLP289,2025-09-09T17:12:43Z,2025-09-09T13:12:43Z
CYQB,"Quebec/Lesage Intl, QC, CA",2025-09-09T18:00:00Z,2025-09-09T14:00:00Z,VFR,19,8,260,6,0,30,1027.9,METAR CYQB 091800Z 26006KT 170V280 30SM FEW052 FEW100 SCT250 19/08 A3035 RMK SC2AC1CI1 AC TR SLP280,2025-09-09T18:09:15Z,2025-09-09T14:09:15Z
CYQB,"Quebec/Lesage Intl, QC, CA",2025-09-09T19:00:00Z,2025-09-09T15:00:00Z,VFR,19,8,270,8,0,30,1026.8,METAR CYQB 091900Z 27008KT 230V300 30SM FEW052 FEW100 FEW250 19/08 A3032 RMK SC1AC1CI1 AC TR SLP270,2025-09-09T19:20:44Z,2025-09-09T15:20:44Z
CYQB,"Quebec/Lesage Intl, QC, CA",2025-09-09T20:00:00Z,2025-09-09T16:00:00Z,VFR,20,9,VAR,5,0,30,1026.2,METAR CYQB 092000Z VRB05KT 30SM FEW050 FEW180 SCT260 20/09 A3030 RMK CU1AC1CI2 AC TR SLP265 DENSITY ALT 500FT,2025-09-09T20:10:07Z,2025-09-09T16:10:07Z
CYQB,"Quebec/Lesage Intl, QC, CA",2025-09-09T21:00:00Z,2025-09-09T17:00:00Z,VFR,19,9,260,6,0,30,1025.8,METAR CYQB 092100Z 26006KT 200V270 30SM FEW050 FEW260 19/09 A3029 RMK SC1CI1 SC TR CI TR SLP260,2025-09-09T21:12:35Z,2025-09-09T17:12:35Z
CYQB,"Quebec/Lesage Intl, QC, CA",2025-09-09T22:00:00Z,2025-09-09T18:00:00Z,VFR,18,11,280,2,0,30,1025.5,METAR CYQB 092200Z 28002KT 30SM FEW260 18/11 A3028 RMK CI1 CI TR SLP259,2025-09-09T22:20:10Z,2025-09-09T18:20:10Z
CYQB,"Quebec/Lesage Intl, QC, CA",2025-09-09T23:00:00Z,2025-09-09T19:00:00Z,VFR,15,10,0,0,0,30,1025.5,METAR CYQB 092300Z 00000KT 30SM FEW160 FEW260 15/10 A3028 RMK AC1CI2 AC TR SLP259,2025-09-09T23:21:12Z,2025-09-09T19:21:12Z
CYQB,"Quebec/Lesage Intl, QC, CA",2025-09-10T01:00:00Z,2025-09-09T21:00:00Z,VFR,11,10,350,3,0,15,1025.8,METAR CYQB 100100Z 35003KT 320V030 15SM FEW260 11/10 A3029 RMK CI1 CI TR SLP263,2025-09-10T01:11:24Z,2025-09-09T21:11:24Z
CYQD,"The Pas Arpt, MB, CA",2025-09-10T01:00:00Z,2025-09-09T21:00:00Z,VFR,18,12,120,5,0,9,1016,METAR CYQD 100100Z AUTO 12005KT 9SM CLR 18/12 A3000 RMK SLP165 DENSITY ALT 1300FT,2025-09-10T01:11:24Z,2025-09-09T21:11:24Z
CYQF,"Red Deer Rgnl, AB, CA",2025-09-09T15:00:00Z,2025-09-09T11:00:00Z,MVFR,11,8,180,4,0,4,1013.6,METAR CYQF 091500Z AUTO 18004KT 4SM BR CLR 11/08 A2993 RMK SLP147 DENSITY ALT 3200FT,2025-09-09T15:51:24Z,2025-09-09T11:51:24Z
CYQF,"Red Deer Rgnl, AB, CA",2025-09-09T16:02:00Z,2025-09-09T12:02:00Z,VFR,15,9,220,4,0,6,1013.6,SPECI CYQF 091602Z AUTO 22004KT 6SM HZ CLR 15/09 A2993 RMK SLP143 DENSITY ALT 3700FT,2025-09-09T16:05:56Z,2025-09-09T12:05:56Z
CYQF,"Red Deer Rgnl, AB, CA",2025-09-09T17:00:00Z,2025-09-09T13:00:00Z,VFR,18,9,230,3,0,9,1013.6,METAR CYQF 091700Z AUTO 23003KT 180V260 9SM CLR 18/09 A2993 RMK SLP143 DENSITY ALT 4100FT,2025-09-09T17:12:44Z,2025-09-09T13:12:44Z
CYQF,"Red Deer Rgnl, AB, CA",2025-09-09T18:00:00Z,2025-09-09T14:00:00Z,VFR,22,9,VAR,3,0,9,1013.3,METAR CYQF 091800Z AUTO VRB03KT 9SM CLR 22/09 A2992 RMK SLP137 DENSITY ALT 4500FT,2025-09-09T18:09:16Z,2025-09-09T14:09:16Z
CYQF,"Red Deer Rgnl, AB, CA",2025-09-09T19:00:00Z,2025-09-09T15:00:00Z,VFR,24,8,VAR,4,0,9,1012.6,METAR CYQF 091900Z AUTO VRB04KT 9SM CLR 24/08 A2990 RMK SLP130 DENSITY ALT 4700FT,2025-09-09T19:20:44Z,2025-09-09T15:20:44Z
CYQF,"Red Deer Rgnl, AB, CA",2025-09-09T20:00:00Z,2025-09-09T16:00:00Z,VFR,25,7,VAR,6,0,9,1012.3,METAR CYQF 092000Z AUTO VRB06KT 9SM CLR 25/07 A2989 RMK SLP124 DENSITY ALT 4900FT,2025-09-09T20:10:07Z,2025-09-09T16:10:07Z
CYQF,"Red Deer Rgnl, AB, CA",2025-09-09T21:00:00Z,2025-09-09T17:00:00Z,VFR,26,6,210,9,0,9,1011.9,METAR CYQF 092100Z AUTO 21009KT 130V270 9SM CLR 26/06 A2988 RMK SLP120 DENSITY ALT 5000FT,2025-09-09T21:12:35Z,2025-09-09T17:12:35Z
CYQF,"Red Deer Rgnl, AB, CA",2025-09-09T22:00:00Z,2025-09-09T18:00:00Z,VFR,27,6,250,6,0,9,1011.3,METAR CYQF 092200Z AUTO 25006KT 130V270 9SM CLR 27/06 A2986 RMK SLP115 DENSITY ALT 5100FT,2025-09-09T22:20:10Z,2025-09-09T18:20:10Z
CYQF,"Red Deer Rgnl, AB, CA",2025-09-09T23:00:00Z,2025-09-09T19:00:00Z,VFR,27,6,VAR,7,0,9,1010.9,METAR CYQF 092300Z AUTO VRB07KT 9SM CLR 27/06 A2985 RMK SLP110 DENSITY ALT 5200FT,2025-09-09T23:21:12Z,2025-09-09T19:21:12Z
CYQF,"Red Deer Rgnl, AB, CA",2025-09-10T01:00:00Z,2025-09-09T21:00:00Z,VFR,24,7,170,8,0,9,1010.9,METAR CYQF 100100Z AUTO 17008KT 9SM VCTS FEW120 24/07 A2985 RMK SLP115 DENSITY ALT 4800FT,2025-09-10T01:11:24Z,2025-09-09T21:11:24Z
CYQG,"Windsor Intl, ON, CA",2025-09-09T15:00:00Z,2025-09-09T11:00:00Z,VFR,21,11,230,8,0,9,1024.5,METAR CYQG 091500Z AUTO 23008KT 180V250 9SM CLR 21/11 A3025 RMK SLP247 DENSITY ALT 1100FT,2025-09-09T15:51:24Z,2025-09-09T11:51:24Z
CYQG,"Windsor Intl, ON, CA",2025-09-09T16:00:00Z,2025-09-09T12:00:00Z,VFR,22,7,210,11,0,9,1024.5,METAR CYQG 091600Z AUTO 21011KT 9SM CLR 22/07 A3025 RMK SLP246 DENSITY ALT 1300FT,2025-09-09T16:11:11Z,2025-09-09T12:11:11Z
CYQG,"Windsor Intl, ON, CA",2025-09-09T17:00:00Z,2025-09-09T13:00:00Z,VFR,23,6,200,8,0,9,1024.1,METAR CYQG 091700Z AUTO 20008KT 190V250 9SM CLR 23/06 A3024 RMK SLP242 DENSITY ALT 1300FT,2025-09-09T17:12:43Z,2025-09-09T13:12:43Z
CYQG,"Windsor Intl, ON, CA",2025-09-09T18:00:00Z,2025-09-09T14:00:00Z,VFR,23,7,190,9,15,9,1023.5,METAR CYQG 091800Z AUTO 19009G15KT 150V270 9SM CLR 23/07 A3022 RMK SLP237 DENSITY ALT 1400FT,2025-09-09T18:09:15Z,2025-09-09T14:09:15Z
CYQG,"Windsor Intl, ON, CA",2025-09-09T19:00:00Z,2025-09-09T15:00:00Z,VFR,23,6,VAR,2,0,9,1022.8,METAR CYQG 091900Z AUTO VRB02KT 9SM CLR 23/06 A3020 RMK SLP230 DENSITY ALT 1500FT,2025-09-09T19:20:44Z,2025-09-09T15:20:44Z
CYQG,"Windsor Intl, ON, CA",2025-09-09T20:00:00Z,2025-09-09T16:00:00Z,VFR,23,6,VAR,3,0,7,1022.1,METAR CYQG 092000Z AUTO VRB03KT 7SM CLR 23/06 A3018 RMK SLP223 DENSITY ALT 1500FT,2025-09-09T20:10:07Z,2025-09-09T16:10:07Z
CYQG,"Windsor Intl, ON, CA",2025-09-09T21:00:00Z,2025-09-09T17:00:00Z,VFR,23,6,140,8,0,9,1022.1,METAR CYQG 092100Z AUTO 14008KT 9SM CLR 23/06 A3018 RMK SLP223 DENSITY ALT 1400FT,2025-09-09T21:12:35Z,2025-09-09T17:12:35Z
CYQG,"Windsor Intl, ON, CA",2025-09-09T22:00:00Z,2025-09-09T18:00:00Z,VFR,22,7,140,6,0,9,1022.1,METAR CYQG 092200Z AUTO 14006KT 9SM CLR 22/07 A3018 RMK SLP221 DENSITY ALT 1300FT,2025-09-09T22:20:10Z,2025-09-09T18:20:10Z
CYQG,"Windsor Intl, ON, CA",2025-09-09T23:00:00Z,2025-09-09T19:00:00Z,VFR,19,9,140,4,0,9,1021.8,METAR CYQG 092300Z AUTO 14004KT 9SM CLR 19/09 A3017 RMK SLP218 DENSITY ALT 1000FT,2025-09-09T23:21:12Z,2025-09-09T19:21:12Z
CYQG,"Windsor Intl, ON, CA",2025-09-10T00:03:00Z,2025-09-09T20:03:00Z,IFR,17,9,120,5,0,2.5,1021.4,SPECI CYQG 100003Z AUTO 12005KT 2 1/2SM HZ CLR 17/09 A3016 RMK VIS VRB 1 1/4-3 SLP215,2025-09-10T00:12:35Z,2025-09-09T20:12:35Z
CYQG,"Windsor Intl, ON, CA",2025-09-10T00:32:00Z,2025-09-09T20:32:00Z,VFR,16,9,120,4,0,9,1021.8,SPECI CYQG 100032Z AUTO 12004KT 9SM CLR 16/09 A3017 RMK SLP218,2025-09-10T00:33:15Z,2025-09-09T20:33:15Z
CYQG,"Windsor Intl, ON, CA",2025-09-10T01:00:00Z,2025-09-09T21:00:00Z,VFR,15,10,130,3,0,9,1021.8,METAR CYQG 100100Z AUTO 13003KT 9SM CLR 15/10 A3017 RMK SLP219,2025-09-10T01:11:24Z,2025-09-09T21:11:24Z
CYQH,"Watson Lake Arpt, YT, CA",2025-09-09T15:00:00Z,2025-09-09T11:00:00Z,VFR,7,3,30,2,0,30,1011.9,METAR CYQH 091500Z 03002KT 30SM BKN060 BKN120 07/03 A2988 RMK CU5AC2 SLP135,2025-09-09T15:51:26Z,2025-09-09T11:51:26Z
CYQH,"Watson Lake Arpt, YT, CA",2025-09-09T16:00:00Z,2025-09-09T12:00:00Z,VFR,10,5,0,0,0,30,1011.9,METAR CYQH 091600Z 00000KT 30SM BKN060 BKN110 10/05 A2988 RMK CU5AC1 SLP134,2025-09-09T16:11:12Z,2025-09-09T12:11:12Z
CYQH,"Watson Lake Arpt, YT, CA",2025-09-09T17:00:00Z,2025-09-09T13:00:00Z,VFR,12,5,VAR,2,0,25,1011.9,METAR CYQH 091700Z VRB02KT 25SM BKN062 12/05 A2988 RMK CU6 SLP132 DENSITY ALT 2600FT,2025-09-09T17:12:45Z,2025-09-09T13:12:45Z
CYQH,"Watson Lake Arpt, YT, CA",2025-09-09T18:00:00Z,2025-09-09T14:00:00Z,VFR,14,5,310,6,0,30,1011.9,METAR CYQH 091800Z 31006KT 260V330 30SM BKN055 14/05 A2988 RMK CU7 CLIMAT 14.5/3.4/0.0 SLP134 DENSITY ALT 2800FT,2025-09-09T18:09:17Z,2025-09-09T14:09:17Z
CYQH,"Watson Lake Arpt, YT, CA",2025-09-09T19:00:00Z,2025-09-09T15:00:00Z,VFR,16,5,280,9,0,30,1011.6,METAR CYQH 091900Z 28009KT 30SM SCT060 BKN075 16/05 A2987 RMK CU4AC3 SLP129 DENSITY ALT 3000FT,2025-09-09T19:20:46Z,2025-09-09T15:20:46Z
CYQH,"Watson Lake Arpt, YT, CA",2025-09-09T20:00:00Z,2025-09-09T16:00:00Z,VFR,16,4,260,10,0,30,1011.3,METAR CYQH 092000Z 26010KT 220V290 30SM BKN070 16/04 A2986 RMK AC7 SLP126 DENSITY ALT 3000FT,2025-09-09T20:10:11Z,2025-09-09T16:10:11Z
CYQH,"Watson Lake Arpt, YT, CA",2025-09-09T21:00:00Z,2025-09-09T17:00:00Z,VFR,16,4,300,13,0,30,1011.3,METAR CYQH 092100Z 30013KT 30SM BKN065 16/04 A2986 RMK CU7 SLP129 DENSITY ALT 3000FT,2025-09-09T21:12:38Z,2025-09-09T17:12:38Z
CYQH,"Watson Lake Arpt, YT, CA",2025-09-09T22:00:00Z,2025-09-09T18:00:00Z,VFR,17,5,290,12,0,30,1011.3,METAR CYQH 092200Z 29012KT 30SM BKN070 17/05 A2986 RMK AC6 SLP129 DENSITY ALT 3100FT,2025-09-09T22:20:11Z,2025-09-09T18:20:11Z
CYQH,"Watson Lake Arpt, YT, CA",2025-09-09T23:00:00Z,2025-09-09T19:00:00Z,VFR,17,4,300,15,0,30,1011.3,METAR CYQH 092300Z 30015KT 30SM SCT068 BKN120 17/04 A2986 RMK CU4AC1 SLP130 DENSITY ALT 3200FT,2025-09-09T23:21:13Z,2025-09-09T19:21:13Z
CYQH,"Watson Lake Arpt, YT, CA",2025-09-10T01:00:00Z,2025-09-09T21:00:00Z,VFR,18,4,300,11,0,40,1010.9,METAR CYQH 100100Z 30011KT 40SM SCT075 18/04 A2985 RMK AC4 SLP126 DENSITY ALT 3200FT,2025-09-10T01:11:24Z,2025-09-09T21:11:24Z
CYQI,"Yarmouth Arpt, NS, CA",2025-09-10T01:00:00Z,2025-09-09T21:00:00Z,VFR,12,6,50,4,0,15,1028.5,METAR CYQI 100100Z 05004KT 15SM BKN250 12/06 A3037 RMK CI5 CLD HGT EST SLP286,2025-09-10T01:11:24Z,2025-09-09T21:11:24Z
CYQK,"Kenora Arpt, ON, CA",2025-09-09T15:00:00Z,2025-09-09T11:00:00Z,VFR,17,12,0,0,0,20,1015.7,METAR CYQK 091500Z 00000KT 20SM FEW240 17/12 A2999 RMK CI1 SLP161 DENSITY ALT 1900FT,2025-09-09T15:51:26Z,2025-09-09T11:51:26Z
CYQK,"Kenora Arpt, ON, CA",2025-09-09T16:00:00Z,2025-09-09T12:00:00Z,VFR,19,9,VAR,2,0,20,1015.7,METAR CYQK 091600Z VRB02KT 20SM FEW250 19/09 A2999 RMK CI1 CI TR SLP162 DENSITY ALT 2100FT,2025-09-09T16:11:12Z,2025-09-09T12:11:12Z
CYQK,"Kenora Arpt, ON, CA",2025-09-09T17:00:00Z,2025-09-09T13:00:00Z,VFR,20,9,0,0,0,20,1016,METAR CYQK 091700Z 00000KT 20SM FEW240 20/09 A3000 RMK CI1 CI TR SLP164 DENSITY ALT 2200FT,2025-09-09T17:12:45Z,2025-09-09T13:12:45Z
CYQK,"Kenora Arpt, ON, CA",2025-09-09T18:00:00Z,2025-09-09T14:00:00Z,VFR,22,12,290,2,0,20,1015.7,METAR CYQK 091800Z 29002KT 20SM FEW040 FEW140 FEW240 22/12 A2999 RMK CU1AC1CI1 CU TR SLP162 DENSITY ALT 2400FT,2025-09-09T18:13:41Z,2025-09-09T14:13:41Z
CYQK,"Kenora Arpt, ON, CA",2025-09-09T19:00:00Z,2025-09-09T15:00:00Z,VFR,22,11,270,4,0,20,1015.7,METAR CYQK 091900Z 27004KT 140V310 20SM FEW040 FEW140 FEW240 22/11 A2999 RMK CU1AC1CI1 CU TR AC TR SLP162 DENSITY ALT 2400FT,2025-09-09T19:20:46Z,2025-09-09T15:20:46Z
CYQK,"Kenora Arpt, ON, CA",2025-09-09T20:00:00Z,2025-09-09T16:00:00Z,VFR,23,11,200,7,0,20,1015.7,METAR CYQK 092000Z 20007KT 150V290 20SM FEW048 FEW240 23/11 A2999 RMK CU1CI1 SLP162 DENSITY ALT 2500FT,2025-09-09T20:10:11Z,2025-09-09T16:10:11Z
CYQK,"Kenora Arpt, ON, CA",2025-09-09T21:00:00Z,2025-09-09T17:00:00Z,VFR,23,11,230,5,0,20,1015.7,METAR CYQK 092100Z 23005KT 150V250 20SM FEW044 FEW250 23/11 A2999 RMK CU1CI1 CU TR CI TR SLP161 DENSITY ALT 2500FT,2025-09-09T21:12:38Z,2025-09-09T17:12:38Z
CYQK,"Kenora Arpt, ON, CA",2025-09-09T22:00:00Z,2025-09-09T18:00:00Z,VFR,22,11,210,7,0,20,1015.7,METAR CYQK 092200Z 21007KT 190V260 20SM FEW040 FEW250 22/11 A2999 RMK CU1CI1 CI TR SLP162 DENSITY ALT 2500FT,2025-09-09T22:20:11Z,2025-09-09T18:20:11Z
CYQK,"Kenora Arpt, ON, CA",2025-09-09T23:00:00Z,2025-09-09T19:00:00Z,VFR,22,11,230,7,0,20,1016,METAR CYQK 092300Z 23007KT 20SM FEW040 SCT250 22/11 A3000 RMK SC1CI2 SLP165 DENSITY ALT 2400FT,2025-09-09T23:21:13Z,2025-09-09T19:21:13Z
CYQK,"Kenora Arpt, ON, CA",2025-09-10T01:00:00Z,2025-09-09T21:00:00Z,VFR,20,11,250,3,0,20,1016.3,METAR CYQK 100100Z 25003KT 20SM SCT050 BKN250 20/11 A3001 RMK SC3CI2 SLP169 DENSITY ALT 2100FT,2025-09-10T01:11:24Z,2025-09-09T21:11:24Z
CYQL,"Lethbridge Cnty Arpt, AB, CA",2025-09-10T00:15:00Z,2025-09-09T20:15:00Z,VFR,22,10,190,12,17,20,1011.9,SPECI CYQL 100015Z 19012G17KT 20SM -SHRA BKN065CB BKN110 22/10 A2988 RMK CB5AC2 VIS LWR W SLP119 DENSITY ALT 4600FT,2025-09-10T00:33:15Z,2025-09-09T20:33:15Z
CYQL,"Lethbridge Cnty Arpt, AB, CA",2025-09-10T01:00:00Z,2025-09-09T21:00:00Z,VFR,19,10,300,16,24,15,1011.6,METAR CYQL 100100Z 30016G24KT 15SM -SHRA BKN100CB BKN250 19/10 A2987 RMK CB6CI1 SLP121 DENSITY ALT 4400FT,2025-09-10T01:11:24Z,2025-09-09T21:11:24Z
CYQM,"Moncton Intl, NB, CA",2025-09-09T15:00:00Z,2025-09-09T11:00:00Z,VFR,18,6,VAR,2,0,15,1028.9,METAR CYQM 091500Z VRB02KT 15SM FEW045 FEW240 18/06 A3038 RMK CU1CI1 CU TR SLP292,2025-09-09T15:51:24Z,2025-09-09T11:51:24Z
CYQM,"Moncton Intl, NB, CA",2025-09-09T16:00:00Z,2025-09-09T12:00:00Z,VFR,20,5,250,7,0,15,1028.5,METAR CYQM 091600Z 25007KT 220V290 15SM FEW056 FEW240 20/05 A3037 RMK CU1CI1 CU TR SLP288,2025-09-09T16:11:11Z,2025-09-09T12:11:11Z
CYQM,"Moncton Intl, NB, CA",2025-09-09T17:00:00Z,2025-09-09T13:00:00Z,VFR,20,3,VAR,2,0,15,1028.2,METAR CYQM 091700Z VRB02KT 15SM FEW062 FEW240 20/03 A3036 RMK CU1CI1 CU TR SLP284,2025-09-09T17:12:43Z,2025-09-09T13:12:43Z
CYQM,"Moncton Intl, NB, CA",2025-09-09T18:00:00Z,2025-09-09T14:00:00Z,VFR,21,5,VAR,4,0,15,1027.5,METAR CYQM 091800Z VRB04KT 15SM FEW062 FEW240 21/05 A3034 RMK CU1CI1 SLP279 DENSITY ALT 500FT,2025-09-09T18:09:15Z,2025-09-09T14:09:15Z
CYQM,"Moncton Intl, NB, CA",2025-09-09T19:00:00Z,2025-09-09T15:00:00Z,VFR,20,5,0,0,0,15,1027.5,METAR CYQM 091900Z 00000KT 15SM FEW058 FEW240 20/05 A3034 RMK CU1CI1 CU TR SLP276 DENSITY ALT 500FT,2025-09-09T19:20:44Z,2025-09-09T15:20:44Z
CYQM,"Moncton Intl, NB, CA",2025-09-09T20:00:00Z,2025-09-09T16:00:00Z,VFR,21,5,190,6,0,15,1027.5,METAR CYQM 092000Z 19006KT 120V220 15SM FEW058 FEW240 21/05 A3034 RMK SC1CI2 SC TR SLP277 DENSITY ALT 500FT,2025-09-09T20:10:07Z,2025-09-09T16:10:07Z
CYQM,"Moncton Intl, NB, CA",2025-09-09T21:00:00Z,2025-09-09T17:00:00Z,VFR,20,6,VAR,6,0,15,1027.2,METAR CYQM 092100Z VRB06KT 15SM FEW056 FEW240 20/06 A3033 RMK SC1CI2 SC TR SLP275 DENSITY ALT 500FT,2025-09-09T21:12:35Z,2025-09-09T17:12:35Z
CYQM,"Moncton Intl, NB, CA",2025-09-09T22:00:00Z,2025-09-09T18:00:00Z,VFR,18,6,170,7,0,15,1027.5,METAR CYQM 092200Z 17007KT 15SM FEW065 SCT260 18/06 A3034 RMK SC1CI3 SC TR SLP277,2025-09-09T22:20:10Z,2025-09-09T18:20:10Z
CYQM,"Moncton Intl, NB, CA",2025-09-09T23:00:00Z,2025-09-09T19:00:00Z,VFR,15,7,100,3,0,15,1027.9,METAR CYQM 092300Z 10003KT 15SM FEW065 SCT260 15/07 A3035 RMK SC1CI3 SC TR SLP282,2025-09-09T23:21:12Z,2025-09-09T19:21:12Z
CYQM,"Moncton Intl, NB, CA",2025-09-10T01:00:00Z,2025-09-09T21:00:00Z,VFR,14,6,220,5,0,15,1028.2,METAR CYQM 100100Z 22005KT 15SM FEW065 SCT260 14/06 A3036 RMK SC1CI3 SC TR SLP284,2025-09-10T01:11:24Z,2025-09-09T21:11:24Z
CYQQ,"Comox(MIL), BC, CA",2025-09-09T15:00:00Z,2025-09-09T11:00:00Z,VFR,15,12,300,6,0,20,1015.3,METAR CYQQ 091500Z 30006KT 20SM FEW020 FEW240 15/12 A2998 RMK SC1CI1 DENSITY ALT 221FT SLP153,2025-09-09T15:51:24Z,2025-09-09T11:51:24Z
CYQQ,"Comox(MIL), BC, CA",2025-09-09T16:00:00Z,2025-09-09T12:00:00Z,MVFR,17,13,310,7,0,20,1015.3,METAR CYQQ 091600Z 31007KT 20SM BKN019 17/13 A2998 RMK SC5 DENSITY ALT 404FT SLP152,2025-09-09T16:11:11Z,2025-09-09T12:11:11Z
CYQQ,"Comox(MIL), BC, CA",2025-09-09T17:00:00Z,2025-09-09T13:00:00Z,MVFR,18,13,340,6,0,20,1015.3,METAR CYQQ 091700Z 34006KT 20SM BKN019 18/13 A2998 RMK SC7 DENSITY ALT 543FT SLP153,2025-09-09T17:12:44Z,2025-09-09T13:12:44Z
CYQQ,"Comox(MIL), BC, CA",2025-09-09T18:00:00Z,2025-09-09T14:00:00Z,MVFR,18,12,340,10,0,20,1015.3,METAR CYQQ 091800Z 34010KT 20SM BKN019 18/12 A2998 RMK SC7 DENSITY ALT 622FT SLP152,2025-09-09T18:09:15Z,2025-09-09T14:09:15Z
CYQQ,"Comox(MIL), BC, CA",2025-09-09T19:00:00Z,2025-09-09T15:00:00Z,MVFR,19,13,340,8,0,20,1015,METAR CYQQ 091900Z 34008KT 20SM BKN019 19/13 A2997 RMK SC6 DENSITY ALT 731FT SLP150,2025-09-09T19:20:44Z,2025-09-09T15:20:44Z
CYQQ,"Comox(MIL), BC, CA",2025-09-09T20:00:00Z,2025-09-09T16:00:00Z,VFR,19,13,360,10,0,20,1015,METAR CYQQ 092000Z 36010KT 20SM SCT019 19/13 A2997 RMK SC3 DENSITY ALT 757FT SLP148,2025-09-09T20:10:07Z,2025-09-09T16:10:07Z
CYQQ,"Comox(MIL), BC, CA",2025-09-09T21:00:00Z,2025-09-09T17:00:00Z,VFR,20,13,340,7,0,20,1014.3,METAR CYQQ 092100Z 34007KT 20SM FEW020 20/13 A2995 RMK SC1 DENSITY ALT 900FT SLP144,2025-09-09T21:12:35Z,2025-09-09T17:12:35Z
CYQQ,"Comox(MIL), BC, CA",2025-09-09T22:00:00Z,2025-09-09T18:00:00Z,VFR,20,13,360,9,0,20,1014,METAR CYQQ 092200Z 36009KT 20SM FEW020 FEW030 20/13 A2994 RMK SC1CU1 DENSITY ALT 913FT SLP139,2025-09-09T22:20:10Z,2025-09-09T18:20:10Z
CYQQ,"Comox(MIL), BC, CA",2025-09-09T23:00:00Z,2025-09-09T19:00:00Z,VFR,20,13,360,9,0,20,1013.3,METAR CYQQ 092300Z 36009KT 20SM FEW020 FEW030 20/13 A2992 RMK SC1CU1 DENSITY ALT 876FT SLP134,2025-09-09T23:21:12Z,2025-09-09T19:21:12Z
CYQQ,"Comox(MIL), BC, CA",2025-09-10T01:00:00Z,2025-09-09T21:00:00Z,VFR,20,14,330,6,0,20,1012.6,METAR CYQQ 100100Z 33006KT 20SM FEW040 FEW150 FEW240 20/14 A2990 RMK CU1AC1CI1 DENSITY ALT 868FT SLP126,2025-09-10T01:11:24Z,2025-09-09T21:11:24Z
CYQR,"Regina Intl Arpt, SK, CA",2025-09-09T15:00:00Z,2025-09-09T11:00:00Z,VFR,18,9,10,4,0,12,1016.3,METAR CYQR 091500Z 01004KT 320V030 12SM SKC 18/09 A3001 RMK HZ SLP167 DENSITY ALT 2700FT,2025-09-09T15:51:24Z,2025-09-09T11:51:24Z
CYQR,"Regina Intl Arpt, SK, CA",2025-09-09T16:00:00Z,2025-09-09T12:00:00Z,VFR,22,9,20,3,0,15,1016,METAR CYQR 091600Z 02003KT 300V050 15SM SKC 22/09 A3000 RMK SLP163 DENSITY ALT 3100FT,2025-09-09T16:11:11Z,2025-09-09T12:11:11Z
CYQR,"Regina Intl Arpt, SK, CA",2025-09-09T17:00:00Z,2025-09-09T13:00:00Z,VFR,24,10,VAR,2,0,15,1016,METAR CYQR 091700Z VRB02KT 15SM SKC 24/10 A3000 RMK SLP162 DENSITY ALT 3300FT,2025-09-09T17:12:43Z,2025-09-09T13:12:43Z
CYQR,"Regina Intl Arpt, SK, CA",2025-09-09T18:00:00Z,2025-09-09T14:00:00Z,VFR,25,10,VAR,2,0,15,1015.7,METAR CYQR 091800Z VRB02KT 15SM FEW040 25/10 A2999 RMK CU1 CU TR SLP162 DENSITY ALT 3400FT,2025-09-09T18:09:16Z,2025-09-09T14:09:16Z
CYQR,"Regina Intl Arpt, SK, CA",2025-09-09T19:00:00Z,2025-09-09T15:00:00Z,VFR,25,9,0,0,0,12,1015.7,METAR CYQR 091900Z 00000KT 12SM FEW060 25/09 A2999 RMK CU1 CU TR HZ SLP162 DENSITY ALT 3500FT,2025-09-09T19:20:44Z,2025-09-09T15:20:44Z
CYQR,"Regina Intl Arpt, SK, CA",2025-09-09T20:00:00Z,2025-09-09T16:00:00Z,VFR,26,7,10,4,0,12,1015,METAR CYQR 092000Z 01004KT 280V080 12SM FEW060 26/07 A2997 RMK CU1 CU TR HZ SLP157 DENSITY ALT 3600FT,2025-09-09T20:10:07Z,2025-09-09T16:10:07Z
CYQR,"Regina Intl Arpt, SK, CA",2025-09-09T21:00:00Z,2025-09-09T17:00:00Z,VFR,27,8,VAR,4,0,12,1014.6,METAR CYQR 092100Z VRB04KT 12SM FEW075 27/08 A2996 RMK CU1 CU TR HZ SLP154 DENSITY ALT 3700FT,2025-09-09T21:12:35Z,2025-09-09T17:12:35Z
CYQR,"Regina Intl Arpt, SK, CA",2025-09-09T22:00:00Z,2025-09-09T18:00:00Z,VFR,27,8,VAR,2,0,15,1014.6,METAR CYQR 092200Z VRB02KT 15SM FEW060 27/08 A2996 RMK CU1 SLP152 DENSITY ALT 3700FT,2025-09-09T22:20:10Z,2025-09-09T18:20:10Z
CYQR,"Regina Intl Arpt, SK, CA",2025-09-09T23:00:00Z,2025-09-09T19:00:00Z,VFR,26,8,210,4,0,12,1014.6,METAR CYQR 092300Z 21004KT 180V270 12SM FEW070 26/08 A2996 RMK CU1 CU TR HZ SLP153 DENSITY ALT 3600FT,2025-09-09T23:21:12Z,2025-09-09T19:21:12Z
CYQR,"Regina Intl Arpt, SK, CA",2025-09-10T01:00:00Z,2025-09-09T21:00:00Z,VFR,24,8,140,4,0,12,1014.3,METAR CYQR 100100Z 14004KT 12SM FEW070 24/08 A2995 RMK CU1 CU TR HZ SLP151 DENSITY ALT 3300FT,2025-09-10T01:11:24Z,2025-09-09T21:11:24Z
CYQT,"Thunder Bay Intl, ON, CA",2025-09-09T15:00:00Z,2025-09-09T11:00:00Z,MVFR,15,14,VAR,2,0,8,1014,METAR CYQT 091500Z VRB02KT 8SM SCT005 BKN013 OVC023 15/14 A2994 RMK SF3SC2SC3 BR SLP145,2025-09-09T15:51:24Z,2025-09-09T11:51:24Z
CYQT,"Thunder Bay Intl, ON, CA",2025-09-09T16:00:00Z,2025-09-09T12:00:00Z,IFR,16,15,30,4,0,NA,1014.3,METAR CYQT 091600Z 03004KT 300V040 10SM BKN008 OVC023 16/15 A2995 RMK SC6SC2 SLP148 DENSITY ALT 1000FT,2025-09-09T16:11:11Z,2025-09-09T12:11:11Z
CYQT,"Thunder Bay Intl, ON, CA",2025-09-09T17:00:00Z,2025-09-09T13:00:00Z,MVFR,17,15,100,4,0,15,1014.6,METAR CYQT 091700Z 10004KT 15SM SCT013 OVC019 17/15 A2996 RMK SC4SC4 SLP152 DENSITY ALT 1000FT,2025-09-09T17:12:44Z,2025-09-09T13:12:44Z
CYQT,"Thunder Bay Intl, ON, CA",2025-09-09T18:00:00Z,2025-09-09T14:00:00Z,MVFR,17,15,120,3,0,15,1015,METAR CYQT 091800Z 12003KT 070V150 15SM SCT013 OVC019 17/15 A2997 RMK SC4SC4 SLP154 DENSITY ALT 1100FT,2025-09-09T18:09:16Z,2025-09-09T14:09:16Z
CYQT,"Thunder Bay Intl, ON, CA",2025-09-09T18:43:00Z,2025-09-09T14:43:00Z,MVFR,18,15,100,4,0,20,1015,SPECI CYQT 091843Z 10004KT 050V140 20SM FEW013 BKN027 BKN260 18/15 A2997 RMK SC2SC3CI2 FG DIST E OVR LKSUPR SLP155 DENSITY ALT 1200FT,2025-09-09T18:50:42Z,2025-09-09T14:50:42Z
CYQT,"Thunder Bay Intl, ON, CA",2025-09-09T19:00:00Z,2025-09-09T15:00:00Z,VFR,19,14,VAR,2,0,15,1015,METAR CYQT 091900Z VRB02KT 15SM FEW013 SCT027 BKN150 19/14 A2997 RMK SC1SC4AC1 SC TR SLP152 DENSITY ALT 1300FT,2025-09-09T19:20:44Z,2025-09-09T15:20:44Z
CYQT,"Thunder Bay Intl, ON, CA",2025-09-09T20:00:00Z,2025-09-09T16:00:00Z,VFR,20,15,VAR,4,0,20,1014.6,METAR CYQT 092000Z VRB04KT 20SM FEW015 SCT027 SCT150 BKN260 20/15 A2996 RMK SC1SC3AC1CI1 SC TR SLP149 DENSITY ALT 1400FT,2025-09-09T20:10:07Z,2025-09-09T16:10:07Z
CYQT,"Thunder Bay Intl, ON, CA",2025-09-09T21:00:00Z,2025-09-09T17:00:00Z,VFR,20,15,100,7,0,20,1014.6,METAR CYQT 092100Z 10007KT 20SM FEW015 FEW150 20/15 A2996 RMK SC2AC1 SLP151 DENSITY ALT 1400FT,2025-09-09T21:12:35Z,2025-09-09T17:12:35Z
CYQT,"Thunder Bay Intl, ON, CA",2025-09-09T22:00:00Z,2025-09-09T18:00:00Z,VFR,19,14,120,9,0,20,1015.3,METAR CYQT 092200Z 12009KT 20SM FEW020 SCT180 19/14 A2998 RMK SC2AC1 SLP157 DENSITY ALT 1200FT,2025-09-09T22:20:10Z,2025-09-09T18:20:10Z
CYQT,"Thunder Bay Intl, ON, CA",2025-09-09T23:00:00Z,2025-09-09T19:00:00Z,VFR,17,15,90,8,0,20,1016,METAR CYQT 092300Z 09008KT 20SM FEW025 FEW200 17/15 A3000 RMK SC1CI1 SLP164 DENSITY ALT 1000FT,2025-09-09T23:21:12Z,2025-09-09T19:21:12Z
CYQT,"Thunder Bay Intl, ON, CA",2025-09-10T01:00:00Z,2025-09-09T21:00:00Z,VFR,14,14,360,2,0,15,1017,METAR CYQT 100100Z 36002KT 15SM FEW023 FEW260 14/14 A3003 RMK SC1CI1 SC TR CI TR SLP174,2025-09-10T01:11:24Z,2025-09-09T21:11:24Z
CYQU,"Grande Prairie Arpt, AB, CA",2025-09-09T15:00:00Z,2025-09-09T11:00:00Z,MVFR,14,9,240,9,0,4,1010.2,METAR CYQU 091500Z 24009KT 4SM FU FEW150 14/09 A2983 RMK AC1 AC TR SLP109 DENSITY ALT 2800FT,2025-09-09T15:51:26Z,2025-09-09T11:51:26Z
CYQU,"Grande Prairie Arpt, AB, CA",2025-09-09T16:00:00Z,2025-09-09T12:00:00Z,MVFR,16,9,240,5,0,4,1010.6,METAR CYQU 091600Z 24005KT 4SM FU FEW150 16/09 A2984 RMK AC1 SLP109 DENSITY ALT 3000FT,2025-09-09T16:11:12Z,2025-09-09T12:11:12Z
CYQU,"Grande Prairie Arpt, AB, CA",2025-09-09T17:00:00Z,2025-09-09T13:00:00Z,MVFR,19,9,220,5,0,5,1010.6,METAR CYQU 091700Z 22005KT 5SM FU SKC 19/09 A2984 RMK SLP108 DENSITY ALT 3300FT,2025-09-09T17:12:45Z,2025-09-09T13:12:45Z
CYQU,"Grande Prairie Arpt, AB, CA",2025-09-09T18:00:00Z,2025-09-09T14:00:00Z,MVFR,21,8,230,8,0,5,1010.2,METAR CYQU 091800Z 23008KT 5SM FU SKC 21/08 A2983 RMK SLP106 DENSITY ALT 3600FT,2025-09-09T18:09:17Z,2025-09-09T14:09:17Z
CYQU,"Grande Prairie Arpt, AB, CA",2025-09-09T19:00:00Z,2025-09-09T15:00:00Z,VFR,23,7,230,12,0,6,1009.6,METAR CYQU 091900Z 23012KT 6SM FU SKC 23/07 A2981 RMK SLP101 DENSITY ALT 3800FT,2025-09-09T19:20:46Z,2025-09-09T15:20:46Z
CYQU,"Grande Prairie Arpt, AB, CA",2025-09-09T20:00:00Z,2025-09-09T16:00:00Z,VFR,25,7,230,10,0,6,1009.2,METAR CYQU 092000Z 23010KT 210V280 6SM FU SKC 25/07 A2980 RMK SLP097 DENSITY ALT 4000FT,2025-09-09T20:10:11Z,2025-09-09T16:10:11Z
CYQU,"Grande Prairie Arpt, AB, CA",2025-09-09T21:00:00Z,2025-09-09T17:00:00Z,VFR,26,3,300,16,22,15,1008.9,METAR CYQU 092100Z 30016G22KT 260V320 15SM SCT200 26/03 A2979 RMK FU2CI2 SLP089 DENSITY ALT 4200FT,2025-09-09T21:12:38Z,2025-09-09T17:12:38Z
CYQU,"Grande Prairie Arpt, AB, CA",2025-09-09T22:00:00Z,2025-09-09T18:00:00Z,VFR,26,1,280,15,21,20,1008.9,METAR CYQU 092200Z 28015G21KT 20SM SCT170 26/01 A2979 RMK AC3 FU SLP091 DENSITY ALT 4200FT,2025-09-09T22:20:11Z,2025-09-09T18:20:11Z
CYQU,"Grande Prairie Arpt, AB, CA",2025-09-09T23:00:00Z,2025-09-09T19:00:00Z,VFR,26,1,270,11,19,20,1008.9,METAR CYQU 092300Z 27011G19KT 20SM SCT170 26/01 A2979 RMK AC3 FU SLP089 DENSITY ALT 4200FT,2025-09-09T23:21:13Z,2025-09-09T19:21:13Z
CYQU,"Grande Prairie Arpt, AB, CA",2025-09-10T01:00:00Z,2025-09-09T21:00:00Z,VFR,23,3,250,10,0,25,1008.5,METAR CYQU 100100Z 25010KT 25SM SCT200 23/03 A2978 RMK CI4 SLP093 DENSITY ALT 3900FT,2025-09-10T01:11:24Z,2025-09-09T21:11:24Z
CYQV,"Yorkton Muni, SK, CA",2025-09-10T01:00:00Z,2025-09-09T21:00:00Z,VFR,21,10,130,5,0,9,1015.3,METAR CYQV 100100Z AUTO 13005KT 9SM CLR 21/10 A2998 RMK SLP165 DENSITY ALT 2700FT,2025-09-10T01:11:24Z,2025-09-09T21:11:24Z
CYQW,"North Battleford Arpt, SK, CA",2025-09-10T01:00:00Z,2025-09-09T21:00:00Z,VFR,23,10,110,8,0,9,1013,METAR CYQW 100100Z AUTO 11008KT 9SM CLR 23/10 A2991 RMK SLP137 DENSITY ALT 3200FT,2025-09-10T01:11:24Z,2025-09-09T21:11:24Z
CYQX,"Gander Intl Arpt, NL, CA",2025-09-09T15:00:00Z,2025-09-09T11:00:00Z,VFR,16,6,240,13,18,20,1024.5,METAR CYQX 091500Z 24013G18KT 20SM FEW040 OVC210 16/06 A3025 RMK CF1CC7 SLP249,2025-09-09T15:51:26Z,2025-09-09T11:51:26Z
CYQX,"Gander Intl Arpt, NL, CA",2025-09-09T16:00:00Z,2025-09-09T12:00:00Z,VFR,18,6,270,14,19,20,1024.5,METAR CYQX 091600Z 27014G19KT 20SM FEW051 BKN230 18/06 A3025 RMK CU1CC6 SLP247,2025-09-09T16:11:12Z,2025-09-09T12:11:12Z
CYQX,"Gander Intl Arpt, NL, CA",2025-09-09T17:00:00Z,2025-09-09T13:00:00Z,VFR,18,5,270,12,18,20,1024.5,METAR CYQX 091700Z 27012G18KT 250V330 20SM FEW040 BKN230 18/05 A3025 RMK CU1CC5 CU TR SLP249,2025-09-09T17:12:45Z,2025-09-09T13:12:45Z
CYQX,"Gander Intl Arpt, NL, CA",2025-09-09T18:00:00Z,2025-09-09T14:00:00Z,VFR,18,6,250,11,20,20,1024.5,METAR CYQX 091800Z 25011G20KT 20SM FEW040 SCT210 18/06 A3025 RMK CU1CC2 SLP249 DENSITY ALT 700FT,2025-09-09T18:09:17Z,2025-09-09T14:09:17Z
CYQX,"Gander Intl Arpt, NL, CA",2025-09-09T19:00:00Z,2025-09-09T15:00:00Z,VFR,19,4,280,12,0,20,1024.8,METAR CYQX 091900Z 28012KT 250V310 20SM FEW063 SCT230 19/04 A3026 RMK CU1CC2 SLP251 DENSITY ALT 700FT,2025-09-09T19:20:46Z,2025-09-09T15:20:46Z
CYQX,"Gander Intl Arpt, NL, CA",2025-09-09T20:00:00Z,2025-09-09T16:00:00Z,VFR,18,4,320,12,18,20,1025.1,METAR CYQX 092000Z 32012G18KT 20SM FEW023 BKN230 18/04 A3027 RMK CU1CC6 CU TR SLP254,2025-09-09T20:10:11Z,2025-09-09T16:10:11Z
CYQX,"Gander Intl Arpt, NL, CA",2025-09-09T21:00:00Z,2025-09-09T17:00:00Z,VFR,16,4,310,9,15,20,1025.5,METAR CYQX 092100Z 31009G15KT 270V340 20SM BKN210 16/04 A3028 RMK CC6 SLP260,2025-09-09T21:12:38Z,2025-09-09T17:12:38Z
CYQX,"Gander Intl Arpt, NL, CA",2025-09-09T22:00:00Z,2025-09-09T18:00:00Z,VFR,14,5,310,5,0,20,1026.2,METAR CYQX 092200Z 31005KT 20SM BKN230 14/05 A3030 RMK CC6 SLP265,2025-09-09T22:20:11Z,2025-09-09T18:20:11Z
CYQX,"Gander Intl Arpt, NL, CA",2025-09-09T23:00:00Z,2025-09-09T19:00:00Z,VFR,12,5,350,5,0,20,1027.2,METAR CYQX 092300Z 35005KT 20SM BKN240 12/05 A3033 RMK CC6 MOON DIMLY VISBL SLP275,2025-09-09T23:21:13Z,2025-09-09T19:21:13Z
CYQX,"Gander Intl Arpt, NL, CA",2025-09-10T01:00:00Z,2025-09-09T21:00:00Z,VFR,12,6,290,5,0,20,1027.5,METAR CYQX 100100Z 29005KT 20SM SCT250 12/06 A3034 RMK CI3 SLP280,2025-09-10T01:11:24Z,2025-09-09T21:11:24Z
CYQY,"Sydney Arpt, NS, CA",2025-09-09T15:00:00Z,2025-09-09T11:00:00Z,VFR,20,10,30,6,0,15,1028.2,METAR CYQY 091500Z 03006KT 340V070 15SM FEW040 BKN240 20/10 A3036 RMK CU2CI3 SLP283,2025-09-09T15:51:26Z,2025-09-09T11:51:26Z
CYQY,"Sydney Arpt, NS, CA",2025-09-09T16:00:00Z,2025-09-09T12:00:00Z,VFR,20,7,340,6,0,15,1028.2,METAR CYQY 091600Z 34006KT 190V360 15SM SCT051 BKN240 20/07 A3036 RMK CU3CI2 SLP283,2025-09-09T16:11:12Z,2025-09-09T12:11:12Z
CYQY,"Sydney Arpt, NS, CA",2025-09-09T17:00:00Z,2025-09-09T13:00:00Z,VFR,20,9,40,6,0,15,1027.9,METAR CYQY 091700Z 04006KT 340V060 15SM SCT057 BKN220 20/09 A3035 RMK CU3CI3 SLP280,2025-09-09T17:12:45Z,2025-09-09T13:12:45Z
CYQY,"Sydney Arpt, NS, CA",2025-09-09T18:00:00Z,2025-09-09T14:00:00Z,VFR,20,9,60,4,0,15,1027.5,METAR CYQY 091800Z 06004KT 030V100 15SM SCT054 BKN230 20/09 A3034 RMK CU3CS3 SLP277,2025-09-09T18:09:17Z,2025-09-09T14:09:17Z
CYQY,"Sydney Arpt, NS, CA",2025-09-09T19:00:00Z,2025-09-09T15:00:00Z,VFR,19,9,80,6,0,15,1027.9,METAR CYQY 091900Z 08006KT 020V100 15SM SCT060 BKN230 19/09 A3035 RMK SC3CS4 SLP280,2025-09-09T19:20:46Z,2025-09-09T15:20:46Z
CYQY,"Sydney Arpt, NS, CA",2025-09-09T20:00:00Z,2025-09-09T16:00:00Z,VFR,18,9,60,7,0,15,1028.2,METAR CYQY 092000Z 06007KT 15SM SCT048 BKN230 18/09 A3036 RMK SC4CI3 SLP284,2025-09-09T20:10:10Z,2025-09-09T16:10:10Z
CYQY,"Sydney Arpt, NS, CA",2025-09-09T21:00:00Z,2025-09-09T17:00:00Z,VFR,17,11,60,7,0,15,1028.5,METAR CYQY 092100Z 06007KT 15SM BKN048 BKN230 17/11 A3037 RMK SC5CI2 SLP286,2025-09-09T21:12:38Z,2025-09-09T17:12:38Z
CYQY,"Sydney Arpt, NS, CA",2025-09-09T22:00:00Z,2025-09-09T18:00:00Z,VFR,16,12,50,6,0,15,1028.9,METAR CYQY 092200Z 05006KT 15SM SCT047 BKN220 16/12 A3038 RMK SC4CI3 SLP292,2025-09-09T22:20:11Z,2025-09-09T18:20:11Z
CYQY,"Sydney Arpt, NS, CA",2025-09-09T23:00:00Z,2025-09-09T19:00:00Z,VFR,15,11,60,4,0,15,1029.5,METAR CYQY 092300Z 06004KT 15SM SCT044 BKN230 15/11 A3040 RMK SC3CI3 SLP296,2025-09-09T23:21:13Z,2025-09-09T19:21:13Z
CYQY,"Sydney Arpt, NS, CA",2025-09-10T01:00:00Z,2025-09-09T21:00:00Z,VFR,11,11,0,0,0,15,1029.5,METAR CYQY 100100Z 00000KT 15SM FEW055 BKN230 11/11 A3040 RMK SC2CI3 SLP296,2025-09-10T01:11:24Z,2025-09-09T21:11:24Z
CYQZ,"Quesnel Arpt, BC, CA",2025-09-10T01:00:00Z,2025-09-09T21:00:00Z,VFR,22,9,170,3,0,7,1010.9,METAR CYQZ 100100Z AUTO 17003KT 7SM CLR 22/09 A2985 RMK SLP114 DENSITY ALT 3100FT,2025-09-10T01:11:24Z,2025-09-09T21:11:24Z
CYRB,"Resolute Bay Arpt, NU, CA",2025-09-09T15:00:00Z,2025-09-09T11:00:00Z,LIFR,-2,-2,290,4,0,0.63,1012.3,METAR CYRB 091500Z 29004KT 5/8SM R35/3000VP6000FT/U BR OVC002 M02/M02 A2989 RMK FG2ST6 SLP132,2025-09-09T15:51:26Z,2025-09-09T11:51:26Z
CYRB,"Resolute Bay Arpt, NU, CA",2025-09-09T15:51:00Z,2025-09-09T11:51:00Z,LIFR,-2,-2,300,4,0,0.5,1012.3,SPECI CYRB 091551Z 30004KT 1/2SM R35/2200V3000FT/N FZFG OVC002 M02/M02 A2989 RMK FG6ST2 SLP131,2025-09-09T16:05:57Z,2025-09-09T12:05:57Z
CYRB,"Resolute Bay Arpt, NU, CA",2025-09-09T16:00:00Z,2025-09-09T12:00:00Z,LIFR,-2,-2,300,4,0,0.5,1012.3,METAR CYRB 091600Z 30004KT 1/2SM R35/2200V2600FT/N FZFG OVC002 M02/M02 A2989 RMK FG6ST2 SLP131,2025-09-09T16:11:12Z,2025-09-09T12:11:12Z
CYRB,"Resolute Bay Arpt, NU, CA",2025-09-09T17:00:00Z,2025-09-09T13:00:00Z,LIFR,-1,-1,270,7,0,0.5,1012.6,METAR CYRB 091700Z 27007KT 1/2SM R35/4000VP6000FT/D FZFG OVC002 M01/M01 A2990 RMK FG6ST2 SLP132,2025-09-09T17:12:45Z,2025-09-09T13:12:45Z
CYRB,"Resolute Bay Arpt, NU, CA",2025-09-09T18:00:00Z,2025-09-09T14:00:00Z,LIFR,-1,-1,280,7,0,0.5,1012.3,METAR CYRB 091800Z 28007KT 1/2SM R35/3000V5500FT/D FZFG OVC002 M01/M01 A2989 RMK FG6ST2 SLP131,2025-09-09T18:09:17Z,2025-09-09T14:09:17Z
CYRB,"Resolute Bay Arpt, NU, CA",2025-09-09T18:52:00Z,2025-09-09T14:52:00Z,LIFR,-1,-1,280,8,0,0.38,1012.6,SPECI CYRB 091852Z 28008KT 3/8SM R35/3000VP6000FT/D -FZDZ FZFG OVC002 M01/M01 A2990 RMK FG6ST2 SLP134,2025-09-09T19:00:51Z,2025-09-09T15:00:51Z
CYRB,"Resolute Bay Arpt, NU, CA",2025-09-09T19:00:00Z,2025-09-09T15:00:00Z,LIFR,-1,-1,270,8,0,0.38,1012.6,METAR CYRB 091900Z 27008KT 3/8SM R35/1800V2200FT/N -FZDZ FZFG OVC002 M01/M01 A2990 RMK FG7ST1 SLP135,2025-09-09T19:20:46Z,2025-09-09T15:20:46Z
CYRB,"Resolute Bay Arpt, NU, CA",2025-09-09T20:00:00Z,2025-09-09T16:00:00Z,LIFR,-1,-1,280,9,0,0.38,1012.6,METAR CYRB 092000Z 28009KT 3/8SM R35/P6000FT/N -FZDZ FZFG OVC002 M01/M01 A2990 RMK FG7ST1 SLP135,2025-09-09T20:10:11Z,2025-09-09T16:10:11Z
CYRB,"Resolute Bay Arpt, NU, CA",2025-09-09T20:18:00Z,2025-09-09T16:18:00Z,LIFR,-1,-1,290,8,0,4,1012.6,SPECI CYRB 092018Z 29008KT 4SM -SN BR OVC003 M01/M01 A2990 RMK ST8 SLP135,2025-09-09T20:31:14Z,2025-09-09T16:31:14Z
CYRB,"Resolute Bay Arpt, NU, CA",2025-09-09T21:00:00Z,2025-09-09T17:00:00Z,LIFR,-1,-1,290,9,0,4,1012.6,METAR CYRB 092100Z 29009KT 4SM -SN BR OVC003 M01/M01 A2990 RMK ST8 SLP135,2025-09-09T21:12:38Z,2025-09-09T17:12:38Z
CYRB,"Resolute Bay Arpt, NU, CA",2025-09-09T22:00:00Z,2025-09-09T18:00:00Z,LIFR,-1,-1,280,9,0,9,1012.6,METAR CYRB 092200Z 28009KT 9SM -SN OVC003 M01/M01 A2990 RMK ST8 PCPN VRY LGT SLP136,2025-09-09T22:20:11Z,2025-09-09T18:20:11Z
CYRB,"Resolute Bay Arpt, NU, CA",2025-09-09T23:16:00Z,2025-09-09T19:16:00Z,LIFR,-1,-1,290,9,0,9,1012.6,SPECI CYRB 092316Z 29009KT 9SM OVC004 M01/M01 A2990 RMK ST8 SLP136,2025-09-09T23:21:13Z,2025-09-09T19:21:13Z
CYRB,"Resolute Bay Arpt, NU, CA",2025-09-09T23:37:00Z,2025-09-09T19:37:00Z,LIFR,-1,-1,280,10,0,0.63,1013,SPECI CYRB 092337Z 28010KT 5/8SM R35/P6000FT/N BR OVC002 M01/M01 A2991 RMK FG4ST4 SLP137,2025-09-09T23:42:22Z,2025-09-09T19:42:22Z
CYRB,"Resolute Bay Arpt, NU, CA",2025-09-10T01:00:00Z,2025-09-09T21:00:00Z,LIFR,-1,-1,280,8,0,0.63,1013,METAR CYRB 100100Z 28008KT 5/8SM R35/2200V2400FT/N BR OVC002 M01/M01 A2991 RMK FG7ST1 SLP138,2025-09-10T01:11:24Z,2025-09-09T21:11:24Z
CYRJ,"Roberval Arpt, QC, CA",2025-09-09T15:00:00Z,2025-09-09T11:00:00Z,VFR,16,8,240,11,0,40,1026.2,METAR CYRJ 091500Z 24011KT 180V270 40SM FEW060 SCT090 BKN240 16/08 A3030 RMK SC1AC2CI2 SLP269,2025-09-09T15:51:24Z,2025-09-09T11:51:24Z
CYRJ,"Roberval Arpt, QC, CA",2025-09-09T16:00:00Z,2025-09-09T12:00:00Z,VFR,17,6,220,10,16,40,1026.2,METAR CYRJ 091600Z 22010G16KT 40SM FEW060 BKN120 BKN240 17/06 A3030 RMK SC2AC4CI1 CI TR SLP269,2025-09-09T16:11:11Z,2025-09-09T12:11:11Z
CYRJ,"Roberval Arpt, QC, CA",2025-09-09T17:00:00Z,2025-09-09T13:00:00Z,VFR,16,5,200,13,0,40,1026.5,METAR CYRJ 091700Z 20013KT 170V240 40SM SCT170 BKN200 16/05 A3031 RMK AC4CI3 SLP271,2025-09-09T17:12:44Z,2025-09-09T13:12:44Z
CYRJ,"Roberval Arpt, QC, CA",2025-09-09T18:00:00Z,2025-09-09T14:00:00Z,VFR,16,6,210,9,16,40,1026.2,METAR CYRJ 091800Z 21009G16KT 180V250 40SM BKN150 BKN240 16/06 A3030 RMK AC5CI1 SLP268,2025-09-09T18:09:16Z,2025-09-09T14:09:16Z
CYRJ,"Roberval Arpt, QC, CA",2025-09-09T19:00:00Z,2025-09-09T15:00:00Z,VFR,16,5,200,9,15,25,1025.5,METAR CYRJ 091900Z 20009G15KT 25SM FEW040 BKN140 16/05 A3028 RMK SC1AC6 SLP260,2025-09-09T19:20:44Z,2025-09-09T15:20:44Z
CYRJ,"Roberval Arpt, QC, CA",2025-09-09T20:00:00Z,2025-09-09T16:00:00Z,VFR,17,7,200,7,0,40,1024.8,METAR CYRJ 092000Z 20007KT 40SM FEW050 BKN140 17/07 A3026 RMK SC1AC6 SLP254,2025-09-09T20:10:07Z,2025-09-09T16:10:07Z
CYRJ,"Roberval Arpt, QC, CA",2025-09-09T21:00:00Z,2025-09-09T17:00:00Z,VFR,16,8,190,5,0,40,1024.5,METAR CYRJ 092100Z 19005KT 40SM FEW054 BKN160 16/08 A3025 RMK SC2AC5 SLP251,2025-09-09T21:12:35Z,2025-09-09T17:12:35Z
CYRJ,"Roberval Arpt, QC, CA",2025-09-09T22:00:00Z,2025-09-09T18:00:00Z,VFR,15,9,150,4,0,40,1023.8,METAR CYRJ 092200Z 15004KT 40SM FEW050 BKN190 15/09 A3023 RMK SC1AC6 SLP245,2025-09-09T22:20:10Z,2025-09-09T18:20:10Z
CYRJ,"Roberval Arpt, QC, CA",2025-09-09T23:00:00Z,2025-09-09T19:00:00Z,VFR,14,9,140,3,0,25,1023.8,METAR CYRJ 092300Z 14003KT 25SM FEW050 BKN170 14/09 A3023 RMK SC1AC7 SC TR SLP244,2025-09-09T23:21:12Z,2025-09-09T19:21:12Z
CYRJ,"Roberval Arpt, QC, CA",2025-09-10T01:00:00Z,2025-09-09T21:00:00Z,VFR,13,9,120,4,0,25,1023.5,METAR CYRJ 100100Z 12004KT 25SM OVC080 13/09 A3022 RMK AC8 SLP241,2025-09-10T01:11:24Z,2025-09-09T21:11:24Z
CYRL,"Red Lake Arpt, ON, CA",2025-09-10T01:00:00Z,2025-09-09T21:00:00Z,VFR,15,13,0,0,0,15,1016.3,METAR CYRL 100100Z 00000KT 15SM FEW050 FEW080 15/13 A3001 RMK CU1AC1 CU TR AC TR SLP173 DENSITY ALT 1500FT,2025-09-10T01:11:24Z,2025-09-09T21:11:24Z
CYRQ,"Trois-Rivires, QC, CA",2025-09-10T01:00:00Z,2025-09-09T21:00:00Z,VFR,10,9,0,0,0,9,1025.1,METAR CYRQ 100100Z AUTO 00000KT 9SM CLR 10/09 A3027 RMK SLP255,2025-09-10T01:11:24Z,2025-09-09T21:11:24Z
CYRT,"Rankin Inlet Arpt, NU, CA",2025-09-09T15:00:00Z,2025-09-09T11:00:00Z,MVFR,6,4,50,9,0,15,1015,METAR CYRT 091500Z 05009KT 15SM FEW004 BKN015 BKN030 06/04 A2997 RMK SC2CU3SC1 SH DST SW-W SLP153,2025-09-09T15:51:26Z,2025-09-09T11:51:26Z
CYRT,"Rankin Inlet Arpt, NU, CA",2025-09-09T16:00:00Z,2025-09-09T12:00:00Z,MVFR,7,2,40,10,0,15,1015.3,METAR CYRT 091600Z 04010KT 15SM FEW013 BKN024 BKN040 07/02 A2998 RMK SC2CU4SC1 SH DST SE-W SLP155,2025-09-09T16:11:12Z,2025-09-09T12:11:12Z
CYRT,"Rankin Inlet Arpt, NU, CA",2025-09-09T17:00:00Z,2025-09-09T13:00:00Z,MVFR,7,3,20,9,0,15,1015.7,METAR CYRT 091700Z 02009KT 15SM BKN023 07/03 A2999 RMK SC7 CIG RAG SLP158,2025-09-09T17:12:45Z,2025-09-09T13:12:45Z
CYRT,"Rankin Inlet Arpt, NU, CA",2025-09-09T18:00:00Z,2025-09-09T14:00:00Z,MVFR,8,4,360,7,0,15,1015.7,METAR CYRT 091800Z 36007KT 15SM OVC023 08/04 A2999 RMK SC8 SLP160,2025-09-09T18:09:17Z,2025-09-09T14:09:17Z
CYRT,"Rankin Inlet Arpt, NU, CA",2025-09-09T19:00:00Z,2025-09-09T15:00:00Z,MVFR,7,3,120,5,0,15,1016.3,METAR CYRT 091900Z 12005KT 340V150 15SM OVC025 07/03 A3001 RMK SC8 SLP165,2025-09-09T19:20:46Z,2025-09-09T15:20:46Z
CYRT,"Rankin Inlet Arpt, NU, CA",2025-09-09T20:00:00Z,2025-09-09T16:00:00Z,MVFR,7,5,130,5,0,15,1016.3,METAR CYRT 092000Z 13005KT 110V180 15SM FEW015 BKN028 BKN040 07/05 A3001 RMK SF1SC6SC1 SF TR SLP167,2025-09-09T20:10:10Z,2025-09-09T16:10:10Z
CYRT,"Rankin Inlet Arpt, NU, CA",2025-09-09T20:52:00Z,2025-09-09T16:52:00Z,VFR,7,4,140,4,0,15,1016.7,SPECI CYRT 092052Z 14004KT 110V180 15SM -SHRA SCT021 BKN034 07/04 A3002 RMK SC4SC3 CVCTV CLD EMBD SLP169,2025-09-09T20:53:56Z,2025-09-09T16:53:56Z
CYRT,"Rankin Inlet Arpt, NU, CA",2025-09-09T21:00:00Z,2025-09-09T17:00:00Z,VFR,7,5,150,3,0,15,1016.7,METAR CYRT 092100Z 15003KT 100V180 15SM -SHRA SCT021 BKN037 07/05 A3002 RMK SC4SC3 CVCTV CLD EMBD SLP169,2025-09-09T21:12:38Z,2025-09-09T17:12:38Z
CYRT,"Rankin Inlet Arpt, NU, CA",2025-09-09T22:00:00Z,2025-09-09T18:00:00Z,VFR,7,4,VAR,3,0,15,1017,METAR CYRT 092200Z VRB03KT 15SM -SHRA FEW013 BKN032 07/04 A3003 RMK SC2SC4 CVCTV CLD EMBD SLP173,2025-09-09T22:20:11Z,2025-09-09T18:20:11Z
CYRT,"Rankin Inlet Arpt, NU, CA",2025-09-09T22:29:00Z,2025-09-09T18:29:00Z,VFR,7,4,110,3,0,15,1017.4,SPECI CYRT 092229Z 11003KT 15SM BKN032 BKN100 07/04 A3004 RMK SC6AC1 SLP175,2025-09-09T22:37:44Z,2025-09-09T18:37:44Z
CYRT,"Rankin Inlet Arpt, NU, CA",2025-09-09T23:00:00Z,2025-09-09T19:00:00Z,VFR,7,4,0,0,0,15,1017.4,METAR CYRT 092300Z 00000KT 15SM BKN031 BKN100 07/04 A3004 RMK SC5AC1 SLP175,2025-09-09T23:21:13Z,2025-09-09T19:21:13Z
CYRT,"Rankin Inlet Arpt, NU, CA",2025-09-10T01:00:00Z,2025-09-09T21:00:00Z,VFR,6,5,0,0,0,15,1017.7,METAR CYRT 100100Z 00000KT 15SM SCT030 BKN140 06/05 A3005 RMK SC3AC2 SLP180,2025-09-10T01:11:24Z,2025-09-09T21:11:24Z
CYRV,"Revelstoke Arpt, BC, CA",2025-09-10T00:27:00Z,2025-09-09T20:27:00Z,VFR,18,16,260,3,0,6,1010.6,SPECI CYRV 100027Z AUTO 26003KT 200V280 6SM BR CLR 18/16 A2984 RMK LTNG DIST NE E W SLP106 DENSITY ALT 2300FT,2025-09-10T00:33:15Z,2025-09-09T20:33:15Z
CYRV,"Revelstoke Arpt, BC, CA",2025-09-10T01:03:00Z,2025-09-09T21:03:00Z,VFR,20,15,360,5,0,6,1010.6,SPECI CYRV 100103Z AUTO 36005KT 310V030 6SM HZ SCT110 BKN140 BKN160 20/15 A2984 RMK LTNG DIST ALQDS SLP106 DENSITY ALT 2500FT,2025-09-10T01:11:24Z,2025-09-09T21:11:24Z
CYSB,"Sudbury Arpt, ON, CA",2025-09-09T15:00:00Z,2025-09-09T11:00:00Z,VFR,16,11,200,15,22,20,1023.5,METAR CYSB 091500Z 20015G22KT 20SM FEW050 BKN079 BKN180 16/11 A3022 RMK CF2AC4CI1 SLP240,2025-09-09T15:51:24Z,2025-09-09T11:51:24Z
CYSB,"Sudbury Arpt, ON, CA",2025-09-09T16:00:00Z,2025-09-09T12:00:00Z,VFR,18,10,220,14,22,20,1023.1,METAR CYSB 091600Z 22014G22KT 20SM FEW022 BKN050 BKN190 18/10 A3021 RMK CF1CU4CI1 SLP237 DENSITY ALT 1500FT,2025-09-09T16:11:11Z,2025-09-09T12:11:11Z
CYSB,"Sudbury Arpt, ON, CA",2025-09-09T17:00:00Z,2025-09-09T13:00:00Z,VFR,19,10,190,19,25,20,1022.8,METAR CYSB 091700Z 19019G25KT 20SM BKN033 BKN200 19/10 A3020 RMK CU5CI1 SLP233 DENSITY ALT 1600FT,2025-09-09T17:12:44Z,2025-09-09T13:12:44Z
CYSB,"Sudbury Arpt, ON, CA",2025-09-09T18:00:00Z,2025-09-09T14:00:00Z,VFR,19,9,210,19,25,20,1022.4,METAR CYSB 091800Z 21019G25KT 20SM SCT035 BKN200 19/09 A3019 RMK SC3CS3 SLP230 DENSITY ALT 1600FT,2025-09-09T18:09:16Z,2025-09-09T14:09:16Z
CYSB,"Sudbury Arpt, ON, CA",2025-09-09T19:00:00Z,2025-09-09T15:00:00Z,VFR,19,10,210,17,22,20,1022.4,METAR CYSB 091900Z 21017G22KT 20SM SCT040 BKN200 19/10 A3019 RMK SC3CS3 SLP230 DENSITY ALT 1600FT,2025-09-09T19:20:44Z,2025-09-09T15:20:44Z
CYSB,"Sudbury Arpt, ON, CA",2025-09-09T20:00:00Z,2025-09-09T16:00:00Z,VFR,19,9,210,19,0,20,1022.1,METAR CYSB 092000Z 21019KT 20SM SCT040 BKN240 19/09 A3018 RMK SC3CS3 SLP227 DENSITY ALT 1600FT,2025-09-09T20:10:07Z,2025-09-09T16:10:07Z
CYSB,"Sudbury Arpt, ON, CA",2025-09-09T21:00:00Z,2025-09-09T17:00:00Z,VFR,19,9,210,11,23,20,1021.8,METAR CYSB 092100Z 21011G23KT 20SM FEW040 BKN240 19/09 A3017 RMK SC2CS3 SLP224 DENSITY ALT 1600FT,2025-09-09T21:12:35Z,2025-09-09T17:12:35Z
CYSB,"Sudbury Arpt, ON, CA",2025-09-09T22:00:00Z,2025-09-09T18:00:00Z,VFR,17,8,200,15,22,20,1021.8,METAR CYSB 092200Z 20015G22KT 20SM SCT100 BKN230 17/08 A3017 RMK AC3CI3 SLP226 DENSITY ALT 1400FT,2025-09-09T22:20:10Z,2025-09-09T18:20:10Z
CYSB,"Sudbury Arpt, ON, CA",2025-09-09T23:00:00Z,2025-09-09T19:00:00Z,VFR,16,8,190,9,0,20,1022.1,METAR CYSB 092300Z 19009KT 20SM SCT100 OVC230 16/08 A3018 RMK AC4CI4 SLP228,2025-09-09T23:21:12Z,2025-09-09T19:21:12Z
CYSB,"Sudbury Arpt, ON, CA",2025-09-10T01:00:00Z,2025-09-09T21:00:00Z,VFR,15,9,190,8,0,15,1021.8,METAR CYSB 100100Z 19008KT 15SM OVC093 15/09 A3017 RMK AC8 SLP226,2025-09-10T01:11:24Z,2025-09-09T21:11:24Z
CYSC,"Sherbrooke Arpt, QC, CA",2025-09-10T01:00:00Z,2025-09-09T21:00:00Z,VFR,11,10,90,2,0,9,1026.2,METAR CYSC 100100Z AUTO 09002KT 9SM CLR 11/10 A3030 RMK SLP267,2025-09-10T01:11:24Z,2025-09-09T21:11:24Z
CYSF,"Stony Rapids Arpt, SK, CA",2025-09-10T01:00:00Z,2025-09-09T21:00:00Z,VFR,19,10,100,4,0,9,1010.2,METAR CYSF 100100Z AUTO 10004KT 9SM OVC150 19/10 A2983 RMK SLP111 DENSITY ALT 1600FT,2025-09-10T01:11:24Z,2025-09-09T21:11:24Z
CYSJ,"Saint John Arpt, NB, CA",2025-09-10T01:00:00Z,2025-09-09T21:00:00Z,VFR,6,5,40,2,0,15,1028.5,METAR CYSJ 100100Z 04002KT 15SM FEW250 06/05 A3037 RMK CI2 SLP290,2025-09-10T01:11:24Z,2025-09-09T21:11:24Z
CYSM,"Fort Smith Arpt, NT, CA",2025-09-10T01:00:00Z,2025-09-09T21:00:00Z,MVFR,23,13,140,8,0,4,1002.5,METAR CYSM 100100Z CCA 14008KT 4SM FU BKN094 23/13 A2960 RMK AC7 SLP028 DENSITY ALT 2200FT,2025-09-10T01:11:24Z,2025-09-09T21:11:24Z
CYSN,"St Catharines/Niagara Arpt, ON, CA",2025-09-10T01:00:00Z,2025-09-09T21:00:00Z,VFR,15,11,100,5,0,15,1022.8,METAR CYSN 100100Z 10005KT 15SM FEW250 15/11 A3020 RMK CI2 LAST STFD OBS/NEXT 101100Z SLP229,2025-09-10T01:11:24Z,2025-09-09T21:11:24Z
CYTE,"Cape Dorset Arpt, NU, CA",2025-09-09T15:00:00Z,2025-09-09T11:00:00Z,VFR,6,3,270,3,0,15,1011.9,METAR CYTE 091500Z 27003KT 15SM FEW024 SCT043 06/03 A2988 RMK CU1SC3 SLP124,2025-09-09T15:51:27Z,2025-09-09T11:51:27Z
CYTE,"Cape Dorset Arpt, NU, CA",2025-09-09T16:00:00Z,2025-09-09T12:00:00Z,VFR,7,2,240,7,0,15,1011.9,METAR CYTE 091600Z 24007KT 15SM FEW024 BKN044 07/02 A2988 RMK CU1SC4 SLP125,2025-09-09T16:11:14Z,2025-09-09T12:11:14Z
CYTE,"Cape Dorset Arpt, NU, CA",2025-09-09T17:00:00Z,2025-09-09T13:00:00Z,VFR,7,3,260,6,0,15,1012.3,METAR CYTE 091700Z 26006KT 220V290 15SM BKN044 07/03 A2989 RMK SC5 SLP127,2025-09-09T17:12:49Z,2025-09-09T13:12:49Z
CYTE,"Cape Dorset Arpt, NU, CA",2025-09-09T18:00:00Z,2025-09-09T14:00:00Z,VFR,7,3,320,6,0,15,1012.6,METAR CYTE 091800Z 32006KT 15SM SCT025 BKN044 07/03 A2990 RMK SC3SC4 SLP131,2025-09-09T18:09:18Z,2025-09-09T14:09:18Z
CYTE,"Cape Dorset Arpt, NU, CA",2025-09-09T19:00:00Z,2025-09-09T15:00:00Z,VFR,7,2,VAR,2,0,15,1013,METAR CYTE 091900Z VRB02KT 15SM BKN036 BKN260 07/02 A2991 RMK SC6CI1 SLP134,2025-09-09T19:20:52Z,2025-09-09T15:20:52Z
CYTE,"Cape Dorset Arpt, NU, CA",2025-09-09T20:00:00Z,2025-09-09T16:00:00Z,VFR,7,3,230,8,0,15,1013,METAR CYTE 092000Z CCA 23008KT 15SM SCT034 BKN044 07/03 A2991 RMK SC4SC2 LAST STFD OBS/NXT 101200Z SLP135,2025-09-09T20:10:12Z,2025-09-09T16:10:12Z
CYTE,"Cape Dorset Arpt, NU, CA",2025-09-09T21:00:00Z,2025-09-09T17:00:00Z,VFR,6,3,220,9,0,9,1013.3,METAR CYTE 092100Z AUTO 22009KT 9SM BKN043 BKN055 06/03 A2992 RMK SLP137,2025-09-09T21:12:40Z,2025-09-09T17:12:40Z
CYTE,"Cape Dorset Arpt, NU, CA",2025-09-09T22:00:00Z,2025-09-09T18:00:00Z,VFR,6,2,250,5,0,9,1013.6,METAR CYTE 092200Z AUTO 25005KT 9SM SCT032 OVC041 06/02 A2993 RMK SLP141,2025-09-09T22:20:13Z,2025-09-09T18:20:13Z
CYTE,"Cape Dorset Arpt, NU, CA",2025-09-09T22:34:00Z,2025-09-09T18:34:00Z,MVFR,6,2,290,4,0,9,1014,SPECI CYTE 092234Z AUTO 29004KT 9SM -RA BKN027 OVC037 06/02 A2994 RMK SLP144,2025-09-09T22:37:45Z,2025-09-09T18:37:45Z
CYTE,"Cape Dorset Arpt, NU, CA",2025-09-09T22:57:00Z,2025-09-09T18:57:00Z,MVFR,6,3,280,3,0,9,1014,SPECI CYTE 092257Z AUTO 28003KT 270V330 9SM BKN027 OVC037 06/03 A2994 RMK SLP145,2025-09-09T22:58:29Z,2025-09-09T18:58:29Z
CYTE,"Cape Dorset Arpt, NU, CA",2025-09-09T23:01:00Z,2025-09-09T19:01:00Z,VFR,6,3,260,4,0,9,1014,SPECI CYTE 092301Z AUTO 26004KT 9SM -RA SCT027 OVC037 06/03 A2994 RMK SLP145,2025-09-09T23:21:15Z,2025-09-09T19:21:15Z
CYTE,"Cape Dorset Arpt, NU, CA",2025-09-09T23:23:00Z,2025-09-09T19:23:00Z,VFR,6,3,230,6,0,9,1014,SPECI CYTE 092323Z AUTO 23006KT 9SM OVC037 06/03 A2994 RMK SLP145,2025-09-09T23:31:54Z,2025-09-09T19:31:54Z
CYTE,"Cape Dorset Arpt, NU, CA",2025-09-10T01:09:00Z,2025-09-09T21:09:00Z,VFR,5,3,VAR,2,0,9,1015,SPECI CYTE 100109Z AUTO VRB02KT 9SM -RA SCT025 OVC035 05/03 A2997 RMK SLP153,2025-09-10T01:11:24Z,2025-09-09T21:11:24Z
CYTH,"Thompson Arpt, MB, CA",2025-09-10T01:00:00Z,2025-09-09T21:00:00Z,VFR,12,6,0,0,0,15,1018.7,METAR CYTH 100100Z 00000KT 15SM FEW100 12/06 A3008 RMK AC1 SLP198,2025-09-10T01:11:26Z,2025-09-09T21:11:26Z
CYTL,"Big Trout Lake Arpt, ON, CA",2025-09-10T01:00:00Z,2025-09-09T21:00:00Z,VFR,5,4,70,2,0,9,1018.7,METAR CYTL 100100Z AUTO 07002KT 9SM CLR 05/04 A3008 RMK SLP200,2025-09-10T01:11:26Z,2025-09-09T21:11:26Z
CYTR,"Trenton(MIL), ON, CA",2025-09-09T15:00:00Z,2025-09-09T11:00:00Z,VFR,19,13,140,3,0,15,1027.5,METAR CYTR 091500Z 14003KT 15SM FEW024 SCT250 19/13 A3034 RMK CF1CI3 DENSITY ALT 487FT SLP276,2025-09-09T15:51:26Z,2025-09-09T11:51:26Z
CYTR,"Trenton(MIL), ON, CA",2025-09-09T16:00:00Z,2025-09-09T12:00:00Z,VFR,20,10,170,6,0,15,1027.2,METAR CYTR 091600Z 17006KT 120V230 15SM FEW036 20/10 A3033 RMK CU1 DENSITY ALT 660FT CONTRAILS SLP271,2025-09-09T16:11:12Z,2025-09-09T12:11:12Z
CYTR,"Trenton(MIL), ON, CA",2025-09-09T17:00:00Z,2025-09-09T13:00:00Z,VFR,21,9,190,6,0,15,1026.5,METAR CYTR 091700Z 19006KT 120V230 15SM FEW047 SCT220 21/09 A3031 RMK CU1CS4 DENSITY ALT 787FT CONTRAILS SLP264,2025-09-09T17:12:45Z,2025-09-09T13:12:45Z
CYTR,"Trenton(MIL), ON, CA",2025-09-09T18:00:00Z,2025-09-09T14:00:00Z,VFR,22,8,160,7,0,15,1025.8,METAR CYTR 091800Z 16007KT 120V230 15SM FEW052 FEW250 22/08 A3029 RMK CU1CI2 DENSITY ALT 870FT SLP258,2025-09-09T18:09:17Z,2025-09-09T14:09:17Z
CYTR,"Trenton(MIL), ON, CA",2025-09-09T19:00:00Z,2025-09-09T15:00:00Z,VFR,22,8,170,7,0,15,1025.1,METAR CYTR 091900Z 17007KT 120V220 15SM FEW057 BKN250 22/08 A3027 RMK CU1CI6 DENSITY ALT 917FT CI VRY THN SLP252,2025-09-09T19:20:46Z,2025-09-09T15:20:46Z
CYTR,"Trenton(MIL), ON, CA",2025-09-09T20:00:00Z,2025-09-09T16:00:00Z,VFR,22,8,190,4,0,15,1024.8,METAR CYTR 092000Z 19004KT 110V220 15SM FEW054 SCT250 22/08 A3026 RMK CU1CI3 DENSITY ALT 902FT SLP247,2025-09-09T20:10:11Z,2025-09-09T16:10:11Z
CYTR,"Trenton(MIL), ON, CA",2025-09-09T21:00:00Z,2025-09-09T17:00:00Z,VFR,22,8,180,4,0,15,1024.5,METAR CYTR 092100Z 18004KT 150V220 15SM FEW220 BKN260 22/08 A3025 RMK CI2CS4 DENSITY ALT 878FT SLP244,2025-09-09T21:12:38Z,2025-09-09T17:12:38Z
CYTR,"Trenton(MIL), ON, CA",2025-09-09T22:00:00Z,2025-09-09T18:00:00Z,VFR,21,8,170,4,0,15,1024.5,METAR CYTR 092200Z 17004KT 110V210 15SM SCT250 21/08 A3025 RMK CI3 DENSITY ALT 809FT CS ASOCTD SLP243,2025-09-09T22:20:11Z,2025-09-09T18:20:11Z
CYTR,"Trenton(MIL), ON, CA",2025-09-09T23:00:00Z,2025-09-09T19:00:00Z,VFR,19,9,140,2,0,15,1024.1,METAR CYTR 092300Z 14002KT 15SM FEW250 19/09 A3024 RMK CI2 DENSITY ALT 638FT SLP241,2025-09-09T23:21:13Z,2025-09-09T19:21:13Z
CYTR,"Trenton(MIL), ON, CA",2025-09-10T01:00:00Z,2025-09-09T21:00:00Z,VFR,13,9,30,2,0,15,1024.1,METAR CYTR 100100Z 03002KT 15SM FEW250 13/09 A3024 RMK CI1 DENSITY ALT -84FT SLP241,2025-09-10T01:11:25Z,2025-09-09T21:11:25Z
CYTS,"Timmins/Power Arpt, ON, CA",2025-09-09T15:00:00Z,2025-09-09T11:00:00Z,MVFR,12,11,200,10,16,3,1018,METAR CYTS 091500Z 20010G16KT 3SM -RA BR SCT010 OVC018 12/11 A3006 RMK SF3NS5 SLP190,2025-09-09T15:51:24Z,2025-09-09T11:51:24Z
CYTS,"Timmins/Power Arpt, ON, CA",2025-09-09T16:00:00Z,2025-09-09T12:00:00Z,MVFR,12,12,200,11,0,3,1018,METAR CYTS 091600Z 20011KT 3SM -RA BR SCT010 OVC015 12/12 A3006 RMK SC4SC4 SLP190,2025-09-09T16:11:11Z,2025-09-09T12:11:11Z
CYTS,"Timmins/Power Arpt, ON, CA",2025-09-09T17:00:00Z,2025-09-09T13:00:00Z,MVFR,13,12,190,8,0,5,1017.7,METAR CYTS 091700Z 19008KT 5SM -RA BR SCT009 OVC037 13/12 A3005 RMK SC4SC4 SLP187,2025-09-09T17:12:44Z,2025-09-09T13:12:44Z
CYTS,"Timmins/Power Arpt, ON, CA",2025-09-09T18:00:00Z,2025-09-09T14:00:00Z,MVFR,13,12,200,10,15,5,1017.7,METAR CYTS 091800Z 20010G15KT 5SM -RA SCT012 OVC030 13/12 A3005 RMK SC4SC4 SLP186,2025-09-09T18:13:39Z,2025-09-09T14:13:39Z
CYTS,"Timmins/Power Arpt, ON, CA",2025-09-09T19:00:00Z,2025-09-09T15:00:00Z,MVFR,13,13,200,9,15,8,1018,METAR CYTS 091900Z 20009G15KT 8SM -RA SCT011 OVC027 13/13 A3006 RMK SF3SC5 SLP188,2025-09-09T19:20:44Z,2025-09-09T15:20:44Z
CYTS,"Timmins/Power Arpt, ON, CA",2025-09-09T20:00:00Z,2025-09-09T16:00:00Z,MVFR,14,13,200,5,0,8,1017.7,METAR CYTS 092000Z 20005KT 8SM -RA FEW008 OVC027 14/13 A3005 RMK CF1SC7 SLP183,2025-09-09T20:10:07Z,2025-09-09T16:10:07Z
CYTS,"Timmins/Power Arpt, ON, CA",2025-09-09T21:00:00Z,2025-09-09T17:00:00Z,MVFR,14,13,200,11,17,12,1017.7,METAR CYTS 092100Z 20011G17KT 12SM -RA OVC022 14/13 A3005 RMK SC8 CIG RAG SLP184,2025-09-09T21:12:35Z,2025-09-09T17:12:35Z
CYTS,"Timmins/Power Arpt, ON, CA",2025-09-09T22:03:00Z,2025-09-09T18:03:00Z,IFR,14,13,210,8,0,3,1018,SPECI CYTS 092203Z 21008KT 3SM -RA BR BKN007 OVC019 14/13 A3006 RMK SC5SC3 SLP189,2025-09-09T22:20:10Z,2025-09-09T18:20:10Z
CYTS,"Timmins/Power Arpt, ON, CA",2025-09-09T22:36:00Z,2025-09-09T18:36:00Z,MVFR,14,13,210,7,0,5,1018,SPECI CYTS 092236Z 21007KT 190V250 5SM -RA OVC022 14/13 A3006 RMK SC8 SLP190,2025-09-09T22:48:11Z,2025-09-09T18:48:11Z
CYTS,"Timmins/Power Arpt, ON, CA",2025-09-09T23:00:00Z,2025-09-09T19:00:00Z,MVFR,14,13,210,6,0,6,1018.4,METAR CYTS 092300Z 21006KT 6SM -RA BR OVC020 14/13 A3007 RMK SC8 CIG RAG SLP191,2025-09-09T23:21:12Z,2025-09-09T19:21:12Z
CYTS,"Timmins/Power Arpt, ON, CA",2025-09-10T01:00:00Z,2025-09-09T21:00:00Z,MVFR,13,13,200,5,0,9,1018.7,METAR CYTS 100100Z 20005KT 9SM -RA OVC020 13/13 A3008 RMK SC8 SLP194,2025-09-10T01:11:26Z,2025-09-09T21:11:26Z
CYTZ,"Toronto/Bishop Arpt, ON, CA",2025-09-09T15:00:00Z,2025-09-09T11:00:00Z,VFR,17,13,80,6,0,9,1026.5,METAR CYTZ 091500Z AUTO 08006KT 9SM CLR 17/13 A3031 RMK SLP266,2025-09-09T15:51:26Z,2025-09-09T11:51:26Z
CYTZ,"Toronto/Bishop Arpt, ON, CA",2025-09-09T16:00:00Z,2025-09-09T12:00:00Z,VFR,17,13,70,6,0,9,1026.2,METAR CYTZ 091600Z AUTO 07006KT 9SM CLR 17/13 A3030 RMK SLP263,2025-09-09T16:11:12Z,2025-09-09T12:11:12Z
CYTZ,"Toronto/Bishop Arpt, ON, CA",2025-09-09T17:00:00Z,2025-09-09T13:00:00Z,VFR,18,13,70,6,0,9,1025.5,METAR CYTZ 091700Z AUTO 07006KT 9SM CLR 18/13 A3028 RMK SLP258,2025-09-09T17:12:45Z,2025-09-09T13:12:45Z
CYTZ,"Toronto/Bishop Arpt, ON, CA",2025-09-09T18:00:00Z,2025-09-09T14:00:00Z,VFR,18,13,70,8,0,9,1025.1,METAR CYTZ 091800Z AUTO 07008KT 9SM CLR 18/13 A3027 RMK SLP254,2025-09-09T18:09:17Z,2025-09-09T14:09:17Z
CYTZ,"Toronto/Bishop Arpt, ON, CA",2025-09-09T19:00:00Z,2025-09-09T15:00:00Z,VFR,18,13,80,9,0,9,1024.1,METAR CYTZ 091900Z AUTO 08009KT 9SM CLR 18/13 A3024 RMK SLP244,2025-09-09T19:20:46Z,2025-09-09T15:20:46Z
CYTZ,"Toronto/Bishop Arpt, ON, CA",2025-09-09T20:00:00Z,2025-09-09T16:00:00Z,VFR,18,13,80,10,0,9,1023.8,METAR CYTZ 092000Z AUTO 08010KT 9SM CLR 18/13 A3023 RMK SLP241,2025-09-09T20:10:11Z,2025-09-09T16:10:11Z
CYTZ,"Toronto/Bishop Arpt, ON, CA",2025-09-09T21:00:00Z,2025-09-09T17:00:00Z,VFR,18,12,80,11,0,9,1023.5,METAR CYTZ 092100Z AUTO 08011KT 9SM CLR 18/12 A3022 RMK SLP236,2025-09-09T21:12:38Z,2025-09-09T17:12:38Z
CYTZ,"Toronto/Bishop Arpt, ON, CA",2025-09-09T22:00:00Z,2025-09-09T18:00:00Z,VFR,17,13,70,11,0,9,1023.1,METAR CYTZ 092200Z AUTO 07011KT 9SM CLR 17/13 A3021 RMK SLP234,2025-09-09T22:20:11Z,2025-09-09T18:20:11Z
CYTZ,"Toronto/Bishop Arpt, ON, CA",2025-09-09T23:00:00Z,2025-09-09T19:00:00Z,VFR,17,14,60,10,0,9,1023.5,METAR CYTZ 092300Z AUTO 06010KT 9SM CLR 17/14 A3022 RMK SLP235,2025-09-09T23:21:13Z,2025-09-09T19:21:13Z
CYTZ,"Toronto/Bishop Arpt, ON, CA",2025-09-10T01:00:00Z,2025-09-09T21:00:00Z,VFR,17,15,70,8,0,9,1023.1,METAR CYTZ 100100Z AUTO 07008KT 9SM CLR 17/15 A3021 RMK SLP232,2025-09-10T01:11:26Z,2025-09-09T21:11:26Z
CYUB,"Tuktoyaktuk Arpt, NT, CA",2025-09-10T01:00:00Z,2025-09-09T21:00:00Z,IFR,7,7,320,10,0,NA,1008.2,METAR CYUB 100100Z 32010KT 10SM BKN008 07/07 A2977 RMK ST7 SLP083,2025-09-10T01:11:26Z,2025-09-09T21:11:26Z
CYUL,"Montreal/Trudeau Intl, QC, CA",2025-09-09T15:00:00Z,2025-09-09T11:00:00Z,VFR,17,9,200,4,0,30,1028.5,METAR CYUL 091500Z 20004KT 150V230 30SM FEW250 17/09 A3037 RMK CI2 SLP287,2025-09-09T15:51:24Z,2025-09-09T11:51:24Z
CYUL,"Montreal/Trudeau Intl, QC, CA",2025-09-09T16:00:00Z,2025-09-09T12:00:00Z,VFR,18,10,240,5,0,30,1028.2,METAR CYUL 091600Z 24005KT 180V310 30SM FEW028 FEW250 18/10 A3036 RMK CF1CI2 CF TR SLP284,2025-09-09T16:11:11Z,2025-09-09T12:11:11Z
CYUL,"Montreal/Trudeau Intl, QC, CA",2025-09-09T17:00:00Z,2025-09-09T13:00:00Z,VFR,19,9,240,7,0,30,1027.9,METAR CYUL 091700Z 24007KT 180V280 30SM FEW035 SCT250 19/09 A3035 RMK CF1CI4 CF TR SLP279,2025-09-09T17:12:43Z,2025-09-09T13:12:43Z
CYUL,"Montreal/Trudeau Intl, QC, CA",2025-09-09T18:00:00Z,2025-09-09T14:00:00Z,VFR,19,9,210,3,0,30,1027.2,METAR CYUL 091800Z 21003KT 190V320 30SM FEW035 BKN250 19/09 A3033 RMK CF1CI6 CF TR SLP273,2025-09-09T18:09:15Z,2025-09-09T14:09:15Z
CYUL,"Montreal/Trudeau Intl, QC, CA",2025-09-09T19:00:00Z,2025-09-09T15:00:00Z,VFR,20,6,VAR,4,0,30,1026.5,METAR CYUL 091900Z VRB04KT 30SM FEW045 BKN250 20/06 A3031 RMK CF1CI5 CF TR SLP266,2025-09-09T19:20:44Z,2025-09-09T15:20:44Z
CYUL,"Montreal/Trudeau Intl, QC, CA",2025-09-09T20:00:00Z,2025-09-09T16:00:00Z,VFR,20,8,260,5,0,30,1025.5,METAR CYUL 092000Z 26005KT 30SM FEW045 SCT250 20/08 A3028 RMK CF1CI4 CF TR SLP257 DENSITY ALT 400FT,2025-09-09T20:10:07Z,2025-09-09T16:10:07Z
CYUL,"Montreal/Trudeau Intl, QC, CA",2025-09-09T21:00:00Z,2025-09-09T17:00:00Z,VFR,20,6,210,7,0,30,1025.5,METAR CYUL 092100Z 21007KT 30SM SCT250 20/06 A3028 RMK CI3 SLP255 DENSITY ALT 400FT,2025-09-09T21:12:35Z,2025-09-09T17:12:35Z
CYUL,"Montreal/Trudeau Intl, QC, CA",2025-09-09T22:00:00Z,2025-09-09T18:00:00Z,VFR,20,9,260,4,0,15,1025.5,METAR CYUL 092200Z 26004KT 15SM SCT250 20/09 A3028 RMK CI3 SLP255,2025-09-09T22:20:10Z,2025-09-09T18:20:10Z
CYUL,"Montreal/Trudeau Intl, QC, CA",2025-09-09T23:00:00Z,2025-09-09T19:00:00Z,VFR,19,8,290,4,0,15,1025.1,METAR CYUL 092300Z 29004KT 15SM FEW250 19/08 A3027 RMK CI2 SLP253,2025-09-09T23:21:12Z,2025-09-09T19:21:12Z
CYUL,"Montreal/Trudeau Intl, QC, CA",2025-09-10T01:00:00Z,2025-09-09T21:00:00Z,VFR,17,9,50,3,0,15,1024.8,METAR CYUL 100100Z 05003KT 15SM FEW250 17/09 A3026 RMK CI1 CI TR SLP251,2025-09-10T01:11:25Z,2025-09-09T21:11:25Z
CYUX,"Hall Beach Arpt, NU, CA",2025-09-10T01:00:00Z,2025-09-09T21:00:00Z,VFR,0,-2,300,16,0,9,1012.6,METAR CYUX 100100Z AUTO 30016KT 9SM CLR 00/M02 A2990 RMK SLP129,2025-09-10T01:11:26Z,2025-09-09T21:11:26Z
CYUY,"Rouyn/Noranda Arpt, QC, CA",2025-09-09T15:00:00Z,2025-09-09T11:00:00Z,VFR,11,9,190,10,0,15,1022.4,METAR CYUY 091500Z 19010KT 15SM -RA BKN052 11/09 A3019 RMK SC7 SLP232,2025-09-09T15:51:24Z,2025-09-09T11:51:24Z
CYUY,"Rouyn/Noranda Arpt, QC, CA",2025-09-09T16:00:00Z,2025-09-09T12:00:00Z,VFR,12,9,190,9,0,15,1021.8,METAR CYUY 091600Z 19009KT 15SM -RA OVC051 12/09 A3017 RMK SC8 SLP225,2025-09-09T16:11:11Z,2025-09-09T12:11:11Z
CYUY,"Rouyn/Noranda Arpt, QC, CA",2025-09-09T17:00:00Z,2025-09-09T13:00:00Z,VFR,12,11,180,9,0,15,1020.7,METAR CYUY 091700Z 18009KT 15SM -RA BKN069 12/11 A3014 RMK AC8 SLP217,2025-09-09T17:12:43Z,2025-09-09T13:12:43Z
CYUY,"Rouyn/Noranda Arpt, QC, CA",2025-09-09T18:00:00Z,2025-09-09T14:00:00Z,VFR,14,10,190,10,19,15,1020.1,METAR CYUY 091800Z 19010G19KT 15SM -RA FEW034 BKN098 14/10 A3012 RMK SC2AC5 SLP210,2025-09-09T18:09:15Z,2025-09-09T14:09:15Z
CYUY,"Rouyn/Noranda Arpt, QC, CA",2025-09-09T19:00:00Z,2025-09-09T15:00:00Z,VFR,14,12,180,5,0,15,1019.7,METAR CYUY 091900Z 18005KT 15SM -RA FEW036 OVC100 14/12 A3011 RMK SC1AS7 SLP206,2025-09-09T19:20:44Z,2025-09-09T15:20:44Z
CYUY,"Rouyn/Noranda Arpt, QC, CA",2025-09-09T20:00:00Z,2025-09-09T16:00:00Z,VFR,15,11,200,9,0,15,1019.7,METAR CYUY 092000Z 20009KT 15SM FEW055 OVC069 15/11 A3011 RMK SC1AC7 SLP204,2025-09-09T20:10:07Z,2025-09-09T16:10:07Z
CYUY,"Rouyn/Noranda Arpt, QC, CA",2025-09-09T20:00:00Z,2025-09-09T16:00:00Z,VFR,15,11,200,9,0,15,1019.7,METAR CYUY 092000Z CCA 20009KT 15SM -RA FEW055 OVC069 15/11 A3011 RMK SC1AC7 SLP204,2025-09-09T20:53:55Z,2025-09-09T16:53:55Z
CYUY,"Rouyn/Noranda Arpt, QC, CA",2025-09-09T21:00:00Z,2025-09-09T17:00:00Z,VFR,15,12,200,14,19,15,1019,METAR CYUY 092100Z 20014G19KT 15SM -RA FEW043 OVC083 15/12 A3009 RMK SC1AC7 SLP198,2025-09-09T21:12:35Z,2025-09-09T17:12:35Z
CYUY,"Rouyn/Noranda Arpt, QC, CA",2025-09-09T22:00:00Z,2025-09-09T18:00:00Z,VFR,15,12,200,8,0,15,1019,METAR CYUY 092200Z 20008KT 15SM -RA OVC061 15/12 A3009 RMK SC8 SLP199,2025-09-09T22:20:10Z,2025-09-09T18:20:10Z
CYUY,"Rouyn/Noranda Arpt, QC, CA",2025-09-09T23:00:00Z,2025-09-09T19:00:00Z,VFR,15,12,210,8,0,15,1019.7,METAR CYUY 092300Z 21008KT 15SM -RA SCT050 OVC070 15/12 A3011 RMK SC4AC4 PCPN VRY LGT SLP204,2025-09-09T23:21:12Z,2025-09-09T19:21:12Z
CYUY,"Rouyn/Noranda Arpt, QC, CA",2025-09-10T01:00:00Z,2025-09-09T21:00:00Z,VFR,15,11,210,8,0,15,1020.1,METAR CYUY 100100Z 21008KT 15SM -RA OVC050 15/11 A3012 RMK SC8 SLP210,2025-09-10T01:11:26Z,2025-09-09T21:11:26Z
CYVC,"La Ronge Arpt, SK, CA",2025-09-09T15:00:00Z,2025-09-09T11:00:00Z,VFR,14,11,100,5,0,15,1016.7,METAR CYVC 091500Z 10005KT 060V150 15SM FEW200 14/11 A3002 RMK CI1 SLP175,2025-09-09T15:51:27Z,2025-09-09T11:51:27Z
CYVC,"La Ronge Arpt, SK, CA",2025-09-09T16:00:00Z,2025-09-09T12:00:00Z,VFR,15,11,100,5,0,15,1017,METAR CYVC 091600Z 10005KT 15SM FEW200 15/11 A3003 RMK CI2 SLP180,2025-09-09T16:11:14Z,2025-09-09T12:11:14Z
CYVC,"La Ronge Arpt, SK, CA",2025-09-09T17:00:00Z,2025-09-09T13:00:00Z,VFR,16,10,120,5,0,15,1016.7,METAR CYVC 091700Z 12005KT 070V140 15SM SKC 16/10 A3002 RMK SLP176 DENSITY ALT 1500FT,2025-09-09T17:12:49Z,2025-09-09T13:12:49Z
CYVC,"La Ronge Arpt, SK, CA",2025-09-09T18:00:00Z,2025-09-09T14:00:00Z,VFR,17,10,100,7,0,15,1016.7,METAR CYVC 091800Z 10007KT 070V130 15SM SKC 17/10 A3002 RMK SLP176 DENSITY ALT 1700FT,2025-09-09T18:09:18Z,2025-09-09T14:09:18Z
CYVC,"La Ronge Arpt, SK, CA",2025-09-09T19:00:00Z,2025-09-09T15:00:00Z,VFR,18,10,110,7,0,15,1016,METAR CYVC 091900Z 11007KT 060V130 15SM SKC 18/10 A3000 RMK SLP171 DENSITY ALT 1800FT,2025-09-09T19:20:52Z,2025-09-09T15:20:52Z
CYVC,"La Ronge Arpt, SK, CA",2025-09-09T20:00:00Z,2025-09-09T16:00:00Z,VFR,19,8,100,8,0,15,1016,METAR CYVC 092000Z 10008KT 060V130 15SM SKC 19/08 A3000 RMK SLP169 DENSITY ALT 1900FT,2025-09-09T20:10:12Z,2025-09-09T16:10:12Z
CYVC,"La Ronge Arpt, SK, CA",2025-09-09T21:00:00Z,2025-09-09T17:00:00Z,VFR,19,9,90,7,0,15,1015.3,METAR CYVC 092100Z 09007KT 080V150 15SM SKC 19/09 A2998 RMK SLP163 DENSITY ALT 2000FT,2025-09-09T21:12:40Z,2025-09-09T17:12:40Z
CYVC,"La Ronge Arpt, SK, CA",2025-09-09T22:00:00Z,2025-09-09T18:00:00Z,VFR,20,11,40,9,0,15,1015,METAR CYVC 092200Z 04009KT 15SM SKC 20/11 A2997 RMK SLP160 DENSITY ALT 2100FT,2025-09-09T22:20:13Z,2025-09-09T18:20:13Z
CYVC,"La Ronge Arpt, SK, CA",2025-09-09T23:00:00Z,2025-09-09T19:00:00Z,VFR,20,10,90,8,0,15,1014.3,METAR CYVC 092300Z 09008KT 15SM FEW250 20/10 A2995 RMK CI1 SLP153 DENSITY ALT 2200FT,2025-09-09T23:21:15Z,2025-09-09T19:21:15Z
CYVC,"La Ronge Arpt, SK, CA",2025-09-10T01:00:00Z,2025-09-09T21:00:00Z,VFR,19,10,90,5,0,15,1014,METAR CYVC 100100Z 09005KT 15SM SCT250 19/10 A2994 RMK CI3 SLP151 DENSITY ALT 2000FT,2025-09-10T01:11:26Z,2025-09-09T21:11:26Z
CYVL,"Colville Lake, NT, CA",2025-09-10T01:00:00Z,2025-09-09T21:00:00Z,VFR,15,11,230,4,0,9,1006.2,METAR CYVL 100100Z AUTO 23004KT 9SM BKN081 OVC095 15/11 A2971 RMK SLP074 DENSITY ALT 1400FT,2025-09-10T01:11:25Z,2025-09-09T21:11:25Z
CYVM,"Broughton Isl/Qikiqtarjuaq Arpt, NU, CA",2025-09-10T01:00:00Z,2025-09-09T21:00:00Z,VFR,2,-1,120,2,0,9,1008.2,METAR CYVM 100100Z AUTO 12002KT 9SM CLR 02/M01 A2977 RMK SLP082,2025-09-10T01:11:26Z,2025-09-09T21:11:26Z
CYVO,"Val D'Or Arpt, QC, CA",2025-09-09T15:00:00Z,2025-09-09T11:00:00Z,VFR,13,6,180,10,20,15,1023.5,METAR CYVO 091500Z 18010G20KT 15SM BKN085 BKN130 BKN160 13/06 A3022 RMK AC5AC1AC2 SLP247,2025-09-09T15:51:24Z,2025-09-09T11:51:24Z
CYVO,"Val D'Or Arpt, QC, CA",2025-09-09T16:00:00Z,2025-09-09T12:00:00Z,VFR,14,7,180,9,15,15,1023.1,METAR CYVO 091600Z 18009G15KT 15SM BKN070 OVC100 14/07 A3021 RMK AC5AC3 SLP243,2025-09-09T16:11:11Z,2025-09-09T12:11:11Z
CYVO,"Val D'Or Arpt, QC, CA",2025-09-09T17:00:00Z,2025-09-09T13:00:00Z,VFR,14,7,180,11,20,15,1022.4,METAR CYVO 091700Z 18011G20KT 15SM SCT055 OVC070 14/07 A3019 RMK SC3AC5 SLP235,2025-09-09T17:12:43Z,2025-09-09T13:12:43Z
CYVO,"Val D'Or Arpt, QC, CA",2025-09-09T18:00:00Z,2025-09-09T14:00:00Z,VFR,15,8,180,10,15,15,1021.4,METAR CYVO 091800Z 18010G15KT 15SM OVC074 15/08 A3016 RMK AC8 SLP226,2025-09-09T18:09:16Z,2025-09-09T14:09:16Z
CYVO,"Val D'Or Arpt, QC, CA",2025-09-09T19:00:00Z,2025-09-09T15:00:00Z,VFR,16,7,180,11,18,15,1020.7,METAR CYVO 091900Z 18011G18KT 15SM BKN071 OVC110 16/07 A3014 RMK AC5AS3 SLP217,2025-09-09T19:20:44Z,2025-09-09T15:20:44Z
CYVO,"Val D'Or Arpt, QC, CA",2025-09-09T20:00:00Z,2025-09-09T16:00:00Z,VFR,17,8,190,11,0,15,1020.4,METAR CYVO 092000Z 19011KT 15SM OVC060 17/08 A3013 RMK SC8 SLP214 DENSITY ALT 1400FT,2025-09-09T20:10:07Z,2025-09-09T16:10:07Z
CYVO,"Val D'Or Arpt, QC, CA",2025-09-09T21:00:00Z,2025-09-09T17:00:00Z,VFR,17,9,180,10,16,15,1020.1,METAR CYVO 092100Z 18010G16KT 15SM BKN070 OVC100 17/09 A3012 RMK AC6AS2 SLP211 DENSITY ALT 1400FT,2025-09-09T21:12:35Z,2025-09-09T17:12:35Z
CYVO,"Val D'Or Arpt, QC, CA",2025-09-09T22:00:00Z,2025-09-09T18:00:00Z,VFR,17,9,190,10,0,15,1020.1,METAR CYVO 092200Z 19010KT 15SM BKN095 OVC110 17/09 A3012 RMK AC6AS2 SLP212 DENSITY ALT 1400FT,2025-09-09T22:20:10Z,2025-09-09T18:20:10Z
CYVO,"Val D'Or Arpt, QC, CA",2025-09-09T23:00:00Z,2025-09-09T19:00:00Z,VFR,16,9,190,10,0,15,1020.4,METAR CYVO 092300Z 19010KT 15SM OVC090 16/09 A3013 RMK AS8 SLP213,2025-09-09T23:21:12Z,2025-09-09T19:21:12Z
CYVO,"Val D'Or Arpt, QC, CA",2025-09-10T01:00:00Z,2025-09-09T21:00:00Z,VFR,16,10,190,11,17,15,1020.4,METAR CYVO 100100Z 19011G17KT 15SM OVC080 16/10 A3013 RMK AS8 SLP215,2025-09-10T01:11:26Z,2025-09-09T21:11:26Z
CYVP,"Kuujjuaq Arpt, QC, CA",2025-09-10T01:00:00Z,2025-09-09T21:00:00Z,VFR,7,5,0,0,0,15,1016.3,METAR CYVP 100100Z 00000KT 15SM SCT052 BKN210 07/05 A3001 RMK SC3CI2 SLP166,2025-09-10T01:11:26Z,2025-09-09T21:11:26Z
CYVQ,"Norman Wells Arpt, NT, CA",2025-09-09T15:00:00Z,2025-09-09T11:00:00Z,MVFR,13,13,300,4,0,6,1004.1,METAR CYVQ 091500Z 30004KT 270V020 6SM -SHRA FEW004 BKN024 BKN037 OVC050 13/13 A2965 RMK ST1SC4SC2SC1 /R10/ VIS NE 2 CVCTV CLD EMBD SLP045,2025-09-09T15:51:27Z,2025-09-09T11:51:27Z
CYVQ,"Norman Wells Arpt, NT, CA",2025-09-09T16:00:00Z,2025-09-09T12:00:00Z,MVFR,13,12,260,5,0,6,1004.5,METAR CYVQ 091600Z 26005KT 6SM -SHRA FEW007 BKN024 BKN050 OVC068 13/12 A2966 RMK ST1SC5SC1AC1 CVCTV CLD EMBD SLP048,2025-09-09T16:11:14Z,2025-09-09T12:11:14Z
CYVQ,"Norman Wells Arpt, NT, CA",2025-09-09T17:00:00Z,2025-09-09T13:00:00Z,MVFR,13,13,280,5,0,NA,1005.2,METAR CYVQ 091700Z 28005KT 10SM -RA FEW009 BKN021 BKN046 OVC070 13/13 A2968 RMK ST1SC5SC1AC2 ST TR FU SLP054,2025-09-09T17:12:49Z,2025-09-09T13:12:49Z
CYVQ,"Norman Wells Arpt, NT, CA",2025-09-09T18:00:00Z,2025-09-09T14:00:00Z,VFR,13,12,300,7,0,NA,1005.8,METAR CYVQ 091800Z 30007KT 10SM -RA FEW005 SCT021 BKN051 OVC070 13/12 A2970 RMK ST1SC4SC2AC2 ST TR FU SLP061,2025-09-09T18:09:18Z,2025-09-09T14:09:18Z
CYVQ,"Norman Wells Arpt, NT, CA",2025-09-09T19:00:00Z,2025-09-09T15:00:00Z,VFR,13,12,280,12,18,NA,1006.5,METAR CYVQ 091900Z 28012G18KT 10SM -RA FEW006 SCT026 BKN045 BKN075 OVC230 13/12 A2972 RMK ST1SC3SC1AC2CI1 VIS W 20 SLP068,2025-09-09T19:20:52Z,2025-09-09T15:20:52Z
CYVQ,"Norman Wells Arpt, NT, CA",2025-09-09T20:00:00Z,2025-09-09T16:00:00Z,VFR,13,13,280,10,0,20,1006.9,METAR CYVQ 092000Z 28010KT 20SM -RA FEW007 SCT025 SCT040 BKN064 BKN080 13/13 A2973 RMK ST1SC2SC1SC3AC1 SLP071,2025-09-09T20:10:12Z,2025-09-09T16:10:12Z
CYVQ,"Norman Wells Arpt, NT, CA",2025-09-09T20:16:00Z,2025-09-09T16:16:00Z,VFR,14,13,280,11,16,15,1006.9,SPECI CYVQ 092016Z 28011G16KT 15SM FEW005 FEW025 SCT042 BKN064 BKN100 14/13 A2973 RMK ST1SC2SC2SC2AC1 ST TR SLP073,2025-09-09T20:31:16Z,2025-09-09T16:31:16Z
CYVQ,"Norman Wells Arpt, NT, CA",2025-09-09T21:00:00Z,2025-09-09T17:00:00Z,VFR,15,13,280,12,0,25,1007.2,METAR CYVQ 092100Z 28012KT 25SM FEW012 SCT025 BKN055 BKN076 BKN120 15/13 A2974 RMK SC2SC2SC1AC1AC1 SLP076 DENSITY ALT 500FT,2025-09-09T21:12:40Z,2025-09-09T17:12:40Z
CYVQ,"Norman Wells Arpt, NT, CA",2025-09-09T22:00:00Z,2025-09-09T18:00:00Z,VFR,15,13,290,8,16,25,1007.5,METAR CYVQ 092200Z 29008G16KT 25SM FEW012 FEW025 SCT050 BKN065 BKN085 15/13 A2975 RMK SC1SC1SC1SC3AC1 SLP078 DENSITY ALT 500FT,2025-09-09T22:20:13Z,2025-09-09T18:20:13Z
CYVQ,"Norman Wells Arpt, NT, CA",2025-09-09T23:00:00Z,2025-09-09T19:00:00Z,VFR,16,11,290,10,15,25,1007.5,METAR CYVQ 092300Z 29010G15KT 25SM FEW025 SCT050 BKN061 BKN075 16/11 A2975 RMK SC2SC1SC2AC2 SLP079 DENSITY ALT 600FT,2025-09-09T23:21:15Z,2025-09-09T19:21:15Z
CYVQ,"Norman Wells Arpt, NT, CA",2025-09-10T01:00:00Z,2025-09-09T21:00:00Z,VFR,16,10,290,8,0,30,1007.9,METAR CYVQ 100100Z 29008KT 270V330 30SM FEW015 FEW033 SCT069 SCT120 16/10 A2976 RMK SC1SC1AC2AC1 SC TR SLP083 DENSITY ALT 600FT,2025-09-10T01:11:26Z,2025-09-09T21:11:26Z
CYVR,"Vancouver Intl, BC, CA",2025-09-09T15:00:00Z,2025-09-09T11:00:00Z,VFR,17,16,VAR,2,0,NA,1014.3,METAR CYVR 091500Z VRB02KT 10SM FEW010 FEW015 BKN045 BKN110 17/16 A2995 RMK SC1SC1SC5AC1 AC TR HZ SLP145 DENSITY ALT 300FT,2025-09-09T15:51:24Z,2025-09-09T11:51:24Z
CYVR,"Vancouver Intl, BC, CA",2025-09-09T16:00:00Z,2025-09-09T12:00:00Z,VFR,18,17,320,3,0,15,1014.3,METAR CYVR 091600Z 32003KT 280V360 15SM FEW010 FEW015 BKN048 18/17 A2995 RMK SC1SC1SC7 SC TR SC TR SLP145 DENSITY ALT 400FT,2025-09-09T16:11:11Z,2025-09-09T12:11:11Z
CYVR,"Vancouver Intl, BC, CA",2025-09-09T17:00:00Z,2025-09-09T13:00:00Z,MVFR,18,17,300,6,0,20,1014.3,METAR CYVR 091700Z 30006KT 270V330 20SM FEW010 FEW018 SCT023 BKN030 BKN042 18/17 A2995 RMK SC1SC2SC1SC1SC3 SC TR CU EMBD SLP146 DENSITY ALT 400FT,2025-09-09T17:12:43Z,2025-09-09T13:12:43Z
CYVR,"Vancouver Intl, BC, CA",2025-09-09T18:00:00Z,2025-09-09T14:00:00Z,VFR,19,17,300,13,0,20,1014.3,METAR CYVR 091800Z 30013KT 20SM FEW013 SCT020 BKN042 19/17 A2995 RMK SC1SC3SC3 SLP146 DENSITY ALT 500FT,2025-09-09T18:09:15Z,2025-09-09T14:09:15Z
CYVR,"Vancouver Intl, BC, CA",2025-09-09T19:00:00Z,2025-09-09T15:00:00Z,MVFR,19,17,280,11,0,20,1014.3,METAR CYVR 091900Z 28011KT 20SM BKN010 BKN017 19/17 A2995 RMK SC5SC2 SLP143 DENSITY ALT 500FT,2025-09-09T19:20:44Z,2025-09-09T15:20:44Z
CYVR,"Vancouver Intl, BC, CA",2025-09-09T20:00:00Z,2025-09-09T16:00:00Z,MVFR,19,16,290,9,0,20,1014,METAR CYVR 092000Z 29009KT 20SM BKN013 BKN022 19/16 A2994 RMK SC7SC1 SC TR SLP141 DENSITY ALT 500FT,2025-09-09T20:10:07Z,2025-09-09T16:10:07Z
CYVR,"Vancouver Intl, BC, CA",2025-09-09T21:00:00Z,2025-09-09T17:00:00Z,MVFR,19,16,230,8,0,25,1013.6,METAR CYVR 092100Z 23008KT 200V270 25SM BKN011 19/16 A2993 RMK SC5 CU EMBD SLP139 DENSITY ALT 500FT,2025-09-09T21:12:35Z,2025-09-09T17:12:35Z
CYVR,"Vancouver Intl, BC, CA",2025-09-09T22:00:00Z,2025-09-09T18:00:00Z,VFR,19,17,280,5,0,30,1013.3,METAR CYVR 092200Z 28005KT 230V300 30SM SCT010 SCT039 SCT056 19/17 A2992 RMK SC3CU1SC1 CU TR SC TR SLP133 DENSITY ALT 600FT,2025-09-09T22:20:10Z,2025-09-09T18:20:10Z
CYVR,"Vancouver Intl, BC, CA",2025-09-09T23:00:00Z,2025-09-09T19:00:00Z,VFR,20,17,280,7,0,30,1012.6,METAR CYVR 092300Z 28007KT 30SM FEW048 FEW057 20/17 A2990 RMK CU1CU1 CU TR CU TR SLP128 DENSITY ALT 700FT,2025-09-09T23:21:12Z,2025-09-09T19:21:12Z
CYVR,"Vancouver Intl, BC, CA",2025-09-10T01:00:00Z,2025-09-09T21:00:00Z,VFR,19,17,280,5,0,30,1012.3,METAR CYVR 100100Z 28005KT 30SM FEW055 FEW180 19/17 A2989 RMK CU1AC1 CU TR AC TR SLP124 DENSITY ALT 600FT,2025-09-10T01:11:25Z,2025-09-09T21:11:25Z
CYVT,"Buffalo Narrows Arpt, SK, CA",2025-09-10T01:00:00Z,2025-09-09T21:00:00Z,VFR,22,12,150,8,16,8,1009.9,METAR CYVT 100100Z AUTO 15008G16KT 8SM CLR 22/12 A2982 RMK SLP109 DENSITY ALT 2700FT,2025-09-10T01:11:26Z,2025-09-09T21:11:26Z
CYVV,"Wiarton Arpt, ON, CA",2025-09-09T15:00:00Z,2025-09-09T11:00:00Z,VFR,17,11,180,11,0,15,1025.1,METAR CYVV 091500Z 18011KT 15SM OVC250 17/11 A3027 RMK CI8 SLP256,2025-09-09T15:51:24Z,2025-09-09T11:51:24Z
CYVV,"Wiarton Arpt, ON, CA",2025-09-09T16:00:00Z,2025-09-09T12:00:00Z,VFR,18,11,230,9,0,15,1025.1,METAR CYVV 091600Z 23009KT 180V250 15SM FEW030 OVC250 18/11 A3027 RMK CF1CI8 CF TR SLP256,2025-09-09T16:11:11Z,2025-09-09T12:11:11Z
CYVV,"Wiarton Arpt, ON, CA",2025-09-09T17:00:00Z,2025-09-09T13:00:00Z,VFR,20,10,200,8,0,15,1024.5,METAR CYVV 091700Z 20008KT 180V250 15SM FEW042 OVC250 20/10 A3025 RMK CU2CI6 SLP248 DENSITY ALT 1100FT,2025-09-09T17:12:44Z,2025-09-09T13:12:44Z
CYVV,"Wiarton Arpt, ON, CA",2025-09-09T18:00:00Z,2025-09-09T14:00:00Z,VFR,20,12,240,6,0,15,1023.8,METAR CYVV 091800Z 24006KT 170V270 15SM FEW042 OVC250 20/12 A3023 RMK CU2CI6 SLP243 DENSITY ALT 1200FT,2025-09-09T18:09:15Z,2025-09-09T14:09:15Z
CYVV,"Wiarton Arpt, ON, CA",2025-09-09T19:00:00Z,2025-09-09T15:00:00Z,VFR,20,10,240,8,0,15,1023.5,METAR CYVV 091900Z 24008KT 210V280 15SM FEW047 BKN250 20/10 A3022 RMK CU1CI6 SLP238 DENSITY ALT 1200FT,2025-09-09T19:20:44Z,2025-09-09T15:20:44Z
CYVV,"Wiarton Arpt, ON, CA",2025-09-09T20:00:00Z,2025-09-09T16:00:00Z,VFR,21,10,250,6,0,15,1023.1,METAR CYVV 092000Z 25006KT 200V300 15SM FEW045 SCT250 21/10 A3021 RMK CU1CI3 SLP235 DENSITY ALT 1300FT,2025-09-09T20:10:07Z,2025-09-09T16:10:07Z
CYVV,"Wiarton Arpt, ON, CA",2025-09-09T21:00:00Z,2025-09-09T17:00:00Z,VFR,20,8,240,5,0,15,1022.8,METAR CYVV 092100Z 24005KT 15SM FEW045 SCT250 20/08 A3020 RMK SC1CI2 SLP231 DENSITY ALT 1300FT,2025-09-09T21:12:35Z,2025-09-09T17:12:35Z
CYVV,"Wiarton Arpt, ON, CA",2025-09-09T22:00:00Z,2025-09-09T18:00:00Z,VFR,20,7,230,5,0,15,1022.8,METAR CYVV 092200Z 23005KT 15SM FEW045 FEW250 20/07 A3020 RMK SC1CI1 SC TR SLP230 DENSITY ALT 1200FT,2025-09-09T22:20:10Z,2025-09-09T18:20:10Z
CYVV,"Wiarton Arpt, ON, CA",2025-09-09T23:00:00Z,2025-09-09T19:00:00Z,VFR,19,8,200,3,0,15,1022.4,METAR CYVV 092300Z 20003KT 15SM FEW045 SCT250 19/08 A3019 RMK SC1CI3 SC TR SLP229 DENSITY ALT 1100FT,2025-09-09T23:21:12Z,2025-09-09T19:21:12Z
CYVV,"Wiarton Arpt, ON, CA",2025-09-10T01:00:00Z,2025-09-09T21:00:00Z,VFR,13,12,110,7,0,NA,1022.1,METAR CYVV 100100Z 11007KT 10SM FEW250 13/12 A3018 RMK CI2 SLP226,2025-09-10T01:11:26Z,2025-09-09T21:11:26Z
CYWA,"Petawawa Arpt, ON, CA",2025-09-10T01:00:00Z,2025-09-09T21:00:00Z,VFR,12,10,270,2,0,15,1023.5,METAR CYWA 100100Z 27002KT 15SM SCT230 12/10 A3022 RMK CI3 DENSITY ALT -15FT SLP237,2025-09-10T01:11:26Z,2025-09-09T21:11:26Z
CYWE,"Wekwet Arpt, NT, CA",2025-09-10T00:30:00Z,2025-09-09T20:30:00Z,MVFR,11,10,120,9,0,5,1003.5,SPECI CYWE 100030Z AUTO 12009KT 5SM RA BR BKN060 OVC077 11/10 A2963 RMK PCPN 0.8MM PAST HR SLP051,2025-09-10T00:33:15Z,2025-09-09T20:33:15Z
CYWE,"Wekwet Arpt, NT, CA",2025-09-10T01:01:00Z,2025-09-09T21:01:00Z,VFR,11,10,110,8,0,9,1003.5,SPECI CYWE 100101Z AUTO 11008KT 9SM FEW045 SCT050 OVC096 11/10 A2963 RMK SLP052,2025-09-10T01:11:25Z,2025-09-09T21:11:25Z
CYWG,"Winnipeg Intl Arpt, MB, CA",2025-09-09T15:00:00Z,2025-09-09T11:00:00Z,VFR,18,15,VAR,2,0,12,1014.6,METAR CYWG 091500Z VRB02KT 12SM SKC 18/15 A2996 RMK SLP151 DENSITY ALT 1300FT,2025-09-09T15:51:24Z,2025-09-09T11:51:24Z
CYWG,"Winnipeg Intl Arpt, MB, CA",2025-09-09T16:00:00Z,2025-09-09T12:00:00Z,VFR,21,15,VAR,3,0,15,1015,METAR CYWG 091600Z VRB03KT 15SM SKC 21/15 A2997 RMK SLP154 DENSITY ALT 1600FT,2025-09-09T16:11:11Z,2025-09-09T12:11:11Z
CYWG,"Winnipeg Intl Arpt, MB, CA",2025-09-09T17:00:00Z,2025-09-09T13:00:00Z,VFR,22,15,0,0,0,15,1015,METAR CYWG 091700Z 00000KT 15SM SKC 22/15 A2997 RMK SLP154 DENSITY ALT 1800FT,2025-09-09T17:12:43Z,2025-09-09T13:12:43Z
CYWG,"Winnipeg Intl Arpt, MB, CA",2025-09-09T18:00:00Z,2025-09-09T14:00:00Z,VFR,24,15,VAR,4,0,15,1015,METAR CYWG 091800Z VRB04KT 15SM FEW035 24/15 A2997 RMK CU1 SLP153 DENSITY ALT 1900FT,2025-09-09T18:09:15Z,2025-09-09T14:09:15Z
CYWG,"Winnipeg Intl Arpt, MB, CA",2025-09-09T19:00:00Z,2025-09-09T15:00:00Z,VFR,24,15,VAR,2,0,15,1015,METAR CYWG 091900Z VRB02KT 15SM FEW040 24/15 A2997 RMK CU1 SLP153 DENSITY ALT 2000FT,2025-09-09T19:20:44Z,2025-09-09T15:20:44Z
CYWG,"Winnipeg Intl Arpt, MB, CA",2025-09-09T20:00:00Z,2025-09-09T16:00:00Z,VFR,25,14,260,3,0,15,1014.6,METAR CYWG 092000Z 26003KT 15SM FEW048 25/14 A2996 RMK CU1 SLP151 DENSITY ALT 2100FT,2025-09-09T20:10:07Z,2025-09-09T16:10:07Z
CYWG,"Winnipeg Intl Arpt, MB, CA",2025-09-09T21:00:00Z,2025-09-09T17:00:00Z,VFR,26,12,VAR,2,0,15,1014.6,METAR CYWG 092100Z VRB02KT 15SM FEW052 26/12 A2996 RMK CU2 SLP151 DENSITY ALT 2200FT,2025-09-09T21:12:35Z,2025-09-09T17:12:35Z
CYWG,"Winnipeg Intl Arpt, MB, CA",2025-09-09T22:00:00Z,2025-09-09T18:00:00Z,VFR,26,13,0,0,0,15,1014.6,METAR CYWG 092200Z 00000KT 15SM FEW052 SCT080 26/13 A2996 RMK CU2AC1 AC TR SLP152 DENSITY ALT 2200FT,2025-09-09T22:20:10Z,2025-09-09T18:20:10Z
CYWG,"Winnipeg Intl Arpt, MB, CA",2025-09-09T23:00:00Z,2025-09-09T19:00:00Z,VFR,25,14,VAR,2,0,15,1015,METAR CYWG 092300Z VRB02KT 15SM FEW044 SCT080 SCT140 25/14 A2997 RMK CU2AC1AC1 AC TR AC TR SLP154 DENSITY ALT 2200FT,2025-09-09T23:21:12Z,2025-09-09T19:21:12Z
CYWG,"Winnipeg Intl Arpt, MB, CA",2025-09-10T01:00:00Z,2025-09-09T21:00:00Z,VFR,19,9,40,6,0,15,1015.7,METAR CYWG 100100Z 04006KT 15SM FEW100 FEW250 19/09 A2999 RMK AC1CI1 AC TR SLP161 DENSITY ALT 1400FT,2025-09-10T01:11:26Z,2025-09-09T21:11:26Z
CYWH,"Victoria Harbour Arpt, BC, CA",2025-09-10T01:00:00Z,2025-09-09T21:00:00Z,VFR,15,12,VAR,2,0,15,1012.6,METAR CYWH 100100Z VRB02KT 15SM FEW220 15/12 A2990 RMK CI2 FU SLP126,2025-09-10T01:11:26Z,2025-09-09T21:11:26Z
CYWK,"Wabush Lake Arpt, NL, CA",2025-09-10T01:00:00Z,2025-09-09T21:00:00Z,VFR,8,7,180,6,0,15,1021.4,METAR CYWK 100100Z 18006KT 15SM SCT055 OVC140 08/07 A3016 RMK SC4AC4 SLP233,2025-09-10T01:11:25Z,2025-09-09T21:11:25Z
CYWL,"Williams Lake Rgnl, BC, CA",2025-09-09T15:00:00Z,2025-09-09T11:00:00Z,IFR,11,11,VAR,2,0,1,1015.3,METAR CYWL 091500Z VRB02KT 1SM FU SCT059 SCT100 11/11 A2998 RMK FU3SC1AC1 AC TR SLP156 DENSITY ALT 3300FT,2025-09-09T15:51:26Z,2025-09-09T11:51:26Z
CYWL,"Williams Lake Rgnl, BC, CA",2025-09-09T16:00:00Z,2025-09-09T12:00:00Z,IFR,13,12,110,5,0,2.5,1015.3,METAR CYWL 091600Z 11005KT 2 1/2SM FU SCT059 BKN100 13/12 A2998 RMK FU3SC1AC1 VIS 3/4 E-S SLP156 DENSITY ALT 3500FT,2025-09-09T16:11:12Z,2025-09-09T12:11:12Z
CYWL,"Williams Lake Rgnl, BC, CA",2025-09-09T16:41:00Z,2025-09-09T12:41:00Z,MVFR,14,12,VAR,3,0,3,1015.3,SPECI CYWL 091641Z VRB03KT 3SM FU SKC 14/12 A2998 RMK SLP157 DENSITY ALT 3700FT,2025-09-09T16:53:59Z,2025-09-09T12:53:59Z
CYWL,"Williams Lake Rgnl, BC, CA",2025-09-09T17:00:00Z,2025-09-09T13:00:00Z,MVFR,15,11,150,4,0,3,1015.3,METAR CYWL 091700Z 15004KT 130V210 3SM FU SKC 15/11 A2998 RMK SLP155 DENSITY ALT 3800FT,2025-09-09T17:12:45Z,2025-09-09T13:12:45Z
CYWL,"Williams Lake Rgnl, BC, CA",2025-09-09T18:00:00Z,2025-09-09T14:00:00Z,MVFR,17,10,180,3,0,5,1015,METAR CYWL 091800Z 18003KT 100V260 5SM FU SKC 17/10 A2997 RMK SLP152 DENSITY ALT 4100FT,2025-09-09T18:09:17Z,2025-09-09T14:09:17Z
CYWL,"Williams Lake Rgnl, BC, CA",2025-09-09T19:00:00Z,2025-09-09T15:00:00Z,VFR,19,9,110,4,0,6,1014.6,METAR CYWL 091900Z 11004KT 020V160 6SM FU SKC 19/09 A2996 RMK SLP145 DENSITY ALT 4300FT,2025-09-09T19:20:46Z,2025-09-09T15:20:46Z
CYWL,"Williams Lake Rgnl, BC, CA",2025-09-09T20:00:00Z,2025-09-09T16:00:00Z,VFR,21,10,210,3,0,6,1014,METAR CYWL 092000Z 21003KT 160V290 6SM FU FEW100 21/10 A2994 RMK AC1 AC TR SLP140 DENSITY ALT 4500FT,2025-09-09T20:10:11Z,2025-09-09T16:10:11Z
CYWL,"Williams Lake Rgnl, BC, CA",2025-09-09T21:00:00Z,2025-09-09T17:00:00Z,VFR,22,9,180,3,0,6,1013.6,METAR CYWL 092100Z 18003KT 130V280 6SM FU FEW080 22/09 A2993 RMK AC1 AC TR SLP136 DENSITY ALT 4600FT,2025-09-09T21:12:38Z,2025-09-09T17:12:38Z
CYWL,"Williams Lake Rgnl, BC, CA",2025-09-09T22:00:00Z,2025-09-09T18:00:00Z,VFR,23,10,310,7,0,6,1013,METAR CYWL 092200Z 31007KT 6SM FU FEW080 23/10 A2991 RMK AC1 AC TR SLP129 DENSITY ALT 4700FT,2025-09-09T22:20:11Z,2025-09-09T18:20:11Z
CYWL,"Williams Lake Rgnl, BC, CA",2025-09-09T23:00:00Z,2025-09-09T19:00:00Z,MVFR,23,10,330,7,0,5,1012.6,METAR CYWL 092300Z 33007KT 290V350 5SM FU FEW080 23/10 A2990 RMK FU2AC1 AC TR SLP124 DENSITY ALT 4700FT,2025-09-09T23:21:13Z,2025-09-09T19:21:13Z
CYWL,"Williams Lake Rgnl, BC, CA",2025-09-10T01:00:00Z,2025-09-09T21:00:00Z,MVFR,20,8,300,8,0,5,1012.6,METAR CYWL 100100Z 30008KT 5SM FU SKC 20/08 A2990 RMK SLP126 DENSITY ALT 4400FT,2025-09-10T01:11:26Z,2025-09-09T21:11:26Z
CYXC,"Cranbrook Intl, BC, CA",2025-09-10T01:00:00Z,2025-09-09T21:00:00Z,VFR,25,8,300,3,0,25,1010.9,METAR CYXC 100100Z 30003KT 150V320 25SM SCT080CB BKN140 BKN250 25/08 A2985 RMK CB3AC2CI1 SLP101 DENSITY ALT 5000FT,2025-09-10T01:11:26Z,2025-09-09T21:11:26Z
CYXE,"Saskatoon/Diefenbaker Intl, SK, CA",2025-09-09T15:00:00Z,2025-09-09T11:00:00Z,VFR,14,11,60,4,0,12,1015.3,METAR CYXE 091500Z 06004KT 12SM FEW120 14/11 A2998 RMK AC1 AC TR FU SLP162 DENSITY ALT 1900FT,2025-09-09T15:51:24Z,2025-09-09T11:51:24Z
CYXE,"Saskatoon/Diefenbaker Intl, SK, CA",2025-09-09T16:00:00Z,2025-09-09T12:00:00Z,VFR,18,12,80,5,0,12,1015.3,METAR CYXE 091600Z 08005KT 12SM FEW028 FEW300 18/12 A2998 RMK CU1CI1 CU TR CI TR FU SLP161 DENSITY ALT 2400FT,2025-09-09T16:11:11Z,2025-09-09T12:11:11Z
CYXE,"Saskatoon/Diefenbaker Intl, SK, CA",2025-09-09T17:00:00Z,2025-09-09T13:00:00Z,VFR,22,12,130,5,0,12,1015.3,METAR CYXE 091700Z 13005KT 050V150 12SM FEW300 22/12 A2998 RMK CI1 CI TR FU SLP160 DENSITY ALT 2800FT,2025-09-09T17:12:44Z,2025-09-09T13:12:44Z
CYXE,"Saskatoon/Diefenbaker Intl, SK, CA",2025-09-09T18:00:00Z,2025-09-09T14:00:00Z,VFR,24,12,150,4,0,12,1015.3,METAR CYXE 091800Z 15004KT 020V170 12SM FEW300 24/12 A2998 RMK CI1 CI TR FU SLP159 DENSITY ALT 3000FT,2025-09-09T18:09:16Z,2025-09-09T14:09:16Z
CYXE,"Saskatoon/Diefenbaker Intl, SK, CA",2025-09-09T19:00:00Z,2025-09-09T15:00:00Z,VFR,25,11,110,6,0,12,1014.6,METAR CYXE 091900Z 11006KT 040V170 12SM FEW052 FEW300 25/11 A2996 RMK CU1CI1 CU TR CI TR FU SLP154 DENSITY ALT 3200FT,2025-09-09T19:20:43Z,2025-09-09T15:20:43Z
CYXE,"Saskatoon/Diefenbaker Intl, SK, CA",2025-09-09T20:00:00Z,2025-09-09T16:00:00Z,VFR,26,11,130,8,0,12,1014.3,METAR CYXE 092000Z 13008KT 110V200 12SM FEW060 FEW300 26/11 A2995 RMK CU1CI1 FU SLP150 DENSITY ALT 3300FT,2025-09-09T20:10:07Z,2025-09-09T16:10:07Z
CYXE,"Saskatoon/Diefenbaker Intl, SK, CA",2025-09-09T21:00:00Z,2025-09-09T17:00:00Z,VFR,26,10,200,6,0,12,1013.6,METAR CYXE 092100Z 20006KT 170V240 12SM FEW063 FEW300 26/10 A2993 RMK CU1CI1 FU SLP144 DENSITY ALT 3400FT,2025-09-09T21:12:35Z,2025-09-09T17:12:35Z
CYXE,"Saskatoon/Diefenbaker Intl, SK, CA",2025-09-09T22:00:00Z,2025-09-09T18:00:00Z,VFR,27,10,190,4,0,12,1013.6,METAR CYXE 092200Z 19004KT 12SM FEW065 FEW300 27/10 A2993 RMK CU1CI1 SLP142 DENSITY ALT 3400FT,2025-09-09T22:20:10Z,2025-09-09T18:20:10Z
CYXE,"Saskatoon/Diefenbaker Intl, SK, CA",2025-09-09T23:00:00Z,2025-09-09T19:00:00Z,VFR,26,10,60,2,0,12,1013.3,METAR CYXE 092300Z 06002KT 12SM FEW065 FEW300 26/10 A2992 RMK CU1CI1 SLP141 DENSITY ALT 3300FT,2025-09-09T23:21:12Z,2025-09-09T19:21:12Z
CYXE,"Saskatoon/Diefenbaker Intl, SK, CA",2025-09-10T01:00:00Z,2025-09-09T21:00:00Z,VFR,22,11,30,6,0,12,1013,METAR CYXE 100100Z 03006KT 12SM SKC 22/11 A2991 RMK SLP140 DENSITY ALT 2900FT,2025-09-10T01:11:26Z,2025-09-09T21:11:26Z
CYXH,"Medicine Hat Arpt, AB, CA",2025-09-10T01:00:00Z,2025-09-09T21:00:00Z,VFR,28,7,140,7,0,NA,1010.6,METAR CYXH 100100Z 14007KT 10SM FEW095 BKN250 28/07 A2984 RMK AC1CI5 SLP103 DENSITY ALT 4500FT,2025-09-10T01:11:26Z,2025-09-09T21:11:26Z
CYXJ,"Fort St John/N Peace Rgnl, BC, CA",2025-09-10T01:00:00Z,2025-09-09T21:00:00Z,VFR,23,8,330,6,0,20,1008.2,METAR CYXJ 100100Z 33006KT 280V350 20SM FEW056 FEW240 23/08 A2977 RMK FU1CU1CI1 CU TR SLP088 DENSITY ALT 3900FT,2025-09-10T01:11:26Z,2025-09-09T21:11:26Z
CYXL,"Sioux Lookout Arpt, ON, CA",2025-09-10T01:00:00Z,2025-09-09T21:00:00Z,VFR,13,13,0,0,0,15,1016.7,METAR CYXL 100100Z 00000KT 15SM FEW045 FEW089 SCT250 13/13 A3002 RMK CU1AC1CI1 SLP177,2025-09-10T01:11:26Z,2025-09-09T21:11:26Z
CYXP,"Pangnirtung Arpt, NU, CA",2025-09-09T15:00:00Z,2025-09-09T11:00:00Z,VFR,7,1,240,13,0,15,1003.8,METAR CYXP 091500Z 24013KT 15SM FEW030 07/01 A2964 RMK CF2 SLP040,2025-09-09T15:51:27Z,2025-09-09T11:51:27Z
CYXP,"Pangnirtung Arpt, NU, CA",2025-09-09T16:00:00Z,2025-09-09T12:00:00Z,VFR,7,1,240,16,0,15,1003.8,METAR CYXP 091600Z 24016KT 15SM FEW032 07/01 A2964 RMK CF1 SLP040,2025-09-09T16:11:14Z,2025-09-09T12:11:14Z
CYXP,"Pangnirtung Arpt, NU, CA",2025-09-09T17:00:00Z,2025-09-09T13:00:00Z,VFR,7,1,240,16,22,15,1004.1,METAR CYXP 091700Z 24016G22KT 15SM FEW044 07/01 A2965 RMK CF2 SLP044,2025-09-09T17:12:49Z,2025-09-09T13:12:49Z
CYXP,"Pangnirtung Arpt, NU, CA",2025-09-09T18:00:00Z,2025-09-09T14:00:00Z,VFR,7,0,240,18,29,15,1004.1,METAR CYXP 091800Z 24018G29KT 15SM SCT043 07/00 A2965 RMK SC4 SLP045,2025-09-09T18:09:18Z,2025-09-09T14:09:18Z
CYXP,"Pangnirtung Arpt, NU, CA",2025-09-09T19:00:00Z,2025-09-09T15:00:00Z,VFR,7,0,240,17,23,15,1004.5,METAR CYXP 091900Z 24017G23KT 15SM SCT042 07/00 A2966 RMK SC3 SLP046,2025-09-09T19:20:52Z,2025-09-09T15:20:52Z
CYXP,"Pangnirtung Arpt, NU, CA",2025-09-09T20:00:00Z,2025-09-09T16:00:00Z,VFR,6,0,230,16,22,15,1004.5,METAR CYXP 092000Z 23016G22KT 15SM FEW041 06/M00 A2966 RMK SC2 SLP048,2025-09-09T20:10:12Z,2025-09-09T16:10:12Z
CYXP,"Pangnirtung Arpt, NU, CA",2025-09-09T21:00:00Z,2025-09-09T17:00:00Z,VFR,7,0,240,15,0,15,1004.8,METAR CYXP 092100Z 24015KT 180V260 15SM FEW041 07/00 A2967 RMK SC2 SLP050,2025-09-09T21:12:40Z,2025-09-09T17:12:40Z
CYXP,"Pangnirtung Arpt, NU, CA",2025-09-09T22:00:00Z,2025-09-09T18:00:00Z,VFR,7,0,200,12,0,15,1005.5,METAR CYXP 092200Z 20012KT 180V240 15SM FEW046 07/M00 A2969 RMK SC1 LAST STFD OBS/NEXT 101100Z SLP056,2025-09-09T22:20:13Z,2025-09-09T18:20:13Z
CYXR,"Earlton Arpt, ON, CA",2025-09-10T00:19:00Z,2025-09-09T20:19:00Z,VFR,16,8,200,12,0,9,1020.1,SPECI CYXR 100019Z AUTO 20012KT 9SM -RA BKN050 OVC071 16/08 A3012 RMK SLP205 DENSITY ALT 1000FT,2025-09-10T00:33:15Z,2025-09-09T20:33:15Z
CYXR,"Earlton Arpt, ON, CA",2025-09-10T01:00:00Z,2025-09-09T21:00:00Z,VFR,16,8,200,10,16,9,1020.1,METAR CYXR 100100Z AUTO 20010G16KT 9SM OVC060 16/08 A3012 RMK SLP207,2025-09-10T01:11:26Z,2025-09-09T21:11:26Z
CYXS,"Prince George Arpt, BC, CA",2025-09-09T15:00:00Z,2025-09-09T11:00:00Z,MVFR,8,8,200,2,0,5,1013.6,METAR CYXS 091500Z AUTO 20002KT 5SM BR CLR 08/08 A2993 RMK SLP148,2025-09-09T15:51:24Z,2025-09-09T11:51:24Z
CYXS,"Prince George Arpt, BC, CA",2025-09-09T16:00:00Z,2025-09-09T12:00:00Z,MVFR,12,11,190,3,0,5,1014,METAR CYXS 091600Z AUTO 19003KT 5SM BR CLR 12/11 A2994 RMK SLP150,2025-09-09T16:11:11Z,2025-09-09T12:11:11Z
CYXS,"Prince George Arpt, BC, CA",2025-09-09T17:00:00Z,2025-09-09T13:00:00Z,MVFR,14,12,180,3,0,5,1014,METAR CYXS 091700Z AUTO 18003KT 150V220 5SM BR CLR 14/12 A2994 RMK SLP151 DENSITY ALT 2700FT,2025-09-09T17:12:44Z,2025-09-09T13:12:44Z
CYXS,"Prince George Arpt, BC, CA",2025-09-09T17:38:00Z,2025-09-09T13:38:00Z,VFR,16,11,200,5,0,6,1014,SPECI CYXS 091738Z AUTO 20005KT 6SM HZ CLR 16/11 A2994 RMK SLP149 DENSITY ALT 2900FT,2025-09-09T17:41:32Z,2025-09-09T13:41:32Z
CYXS,"Prince George Arpt, BC, CA",2025-09-09T18:00:00Z,2025-09-09T14:00:00Z,VFR,18,8,220,4,0,6,1014,METAR CYXS 091800Z AUTO 22004KT 180V250 6SM HZ CLR 18/08 A2994 RMK SLP147 DENSITY ALT 3100FT,2025-09-09T18:09:16Z,2025-09-09T14:09:16Z
CYXS,"Prince George Arpt, BC, CA",2025-09-09T19:00:00Z,2025-09-09T15:00:00Z,VFR,19,8,VAR,3,0,9,1013.6,METAR CYXS 091900Z AUTO VRB03KT 9SM CLR 19/08 A2993 RMK SLP142 DENSITY ALT 3300FT,2025-09-09T19:20:44Z,2025-09-09T15:20:44Z
CYXS,"Prince George Arpt, BC, CA",2025-09-09T20:00:00Z,2025-09-09T16:00:00Z,VFR,21,8,200,6,0,9,1013.3,METAR CYXS 092000Z AUTO 20006KT 170V330 9SM CLR 21/08 A2992 RMK SLP139 DENSITY ALT 3500FT,2025-09-09T20:10:07Z,2025-09-09T16:10:07Z
CYXS,"Prince George Arpt, BC, CA",2025-09-09T21:00:00Z,2025-09-09T17:00:00Z,VFR,21,8,170,4,0,9,1012.6,METAR CYXS 092100Z AUTO 17004KT 130V230 9SM CLR 21/08 A2990 RMK SLP134 DENSITY ALT 3600FT,2025-09-09T21:12:35Z,2025-09-09T17:12:35Z
CYXS,"Prince George Arpt, BC, CA",2025-09-09T22:00:00Z,2025-09-09T18:00:00Z,VFR,22,8,0,0,0,9,1011.9,METAR CYXS 092200Z AUTO 00000KT 9SM CLR 22/08 A2988 RMK SLP127 DENSITY ALT 3700FT,2025-09-09T22:20:10Z,2025-09-09T18:20:10Z
CYXS,"Prince George Arpt, BC, CA",2025-09-09T23:00:00Z,2025-09-09T19:00:00Z,VFR,23,8,180,5,0,9,1011.6,METAR CYXS 092300Z AUTO 18005KT 100V240 9SM CLR 23/08 A2987 RMK SLP120 DENSITY ALT 3800FT,2025-09-09T23:21:12Z,2025-09-09T19:21:12Z
CYXS,"Prince George Arpt, BC, CA",2025-09-10T01:00:00Z,2025-09-09T21:00:00Z,VFR,22,8,160,4,0,9,1010.9,METAR CYXS 100100Z AUTO 16004KT 9SM CLR 22/08 A2985 RMK SLP114 DENSITY ALT 3700FT,2025-09-10T01:11:26Z,2025-09-09T21:11:26Z
CYXT,"Terrace Arpt, BC, CA",2025-09-09T15:00:00Z,2025-09-09T11:00:00Z,VFR,13,11,290,3,0,20,1016.3,METAR CYXT 091500Z 29003KT 20SM FEW020 BKN040 BKN210 13/11 A3001 RMK SC1SC6CI1 CI TR SLP169,2025-09-09T15:51:24Z,2025-09-09T11:51:24Z
CYXT,"Terrace Arpt, BC, CA",2025-09-09T16:00:00Z,2025-09-09T12:00:00Z,VFR,14,11,290,4,0,20,1016.7,METAR CYXT 091600Z 29004KT 20SM FEW017 FEW024 BKN045 BKN210 14/11 A3002 RMK CF1CF1SC7CI1 CF TR CF TR CI TR SLP172,2025-09-09T16:11:11Z,2025-09-09T12:11:11Z
CYXT,"Terrace Arpt, BC, CA",2025-09-09T17:00:00Z,2025-09-09T13:00:00Z,VFR,16,12,VAR,2,0,20,1016.7,METAR CYXT 091700Z VRB02KT 20SM FEW020 FEW045 BKN210 16/12 A3002 RMK CF1SC2CI5 CF TR SLP172,2025-09-09T17:12:44Z,2025-09-09T13:12:44Z
CYXT,"Terrace Arpt, BC, CA",2025-09-09T18:00:00Z,2025-09-09T14:00:00Z,VFR,17,12,VAR,3,0,20,1016.7,METAR CYXT 091800Z VRB03KT 20SM FEW025 BKN045 BKN210 17/12 A3002 RMK CU1SC5CI2 CU TR SLP170 DENSITY ALT 1100FT,2025-09-09T18:09:16Z,2025-09-09T14:09:16Z
CYXT,"Terrace Arpt, BC, CA",2025-09-09T19:00:00Z,2025-09-09T15:00:00Z,VFR,18,12,VAR,2,0,20,1016.3,METAR CYXT 091900Z VRB02KT 20SM FEW023 FEW044 SCT210 18/12 A3001 RMK CU1SC1CI1 SLP165 DENSITY ALT 1100FT,2025-09-09T19:20:43Z,2025-09-09T15:20:43Z
CYXT,"Terrace Arpt, BC, CA",2025-09-09T20:00:00Z,2025-09-09T16:00:00Z,VFR,20,12,0,0,0,20,1015.3,METAR CYXT 092000Z 00000KT 20SM FEW033 BKN120 BKN210 20/12 A2998 RMK CU1AC4CI1 SLP157 DENSITY ALT 1400FT,2025-09-09T20:10:07Z,2025-09-09T16:10:07Z
CYXT,"Terrace Arpt, BC, CA",2025-09-09T21:00:00Z,2025-09-09T17:00:00Z,VFR,20,10,VAR,3,0,20,1015,METAR CYXT 092100Z VRB03KT 20SM FEW035 FEW060 BKN170 BKN210 20/10 A2997 RMK CU1SC1AC4CI2 CU TR SLP153 DENSITY ALT 1400FT,2025-09-09T21:12:35Z,2025-09-09T17:12:35Z
CYXT,"Terrace Arpt, BC, CA",2025-09-09T22:00:00Z,2025-09-09T18:00:00Z,VFR,21,10,270,7,0,20,1014.6,METAR CYXT 092200Z 27007KT 200V320 20SM FEW038 FEW160 SCT220 21/10 A2996 RMK CU1AC2CI1 CU TR SLP148 DENSITY ALT 1600FT,2025-09-09T22:20:10Z,2025-09-09T18:20:10Z
CYXT,"Terrace Arpt, BC, CA",2025-09-09T23:00:00Z,2025-09-09T19:00:00Z,VFR,21,10,300,3,0,20,1014,METAR CYXT 092300Z 30003KT 210V340 20SM FEW038 SCT160 SCT220 21/10 A2994 RMK CU1AC3CI1 CU TR CI TR SLP143 DENSITY ALT 1600FT,2025-09-09T23:21:12Z,2025-09-09T19:21:12Z
CYXT,"Terrace Arpt, BC, CA",2025-09-10T01:00:00Z,2025-09-09T21:00:00Z,VFR,21,10,210,4,0,20,1013.6,METAR CYXT 100100Z 21004KT 20SM FEW045 BKN180 21/10 A2993 RMK CF1AC7 CF TR SLP139 DENSITY ALT 1600FT,2025-09-10T01:11:25Z,2025-09-09T21:11:25Z
CYXU,"London Intl, ON, CA",2025-09-09T15:00:00Z,2025-09-09T11:00:00Z,VFR,20,11,170,6,0,15,1025.5,METAR CYXU 091500Z 17006KT 15SM FEW240 20/11 A3028 RMK CI2 SLP258 DENSITY ALT 1300FT,2025-09-09T15:51:26Z,2025-09-09T11:51:26Z
CYXU,"London Intl, ON, CA",2025-09-09T16:00:00Z,2025-09-09T12:00:00Z,VFR,21,11,180,6,0,15,1025.5,METAR CYXU 091600Z 18006KT 140V220 15SM FEW050 FEW210 21/11 A3028 RMK SC1CI1 SC TR SLP257 DENSITY ALT 1400FT,2025-09-09T16:11:12Z,2025-09-09T12:11:12Z
CYXU,"London Intl, ON, CA",2025-09-09T17:00:00Z,2025-09-09T13:00:00Z,VFR,21,7,160,8,15,15,1025.1,METAR CYXU 091700Z 16008G15KT 15SM SCT060 21/07 A3027 RMK SC3 SLP253 DENSITY ALT 1500FT,2025-09-09T17:12:45Z,2025-09-09T13:12:45Z
CYXU,"London Intl, ON, CA",2025-09-09T18:00:00Z,2025-09-09T14:00:00Z,VFR,22,8,170,9,15,15,1024.1,METAR CYXU 091800Z 17009G15KT 100V190 15SM FEW060 22/08 A3024 RMK SC2 SLP244 DENSITY ALT 1600FT,2025-09-09T18:09:17Z,2025-09-09T14:09:17Z
CYXU,"London Intl, ON, CA",2025-09-09T19:00:00Z,2025-09-09T15:00:00Z,VFR,22,7,190,7,0,15,1023.8,METAR CYXU 091900Z 19007KT 120V210 15SM FEW060 FEW240 22/07 A3023 RMK SC1CI1 SLP239 DENSITY ALT 1700FT,2025-09-09T19:20:46Z,2025-09-09T15:20:46Z
CYXU,"London Intl, ON, CA",2025-09-09T20:00:00Z,2025-09-09T16:00:00Z,VFR,22,7,160,9,0,15,1023.1,METAR CYXU 092000Z 16009KT 120V200 15SM FEW060 FEW240 22/07 A3021 RMK SC1CI1 SLP234 DENSITY ALT 1700FT,2025-09-09T20:10:11Z,2025-09-09T16:10:11Z
CYXU,"London Intl, ON, CA",2025-09-09T21:00:00Z,2025-09-09T17:00:00Z,VFR,22,7,150,12,0,15,1023.1,METAR CYXU 092100Z 15012KT 15SM FEW060 SCT220 22/07 A3021 RMK SC1CI3 SC TR SLP232 DENSITY ALT 1700FT,2025-09-09T21:12:38Z,2025-09-09T17:12:38Z
CYXU,"London Intl, ON, CA",2025-09-09T22:00:00Z,2025-09-09T18:00:00Z,VFR,21,6,190,9,0,15,1023.1,METAR CYXU 092200Z 19009KT 15SM FEW060 SCT230 21/06 A3021 RMK SC1CI4 SC TR CONTRAILS SLP233 DENSITY ALT 1500FT,2025-09-09T22:20:11Z,2025-09-09T18:20:11Z
CYXU,"London Intl, ON, CA",2025-09-09T23:00:00Z,2025-09-09T19:00:00Z,VFR,20,6,160,6,0,15,1022.8,METAR CYXU 092300Z 16006KT 15SM BKN230 20/06 A3020 RMK CI6 SLP232 DENSITY ALT 1400FT,2025-09-09T23:21:13Z,2025-09-09T19:21:13Z
CYXU,"London Intl, ON, CA",2025-09-10T01:00:00Z,2025-09-09T21:00:00Z,VFR,13,8,90,3,0,15,1022.8,METAR CYXU 100100Z 09003KT 15SM SCT250 13/08 A3020 RMK CI4 SLP230,2025-09-10T01:11:26Z,2025-09-09T21:11:26Z
CYXX,"Abbotsford Intl, BC, CA",2025-09-09T15:00:00Z,2025-09-09T11:00:00Z,LIFR,15,15,110,3,0,4,1014.6,METAR CYXX 091500Z 11003KT 4SM BR BKN004 OVC014 15/15 A2996 RMK ST7SC1 VIS SW 2 VIS HYR E SLP146,2025-09-09T15:51:26Z,2025-09-09T11:51:26Z
CYXX,"Abbotsford Intl, BC, CA",2025-09-09T15:51:00Z,2025-09-09T11:51:00Z,LIFR,16,16,VAR,2,0,2.5,1014.3,SPECI CYXX 091551Z VRB02KT 2 1/2SM BR OVC004 16/16 A2995 RMK ST8 SLP145 DENSITY ALT 400FT,2025-09-09T16:05:57Z,2025-09-09T12:05:57Z
CYXX,"Abbotsford Intl, BC, CA",2025-09-09T16:00:00Z,2025-09-09T12:00:00Z,LIFR,16,16,0,0,0,2.5,1014.3,METAR CYXX 091600Z 00000KT 2 1/2SM BR OVC004 16/16 A2995 RMK ST8 VIS SW 1 SLP145 DENSITY ALT 400FT,2025-09-09T16:11:12Z,2025-09-09T12:11:12Z
CYXX,"Abbotsford Intl, BC, CA",2025-09-09T16:33:00Z,2025-09-09T12:33:00Z,IFR,16,16,0,0,0,4,1014.6,SPECI CYXX 091633Z 00000KT 4SM BR BKN005 OVC008 16/16 A2996 RMK SF6SC2 VIS SW 2 SLP146 DENSITY ALT 400FT,2025-09-09T16:36:22Z,2025-09-09T12:36:22Z
CYXX,"Abbotsford Intl, BC, CA",2025-09-09T17:00:00Z,2025-09-09T13:00:00Z,IFR,17,16,0,0,0,6,1014.6,METAR CYXX 091700Z 00000KT 6SM BR OVC007 17/16 A2996 RMK SF8 SLP146 DENSITY ALT 400FT,2025-09-09T17:12:45Z,2025-09-09T13:12:45Z
CYXX,"Abbotsford Intl, BC, CA",2025-09-09T17:39:00Z,2025-09-09T13:39:00Z,IFR,18,15,180,3,0,NA,1014.3,SPECI CYXX 091739Z 18003KT 160V280 10SM BKN009 OVC037 18/15 A2995 RMK SF6SC2 SLP144 DENSITY ALT 500FT,2025-09-09T17:41:34Z,2025-09-09T13:41:34Z
CYXX,"Abbotsford Intl, BC, CA",2025-09-09T18:00:00Z,2025-09-09T14:00:00Z,MVFR,18,16,270,3,0,NA,1014.3,METAR CYXX 091800Z 27003KT 230V290 10SM BKN010 OVC037 18/16 A2995 RMK CF5SC3 SLP144 DENSITY ALT 600FT,2025-09-09T18:09:17Z,2025-09-09T14:09:17Z
CYXX,"Abbotsford Intl, BC, CA",2025-09-09T19:00:00Z,2025-09-09T15:00:00Z,MVFR,19,15,VAR,2,0,NA,1014,METAR CYXX 091900Z VRB02KT 10SM BKN015 OVC038 19/15 A2994 RMK CF5SC3 SLP141 DENSITY ALT 700FT,2025-09-09T19:20:46Z,2025-09-09T15:20:46Z
CYXX,"Abbotsford Intl, BC, CA",2025-09-09T20:00:00Z,2025-09-09T16:00:00Z,VFR,20,15,VAR,2,0,13,1013.6,METAR CYXX 092000Z VRB02KT 13SM FEW019 BKN040 20/15 A2993 RMK CF2SC5 HZ SLP139 DENSITY ALT 900FT,2025-09-09T20:10:11Z,2025-09-09T16:10:11Z
CYXX,"Abbotsford Intl, BC, CA",2025-09-09T21:00:00Z,2025-09-09T17:00:00Z,VFR,22,16,250,5,0,13,1013.3,METAR CYXX 092100Z 25005KT 210V300 13SM SCT025 BKN041 22/16 A2992 RMK CU4SC3 HZ SLP134 DENSITY ALT 1100FT,2025-09-09T21:12:38Z,2025-09-09T17:12:38Z
CYXX,"Abbotsford Intl, BC, CA",2025-09-09T22:00:00Z,2025-09-09T18:00:00Z,MVFR,23,15,200,6,0,15,1012.6,METAR CYXX 092200Z 20006KT 190V260 15SM BKN029 BKN040 23/15 A2990 RMK CU5SC2 HZ SLP127 DENSITY ALT 1200FT,2025-09-09T22:20:11Z,2025-09-09T18:20:11Z
CYXX,"Abbotsford Intl, BC, CA",2025-09-09T23:00:00Z,2025-09-09T19:00:00Z,MVFR,22,15,190,5,0,20,1012.3,METAR CYXX 092300Z 19005KT 20SM BKN030 BKN038 22/15 A2989 RMK CU5SC2 HZ SLP123 DENSITY ALT 1100FT,2025-09-09T23:21:13Z,2025-09-09T19:21:13Z
CYXX,"Abbotsford Intl, BC, CA",2025-09-10T01:00:00Z,2025-09-09T21:00:00Z,VFR,22,14,210,6,0,20,1011.9,METAR CYXX 100100Z 21006KT 20SM BKN037 BKN056 22/14 A2988 RMK SC6SC1 SLP121 DENSITY ALT 1100FT,2025-09-10T01:11:25Z,2025-09-09T21:11:25Z
CYXY,"Whitehorse Arpt, YT, CA",2025-09-09T15:00:00Z,2025-09-09T11:00:00Z,VFR,4,2,0,0,0,40,1012.3,METAR CYXY 091500Z 00000KT 40SM FEW060 FEW140 04/02 A2989 RMK SC1AC1 AC TR SLP146,2025-09-09T15:51:26Z,2025-09-09T11:51:26Z
CYXY,"Whitehorse Arpt, YT, CA",2025-09-09T16:00:00Z,2025-09-09T12:00:00Z,VFR,7,5,VAR,2,0,40,1012.3,METAR CYXY 091600Z VRB02KT 40SM FEW060 FEW140 07/05 A2989 RMK SC1AC1 SLP147,2025-09-09T16:11:12Z,2025-09-09T12:11:12Z
CYXY,"Whitehorse Arpt, YT, CA",2025-09-09T17:00:00Z,2025-09-09T13:00:00Z,VFR,9,6,190,2,0,40,1012.3,METAR CYXY 091700Z 19002KT 40SM FEW073 FEW140 09/06 A2989 RMK AC1AC1 AC TR SLP145,2025-09-09T17:12:45Z,2025-09-09T13:12:45Z
CYXY,"Whitehorse Arpt, YT, CA",2025-09-09T18:00:00Z,2025-09-09T14:00:00Z,VFR,11,6,170,6,0,40,1012.3,METAR CYXY 091800Z 17006KT 120V210 40SM FEW060 FEW140 11/06 A2989 RMK SC1AC1 SC TR AC TR SLP141,2025-09-09T18:09:17Z,2025-09-09T14:09:17Z
CYXY,"Whitehorse Arpt, YT, CA",2025-09-09T19:00:00Z,2025-09-09T15:00:00Z,VFR,14,4,VAR,4,0,40,1011.9,METAR CYXY 091900Z VRB04KT 40SM FEW050 FEW140 SCT240 14/04 A2988 RMK CU2AC1CI1 AC TR SLP137 DENSITY ALT 2900FT,2025-09-09T19:20:46Z,2025-09-09T15:20:46Z
CYXY,"Whitehorse Arpt, YT, CA",2025-09-09T20:00:00Z,2025-09-09T16:00:00Z,VFR,15,5,0,0,0,40,1011.6,METAR CYXY 092000Z 00000KT 40SM FEW068 FEW140 15/05 A2987 RMK AC1AC1 AC TR CVCTV CLD ASOCTD SLP132 DENSITY ALT 3000FT,2025-09-09T20:10:11Z,2025-09-09T16:10:11Z
CYXY,"Whitehorse Arpt, YT, CA",2025-09-09T21:00:00Z,2025-09-09T17:00:00Z,VFR,18,3,80,3,0,40,1010.9,METAR CYXY 092100Z 08003KT 010V160 40SM SCT069 18/03 A2985 RMK AC4 SLP125 DENSITY ALT 3300FT,2025-09-09T21:12:38Z,2025-09-09T17:12:38Z
CYXY,"Whitehorse Arpt, YT, CA",2025-09-09T22:00:00Z,2025-09-09T18:00:00Z,VFR,18,3,140,8,0,40,1010.2,METAR CYXY 092200Z 14008KT 40SM SCT068 SCT300 18/03 A2983 RMK CU3CI1 CI TR SLP117 DENSITY ALT 3400FT,2025-09-09T22:20:11Z,2025-09-09T18:20:11Z
CYXY,"Whitehorse Arpt, YT, CA",2025-09-09T23:00:00Z,2025-09-09T19:00:00Z,VFR,19,3,150,11,0,40,1009.9,METAR CYXY 092300Z 15011KT 40SM SCT064 SCT300 19/03 A2982 RMK CU3CI1 CI TR SLP115 DENSITY ALT 3500FT,2025-09-09T23:21:13Z,2025-09-09T19:21:13Z
CYXY,"Whitehorse Arpt, YT, CA",2025-09-10T01:00:00Z,2025-09-09T21:00:00Z,VFR,18,3,160,14,0,40,1008.9,METAR CYXY 100100Z 16014KT 40SM FEW073 BKN300 18/03 A2979 RMK CU1CI4 SLP108 DENSITY ALT 3400FT,2025-09-10T01:11:26Z,2025-09-09T21:11:26Z
CYYB,"North Bay/Garland Arpt, ON, CA",2025-09-09T15:00:00Z,2025-09-09T11:00:00Z,VFR,15,9,200,7,0,30,1025.1,METAR CYYB 091500Z 20007KT 30SM FEW025 FEW100 BKN280 15/09 A3027 RMK CF1AC1CI5 CF TR SLP259,2025-09-09T15:51:24Z,2025-09-09T11:51:24Z
CYYB,"North Bay/Garland Arpt, ON, CA",2025-09-09T16:00:00Z,2025-09-09T12:00:00Z,VFR,17,10,200,12,18,30,1024.8,METAR CYYB 091600Z 20012G18KT 30SM FEW030 FEW120 BKN280 17/10 A3026 RMK CU1AC1CI4 SLP255,2025-09-09T16:11:11Z,2025-09-09T12:11:11Z
CYYB,"North Bay/Garland Arpt, ON, CA",2025-09-09T17:00:00Z,2025-09-09T13:00:00Z,VFR,18,11,190,13,20,30,1024.5,METAR CYYB 091700Z 19013G20KT 30SM FEW030 BKN280 18/11 A3025 RMK CU3CI3 SLP251 DENSITY ALT 1600FT,2025-09-09T17:12:44Z,2025-09-09T13:12:44Z
CYYB,"North Bay/Garland Arpt, ON, CA",2025-09-09T18:00:00Z,2025-09-09T14:00:00Z,VFR,19,10,220,13,20,30,1023.8,METAR CYYB 091800Z 22013G20KT 30SM SCT040 BKN280 19/10 A3023 RMK CU3CI3 SLP244 DENSITY ALT 1600FT,2025-09-09T18:09:16Z,2025-09-09T14:09:16Z
CYYB,"North Bay/Garland Arpt, ON, CA",2025-09-09T19:00:00Z,2025-09-09T15:00:00Z,VFR,19,10,200,14,19,30,1023.5,METAR CYYB 091900Z 20014G19KT 30SM FEW040 BKN300 19/10 A3022 RMK CU2CI4 SLP241 DENSITY ALT 1700FT,2025-09-09T19:20:44Z,2025-09-09T15:20:44Z
CYYB,"North Bay/Garland Arpt, ON, CA",2025-09-09T20:00:00Z,2025-09-09T16:00:00Z,VFR,19,9,220,13,20,30,1023.1,METAR CYYB 092000Z 22013G20KT 30SM FEW040 BKN300 19/09 A3021 RMK CF1CI7 CF TR SLP236 DENSITY ALT 1700FT,2025-09-09T20:10:07Z,2025-09-09T16:10:07Z
CYYB,"North Bay/Garland Arpt, ON, CA",2025-09-09T21:00:00Z,2025-09-09T17:00:00Z,VFR,19,9,210,12,20,30,1022.8,METAR CYYB 092100Z 21012G20KT 30SM FEW040 SCT280 19/09 A3020 RMK SC1CI3 SLP234 DENSITY ALT 1700FT,2025-09-09T21:12:35Z,2025-09-09T17:12:35Z
CYYB,"North Bay/Garland Arpt, ON, CA",2025-09-09T22:00:00Z,2025-09-09T18:00:00Z,VFR,18,8,210,11,0,30,1022.8,METAR CYYB 092200Z 21011KT 30SM FEW045 BKN280 18/08 A3020 RMK SC1CI4 SLP234 DENSITY ALT 1600FT,2025-09-09T22:20:10Z,2025-09-09T18:20:10Z
CYYB,"North Bay/Garland Arpt, ON, CA",2025-09-09T23:00:00Z,2025-09-09T19:00:00Z,VFR,17,8,210,9,0,30,1022.8,METAR CYYB 092300Z 21009KT 30SM FEW090 BKN280 17/08 A3020 RMK AC2CI4 SLP236,2025-09-09T23:21:12Z,2025-09-09T19:21:12Z
CYYB,"North Bay/Garland Arpt, ON, CA",2025-09-10T01:00:00Z,2025-09-09T21:00:00Z,VFR,13,9,180,6,0,15,1022.4,METAR CYYB 100100Z 18006KT 15SM SCT280 13/09 A3019 RMK CI4 SLP233,2025-09-10T01:11:26Z,2025-09-09T21:11:26Z
CYYC,"Calgary Intl, AB, CA",2025-09-09T15:00:00Z,2025-09-09T11:00:00Z,VFR,14,9,VAR,2,0,15,1014.6,METAR CYYC 091500Z VRB02KT 15SM SKC 14/09 A2996 RMK SLP145 DENSITY ALT 4300FT,2025-09-09T15:51:24Z,2025-09-09T11:51:24Z
CYYC,"Calgary Intl, AB, CA",2025-09-09T16:00:00Z,2025-09-09T12:00:00Z,VFR,17,9,VAR,2,0,15,1014.6,METAR CYYC 091600Z VRB02KT 15SM SKC 17/09 A2996 RMK SLP144 DENSITY ALT 4600FT,2025-09-09T16:11:11Z,2025-09-09T12:11:11Z
CYYC,"Calgary Intl, AB, CA",2025-09-09T17:00:00Z,2025-09-09T13:00:00Z,VFR,20,9,210,3,0,15,1014.6,METAR CYYC 091700Z 21003KT 130V240 15SM SKC 20/09 A2996 RMK SLP141 DENSITY ALT 5000FT,2025-09-09T17:12:44Z,2025-09-09T13:12:44Z
CYYC,"Calgary Intl, AB, CA",2025-09-09T18:00:00Z,2025-09-09T14:00:00Z,VFR,22,8,150,3,0,15,1014,METAR CYYC 091800Z 15003KT 120V290 15SM FEW050 FEW250 22/08 A2994 RMK CU1CI1 CU TR SLP137 DENSITY ALT 5300FT,2025-09-09T18:09:16Z,2025-09-09T14:09:16Z
CYYC,"Calgary Intl, AB, CA",2025-09-09T19:00:00Z,2025-09-09T15:00:00Z,VFR,24,8,210,3,0,15,1013.6,METAR CYYC 091900Z 21003KT 150V270 15SM FEW060TCU FEW250 24/08 A2993 RMK TCU1CI2 TCU TR DIST TCU TOPS W SLP131 DENSITY ALT 5500FT,2025-09-09T19:20:44Z,2025-09-09T15:20:44Z
CYYC,"Calgary Intl, AB, CA",2025-09-09T20:00:00Z,2025-09-09T16:00:00Z,VFR,25,7,140,2,0,15,1013,METAR CYYC 092000Z 14002KT 15SM FEW060CB FEW120 FEW250 25/07 A2991 RMK CB1AC1CI2 CB TR AC TR DIST CB TOP W SLP124 DENSITY ALT 5600FT,2025-09-09T20:10:07Z,2025-09-09T16:10:07Z
CYYC,"Calgary Intl, AB, CA",2025-09-09T21:00:00Z,2025-09-09T17:00:00Z,VFR,26,7,160,8,0,12,1012.6,METAR CYYC 092100Z 16008KT 140V250 12SM FEW060 FEW120 SCT250 26/07 A2990 RMK CU1AC1CI2 CU TR FU SLP120 DENSITY ALT 5700FT,2025-09-09T21:12:35Z,2025-09-09T17:12:35Z
CYYC,"Calgary Intl, AB, CA",2025-09-09T22:00:00Z,2025-09-09T18:00:00Z,VFR,26,5,190,6,0,12,1012.3,METAR CYYC 092200Z 19006KT 12SM FEW080 FEW130 BKN250 26/05 A2989 RMK CU1AC1CI3 FU SLP116 DENSITY ALT 5700FT,2025-09-09T22:20:10Z,2025-09-09T18:20:10Z
CYYC,"Calgary Intl, AB, CA",2025-09-09T23:00:00Z,2025-09-09T19:00:00Z,VFR,26,6,120,2,0,12,1011.9,METAR CYYC 092300Z 12002KT 12SM FEW080TCU SCT150 BKN250 26/06 A2988 RMK TCU1AC3CI2 TCU TR FU DIST TCU TOPS N SLP113 DENSITY ALT 5800FT,2025-09-09T23:21:12Z,2025-09-09T19:21:12Z
CYYC,"Calgary Intl, AB, CA",2025-09-10T01:00:00Z,2025-09-09T21:00:00Z,VFR,24,8,180,5,0,15,1011.3,METAR CYYC 100100Z 18005KT 15SM SCT130 BKN180 BKN240 24/08 A2986 RMK AC3AC2CI2 SLP111 DENSITY ALT 5600FT,2025-09-10T01:11:26Z,2025-09-09T21:11:26Z
CYYD,"Smithers Arpt, BC, CA",2025-09-10T01:00:00Z,2025-09-09T21:00:00Z,VFR,21,7,340,11,19,25,1012.6,METAR CYYD 100100Z 34011G19KT 25SM FEW065 FEW170 FEW240 21/07 A2990 RMK CU1AC1CI1 CU TR SLP131 DENSITY ALT 2800FT,2025-09-10T01:11:26Z,2025-09-09T21:11:26Z
CYYE,"Fort Nelson Arpt, BC, CA",2025-09-10T01:00:00Z,2025-09-09T21:00:00Z,VFR,22,4,290,11,0,30,1008.2,METAR CYYE 100100Z 29011KT 260V340 30SM FEW090 SCT220 22/04 A2977 RMK AC2CI1 SLP087 DENSITY ALT 2600FT,2025-09-10T01:11:26Z,2025-09-09T21:11:26Z
CYYF,"Penticton Rgnl, BC, CA",2025-09-10T01:00:00Z,2025-09-09T21:00:00Z,VFR,27,10,10,9,0,15,1008.5,METAR CYYF 100100Z 01009KT 350V050 15SM FEW080CB SCT160 SCT220 27/10 A2978 RMK CB2AC1CI1 CI TR SLP083 DENSITY ALT 3000FT,2025-09-10T01:11:26Z,2025-09-09T21:11:26Z
CYYG,"Charlottetown Arpt, PE, CA",2025-09-09T15:00:00Z,2025-09-09T11:00:00Z,VFR,20,6,VAR,4,0,15,1028.9,METAR CYYG 091500Z VRB04KT 15SM SCT062 BKN260 20/06 A3038 RMK SC3CI2 SLP289,2025-09-09T15:51:24Z,2025-09-09T11:51:24Z
CYYG,"Charlottetown Arpt, PE, CA",2025-09-09T16:00:00Z,2025-09-09T12:00:00Z,VFR,19,8,170,10,16,15,1028.5,METAR CYYG 091600Z 17010G16KT 120V200 15SM BKN057 BKN250 19/08 A3037 RMK SC5CI1 SLP287,2025-09-09T16:11:11Z,2025-09-09T12:11:11Z
CYYG,"Charlottetown Arpt, PE, CA",2025-09-09T17:00:00Z,2025-09-09T13:00:00Z,VFR,19,7,180,8,0,15,1028.5,METAR CYYG 091700Z 18008KT 15SM BKN055 BKN260 19/07 A3037 RMK SC6CI1 SLP288,2025-09-09T17:12:43Z,2025-09-09T13:12:43Z
CYYG,"Charlottetown Arpt, PE, CA",2025-09-09T18:00:00Z,2025-09-09T14:00:00Z,VFR,21,6,230,8,0,15,1028.2,METAR CYYG 091800Z 23008KT 180V280 15SM SCT057 BKN260 21/06 A3036 RMK SC3CI4 SLP284 DENSITY ALT 400FT,2025-09-09T18:09:16Z,2025-09-09T14:09:16Z
CYYG,"Charlottetown Arpt, PE, CA",2025-09-09T19:00:00Z,2025-09-09T15:00:00Z,VFR,20,6,190,5,0,15,1027.9,METAR CYYG 091900Z 19005KT 120V250 15SM SCT055 BKN260 20/06 A3035 RMK CU3CS2 SLP282 DENSITY ALT 400FT,2025-09-09T19:20:43Z,2025-09-09T15:20:43Z
CYYG,"Charlottetown Arpt, PE, CA",2025-09-09T20:00:00Z,2025-09-09T16:00:00Z,VFR,20,8,VAR,3,0,15,1028.2,METAR CYYG 092000Z VRB03KT 15SM FEW059 BKN260 20/08 A3036 RMK SC1CI6 SLP283 DENSITY ALT 400FT,2025-09-09T20:10:07Z,2025-09-09T16:10:07Z
CYYG,"Charlottetown Arpt, PE, CA",2025-09-09T21:00:00Z,2025-09-09T17:00:00Z,VFR,18,9,30,10,0,15,1028.2,METAR CYYG 092100Z 03010KT 15SM FEW055 BKN260 18/09 A3036 RMK SC1CI7 SC TR SLP283,2025-09-09T21:12:35Z,2025-09-09T17:12:35Z
CYYG,"Charlottetown Arpt, PE, CA",2025-09-09T22:00:00Z,2025-09-09T18:00:00Z,VFR,16,9,40,6,0,15,1028.2,METAR CYYG 092200Z 04006KT 15SM OVC260 16/09 A3036 RMK CI8 SLP285,2025-09-09T22:20:10Z,2025-09-09T18:20:10Z
CYYG,"Charlottetown Arpt, PE, CA",2025-09-09T23:00:00Z,2025-09-09T19:00:00Z,VFR,14,9,60,5,0,15,1028.5,METAR CYYG 092300Z 06005KT 15SM OVC260 14/09 A3037 RMK CI8 SLP286,2025-09-09T23:21:12Z,2025-09-09T19:21:12Z
CYYG,"Charlottetown Arpt, PE, CA",2025-09-10T01:00:00Z,2025-09-09T21:00:00Z,VFR,13,9,120,5,0,15,1028.9,METAR CYYG 100100Z 12005KT 15SM SKC 13/09 A3038 RMK SLP291,2025-09-10T01:11:26Z,2025-09-09T21:11:26Z
CYYH,"Taloyoak Arpt, NU, CA",2025-09-10T01:00:00Z,2025-09-09T21:00:00Z,VFR,0,-2,260,5,0,20,1015.3,METAR CYYH 100100Z 26005KT 20SM FEW015 SCT220 BKN250 00/M02 A2998 RMK SC2CI2CC1 SLP155,2025-09-10T01:11:26Z,2025-09-09T21:11:26Z
CYYJ,"Victoria Intl, BC, CA",2025-09-09T15:00:00Z,2025-09-09T11:00:00Z,VFR,16,14,0,0,0,30,1014.6,METAR CYYJ 091500Z 00000KT 30SM FEW020 BKN044 16/14 A2996 RMK SC1SC7 SC TR SLP147,2025-09-09T15:51:24Z,2025-09-09T11:51:24Z
CYYJ,"Victoria Intl, BC, CA",2025-09-09T16:00:00Z,2025-09-09T12:00:00Z,VFR,17,14,VAR,2,0,30,1014.6,METAR CYYJ 091600Z VRB02KT 30SM FEW020 BKN044 BKN065 17/14 A2996 RMK SC1SC7SC1 SC TR SC TR SLP146 DENSITY ALT 300FT,2025-09-09T16:11:11Z,2025-09-09T12:11:11Z
CYYJ,"Victoria Intl, BC, CA",2025-09-09T17:00:00Z,2025-09-09T13:00:00Z,VFR,18,14,VAR,2,0,30,1014.6,METAR CYYJ 091700Z VRB02KT 30SM FEW025 BKN044 18/14 A2996 RMK CU1SC7 CU TR SLP146 DENSITY ALT 400FT,2025-09-09T17:12:44Z,2025-09-09T13:12:44Z
CYYJ,"Victoria Intl, BC, CA",2025-09-09T18:00:00Z,2025-09-09T14:00:00Z,VFR,18,14,90,6,0,30,1014.6,METAR CYYJ 091800Z 09006KT 070V150 30SM FEW025 BKN042 BKN250 18/14 A2996 RMK CU1SC7CI1 CU TR CI TR SLP147 DENSITY ALT 500FT,2025-09-09T18:09:16Z,2025-09-09T14:09:16Z
CYYJ,"Victoria Intl, BC, CA",2025-09-09T19:00:00Z,2025-09-09T15:00:00Z,VFR,19,14,80,4,0,30,1014.3,METAR CYYJ 091900Z 08004KT 060V130 30SM FEW030 BKN042 BKN250 19/14 A2995 RMK CU1SC7CI1 CU TR CI TR SLP145 DENSITY ALT 600FT,2025-09-09T19:20:44Z,2025-09-09T15:20:44Z
CYYJ,"Victoria Intl, BC, CA",2025-09-09T20:00:00Z,2025-09-09T16:00:00Z,VFR,21,14,80,8,0,30,1014,METAR CYYJ 092000Z 08008KT 060V120 30SM FEW030 SCT042 SCT250 21/14 A2994 RMK CU1SC3CI1 CU TR CI TR SLP141 DENSITY ALT 800FT,2025-09-09T20:10:07Z,2025-09-09T16:10:07Z
CYYJ,"Victoria Intl, BC, CA",2025-09-09T21:00:00Z,2025-09-09T17:00:00Z,VFR,21,14,90,6,0,30,1013.6,METAR CYYJ 092100Z 09006KT 070V140 30SM FEW035 FEW045 FEW250 21/14 A2993 RMK CU1SC1CI1 CU TR CI TR SLP138 DENSITY ALT 800FT,2025-09-09T21:12:35Z,2025-09-09T17:12:35Z
CYYJ,"Victoria Intl, BC, CA",2025-09-09T22:00:00Z,2025-09-09T18:00:00Z,VFR,21,14,90,7,0,30,1013,METAR CYYJ 092200Z 09007KT 30SM FEW035 FEW045 FEW250 21/14 A2991 RMK CU1SC1CI1 SC TR CI TR SLP132 DENSITY ALT 900FT,2025-09-09T22:20:10Z,2025-09-09T18:20:10Z
CYYJ,"Victoria Intl, BC, CA",2025-09-09T23:00:00Z,2025-09-09T19:00:00Z,VFR,21,14,120,6,0,30,1012.6,METAR CYYJ 092300Z 12006KT 070V130 30SM FEW040 FEW055 FEW250 21/14 A2990 RMK CU1SC1CI1 CU TR SC TR CI TR SLP127 DENSITY ALT 900FT,2025-09-09T23:21:12Z,2025-09-09T19:21:12Z
CYYJ,"Victoria Intl, BC, CA",2025-09-10T01:00:00Z,2025-09-09T21:00:00Z,VFR,19,13,120,5,0,30,1011.9,METAR CYYJ 100100Z 12005KT 30SM FEW030 FEW060 19/13 A2988 RMK CU1SC1 CU TR SC TR SLP121 DENSITY ALT 700FT,2025-09-10T01:11:26Z,2025-09-09T21:11:26Z
CYYN,"Swift Current Arpt, SK, CA",2025-09-10T01:00:00Z,2025-09-09T21:00:00Z,VFR,22,7,130,5,0,9,1014,METAR CYYN 100100Z AUTO 13005KT 9SM CLR 22/07 A2994 RMK SLP140 DENSITY ALT 4100FT,2025-09-10T01:11:26Z,2025-09-09T21:11:26Z
CYYQ,"Churchill Arpt, MB, CA",2025-09-10T01:00:00Z,2025-09-09T21:00:00Z,VFR,7,4,100,7,0,15,1019,METAR CYYQ 100100Z 10007KT 15SM FEW250 07/04 A3009 RMK CI2 SLP193,2025-09-10T01:11:26Z,2025-09-09T21:11:26Z
CYYR,"Goose Bay Arpt, NL, CA",2025-09-10T01:00:00Z,2025-09-09T21:00:00Z,VFR,9,2,250,6,0,15,1023.5,METAR CYYR 100100Z 25006KT 15SM FEW070 FEW250 09/02 A3022 RMK AC1CI1 DENSITY ALT -827FT SLP235,2025-09-10T01:11:26Z,2025-09-09T21:11:26Z
CYYT,"St Johns Intl, NL, CA",2025-09-09T15:00:00Z,2025-09-09T11:00:00Z,VFR,16,9,270,12,0,15,1025.5,METAR CYYT 091500Z CCA 27012KT 15SM SCT100 BKN130 OVC220 16/09 A3028 RMK AC3AC3CI2 SLP258,2025-09-09T15:51:26Z,2025-09-09T11:51:26Z
CYYT,"St Johns Intl, NL, CA",2025-09-09T16:00:00Z,2025-09-09T12:00:00Z,VFR,17,9,280,11,0,15,1025.5,METAR CYYT 091600Z 28011KT 15SM FEW032 BKN120 BKN160 OVC220 17/09 A3028 RMK CU1AC5AC1CI1 SLP258,2025-09-09T16:11:12Z,2025-09-09T12:11:12Z
CYYT,"St Johns Intl, NL, CA",2025-09-09T17:00:00Z,2025-09-09T13:00:00Z,VFR,17,8,290,10,17,15,1025.5,METAR CYYT 091700Z 29010G17KT 15SM FEW036 SCT150 SCT220 BKN240 17/08 A3028 RMK CU1AC2CI1CI3 SLP259,2025-09-09T17:12:45Z,2025-09-09T13:12:45Z
CYYT,"St Johns Intl, NL, CA",2025-09-09T18:00:00Z,2025-09-09T14:00:00Z,VFR,18,8,310,12,17,15,1025.8,METAR CYYT 091800Z 31012G17KT 260V320 15SM FEW040 SCT220 BKN240 18/08 A3029 RMK CU1CI3CI7 SLP262,2025-09-09T18:09:17Z,2025-09-09T14:09:17Z
CYYT,"St Johns Intl, NL, CA",2025-09-09T19:00:00Z,2025-09-09T15:00:00Z,VFR,17,8,290,10,0,15,1026.2,METAR CYYT 091900Z 29010KT 15SM SCT180 BKN220 BKN240 17/08 A3030 RMK AC3CI2CI2 SLP264,2025-09-09T19:20:46Z,2025-09-09T15:20:46Z
CYYT,"St Johns Intl, NL, CA",2025-09-09T20:00:00Z,2025-09-09T16:00:00Z,VFR,17,8,290,7,0,15,1026.2,METAR CYYT 092000Z 29007KT 15SM FEW030 SCT170 BKN220 OVC240 17/08 A3030 RMK SC1AC3CI2CI3 SC TR SLP266,2025-09-09T20:10:11Z,2025-09-09T16:10:11Z
CYYT,"St Johns Intl, NL, CA",2025-09-09T21:00:00Z,2025-09-09T17:00:00Z,VFR,16,7,280,7,0,15,1026.8,METAR CYYT 092100Z 28007KT 15SM FEW090 FEW140 BKN220 OVC240 16/07 A3032 RMK AC1AC1CI5CI3 AC TR AC TR SLP271,2025-09-09T21:12:38Z,2025-09-09T17:12:38Z
CYYT,"St Johns Intl, NL, CA",2025-09-09T22:00:00Z,2025-09-09T18:00:00Z,VFR,14,9,250,8,0,15,1027.2,METAR CYYT 092200Z 25008KT 15SM FEW220 BKN240 14/09 A3033 RMK CI2CI4 SLP276,2025-09-09T22:20:11Z,2025-09-09T18:20:11Z
CYYT,"St Johns Intl, NL, CA",2025-09-09T23:00:00Z,2025-09-09T19:00:00Z,VFR,13,8,250,7,0,15,1027.2,METAR CYYT 092300Z 25007KT 15SM BKN240 13/08 A3033 RMK CI5 SLP277,2025-09-09T23:21:13Z,2025-09-09T19:21:13Z
CYYT,"St Johns Intl, NL, CA",2025-09-10T01:00:00Z,2025-09-09T21:00:00Z,VFR,12,9,260,11,0,15,1027.5,METAR CYYT 100100Z 26011KT 15SM FEW140 BKN240 12/09 A3034 RMK AC1CI4 SLP280,2025-09-10T01:11:26Z,2025-09-09T21:11:26Z
CYYU,"Kapuskasing Arpt, ON, CA",2025-09-10T01:00:00Z,2025-09-09T21:00:00Z,IFR,14,14,240,5,0,12,1017,METAR CYYU 100100Z 24005KT 12SM OVC008 14/14 A3003 RMK SF8 BR SLP178,2025-09-10T01:11:26Z,2025-09-09T21:11:26Z
CYYW,"Armstrong Arpt, ON, CA",2025-09-10T01:00:00Z,2025-09-09T21:00:00Z,VFR,13,11,0,0,0,9,1016.3,METAR CYYW 100100Z AUTO 00000KT 9SM CLR 13/11 A3001 RMK SLP165,2025-09-10T01:11:26Z,2025-09-09T21:11:26Z
CYYY,"Mont Joli Arpt, QC, CA",2025-09-10T01:00:00Z,2025-09-09T21:00:00Z,VFR,11,6,160,4,0,30,1025.8,METAR CYYY 100100Z 16004KT 30SM SCT210 11/06 A3029 RMK CI3 SLP261,2025-09-10T01:11:26Z,2025-09-09T21:11:26Z
CYYZ,"Toronto/Pearson Intl, ON, CA",2025-09-09T15:00:00Z,2025-09-09T11:00:00Z,VFR,18,11,140,5,0,15,1026.2,METAR CYYZ 091500Z 14005KT 090V170 15SM SKC 18/11 A3030 RMK SLP265,2025-09-09T15:51:24Z,2025-09-09T11:51:24Z
CYYZ,"Toronto/Pearson Intl, ON, CA",2025-09-09T16:00:00Z,2025-09-09T12:00:00Z,VFR,19,11,170,5,0,15,1025.8,METAR CYYZ 091600Z 17005KT 15SM FEW030 FEW250 19/11 A3029 RMK CU1CI1 CU TR SLP260 DENSITY ALT 800FT,2025-09-09T16:11:11Z,2025-09-09T12:11:11Z
CYYZ,"Toronto/Pearson Intl, ON, CA",2025-09-09T17:00:00Z,2025-09-09T13:00:00Z,VFR,20,10,130,7,0,15,1025.5,METAR CYYZ 091700Z 13007KT 100V190 15SM FEW040 SCT250 20/10 A3028 RMK CU1CI3 SLP256 DENSITY ALT 900FT,2025-09-09T17:12:44Z,2025-09-09T13:12:44Z
CYYZ,"Toronto/Pearson Intl, ON, CA",2025-09-09T18:00:00Z,2025-09-09T14:00:00Z,VFR,21,9,140,8,15,15,1024.8,METAR CYYZ 091800Z 14008G15KT 100V190 15SM FEW040 SCT250 21/09 A3026 RMK CU2CI2 SLP250 DENSITY ALT 1100FT,2025-09-09T18:09:16Z,2025-09-09T14:09:16Z
CYYZ,"Toronto/Pearson Intl, ON, CA",2025-09-09T19:00:00Z,2025-09-09T15:00:00Z,VFR,22,10,130,7,0,15,1023.8,METAR CYYZ 091900Z 13007KT 100V170 15SM FEW040 BKN250 22/10 A3023 RMK CU2CI3 SLP241 DENSITY ALT 1200FT,2025-09-09T19:20:43Z,2025-09-09T15:20:43Z
CYYZ,"Toronto/Pearson Intl, ON, CA",2025-09-09T20:00:00Z,2025-09-09T16:00:00Z,VFR,21,10,130,7,0,15,1023.8,METAR CYYZ 092000Z 13007KT 15SM FEW060 SCT250 21/10 A3023 RMK CU1CI2 SLP239 DENSITY ALT 1100FT,2025-09-09T20:10:07Z,2025-09-09T16:10:07Z
CYYZ,"Toronto/Pearson Intl, ON, CA",2025-09-09T21:00:00Z,2025-09-09T17:00:00Z,VFR,21,9,150,8,0,15,1023.1,METAR CYYZ 092100Z 15008KT 15SM FEW060 21/09 A3021 RMK CU1 SLP234 DENSITY ALT 1200FT,2025-09-09T21:12:35Z,2025-09-09T17:12:35Z
CYYZ,"Toronto/Pearson Intl, ON, CA",2025-09-09T22:00:00Z,2025-09-09T18:00:00Z,VFR,21,9,140,7,0,15,1023.1,METAR CYYZ 092200Z 14007KT 15SM FEW060 FEW250 21/09 A3021 RMK SC1CI1 SLP234 DENSITY ALT 1100FT,2025-09-09T22:20:10Z,2025-09-09T18:20:10Z
CYYZ,"Toronto/Pearson Intl, ON, CA",2025-09-09T23:00:00Z,2025-09-09T19:00:00Z,VFR,19,9,140,5,0,15,1023.5,METAR CYYZ 092300Z 14005KT 15SM FEW060 BKN250 19/09 A3022 RMK SC1CI5 SC TR CONTRAILS SLP236 DENSITY ALT 900FT,2025-09-09T23:21:12Z,2025-09-09T19:21:12Z
CYYZ,"Toronto/Pearson Intl, ON, CA",2025-09-10T01:00:00Z,2025-09-09T21:00:00Z,VFR,16,10,100,5,0,15,1023.1,METAR CYYZ 100100Z 10005KT 15SM SCT250 16/10 A3021 RMK CI3 SLP233,2025-09-10T01:11:25Z,2025-09-09T21:11:25Z
CYZE,"Gore Bay/Manitoulin Arpt, ON, CA",2025-09-10T01:00:00Z,2025-09-09T21:00:00Z,VFR,15,12,150,8,0,9,1020.7,METAR CYZE 100100Z AUTO 15008KT 9SM CLR 15/12 A3014 RMK SLP211,2025-09-10T01:11:25Z,2025-09-09T21:11:25Z
CYZF,"Yellowknife Arpt, NT, CA",2025-09-09T15:00:00Z,2025-09-09T11:00:00Z,VFR,11,8,120,11,0,15,1006.9,METAR CYZF 091500Z 12011KT 15SM FEW020 FEW110 SCT180 11/08 A2973 RMK SC1AC2AC1 SC TR SLP078,2025-09-09T15:51:26Z,2025-09-09T11:51:26Z
CYZF,"Yellowknife Arpt, NT, CA",2025-09-09T16:00:00Z,2025-09-09T12:00:00Z,VFR,12,9,130,12,0,15,1006.5,METAR CYZF 091600Z 13012KT 15SM FEW020 BKN140 12/09 A2972 RMK SC1AC5 SC TR SLP074,2025-09-09T16:11:12Z,2025-09-09T12:11:12Z
CYZF,"Yellowknife Arpt, NT, CA",2025-09-09T17:00:00Z,2025-09-09T13:00:00Z,VFR,13,9,140,9,16,15,1006.2,METAR CYZF 091700Z 14009G16KT 15SM FEW020 BKN140 13/09 A2971 RMK SC1AC7 SC TR SLP071,2025-09-09T17:12:45Z,2025-09-09T13:12:45Z
CYZF,"Yellowknife Arpt, NT, CA",2025-09-09T18:00:00Z,2025-09-09T14:00:00Z,VFR,13,9,140,9,17,15,1006.2,METAR CYZF 091800Z 14009G17KT 15SM BKN130 13/09 A2971 RMK AC7 SLP070 DENSITY ALT 900FT,2025-09-09T18:09:17Z,2025-09-09T14:09:17Z
CYZF,"Yellowknife Arpt, NT, CA",2025-09-09T19:00:00Z,2025-09-09T15:00:00Z,VFR,14,9,130,10,0,15,1005.2,METAR CYZF 091900Z 13010KT 15SM BKN130 14/09 A2968 RMK AC7 PRESFR SLP060 DENSITY ALT 1000FT,2025-09-09T19:20:46Z,2025-09-09T15:20:46Z
CYZF,"Yellowknife Arpt, NT, CA",2025-09-09T20:00:00Z,2025-09-09T16:00:00Z,VFR,15,10,150,9,0,15,1004.8,METAR CYZF 092000Z 15009KT 15SM BKN100 15/10 A2967 RMK AC7 SLP057 DENSITY ALT 1100FT,2025-09-09T20:10:11Z,2025-09-09T16:10:11Z
CYZF,"Yellowknife Arpt, NT, CA",2025-09-09T20:30:00Z,2025-09-09T16:30:00Z,VFR,14,10,140,12,0,15,1004.8,SPECI CYZF 092030Z 14012KT 15SM -RA FEW052 OVC096 14/10 A2967 RMK SC2AC6 SLP058 DENSITY ALT 1100FT,2025-09-09T20:43:19Z,2025-09-09T16:43:19Z
CYZF,"Yellowknife Arpt, NT, CA",2025-09-09T21:00:00Z,2025-09-09T17:00:00Z,VFR,14,10,140,11,18,15,1004.5,METAR CYZF 092100Z 14011G18KT 15SM -RA SCT055 OVC094 14/10 A2966 RMK SC3AC5 SLP053 DENSITY ALT 1000FT,2025-09-09T21:12:38Z,2025-09-09T17:12:38Z
CYZF,"Yellowknife Arpt, NT, CA",2025-09-09T21:41:00Z,2025-09-09T17:41:00Z,MVFR,13,11,140,8,0,4,1004.1,SPECI CYZF 092141Z 14008KT 4SM RA OVC050 13/11 A2965 RMK SC8 SLP050 DENSITY ALT 900FT,2025-09-09T21:50:12Z,2025-09-09T17:50:12Z
CYZF,"Yellowknife Arpt, NT, CA",2025-09-09T21:57:00Z,2025-09-09T17:57:00Z,MVFR,12,12,160,7,0,4,1004.8,SPECI CYZF 092157Z 16007KT 130V220 4SM +RA FEW010 OVC038 12/12 A2967 RMK SC2SC6 PRESRR SLP059,2025-09-09T22:00:04Z,2025-09-09T18:00:04Z
CYZF,"Yellowknife Arpt, NT, CA",2025-09-09T22:15:00Z,2025-09-09T18:15:00Z,MVFR,12,12,160,11,0,4,1004.5,SPECI CYZF 092215Z 16011KT 4SM RA SCT004 OVC035 12/12 A2966 RMK SC4SC4 SLP053,2025-09-09T22:20:11Z,2025-09-09T18:20:11Z
CYZF,"Yellowknife Arpt, NT, CA",2025-09-09T22:21:00Z,2025-09-09T18:21:00Z,VFR,12,12,150,11,0,6,1004.1,SPECI CYZF 092221Z 15011KT 6SM -RA SCT004 OVC035 12/12 A2965 RMK SC4SC4 SLP051,2025-09-09T22:37:44Z,2025-09-09T18:37:44Z
CYZF,"Yellowknife Arpt, NT, CA",2025-09-09T23:00:00Z,2025-09-09T19:00:00Z,VFR,12,12,120,11,0,6,1003.1,METAR CYZF 092300Z 12011KT 100V160 6SM -RA SCT004 OVC035 12/12 A2962 RMK SC3SC5 SLP042 DENSITY ALT 900FT,2025-09-09T23:21:13Z,2025-09-09T19:21:13Z
CYZF,"Yellowknife Arpt, NT, CA",2025-09-10T00:17:00Z,2025-09-09T20:17:00Z,VFR,13,13,130,7,0,15,1003.1,SPECI CYZF 100017Z 13007KT 15SM SCT004 SCT087 BKN160 13/13 A2962 RMK SC3AC1AC3 SLP042 DENSITY ALT 1000FT,2025-09-10T00:33:15Z,2025-09-09T20:33:15Z
CYZF,"Yellowknife Arpt, NT, CA",2025-09-10T01:00:00Z,2025-09-09T21:00:00Z,VFR,14,13,120,7,0,15,1002.8,METAR CYZF 100100Z 12007KT 15SM FEW004 SCT070 BKN180 14/13 A2961 RMK SC2AC2AC2 SLP038 DENSITY ALT 1100FT,2025-09-10T01:11:26Z,2025-09-09T21:11:26Z
CYZH,"Slave Lake Arpt, AB, CA",2025-09-10T01:00:00Z,2025-09-09T21:00:00Z,VFR,21,14,0,0,0,9,1008.2,METAR CYZH 100100Z AUTO 00000KT 9SM FEW160 21/14 A2977 RMK SLP088 DENSITY ALT 3300FT,2025-09-10T01:11:26Z,2025-09-09T21:11:26Z
CYZP,"Sandspit Arpt, BC, CA",2025-09-09T15:00:00Z,2025-09-09T11:00:00Z,MVFR,15,10,300,11,16,9,1018.7,METAR CYZP 091500Z AUTO 30011G16KT 9SM BKN026 15/10 A3008 RMK SLP188,2025-09-09T15:51:26Z,2025-09-09T11:51:26Z
CYZP,"Sandspit Arpt, BC, CA",2025-09-09T16:00:00Z,2025-09-09T12:00:00Z,MVFR,15,10,300,7,0,9,1018.7,METAR CYZP 091600Z AUTO 30007KT 9SM OVC026 15/10 A3008 RMK SLP188,2025-09-09T16:11:12Z,2025-09-09T12:11:12Z
CYZP,"Sandspit Arpt, BC, CA",2025-09-09T17:00:00Z,2025-09-09T13:00:00Z,MVFR,15,10,290,9,0,9,1018.7,METAR CYZP 091700Z AUTO 29009KT 9SM OVC026 15/10 A3008 RMK SLP187,2025-09-09T17:12:45Z,2025-09-09T13:12:45Z
CYZP,"Sandspit Arpt, BC, CA",2025-09-09T17:40:00Z,2025-09-09T13:40:00Z,MVFR,16,11,350,10,0,9,1018.7,SPECI CYZP 091740Z AUTO 35010KT 9SM OVC024 16/11 A3008 RMK SLP187,2025-09-09T17:41:34Z,2025-09-09T13:41:34Z
CYZP,"Sandspit Arpt, BC, CA",2025-09-09T18:00:00Z,2025-09-09T14:00:00Z,MVFR,16,11,320,9,0,9,1018.7,METAR CYZP 091800Z AUTO 32009KT 9SM OVC024 16/11 A3008 RMK SLP188,2025-09-09T18:09:17Z,2025-09-09T14:09:17Z
CYZP,"Sandspit Arpt, BC, CA",2025-09-09T18:47:00Z,2025-09-09T14:47:00Z,MVFR,17,12,350,8,0,9,1018.4,SPECI CYZP 091847Z AUTO 35008KT 9SM OVC026 17/12 A3007 RMK SLP184,2025-09-09T18:50:43Z,2025-09-09T14:50:43Z
CYZP,"Sandspit Arpt, BC, CA",2025-09-09T19:00:00Z,2025-09-09T15:00:00Z,MVFR,16,12,350,8,0,9,1018,METAR CYZP 091900Z AUTO 35008KT 9SM BKN026 16/12 A3006 RMK SLP183,2025-09-09T19:20:46Z,2025-09-09T15:20:46Z
CYZP,"Sandspit Arpt, BC, CA",2025-09-09T20:00:00Z,2025-09-09T16:00:00Z,MVFR,16,12,280,5,0,9,1018,METAR CYZP 092000Z AUTO 28005KT 250V360 9SM OVC026 16/12 A3006 RMK SLP181,2025-09-09T20:10:10Z,2025-09-09T16:10:10Z
CYZP,"Sandspit Arpt, BC, CA",2025-09-09T20:14:00Z,2025-09-09T16:14:00Z,MVFR,16,12,270,3,0,9,1018,SPECI CYZP 092014Z AUTO 27003KT 9SM OVC024 16/12 A3006 RMK SLP182,2025-09-09T20:31:14Z,2025-09-09T16:31:14Z
CYZP,"Sandspit Arpt, BC, CA",2025-09-09T20:47:00Z,2025-09-09T16:47:00Z,VFR,17,12,250,4,0,9,1017.7,SPECI CYZP 092047Z AUTO 25004KT 230V290 9SM SCT026 BKN180 17/12 A3005 RMK SLP179,2025-09-09T20:53:56Z,2025-09-09T16:53:56Z
CYZP,"Sandspit Arpt, BC, CA",2025-09-09T21:00:00Z,2025-09-09T17:00:00Z,VFR,16,11,240,4,0,9,1017.7,METAR CYZP 092100Z AUTO 24004KT 9SM BKN180 16/11 A3005 RMK SLP179,2025-09-09T21:12:38Z,2025-09-09T17:12:38Z
CYZP,"Sandspit Arpt, BC, CA",2025-09-09T22:00:00Z,2025-09-09T18:00:00Z,VFR,17,12,VAR,2,0,9,1017.4,METAR CYZP 092200Z AUTO VRB02KT 9SM FEW160 SCT180 17/12 A3004 RMK SLP175,2025-09-09T22:20:11Z,2025-09-09T18:20:11Z
CYZP,"Sandspit Arpt, BC, CA",2025-09-09T23:00:00Z,2025-09-09T19:00:00Z,VFR,17,12,360,5,0,9,1017.4,METAR CYZP 092300Z AUTO 36005KT 9SM FEW029 SCT240 17/12 A3004 RMK SLP173,2025-09-09T23:21:13Z,2025-09-09T19:21:13Z
CYZP,"Sandspit Arpt, BC, CA",2025-09-10T01:00:00Z,2025-09-09T21:00:00Z,VFR,16,13,60,6,0,9,1016.7,METAR CYZP 100100Z AUTO 06006KT 9SM OVC140 16/13 A3002 RMK SLP168,2025-09-10T01:11:25Z,2025-09-09T21:11:25Z
CYZR,"Sarnia/Hadfield Arpt, ON, CA",2025-09-10T01:00:00Z,2025-09-09T21:00:00Z,VFR,15,9,140,5,0,9,1021.8,METAR CYZR 100100Z AUTO 14005KT 9SM CLR 15/09 A3017 RMK SLP220,2025-09-10T01:11:26Z,2025-09-09T21:11:26Z
CYZS,"Coral Harbour Arpt, NU, CA",2025-09-10T01:00:00Z,2025-09-09T21:00:00Z,MVFR,3,2,60,6,0,15,1016.3,METAR CYZS 100100Z 06006KT 15SM BKN030 03/02 A3001 RMK SC6 SLP169,2025-09-10T01:11:26Z,2025-09-09T21:11:26Z
CYZT,"Port Hardy Arpt, BC, CA",2025-09-10T01:00:00Z,2025-09-09T21:00:00Z,VFR,15,11,330,8,0,15,1015.3,METAR CYZT 100100Z 33008KT 15SM FEW025 BKN240 15/11 A2998 RMK SC2CI5 SLP155,2025-09-10T01:11:25Z,2025-09-09T21:11:25Z
CYZU,"Whitecourt Arpt, AB, CA",2025-09-10T01:00:00Z,2025-09-09T21:00:00Z,VFR,21,12,210,5,0,7,1010.2,METAR CYZU 100100Z 21005KT 190V300 7SM SCT130 21/12 A2983 RMK FU2AC2 FU SLP106 DENSITY ALT 4000FT,2025-09-10T01:11:26Z,2025-09-09T21:11:26Z
CYZV,"Sept-les Arpt, QC, CA",2025-09-09T15:00:00Z,2025-09-09T11:00:00Z,VFR,12,4,180,5,0,30,1027.9,METAR CYZV 091500Z 18005KT 30SM FEW045 FEW180 BKN260 12/04 A3035 RMK CU1AC1CI4 WIND EST SLP281,2025-09-09T15:51:24Z,2025-09-09T11:51:24Z
CYZV,"Sept-les Arpt, QC, CA",2025-09-09T16:00:00Z,2025-09-09T12:00:00Z,VFR,13,6,160,8,0,30,1027.9,METAR CYZV 091600Z 16008KT 30SM FEW050 FEW120 FEW180 BKN260 13/06 A3035 RMK CU1AC1AC1CI4 AC TR SLP280,2025-09-09T16:11:11Z,2025-09-09T12:11:11Z
CYZV,"Sept-les Arpt, QC, CA",2025-09-09T17:00:00Z,2025-09-09T13:00:00Z,VFR,13,5,170,10,0,30,1027.5,METAR CYZV 091700Z 17010KT 30SM FEW060 FEW080 FEW180 BKN260 13/05 A3034 RMK CU1AC1AC1CI4 AC TR AC TR CONTRAILS SLP279,2025-09-09T17:12:44Z,2025-09-09T13:12:44Z
CYZV,"Sept-les Arpt, QC, CA",2025-09-09T18:00:00Z,2025-09-09T14:00:00Z,VFR,13,7,210,8,0,30,1027.2,METAR CYZV 091800Z 21008KT 160V220 30SM FEW060 FEW080 FEW120 BKN260 13/07 A3033 RMK CU1AC1AC1CI5 CU TR AC TR AC TR SLP276,2025-09-09T18:09:15Z,2025-09-09T14:09:15Z
CYZV,"Sept-les Arpt, QC, CA",2025-09-09T19:00:00Z,2025-09-09T15:00:00Z,VFR,14,6,190,7,0,30,1026.8,METAR CYZV 091900Z 19007KT 160V220 30SM FEW060 FEW090 FEW230 BKN260 14/06 A3032 RMK CU1AC1CI2CI5 CU TR AC TR SLP273,2025-09-09T19:20:43Z,2025-09-09T15:20:43Z
CYZV,"Sept-les Arpt, QC, CA",2025-09-09T20:00:00Z,2025-09-09T16:00:00Z,VFR,13,7,180,6,0,30,1026.2,METAR CYZV 092000Z 18006KT 160V220 30SM FEW065 FEW080 FEW220 BKN260 13/07 A3030 RMK CU1AC1CI1CI5 CU TR AC TR SLP266,2025-09-09T20:10:07Z,2025-09-09T16:10:07Z
CYZV,"Sept-les Arpt, QC, CA",2025-09-09T21:00:00Z,2025-09-09T17:00:00Z,VFR,13,7,190,4,0,30,1026.2,METAR CYZV 092100Z 19004KT 170V230 30SM FEW070 FEW080 FEW220 BKN260 13/07 A3030 RMK CU1AC1CI1CI5 CU TR AC TR SLP266,2025-09-09T21:12:35Z,2025-09-09T17:12:35Z
CYZV,"Sept-les Arpt, QC, CA",2025-09-09T22:00:00Z,2025-09-09T18:00:00Z,VFR,13,7,180,3,0,30,1026.8,METAR CYZV 092200Z 18003KT 160V240 30SM FEW060 SCT210 BKN240 13/07 A3032 RMK SC1CI2CI4 SLP271,2025-09-09T22:20:10Z,2025-09-09T18:20:10Z
CYZV,"Sept-les Arpt, QC, CA",2025-09-09T23:00:00Z,2025-09-09T19:00:00Z,VFR,12,7,VAR,2,0,30,1026.5,METAR CYZV 092300Z VRB02KT 30SM FEW065 BKN170 OVC240 12/07 A3031 RMK SC1AC7CI1 SC TR SLP267,2025-09-09T23:21:12Z,2025-09-09T19:21:12Z
CYZV,"Sept-les Arpt, QC, CA",2025-09-10T01:00:00Z,2025-09-09T21:00:00Z,VFR,9,7,50,2,0,15,1026.5,METAR CYZV 100100Z 05002KT 15SM OVC130 09/07 A3031 RMK AC8 SLP267,2025-09-10T01:11:26Z,2025-09-09T21:11:26Z
CYZW,"Teslin Arpt, YT, CA",2025-09-10T01:00:00Z,2025-09-09T21:00:00Z,VFR,18,3,210,7,0,30,1011.3,METAR CYZW 100100Z 21007KT 180V260 30SM SCT064 SCT250 18/03 A2986 RMK CU3CI1 LAST STFD OBS/NXT 101300Z SLP126 DENSITY ALT 3300FT,2025-09-10T01:11:26Z,2025-09-09T21:11:26Z
CYZX,"Greenwood (MIL), NS, CA",2025-09-10T01:00:00Z,2025-09-09T21:00:00Z,VFR,11,6,150,2,0,15,1028.9,METAR CYZX 100100Z 15002KT 15SM FEW250 11/06 A3038 RMK CI2 DENSITY ALT -780FT SLP290,2025-09-10T01:11:26Z,2025-09-09T21:11:26Z
CYZY,"Mackenzie Arpt, BC, CA",2025-09-10T01:00:00Z,2025-09-09T21:00:00Z,VFR,22,5,200,7,0,9,1009.6,METAR CYZY 100100Z AUTO 20007KT 9SM CLR 22/05 A2981 RMK SLP104 DENSITY ALT 3700FT,2025-09-10T01:11:26Z,2025-09-09T21:11:26Z
CZBF,"Bathurst Arpt, NB, CA",2025-09-10T01:00:00Z,2025-09-09T21:00:00Z,VFR,9,8,240,2,0,9,1028.2,METAR CZBF 100100Z AUTO 24002KT 9SM CLR 09/08 A3036 RMK SLP286,2025-09-10T01:11:26Z,2025-09-09T21:11:26Z
CZFA,"Faro Arpt, YT, CA",2025-09-10T01:00:00Z,2025-09-09T21:00:00Z,VFR,16,4,VAR,4,0,30,1009.9,METAR CZFA 100100Z VRB04KT 30SM FEW035 BKN060 16/04 A2982 RMK SC1SC4 LAST STFD OBS/NXT 101300Z SLP114 DENSITY ALT 3200FT,2025-09-10T01:11:26Z,2025-09-09T21:11:26Z
CZMD,"Muskrat Dam Arpt, ON, CA",2025-09-10T01:00:00Z,2025-09-09T21:00:00Z,VFR,10,7,360,5,0,9,1018.4,METAR CZMD 100100Z AUTO 36005KT 350V060 9SM CLR 10/07 A3007 RMK SLP195,2025-09-10T01:11:27Z,2025-09-09T21:11:27Z
CZPC,"Pincher Creek Arpt, AB, CA",2025-09-10T01:00:00Z,2025-09-09T21:00:00Z,VFR,22,7,0,0,0,9,1013,METAR CZPC 100100Z AUTO 00000KT 9SM CLR 22/07 A2991 RMK SLP122 DENSITY ALT 5600FT,2025-09-10T01:11:27Z,2025-09-09T21:11:27Z
CZSJ,"Sandy Lake Arpt, ON, CA",2025-09-10T01:00:00Z,2025-09-09T21:00:00Z,VFR,12,9,VAR,2,0,9,1018,METAR CZSJ 100100Z AUTO VRB02KT 9SM CLR 12/09 A3006 RMK SLP192,2025-09-10T01:11:27Z,2025-09-09T21:11:27Z
CZST,"Stewart Arpt, BC, CA",2025-09-10T01:00:00Z,2025-09-09T21:00:00Z,VFR,18,11,0,0,0,15,1014,METAR CZST 100100Z 00000KT 15SM FEW065 SCT250 18/11 A2994 RMK CU1CI3 LAST STFD OBS/NEXT 101300Z/ SLP140 DENSITY ALT 400FT,2025-09-10T01:11:27Z,2025-09-09T21:11:27Z
CZUM,"Churchill Falls Arpt, NL, CA",2025-09-10T01:00:00Z,2025-09-09T21:00:00Z,VFR,10,3,190,5,0,9,1021.4,METAR CZUM 100100Z AUTO 19005KT 150V250 9SM OVC044 10/03 A3016 RMK SLP232,2025-09-10T01:11:27Z,2025-09-09T21:11:27Z
CZVL,"Edmonton/Villenueve Arpt, AB, CA",2025-09-10T01:00:00Z,2025-09-09T21:00:00Z,VFR,23,13,250,4,0,9,1009.6,METAR CZVL 100100Z AUTO 25004KT 9SM CLR 23/13 A2981 RMK SLP098 DENSITY ALT 3900FT,2025-09-10T01:11:27Z,2025-09-09T21:11:27Z
K79J,"Andalusia/Benton Fld, AL, US",2025-09-09T23:56:00Z,2025-09-09T19:56:00Z,VFR,27.8,16.7,30,4,0,NA,1016.7,METAR K79J 092356Z AUTO 03004KT 10SM SCT090 28/17 A3002 RMK AO2 SLP161 T02780167 10311 20278 53006 TSNO,2025-09-10T00:12:38Z,2025-09-09T20:12:38Z
K79J,"Andalusia/Benton Fld, AL, US",2025-09-10T00:56:00Z,2025-09-09T20:56:00Z,VFR,26.1,16.7,40,4,0,NA,1017,METAR K79J 100056Z AUTO 04004KT 10SM FEW095 26/17 A3003 RMK AO2 SLP166 T02610167 TSNO,2025-09-10T01:11:27Z,2025-09-09T21:11:27Z
KABE,"Allentown/Lehigh Valley Intl, PA, US",2025-09-09T22:51:00Z,2025-09-09T18:51:00Z,VFR,21.1,7.8,130,5,0,NA,1024.5,METAR KABE 092251Z 13005KT 10SM CLR 21/08 A3025 RMK AO2 SLP242 T02110078 $,2025-09-10T00:12:40Z,2025-09-09T20:12:40Z
KABE,"Allentown/Lehigh Valley Intl, PA, US",2025-09-10T00:51:00Z,2025-09-09T20:51:00Z,VFR,18.3,12.2,110,7,0,NA,1025.1,METAR KABE 100051Z 11007KT 10SM FEW055 18/12 A3027 RMK AO2 SLP248 T01830122 $,2025-09-10T01:11:28Z,2025-09-09T21:11:28Z
KABI,"Abilene Rgnl, TX, US",2025-09-09T14:52:00Z,2025-09-09T10:52:00Z,VFR,24.4,14.4,200,10,0,NA,1018.4,METAR KABI 091452Z 20010KT 10SM CLR 24/14 A3007 RMK AO2 SLP160 T02440144 50006,2025-09-09T15:51:30Z,2025-09-09T11:51:30Z
KABI,"Abilene Rgnl, TX, US",2025-09-09T15:52:00Z,2025-09-09T11:52:00Z,VFR,26.7,15,210,10,0,NA,1018.7,METAR KABI 091552Z 21010KT 10SM CLR 27/15 A3008 RMK AO2 SLP161 T02670150,2025-09-09T16:06:03Z,2025-09-09T12:06:03Z
KABI,"Abilene Rgnl, TX, US",2025-09-09T16:52:00Z,2025-09-09T12:52:00Z,VFR,28.3,16.1,210,9,0,NA,1018.7,METAR KABI 091652Z 21009KT 10SM CLR 28/16 A3008 RMK AO2 SLP159 T02830161,2025-09-09T17:12:54Z,2025-09-09T13:12:54Z
KABI,"Abilene Rgnl, TX, US",2025-09-09T17:52:00Z,2025-09-09T13:52:00Z,VFR,29.4,16.7,180,6,15,NA,1018,METAR KABI 091752Z 18006G15KT 10SM CLR 29/17 A3006 RMK AO2 SLP153 T02940167 10300 20172 58005 $,2025-09-09T18:09:22Z,2025-09-09T14:09:22Z
KABI,"Abilene Rgnl, TX, US",2025-09-09T18:52:00Z,2025-09-09T14:52:00Z,VFR,31.1,16.1,160,6,0,NA,1017,METAR KABI 091852Z 16006KT 10SM CLR 31/16 A3003 RMK AO2 SLP143 T03110161,2025-09-09T19:00:57Z,2025-09-09T15:00:57Z
KABI,"Abilene Rgnl, TX, US",2025-09-09T19:52:00Z,2025-09-09T15:52:00Z,VFR,32.8,16.1,160,7,17,NA,1016.3,METAR KABI 091952Z 16007G17KT 10SM CLR 33/16 A3001 RMK AO2 SLP137 T03280161,2025-09-09T20:10:18Z,2025-09-09T16:10:18Z
KABI,"Abilene Rgnl, TX, US",2025-09-09T20:52:00Z,2025-09-09T16:52:00Z,VFR,33.3,15.6,150,10,18,NA,1015.7,METAR KABI 092052Z 15010G18KT 10SM CLR 33/16 A2999 RMK AO2 SLP129 T03330156 56022,2025-09-09T21:12:45Z,2025-09-09T17:12:45Z
KABI,"Abilene Rgnl, TX, US",2025-09-09T21:52:00Z,2025-09-09T17:52:00Z,VFR,33.3,15.6,150,9,21,NA,1015.3,METAR KABI 092152Z 15009G21KT 10SM CLR 33/16 A2998 RMK AO2 SLP124 T03330156,2025-09-09T22:00:10Z,2025-09-09T18:00:10Z
KABI,"Abilene Rgnl, TX, US",2025-09-09T22:52:00Z,2025-09-09T18:52:00Z,VFR,32.8,14.4,140,14,0,NA,1015,METAR KABI 092252Z 14014KT 10SM CLR 33/14 A2997 RMK AO2 SLP123 T03280144 $,2025-09-09T22:58:33Z,2025-09-09T18:58:33Z
KABI,"Abilene Rgnl, TX, US",2025-09-09T23:52:00Z,2025-09-09T19:52:00Z,VFR,31.7,14.4,150,13,22,NA,1014.6,METAR KABI 092352Z 15013G22KT 10SM CLR 32/14 A2996 RMK AO2 PK WND 13030/2259 SLP121 T03170144 10339 20294 56009 $,2025-09-10T00:12:39Z,2025-09-09T20:12:39Z
KABI,"Abilene Rgnl, TX, US",2025-09-10T00:52:00Z,2025-09-09T20:52:00Z,VFR,29.4,15.6,150,8,0,NA,1015,METAR KABI 100052Z 15008KT 10SM CLR 29/16 A2997 RMK AO2 SLP125 T02940156 $,2025-09-10T01:11:27Z,2025-09-09T21:11:27Z
KABQ,"Albuquerque Intl, NM, US",2025-09-09T14:52:00Z,2025-09-09T10:52:00Z,VFR,20.6,7.8,VAR,3,0,NA,1022.4,METAR KABQ 091452Z VRB03KT 10SM BKN120 21/08 A3019 RMK AO2 SLP143 T02060078 51013 $,2025-09-09T15:51:32Z,2025-09-09T11:51:32Z
KABQ,"Albuquerque Intl, NM, US",2025-09-09T15:52:00Z,2025-09-09T11:52:00Z,VFR,23.3,6.7,220,4,0,NA,1022.8,METAR KABQ 091552Z 22004KT 10SM FEW060 SCT120 23/07 A3020 RMK AO2 SLP139 T02330067 $,2025-09-09T16:06:05Z,2025-09-09T12:06:05Z
KABQ,"Albuquerque Intl, NM, US",2025-09-09T16:52:00Z,2025-09-09T12:52:00Z,VFR,24.4,6.7,210,3,0,NA,1022.8,METAR KABQ 091652Z COR 21003KT 10SM FEW070 BKN120 24/07 A3020 RMK AO2 SLP136 T02440067 $,2025-09-09T17:12:57Z,2025-09-09T13:12:57Z
KABQ,"Albuquerque Intl, NM, US",2025-09-09T17:52:00Z,2025-09-09T13:52:00Z,VFR,27.8,8.9,230,5,0,NA,1022.1,METAR KABQ 091752Z 23005KT 10SM FEW070 BKN120 28/09 A3018 RMK AO2 SLP132 T02780089 10278 20172 58004 $,2025-09-09T18:09:23Z,2025-09-09T14:09:23Z
KABQ,"Albuquerque Intl, NM, US",2025-09-09T18:52:00Z,2025-09-09T14:52:00Z,VFR,30,8.9,120,4,0,NA,1021.4,METAR KABQ 091852Z 12004KT 10SM FEW080 FEW120 SCT200 30/09 A3016 RMK AO2 SLP118 T03000089 $,2025-09-09T19:00:59Z,2025-09-09T15:00:59Z
KABQ,"Albuquerque Intl, NM, US",2025-09-09T19:52:00Z,2025-09-09T15:52:00Z,VFR,31.1,8.9,100,3,0,NA,1020.1,METAR KABQ 091952Z 10003KT 10SM FEW090 FEW120 SCT200 31/09 A3012 RMK AO2 SLP105 T03110089 $,2025-09-09T20:10:19Z,2025-09-09T16:10:19Z
KABQ,"Albuquerque Intl, NM, US",2025-09-09T20:52:00Z,2025-09-09T16:52:00Z,VFR,30.6,7.8,60,6,0,NA,1019,METAR KABQ 092052Z 06006KT 10SM FEW090 SCT200 31/08 A3009 RMK AO2 SLP096 T03060078 58026 $,2025-09-09T21:12:46Z,2025-09-09T17:12:46Z
KABQ,"Albuquerque Intl, NM, US",2025-09-09T21:52:00Z,2025-09-09T17:52:00Z,VFR,29.4,8.3,220,11,0,NA,1018.7,METAR KABQ 092152Z 22011KT 10SM FEW080 BKN200 29/08 A3008 RMK AO2 SLP096 T02940083 $,2025-09-09T22:00:15Z,2025-09-09T18:00:15Z
KABQ,"Albuquerque Intl, NM, US",2025-09-09T22:52:00Z,2025-09-09T18:52:00Z,VFR,30.6,6.7,170,8,0,NA,1018,METAR KABQ 092252Z 17008KT 10SM FEW080 SCT150 SCT250 31/07 A3006 RMK AO2 SLP089 CB DSNT NW T03060067,2025-09-09T22:58:34Z,2025-09-09T18:58:34Z
KABQ,"Albuquerque Intl, NM, US",2025-09-09T23:52:00Z,2025-09-09T19:52:00Z,VFR,28.3,8.3,160,9,0,NA,1017.7,METAR KABQ 092352Z 16009KT 10SM FEW080 SCT150 BKN250 28/08 A3005 RMK AO2 SLP093 CB DSNT W SHRA DSNT N AND W T02830083 10311 20278 56012,2025-09-10T00:12:39Z,2025-09-09T20:12:39Z
KABQ,"Albuquerque Intl, NM, US",2025-09-10T00:52:00Z,2025-09-09T20:52:00Z,VFR,29.4,7.8,160,9,0,NA,1017.7,METAR KABQ 100052Z 16009KT 10SM FEW100 BKN140 BKN250 30/08 A3005 RMK AO2 SLP091 OCNL LTGCG DSNT W-N CB DSNT W-N SHRA DSNT W-N T02940078,2025-09-10T01:11:28Z,2025-09-09T21:11:28Z
KABR,"Aberdeen Rgnl, SD, US",2025-09-09T23:53:00Z,2025-09-09T19:53:00Z,VFR,24.4,17.8,0,0,0,NA,1014.3,METAR KABR 092353Z AUTO 00000KT 10SM CLR 24/18 A2995 RMK AO2 SLP134 T02440178 10256 20222 53003,2025-09-10T00:12:39Z,2025-09-09T20:12:39Z
KABR,"Aberdeen Rgnl, SD, US",2025-09-10T00:53:00Z,2025-09-09T20:53:00Z,VFR,21.1,17.8,50,5,0,NA,1014.3,METAR KABR 100053Z AUTO 05005KT 10SM CLR 21/18 A2995 RMK AO2 SLP138 T02110178,2025-09-10T01:11:27Z,2025-09-09T21:11:27Z
KABY,"Albany/SW Georgia Rgnl, GA, US",2025-09-09T23:53:00Z,2025-09-09T19:53:00Z,VFR,27.2,15,50,7,0,NA,1017.4,METAR KABY 092353Z AUTO 05007KT 10SM CLR 27/15 A3004 RMK AO2 SLP172 T02720150 10306 20272 53005,2025-09-10T00:12:39Z,2025-09-09T20:12:39Z
KABY,"Albany/SW Georgia Rgnl, GA, US",2025-09-10T00:53:00Z,2025-09-09T20:53:00Z,VFR,25.6,15,40,7,0,NA,1018,METAR KABY 100053Z AUTO 04007KT 10SM CLR 26/15 A3006 RMK AO2 SLP178 T02560150,2025-09-10T01:11:27Z,2025-09-09T21:11:27Z
KACK,"Nantucket Mem Arpt, MA, US",2025-09-09T23:53:00Z,2025-09-09T19:53:00Z,VFR,16.7,12.8,60,8,0,NA,1026.2,METAR KACK 092353Z 06008KT 10SM CLR 17/13 A3030 RMK AO2 SLP261 T01670128 10206 20167 58000,2025-09-10T00:12:39Z,2025-09-09T20:12:39Z
KACK,"Nantucket Mem Arpt, MA, US",2025-09-10T00:53:00Z,2025-09-09T20:53:00Z,VFR,16.7,13.3,60,8,0,NA,1026.5,METAR KACK 100053Z 06008KT 10SM CLR 17/13 A3031 RMK AO2 SLP262 T01670133,2025-09-10T01:11:27Z,2025-09-09T21:11:27Z
KACT,"Waco Rgnl, TX, US",2025-09-09T14:51:00Z,2025-09-09T10:51:00Z,VFR,22.2,15,0,0,0,NA,1018.7,METAR KACT 091451Z 00000KT 10SM CLR 22/15 A3008 RMK AO2 SLP181 T02220150 51018,2025-09-09T15:51:30Z,2025-09-09T11:51:30Z
KACT,"Waco Rgnl, TX, US",2025-09-09T15:51:00Z,2025-09-09T11:51:00Z,VFR,25.6,15,110,4,0,NA,1018.7,METAR KACT 091551Z 11004KT 10SM CLR 26/15 A3008 RMK AO2 SLP181 T02560150,2025-09-09T16:06:03Z,2025-09-09T12:06:03Z
KACT,"Waco Rgnl, TX, US",2025-09-09T16:51:00Z,2025-09-09T12:51:00Z,VFR,26.7,15.6,VAR,NA,0,NA,1018.7,METAR KACT 091651Z 10SM CLR 27/16 A3008 RMK AO2 SLP179 T02670156,2025-09-09T16:54:04Z,2025-09-09T12:54:04Z
KACT,"Waco Rgnl, TX, US",2025-09-09T17:51:00Z,2025-09-09T13:51:00Z,VFR,27.8,15,VAR,3,0,NA,1018,METAR KACT 091751Z VRB03KT 10SM CLR 28/15 A3006 RMK AO2 SLP173 T02780150 10283 20156 58007,2025-09-09T18:09:22Z,2025-09-09T14:09:22Z
KACT,"Waco Rgnl, TX, US",2025-09-09T18:51:00Z,2025-09-09T14:51:00Z,VFR,28.9,15,VAR,5,0,NA,1017,METAR KACT 091851Z VRB05KT 10SM CLR 29/15 A3003 RMK AO2 SLP164 T02890150,2025-09-09T19:00:57Z,2025-09-09T15:00:57Z
KACT,"Waco Rgnl, TX, US",2025-09-09T19:51:00Z,2025-09-09T15:51:00Z,VFR,30,15,70,6,0,NA,1016.3,METAR KACT 091951Z 07006KT 10SM CLR 30/15 A3001 RMK AO2 SLP156 T03000150,2025-09-09T20:10:18Z,2025-09-09T16:10:18Z
KACT,"Waco Rgnl, TX, US",2025-09-09T20:51:00Z,2025-09-09T16:51:00Z,VFR,30.6,13.9,70,5,0,NA,1016,METAR KACT 092051Z 07005KT 10SM CLR 31/14 A3000 RMK AO2 SLP152 T03060139 56020,2025-09-09T20:54:01Z,2025-09-09T16:54:01Z
KACT,"Waco Rgnl, TX, US",2025-09-09T21:51:00Z,2025-09-09T17:51:00Z,VFR,30.6,14.4,90,5,0,NA,1015.7,METAR KACT 092151Z 09005KT 10SM CLR 31/14 A2999 RMK AO2 SLP147 T03060144,2025-09-09T22:00:10Z,2025-09-09T18:00:10Z
KACT,"Waco Rgnl, TX, US",2025-09-09T22:51:00Z,2025-09-09T18:51:00Z,VFR,30.6,14.4,80,6,0,NA,1015.3,METAR KACT 092251Z 08006KT 10SM CLR 31/14 A2998 RMK AO2 SLP146 T03060144,2025-09-09T22:58:33Z,2025-09-09T18:58:33Z
KACT,"Waco Rgnl, TX, US",2025-09-09T23:51:00Z,2025-09-09T19:51:00Z,VFR,28.3,14.4,100,4,0,NA,1015,METAR KACT 092351Z 10004KT 10SM CLR 28/14 A2997 RMK AO2 SLP143 T02830144 10311 20278 56010,2025-09-10T00:12:40Z,2025-09-09T20:12:40Z
KACT,"Waco Rgnl, TX, US",2025-09-10T00:51:00Z,2025-09-09T20:51:00Z,VFR,25.6,14.4,110,4,0,NA,1015.3,METAR KACT 100051Z 11004KT 10SM CLR 26/14 A2998 RMK AO2 SLP146 T02560144,2025-09-10T01:11:28Z,2025-09-09T21:11:28Z
KACY,"Atlantic City Intl, NJ, US",2025-09-09T23:54:00Z,2025-09-09T19:54:00Z,VFR,19.4,12.2,50,11,18,NA,1023.5,METAR KACY 092354Z AUTO 05011G18KT 10SM BKN038 OVC046 19/12 A3022 RMK AO2 SLP232 T01940122 10217 20194 58004 $,2025-09-10T00:12:39Z,2025-09-09T20:12:39Z
KACY,"Atlantic City Intl, NJ, US",2025-09-10T00:54:00Z,2025-09-09T20:54:00Z,MVFR,19.4,12.8,60,12,19,NA,1023.5,METAR KACY 100054Z 06012G19KT 10SM OVC029 19/13 A3022 RMK AO2 SLP234 T01940128 $,2025-09-10T01:11:27Z,2025-09-09T21:11:27Z
KADH,"Ada Muni, OK, US",2025-09-09T23:55:00Z,2025-09-09T19:55:00Z,VFR,28,18,150,8,0,NA,1015.3,METAR KADH 092355Z AUTO 15008KT 10SM CLR 28/18 A2998 RMK AO2 10304 20266,2025-09-10T00:12:38Z,2025-09-09T20:12:38Z
KADH,"Ada Muni, OK, US",2025-09-10T00:15:00Z,2025-09-09T20:15:00Z,VFR,27,19,150,6,0,NA,1015.3,METAR KADH 100015Z AUTO 15006KT 10SM CLR 27/19 A2998 RMK AO2,2025-09-10T00:33:18Z,2025-09-09T20:33:18Z
KADH,"Ada Muni, OK, US",2025-09-10T00:55:00Z,2025-09-09T20:55:00Z,VFR,24,19,160,4,0,NA,1015.3,METAR KADH 100055Z AUTO 16004KT 10SM CLR 24/19 A2998 RMK AO2,2025-09-10T01:11:27Z,2025-09-09T21:11:27Z
KADW,"Andrews AFB, MD, US",2025-09-09T23:55:00Z,2025-09-09T19:55:00Z,VFR,19.3,12.1,70,4,0,NA,1021.8,METAR KADW 092355Z AUTO 07004KT 10SM CLR 19/12 A3017 RMK AO2 SLP223 T01930121 10242 20190 50000 TSNO $,2025-09-10T00:12:38Z,2025-09-09T20:12:38Z
KADW,"Andrews AFB, MD, US",2025-09-10T00:55:00Z,2025-09-09T20:55:00Z,VFR,18.7,13.5,60,4,0,NA,1022.1,METAR KADW 100055Z AUTO 06004KT 10SM SCT046 19/14 A3018 RMK AO2 SLP226 T01870135 TSNO $,2025-09-10T01:11:27Z,2025-09-09T21:11:27Z
KAEX,"Alexandria Intl, LA, US",2025-09-09T23:53:00Z,2025-09-09T19:53:00Z,VFR,28.3,17.2,10,3,0,NA,1014.6,METAR KAEX 092353Z 01003KT 10SM CLR 28/17 A2996 RMK AO2 SLP147 T02830172 10317 20283 55006,2025-09-10T00:12:39Z,2025-09-09T20:12:39Z
KAEX,"Alexandria Intl, LA, US",2025-09-10T00:53:00Z,2025-09-09T20:53:00Z,VFR,23.9,18.3,30,3,0,NA,1015,METAR KAEX 100053Z 03003KT 10SM CLR 24/18 A2997 RMK AO2 SLP152 T02390183,2025-09-10T01:11:27Z,2025-09-09T21:11:27Z
KAFW,"Fort Worth/Alliance Arpt, TX, US",2025-09-09T14:53:00Z,2025-09-09T10:53:00Z,VFR,23.3,12.2,150,9,0,NA,1018.7,METAR KAFW 091453Z 15009KT 10SM CLR 23/12 A3008 RMK AO2 SLP175 T02330122 51010 $,2025-09-09T15:51:30Z,2025-09-09T11:51:30Z
KAFW,"Fort Worth/Alliance Arpt, TX, US",2025-09-09T15:53:00Z,2025-09-09T11:53:00Z,VFR,25,13.3,150,10,0,NA,1018.7,METAR KAFW 091553Z 15010KT 10SM CLR 25/13 A3008 RMK AO2 SLP174 T02500133,2025-09-09T16:06:03Z,2025-09-09T12:06:03Z
KAFW,"Fort Worth/Alliance Arpt, TX, US",2025-09-09T16:53:00Z,2025-09-09T12:53:00Z,VFR,26.7,13.9,140,8,0,NA,1018.4,METAR KAFW 091653Z 14008KT 10SM CLR 27/14 A3007 RMK AO2 SLP170 T02670139,2025-09-09T17:12:54Z,2025-09-09T13:12:54Z
KAFW,"Fort Worth/Alliance Arpt, TX, US",2025-09-09T17:53:00Z,2025-09-09T13:53:00Z,VFR,27.8,14.4,190,4,0,NA,1018,METAR KAFW 091753Z 19004KT 10SM CLR 28/14 A3006 RMK AO2 SLP166 T02780144 10283 20183 58008,2025-09-09T18:09:22Z,2025-09-09T14:09:22Z
KAFW,"Fort Worth/Alliance Arpt, TX, US",2025-09-09T18:53:00Z,2025-09-09T14:53:00Z,VFR,28.9,14.4,VAR,4,0,NA,1017,METAR KAFW 091853Z VRB04KT 10SM CLR 29/14 A3003 RMK AO2 SLP156 T02890144,2025-09-09T19:00:57Z,2025-09-09T15:00:57Z
KAFW,"Fort Worth/Alliance Arpt, TX, US",2025-09-09T19:53:00Z,2025-09-09T15:53:00Z,VFR,29.4,15,130,4,0,NA,1016.3,METAR KAFW 091953Z COR 13004KT 10SM CLR 29/15 A3001 RMK AO2 SLP150 T02940150,2025-09-09T20:10:18Z,2025-09-09T16:10:18Z
KAFW,"Fort Worth/Alliance Arpt, TX, US",2025-09-09T20:53:00Z,2025-09-09T16:53:00Z,VFR,30,15,130,6,0,NA,1015.7,METAR KAFW 092053Z 13006KT 10SM CLR 30/15 A2999 RMK AO2 SLP142 T03000150 56022,2025-09-09T21:12:45Z,2025-09-09T17:12:45Z
KAFW,"Fort Worth/Alliance Arpt, TX, US",2025-09-09T21:53:00Z,2025-09-09T17:53:00Z,VFR,30,14.4,120,6,0,NA,1015.3,METAR KAFW 092153Z COR 12006KT 10SM CLR 30/14 A2998 RMK AO2 SLP140 T03000144,2025-09-09T22:00:10Z,2025-09-09T18:00:10Z
KAFW,"Fort Worth/Alliance Arpt, TX, US",2025-09-09T22:53:00Z,2025-09-09T18:53:00Z,VFR,30,13.9,140,9,0,NA,1015.3,METAR KAFW 092253Z 14009KT 10SM CLR 30/14 A2998 RMK AO2 SLP138 T03000139,2025-09-09T22:58:33Z,2025-09-09T18:58:33Z
KAFW,"Fort Worth/Alliance Arpt, TX, US",2025-09-09T23:53:00Z,2025-09-09T19:53:00Z,VFR,28.9,12.2,130,7,0,NA,1015,METAR KAFW 092353Z 13007KT 10SM CLR 29/12 A2997 RMK AO2 SLP135 T02890122 10306 20278 58008,2025-09-10T00:12:39Z,2025-09-09T20:12:39Z
KAFW,"Fort Worth/Alliance Arpt, TX, US",2025-09-10T00:53:00Z,2025-09-09T20:53:00Z,VFR,26.7,12.2,130,7,0,NA,1015,METAR KAFW 100053Z 13007KT 10SM FEW250 27/12 A2997 RMK AO2 SLP136 T02670122,2025-09-10T01:11:27Z,2025-09-09T21:11:27Z
KAGC,"Pittsburgh/Allegheny Cnty, PA, US",2025-09-09T23:53:00Z,2025-09-09T19:53:00Z,VFR,20.6,6.7,0,0,0,NA,1022.1,METAR KAGC 092353Z 00000KT 10SM CLR 21/07 A3018 RMK AO2 SLP224 T02060067 10233 20200 55004,2025-09-10T00:12:39Z,2025-09-09T20:12:39Z
KAGC,"Pittsburgh/Allegheny Cnty, PA, US",2025-09-10T00:53:00Z,2025-09-09T20:53:00Z,VFR,20,7.2,160,3,0,NA,1022.1,METAR KAGC 100053Z 16003KT 10SM CLR 20/07 A3018 RMK AO2 SLP223 T02000072,2025-09-10T01:11:27Z,2025-09-09T21:11:27Z
KAGS,"Augusta Rgnl, GA, US",2025-09-09T23:53:00Z,2025-09-09T19:53:00Z,VFR,21.1,12.2,30,6,0,NA,1018.7,METAR KAGS 092353Z 03006KT 10SM CLR 21/12 A3008 RMK AO2 SLP185 T02110122 10278 20211 53007 $,2025-09-10T00:12:39Z,2025-09-09T20:12:39Z
KAGS,"Augusta Rgnl, GA, US",2025-09-10T00:53:00Z,2025-09-09T20:53:00Z,VFR,20,12.8,10,6,0,NA,1019,METAR KAGS 100053Z 01006KT 10SM CLR 20/13 A3009 RMK AO2 SLP188 T02000128 $,2025-09-10T01:11:27Z,2025-09-09T21:11:27Z
KAHN,"Athens/Epps Arpt, GA, US",2025-09-09T23:51:00Z,2025-09-09T19:51:00Z,VFR,17.8,15,90,4,0,NA,1020.1,METAR KAHN 092351Z AUTO 09004KT 10SM CLR 18/15 A3012 RMK AO2 SLP197 T01780150 10261 20144 $,2025-09-10T00:12:40Z,2025-09-09T20:12:40Z
KAHN,"Athens/Epps Arpt, GA, US",2025-09-10T00:51:00Z,2025-09-09T20:51:00Z,NA,17.2,15,90,4,0,NA,1020.4,METAR KAHN 100051Z AUTO 09004KT 10SM 17/15 A3013 RMK AO2 SLP200 T01720150 $,2025-09-10T01:11:28Z,2025-09-09T21:11:28Z
KAIA,"Alliance Muni, NE, US",2025-09-09T23:53:00Z,2025-09-09T19:53:00Z,VFR,26.1,8.3,150,21,30,NA,1015,METAR KAIA 092353Z AUTO 15021G30KT 10SM FEW044 BKN100 26/08 A2997 RMK AO2 PK WND 24032/2301 LTG DSNT SE RAB08E20B37E51 SLP119 P0000 60000 T02610083 10317 20228 58002,2025-09-10T00:12:39Z,2025-09-09T20:12:39Z
KAIA,"Alliance Muni, NE, US",2025-09-10T00:53:00Z,2025-09-09T20:53:00Z,VFR,22.2,10,150,11,0,NA,1015.7,METAR KAIA 100053Z AUTO 15011KT 10SM CLR 22/10 A2999 RMK AO2 SLP133 T02220100,2025-09-10T01:11:27Z,2025-09-09T21:11:27Z
KAKR,"Akron/Fulton Intl, OH, US",2025-09-09T23:54:00Z,2025-09-09T19:54:00Z,VFR,17.8,6.7,0,0,0,8,1021.8,METAR KAKR 092354Z AUTO 00000KT 8SM CLR 18/07 A3017 RMK AO2 SLP215 T01780067 10250 20178 57002,2025-09-10T00:12:39Z,2025-09-09T20:12:39Z
KAKR,"Akron/Fulton Intl, OH, US",2025-09-10T00:20:00Z,2025-09-09T20:20:00Z,MVFR,17.2,6.7,0,0,0,4,1021.4,SPECI KAKR 100020Z AUTO 00000KT 4SM HZ CLR 17/07 A3016 RMK AO2 T01720067,2025-09-10T00:33:17Z,2025-09-09T20:33:17Z
KAKR,"Akron/Fulton Intl, OH, US",2025-09-10T00:54:00Z,2025-09-09T20:54:00Z,VFR,16.1,7.2,0,0,0,9,1021.4,METAR KAKR 100054Z AUTO 00000KT 9SM CLR 16/07 A3016 RMK AO2 SLP213 T01610072,2025-09-10T01:11:27Z,2025-09-09T21:11:27Z
KALB,"Albany Intl, NY, US",2025-09-09T14:51:00Z,2025-09-09T10:51:00Z,VFR,16.7,10,350,3,0,NA,1028.9,METAR KALB 091451Z 35003KT 10SM FEW029 SCT250 17/10 A3038 RMK AO2 SLP289 T01670100 50002,2025-09-09T15:51:27Z,2025-09-09T11:51:27Z
KALB,"Albany Intl, NY, US",2025-09-09T15:51:00Z,2025-09-09T11:51:00Z,VFR,18.9,9.4,0,0,0,NA,1028.5,METAR KALB 091551Z 00000KT 10SM FEW037 SCT250 19/09 A3037 RMK AO2 SLP284 T01890094,2025-09-09T16:06:00Z,2025-09-09T12:06:00Z
KALB,"Albany Intl, NY, US",2025-09-09T16:51:00Z,2025-09-09T12:51:00Z,VFR,21.1,8.9,0,0,0,NA,1027.9,METAR KALB 091651Z 00000KT 10SM FEW046 FEW250 21/09 A3035 RMK AO2 SLP275 T02110089,2025-09-09T16:54:01Z,2025-09-09T12:54:01Z
KALB,"Albany Intl, NY, US",2025-09-09T17:51:00Z,2025-09-09T13:51:00Z,VFR,22.2,8.9,190,4,0,NA,1026.8,METAR KALB 091751Z 19004KT 10SM FEW055 FEW250 22/09 A3032 RMK AO2 SLP267 T02220089 10228 20094 58021,2025-09-09T18:09:19Z,2025-09-09T14:09:19Z
KALB,"Albany Intl, NY, US",2025-09-09T18:51:00Z,2025-09-09T14:51:00Z,VFR,23.3,9.4,170,7,0,NA,1026.5,METAR KALB 091851Z COR 17007KT 10SM FEW055 FEW250 23/09 A3031 RMK AO2 SLP262 T02330094,2025-09-09T19:41:13Z,2025-09-09T15:41:13Z
KALB,"Albany Intl, NY, US",2025-09-09T19:51:00Z,2025-09-09T15:51:00Z,VFR,23.3,9.4,VAR,3,0,NA,1025.8,METAR KALB 091951Z VRB03KT 10SM FEW055 FEW250 23/09 A3029 RMK AO2 SLP258 T02330094,2025-09-09T20:10:13Z,2025-09-09T16:10:13Z
KALB,"Albany Intl, NY, US",2025-09-09T20:51:00Z,2025-09-09T16:51:00Z,VFR,23.9,10,260,3,0,NA,1025.5,METAR KALB 092051Z 26003KT 10SM FEW055 FEW250 24/10 A3028 RMK AO2 SLP254 T02390100 56014,2025-09-09T20:53:58Z,2025-09-09T16:53:58Z
KALB,"Albany Intl, NY, US",2025-09-09T21:51:00Z,2025-09-09T17:51:00Z,VFR,23.3,8.3,150,5,0,NA,1025.1,METAR KALB 092151Z 15005KT 10SM FEW055 FEW250 23/08 A3027 RMK AO2 SLP251 T02330083,2025-09-09T22:00:06Z,2025-09-09T18:00:06Z
KALB,"Albany Intl, NY, US",2025-09-09T22:51:00Z,2025-09-09T18:51:00Z,VFR,21.1,7.2,120,6,0,NA,1025.1,METAR KALB 092251Z 12006KT 10SM FEW250 21/07 A3027 RMK AO2 SLP252 T02110072,2025-09-09T22:58:30Z,2025-09-09T18:58:30Z
KALB,"Albany Intl, NY, US",2025-09-09T23:51:00Z,2025-09-09T19:51:00Z,VFR,19.4,7.8,120,6,0,NA,1025.5,METAR KALB 092351Z 12006KT 10SM FEW250 19/08 A3028 RMK AO2 SLP255 T01940078 10239 20194 53000,2025-09-10T00:12:40Z,2025-09-09T20:12:40Z
KALB,"Albany Intl, NY, US",2025-09-10T00:51:00Z,2025-09-09T20:51:00Z,VFR,18.3,7.8,0,0,0,NA,1025.8,METAR KALB 100051Z 00000KT 10SM FEW250 18/08 A3029 RMK AO2 SLP256 T01830078,2025-09-10T01:11:28Z,2025-09-09T21:11:28Z
KALI,"Alice Intl, TX, US",2025-09-09T23:53:00Z,2025-09-09T19:53:00Z,VFR,31.7,19.4,80,10,20,NA,1013.3,METAR KALI 092353Z AUTO 08010G20KT 300V110 10SM CLR 32/19 A2992 RMK AO2 SLP129 T03170194 10350 20317 55001,2025-09-10T00:12:39Z,2025-09-09T20:12:39Z
KALI,"Alice Intl, TX, US",2025-09-10T00:53:00Z,2025-09-09T20:53:00Z,VFR,29.4,20,110,12,18,NA,1014,METAR KALI 100053Z AUTO 11012G18KT 10SM CLR 29/20 A2994 RMK AO2 SLP136 T02940200,2025-09-10T01:11:27Z,2025-09-09T21:11:27Z
KALM,"Alamogordo/White Sands Rgnl, NM, US",2025-09-09T23:55:00Z,2025-09-09T19:55:00Z,VFR,34,8,180,4,0,NA,1015.3,METAR KALM 092355Z AUTO 18004KT 10SM CLR 34/08 A2998 RMK AO2,2025-09-10T00:12:38Z,2025-09-09T20:12:38Z
KALM,"Alamogordo/White Sands Rgnl, NM, US",2025-09-10T00:15:00Z,2025-09-09T20:15:00Z,VFR,34,8,190,8,0,NA,1015.3,METAR KALM 100015Z AUTO 19008KT 10SM FEW110 34/08 A2998 RMK AO2 LTG DSNT SE AND NW,2025-09-10T00:33:18Z,2025-09-09T20:33:18Z
KALM,"Alamogordo/White Sands Rgnl, NM, US",2025-09-10T00:55:00Z,2025-09-09T20:55:00Z,VFR,34,7,220,7,0,NA,1015.3,METAR KALM 100055Z AUTO 22007KT 10SM FEW110 34/07 A2998 RMK AO2,2025-09-10T01:11:27Z,2025-09-09T21:11:27Z
KALN,"Alton/St Louis Rgnl, IL, US",2025-09-09T23:50:00Z,2025-09-09T19:50:00Z,VFR,21,13,VAR,3,0,NA,1017.7,METAR KALN 092350Z VRB03KT 10SM CLR 21/13 A3005,2025-09-10T00:12:40Z,2025-09-09T20:12:40Z
KALN,"Alton/St Louis Rgnl, IL, US",2025-09-10T00:50:00Z,2025-09-09T20:50:00Z,VFR,19,13,VAR,3,0,NA,1017.7,METAR KALN 100050Z VRB03KT 10SM CLR 19/13 A3005,2025-09-10T01:11:28Z,2025-09-09T21:11:28Z
KALO,"Waterloo Rgnl, IA, US",2025-09-09T23:54:00Z,2025-09-09T19:54:00Z,VFR,19.4,15.6,60,4,0,NA,1016.3,METAR KALO 092354Z 06004KT 10SM FEW060 SCT090 OVC110 19/16 A3001 RMK AO2 SLP159 T01940156 10256 20194 56004,2025-09-10T00:12:39Z,2025-09-09T20:12:39Z
KALO,"Waterloo Rgnl, IA, US",2025-09-10T00:54:00Z,2025-09-09T20:54:00Z,VFR,17.8,15.6,50,4,0,NA,1016,METAR KALO 100054Z AUTO 05004KT 10SM CLR 18/16 A3000 RMK AO2 RAB2358E08 SLP159 P0000 T01780156,2025-09-10T01:11:27Z,2025-09-09T21:11:27Z
KALS,"Alamosa/Bergman Fld, CO, US",2025-09-09T23:52:00Z,2025-09-09T19:52:00Z,VFR,22.8,4.4,40,5,0,NA,1022.1,METAR KALS 092352Z AUTO 04005KT 10SM TS FEW047 BKN100 BKN120 23/04 A3018 RMK AO2 TSB47 SLP145 60000 T02280044 10256 20217 56011 $,2025-09-10T00:12:39Z,2025-09-09T20:12:39Z
KALS,"Alamosa/Bergman Fld, CO, US",2025-09-10T00:28:00Z,2025-09-09T20:28:00Z,VFR,20.6,9.4,110,3,0,NA,1021.8,SPECI KALS 100028Z AUTO 11003KT 10SM FEW043 FEW095 SCT110 21/09 A3017 RMK AO2 PK WND 16028/0004 LTG DSNT N-E RAB2353E17 TSE26 P0004 T02060094 $,2025-09-10T00:33:17Z,2025-09-09T20:33:17Z
KALS,"Alamosa/Bergman Fld, CO, US",2025-09-10T00:52:00Z,2025-09-09T20:52:00Z,VFR,20,8.9,0,0,0,NA,1021.8,METAR KALS 100052Z AUTO 00000KT 10SM SCT100 20/09 A3017 RMK AO2 PK WND 16028/0004 LTG DSNT E RAB2353E17 TSE26 SLP149 P0004 T02000089 $,2025-09-10T01:11:28Z,2025-09-09T21:11:28Z
KALW,"Walla Walla Rgnl, WA, US",2025-09-09T23:53:00Z,2025-09-09T19:53:00Z,VFR,28.3,12.2,280,13,0,NA,1008.2,METAR KALW 092353Z 28013KT 10SM CLR 28/12 A2977 RMK AO2 SLP073 T02830122 10300 20222 56019,2025-09-10T00:12:39Z,2025-09-09T20:12:39Z
KALW,"Walla Walla Rgnl, WA, US",2025-09-10T00:53:00Z,2025-09-09T20:53:00Z,VFR,27.2,12.2,250,10,0,NA,1007.9,METAR KALW 100053Z 25010KT 10SM CLR 27/12 A2976 RMK AO2 SLP071 T02720122,2025-09-10T01:11:27Z,2025-09-09T21:11:27Z
KAMA,"Amarillo Intl Arpt, TX, US",2025-09-09T14:53:00Z,2025-09-09T10:53:00Z,VFR,22.8,16.1,240,11,0,NA,1019.4,METAR KAMA 091453Z 24011KT 10SM CLR 23/16 A3010 RMK AO2 SLP140 60000 T02280161 50009,2025-09-09T15:51:30Z,2025-09-09T11:51:30Z
KAMA,"Amarillo Intl Arpt, TX, US",2025-09-09T15:53:00Z,2025-09-09T11:53:00Z,VFR,25.6,15.6,210,14,0,NA,1019,METAR KAMA 091553Z 21014KT 10SM CLR 26/16 A3009 RMK AO2 SLP136 T02560156,2025-09-09T16:06:03Z,2025-09-09T12:06:03Z
KAMA,"Amarillo Intl Arpt, TX, US",2025-09-09T16:53:00Z,2025-09-09T12:53:00Z,VFR,27.8,16.1,220,12,0,NA,1018.7,METAR KAMA 091653Z 22012KT 10SM CLR 28/16 A3008 RMK AO2 SLP131 T02780161,2025-09-09T17:12:54Z,2025-09-09T13:12:54Z
KAMA,"Amarillo Intl Arpt, TX, US",2025-09-09T17:53:00Z,2025-09-09T13:53:00Z,VFR,30,16.1,210,13,23,NA,1017.7,METAR KAMA 091753Z 21013G23KT 10SM CLR 30/16 A3005 RMK AO2 SLP121 60000 T03000161 10300 20183 58014,2025-09-09T18:09:21Z,2025-09-09T14:09:21Z
KAMA,"Amarillo Intl Arpt, TX, US",2025-09-09T18:53:00Z,2025-09-09T14:53:00Z,VFR,32.2,15.6,200,16,23,NA,1017,METAR KAMA 091853Z 20016G23KT 10SM CLR 32/16 A3003 RMK AO2 SLP112 T03220156,2025-09-09T19:00:57Z,2025-09-09T15:00:57Z
KAMA,"Amarillo Intl Arpt, TX, US",2025-09-09T19:53:00Z,2025-09-09T15:53:00Z,VFR,33.3,15,190,11,21,NA,1016.3,METAR KAMA 091953Z AUTO 19011G21KT 10SM CLR 33/15 A3001 RMK AO2 SLP103 T03330150,2025-09-09T20:10:18Z,2025-09-09T16:10:18Z
KAMA,"Amarillo Intl Arpt, TX, US",2025-09-09T20:53:00Z,2025-09-09T16:53:00Z,VFR,34.4,13.3,230,12,0,NA,1016,METAR KAMA 092053Z 23012KT 10SM CLR 34/13 A3000 RMK AO2 SLP099 T03440133 56018,2025-09-09T21:12:45Z,2025-09-09T17:12:45Z
KAMA,"Amarillo Intl Arpt, TX, US",2025-09-09T21:53:00Z,2025-09-09T17:53:00Z,VFR,33.9,12.2,170,8,0,NA,1015,METAR KAMA 092153Z 17008KT 10SM CLR 34/12 A2997 RMK AO2 SLP089 T03390122,2025-09-09T22:00:10Z,2025-09-09T18:00:10Z
KAMA,"Amarillo Intl Arpt, TX, US",2025-09-09T22:53:00Z,2025-09-09T18:53:00Z,VFR,30.6,14.4,200,12,0,NA,1014.3,METAR KAMA 092253Z 20012KT 10SM VCTS -RA SCT110 31/14 A2995 RMK AO2 LTG DSNT E AND S RAB48 SLP086 P0000 T03060144,2025-09-09T22:58:33Z,2025-09-09T18:58:33Z
KAMA,"Amarillo Intl Arpt, TX, US",2025-09-09T23:16:00Z,2025-09-09T19:16:00Z,VFR,31.1,13.9,180,12,0,NA,1014.3,SPECI KAMA 092316Z 18012KT 10SM TS BKN100 OVC120 31/14 A2995 RMK AO2 LTG DSNT E-S RAE07 TSB10 P0001 T03110139,2025-09-09T23:21:18Z,2025-09-09T19:21:18Z
KAMA,"Amarillo Intl Arpt, TX, US",2025-09-09T23:35:00Z,2025-09-09T19:35:00Z,VFR,26.7,16.1,100,18,25,NA,1015,SPECI KAMA 092335Z 10018G25KT 10SM VCTS -RA FEW055 OVC095 27/16 A2997 RMK AO2 WSHFT 2321 LTG DSNT E-S RAE07B24 TSB10E33 P0002 T02670161,2025-09-09T23:42:26Z,2025-09-09T19:42:26Z
KAMA,"Amarillo Intl Arpt, TX, US",2025-09-09T23:49:00Z,2025-09-09T19:49:00Z,MVFR,22,17,60,22,30,3,1015.7,SPECI KAMA 092349Z 06022G30KT 3SM +TSRA SCT060 OVC090 22/17 A2999 RMK AO2 PK WND 07030/2343 WSHFT 2329 LTG DSNT E-S RAE07B24 TSB10E33B36 PRESRR P0008,2025-09-09T23:52:55Z,2025-09-09T19:52:55Z
KAMA,"Amarillo Intl Arpt, TX, US",2025-09-10T00:09:00Z,2025-09-09T20:09:00Z,LIFR,19.4,15.6,100,17,35,0.25,1017.7,SPECI KAMA 100009Z 10017G35KT 070V150 1/4SM R04/1400VP6000FT +TSRA BKN014 BKN080 OVC090 19/16 A3005 RMK AO2 PK WND 26035/0005 WSHFT 2355 LTG DSNT E-S PRESRR P0033 T01940156,2025-09-10T00:12:38Z,2025-09-09T20:12:38Z
KAMA,"Amarillo Intl Arpt, TX, US",2025-09-10T00:27:00Z,2025-09-09T20:27:00Z,MVFR,20,17.2,100,17,30,NA,1015.7,SPECI KAMA 100027Z 10017G30KT 10SM -TSRA BKN013 20/17 A2999 RMK AO2 PK WND 26035/0005 WSHFT 0002 LTG DSNT ALQDS P0083 T02000172,2025-09-10T00:33:17Z,2025-09-09T20:33:17Z
KAMA,"Amarillo Intl Arpt, TX, US",2025-09-10T00:53:00Z,2025-09-09T20:53:00Z,VFR,17.8,15.6,140,28,41,NA,1017,METAR KAMA 100053Z 14028G41KT 10SM VCTS CLR 18/16 A3003 RMK AO2 PK WND 14041/0049 WSHFT 0002 LTG DSNT NE-S RAE35 TSE38 SLP129 P0083 T01780156,2025-09-10T01:11:27Z,2025-09-09T21:11:27Z
KANB,"Anniston Metro, AL, US",2025-09-09T22:53:00Z,2025-09-09T18:53:00Z,VFR,26.7,12.8,60,5,0,NA,1018.4,METAR KANB 092253Z AUTO 06005KT 10SM CLR 27/13 A3007 RMK AO2 SLP178 T02670128,2025-09-10T00:12:40Z,2025-09-09T20:12:40Z
KANB,"Anniston Metro, AL, US",2025-09-10T00:53:00Z,2025-09-09T20:53:00Z,VFR,19.4,16.7,0,0,0,NA,1019,METAR KANB 100053Z AUTO 00000KT 10SM CLR 19/17 A3009 RMK AO2 SLP185 T01940167 $,2025-09-10T01:11:27Z,2025-09-09T21:11:27Z
KAND,"Anderson Rgnl, SC, US",2025-09-10T00:56:00Z,2025-09-09T20:56:00Z,VFR,18.9,12.8,0,0,0,NA,1020.7,METAR KAND 100056Z AUTO 00000KT 10SM CLR 19/13 A3014 RMK AO2 SLP200 T01890128 $,2025-09-10T01:11:27Z,2025-09-09T21:11:27Z
KAOO,"Altoona/Blair Cnty, PA, US",2025-09-09T23:53:00Z,2025-09-09T19:53:00Z,VFR,15.6,5,120,3,0,NA,1023.8,METAR KAOO 092353Z AUTO 12003KT 10SM CLR 16/05 A3023 RMK AO2 SLP241 T01560050 10228 20156 55002,2025-09-10T00:12:39Z,2025-09-09T20:12:39Z
KAOO,"Altoona/Blair Cnty, PA, US",2025-09-10T00:53:00Z,2025-09-09T20:53:00Z,VFR,13.3,5.6,120,4,0,NA,1024.1,METAR KAOO 100053Z AUTO 12004KT 10SM CLR 13/06 A3024 RMK AO2 SLP243 T01330056,2025-09-10T01:11:27Z,2025-09-09T21:11:27Z
KAPA,"Denver/Centennial Arpt, CO, US",2025-09-09T23:53:00Z,2025-09-09T19:53:00Z,VFR,23.9,5,150,6,0,NA,1019.7,METAR KAPA 092353Z 15006KT 10SM SCT090 BKN130 BKN220 24/05 A3011 RMK AO2 SLP132 VIRGA ALQDS 60002 T02390050 10294 20217 51010,2025-09-10T00:12:39Z,2025-09-09T20:12:39Z
KAPA,"Denver/Centennial Arpt, CO, US",2025-09-10T00:53:00Z,2025-09-09T20:53:00Z,VFR,22.2,5,340,6,0,NA,1020.1,METAR KAPA 100053Z 34006KT 10SM SCT090 BKN130 BKN220 22/05 A3012 RMK AO2 SLP137 VIRGA ALQDS T02220050,2025-09-10T01:11:27Z,2025-09-09T21:11:27Z
KAPF,"Naples Muni, FL, US",2025-09-09T23:30:00Z,2025-09-09T19:30:00Z,VFR,25,23.9,130,6,0,8,1013.3,SPECI KAPF 092330Z 13006KT 8SM -RA BKN110 25/24 A2992 RMK AO2 LTG DSNT SE TSB09E24 P0005 T02500239,2025-09-10T00:12:40Z,2025-09-09T20:12:40Z
KAPF,"Naples Muni, FL, US",2025-09-10T00:53:00Z,2025-09-09T20:53:00Z,VFR,25,23.3,140,3,0,NA,1014,METAR KAPF 100053Z 14003KT 10SM -RA SCT110 25/23 A2994 RMK AO2 RAE00B18 SLP136 P0001 T02500233,2025-09-10T01:11:27Z,2025-09-09T21:11:27Z
KAPN,"Alpena Cnty Rgnl, MI, US",2025-09-09T23:54:00Z,2025-09-09T19:54:00Z,VFR,16.1,12.2,160,7,0,NA,1020.7,METAR KAPN 092354Z AUTO 16007KT 10SM CLR 16/12 A3014 RMK AO2 SLP209 T01610122 10222 20161 53001,2025-09-10T00:12:39Z,2025-09-09T20:12:39Z
KAPN,"Alpena Cnty Rgnl, MI, US",2025-09-10T00:54:00Z,2025-09-09T20:54:00Z,VFR,14.4,12.2,160,4,0,NA,1020.7,METAR KAPN 100054Z AUTO 16004KT 10SM CLR 14/12 A3014 RMK AO2 SLP206 T01440122,2025-09-10T01:11:27Z,2025-09-09T21:11:27Z
KARA,"New Iberia/Acadiana Rgnl, LA, US",2025-09-09T23:53:00Z,2025-09-09T19:53:00Z,VFR,30,19.4,90,6,0,NA,1014.3,METAR KARA 092353Z 09006KT 10SM BKN060 30/19 A2995 RMK AO2 SLP140 T03000194 10322 20300 55001,2025-09-10T00:12:39Z,2025-09-09T20:12:39Z
KARA,"New Iberia/Acadiana Rgnl, LA, US",2025-09-10T00:53:00Z,2025-09-09T20:53:00Z,VFR,27.2,20,160,4,0,NA,1014.6,METAR KARA 100053Z 16004KT 10SM SCT055 27/20 A2996 RMK AO2 LTG DSNT NE SLP145 T02720200,2025-09-10T01:11:27Z,2025-09-09T21:11:27Z
KART,"Watertown Intl, NY, US",2025-09-09T23:56:00Z,2025-09-09T19:56:00Z,VFR,13.3,10.6,130,4,0,NA,1024.5,METAR KART 092356Z AUTO 13004KT 10SM CLR 13/11 A3025 RMK AO2 SLP243 T01330106 10217 20133 56006,2025-09-10T00:12:38Z,2025-09-09T20:12:38Z
KART,"Watertown Intl, NY, US",2025-09-10T00:56:00Z,2025-09-09T20:56:00Z,VFR,11.1,10,0,0,0,NA,1024.5,METAR KART 100056Z AUTO 00000KT 10SM CLR 11/10 A3025 RMK AO2 SLP244 T01110100,2025-09-10T01:11:27Z,2025-09-09T21:11:27Z
KASE,"Aspen/Pitkin Cnty, CO, US",2025-09-09T14:53:00Z,2025-09-09T10:53:00Z,VFR,15,2.8,360,6,0,NA,1026.2,METAR KASE 091453Z 36006KT 10SM SCT085 15/03 A3030 RMK AO2 SLP147 T01500028 50001,2025-09-09T15:51:30Z,2025-09-09T11:51:30Z
KASE,"Aspen/Pitkin Cnty, CO, US",2025-09-09T15:53:00Z,2025-09-09T11:53:00Z,VFR,18.3,1.7,0,0,0,NA,1025.5,METAR KASE 091553Z 00000KT 10SM FEW110 18/02 A3028 RMK AO2 LTG DSNT S AND SW SLP143 T01830017,2025-09-09T16:06:03Z,2025-09-09T12:06:03Z
KASE,"Aspen/Pitkin Cnty, CO, US",2025-09-09T16:24:00Z,2025-09-09T12:24:00Z,VFR,19.4,3.3,350,8,0,NA,1025.5,SPECI KASE 091624Z 35008KT 10SM SCT085 BKN110 19/03 A3028 RMK AO2 RAB10E24 P0000 T01940033,2025-09-09T16:38:39Z,2025-09-09T12:38:39Z
KASE,"Aspen/Pitkin Cnty, CO, US",2025-09-09T16:53:00Z,2025-09-09T12:53:00Z,VFR,19.4,2.8,360,4,0,NA,1025.8,METAR KASE 091653Z 36004KT 10SM FEW090 19/03 A3029 RMK AO2 RAB10E24 SLP141 P0000 T01940028,2025-09-09T17:12:54Z,2025-09-09T13:12:54Z
KASE,"Aspen/Pitkin Cnty, CO, US",2025-09-09T17:53:00Z,2025-09-09T13:53:00Z,VFR,22.8,2.2,130,7,0,NA,1024.8,METAR KASE 091753Z 13007KT 100V170 10SM FEW090 23/02 A3026 RMK AO2 LTG DSNT E SLP125 60000 T02280022 10228 20083 58012,2025-09-09T18:09:22Z,2025-09-09T14:09:22Z
KASE,"Aspen/Pitkin Cnty, CO, US",2025-09-09T18:53:00Z,2025-09-09T14:53:00Z,VFR,23.9,1.1,VAR,6,0,NA,1023.8,METAR KASE 091853Z VRB06KT 10SM FEW090 SCT110 24/01 A3023 RMK AO2 LTG DSNT S-W SLP112 T02390011,2025-09-09T19:00:57Z,2025-09-09T15:00:57Z
KASE,"Aspen/Pitkin Cnty, CO, US",2025-09-09T19:14:00Z,2025-09-09T15:14:00Z,VFR,22.8,0.6,340,8,15,NA,1023.5,SPECI KASE 091914Z 34008G15KT 10SM CLR 23/01 A3022 RMK AO2 LTG DSNT ALQDS T02280006,2025-09-09T19:30:41Z,2025-09-09T15:30:41Z
KASE,"Aspen/Pitkin Cnty, CO, US",2025-09-09T19:45:00Z,2025-09-09T15:45:00Z,VFR,20.6,2.2,320,5,23,NA,1024.5,SPECI KASE 091945Z 32005G23KT 10SM VCTS SCT090 21/02 A3025 RMK AO2 T02060022,2025-09-09T19:51:21Z,2025-09-09T15:51:21Z
KASE,"Aspen/Pitkin Cnty, CO, US",2025-09-09T20:04:00Z,2025-09-09T16:04:00Z,VFR,15,2.8,360,7,19,NA,1024.8,SPECI KASE 092004Z 36007G19KT 310V020 10SM +TSRA FEW044 SCT070 15/03 A3026 RMK AO2 LTG DSNT E TSB1958 P0022 T01500028,2025-09-09T20:10:18Z,2025-09-09T16:10:18Z
KASE,"Aspen/Pitkin Cnty, CO, US",2025-09-09T20:27:00Z,2025-09-09T16:27:00Z,VFR,16.1,7.8,0,0,0,NA,1024.5,SPECI KASE 092027Z 00000KT 10SM -RA FEW044 SCT070 16/08 A3025 RMK AO2 LTG DSNT E TSB1958E26 P0024 T01610078,2025-09-09T20:31:19Z,2025-09-09T16:31:19Z
KASE,"Aspen/Pitkin Cnty, CO, US",2025-09-09T20:53:00Z,2025-09-09T16:53:00Z,VFR,19.4,5,50,7,14,NA,1023.8,METAR KASE 092053Z 05007G14KT 10SM FEW100 19/05 A3023 RMK AO2 LTG DSNT NW RAE28 TSB1958E26 SLP126 P0024 60024 T01940050 58008,2025-09-09T21:12:45Z,2025-09-09T17:12:45Z
KASE,"Aspen/Pitkin Cnty, CO, US",2025-09-09T21:53:00Z,2025-09-09T17:53:00Z,VFR,21.1,3.3,140,6,0,NA,1023.1,METAR KASE 092153Z COR 14006KT 10SM SCT100 21/03 A3021 RMK AO2 SLP118 T02110033,2025-09-09T22:00:10Z,2025-09-09T18:00:10Z
KASE,"Aspen/Pitkin Cnty, CO, US",2025-09-09T22:53:00Z,2025-09-09T18:53:00Z,VFR,21.1,4.4,340,3,0,NA,1022.4,METAR KASE 092253Z 34003KT 10SM FEW110 21/04 A3019 RMK AO2 LTG DSNT E AND SW SLP106 T02110044,2025-09-09T22:58:33Z,2025-09-09T18:58:33Z
KASE,"Aspen/Pitkin Cnty, CO, US",2025-09-10T00:03:00Z,2025-09-09T20:03:00Z,VFR,20,5.6,140,15,24,NA,1022.4,SPECI KASE 100003Z 14015G24KT 10SM VCTS FEW060 FEW075 BKN100 20/06 A3019 RMK AO2 LTG DSNT S AND W T02000056,2025-09-10T00:12:38Z,2025-09-09T20:12:38Z
KASE,"Aspen/Pitkin Cnty, CO, US",2025-09-10T00:11:00Z,2025-09-09T20:11:00Z,VFR,20.6,2.2,180,8,27,NA,1022.8,SPECI KASE 100011Z 18008G27KT 10SM FEW055 SCT070 BKN080 21/02 A3020 RMK AO2 PK WND 16027/0005 LTG DSNT S AND W T02060022,2025-09-10T00:33:18Z,2025-09-09T20:33:18Z
KASE,"Aspen/Pitkin Cnty, CO, US",2025-09-10T01:07:00Z,2025-09-09T21:07:00Z,VFR,17.8,4.4,140,7,0,NA,1023.1,SPECI KASE 100107Z 14007KT 10SM BKN095 OVC120 18/04 A3021 RMK AO2 LTG DSNT N TSE01 T01780044,2025-09-10T01:11:27Z,2025-09-09T21:11:27Z
KAST,"Astoria Rgnl, OR, US",2025-09-09T23:55:00Z,2025-09-09T19:55:00Z,MVFR,18.9,13.9,300,11,0,NA,1013.6,METAR KAST 092355Z AUTO 30011KT 10SM FEW016 BKN022 19/14 A2993 RMK AO2 SLP133 T01890139 10194 20167 55009 $,2025-09-10T00:12:38Z,2025-09-09T20:12:38Z
KAST,"Astoria Rgnl, OR, US",2025-09-10T00:19:00Z,2025-09-09T20:19:00Z,VFR,18.3,13.9,310,10,0,NA,1013.6,SPECI KAST 100019Z AUTO 31010KT 10SM SCT020 18/14 A2993 RMK AO2 T01830139 $,2025-09-10T00:33:17Z,2025-09-09T20:33:17Z
KAST,"Astoria Rgnl, OR, US",2025-09-10T00:55:00Z,2025-09-09T20:55:00Z,VFR,17.2,13.9,280,9,0,NA,1013.3,METAR KAST 100055Z AUTO 28009KT 10SM FEW014 FEW021 17/14 A2992 RMK AO2 SLP133 T01720139 $,2025-09-10T01:11:27Z,2025-09-09T21:11:27Z
KATL,"Atlanta/Hartsfield-Jackson Intl, GA, US",2025-09-09T14:52:00Z,2025-09-09T10:52:00Z,VFR,22.2,10,90,15,0,NA,1023.1,METAR KATL 091452Z 09015KT 10SM FEW060 FEW200 FEW250 22/10 A3021 RMK SLP223 T02220100 51005,2025-09-09T15:51:29Z,2025-09-09T11:51:29Z
KATL,"Atlanta/Hartsfield-Jackson Intl, GA, US",2025-09-09T15:52:00Z,2025-09-09T11:52:00Z,VFR,23.3,11.1,70,14,0,NA,1023.1,METAR KATL 091552Z 07014KT 10SM FEW065 FEW200 FEW250 23/11 A3021 RMK SLP222 T02330111,2025-09-09T16:06:02Z,2025-09-09T12:06:02Z
KATL,"Atlanta/Hartsfield-Jackson Intl, GA, US",2025-09-09T16:52:00Z,2025-09-09T12:52:00Z,VFR,24.4,12.2,60,7,18,NA,1022.1,METAR KATL 091652Z 06007G18KT 10SM FEW070 FEW200 FEW250 24/12 A3018 RMK SLP212 T02440122,2025-09-09T16:54:02Z,2025-09-09T12:54:02Z
KATL,"Atlanta/Hartsfield-Jackson Intl, GA, US",2025-09-09T17:52:00Z,2025-09-09T13:52:00Z,VFR,25.6,12.8,50,9,15,NA,1021.4,METAR KATL 091752Z 05009G15KT 10SM FEW200 FEW250 26/13 A3016 RMK SLP206 T02560128 10256 20167 58017,2025-09-09T18:09:20Z,2025-09-09T14:09:20Z
KATL,"Atlanta/Hartsfield-Jackson Intl, GA, US",2025-09-09T18:52:00Z,2025-09-09T14:52:00Z,VFR,26.7,12.8,60,9,0,NA,1020.4,METAR KATL 091852Z 06009KT 10SM FEW060 FEW200 FEW250 27/13 A3013 RMK SLP196 T02670128,2025-09-09T19:00:56Z,2025-09-09T15:00:56Z
KATL,"Atlanta/Hartsfield-Jackson Intl, GA, US",2025-09-09T19:52:00Z,2025-09-09T15:52:00Z,VFR,26.7,13.3,40,7,15,NA,1019.7,METAR KATL 091952Z 04007G15KT 10SM FEW055 FEW200 FEW250 27/13 A3011 RMK SLP189 T02670133,2025-09-09T20:10:15Z,2025-09-09T16:10:15Z
KATL,"Atlanta/Hartsfield-Jackson Intl, GA, US",2025-09-09T20:52:00Z,2025-09-09T16:52:00Z,VFR,27.2,12.8,70,9,0,NA,1019.4,METAR KATL 092052Z 07009KT 10SM FEW055 FEW200 27/13 A3010 RMK SLP184 T02720128 56020,2025-09-09T20:54:00Z,2025-09-09T16:54:00Z
KATL,"Atlanta/Hartsfield-Jackson Intl, GA, US",2025-09-09T21:52:00Z,2025-09-09T17:52:00Z,VFR,27.2,12.8,70,10,0,NA,1019.4,METAR KATL 092152Z 07010KT 10SM SCT055 SCT250 27/13 A3010 RMK AO2 SLP184 T02720128 $,2025-09-09T22:00:08Z,2025-09-09T18:00:08Z
KATL,"Atlanta/Hartsfield-Jackson Intl, GA, US",2025-09-09T22:52:00Z,2025-09-09T18:52:00Z,VFR,26.1,12.2,40,7,0,NA,1019,METAR KATL 092252Z 04007KT 10SM FEW055 SCT250 26/12 A3009 RMK SLP184 T02610122,2025-09-09T23:21:16Z,2025-09-09T19:21:16Z
KATL,"Atlanta/Hartsfield-Jackson Intl, GA, US",2025-09-09T23:52:00Z,2025-09-09T19:52:00Z,VFR,23.9,13.3,90,8,0,NA,1019.4,METAR KATL 092352Z 09008KT 10SM FEW055 FEW250 24/13 A3010 RMK SLP188 T02390133 10278 20239 57000,2025-09-10T00:12:39Z,2025-09-09T20:12:39Z
KATL,"Atlanta/Hartsfield-Jackson Intl, GA, US",2025-09-10T00:52:00Z,2025-09-09T20:52:00Z,VFR,22.8,13.3,90,8,0,NA,1019.7,METAR KATL 100052Z 09008KT 10SM FEW250 23/13 A3011 RMK AO2 SLP190 T02280133 $,2025-09-10T01:11:28Z,2025-09-09T21:11:28Z
KATW,"Appleton/Outagamie Cnty, WI, US",2025-09-09T23:45:00Z,2025-09-09T19:45:00Z,VFR,22,11,180,8,0,NA,1018,METAR KATW 092345Z 18008KT 10SM SCT110 22/11 A3006,2025-09-10T00:12:40Z,2025-09-09T20:12:40Z
KATW,"Appleton/Outagamie Cnty, WI, US",2025-09-10T00:45:00Z,2025-09-09T20:45:00Z,VFR,20,11,180,8,0,NA,1018.4,METAR KATW 100045Z 18008KT 10SM BKN090 20/11 A3007,2025-09-10T01:11:28Z,2025-09-09T21:11:28Z
KATY,"Watertown Rgnl, SD, US",2025-09-09T23:53:00Z,2025-09-09T19:53:00Z,VFR,22.8,16.7,20,3,0,NA,1014.6,METAR KATY 092353Z AUTO 02003KT 10SM CLR 23/17 A2996 RMK AO2 SLP139 T02280167 10250 20200 52004,2025-09-10T00:12:39Z,2025-09-09T20:12:39Z
KATY,"Watertown Rgnl, SD, US",2025-09-10T00:53:00Z,2025-09-09T20:53:00Z,VFR,20,16.1,40,4,0,NA,1015,METAR KATY 100053Z AUTO 04004KT 10SM CLR 20/16 A2997 RMK AO2 SLP146 T02000161,2025-09-10T01:11:27Z,2025-09-09T21:11:27Z
KAUG,"Augusta/State Arpt, ME, US",2025-09-09T23:53:00Z,2025-09-09T19:53:00Z,VFR,16.1,8.9,180,4,0,NA,1028.5,METAR KAUG 092353Z AUTO 18004KT 10SM CLR 16/09 A3037 RMK AO2 SLP284 T01610089 10222 20161 53005 PWINO $,2025-09-10T00:12:39Z,2025-09-09T20:12:39Z
KAUG,"Augusta/State Arpt, ME, US",2025-09-10T00:53:00Z,2025-09-09T20:53:00Z,VFR,13.9,9.4,0,0,0,NA,1028.5,METAR KAUG 100053Z AUTO 00000KT 10SM CLR 14/09 A3037 RMK AO2 SLP285 T01390094 PWINO $,2025-09-10T01:11:27Z,2025-09-09T21:11:27Z
KAUS,"Austin/Bergstrom Intl, TX, US",2025-09-09T14:53:00Z,2025-09-09T10:53:00Z,VFR,23.9,13.9,VAR,3,0,NA,1017.7,METAR KAUS 091453Z VRB03KT 10SM CLR 24/14 A3005 RMK AO2 SLP169 T02390139 51007,2025-09-09T15:51:30Z,2025-09-09T11:51:30Z
KAUS,"Austin/Bergstrom Intl, TX, US",2025-09-09T15:53:00Z,2025-09-09T11:53:00Z,VFR,26.7,13.9,70,4,0,NA,1018,METAR KAUS 091553Z 07004KT 10SM CLR 27/14 A3006 RMK AO2 SLP170 T02670139,2025-09-09T16:06:03Z,2025-09-09T12:06:03Z
KAUS,"Austin/Bergstrom Intl, TX, US",2025-09-09T16:53:00Z,2025-09-09T12:53:00Z,VFR,28.3,13.3,150,4,0,NA,1017.7,METAR KAUS 091653Z 15004KT 10SM CLR 28/13 A3005 RMK AO2 SLP168 T02830133,2025-09-09T17:12:54Z,2025-09-09T13:12:54Z
KAUS,"Austin/Bergstrom Intl, TX, US",2025-09-09T17:53:00Z,2025-09-09T13:53:00Z,VFR,30,13.9,40,6,0,NA,1017,METAR KAUS 091753Z 04006KT 10SM CLR 30/14 A3003 RMK AO2 SLP161 T03000139 10300 20150 58008,2025-09-09T18:09:21Z,2025-09-09T14:09:21Z
KAUS,"Austin/Bergstrom Intl, TX, US",2025-09-09T18:53:00Z,2025-09-09T14:53:00Z,VFR,30.6,13.3,VAR,NA,0,NA,1016.3,METAR KAUS 091853Z 10SM CLR 31/13 A3001 RMK AO2 SLP153 T03060133,2025-09-09T19:00:57Z,2025-09-09T15:00:57Z
KAUS,"Austin/Bergstrom Intl, TX, US",2025-09-09T18:53:00Z,2025-09-09T14:53:00Z,VFR,30.6,13.3,80,4,0,NA,1016.3,METAR KAUS 091853Z COR 08004KT 10SM CLR 31/13 A3001 RMK AO2 SLP153 T03060133,2025-09-09T19:51:21Z,2025-09-09T15:51:21Z
KAUS,"Austin/Bergstrom Intl, TX, US",2025-09-09T19:53:00Z,2025-09-09T15:53:00Z,VFR,31.7,12.2,0,0,0,NA,1015.7,METAR KAUS 091953Z 00000KT 10SM CLR 32/12 A2999 RMK AO2 SLP145 T03170122,2025-09-09T20:10:18Z,2025-09-09T16:10:18Z
KAUS,"Austin/Bergstrom Intl, TX, US",2025-09-09T20:53:00Z,2025-09-09T16:53:00Z,VFR,33.3,12.8,50,7,0,NA,1015,METAR KAUS 092053Z 05007KT 10SM CLR 33/13 A2997 RMK AO2 SLP138 T03330128 56022,2025-09-09T21:12:45Z,2025-09-09T17:12:45Z
KAUS,"Austin/Bergstrom Intl, TX, US",2025-09-09T21:53:00Z,2025-09-09T17:53:00Z,VFR,33.3,12.2,VAR,6,0,NA,1014.3,METAR KAUS 092153Z VRB06KT 10SM CLR 33/12 A2995 RMK AO2 SLP132 T03330122,2025-09-09T22:00:10Z,2025-09-09T18:00:10Z
KAUS,"Austin/Bergstrom Intl, TX, US",2025-09-09T22:53:00Z,2025-09-09T18:53:00Z,VFR,33.3,11.1,70,8,0,NA,1014.3,METAR KAUS 092253Z 07008KT 10SM CLR 33/11 A2995 RMK AO2 SLP132 T03330111,2025-09-09T22:58:33Z,2025-09-09T18:58:33Z
KAUS,"Austin/Bergstrom Intl, TX, US",2025-09-09T23:53:00Z,2025-09-09T19:53:00Z,VFR,32.2,11.1,80,7,0,NA,1014.3,METAR KAUS 092353Z 08007KT 10SM CLR 32/11 A2995 RMK AO2 SLP131 T03220111 10339 20294 56006,2025-09-10T00:12:39Z,2025-09-09T20:12:39Z
KAUS,"Austin/Bergstrom Intl, TX, US",2025-09-10T00:53:00Z,2025-09-09T20:53:00Z,VFR,29.4,11.7,90,6,0,NA,1014.6,METAR KAUS 100053Z 09006KT 10SM CLR 29/12 A2996 RMK AO2 SLP136 T02940117,2025-09-10T01:11:27Z,2025-09-09T21:11:27Z
KAUW,"Wausau Downtown, WI, US",2025-09-09T23:54:00Z,2025-09-09T19:54:00Z,VFR,20,12.2,170,5,0,NA,1017,METAR KAUW 092354Z AUTO 17005KT 10SM OVC060 20/12 A3003 RMK AO2 SLP171 T02000122 10228 20200 53004,2025-09-10T00:12:39Z,2025-09-09T20:12:39Z
KAUW,"Wausau Downtown, WI, US",2025-09-10T00:54:00Z,2025-09-09T20:54:00Z,VFR,20,11.7,0,0,0,NA,1017.4,METAR KAUW 100054Z AUTO 00000KT 10SM OVC055 20/12 A3004 RMK AO2 SLP175 T02000117,2025-09-10T01:11:27Z,2025-09-09T21:11:27Z
KAVL,"Asheville Muni, NC, US",2025-09-09T23:54:00Z,2025-09-09T19:54:00Z,VFR,18.3,12.2,VAR,3,0,NA,1022.4,METAR KAVL 092354Z AUTO VRB03KT 10SM SCT038 BKN050 18/12 A3019 RMK AO2 SLP210 T01830122 10239 20183 $,2025-09-10T00:12:39Z,2025-09-09T20:12:39Z
KAVL,"Asheville Muni, NC, US",2025-09-10T00:54:00Z,2025-09-09T20:54:00Z,NA,17.2,12.2,0,0,0,NA,1022.8,METAR KAVL 100054Z AUTO 00000KT 10SM 17/12 A3020 RMK AO2 SLP213 T01720122 $,2025-09-10T01:11:27Z,2025-09-09T21:11:27Z
KAVP,"Wilkes-Barre Scranton Intl, PA, US",2025-09-09T23:54:00Z,2025-09-09T19:54:00Z,VFR,17.2,7.2,120,5,0,NA,1024.8,METAR KAVP 092354Z 12005KT 10SM CLR 17/07 A3026 RMK AO2 SLP247 T01720072 10228 20172 53002,2025-09-10T00:12:39Z,2025-09-09T20:12:39Z
KAVP,"Wilkes-Barre Scranton Intl, PA, US",2025-09-10T00:54:00Z,2025-09-09T20:54:00Z,VFR,15.6,5.6,120,5,0,NA,1025.5,METAR KAVP 100054Z 12005KT 10SM CLR 16/06 A3028 RMK AO2 SLP251 T01560056,2025-09-10T01:11:27Z,2025-09-09T21:11:27Z
KAWO,"Arlington Muni, WA, US",2025-09-09T23:56:00Z,2025-09-09T19:56:00Z,VFR,22.2,15.6,310,6,0,NA,1012.6,METAR KAWO 092356Z AUTO 31006KT 10SM OVC036 22/16 A2990 RMK AO2 SLP131 T02220156 10233 20189 56011,2025-09-10T00:12:38Z,2025-09-09T20:12:38Z
KAWO,"Arlington Muni, WA, US",2025-09-10T00:56:00Z,2025-09-09T20:56:00Z,VFR,21.1,15,300,9,0,NA,1012.6,METAR KAWO 100056Z AUTO 30009KT 10SM CLR 21/15 A2990 RMK AO2 SLP129 T02110150,2025-09-10T01:11:27Z,2025-09-09T21:11:27Z
KAXN,"Alexandria/Chandler Fld, MN, US",2025-09-09T23:53:00Z,2025-09-09T19:53:00Z,VFR,20.6,17.2,130,6,0,NA,1016,METAR KAXN 092353Z AUTO 13006KT 10SM SCT022 SCT033 21/17 A3000 RMK AO2 SLP157 T02060172 10233 20178 51009,2025-09-10T00:12:39Z,2025-09-09T20:12:39Z
KAXN,"Alexandria/Chandler Fld, MN, US",2025-09-10T00:53:00Z,2025-09-09T20:53:00Z,VFR,18.3,16.7,130,3,0,NA,1016.3,METAR KAXN 100053Z AUTO 13003KT 10SM CLR 18/17 A3001 RMK AO2 SLP162 T01830167,2025-09-10T01:11:27Z,2025-09-09T21:11:27Z
KAZO,"Kalamazoo Intl, MI, US",2025-09-09T23:53:00Z,2025-09-09T19:53:00Z,VFR,19.4,8.3,0,0,0,NA,1020.7,METAR KAZO 092353Z 00000KT 10SM CLR 19/08 A3014 RMK AO2 SLP209 T01940083 10233 20194 55001,2025-09-10T00:12:39Z,2025-09-09T20:12:39Z
KAZO,"Kalamazoo Intl, MI, US",2025-09-10T00:53:00Z,2025-09-09T20:53:00Z,VFR,15.6,10.6,100,3,0,NA,1021.1,METAR KAZO 100053Z 10003KT 10SM CLR 16/11 A3015 RMK AO2 RAB08E17 SLP210 P0000 T01560106,2025-09-10T01:11:27Z,2025-09-09T21:11:27Z
KBAB,"Beale AFB, CA, US",2025-09-09T23:55:00Z,2025-09-09T19:55:00Z,VFR,26,12.8,190,8,0,NA,1009.9,METAR KBAB 092355Z AUTO 19008KT 10SM SCT200 26/13 A2982 RMK AO2 SLP100 T02600128 10284 20244 57019 $,2025-09-10T00:12:38Z,2025-09-09T20:12:38Z
KBAB,"Beale AFB, CA, US",2025-09-10T00:55:00Z,2025-09-09T20:55:00Z,VFR,24.7,13.6,180,8,0,NA,1009.6,METAR KBAB 100055Z AUTO 18008KT 10SM BKN180 25/14 A2981 RMK AO2 SLP097 T02470136 $,2025-09-10T01:11:27Z,2025-09-09T21:11:27Z
KBAD,"Barksdale AFB, LA, US",2025-09-09T23:55:00Z,2025-09-09T19:55:00Z,VFR,28.2,14.4,20,3,0,NA,1015.3,METAR KBAD 092355Z AUTO 02003KT 10SM CLR 28/14 A2998 RMK AO2 SLP155 T02820144 10312 20281 56008 $,2025-09-10T00:12:38Z,2025-09-09T20:12:38Z
KBAD,"Barksdale AFB, LA, US",2025-09-10T00:55:00Z,2025-09-09T20:55:00Z,VFR,25,15.9,0,0,0,NA,1015.3,METAR KBAD 100055Z AUTO 00000KT 10SM CLR 25/16 A2998 RMK AO2 SLP155 T02500159 $,2025-09-10T01:11:27Z,2025-09-09T21:11:27Z
KBAF,"Westfield/Barnes Muni, MA, US",2025-09-09T23:53:00Z,2025-09-09T19:53:00Z,VFR,18,8,90,8,0,NA,1026.2,METAR KBAF 092353Z 09008KT 10SM CLR 18/08 A3030,2025-09-10T00:12:39Z,2025-09-09T20:12:39Z
KBAF,"Westfield/Barnes Muni, MA, US",2025-09-10T00:53:00Z,2025-09-09T20:53:00Z,VFR,17,8,100,10,0,NA,1026.5,METAR KBAF 100053Z 10010KT 10SM CLR 17/08 A3031,2025-09-10T01:11:27Z,2025-09-09T21:11:27Z
KBAK,"Columbus Muni, IN, US",2025-09-09T22:45:00Z,2025-09-09T18:45:00Z,VFR,23,8,0,0,0,NA,1019.7,METAR KBAK 092245Z 00000KT 10SM CLR 23/08 A3011,2025-09-10T00:12:40Z,2025-09-09T20:12:40Z
KBAK,"Columbus Muni, IN, US",2025-09-10T00:45:00Z,2025-09-09T20:45:00Z,VFR,14,12,0,0,0,NA,1019.7,METAR KBAK 100045Z 00000KT 10SM CLR 14/12 A3011,2025-09-10T01:11:28Z,2025-09-09T21:11:28Z
KBAZ,"New Braunfels Muni, TX, US",2025-09-09T23:51:00Z,2025-09-09T19:51:00Z,VFR,31.1,12.8,70,6,0,NA,1014,METAR KBAZ 092351Z AUTO 07006KT 10SM CLR 31/13 A2994 RMK AO2 SLP132 T03110128 10328 20294 56007,2025-09-10T00:12:40Z,2025-09-09T20:12:40Z
KBAZ,"New Braunfels Muni, TX, US",2025-09-10T00:51:00Z,2025-09-09T20:51:00Z,VFR,27.8,13.9,80,5,0,NA,1014.3,METAR KBAZ 100051Z AUTO 08005KT 10SM CLR 28/14 A2995 RMK AO2 SLP135 T02780139,2025-09-10T01:11:28Z,2025-09-09T21:11:28Z
KBBD,"Brady/Curtis Fld, TX, US",2025-09-09T23:55:00Z,2025-09-09T19:55:00Z,VFR,30,11,160,9,0,NA,1015.7,METAR KBBD 092355Z AUTO 16009KT 10SM CLR 30/11 A2999 RMK AO2,2025-09-10T00:12:38Z,2025-09-09T20:12:38Z
KBBD,"Brady/Curtis Fld, TX, US",2025-09-10T00:15:00Z,2025-09-09T20:15:00Z,VFR,29,12,150,8,0,NA,1015.7,METAR KBBD 100015Z AUTO 15008KT 10SM CLR 29/12 A2999 RMK AO2,2025-09-10T00:33:18Z,2025-09-09T20:33:18Z
KBBD,"Brady/Curtis Fld, TX, US",2025-09-10T00:55:00Z,2025-09-09T20:55:00Z,VFR,27,13,140,5,0,NA,1015.7,METAR KBBD 100055Z AUTO 14005KT 10SM CLR 27/13 A2999 RMK AO2,2025-09-10T01:11:27Z,2025-09-09T21:11:27Z
KBBG,"Branson Arpt, MO, US",2025-09-09T23:45:00Z,2025-09-09T19:45:00Z,VFR,25,7,180,5,0,NA,1017.4,METAR KBBG 092345Z 18005KT 10SM SCT075 25/07 A3004,2025-09-10T00:12:40Z,2025-09-09T20:12:40Z
KBBG,"Branson Arpt, MO, US",2025-09-10T00:45:00Z,2025-09-09T20:45:00Z,VFR,22,9,180,6,0,NA,1017.4,METAR KBBG 100045Z 18006KT 10SM SCT075 22/09 A3004,2025-09-10T01:11:28Z,2025-09-09T21:11:28Z
KBCE,"Bryce Canyon Arpt, UT, US",2025-09-09T23:53:00Z,2025-09-09T19:53:00Z,VFR,23.3,1.7,180,12,22,NA,1020.7,METAR KBCE 092353Z AUTO 18012G22KT 10SM FEW090 23/02 A3014 RMK AO2 PK WND 19027/2317 SLP104 T02330017 10244 20211 56013,2025-09-10T00:12:39Z,2025-09-09T20:12:39Z
KBCE,"Bryce Canyon Arpt, UT, US",2025-09-10T00:53:00Z,2025-09-09T20:53:00Z,VFR,21.7,1.1,200,10,0,NA,1020.7,METAR KBCE 100053Z AUTO 20010KT 10SM CLR 22/01 A3014 RMK AO2 PK WND 21032/0003 SLP107 T02170011,2025-09-10T01:11:27Z,2025-09-09T21:11:27Z
KBCT,"Boca Raton Arpt, FL, US",2025-09-09T22:53:00Z,2025-09-09T18:53:00Z,VFR,27,26,220,4,0,NA,1013.6,METAR KBCT 092253Z 22004KT 10SM VCTS BKN085 27/26 A2993 RMK LTG DSNT ALQDS,2025-09-10T00:12:40Z,2025-09-09T20:12:40Z
KBCT,"Boca Raton Arpt, FL, US",2025-09-10T00:53:00Z,2025-09-09T20:53:00Z,VFR,27,25,200,5,0,NA,1014,METAR KBCT 100053Z 20005KT 10SM VCTS CLR 27/25 A2994 RMK LTG DSNT S SW,2025-09-10T01:11:27Z,2025-09-09T21:11:27Z
KBDE,"Baudette Intl, MN, US",2025-09-09T23:53:00Z,2025-09-09T19:53:00Z,VFR,20,9.4,350,3,0,NA,1016,METAR KBDE 092353Z AUTO 35003KT 10SM CLR 20/09 A3000 RMK AO2 SLP162 T02000094 10239 20200 51005,2025-09-10T00:12:39Z,2025-09-09T20:12:39Z
KBDE,"Baudette Intl, MN, US",2025-09-10T00:53:00Z,2025-09-09T20:53:00Z,VFR,15.6,12.2,0,0,0,NA,1016.3,METAR KBDE 100053Z AUTO 00000KT 10SM CLR 16/12 A3001 RMK AO2 SLP167 T01560122,2025-09-10T01:11:27Z,2025-09-09T21:11:27Z
KBDL,"Hartford/Bradley Intl, CT, US",2025-09-09T14:51:00Z,2025-09-09T10:51:00Z,VFR,18.3,11.1,30,6,0,NA,1028.5,METAR KBDL 091451Z 03006KT 10SM FEW030 FEW250 18/11 A3037 RMK AO2 SLP285 T01830111 50000,2025-09-09T15:51:27Z,2025-09-09T11:51:27Z
KBDL,"Hartford/Bradley Intl, CT, US",2025-09-09T15:51:00Z,2025-09-09T11:51:00Z,VFR,20.6,10.6,0,0,0,NA,1028.5,METAR KBDL 091551Z 00000KT 10SM FEW037 FEW250 21/11 A3037 RMK AO2 SLP284 T02060106,2025-09-09T16:06:00Z,2025-09-09T12:06:00Z
KBDL,"Hartford/Bradley Intl, CT, US",2025-09-09T16:51:00Z,2025-09-09T12:51:00Z,VFR,21.7,7.8,120,7,0,NA,1027.9,METAR KBDL 091651Z 12007KT 10SM FEW050 FEW250 22/08 A3035 RMK AO2 SLP277 T02170078 $,2025-09-09T16:54:01Z,2025-09-09T12:54:01Z
KBDL,"Hartford/Bradley Intl, CT, US",2025-09-09T17:51:00Z,2025-09-09T13:51:00Z,VFR,22.8,7.8,100,4,0,NA,1027.2,METAR KBDL 091751Z 10004KT 10SM FEW050 FEW250 23/08 A3033 RMK AO2 SLP270 T02280078 10228 20106 58015,2025-09-09T18:09:19Z,2025-09-09T14:09:19Z
KBDL,"Hartford/Bradley Intl, CT, US",2025-09-09T18:51:00Z,2025-09-09T14:51:00Z,VFR,23.3,7.8,80,7,0,NA,1026.8,METAR KBDL 091851Z 08007KT 10SM FEW055 FEW250 23/08 A3032 RMK AO2 SLP267 T02330078,2025-09-09T19:00:54Z,2025-09-09T15:00:54Z
KBDL,"Hartford/Bradley Intl, CT, US",2025-09-09T19:51:00Z,2025-09-09T15:51:00Z,VFR,22.8,8.3,90,7,0,NA,1026.5,METAR KBDL 091951Z 09007KT 10SM SCT055 SCT200 SCT250 23/08 A3031 RMK AO2 SLP265 T02280083,2025-09-09T20:10:13Z,2025-09-09T16:10:13Z
KBDL,"Hartford/Bradley Intl, CT, US",2025-09-09T20:51:00Z,2025-09-09T16:51:00Z,VFR,22.8,9.4,140,4,0,NA,1026.2,METAR KBDL 092051Z 14004KT 10SM OVC055 23/09 A3030 RMK AO2 SLP262 T02280094 57008,2025-09-09T20:53:58Z,2025-09-09T16:53:58Z
KBDL,"Hartford/Bradley Intl, CT, US",2025-09-09T20:51:00Z,2025-09-09T16:51:00Z,VFR,22.8,9.4,140,4,0,NA,1026.2,METAR KBDL 092051Z COR 14004KT 10SM BKN055 BKN200 23/09 A3030 RMK AO2 SLP262 T02280094 57008,2025-09-09T21:12:40Z,2025-09-09T17:12:40Z
KBDL,"Hartford/Bradley Intl, CT, US",2025-09-09T21:51:00Z,2025-09-09T17:51:00Z,VFR,22.2,10,80,8,0,NA,1026.2,METAR KBDL 092151Z 08008KT 10SM SCT050 SCT180 BKN200 22/10 A3030 RMK AO2 SLP260 T02220100,2025-09-09T22:00:06Z,2025-09-09T18:00:06Z
KBDL,"Hartford/Bradley Intl, CT, US",2025-09-09T22:51:00Z,2025-09-09T18:51:00Z,VFR,20.6,10,110,6,0,NA,1026.2,METAR KBDL 092251Z 11006KT 10SM FEW055 BKN200 BKN250 21/10 A3030 RMK AO2 SLP260 T02060100,2025-09-09T22:58:30Z,2025-09-09T18:58:30Z
KBDL,"Hartford/Bradley Intl, CT, US",2025-09-09T23:51:00Z,2025-09-09T19:51:00Z,VFR,18.9,10,80,6,0,NA,1026.2,METAR KBDL 092351Z 08006KT 10SM FEW055 SCT200 SCT250 19/10 A3030 RMK AO2 SLP259 T01890100 10233 20189 56002,2025-09-10T00:12:40Z,2025-09-09T20:12:40Z
KBDL,"Hartford/Bradley Intl, CT, US",2025-09-10T00:51:00Z,2025-09-09T20:51:00Z,VFR,17.2,9.4,80,6,0,NA,1026.5,METAR KBDL 100051Z 08006KT 10SM SCT200 SCT250 17/09 A3031 RMK AO2 SLP263 T01720094,2025-09-10T01:11:28Z,2025-09-09T21:11:28Z
KBDR,"Bridgeport/Sikorsky Mem, CT, US",2025-09-09T23:52:00Z,2025-09-09T19:52:00Z,VFR,19.4,13.3,90,12,0,NA,1025.5,METAR KBDR 092352Z 09012KT 10SM CLR 19/13 A3028 RMK AO2 SLP252 T01940133 10222 20194 58006 $,2025-09-10T00:12:39Z,2025-09-09T20:12:39Z
KBDR,"Bridgeport/Sikorsky Mem, CT, US",2025-09-10T00:52:00Z,2025-09-09T20:52:00Z,VFR,19.4,13.9,90,13,0,NA,1025.5,METAR KBDR 100052Z 09013KT 10SM SCT060 19/14 A3028 RMK AO2 SLP255 T01940139 $,2025-09-10T01:11:28Z,2025-09-09T21:11:28Z
KBED,"Bedford/Hanscom Fld, MA, US",2025-09-09T14:51:00Z,2025-09-09T10:51:00Z,VFR,19.4,10.6,110,4,0,NA,1028.9,METAR KBED 091451Z COR 11004KT 10SM SCT030 19/11 A3038 RMK AO2 SLP299 T01940106 58001,2025-09-09T15:51:27Z,2025-09-09T11:51:27Z
KBED,"Bedford/Hanscom Fld, MA, US",2025-09-09T15:51:00Z,2025-09-09T11:51:00Z,VFR,21.7,7.8,130,11,17,NA,1028.5,METAR KBED 091551Z 13011G17KT 10SM SCT040 22/08 A3037 RMK AO2 SLP298 T02170078 $,2025-09-09T16:06:00Z,2025-09-09T12:06:00Z
KBED,"Bedford/Hanscom Fld, MA, US",2025-09-09T16:51:00Z,2025-09-09T12:51:00Z,VFR,22.2,8.3,110,8,0,NA,1028.2,METAR KBED 091651Z 11008KT 090V170 10SM CLR 22/08 A3036 RMK AO2 SLP293 T02220083 $,2025-09-09T16:54:01Z,2025-09-09T12:54:01Z
KBED,"Bedford/Hanscom Fld, MA, US",2025-09-09T17:51:00Z,2025-09-09T13:51:00Z,VFR,21.7,8.3,120,10,16,NA,1027.5,METAR KBED 091751Z 12010G16KT 10SM CLR 22/08 A3034 RMK AO2 SLP288 T02170083 10222 20100 58011 $,2025-09-09T18:09:19Z,2025-09-09T14:09:19Z
KBED,"Bedford/Hanscom Fld, MA, US",2025-09-09T18:51:00Z,2025-09-09T14:51:00Z,VFR,21.7,7.8,110,10,18,NA,1027.5,METAR KBED 091851Z 11010G18KT 10SM CLR 22/08 A3034 RMK AO2 SLP285 T02170078 $,2025-09-09T19:00:54Z,2025-09-09T15:00:54Z
KBED,"Bedford/Hanscom Fld, MA, US",2025-09-09T19:51:00Z,2025-09-09T15:51:00Z,VFR,21.7,7.2,140,11,0,NA,1027.5,METAR KBED 091951Z 14011KT 10SM CLR 22/07 A3034 RMK AO2 SLP285 T02170072 $,2025-09-09T20:10:13Z,2025-09-09T16:10:13Z
KBED,"Bedford/Hanscom Fld, MA, US",2025-09-09T20:51:00Z,2025-09-09T16:51:00Z,VFR,20.6,7.8,120,9,0,NA,1027.2,METAR KBED 092051Z 12009KT 10SM CLR 21/08 A3033 RMK AO2 SLP283 T02060078 56004 $,2025-09-09T20:53:58Z,2025-09-09T16:53:58Z
KBED,"Bedford/Hanscom Fld, MA, US",2025-09-09T21:51:00Z,2025-09-09T17:51:00Z,VFR,19.4,8.3,110,10,0,NA,1027.2,METAR KBED 092151Z 11010KT 10SM CLR 19/08 A3033 RMK AO2 SLP284 T01940083 $,2025-09-09T22:00:06Z,2025-09-09T18:00:06Z
KBED,"Bedford/Hanscom Fld, MA, US",2025-09-09T22:51:00Z,2025-09-09T18:51:00Z,VFR,17.8,8.3,130,9,0,NA,1027.5,METAR KBED 092251Z 13009KT 10SM CLR 18/08 A3034 RMK AO2 SLP286 T01780083 $,2025-09-09T22:58:30Z,2025-09-09T18:58:30Z
KBED,"Bedford/Hanscom Fld, MA, US",2025-09-09T23:51:00Z,2025-09-09T19:51:00Z,VFR,15.6,10,70,3,0,NA,1027.5,METAR KBED 092351Z 07003KT 10SM CLR 16/10 A3034 RMK AO2 SLP285 T01560100 10222 20156 50002 $,2025-09-10T00:12:40Z,2025-09-09T20:12:40Z
KBED,"Bedford/Hanscom Fld, MA, US",2025-09-10T00:51:00Z,2025-09-09T20:51:00Z,VFR,12.2,10,0,0,0,NA,1027.2,METAR KBED 100051Z 00000KT 10SM CLR 12/10 A3033 RMK AO2 SLP284 T01220100 $,2025-09-10T01:11:28Z,2025-09-09T21:11:28Z
KBFD,"Bradford Rgnl, PA, US",2025-09-09T23:53:00Z,2025-09-09T19:53:00Z,VFR,13.3,7.8,0,0,0,NA,1024.1,METAR KBFD 092353Z AUTO 00000KT 10SM CLR 13/08 A3024 RMK AO2 SLP244 T01330078 10211 20133 56005,2025-09-10T00:12:39Z,2025-09-09T20:12:39Z
KBFD,"Bradford Rgnl, PA, US",2025-09-10T00:53:00Z,2025-09-09T20:53:00Z,VFR,11.1,7.2,0,0,0,NA,1024.5,METAR KBFD 100053Z AUTO 00000KT 10SM CLR 11/07 A3025 RMK AO2 SLP246 T01110072,2025-09-10T01:11:27Z,2025-09-09T21:11:27Z
KBFF,"Scottsbluff/Western Nebraska Rgnl, NE, US",2025-09-09T23:53:00Z,2025-09-09T19:53:00Z,VFR,24.4,11.7,130,8,0,NA,1015.3,METAR KBFF 092353Z AUTO 13008KT 10SM -RA CLR 24/12 A2998 RMK AO2 RAB16 SLP119 P0000 60015 T02440117 10311 20183 51003,2025-09-10T00:12:39Z,2025-09-09T20:12:39Z
KBFF,"Scottsbluff/Western Nebraska Rgnl, NE, US",2025-09-10T00:53:00Z,2025-09-09T20:53:00Z,VFR,21.1,11.7,120,10,0,NA,1015.7,METAR KBFF 100053Z AUTO 12010KT 10SM CLR 21/12 A2999 RMK AO2 RAE19B40E48 SLP127 P0000 T02110117,2025-09-10T01:11:29Z,2025-09-09T21:11:29Z
KBFI,"Seattle/Boeing Fld, WA, US",2025-09-09T14:53:00Z,2025-09-09T10:53:00Z,VFR,16.1,12.8,300,3,0,NA,1014.3,METAR KBFI 091453Z 30003KT 10SM BKN046 16/13 A2995 RMK AO2 SLP141 T01610128 50003,2025-09-09T15:51:30Z,2025-09-09T11:51:30Z
KBFI,"Seattle/Boeing Fld, WA, US",2025-09-09T15:53:00Z,2025-09-09T11:53:00Z,VFR,17.2,13.3,VAR,4,0,NA,1014.3,METAR KBFI 091553Z VRB04KT 10SM OVC045 17/13 A2995 RMK AO2 SLP142 T01720133,2025-09-09T16:06:03Z,2025-09-09T12:06:03Z
KBFI,"Seattle/Boeing Fld, WA, US",2025-09-09T16:53:00Z,2025-09-09T12:53:00Z,VFR,17.2,13.9,VAR,3,0,NA,1014.6,METAR KBFI 091653Z VRB03KT 10SM SCT015 OVC043 17/14 A2996 RMK AO2 SLP146 T01720139,2025-09-09T17:12:54Z,2025-09-09T13:12:54Z
KBFI,"Seattle/Boeing Fld, WA, US",2025-09-09T17:53:00Z,2025-09-09T13:53:00Z,VFR,17.8,13.9,60,4,0,NA,1014.6,METAR KBFI 091753Z 06004KT 10SM FEW016 SCT044 18/14 A2996 RMK AO2 SLP144 T01780139 10178 20150 50003,2025-09-09T18:09:21Z,2025-09-09T14:09:21Z
KBFI,"Seattle/Boeing Fld, WA, US",2025-09-09T18:53:00Z,2025-09-09T14:53:00Z,VFR,18.3,13.9,0,0,0,NA,1014.3,METAR KBFI 091853Z 00000KT 10SM FEW016 BKN038 18/14 A2995 RMK AO2 SLP141 T01830139,2025-09-09T19:00:57Z,2025-09-09T15:00:57Z
KBFI,"Seattle/Boeing Fld, WA, US",2025-09-09T19:53:00Z,2025-09-09T15:53:00Z,VFR,18.9,14.4,VAR,3,0,NA,1014,METAR KBFI 091953Z VRB03KT 10SM SCT018 BKN120 19/14 A2994 RMK AO2 SLP139 T01890144,2025-09-09T20:10:18Z,2025-09-09T16:10:18Z
KBFI,"Seattle/Boeing Fld, WA, US",2025-09-09T20:53:00Z,2025-09-09T16:53:00Z,VFR,18.9,14.4,0,0,0,NA,1014,METAR KBFI 092053Z 00000KT 10SM SCT018 BKN110 19/14 A2994 RMK AO2 SLP138 T01890144 56006,2025-09-09T21:12:45Z,2025-09-09T17:12:45Z
KBFI,"Seattle/Boeing Fld, WA, US",2025-09-09T21:53:00Z,2025-09-09T17:53:00Z,VFR,20.6,13.3,300,5,0,NA,1013.3,METAR KBFI 092153Z 30005KT 10SM FEW015 SCT025 21/13 A2992 RMK AO2 SLP132 T02060133,2025-09-09T22:00:10Z,2025-09-09T18:00:10Z
KBFI,"Seattle/Boeing Fld, WA, US",2025-09-09T22:53:00Z,2025-09-09T18:53:00Z,VFR,21.1,13.9,0,0,0,NA,1013,METAR KBFI 092253Z 00000KT 10SM CLR 21/14 A2991 RMK AO2 SLP126 T02110139,2025-09-09T22:58:33Z,2025-09-09T18:58:33Z
KBFI,"Seattle/Boeing Fld, WA, US",2025-09-09T23:53:00Z,2025-09-09T19:53:00Z,VFR,22.2,13.3,VAR,3,0,NA,1012.3,METAR KBFI 092353Z VRB03KT 10SM CLR 22/13 A2989 RMK AO2 SLP123 T02220133 10228 20178 56015,2025-09-10T00:12:39Z,2025-09-09T20:12:39Z
KBFI,"Seattle/Boeing Fld, WA, US",2025-09-10T00:53:00Z,2025-09-09T20:53:00Z,VFR,21.7,13.3,290,5,0,NA,1012.6,METAR KBFI 100053Z AUTO 29005KT 10SM CLR 22/13 A2990 RMK AO2 SLP124 T02170133,2025-09-10T01:11:29Z,2025-09-09T21:11:29Z
KBFL,"Bakersfield/Meadows Arpt, CA, US",2025-09-09T23:54:00Z,2025-09-09T19:54:00Z,VFR,30,12.8,320,13,22,NA,1008.5,METAR KBFL 092354Z 32013G22KT 10SM CLR 30/13 A2978 RMK AO2 SLP078 T03000128 10311 20244 56024,2025-09-10T00:12:39Z,2025-09-09T20:12:39Z
KBFL,"Bakersfield/Meadows Arpt, CA, US",2025-09-10T00:54:00Z,2025-09-09T20:54:00Z,VFR,29.4,13.3,320,11,0,NA,1008.2,METAR KBFL 100054Z 32011KT 10SM CLR 29/13 A2977 RMK AO2 SLP075 T02940133,2025-09-10T01:11:29Z,2025-09-09T21:11:29Z
KBFM,"Mobile/Downtown Arpt, AL, US",2025-09-09T23:53:00Z,2025-09-09T19:53:00Z,VFR,28.9,20,60,9,0,NA,1015.7,METAR KBFM 092353Z 06009KT 10SM FEW030 29/20 A2999 RMK AO2 SLP155 T02890200 10311 20278 55001,2025-09-10T00:12:39Z,2025-09-09T20:12:39Z
KBFM,"Mobile/Downtown Arpt, AL, US",2025-09-10T00:53:00Z,2025-09-09T20:53:00Z,VFR,28.3,20.6,80,8,0,NA,1016.3,METAR KBFM 100053Z 08008KT 10SM CLR 28/21 A3001 RMK AO2 SLP162 T02830206,2025-09-10T01:11:29Z,2025-09-09T21:11:29Z
KBGM,"Binghamton Arpt, NY, US",2025-09-09T23:53:00Z,2025-09-09T19:53:00Z,VFR,16.1,6.7,130,5,0,NA,1025.1,METAR KBGM 092353Z AUTO 13005KT 10SM CLR 16/07 A3027 RMK AO2 SLP252 T01610067 10206 20161 55001,2025-09-10T00:12:39Z,2025-09-09T20:12:39Z
KBGM,"Binghamton Arpt, NY, US",2025-09-10T00:53:00Z,2025-09-09T20:53:00Z,VFR,15.6,6.7,150,4,0,NA,1025.1,METAR KBGM 100053Z AUTO 15004KT 10SM CLR 16/07 A3027 RMK AO2 SLP252 T01560067,2025-09-10T01:11:29Z,2025-09-09T21:11:29Z
KBGR,"Bangor Intl Arpt, ME, US",2025-09-09T23:53:00Z,2025-09-09T19:53:00Z,VFR,15,8.9,190,4,0,NA,1028.5,METAR KBGR 092353Z 19004KT 10SM FEW150 15/09 A3037 RMK AO2 SLP283 T01500089 10217 20150 53007,2025-09-10T00:12:39Z,2025-09-09T20:12:39Z
KBGR,"Bangor Intl Arpt, ME, US",2025-09-10T00:53:00Z,2025-09-09T20:53:00Z,VFR,13.3,8.9,200,3,0,NA,1028.2,METAR KBGR 100053Z 20003KT 10SM CLR 13/09 A3036 RMK AO2 SLP280 T01330089,2025-09-10T01:11:29Z,2025-09-09T21:11:29Z
KBHB,"Bar Harbor/Hancock Cnty, ME, US",2025-09-09T23:56:00Z,2025-09-09T19:56:00Z,VFR,12.2,10,0,0,0,NA,1028.9,METAR KBHB 092356Z AUTO 00000KT 10SM CLR 12/10 A3038 RMK AO2 SLP290 T01220100 10200 20122 53004,2025-09-10T00:12:38Z,2025-09-09T20:12:38Z
KBHB,"Bar Harbor/Hancock Cnty, ME, US",2025-09-10T00:56:00Z,2025-09-09T20:56:00Z,VFR,11.1,10,0,0,0,NA,1028.9,METAR KBHB 100056Z AUTO 00000KT 10SM CLR 11/10 A3038 RMK AO2 SLP289 T01110100,2025-09-10T01:11:29Z,2025-09-09T21:11:29Z
KBHM,"Birmingham Intl, AL, US",2025-09-09T14:53:00Z,2025-09-09T10:53:00Z,VFR,23.3,11.1,110,9,18,NA,1022.1,METAR KBHM 091453Z 11009G18KT 10SM FEW050 23/11 A3018 RMK AO2 SLP213 T02330111 51006,2025-09-09T15:51:29Z,2025-09-09T11:51:29Z
KBHM,"Birmingham Intl, AL, US",2025-09-09T15:53:00Z,2025-09-09T11:53:00Z,VFR,25,11.1,140,9,17,NA,1022.1,METAR KBHM 091553Z 14009G17KT 10SM FEW055 FEW110 25/11 A3018 RMK AO2 SLP213 T02500111,2025-09-09T16:06:02Z,2025-09-09T12:06:02Z
KBHM,"Birmingham Intl, AL, US",2025-09-09T16:53:00Z,2025-09-09T12:53:00Z,VFR,26.7,12.2,100,6,16,NA,1021.8,METAR KBHM 091653Z 10006G16KT 10SM FEW055 FEW110 FEW250 27/12 A3017 RMK AO2 SLP208 T02670122,2025-09-09T17:12:51Z,2025-09-09T13:12:51Z
KBHM,"Birmingham Intl, AL, US",2025-09-09T17:53:00Z,2025-09-09T13:53:00Z,VFR,27.8,12.8,110,7,0,NA,1020.7,METAR KBHM 091753Z 11007KT 10SM FEW250 28/13 A3014 RMK AO2 SLP199 T02780128 10278 20189 58013,2025-09-09T18:09:20Z,2025-09-09T14:09:20Z
KBHM,"Birmingham Intl, AL, US",2025-09-09T18:53:00Z,2025-09-09T14:53:00Z,VFR,28.9,13.9,30,9,0,NA,1020.1,METAR KBHM 091853Z 03009KT 10SM FEW060 29/14 A3012 RMK AO2 SLP192 T02890139,2025-09-09T19:00:56Z,2025-09-09T15:00:56Z
KBHM,"Birmingham Intl, AL, US",2025-09-09T19:53:00Z,2025-09-09T15:53:00Z,VFR,29.4,13.3,VAR,5,0,NA,1019.4,METAR KBHM 091953Z VRB05KT 10SM FEW060 29/13 A3010 RMK AO2 SLP186 T02940133,2025-09-09T20:10:15Z,2025-09-09T16:10:15Z
KBHM,"Birmingham Intl, AL, US",2025-09-09T20:53:00Z,2025-09-09T16:53:00Z,VFR,29.4,13.9,80,4,0,NA,1019,METAR KBHM 092053Z 08004KT 10SM FEW060 29/14 A3009 RMK AO2 SLP180 T02940139 56019,2025-09-09T21:12:42Z,2025-09-09T17:12:42Z
KBHM,"Birmingham Intl, AL, US",2025-09-09T21:53:00Z,2025-09-09T17:53:00Z,VFR,29.4,13.9,VAR,3,0,NA,1018.7,METAR KBHM 092153Z VRB03KT 10SM FEW060 FEW250 29/14 A3008 RMK AO2 SLP179 T02940139,2025-09-09T22:00:08Z,2025-09-09T18:00:08Z
KBHM,"Birmingham Intl, AL, US",2025-09-09T22:53:00Z,2025-09-09T18:53:00Z,VFR,28.3,13.9,90,5,0,NA,1018.7,METAR KBHM 092253Z 09005KT 10SM FEW060 28/14 A3008 RMK AO2 SLP177 T02830139,2025-09-09T22:58:31Z,2025-09-09T18:58:31Z
KBHM,"Birmingham Intl, AL, US",2025-09-09T23:53:00Z,2025-09-09T19:53:00Z,VFR,26.7,13.9,70,4,0,NA,1019,METAR KBHM 092353Z 07004KT 10SM FEW060 27/14 A3009 RMK AO2 SLP181 T02670139 10300 20267 55000,2025-09-10T00:12:39Z,2025-09-09T20:12:39Z
KBHM,"Birmingham Intl, AL, US",2025-09-10T00:53:00Z,2025-09-09T20:53:00Z,VFR,24.4,14.4,70,4,0,NA,1019,METAR KBHM 100053Z 07004KT 10SM FEW100 24/14 A3009 RMK AO2 SLP183 T02440144,2025-09-10T01:11:29Z,2025-09-09T21:11:29Z
KBIF,"Biggs(AAF), TX, US",2025-09-09T23:55:00Z,2025-09-09T19:55:00Z,VFR,35.1,8,150,6,0,NA,1014.6,METAR KBIF 092355Z AUTO 15006KT 10SM CLR 35/08 A2996 RMK AO2 SLP071 T03510080 10361 20321 57012 $,2025-09-10T00:12:38Z,2025-09-09T20:12:38Z
KBIF,"Biggs(AAF), TX, US",2025-09-10T00:55:00Z,2025-09-09T20:55:00Z,VFR,34,9.2,200,6,0,NA,1014.3,METAR KBIF 100055Z AUTO 20006KT 10SM CLR 34/09 A2995 RMK AO2 SLP070 T03400092 $,2025-09-10T01:11:29Z,2025-09-09T21:11:29Z
KBIH,"Bishop Rgnl, CA, US",2025-09-09T23:56:00Z,2025-09-09T19:56:00Z,VFR,30,-3.3,140,13,24,NA,1007.9,METAR KBIH 092356Z AUTO 14013G24KT 10SM CLR 30/M03 A2976 RMK AO2 SLP033 T03001033 10306 20239 56024,2025-09-10T00:12:38Z,2025-09-09T20:12:38Z
KBIH,"Bishop Rgnl, CA, US",2025-09-10T00:56:00Z,2025-09-09T20:56:00Z,VFR,29.4,-3.3,160,12,20,NA,1007.5,METAR KBIH 100056Z AUTO 16012G20KT 10SM CLR 29/M03 A2975 RMK AO2 SLP029 T02941033,2025-09-10T01:11:29Z,2025-09-09T21:11:29Z
KBIL,"Billings/Logan Intl, MT, US",2025-09-09T14:53:00Z,2025-09-09T10:53:00Z,VFR,13.9,6.1,210,6,0,NA,1017,METAR KBIL 091453Z 21006KT 10SM SCT240 14/06 A3003 RMK AO2 SLP147 T01390061 50003,2025-09-09T15:51:30Z,2025-09-09T11:51:30Z
KBIL,"Billings/Logan Intl, MT, US",2025-09-09T15:53:00Z,2025-09-09T11:53:00Z,VFR,17.2,6.7,200,3,0,NA,1017,METAR KBIL 091553Z 20003KT 10SM FEW240 17/07 A3003 RMK AO2 SLP145 T01720067,2025-09-09T16:06:03Z,2025-09-09T12:06:03Z
KBIL,"Billings/Logan Intl, MT, US",2025-09-09T16:53:00Z,2025-09-09T12:53:00Z,VFR,20.6,7.2,0,0,0,NA,1017,METAR KBIL 091653Z 00000KT 10SM FEW240 21/07 A3003 RMK AO2 SLP141 T02060072,2025-09-09T17:12:54Z,2025-09-09T13:12:54Z
KBIL,"Billings/Logan Intl, MT, US",2025-09-09T17:53:00Z,2025-09-09T13:53:00Z,VFR,23.9,7.2,0,0,0,NA,1016.7,METAR KBIL 091753Z 00000KT 10SM FEW100 SCT220 24/07 A3002 RMK AO2 SLP132 T02390072 10239 20122 58005,2025-09-09T18:09:22Z,2025-09-09T14:09:22Z
KBIL,"Billings/Logan Intl, MT, US",2025-09-09T18:53:00Z,2025-09-09T14:53:00Z,VFR,25,7.8,60,8,0,NA,1016,METAR KBIL 091853Z 06008KT 10SM FEW100 BKN220 25/08 A3000 RMK AO2 SLP126 T02500078,2025-09-09T19:00:57Z,2025-09-09T15:00:57Z
KBIL,"Billings/Logan Intl, MT, US",2025-09-09T19:53:00Z,2025-09-09T15:53:00Z,VFR,27.8,6.7,80,7,0,NA,1015.3,METAR KBIL 091953Z 08007KT 10SM FEW100 SCT220 28/07 A2998 RMK AO2 SLP116 T02780067,2025-09-09T20:10:18Z,2025-09-09T16:10:18Z
KBIL,"Billings/Logan Intl, MT, US",2025-09-09T20:53:00Z,2025-09-09T16:53:00Z,VFR,29.4,4.4,100,8,16,NA,1014.3,METAR KBIL 092053Z 10008G16KT 10SM FEW100 SCT230 29/04 A2995 RMK AO2 SLP108 T02940044 58021,2025-09-09T21:12:45Z,2025-09-09T17:12:45Z
KBIL,"Billings/Logan Intl, MT, US",2025-09-09T21:53:00Z,2025-09-09T17:53:00Z,VFR,29.4,4.4,110,10,0,NA,1013.6,METAR KBIL 092153Z 11010KT 10SM FEW110 SCT230 29/04 A2993 RMK AO2 SLP101 T02940044,2025-09-09T22:00:10Z,2025-09-09T18:00:10Z
KBIL,"Billings/Logan Intl, MT, US",2025-09-09T22:53:00Z,2025-09-09T18:53:00Z,VFR,30,3.9,100,10,21,NA,1013,METAR KBIL 092253Z 10010G21KT 10SM FEW110 SCT200 30/04 A2991 RMK AO2 SLP095 T03000039,2025-09-09T22:58:33Z,2025-09-09T18:58:33Z
KBIL,"Billings/Logan Intl, MT, US",2025-09-09T23:53:00Z,2025-09-09T19:53:00Z,VFR,29.4,3.9,100,11,0,NA,1012.6,METAR KBIL 092353Z 10011KT 10SM FEW150 FEW220 29/04 A2990 RMK AO2 SLP093 T02940039 10300 20239 56015,2025-09-10T00:12:39Z,2025-09-09T20:12:39Z
KBIL,"Billings/Logan Intl, MT, US",2025-09-10T00:53:00Z,2025-09-09T20:53:00Z,VFR,27.2,3.3,90,9,0,NA,1012.6,METAR KBIL 100053Z 09009KT 10SM SCT200 27/03 A2990 RMK AO2 SLP098 T02720033,2025-09-10T01:11:29Z,2025-09-09T21:11:29Z
KBIS,"Bismarck Arpt, ND, US",2025-09-09T23:52:00Z,2025-09-09T19:52:00Z,VFR,26.1,10.6,100,10,0,NA,1014.3,METAR KBIS 092352Z AUTO 10010KT 10SM CLR 26/11 A2995 RMK AO2 SLP137 T02610106 10289 20239 55000,2025-09-10T00:12:39Z,2025-09-09T20:12:39Z
KBIS,"Bismarck Arpt, ND, US",2025-09-10T00:52:00Z,2025-09-09T20:52:00Z,VFR,22.8,12.2,90,8,0,NA,1014.3,METAR KBIS 100052Z AUTO 09008KT 10SM CLR 23/12 A2995 RMK AO2 SLP142 T02280122,2025-09-10T01:11:29Z,2025-09-09T21:11:29Z
KBIX,"Biloxi/Keesler AFB, MS, US",2025-09-09T23:55:00Z,2025-09-09T19:55:00Z,VFR,27.8,22,140,6,0,NA,1014.3,METAR KBIX 092355Z AUTO 14006KT 10SM CLR 28/22 A2995 RMK AO2 SLP145 T02780220 10305 20277 55001,2025-09-10T00:12:38Z,2025-09-09T20:12:38Z
KBJC,"Rocky Mtn Metro, CO, US",2025-09-09T23:54:00Z,2025-09-09T19:54:00Z,VFR,23,4,310,13,23,NA,1020.1,METAR KBJC 092354Z 31013G23KT 10SM -RA BKN090 BKN180 23/04 A3012,2025-09-10T00:12:39Z,2025-09-09T20:12:39Z
KBJC,"Rocky Mtn Metro, CO, US",2025-09-10T00:59:00Z,2025-09-09T20:59:00Z,VFR,22,4,240,4,0,NA,1019.4,METAR KBJC 100059Z 24004KT 10SM BKN120 22/04 A3010,2025-09-10T01:11:29Z,2025-09-09T21:11:29Z
KBJI,"Bemidji Municip, MN, US",2025-09-09T23:55:00Z,2025-09-09T19:55:00Z,VFR,20.7,11.5,100,3,0,NA,1016.3,METAR KBJI 092355Z AUTO 10003KT 10SM CLR 21/12 A3001 RMK AO2 T02070115 10234 20207,2025-09-10T00:12:38Z,2025-09-09T20:12:38Z
KBJI,"Bemidji Municip, MN, US",2025-09-10T00:15:00Z,2025-09-09T20:15:00Z,VFR,19.4,10.8,90,3,0,NA,1016.7,METAR KBJI 100015Z AUTO 09003KT 10SM CLR 19/11 A3002 RMK AO2 T01940108,2025-09-10T00:33:18Z,2025-09-09T20:33:18Z
KBJI,"Bemidji Municip, MN, US",2025-09-10T00:55:00Z,2025-09-09T20:55:00Z,VFR,16.8,12,40,4,0,NA,1017,METAR KBJI 100055Z AUTO 04004KT 10SM CLR 17/12 A3003 RMK AO2 T01680120,2025-09-10T01:11:29Z,2025-09-09T21:11:29Z
KBKE,"Baker Muni, OR, US",2025-09-09T23:53:00Z,2025-09-09T19:53:00Z,VFR,26.7,6.7,VAR,3,0,NA,1009.6,METAR KBKE 092353Z AUTO VRB03KT 10SM CLR 27/07 A2981 RMK AO2 SLP071 T02670067 10267 20189 56021,2025-09-10T00:12:39Z,2025-09-09T20:12:39Z
KBKE,"Baker Muni, OR, US",2025-09-10T00:53:00Z,2025-09-09T20:53:00Z,VFR,20.6,11.1,320,11,0,NA,1009.9,METAR KBKE 100053Z AUTO 32011KT 10SM CLR 21/11 A2982 RMK AO2 SLP083 T02060111,2025-09-10T01:11:29Z,2025-09-09T21:11:29Z
KBKF,"Buckley SFB, CO, US",2025-09-09T23:58:00Z,2025-09-09T19:58:00Z,VFR,24.8,4.5,140,6,0,NA,1018.4,METAR KBKF 092358Z 14006KT 10SM FEW080 BKN140 BKN200 25/05 A3007 RMK AO2A SLP109 60000 T02480045 10299 20236 50004,2025-09-10T00:12:38Z,2025-09-09T20:12:38Z
KBKF,"Buckley SFB, CO, US",2025-09-10T00:58:00Z,2025-09-09T20:58:00Z,VFR,23.2,4.2,0,0,0,NA,1018.7,METAR KBKF 100058Z 00000KT 10SM SCT100 BKN150 BKN200 23/04 A3008 RMK AO2A SLP117 T02320042,2025-09-10T01:11:29Z,2025-09-09T21:11:29Z
KBKL,"Cleveland/Burke Lakefront Arpt, OH, US",2025-09-09T23:53:00Z,2025-09-09T19:53:00Z,VFR,20,15.6,40,8,0,NA,1021.1,METAR KBKL 092353Z 04008KT 10SM CLR 20/16 A3015 RMK AO2 SLP210 T02000156 10244 20200 57004,2025-09-10T00:12:39Z,2025-09-09T20:12:39Z
KBKL,"Cleveland/Burke Lakefront Arpt, OH, US",2025-09-10T00:53:00Z,2025-09-09T20:53:00Z,VFR,19.4,13.9,100,3,0,NA,1021.1,METAR KBKL 100053Z 10003KT 10SM CLR 19/14 A3015 RMK AO2 SLP209 T01940139,2025-09-10T01:11:29Z,2025-09-09T21:11:29Z
KBKW,"Beckley/Raleigh Cnty, WV, US",2025-09-09T23:51:00Z,2025-09-09T19:51:00Z,VFR,16.1,5.6,150,4,0,NA,1023.1,METAR KBKW 092351Z AUTO 15004KT 10SM CLR 16/06 A3021 RMK AO2 SLP223 T01610056 10217 20161 55001,2025-09-10T00:12:40Z,2025-09-09T20:12:40Z
KBKW,"Beckley/Raleigh Cnty, WV, US",2025-09-10T00:51:00Z,2025-09-09T20:51:00Z,VFR,15,6.1,140,6,0,NA,1023.5,METAR KBKW 100051Z AUTO 14006KT 10SM CLR 15/06 A3022 RMK AO2 SLP221 T01500061,2025-09-10T01:11:29Z,2025-09-09T21:11:29Z
KBLF,"Bluefield/Mercer Cnty, WV, US",2025-09-09T23:52:00Z,2025-09-09T19:52:00Z,VFR,15,5.6,100,3,0,NA,1023.8,METAR KBLF 092352Z AUTO 10003KT 10SM CLR 15/06 A3023 RMK AO2 SLP223 T01500056 10189 20144 55002,2025-09-10T00:12:39Z,2025-09-09T20:12:39Z
KBLF,"Bluefield/Mercer Cnty, WV, US",2025-09-10T00:52:00Z,2025-09-09T20:52:00Z,VFR,14.4,6.1,90,3,0,NA,1023.8,METAR KBLF 100052Z AUTO 09003KT 10SM CLR 14/06 A3023 RMK AO2 SLP223 T01440061,2025-09-10T01:11:29Z,2025-09-09T21:11:29Z
KBLH,"Blythe Arpt, CA, US",2025-09-09T23:52:00Z,2025-09-09T19:52:00Z,VFR,39.4,-10,220,15,0,NA,1004.8,METAR KBLH 092352Z AUTO 22015KT 10SM CLR 39/M10 A2967 RMK AO2 SLP038 T03941100 10406 20350 56018,2025-09-10T00:12:40Z,2025-09-09T20:12:40Z
KBLH,"Blythe Arpt, CA, US",2025-09-10T00:52:00Z,2025-09-09T20:52:00Z,VFR,38.3,-8.3,230,14,0,NA,1004.5,METAR KBLH 100052Z AUTO 23014KT 10SM CLR 38/M08 A2966 RMK AO2 SLP036 T03831083,2025-09-10T01:11:29Z,2025-09-09T21:11:29Z
KBLI,"Bellingham Intl, WA, US",2025-09-09T23:53:00Z,2025-09-09T19:53:00Z,VFR,21.1,14.4,250,5,0,NA,1012.3,METAR KBLI 092353Z AUTO 25005KT 10SM CLR 21/14 A2989 RMK AO2 SLP127 T02110144 10222 20178 56013,2025-09-10T00:12:39Z,2025-09-09T20:12:39Z
KBLI,"Bellingham Intl, WA, US",2025-09-10T00:53:00Z,2025-09-09T20:53:00Z,VFR,21.1,14.4,220,3,0,NA,1012.3,METAR KBLI 100053Z AUTO 22003KT 10SM CLR 21/14 A2989 RMK AO2 SLP127 T02110144,2025-09-10T01:11:29Z,2025-09-09T21:11:29Z
KBLV,"Belleville/Scott AFB, IL, US",2025-09-09T23:55:00Z,2025-09-09T19:55:00Z,VFR,23.9,12.5,0,0,0,NA,1016.7,METAR KBLV 092355Z AUTO 00000KT 10SM CLR 24/13 A3002 RMK AO2 SLP167 T02390125 10283 20239 55009 $,2025-09-10T00:12:38Z,2025-09-09T20:12:38Z
KBLV,"Belleville/Scott AFB, IL, US",2025-09-10T00:55:00Z,2025-09-09T20:55:00Z,VFR,21.3,12.7,0,0,0,NA,1016.7,METAR KBLV 100055Z AUTO 00000KT 10SM BKN140 21/13 A3002 RMK AO2 SLP167 T02130127 $,2025-09-10T01:11:29Z,2025-09-09T21:11:29Z
KBMG,"Bloomington/Monroe Cnty, IN, US",2025-09-09T23:53:00Z,2025-09-09T19:53:00Z,VFR,17.8,12.8,0,0,0,NA,1019.7,METAR KBMG 092353Z 00000KT 10SM CLR 18/13 A3011 RMK AO2 SLP194 T01780128 10256 20172 56004,2025-09-10T00:12:39Z,2025-09-09T20:12:39Z
KBMG,"Bloomington/Monroe Cnty, IN, US",2025-09-10T00:53:00Z,2025-09-09T20:53:00Z,VFR,15,11.7,0,0,0,NA,1019.4,METAR KBMG 100053Z 00000KT 10SM CLR 15/12 A3010 RMK AO2 SLP191 T01500117,2025-09-10T01:11:29Z,2025-09-09T21:11:29Z
KBMI,"Bloomington Rgnl, IL, US",2025-09-09T23:56:00Z,2025-09-09T19:56:00Z,VFR,21.7,10,0,0,0,NA,1019,METAR KBMI 092356Z 00000KT 10SM CLR 22/10 A3009 RMK AO2 SLP188 60000 T02170100 10250 20217 56006,2025-09-10T00:12:38Z,2025-09-09T20:12:38Z
KBMI,"Bloomington Rgnl, IL, US",2025-09-10T00:56:00Z,2025-09-09T20:56:00Z,VFR,18.3,11.7,70,4,0,NA,1019,METAR KBMI 100056Z 07004KT 10SM CLR 18/12 A3009 RMK AO2 SLP185 T01830117,2025-09-10T01:11:29Z,2025-09-09T21:11:29Z
KBNA,"Nashville Intl, TN, US",2025-09-09T14:53:00Z,2025-09-09T10:53:00Z,VFR,21.1,12.8,190,6,0,NA,1022.4,METAR KBNA 091453Z 19006KT 10SM SCT060 BKN070 BKN250 21/13 A3019 RMK AO2 SLP218 T02110128 52005 $,2025-09-09T15:51:29Z,2025-09-09T11:51:29Z
KBNA,"Nashville Intl, TN, US",2025-09-09T15:53:00Z,2025-09-09T11:53:00Z,VFR,25,12.8,170,8,0,NA,1022.1,METAR KBNA 091553Z 17008KT 10SM SCT070 SCT250 25/13 A3018 RMK AO2 SLP215 T02500128 $,2025-09-09T16:06:02Z,2025-09-09T12:06:02Z
KBNA,"Nashville Intl, TN, US",2025-09-09T16:53:00Z,2025-09-09T12:53:00Z,VFR,26.7,13.9,VAR,6,0,NA,1021.8,METAR KBNA 091653Z VRB06KT 10SM FEW040 SCT070 SCT250 27/14 A3017 RMK AO2 SLP210 T02670139 $,2025-09-09T17:12:51Z,2025-09-09T13:12:51Z
KBNA,"Nashville Intl, TN, US",2025-09-09T17:53:00Z,2025-09-09T13:53:00Z,VFR,27.2,12.2,350,3,0,NA,1021.1,METAR KBNA 091753Z 35003KT 10SM SCT055 27/12 A3015 RMK AO2 SLP203 T02720122 10278 20139 58014 $,2025-09-09T18:09:20Z,2025-09-09T14:09:20Z
KBNA,"Nashville Intl, TN, US",2025-09-09T18:53:00Z,2025-09-09T14:53:00Z,VFR,26.7,11.7,60,5,0,NA,1020.4,METAR KBNA 091853Z 06005KT 10SM FEW055 SCT065 27/12 A3013 RMK AO2 SLP196 T02670117 $,2025-09-09T19:00:56Z,2025-09-09T15:00:56Z
KBNA,"Nashville Intl, TN, US",2025-09-09T19:53:00Z,2025-09-09T15:53:00Z,VFR,27.2,11.1,90,4,0,NA,1019.7,METAR KBNA 091953Z 09004KT 10SM SCT065 27/11 A3011 RMK AO2 SLP192 T02720111 $,2025-09-09T20:10:15Z,2025-09-09T16:10:15Z
KBNA,"Nashville Intl, TN, US",2025-09-09T20:53:00Z,2025-09-09T16:53:00Z,VFR,28.9,11.7,250,4,0,NA,1019.4,METAR KBNA 092053Z 25004KT 10SM SCT070 29/12 A3010 RMK AO2 SLP188 T02890117 56015 $,2025-09-09T21:12:42Z,2025-09-09T17:12:42Z
KBNA,"Nashville Intl, TN, US",2025-09-09T21:53:00Z,2025-09-09T17:53:00Z,VFR,28.3,11.1,100,5,0,NA,1019.4,METAR KBNA 092153Z 10005KT 10SM SCT070 28/11 A3010 RMK AO2 SLP186 T02830111 $,2025-09-09T22:00:08Z,2025-09-09T18:00:08Z
KBNA,"Nashville Intl, TN, US",2025-09-09T22:53:00Z,2025-09-09T18:53:00Z,VFR,27.2,11.1,100,5,0,NA,1018.7,METAR KBNA 092253Z 10005KT 10SM FEW075 27/11 A3008 RMK AO2 SLP183 T02720111 $,2025-09-09T22:58:31Z,2025-09-09T18:58:31Z
KBNA,"Nashville Intl, TN, US",2025-09-09T23:53:00Z,2025-09-09T19:53:00Z,VFR,25.6,11.1,120,5,0,NA,1018.7,METAR KBNA 092353Z 12005KT 10SM FEW075 26/11 A3008 RMK AO2 SLP181 T02560111 10294 20256 56007 $,2025-09-10T00:12:39Z,2025-09-09T20:12:39Z
KBNA,"Nashville Intl, TN, US",2025-09-10T00:53:00Z,2025-09-09T20:53:00Z,VFR,23.9,12.2,120,6,0,NA,1018.7,METAR KBNA 100053Z 12006KT 10SM CLR 24/12 A3008 RMK AO2 SLP181 T02390122 $,2025-09-10T01:11:29Z,2025-09-09T21:11:29Z
KBNO,"Burns Muni, OR, US",2025-09-09T23:53:00Z,2025-09-09T19:53:00Z,VFR,23.9,2.2,VAR,6,0,NA,1011.9,METAR KBNO 092353Z AUTO VRB06KT 10SM CLR 24/02 A2988 RMK AO2 SLP085 T02390022 10250 20206 56017,2025-09-10T00:12:39Z,2025-09-09T20:12:39Z
KBNO,"Burns Muni, OR, US",2025-09-10T00:53:00Z,2025-09-09T20:53:00Z,VFR,23.3,1.7,190,4,0,NA,1011.6,METAR KBNO 100053Z AUTO 19004KT 10SM CLR 23/02 A2987 RMK AO2 SLP082 T02330017,2025-09-10T01:11:29Z,2025-09-09T21:11:29Z
KBOI,"Boise Arpt, ID, US",2025-09-09T14:53:00Z,2025-09-09T10:53:00Z,VFR,17.8,3.9,0,0,0,NA,1012.6,METAR KBOI 091453Z AUTO 00000KT 10SM CLR 18/04 A2990 RMK AO2 SLP100 T01780039 51019,2025-09-09T15:51:30Z,2025-09-09T11:51:30Z
KBOI,"Boise Arpt, ID, US",2025-09-09T15:53:00Z,2025-09-09T11:53:00Z,VFR,19.4,6.7,50,4,0,NA,1012.6,METAR KBOI 091553Z 05004KT 10SM CLR 19/07 A2990 RMK AO2 SLP101 T01940067,2025-09-09T16:06:03Z,2025-09-09T12:06:03Z
KBOI,"Boise Arpt, ID, US",2025-09-09T16:53:00Z,2025-09-09T12:53:00Z,VFR,22.8,4.4,330,9,0,NA,1012.6,METAR KBOI 091653Z 33009KT 10SM CLR 23/04 A2990 RMK AO2 SLP100 T02280044,2025-09-09T17:12:54Z,2025-09-09T13:12:54Z
KBOI,"Boise Arpt, ID, US",2025-09-09T17:53:00Z,2025-09-09T13:53:00Z,VFR,23.3,5,300,7,0,NA,1012.6,METAR KBOI 091753Z 30007KT 10SM CLR 23/05 A2990 RMK AO2 SLP098 T02330050 10239 20156 50000,2025-09-09T18:09:21Z,2025-09-09T14:09:21Z
KBOI,"Boise Arpt, ID, US",2025-09-09T18:53:00Z,2025-09-09T14:53:00Z,VFR,24.4,5.6,310,7,0,NA,1011.9,METAR KBOI 091853Z 31007KT 270V350 10SM CLR 24/06 A2988 RMK AO2 SLP092 T02440056,2025-09-09T19:00:57Z,2025-09-09T15:00:57Z
KBOI,"Boise Arpt, ID, US",2025-09-09T19:53:00Z,2025-09-09T15:53:00Z,VFR,25,5.6,320,7,0,NA,1011.3,METAR KBOI 091953Z 32007KT 10SM CLR 25/06 A2986 RMK AO2 SLP087 T02500056,2025-09-09T20:10:18Z,2025-09-09T16:10:18Z
KBOI,"Boise Arpt, ID, US",2025-09-09T20:53:00Z,2025-09-09T16:53:00Z,VFR,26.7,6.1,310,8,0,NA,1010.9,METAR KBOI 092053Z 31008KT 10SM CLR 27/06 A2985 RMK AO2 SLP079 T02670061 58016,2025-09-09T21:12:45Z,2025-09-09T17:12:45Z
KBOI,"Boise Arpt, ID, US",2025-09-09T21:53:00Z,2025-09-09T17:53:00Z,VFR,26.7,5.6,320,7,0,NA,1010.2,METAR KBOI 092153Z 32007KT 10SM CLR 27/06 A2983 RMK AO2 SLP074 T02670056,2025-09-09T22:00:10Z,2025-09-09T18:00:10Z
KBOI,"Boise Arpt, ID, US",2025-09-09T22:53:00Z,2025-09-09T18:53:00Z,VFR,27.2,5,320,8,0,NA,1009.9,METAR KBOI 092253Z 32008KT 10SM CLR 27/05 A2982 RMK AO2 SLP068 T02720050,2025-09-09T22:58:33Z,2025-09-09T18:58:33Z
KBOI,"Boise Arpt, ID, US",2025-09-09T23:53:00Z,2025-09-09T19:53:00Z,VFR,27.2,5,350,4,0,NA,1009.6,METAR KBOI 092353Z 35004KT 10SM CLR 27/05 A2981 RMK AO2 SLP065 T02720050 10278 20228 56013,2025-09-10T00:12:39Z,2025-09-09T20:12:39Z
KBOI,"Boise Arpt, ID, US",2025-09-10T00:53:00Z,2025-09-09T20:53:00Z,VFR,26.1,5,10,5,0,NA,1009.2,METAR KBOI 100053Z 01005KT 10SM CLR 26/05 A2980 RMK AO2 SLP064 T02610050,2025-09-10T01:11:29Z,2025-09-09T21:11:29Z
KBOS,"Boston/Logan Intl, MA, US",2025-09-09T14:54:00Z,2025-09-09T10:54:00Z,VFR,19.4,13.3,60,9,0,NA,1029.2,METAR KBOS 091454Z 06009KT 10SM FEW030 FEW250 19/13 A3039 RMK AO2 SLP290 T01940133 53002,2025-09-09T15:51:27Z,2025-09-09T11:51:27Z
KBOS,"Boston/Logan Intl, MA, US",2025-09-09T15:54:00Z,2025-09-09T11:54:00Z,VFR,20,11.7,70,8,0,NA,1029.2,METAR KBOS 091554Z 07008KT 10SM FEW030 FEW250 20/12 A3039 RMK AO2 SLP291 T02000117,2025-09-09T16:06:00Z,2025-09-09T12:06:00Z
KBOS,"Boston/Logan Intl, MA, US",2025-09-09T16:54:00Z,2025-09-09T12:54:00Z,VFR,20,12.8,70,9,0,NA,1028.9,METAR KBOS 091654Z 07009KT 10SM FEW030 FEW250 20/13 A3038 RMK AO2 SLP287 T02000128,2025-09-09T17:12:49Z,2025-09-09T13:12:49Z
KBOS,"Boston/Logan Intl, MA, US",2025-09-09T17:54:00Z,2025-09-09T13:54:00Z,VFR,20,13.3,70,9,0,NA,1028.5,METAR KBOS 091754Z 07009KT 10SM FEW040 FEW250 20/13 A3037 RMK AO2 SLP283 T02000133 10206 20144 58007,2025-09-09T18:09:19Z,2025-09-09T14:09:19Z
KBOS,"Boston/Logan Intl, MA, US",2025-09-09T18:54:00Z,2025-09-09T14:54:00Z,VFR,20,13.3,70,9,0,NA,1028.2,METAR KBOS 091854Z 07009KT 10SM FEW040 FEW250 20/13 A3036 RMK AO2 SLP280 T02000133,2025-09-09T19:00:54Z,2025-09-09T15:00:54Z
KBOS,"Boston/Logan Intl, MA, US",2025-09-09T19:54:00Z,2025-09-09T15:54:00Z,VFR,19.4,11.7,70,8,0,NA,1028.2,METAR KBOS 091954Z 07008KT 10SM FEW040 SCT250 19/12 A3036 RMK AO2 SLP278 T01940117,2025-09-09T20:10:13Z,2025-09-09T16:10:13Z
KBOS,"Boston/Logan Intl, MA, US",2025-09-09T20:54:00Z,2025-09-09T16:54:00Z,VFR,19.4,11.7,70,8,0,NA,1027.9,METAR KBOS 092054Z 07008KT 10SM FEW045 BKN250 19/12 A3035 RMK AO2 SLP277 T01940117 56006,2025-09-09T21:12:40Z,2025-09-09T17:12:40Z
KBOS,"Boston/Logan Intl, MA, US",2025-09-09T21:54:00Z,2025-09-09T17:54:00Z,VFR,18.3,12.2,70,7,0,NA,1027.9,METAR KBOS 092154Z 07007KT 10SM FEW040 BKN250 18/12 A3035 RMK AO2 SLP276 T01830122,2025-09-09T22:00:06Z,2025-09-09T18:00:06Z
KBOS,"Boston/Logan Intl, MA, US",2025-09-09T22:54:00Z,2025-09-09T18:54:00Z,VFR,17.2,12.8,70,5,0,NA,1027.9,METAR KBOS 092254Z 07005KT 10SM FEW040 BKN250 17/13 A3035 RMK AO2 SLP275 T01720128,2025-09-09T22:58:29Z,2025-09-09T18:58:29Z
KBOS,"Boston/Logan Intl, MA, US",2025-09-09T23:54:00Z,2025-09-09T19:54:00Z,VFR,16.7,12.8,70,6,0,NA,1027.5,METAR KBOS 092354Z 07006KT 10SM FEW040 BKN250 17/13 A3034 RMK AO2 SLP273 T01670128 10200 20167 58004,2025-09-10T00:12:39Z,2025-09-09T20:12:39Z
KBOS,"Boston/Logan Intl, MA, US",2025-09-10T00:54:00Z,2025-09-09T20:54:00Z,VFR,16.7,12.8,40,8,0,NA,1027.5,METAR KBOS 100054Z 04008KT 10SM BKN250 17/13 A3034 RMK AO2 SLP272 T01670128,2025-09-10T01:11:29Z,2025-09-09T21:11:29Z
KBPI,"Big Piney Arpt, WY, US",2025-09-09T23:53:00Z,2025-09-09T19:53:00Z,VFR,22.8,3.9,60,12,16,NA,1018.7,METAR KBPI 092353Z AUTO 06012G16KT 10SM SCT100 SCT120 23/04 A3008 RMK AO2 SLP098 T02280039 10239 20183 56010,2025-09-10T00:12:39Z,2025-09-09T20:12:39Z
KBPI,"Big Piney Arpt, WY, US",2025-09-10T00:53:00Z,2025-09-09T20:53:00Z,VFR,18.3,3.3,40,10,0,NA,1019,METAR KBPI 100053Z AUTO 04010KT 10SM SCT090 18/03 A3009 RMK AO2 SLP102 T01830033,2025-09-10T01:11:29Z,2025-09-09T21:11:29Z
KBPK,"Mountain Home/Baxter Cnty, AR, US",2025-09-09T23:53:00Z,2025-09-09T19:53:00Z,VFR,26.1,8.3,200,4,0,NA,1016.3,METAR KBPK 092353Z AUTO 20004KT 10SM CLR 26/08 A3001 RMK AO2 SLP153 T02610083 10306 20256 56009 PWINO $,2025-09-10T00:12:39Z,2025-09-09T20:12:39Z
KBPK,"Mountain Home/Baxter Cnty, AR, US",2025-09-10T00:53:00Z,2025-09-09T20:53:00Z,VFR,23.3,8.9,200,4,0,NA,1016.7,METAR KBPK 100053Z AUTO 20004KT 10SM BKN120 23/09 A3002 RMK AO2 SLP159 T02330089 PWINO $,2025-09-10T01:11:29Z,2025-09-09T21:11:29Z
KBPT,"Beaumont/SE Texas Rgnl, TX, US",2025-09-09T23:53:00Z,2025-09-09T19:53:00Z,VFR,28.3,14.4,60,3,0,NA,1014.3,METAR KBPT 092353Z 06003KT 10SM CLR 28/14 A2995 RMK AO2 SLP143 T02830144 10311 20283 55004,2025-09-10T00:12:39Z,2025-09-09T20:12:39Z
KBPT,"Beaumont/SE Texas Rgnl, TX, US",2025-09-10T00:53:00Z,2025-09-09T20:53:00Z,VFR,24.4,15,360,3,0,NA,1015,METAR KBPT 100053Z 36003KT 10SM CLR 24/15 A2997 RMK AO2 SLP147 T02440150,2025-09-10T01:11:29Z,2025-09-09T21:11:29Z
KBQK,"Brunswick/Golden Isles Arpt, GA, US",2025-09-09T23:55:00Z,2025-09-09T19:55:00Z,VFR,23.2,17,30,6,0,NA,1017,METAR KBQK 092355Z AUTO 03006KT 10SM CLR 23/17 A3003 RMK AO2 T02320170 10272 20230 402720193,2025-09-10T00:12:39Z,2025-09-09T20:12:39Z
KBQK,"Brunswick/Golden Isles Arpt, GA, US",2025-09-10T00:15:00Z,2025-09-09T20:15:00Z,VFR,22.8,17.1,30,5,0,NA,1017.4,METAR KBQK 100015Z AUTO 03005KT 10SM CLR 23/17 A3004 RMK AO2 T02280171,2025-09-10T00:33:18Z,2025-09-09T20:33:18Z
KBQK,"Brunswick/Golden Isles Arpt, GA, US",2025-09-10T00:55:00Z,2025-09-09T20:55:00Z,VFR,21.9,17.3,40,5,0,NA,1017.7,METAR KBQK 100055Z AUTO 04005KT 10SM CLR 22/17 A3005 RMK AO2 T02190173,2025-09-10T01:11:29Z,2025-09-09T21:11:29Z
KBRD,"Brainerd/Lakes Rgnl, MN, US",2025-09-09T23:53:00Z,2025-09-09T19:53:00Z,VFR,19.4,17.2,160,3,0,7,1015.7,METAR KBRD 092353Z AUTO 16003KT 7SM FEW055 19/17 A2999 RMK AO2 SLP156 T01940172 10217 20194 53012,2025-09-10T00:12:39Z,2025-09-09T20:12:39Z
KBRD,"Brainerd/Lakes Rgnl, MN, US",2025-09-10T00:28:00Z,2025-09-09T20:28:00Z,MVFR,18.9,17.2,180,3,0,7,1016,SPECI KBRD 100028Z AUTO 18003KT 7SM BKN017 BKN029 BKN042 19/17 A3000 RMK AO2 T01890172,2025-09-10T00:33:17Z,2025-09-09T20:33:17Z
KBRD,"Brainerd/Lakes Rgnl, MN, US",2025-09-10T00:53:00Z,2025-09-09T20:53:00Z,VFR,18.3,16.7,150,3,0,6,1016,METAR KBRD 100053Z AUTO 15003KT 6SM BR SCT019 BKN041 OVC050 18/17 A3000 RMK AO2 SLP160 T01830167,2025-09-10T01:11:29Z,2025-09-09T21:11:29Z
KBRL,"Burlington/SE Iowa Rgnl, IA, US",2025-09-09T23:53:00Z,2025-09-09T19:53:00Z,VFR,21.7,9.4,160,6,0,NA,1017.7,METAR KBRL 092353Z AUTO 16006KT 10SM CLR 22/09 A3005 RMK AO2 SLP174 T02170094 10256 20217 55003,2025-09-10T00:12:39Z,2025-09-09T20:12:39Z
KBRL,"Burlington/SE Iowa Rgnl, IA, US",2025-09-10T00:53:00Z,2025-09-09T20:53:00Z,VFR,17.2,10.6,150,4,0,NA,1017.7,METAR KBRL 100053Z AUTO 15004KT 10SM CLR 17/11 A3005 RMK AO2 SLP175 T01720106,2025-09-10T01:11:29Z,2025-09-09T21:11:29Z
KBRO,"Brownsville Intl, TX, US",2025-09-09T15:23:00Z,2025-09-09T11:23:00Z,VFR,30,25,320,7,0,NA,1014.3,SPECI KBRO 091523Z 32007KT 10SM FEW016 SCT026 SCT038 30/25 A2995 RMK AO2 T03000250,2025-09-09T15:51:30Z,2025-09-09T11:51:30Z
KBRO,"Brownsville Intl, TX, US",2025-09-09T15:53:00Z,2025-09-09T11:53:00Z,VFR,30.6,25.6,VAR,5,0,NA,1014.3,METAR KBRO 091553Z VRB05KT 10SM FEW050 FEW080 31/26 A2995 RMK AO2 SLP142 T03060256,2025-09-09T16:06:03Z,2025-09-09T12:06:03Z
KBRO,"Brownsville Intl, TX, US",2025-09-09T16:53:00Z,2025-09-09T12:53:00Z,VFR,31.7,25,40,11,18,NA,1014.3,METAR KBRO 091653Z 04011G18KT 10SM FEW025 SCT070 32/25 A2995 RMK AO2 SLP142 T03170250,2025-09-09T17:12:54Z,2025-09-09T13:12:54Z
KBRO,"Brownsville Intl, TX, US",2025-09-09T17:53:00Z,2025-09-09T13:53:00Z,VFR,31.7,25.6,30,11,0,NA,1014,METAR KBRO 091753Z 03011KT 10SM FEW027 BKN035 OVC095 32/26 A2994 RMK AO2 RAB1656E31 SLP138 P0000 60004 T03170256 10328 20256 58003,2025-09-09T18:09:21Z,2025-09-09T14:09:21Z
KBRO,"Brownsville Intl, TX, US",2025-09-09T18:53:00Z,2025-09-09T14:53:00Z,VFR,31.1,25,10,7,0,NA,1013.3,METAR KBRO 091853Z 01007KT 10SM BKN034 BKN045 OVC070 31/25 A2992 RMK AO2 LTG DSNT SW RAB16E25 SLP130 P0000 T03110250,2025-09-09T19:00:57Z,2025-09-09T15:00:57Z
KBRO,"Brownsville Intl, TX, US",2025-09-09T20:07:00Z,2025-09-09T16:07:00Z,VFR,31.7,23.3,50,11,0,NA,1012.6,SPECI KBRO 092007Z 05011KT 10SM FEW080 32/23 A2990 RMK AO2 LTG DSNT SW T03170233,2025-09-09T20:10:18Z,2025-09-09T16:10:18Z
KBRO,"Brownsville Intl, TX, US",2025-09-09T20:27:00Z,2025-09-09T16:27:00Z,VFR,33.3,23.9,50,12,0,NA,1012.3,SPECI KBRO 092027Z 05012KT 10SM VCTS CLR 33/24 A2989 RMK AO2 T03330239,2025-09-09T20:31:19Z,2025-09-09T16:31:19Z
KBRO,"Brownsville Intl, TX, US",2025-09-09T20:53:00Z,2025-09-09T16:53:00Z,VFR,33.3,23.9,40,11,0,NA,1012.3,METAR KBRO 092053Z 04011KT 10SM VCTS CLR 33/24 A2989 RMK AO2 LTG DSNT SW SLP119 60000 T03330239 58011,2025-09-09T21:12:45Z,2025-09-09T17:12:45Z
KBRO,"Brownsville Intl, TX, US",2025-09-09T21:12:00Z,2025-09-09T17:12:00Z,VFR,33.3,23.9,50,11,0,NA,1011.9,SPECI KBRO 092112Z 05011KT 10SM FEW034 33/24 A2988 RMK AO2 T03330239,2025-09-09T21:28:22Z,2025-09-09T17:28:22Z
KBRO,"Brownsville Intl, TX, US",2025-09-09T21:53:00Z,2025-09-09T17:53:00Z,VFR,32.8,23.9,60,10,0,NA,1012.3,METAR KBRO 092153Z 06010KT 10SM BKN034 BKN046 33/24 A2989 RMK AO2 LTG DSNT NW SLP120 T03280239,2025-09-09T22:00:10Z,2025-09-09T18:00:10Z
KBRO,"Brownsville Intl, TX, US",2025-09-09T22:53:00Z,2025-09-09T18:53:00Z,VFR,31.1,23.3,60,8,0,NA,1012.6,METAR KBRO 092253Z 06008KT 10SM FEW030 SCT038 31/23 A2990 RMK AO2 SLP123 T03110233,2025-09-09T22:58:33Z,2025-09-09T18:58:33Z
KBRO,"Brownsville Intl, TX, US",2025-09-09T23:15:00Z,2025-09-09T19:15:00Z,MVFR,30.6,23.3,60,10,0,NA,1012.6,SPECI KBRO 092315Z 06010KT 10SM BKN028 BKN039 31/23 A2990 RMK AO2 T03060233,2025-09-09T23:21:18Z,2025-09-09T19:21:18Z
KBRO,"Brownsville Intl, TX, US",2025-09-09T23:35:00Z,2025-09-09T19:35:00Z,VFR,30,23.3,60,9,0,NA,1013,SPECI KBRO 092335Z 06009KT 10SM SCT028 30/23 A2991 RMK AO2 T03000233,2025-09-09T23:42:26Z,2025-09-09T19:42:26Z
KBRO,"Brownsville Intl, TX, US",2025-09-09T23:53:00Z,2025-09-09T19:53:00Z,VFR,29.4,23.3,70,8,0,NA,1013,METAR KBRO 092353Z 07008KT 10SM CLR 29/23 A2991 RMK AO2 SLP126 60000 T02940233 10339 20294 53007,2025-09-10T00:12:39Z,2025-09-09T20:12:39Z
KBRO,"Brownsville Intl, TX, US",2025-09-10T00:53:00Z,2025-09-09T20:53:00Z,VFR,28.3,23.9,80,5,0,NA,1013.3,METAR KBRO 100053Z 08005KT 10SM CLR 28/24 A2992 RMK AO2 SLP130 T02830239,2025-09-10T01:11:29Z,2025-09-09T21:11:29Z
KBTL,"Battle Creek/Kellogg Fld Arpt, MI, US",2025-09-09T23:53:00Z,2025-09-09T19:53:00Z,VFR,18.9,10,0,0,0,NA,1020.7,METAR KBTL 092353Z 00000KT 10SM CLR 19/10 A3014 RMK AO2 SLP207 T01890100 10228 20183 58003,2025-09-10T00:12:39Z,2025-09-09T20:12:39Z
KBTL,"Battle Creek/Kellogg Fld Arpt, MI, US",2025-09-10T00:53:00Z,2025-09-09T20:53:00Z,VFR,15.6,11.1,0,0,0,NA,1021.1,METAR KBTL 100053Z 00000KT 10SM CLR 16/11 A3015 RMK AO2 SLP210 T01560111,2025-09-10T01:11:29Z,2025-09-09T21:11:29Z
KBTM,"Butte/Mooney Arpt, MT, US",2025-09-09T23:53:00Z,2025-09-09T19:53:00Z,VFR,22.2,1.7,140,4,0,NA,1016,METAR KBTM 092353Z AUTO 14004KT 10SM CLR 22/02 A3000 RMK AO2 SLP119 T02220017 10233 20183 57016,2025-09-10T00:12:39Z,2025-09-09T20:12:39Z
KBTM,"Butte/Mooney Arpt, MT, US",2025-09-10T00:53:00Z,2025-09-09T20:53:00Z,VFR,21.7,2.2,100,5,0,NA,1015.7,METAR KBTM 100053Z AUTO 10005KT 10SM CLR 22/02 A2999 RMK AO2 SLP120 T02170022,2025-09-10T01:11:29Z,2025-09-09T21:11:29Z
KBTR,"Baton Rouge/Ryan Fld, LA, US",2025-09-09T23:53:00Z,2025-09-09T19:53:00Z,VFR,23.9,22.8,80,4,0,NA,1014.6,METAR KBTR 092353Z 08004KT 10SM FEW080 BKN100 24/23 A2996 RMK AO2 RAE30 SLP144 P0006 60224 T02390228 10322 20228 50001,2025-09-10T00:12:39Z,2025-09-09T20:12:39Z
KBTR,"Baton Rouge/Ryan Fld, LA, US",2025-09-10T00:53:00Z,2025-09-09T20:53:00Z,VFR,23.3,22.8,60,3,0,NA,1015,METAR KBTR 100053Z 06003KT 10SM CLR 23/23 A2997 RMK AO2 LTG DSNT W SLP149 T02330228,2025-09-10T01:11:29Z,2025-09-09T21:11:29Z
KBTV,"Burlington Intl, VT, US",2025-09-09T23:54:00Z,2025-09-09T19:54:00Z,VFR,17.8,10,130,4,0,NA,1025.1,METAR KBTV 092354Z 13004KT 10SM CLR 18/10 A3027 RMK AO2 SLP253 T01780100 10239 20172 56001,2025-09-10T00:12:39Z,2025-09-09T20:12:39Z
KBTV,"Burlington Intl, VT, US",2025-09-10T00:54:00Z,2025-09-09T20:54:00Z,VFR,16.7,11.1,100,5,0,NA,1025.5,METAR KBTV 100054Z 10005KT 10SM CLR 17/11 A3028 RMK AO2 SLP254 T01670111,2025-09-10T01:11:29Z,2025-09-09T21:11:29Z
KBUF,"Buffalo-Niagara Intl, NY, US",2025-09-09T14:54:00Z,2025-09-09T10:54:00Z,VFR,19.4,8.3,200,7,0,NA,1026.8,METAR KBUF 091454Z 20007KT 10SM CLR 19/08 A3032 RMK AO2 SLP267 FU ALF T01940083 53003 $,2025-09-09T15:51:27Z,2025-09-09T11:51:27Z
KBUF,"Buffalo-Niagara Intl, NY, US",2025-09-09T15:54:00Z,2025-09-09T11:54:00Z,VFR,21.1,7.2,170,4,0,NA,1026.2,METAR KBUF 091554Z 17004KT 10SM FEW055 21/07 A3030 RMK AO2 SLP262 FU ALF T02110072 $,2025-09-09T16:06:00Z,2025-09-09T12:06:00Z
KBUF,"Buffalo-Niagara Intl, NY, US",2025-09-09T16:54:00Z,2025-09-09T12:54:00Z,VFR,22.2,6.7,250,9,0,NA,1025.8,METAR KBUF 091654Z 25009KT 10SM FEW060 22/07 A3029 RMK AO2 SLP256 FU ALF T02220067 $,2025-09-09T17:12:49Z,2025-09-09T13:12:49Z
KBUF,"Buffalo-Niagara Intl, NY, US",2025-09-09T17:54:00Z,2025-09-09T13:54:00Z,VFR,22.2,6.7,VAR,4,0,NA,1025.1,METAR KBUF 091754Z VRB04KT 10SM FEW065 FEW260 22/07 A3027 RMK AO2 SLP251 FU ALF T02220067 10228 20111 57016 $,2025-09-09T18:09:19Z,2025-09-09T14:09:19Z
KBUF,"Buffalo-Niagara Intl, NY, US",2025-09-09T18:54:00Z,2025-09-09T14:54:00Z,VFR,22.8,6.1,0,0,0,NA,1024.5,METAR KBUF 091854Z 00000KT 10SM FEW065 FEW260 23/06 A3025 RMK AO2 SLP243 T02280061 $,2025-09-09T19:00:54Z,2025-09-09T15:00:54Z
KBUF,"Buffalo-Niagara Intl, NY, US",2025-09-09T19:54:00Z,2025-09-09T15:54:00Z,VFR,23.9,6.7,70,7,0,NA,1023.8,METAR KBUF 091954Z 07007KT 10SM FEW060 FEW280 24/07 A3023 RMK AO2 SLP237 T02390067 $,2025-09-09T20:10:12Z,2025-09-09T16:10:12Z
KBUF,"Buffalo-Niagara Intl, NY, US",2025-09-09T20:54:00Z,2025-09-09T16:54:00Z,VFR,22.8,6.7,150,6,0,NA,1023.5,METAR KBUF 092054Z 15006KT 10SM FEW055 FEW280 23/07 A3022 RMK AO2 SLP235 T02280067 56016 $,2025-09-09T21:12:40Z,2025-09-09T17:12:40Z
KBUF,"Buffalo-Niagara Intl, NY, US",2025-09-09T21:54:00Z,2025-09-09T17:54:00Z,VFR,22.8,5.6,VAR,3,0,NA,1023.1,METAR KBUF 092154Z VRB03KT 10SM FEW055 FEW280 23/06 A3021 RMK AO2 SLP230 T02280056 $,2025-09-09T22:00:06Z,2025-09-09T18:00:06Z
KBUF,"Buffalo-Niagara Intl, NY, US",2025-09-09T22:54:00Z,2025-09-09T18:54:00Z,VFR,22.2,7.8,20,10,0,NA,1023.1,METAR KBUF 092254Z 02010KT 10SM FEW250 22/08 A3021 RMK AO2 SLP229 T02220078 $,2025-09-09T22:58:29Z,2025-09-09T18:58:29Z
KBUF,"Buffalo-Niagara Intl, NY, US",2025-09-09T23:54:00Z,2025-09-09T19:54:00Z,VFR,18.9,9.4,20,7,0,NA,1023.1,METAR KBUF 092354Z 02007KT 10SM FEW250 19/09 A3021 RMK AO2 SLP230 T01890094 10239 20189 55005 $,2025-09-10T00:12:39Z,2025-09-09T20:12:39Z
KBUF,"Buffalo-Niagara Intl, NY, US",2025-09-10T00:54:00Z,2025-09-09T20:54:00Z,VFR,17.2,10,30,6,0,NA,1023.1,METAR KBUF 100054Z 03006KT 10SM FEW250 17/10 A3021 RMK AO2 SLP231 T01720100 $,2025-09-10T01:11:29Z,2025-09-09T21:11:29Z
KBUR,"Burbank/Bob Hope Arpt, CA, US",2025-09-09T15:28:00Z,2025-09-09T11:28:00Z,MVFR,18.9,15.6,180,5,0,NA,1015,SPECI KBUR 091528Z 18005KT 10SM OVC011 19/16 A2997 RMK AO2 T01890156,2025-09-09T15:51:32Z,2025-09-09T11:51:32Z
KBUR,"Burbank/Bob Hope Arpt, CA, US",2025-09-09T15:53:00Z,2025-09-09T11:53:00Z,MVFR,18.9,15,200,4,0,NA,1015,METAR KBUR 091553Z 20004KT 10SM OVC014 19/15 A2997 RMK AO2 SLP139 T01890150,2025-09-09T16:06:05Z,2025-09-09T12:06:05Z
KBUR,"Burbank/Bob Hope Arpt, CA, US",2025-09-09T16:22:00Z,2025-09-09T12:22:00Z,MVFR,19.4,15,160,5,0,NA,1015.3,SPECI KBUR 091622Z 16005KT 10SM BKN015 19/15 A2998 RMK AO2 T01940150,2025-09-09T16:36:33Z,2025-09-09T12:36:33Z
KBUR,"Burbank/Bob Hope Arpt, CA, US",2025-09-09T16:36:00Z,2025-09-09T12:36:00Z,VFR,20,15,140,4,0,NA,1015,SPECI KBUR 091636Z 14004KT 10SM FEW015 20/15 A2997 RMK AO2 T02000150,2025-09-09T16:38:42Z,2025-09-09T12:38:42Z
KBUR,"Burbank/Bob Hope Arpt, CA, US",2025-09-09T16:53:00Z,2025-09-09T12:53:00Z,VFR,20.6,15,VAR,5,0,NA,1015,METAR KBUR 091653Z VRB05KT 10SM FEW017 21/15 A2997 RMK AO2 SLP137 T02060150,2025-09-09T17:12:57Z,2025-09-09T13:12:57Z
KBUR,"Burbank/Bob Hope Arpt, CA, US",2025-09-09T17:53:00Z,2025-09-09T13:53:00Z,VFR,22.8,15,VAR,6,0,NA,1014.6,METAR KBUR 091753Z VRB06KT 10SM CLR 23/15 A2996 RMK AO2 SLP133 T02280150 10228 20172 50001,2025-09-09T18:09:23Z,2025-09-09T14:09:23Z
KBUR,"Burbank/Bob Hope Arpt, CA, US",2025-09-09T18:53:00Z,2025-09-09T14:53:00Z,VFR,24.4,14.4,180,8,0,NA,1014,METAR KBUR 091853Z 18008KT 10SM CLR 24/14 A2994 RMK AO2 SLP125 T02440144,2025-09-09T19:00:59Z,2025-09-09T15:00:59Z
KBUR,"Burbank/Bob Hope Arpt, CA, US",2025-09-09T19:53:00Z,2025-09-09T15:53:00Z,VFR,26.1,13.9,170,5,0,NA,1013,METAR KBUR 091953Z 17005KT 10SM CLR 26/14 A2991 RMK AO2 SLP116 T02610139,2025-09-09T20:10:19Z,2025-09-09T16:10:19Z
KBUR,"Burbank/Bob Hope Arpt, CA, US",2025-09-09T20:53:00Z,2025-09-09T16:53:00Z,VFR,27.2,13.3,200,9,0,NA,1012.6,METAR KBUR 092053Z 20009KT 10SM CLR 27/13 A2990 RMK AO2 SLP110 T02720133 56022,2025-09-09T21:12:46Z,2025-09-09T17:12:46Z
KBUR,"Burbank/Bob Hope Arpt, CA, US",2025-09-09T21:53:00Z,2025-09-09T17:53:00Z,VFR,27.2,12.2,210,8,0,NA,1011.6,METAR KBUR 092153Z 21008KT 10SM CLR 27/12 A2987 RMK AO2 SLP102 T02720122,2025-09-09T22:00:15Z,2025-09-09T18:00:15Z
KBUR,"Burbank/Bob Hope Arpt, CA, US",2025-09-09T22:53:00Z,2025-09-09T18:53:00Z,VFR,26.1,12.8,200,10,0,NA,1010.9,METAR KBUR 092253Z 20010KT 10SM CLR 26/13 A2985 RMK AO2 SLP096 T02610128,2025-09-09T22:58:34Z,2025-09-09T18:58:34Z
KBUR,"Burbank/Bob Hope Arpt, CA, US",2025-09-09T23:53:00Z,2025-09-09T19:53:00Z,VFR,26.1,12.2,190,9,0,NA,1010.6,METAR KBUR 092353Z 19009KT 10SM CLR 26/12 A2984 RMK AO2 SLP091 T02610122 10278 20222 56018,2025-09-10T00:12:39Z,2025-09-09T20:12:39Z
KBUR,"Burbank/Bob Hope Arpt, CA, US",2025-09-10T00:53:00Z,2025-09-09T20:53:00Z,VFR,24.4,14.4,190,10,0,NA,1010.6,METAR KBUR 100053Z 19010KT 10SM CLR 24/14 A2984 RMK AO2 SLP094 T02440144,2025-09-10T01:11:29Z,2025-09-09T21:11:29Z
KBVI,"Beaver Falls Arpt, PA, US",2025-09-09T22:47:00Z,2025-09-09T18:47:00Z,VFR,23,3,140,4,0,NA,1022.8,METAR KBVI 092247Z 14004KT 10SM CLR 23/03 A3020 RMK TWR CLSD UNTIL 0730L.,2025-09-10T00:12:40Z,2025-09-09T20:12:40Z
KBVY,"Beverly Muni, MA, US",2025-09-09T23:53:00Z,2025-09-09T19:53:00Z,VFR,13,11,30,5,0,NA,1027.5,METAR KBVY 092353Z 03005KT 10SM CLR 13/11 A3034,2025-09-10T00:12:39Z,2025-09-09T20:12:39Z
KBWG,"Bowling Green/Warren Cnty, KY, US",2025-09-09T23:53:00Z,2025-09-09T19:53:00Z,VFR,22.8,13.9,110,4,0,NA,1018.7,METAR KBWG 092353Z AUTO 11004KT 10SM CLR 23/14 A3008 RMK AO2 SLP182 T02280139 10283 20228 56007,2025-09-10T00:12:39Z,2025-09-09T20:12:39Z
KBWG,"Bowling Green/Warren Cnty, KY, US",2025-09-10T00:53:00Z,2025-09-09T20:53:00Z,VFR,21.1,13.3,120,3,0,NA,1018.7,METAR KBWG 100053Z AUTO 12003KT 10SM CLR 21/13 A3008 RMK AO2 SLP183 T02110133,2025-09-10T01:11:29Z,2025-09-09T21:11:29Z
KBWI,"Baltimore-Washington Intl, MD, US",2025-09-09T14:54:00Z,2025-09-09T10:54:00Z,VFR,21.1,11.1,70,12,21,NA,1025.8,METAR KBWI 091454Z 07012G21KT 10SM FEW036 SCT250 21/11 A3029 RMK AO2 SLP257 T02110111 53002,2025-09-09T15:51:27Z,2025-09-09T11:51:27Z
KBWI,"Baltimore-Washington Intl, MD, US",2025-09-09T15:54:00Z,2025-09-09T11:54:00Z,VFR,22.2,10.6,80,15,0,NA,1025.8,METAR KBWI 091554Z 08015KT 10SM SCT041 SCT250 22/11 A3029 RMK AO2 SLP256 T02220106,2025-09-09T16:06:00Z,2025-09-09T12:06:00Z
KBWI,"Baltimore-Washington Intl, MD, US",2025-09-09T16:54:00Z,2025-09-09T12:54:00Z,VFR,22.2,11.1,80,9,20,NA,1025.5,METAR KBWI 091654Z 08009G20KT 10SM SCT041 SCT250 22/11 A3028 RMK AO2 SLP252 T02220111,2025-09-09T17:12:49Z,2025-09-09T13:12:49Z
KBWI,"Baltimore-Washington Intl, MD, US",2025-09-09T17:54:00Z,2025-09-09T13:54:00Z,VFR,23.3,10.6,60,9,0,NA,1024.8,METAR KBWI 091754Z 06009KT 10SM FEW046 SCT250 23/11 A3026 RMK AO2 SLP246 T02330106 10239 20133 58011,2025-09-09T18:09:19Z,2025-09-09T14:09:19Z
KBWI,"Baltimore-Washington Intl, MD, US",2025-09-09T18:54:00Z,2025-09-09T14:54:00Z,VFR,22.8,11.1,30,9,0,NA,1024.1,METAR KBWI 091854Z 03009KT 10SM SCT047 SCT250 23/11 A3024 RMK AO2 SLP240 T02280111,2025-09-09T19:00:54Z,2025-09-09T15:00:54Z
KBWI,"Baltimore-Washington Intl, MD, US",2025-09-09T19:54:00Z,2025-09-09T15:54:00Z,VFR,23.3,11.1,30,6,0,NA,1023.5,METAR KBWI 091954Z 03006KT 10SM FEW048 SCT250 23/11 A3022 RMK AO2 SLP234 T02330111,2025-09-09T20:10:13Z,2025-09-09T16:10:13Z
KBWI,"Baltimore-Washington Intl, MD, US",2025-09-09T20:54:00Z,2025-09-09T16:54:00Z,VFR,23.3,10.6,60,12,16,NA,1023.1,METAR KBWI 092054Z 06012G16KT 10SM SCT050 SCT250 23/11 A3021 RMK AO2 SLP230 T02330106 56016,2025-09-09T21:12:40Z,2025-09-09T17:12:40Z
KBWI,"Baltimore-Washington Intl, MD, US",2025-09-09T21:54:00Z,2025-09-09T17:54:00Z,VFR,23.3,10.6,60,13,0,NA,1022.8,METAR KBWI 092154Z 06013KT 10SM FEW050 FEW250 23/11 A3020 RMK AO2 SLP226 T02330106,2025-09-09T22:00:06Z,2025-09-09T18:00:06Z
KBWI,"Baltimore-Washington Intl, MD, US",2025-09-09T22:54:00Z,2025-09-09T18:54:00Z,VFR,22.2,11.1,70,9,0,NA,1022.8,METAR KBWI 092254Z 07009KT 10SM FEW050 SCT250 22/11 A3020 RMK AO2 SLP226 T02220111,2025-09-09T22:58:29Z,2025-09-09T18:58:29Z
KBWI,"Baltimore-Washington Intl, MD, US",2025-09-09T23:54:00Z,2025-09-09T19:54:00Z,VFR,21.7,12.8,70,12,0,NA,1023.1,METAR KBWI 092354Z 07012KT 10SM BKN045 BKN250 22/13 A3021 RMK AO2 SLP228 T02170128 10239 20217 55002,2025-09-10T00:12:39Z,2025-09-09T20:12:39Z
KBWI,"Baltimore-Washington Intl, MD, US",2025-09-10T00:54:00Z,2025-09-09T20:54:00Z,VFR,20,13.9,80,10,0,NA,1023.1,METAR KBWI 100054Z 08010KT 10SM FEW045 BKN250 20/14 A3021 RMK AO2 SLP231 T02000139,2025-09-10T01:11:29Z,2025-09-09T21:11:29Z
KBXM,"Brunswick Exec, ME, US",2025-09-09T23:55:00Z,2025-09-09T19:55:00Z,VFR,13,11,0,0,0,NA,1028.9,METAR KBXM 092355Z AUTO 00000KT 10SM CLR 13/11 A3038 RMK AO2 10219 20130,2025-09-10T00:12:38Z,2025-09-09T20:12:38Z
KBXM,"Brunswick Exec, ME, US",2025-09-10T00:15:00Z,2025-09-09T20:15:00Z,VFR,12,11,0,0,0,NA,1029.2,METAR KBXM 100015Z AUTO 00000KT 10SM CLR 12/11 A3039 RMK AO2,2025-09-10T00:33:17Z,2025-09-09T20:33:17Z
KBXM,"Brunswick Exec, ME, US",2025-09-10T00:55:00Z,2025-09-09T20:55:00Z,VFR,12,11,0,0,0,NA,1029.2,METAR KBXM 100055Z AUTO 00000KT 10SM CLR 12/11 A3039 RMK AO2,2025-09-10T01:11:29Z,2025-09-09T21:11:29Z
KBYI,"Burley Muni, ID, US",2025-09-09T23:53:00Z,2025-09-09T19:53:00Z,VFR,22.2,6.1,270,9,0,NA,1011.6,METAR KBYI 092353Z AUTO 27009KT 10SM CLR 22/06 A2987 RMK AO2 SLP079 T02220061 10256 20222 58009,2025-09-10T00:12:39Z,2025-09-09T20:12:39Z
KBYI,"Burley Muni, ID, US",2025-09-10T00:53:00Z,2025-09-09T20:53:00Z,VFR,22.2,7.2,260,5,0,NA,1011.3,METAR KBYI 100053Z AUTO 26005KT 10SM CLR 22/07 A2986 RMK AO2 SLP076 T02220072,2025-09-10T01:11:29Z,2025-09-09T21:11:29Z
KBYS,"Bicycle Lake (AAF), CA, US",2025-09-09T23:55:00Z,2025-09-09T19:55:00Z,VFR,33.1,2,210,20,23,NA,1007.9,METAR KBYS 092355Z AUTO 21020G23KT 10SM CLR 33/02 A2976 RMK AO2 SLP048 T03310020 10341 20292 57018 $,2025-09-10T00:12:38Z,2025-09-09T20:12:38Z
KBYS,"Bicycle Lake (AAF), CA, US",2025-09-10T00:55:00Z,2025-09-09T20:55:00Z,VFR,31.5,1.7,200,18,0,NA,1007.9,METAR KBYS 100055Z AUTO 20018KT 10SM CLR 32/02 A2976 RMK AO2 SLP050 T03150017 $,2025-09-10T01:11:29Z,2025-09-09T21:11:29Z
KBZN,"Bozeman/Gallatin Fld, MT, US",2025-09-09T14:56:00Z,2025-09-09T10:56:00Z,VFR,11.1,5.6,0,0,0,NA,1018,METAR KBZN 091456Z 00000KT 10SM CLR 11/06 A3006 RMK AO2 SLP154 T01110056 53004,2025-09-09T15:51:30Z,2025-09-09T11:51:30Z
KBZN,"Bozeman/Gallatin Fld, MT, US",2025-09-09T15:56:00Z,2025-09-09T11:56:00Z,VFR,16.1,5,20,3,0,NA,1018,METAR KBZN 091556Z 02003KT 10SM CLR 16/05 A3006 RMK AO2 SLP152 T01610050,2025-09-09T16:06:03Z,2025-09-09T12:06:03Z
KBZN,"Bozeman/Gallatin Fld, MT, US",2025-09-09T16:56:00Z,2025-09-09T12:56:00Z,VFR,18.3,5.6,310,4,0,NA,1017.7,METAR KBZN 091656Z 31004KT 10SM CLR 18/06 A3005 RMK AO2 SLP144 T01830056,2025-09-09T17:12:54Z,2025-09-09T13:12:54Z
KBZN,"Bozeman/Gallatin Fld, MT, US",2025-09-09T17:56:00Z,2025-09-09T13:56:00Z,VFR,21.1,5.6,270,6,0,NA,1018,METAR KBZN 091756Z 27006KT 10SM CLR 21/06 A3006 RMK AO2 SLP153 T02110056 10211 20072 53001,2025-09-09T18:09:21Z,2025-09-09T14:09:21Z
KBZN,"Bozeman/Gallatin Fld, MT, US",2025-09-09T18:56:00Z,2025-09-09T14:56:00Z,VFR,22.2,5,20,7,0,NA,1017.4,METAR KBZN 091856Z 02007KT 10SM CLR 22/05 A3004 RMK AO2 SLP144 T02220050 $,2025-09-09T19:00:57Z,2025-09-09T15:00:57Z
KBZN,"Bozeman/Gallatin Fld, MT, US",2025-09-09T19:56:00Z,2025-09-09T15:56:00Z,VFR,24.4,3.3,VAR,4,0,NA,1016.7,METAR KBZN 091956Z VRB04KT 10SM CLR 24/03 A3002 RMK AO2 SLP132 T02440033 $,2025-09-09T20:10:18Z,2025-09-09T16:10:18Z
KBZN,"Bozeman/Gallatin Fld, MT, US",2025-09-09T20:56:00Z,2025-09-09T16:56:00Z,VFR,25,3.3,290,6,0,NA,1015.3,METAR KBZN 092056Z 29006KT 10SM CLR 25/03 A2998 RMK AO2 SLP118 T02500033 58024 $,2025-09-09T21:12:45Z,2025-09-09T17:12:45Z
KBZN,"Bozeman/Gallatin Fld, MT, US",2025-09-09T21:56:00Z,2025-09-09T17:56:00Z,VFR,25.6,2.2,250,4,0,NA,1015,METAR KBZN 092156Z 25004KT 10SM CLR 26/02 A2997 RMK AO2 SLP115 T02560022 $,2025-09-09T22:00:10Z,2025-09-09T18:00:10Z
KBZN,"Bozeman/Gallatin Fld, MT, US",2025-09-09T22:56:00Z,2025-09-09T18:56:00Z,VFR,25,3.3,320,5,0,NA,1014,METAR KBZN 092256Z 32005KT 10SM CLR 25/03 A2994 RMK AO2 SLP108 T02500033 $,2025-09-09T23:21:18Z,2025-09-09T19:21:18Z
KBZN,"Bozeman/Gallatin Fld, MT, US",2025-09-09T23:56:00Z,2025-09-09T19:56:00Z,VFR,25,3.3,260,4,0,NA,1014,METAR KBZN 092356Z 26004KT 10SM CLR 25/03 A2994 RMK AO2 SLP108 T02500033 10261 20206 56013 $,2025-09-10T00:12:38Z,2025-09-09T20:12:38Z
KBZN,"Bozeman/Gallatin Fld, MT, US",2025-09-10T00:56:00Z,2025-09-09T20:56:00Z,VFR,23.9,3.9,200,7,0,NA,1014.3,METAR KBZN 100056Z 20007KT 10SM OVC110 24/04 A2995 RMK AO2 LTG DSNT SE AND S SLP111 T02390039 $,2025-09-10T01:11:29Z,2025-09-09T21:11:29Z
KCAE,"Columbia Metro, SC, US",2025-09-09T23:56:00Z,2025-09-09T19:56:00Z,VFR,22.8,9.4,340,3,0,NA,1019,METAR KCAE 092356Z 34003KT 10SM FEW060 SCT150 23/09 A3009 RMK AO2 SLP187 T02280094 10267 20228 53004,2025-09-10T00:12:38Z,2025-09-09T20:12:38Z
KCAE,"Columbia Metro, SC, US",2025-09-10T00:56:00Z,2025-09-09T20:56:00Z,VFR,21.7,10,350,3,0,NA,1019.4,METAR KCAE 100056Z 35003KT 10SM CLR 22/10 A3010 RMK AO2 SLP191 T02170100,2025-09-10T01:11:29Z,2025-09-09T21:11:29Z
KCAK,"Akron/Canton Rgnl, OH, US",2025-09-09T23:51:00Z,2025-09-09T19:51:00Z,VFR,20,5.6,0,0,0,NA,1021.8,METAR KCAK 092351Z 00000KT 10SM FEW250 20/06 A3017 RMK AO2 SLP216 T02000056 10244 20200 56003,2025-09-10T00:12:40Z,2025-09-09T20:12:40Z
KCAK,"Akron/Canton Rgnl, OH, US",2025-09-10T00:51:00Z,2025-09-09T20:51:00Z,VFR,17.8,6.7,0,0,0,NA,1021.8,METAR KCAK 100051Z 00000KT 10SM FEW250 18/07 A3017 RMK AO2 SLP216 T01780067,2025-09-10T01:11:29Z,2025-09-09T21:11:29Z
KCAR,"Caribou Muni, ME, US",2025-09-09T23:54:00Z,2025-09-09T19:54:00Z,VFR,13.9,9.4,160,3,0,NA,1026.8,METAR KCAR 092354Z AUTO 16003KT 10SM CLR 14/09 A3032 RMK AO2 SLP274 T01390094 10194 20139 52004,2025-09-10T00:12:39Z,2025-09-09T20:12:39Z
KCAR,"Caribou Muni, ME, US",2025-09-10T00:54:00Z,2025-09-09T20:54:00Z,VFR,12.2,10,0,0,0,NA,1026.8,METAR KCAR 100054Z AUTO 00000KT 10SM CLR 12/10 A3032 RMK AO2 SLP274 T01220100,2025-09-10T01:11:29Z,2025-09-09T21:11:29Z
KCBM,"Columbus AFB, MS, US",2025-09-09T23:55:00Z,2025-09-09T19:55:00Z,VFR,27.8,16.1,80,4,0,NA,1015.3,METAR KCBM 092355Z 08004KT 10SM FEW070 28/16 A2998 RMK AO2A SLP153 T02780161 10319 20278 55002 $,2025-09-10T00:12:38Z,2025-09-09T20:12:38Z
KCBM,"Columbus AFB, MS, US",2025-09-10T00:55:00Z,2025-09-09T20:55:00Z,VFR,24.8,17,0,0,0,NA,1016,METAR KCBM 100055Z 00000KT 10SM CLR 25/17 A3000 RMK AO2A SLP160 T02480170 $,2025-09-10T01:11:29Z,2025-09-09T21:11:29Z
KCCR,"Concord/Buchanan Fld, CA, US",2025-09-09T23:53:00Z,2025-09-09T19:53:00Z,VFR,22.8,15,230,14,0,NA,1011.6,METAR KCCR 092353Z 23014KT 10SM BKN051 23/15 A2987 RMK AO2 SLP100 T02280150 10250 20228 56013,2025-09-10T00:12:39Z,2025-09-09T20:12:39Z
KCCR,"Concord/Buchanan Fld, CA, US",2025-09-10T00:53:00Z,2025-09-09T20:53:00Z,VFR,21.7,15,240,10,19,NA,1011.3,METAR KCCR 100053Z 24010G19KT 10SM CLR 22/15 A2986 RMK AO2 SLP099 T02170150,2025-09-10T01:11:29Z,2025-09-09T21:11:29Z
KCCY,"Charles City/NE Iowa Rgnl, IA, US",2025-09-09T23:55:00Z,2025-09-09T19:55:00Z,VFR,19,15,150,4,0,NA,1016.3,METAR KCCY 092355Z AUTO 15004KT 10SM BKN090 19/15 A3001 RMK AO2,2025-09-10T00:12:38Z,2025-09-09T20:12:38Z
KCCY,"Charles City/NE Iowa Rgnl, IA, US",2025-09-10T00:15:00Z,2025-09-09T20:15:00Z,VFR,19,15,150,4,0,NA,1016.3,METAR KCCY 100015Z AUTO 15004KT 10SM SCT075 BKN090 BKN140 19/15 A3001 RMK AO2,2025-09-10T00:33:18Z,2025-09-09T20:33:18Z
KCCY,"Charles City/NE Iowa Rgnl, IA, US",2025-09-10T00:55:00Z,2025-09-09T20:55:00Z,VFR,18,16,140,5,0,NA,1016.3,METAR KCCY 100055Z AUTO 14005KT 10SM OVC060 18/16 A3001 RMK AO2,2025-09-10T01:11:29Z,2025-09-09T21:11:29Z
KCDC,"Cedar City Muni, UT, US",2025-09-09T23:53:00Z,2025-09-09T19:53:00Z,VFR,27.2,2.2,210,15,22,NA,1014.6,METAR KCDC 092353Z AUTO 21015G22KT 10SM CLR 27/02 A2996 RMK AO2 PK WND 22030/2338 SLP074 T02720022 10283 20244 56014,2025-09-10T00:12:39Z,2025-09-09T20:12:39Z
KCDC,"Cedar City Muni, UT, US",2025-09-10T00:53:00Z,2025-09-09T20:53:00Z,VFR,25.6,1.7,220,16,24,NA,1014.6,METAR KCDC 100053Z AUTO 22016G24KT 10SM CLR 26/02 A2996 RMK AO2 PK WND 22029/0007 SLP071 T02560017,2025-09-10T01:11:29Z,2025-09-09T21:11:29Z
KCDS,"Childress Muni, TX, US",2025-09-09T23:53:00Z,2025-09-09T19:53:00Z,VFR,31.7,13.3,150,10,21,NA,1013,METAR KCDS 092353Z AUTO 15010G21KT 10SM CLR 32/13 A2991 RMK AO2 PK WND 17027/2315 SLP103 T03170133 10339 20300 56013,2025-09-10T00:12:39Z,2025-09-09T20:12:39Z
KCDS,"Childress Muni, TX, US",2025-09-10T00:53:00Z,2025-09-09T20:53:00Z,VFR,30,12.2,150,9,18,NA,1014.3,METAR KCDS 100053Z AUTO 15009G18KT 10SM CLR 30/12 A2995 RMK AO2 SLP115 T03000122,2025-09-10T01:11:29Z,2025-09-09T21:11:29Z
KCEC,"Crescent City/McNama, CA, US",2025-09-09T23:56:00Z,2025-09-09T19:56:00Z,VFR,17.8,14.4,330,5,0,NA,1012.6,METAR KCEC 092356Z AUTO 33005KT 10SM CLR 18/14 A2990 RMK AO2 SLP124 T01780144 10200 20161 56014,2025-09-10T00:12:38Z,2025-09-09T20:12:38Z
KCEC,"Crescent City/McNama, CA, US",2025-09-10T00:56:00Z,2025-09-09T20:56:00Z,VFR,17.8,14.4,300,6,0,NA,1012.6,METAR KCEC 100056Z AUTO 30006KT 10SM CLR 18/14 A2990 RMK AO2 SLP123 T01780144,2025-09-10T01:11:29Z,2025-09-09T21:11:29Z
KCEF,"Chicopee/Westover AFB, MA, US",2025-09-09T23:55:00Z,2025-09-09T19:55:00Z,VFR,17.1,7.4,100,6,0,NA,1025.5,METAR KCEF 092355Z 10006KT 10SM FEW050 SCT250 17/07 A3028 RMK AO2A SLP258 T01710074 10236 20171 55001,2025-09-10T00:12:38Z,2025-09-09T20:12:38Z
KCEF,"Chicopee/Westover AFB, MA, US",2025-09-10T00:55:00Z,2025-09-09T20:55:00Z,VFR,16.5,8.5,100,7,0,NA,1025.8,METAR KCEF 100055Z 10007KT 10SM FEW050 SCT250 17/09 A3029 RMK AO2A SLP261 T01650085,2025-09-10T01:11:29Z,2025-09-09T21:11:29Z
KCEW,"Crestview/Sikes Arpt, FL, US",2025-09-09T23:53:00Z,2025-09-09T19:53:00Z,VFR,27.2,18.9,0,0,0,NA,1017,METAR KCEW 092353Z AUTO 00000KT 10SM FEW060 27/19 A3003 RMK AO2 SLP164 T02720189 10311 20272 53006,2025-09-10T00:12:39Z,2025-09-09T20:12:39Z
KCEW,"Crestview/Sikes Arpt, FL, US",2025-09-10T00:53:00Z,2025-09-09T20:53:00Z,VFR,26.1,18.9,0,0,0,NA,1017.4,METAR KCEW 100053Z AUTO 00000KT 10SM OVC050 26/19 A3004 RMK AO2 SLP169 T02610189,2025-09-10T01:11:29Z,2025-09-09T21:11:29Z
KCEZ,"Cortez/Montezuma Cnt, CO, US",2025-09-09T23:53:00Z,2025-09-09T19:53:00Z,VFR,28.9,2.8,250,8,0,NA,1017.7,METAR KCEZ 092353Z AUTO 25008KT 10SM CLR 29/03 A3005 RMK AO2 SLP101 T02890028 10300 20267 56016,2025-09-10T00:12:39Z,2025-09-09T20:12:39Z
KCEZ,"Cortez/Montezuma Cnt, CO, US",2025-09-10T00:53:00Z,2025-09-09T20:53:00Z,VFR,26.7,4.4,190,7,0,NA,1017.4,METAR KCEZ 100053Z AUTO 19007KT 10SM CLR 27/04 A3004 RMK AO2 SLP102 T02670044,2025-09-10T01:11:29Z,2025-09-09T21:11:29Z
KCGF,"Cleveland/Cuyahoga Cnty, OH, US",2025-09-09T23:45:00Z,2025-09-09T19:45:00Z,VFR,18,12,80,5,0,NA,1021.8,METAR KCGF 092345Z 08005KT 10SM CLR 18/12 A3017,2025-09-10T00:12:40Z,2025-09-09T20:12:40Z
KCGF,"Cleveland/Cuyahoga Cnty, OH, US",2025-09-10T00:45:00Z,2025-09-09T20:45:00Z,VFR,17,12,0,0,0,NA,1021.8,METAR KCGF 100045Z 00000KT 10SM CLR 17/12 A3017,2025-09-10T01:11:30Z,2025-09-09T21:11:30Z
KCGI,"Cape Girardeau Rgnl, MO, US",2025-09-09T23:53:00Z,2025-09-09T19:53:00Z,VFR,24.4,15.6,100,4,0,NA,1016.3,METAR KCGI 092353Z 10004KT 10SM CLR 24/16 A3001 RMK AO2 SLP161 T02440156 10283 20244 56012,2025-09-10T00:12:39Z,2025-09-09T20:12:39Z
KCGI,"Cape Girardeau Rgnl, MO, US",2025-09-10T00:53:00Z,2025-09-09T20:53:00Z,VFR,21.1,16.7,100,5,0,NA,1016.7,METAR KCGI 100053Z AUTO 10005KT 10SM CLR 21/17 A3002 RMK AO2 SLP164 T02110167,2025-09-10T01:11:29Z,2025-09-09T21:11:29Z
KCHA,"Chattanooga Metro, TN, US",2025-09-09T22:53:00Z,2025-09-09T18:53:00Z,VFR,26.1,12.8,350,7,0,NA,1019,METAR KCHA 092253Z 35007KT 10SM FEW060 26/13 A3009 RMK AO2 SLP183 T02610128 $,2025-09-10T00:12:40Z,2025-09-09T20:12:40Z
KCHA,"Chattanooga Metro, TN, US",2025-09-10T00:53:00Z,2025-09-09T20:53:00Z,VFR,20.6,15.6,0,0,0,NA,1019.4,METAR KCHA 100053Z 00000KT 10SM CLR 21/16 A3010 RMK AO2 SLP186 T02060156 $,2025-09-10T01:11:29Z,2025-09-09T21:11:29Z
KCHO,"Charlottesville/Albemarle Arpt, VA, US",2025-09-09T23:53:00Z,2025-09-09T19:53:00Z,VFR,17.8,8.3,30,3,0,NA,1022.4,METAR KCHO 092353Z 03003KT 10SM CLR 18/08 A3019 RMK AO2 SLP220 T01780083 10244 20178 57001,2025-09-10T00:12:39Z,2025-09-09T20:12:39Z
KCHO,"Charlottesville/Albemarle Arpt, VA, US",2025-09-10T00:53:00Z,2025-09-09T20:53:00Z,VFR,16.1,8.9,350,4,0,NA,1022.8,METAR KCHO 100053Z 35004KT 10SM CLR 16/09 A3020 RMK AO2 SLP224 T01610089,2025-09-10T01:11:29Z,2025-09-09T21:11:29Z
KCHS,"Charleston Intl, SC, US",2025-09-09T14:56:00Z,2025-09-09T10:56:00Z,VFR,23.3,14.4,10,15,22,NA,1020.1,METAR KCHS 091456Z 01015G22KT 10SM FEW150 SCT200 23/14 A3012 RMK AO2 SLP197 T02330144 51006,2025-09-09T15:51:29Z,2025-09-09T11:51:29Z
KCHS,"Charleston Intl, SC, US",2025-09-09T15:56:00Z,2025-09-09T11:56:00Z,VFR,23.9,13.3,30,13,0,NA,1020.1,METAR KCHS 091556Z 03013KT 10SM SCT180 BKN250 24/13 A3012 RMK AO2 SLP200 T02390133,2025-09-09T16:06:01Z,2025-09-09T12:06:01Z
KCHS,"Charleston Intl, SC, US",2025-09-09T16:56:00Z,2025-09-09T12:56:00Z,VFR,25,13.3,30,12,21,NA,1019.7,METAR KCHS 091656Z 03012G21KT 10SM SCT180 BKN250 25/13 A3011 RMK AO2 SLP195 T02500133,2025-09-09T17:12:51Z,2025-09-09T13:12:51Z
KCHS,"Charleston Intl, SC, US",2025-09-09T17:56:00Z,2025-09-09T13:56:00Z,VFR,26.1,13.9,360,9,16,NA,1019,METAR KCHS 091756Z 36009G16KT 10SM BKN200 26/14 A3009 RMK AO2 SLP189 T02610139 10261 20178 58007,2025-09-09T18:09:20Z,2025-09-09T14:09:20Z
KCHS,"Charleston Intl, SC, US",2025-09-09T18:56:00Z,2025-09-09T14:56:00Z,VFR,25.6,13.3,20,9,0,NA,1018.4,METAR KCHS 091856Z 02009KT 10SM SCT150 BKN200 26/13 A3007 RMK AO2 SLP182 T02560133,2025-09-09T19:00:56Z,2025-09-09T15:00:56Z
KCHS,"Charleston Intl, SC, US",2025-09-09T19:56:00Z,2025-09-09T15:56:00Z,VFR,24.4,13.3,10,10,0,NA,1017.7,METAR KCHS 091956Z 01010KT 10SM BKN150 BKN200 24/13 A3005 RMK AO2 SLP176 T02440133,2025-09-09T20:10:15Z,2025-09-09T16:10:15Z
KCHS,"Charleston Intl, SC, US",2025-09-09T20:56:00Z,2025-09-09T16:56:00Z,VFR,25,13.9,20,8,0,NA,1017.4,METAR KCHS 092056Z 02008KT 10SM SCT150 BKN200 25/14 A3004 RMK AO2 SLP173 T02500139 56017,2025-09-09T21:12:42Z,2025-09-09T17:12:42Z
KCHS,"Charleston Intl, SC, US",2025-09-09T21:56:00Z,2025-09-09T17:56:00Z,VFR,25.6,12.8,20,9,0,NA,1017,METAR KCHS 092156Z 02009KT 10SM FEW150 BKN200 26/13 A3003 RMK AO2 SLP169 T02560128,2025-09-09T22:00:08Z,2025-09-09T18:00:08Z
KCHS,"Charleston Intl, SC, US",2025-09-09T22:56:00Z,2025-09-09T18:56:00Z,VFR,23.9,13.3,10,8,0,NA,1017.4,METAR KCHS 092256Z 01008KT 10SM SCT150 BKN200 24/13 A3004 RMK AO2 SLP171 T02390133,2025-09-09T22:58:31Z,2025-09-09T18:58:31Z
KCHS,"Charleston Intl, SC, US",2025-09-09T23:56:00Z,2025-09-09T19:56:00Z,VFR,22.2,13.3,360,7,0,NA,1017.7,METAR KCHS 092356Z 36007KT 10SM FEW100 SCT150 BKN200 22/13 A3005 RMK AO2 SLP175 T02220133 10261 20222 53002,2025-09-10T00:12:38Z,2025-09-09T20:12:38Z
KCHS,"Charleston Intl, SC, US",2025-09-10T00:56:00Z,2025-09-09T20:56:00Z,VFR,21.1,13.9,10,7,0,NA,1018,METAR KCHS 100056Z 01007KT 10SM FEW120 BKN200 21/14 A3006 RMK AO2 SLP179 T02110139,2025-09-10T01:11:29Z,2025-09-09T21:11:29Z
KCID,"Cedar Rapids/E Iowa Arpt, IA, US",2025-09-09T23:52:00Z,2025-09-09T19:52:00Z,VFR,21.1,10.6,140,5,0,NA,1016.7,METAR KCID 092352Z 14005KT 10SM CLR 21/11 A3002 RMK AO2 SLP165 T02110106 10256 20211 56002,2025-09-10T00:12:39Z,2025-09-09T20:12:39Z
KCID,"Cedar Rapids/E Iowa Arpt, IA, US",2025-09-10T00:52:00Z,2025-09-09T20:52:00Z,VFR,18.9,11.1,150,4,0,NA,1016.7,METAR KCID 100052Z 15004KT 10SM CLR 19/11 A3002 RMK AO2 SLP166 T01890111,2025-09-10T01:11:29Z,2025-09-09T21:11:29Z
KCIU,"Chippewa Cnty Intl, MI, US",2025-09-09T23:56:00Z,2025-09-09T19:56:00Z,VFR,17.2,12.2,130,6,0,NA,1019.4,METAR KCIU 092356Z AUTO 13006KT 10SM BKN085 17/12 A3010 RMK AO2 RAE08 SLP192 P0000 60000 T01720122 10206 20172 58003,2025-09-10T00:12:38Z,2025-09-09T20:12:38Z
KCIU,"Chippewa Cnty Intl, MI, US",2025-09-10T00:56:00Z,2025-09-09T20:56:00Z,VFR,17.2,11.1,0,0,0,NA,1020.1,METAR KCIU 100056Z AUTO 00000KT 10SM OVC080 17/11 A3012 RMK AO2 SLP201 T01720111,2025-09-10T01:11:29Z,2025-09-09T21:11:29Z
KCKB,"Clarksburg/NC West Virginia Arpt, WV, US",2025-09-09T23:53:00Z,2025-09-09T19:53:00Z,VFR,NA,NA,20,6,0,NA,1021.4,METAR KCKB 092353Z AUTO 02006KT 10SM CLR A3016 RMK AO2 SLPNO 56003 $,2025-09-10T00:12:39Z,2025-09-09T20:12:39Z
KCKB,"Clarksburg/NC West Virginia Arpt, WV, US",2025-09-10T00:53:00Z,2025-09-09T20:53:00Z,VFR,NA,NA,0,0,0,NA,1021.8,METAR KCKB 100053Z AUTO 00000KT 10SM CLR A3017 RMK AO2 SLPNO $,2025-09-10T01:11:29Z,2025-09-09T21:11:29Z
KCLE,"Cleveland/Hopkins Intl, OH, US",2025-09-09T14:51:00Z,2025-09-09T10:51:00Z,VFR,20,7.8,170,7,0,NA,1024.8,METAR KCLE 091451Z 17007KT 10SM FEW250 20/08 A3026 RMK AO2 SLP259 T02000078 56002,2025-09-09T15:51:29Z,2025-09-09T11:51:29Z
KCLE,"Cleveland/Hopkins Intl, OH, US",2025-09-09T15:51:00Z,2025-09-09T11:51:00Z,VFR,22.2,6.1,130,6,0,NA,1024.1,METAR KCLE 091551Z 13006KT 10SM FEW250 22/06 A3024 RMK AO2 SLP254 T02220061,2025-09-09T16:06:02Z,2025-09-09T12:06:02Z
KCLE,"Cleveland/Hopkins Intl, OH, US",2025-09-09T16:51:00Z,2025-09-09T12:51:00Z,VFR,22.8,5.6,150,7,0,NA,1023.8,METAR KCLE 091651Z 15007KT 120V180 10SM CLR 23/06 A3023 RMK AO2 SLP249 T02280056,2025-09-09T16:54:02Z,2025-09-09T12:54:02Z
KCLE,"Cleveland/Hopkins Intl, OH, US",2025-09-09T17:51:00Z,2025-09-09T13:51:00Z,VFR,23.3,6.7,VAR,6,0,NA,1023.1,METAR KCLE 091751Z VRB06KT 10SM CLR 23/07 A3021 RMK AO2 SLP244 T02330067 10239 20089 58015,2025-09-09T18:09:20Z,2025-09-09T14:09:20Z
KCLE,"Cleveland/Hopkins Intl, OH, US",2025-09-09T18:51:00Z,2025-09-09T14:51:00Z,VFR,24.4,7.2,VAR,3,0,NA,1022.4,METAR KCLE 091851Z VRB03KT 10SM CLR 24/07 A3019 RMK AO2 SLP237 T02440072,2025-09-09T19:00:56Z,2025-09-09T15:00:56Z
KCLE,"Cleveland/Hopkins Intl, OH, US",2025-09-09T19:51:00Z,2025-09-09T15:51:00Z,VFR,23.9,6.7,190,8,0,NA,1022.1,METAR KCLE 091951Z 19008KT 10SM FEW250 24/07 A3018 RMK AO2 SLP232 T02390067 $,2025-09-09T20:10:15Z,2025-09-09T16:10:15Z
KCLE,"Cleveland/Hopkins Intl, OH, US",2025-09-09T20:51:00Z,2025-09-09T16:51:00Z,VFR,22.8,10.6,360,10,0,NA,1021.8,METAR KCLE 092051Z 36010KT 10SM FEW250 23/11 A3017 RMK AO2 SLP229 T02280106 56015 $,2025-09-09T20:54:00Z,2025-09-09T16:54:00Z
KCLE,"Cleveland/Hopkins Intl, OH, US",2025-09-09T21:51:00Z,2025-09-09T17:51:00Z,VFR,21.7,10,10,9,0,NA,1021.4,METAR KCLE 092151Z 01009KT 10SM FEW250 22/10 A3016 RMK AO2 SLP229 T02170100 $,2025-09-09T22:00:08Z,2025-09-09T18:00:08Z
KCLE,"Cleveland/Hopkins Intl, OH, US",2025-09-09T22:51:00Z,2025-09-09T18:51:00Z,VFR,20,11.1,20,9,0,NA,1021.4,METAR KCLE 092251Z 02009KT 10SM BKN250 20/11 A3016 RMK AO2 SLP227 T02000111 $,2025-09-09T22:58:31Z,2025-09-09T18:58:31Z
KCLE,"Cleveland/Hopkins Intl, OH, US",2025-09-09T23:51:00Z,2025-09-09T19:51:00Z,VFR,18.3,12.2,10,4,0,NA,1021.1,METAR KCLE 092351Z 01004KT 10SM BKN250 18/12 A3015 RMK AO2 SLP227 T01830122 10244 20183 57004 $,2025-09-09T23:52:53Z,2025-09-09T19:52:53Z
KCLE,"Cleveland/Hopkins Intl, OH, US",2025-09-10T00:51:00Z,2025-09-09T20:51:00Z,VFR,17.8,12.8,0,0,0,NA,1021.1,METAR KCLE 100051Z 00000KT 10SM SCT250 18/13 A3015 RMK AO2 SLP225 T01780128 $,2025-09-10T01:11:29Z,2025-09-09T21:11:29Z
KCLL,"College Station/Easterwood Arpt, TX, US",2025-09-09T23:53:00Z,2025-09-09T19:53:00Z,VFR,29.4,12.8,80,5,0,NA,1015,METAR KCLL 092353Z 08005KT 10SM CLR 29/13 A2997 RMK AO2 SLP143 T02940128 10317 20283 56005,2025-09-10T00:12:39Z,2025-09-09T20:12:39Z
KCLL,"College Station/Easterwood Arpt, TX, US",2025-09-10T00:53:00Z,2025-09-09T20:53:00Z,VFR,27.2,12.2,110,5,0,NA,1015.3,METAR KCLL 100053Z 11005KT 10SM CLR 27/12 A2998 RMK AO2 SLP146 T02720122,2025-09-10T01:11:29Z,2025-09-09T21:11:29Z
KCLM,"Port Angeles Intl, WA, US",2025-09-09T23:53:00Z,2025-09-09T19:53:00Z,VFR,18.3,12.8,320,5,0,NA,1013.3,METAR KCLM 092353Z AUTO 32005KT 10SM OVC037 18/13 A2992 RMK AO2 SLP132 T01830128 10194 20156 56010,2025-09-10T00:12:39Z,2025-09-09T20:12:39Z
KCLM,"Port Angeles Intl, WA, US",2025-09-10T00:53:00Z,2025-09-09T20:53:00Z,VFR,15.6,12.8,280,6,0,NA,1013.3,METAR KCLM 100053Z AUTO 28006KT 10SM BKN038 16/13 A2992 RMK AO2 SLP133 T01560128,2025-09-10T01:11:29Z,2025-09-09T21:11:29Z
KCLT,"Charlotte/Douglas Intl, NC, US",2025-09-09T14:52:00Z,2025-09-09T10:52:00Z,VFR,20.6,11.1,50,11,0,NA,1024.5,METAR KCLT 091452Z 05011KT 10SM FEW040 FEW250 21/11 A3025 RMK SLP255 T02060111 $,2025-09-09T15:51:29Z,2025-09-09T11:51:29Z
KCLT,"Charlotte/Douglas Intl, NC, US",2025-09-09T15:52:00Z,2025-09-09T11:52:00Z,VFR,21.7,8.3,50,14,20,NA,1024.1,METAR KCLT 091552Z 05014G20KT 10SM FEW045 FEW250 22/08 A3024 RMK SLP248 T02170083 $,2025-09-09T16:06:02Z,2025-09-09T12:06:02Z
KCLT,"Charlotte/Douglas Intl, NC, US",2025-09-09T16:52:00Z,2025-09-09T12:52:00Z,VFR,22.8,8.3,30,10,18,NA,1023.1,METAR KCLT 091652Z 03010G18KT 10SM FEW045 FEW250 23/08 A3021 RMK SLP240 T02280083 $,2025-09-09T17:12:51Z,2025-09-09T13:12:51Z
KCLT,"Charlotte/Douglas Intl, NC, US",2025-09-09T17:55:00Z,2025-09-09T13:55:00Z,VFR,23,8,20,12,19,NA,1022.4,METAR KCLT 091755Z 02012G19KT 10SM FEW050 FEW250 23/08 A3019,2025-09-09T18:09:20Z,2025-09-09T14:09:20Z
KCLT,"Charlotte/Douglas Intl, NC, US",2025-09-09T18:52:00Z,2025-09-09T14:52:00Z,VFR,23.3,8.9,30,10,0,NA,1021.8,METAR KCLT 091852Z 03010KT 10SM FEW060 FEW250 23/09 A3017 RMK SLP224 T02330089 $,2025-09-09T19:00:56Z,2025-09-09T15:00:56Z
KCLT,"Charlotte/Douglas Intl, NC, US",2025-09-09T19:52:00Z,2025-09-09T15:52:00Z,VFR,23.9,8.9,10,10,0,NA,1021.1,METAR KCLT 091952Z 01010KT 10SM FEW060 FEW250 24/09 A3015 RMK AO2 SLP219 T02390089 $,2025-09-09T20:10:15Z,2025-09-09T16:10:15Z
KCLT,"Charlotte/Douglas Intl, NC, US",2025-09-09T20:52:00Z,2025-09-09T16:52:00Z,VFR,24.4,9.4,50,8,0,NA,1020.7,METAR KCLT 092052Z 05008KT 10SM FEW060 FEW250 24/09 A3014 RMK SLP216 T02440094 $,2025-09-09T21:50:15Z,2025-09-09T17:50:15Z
KCLT,"Charlotte/Douglas Intl, NC, US",2025-09-09T21:52:00Z,2025-09-09T17:52:00Z,VFR,23.9,9.4,360,9,0,NA,1020.4,METAR KCLT 092152Z 36009KT 10SM FEW250 24/09 A3013 RMK AO2 SLP212 T02390094 $,2025-09-09T22:00:08Z,2025-09-09T18:00:08Z
KCLT,"Charlotte/Douglas Intl, NC, US",2025-09-09T22:52:00Z,2025-09-09T18:52:00Z,VFR,22.2,10,360,8,0,NA,1020.4,METAR KCLT 092252Z 36008KT 10SM FEW250 22/10 A3013 RMK AO2 SLP214 T02220100 $,2025-09-09T22:58:31Z,2025-09-09T18:58:31Z
KCLT,"Charlotte/Douglas Intl, NC, US",2025-09-09T23:52:00Z,2025-09-09T19:52:00Z,VFR,20,10,10,6,0,NA,1020.7,METAR KCLT 092352Z 01006KT 10SM FEW050 FEW250 20/10 A3014 RMK SLP216 T02000100 10244 20200 $,2025-09-10T00:12:39Z,2025-09-09T20:12:39Z
KCLT,"Charlotte/Douglas Intl, NC, US",2025-09-10T00:52:00Z,2025-09-09T20:52:00Z,VFR,17.2,10.6,360,5,0,NA,1020.7,METAR KCLT 100052Z 36005KT 10SM FEW250 17/11 A3014 RMK AO2 SLP218 T01720106 $,2025-09-10T01:11:29Z,2025-09-09T21:11:29Z
KCMA,"Camarillo Arpt, CA, US",2025-09-09T23:55:00Z,2025-09-09T19:55:00Z,VFR,23.3,16.7,230,10,0,NA,1010.6,METAR KCMA 092355Z 23010KT 10SM CLR 23/17 A2984 RMK AO2 SLP114 T02330167 10250 20228 56017,2025-09-10T00:12:38Z,2025-09-09T20:12:38Z
KCMA,"Camarillo Arpt, CA, US",2025-09-10T00:55:00Z,2025-09-09T20:55:00Z,VFR,22.2,16.7,250,7,0,NA,1010.6,METAR KCMA 100055Z 25007KT 10SM CLR 22/17 A2984 RMK AO2 SLP113 T02220167,2025-09-10T01:11:29Z,2025-09-09T21:11:29Z
KCMH,"Columbus/Glenn Intl, OH, US",2025-09-09T14:51:00Z,2025-09-09T10:51:00Z,VFR,18.9,7.2,160,4,0,NA,1024.5,METAR KCMH 091451Z 16004KT 10SM FEW250 19/07 A3025 RMK AO2 SLP241 T01890072 55001,2025-09-09T15:51:29Z,2025-09-09T11:51:29Z
KCMH,"Columbus/Glenn Intl, OH, US",2025-09-09T15:51:00Z,2025-09-09T11:51:00Z,VFR,21.1,6.7,VAR,4,0,NA,1024.1,METAR KCMH 091551Z VRB04KT 10SM FEW250 21/07 A3024 RMK AO2 SLP239 T02110067,2025-09-09T16:06:02Z,2025-09-09T12:06:02Z
KCMH,"Columbus/Glenn Intl, OH, US",2025-09-09T16:51:00Z,2025-09-09T12:51:00Z,VFR,22.2,7.2,VAR,6,0,NA,1023.8,METAR KCMH 091651Z VRB06KT 10SM FEW036 SCT250 22/07 A3023 RMK AO2 SLP235 T02220072,2025-09-09T16:54:02Z,2025-09-09T12:54:02Z
KCMH,"Columbus/Glenn Intl, OH, US",2025-09-09T17:51:00Z,2025-09-09T13:51:00Z,VFR,23.9,7.8,VAR,4,0,NA,1023.1,METAR KCMH 091751Z VRB04KT 10SM FEW250 24/08 A3021 RMK AO2 SLP226 T02390078 10239 20094 58014,2025-09-09T18:09:20Z,2025-09-09T14:09:20Z
KCMH,"Columbus/Glenn Intl, OH, US",2025-09-09T18:51:00Z,2025-09-09T14:51:00Z,VFR,25.6,5.6,240,8,0,9,1022.4,METAR KCMH 091851Z 24008KT 9SM FEW250 26/06 A3019 RMK AO2 SLP219 T02560056,2025-09-09T19:00:56Z,2025-09-09T15:00:56Z
KCMH,"Columbus/Glenn Intl, OH, US",2025-09-09T19:51:00Z,2025-09-09T15:51:00Z,VFR,25,5.6,130,3,0,NA,1021.8,METAR KCMH 091951Z 13003KT 10SM FEW250 25/06 A3017 RMK AO2 SLP212 T02500056,2025-09-09T20:10:15Z,2025-09-09T16:10:15Z
KCMH,"Columbus/Glenn Intl, OH, US",2025-09-09T20:51:00Z,2025-09-09T16:51:00Z,VFR,25.6,6.1,VAR,4,0,NA,1021.4,METAR KCMH 092051Z VRB04KT 10SM SCT250 26/06 A3016 RMK AO2 SLP209 T02560061 56017,2025-09-09T20:54:00Z,2025-09-09T16:54:00Z
KCMH,"Columbus/Glenn Intl, OH, US",2025-09-09T21:51:00Z,2025-09-09T17:51:00Z,VFR,24.4,6.1,110,4,0,NA,1021.1,METAR KCMH 092151Z 11004KT 10SM SCT250 24/06 A3015 RMK AO2 SLP209 T02440061,2025-09-09T22:00:08Z,2025-09-09T18:00:08Z
KCMH,"Columbus/Glenn Intl, OH, US",2025-09-09T22:51:00Z,2025-09-09T18:51:00Z,VFR,23.9,6.7,130,6,0,NA,1021.1,METAR KCMH 092251Z 13006KT 10SM BKN250 24/07 A3015 RMK AO2 SLP207 T02390067,2025-09-09T22:58:31Z,2025-09-09T18:58:31Z
KCMH,"Columbus/Glenn Intl, OH, US",2025-09-09T23:51:00Z,2025-09-09T19:51:00Z,VFR,21.7,7.2,120,6,0,NA,1020.7,METAR KCMH 092351Z 12006KT 10SM SCT250 22/07 A3014 RMK AO2 SLP206 T02170072 10261 20217 57004,2025-09-10T00:12:40Z,2025-09-09T20:12:40Z
KCMH,"Columbus/Glenn Intl, OH, US",2025-09-10T00:51:00Z,2025-09-09T20:51:00Z,VFR,19.4,8.3,100,4,0,NA,1021.1,METAR KCMH 100051Z 10004KT 10SM FEW250 19/08 A3015 RMK AO2 SLP206 T01940083,2025-09-10T01:11:29Z,2025-09-09T21:11:29Z
KCMI,"Champaign/Willard Arpt, IL, US",2025-09-09T23:53:00Z,2025-09-09T19:53:00Z,VFR,20,11.1,120,5,0,NA,1019,METAR KCMI 092353Z 12005KT 10SM CLR 20/11 A3009 RMK AO2 SLP188 T02000111 10272 20200 55005,2025-09-10T00:12:39Z,2025-09-09T20:12:39Z
KCMI,"Champaign/Willard Arpt, IL, US",2025-09-10T00:53:00Z,2025-09-09T20:53:00Z,VFR,18.3,11.1,120,6,0,NA,1019,METAR KCMI 100053Z 12006KT 10SM BKN100 18/11 A3009 RMK AO2 SLP188 T01830111,2025-09-10T01:11:29Z,2025-09-09T21:11:29Z
KCMX,"Houghton Cnty Mem, MI, US",2025-09-09T23:53:00Z,2025-09-09T19:53:00Z,MVFR,16.1,13.9,0,0,0,NA,1016.7,METAR KCMX 092353Z AUTO 00000KT 10SM OVC013 16/14 A3002 RMK AO2 SLP165 T01610139 10172 20161 52008,2025-09-10T00:12:39Z,2025-09-09T20:12:39Z
KCMX,"Houghton Cnty Mem, MI, US",2025-09-10T00:53:00Z,2025-09-09T20:53:00Z,MVFR,16.1,13.3,0,0,0,NA,1017,METAR KCMX 100053Z AUTO 00000KT 10SM OVC014 16/13 A3003 RMK AO2 SLP169 T01610133,2025-09-10T01:11:29Z,2025-09-09T21:11:29Z
KCNM,"Carlsbad/Cavern City Air Term, NM, US",2025-09-09T23:53:00Z,2025-09-09T19:53:00Z,VFR,34.4,6.1,220,4,16,NA,1014.3,METAR KCNM 092353Z AUTO 22004G16KT 10SM VCTS CLR 34/06 A2995 RMK AO2 LTG DSNT S AND SW SLP081 T03440061 10372 20311 56001,2025-09-10T00:12:39Z,2025-09-09T20:12:39Z
KCNM,"Carlsbad/Cavern City Air Term, NM, US",2025-09-10T00:53:00Z,2025-09-09T20:53:00Z,VFR,32.2,8.3,210,7,0,NA,1014.3,METAR KCNM 100053Z AUTO 21007KT 10SM CLR 32/08 A2995 RMK AO2 LTG DSNT S SLP083 T03220083,2025-09-10T01:11:29Z,2025-09-09T21:11:29Z
KCNU,"Chanute/Johnson Arpt, KS, US",2025-09-09T23:52:00Z,2025-09-09T19:52:00Z,VFR,23.9,16.1,110,5,0,NA,1015.3,METAR KCNU 092352Z AUTO 11005KT 10SM CLR 24/16 A2998 RMK AO2 SLP145 T02390161 10250 20183 50001,2025-09-10T00:12:39Z,2025-09-09T20:12:39Z
KCNU,"Chanute/Johnson Arpt, KS, US",2025-09-10T00:52:00Z,2025-09-09T20:52:00Z,VFR,21.1,16.1,130,5,0,NA,1015.3,METAR KCNU 100052Z AUTO 13005KT 10SM CLR 21/16 A2998 RMK AO2 SLP145 T02110161,2025-09-10T01:11:29Z,2025-09-09T21:11:29Z
KCNY,"Moab/Canyonland Fld, UT, US",2025-09-09T22:53:00Z,2025-09-09T18:53:00Z,VFR,31.7,3.9,220,9,19,NA,1012.6,METAR KCNY 092253Z AUTO 22009G19KT 170V250 10SM CLR 32/04 A2990 RMK AO2 SLP062 T03170039,2025-09-10T00:12:40Z,2025-09-09T20:12:40Z
KCNY,"Moab/Canyonland Fld, UT, US",2025-09-10T00:53:00Z,2025-09-09T20:53:00Z,VFR,30.6,3.3,220,13,0,NA,1011.6,METAR KCNY 100053Z AUTO 22013KT 10SM CLR 31/03 A2987 RMK AO2 SLP054 T03060033 $,2025-09-10T01:11:29Z,2025-09-09T21:11:29Z
KCOD,"Cody/Yellowstone Rgnl, WY, US",2025-09-09T23:56:00Z,2025-09-09T19:56:00Z,VFR,24.4,3.9,110,4,0,NA,1016,METAR KCOD 092356Z AUTO 11004KT 10SM CLR 24/04 A3000 RMK AO2 SLP109 60001 T02440039 10267 20233 56009,2025-09-10T00:12:38Z,2025-09-09T20:12:38Z
KCOD,"Cody/Yellowstone Rgnl, WY, US",2025-09-10T00:56:00Z,2025-09-09T20:56:00Z,VFR,22.2,4.4,250,8,17,NA,1016,METAR KCOD 100056Z AUTO 25008G17KT 10SM SCT110 22/04 A3000 RMK AO2 SLP116 T02220044,2025-09-10T01:11:29Z,2025-09-09T21:11:29Z
KCOE,"Coeur DAlene Arpt, ID, US",2025-09-09T23:56:00Z,2025-09-09T19:56:00Z,VFR,28.3,8.9,270,4,0,NA,1009.6,METAR KCOE 092356Z AUTO 27004KT 10SM CLR 28/09 A2981 RMK AO2 SLP092 T02830089 10289 20239 56019,2025-09-10T00:12:38Z,2025-09-09T20:12:38Z
KCOE,"Coeur DAlene Arpt, ID, US",2025-09-10T00:56:00Z,2025-09-09T20:56:00Z,VFR,27.8,8.3,0,0,0,NA,1009.2,METAR KCOE 100056Z AUTO 00000KT 10SM CLR 28/08 A2980 RMK AO2 SLP088 T02780083,2025-09-10T01:11:29Z,2025-09-09T21:11:29Z
KCOF,"Cocoa Beach/Patrick(AFB), FL, US",2025-09-10T00:01:00Z,2025-09-09T20:01:00Z,VFR,26,25,0,0,0,NA,1012.3,SPECI KCOF 100001Z AUTO 00000KT 10SM -RA FEW009 26/25 A2989 RMK AO2 RAE2358RAB01 SLP126,2025-09-10T00:12:38Z,2025-09-09T20:12:38Z
KCOF,"Cocoa Beach/Patrick(AFB), FL, US",2025-09-10T00:16:00Z,2025-09-09T20:16:00Z,MVFR,26,24,200,5,0,8,1012.6,SPECI KCOF 100016Z AUTO 20005KT 8SM RA SCT007 BKN020 26/24 A2990 RMK AO2 LTG DSNT E-SE RAE2358RAB01 BKN V SCT CIG 013 RWY21 SLP130,2025-09-10T00:33:17Z,2025-09-09T20:33:17Z
KCOF,"Cocoa Beach/Patrick(AFB), FL, US",2025-09-10T00:55:00Z,2025-09-09T20:55:00Z,VFR,25.3,24.1,260,3,0,NA,1012.6,METAR KCOF 100055Z AUTO 26003KT 10SM -RA CLR 25/24 A2990 RMK AO2 RAE2358RAB01 SLP130 P0006 T02530241,2025-09-10T01:11:29Z,2025-09-09T21:11:29Z
KCON,"Concord Muni, NH, US",2025-09-09T23:51:00Z,2025-09-09T19:51:00Z,VFR,16.1,7.8,120,4,0,NA,1027.5,METAR KCON 092351Z AUTO 12004KT 10SM CLR 16/08 A3034 RMK AO2 SLP275 T01610078 10233 20161 53001 $,2025-09-10T00:12:40Z,2025-09-09T20:12:40Z
KCON,"Concord Muni, NH, US",2025-09-10T00:51:00Z,2025-09-09T20:51:00Z,VFR,14.4,8.9,120,3,0,NA,1027.9,METAR KCON 100051Z AUTO 12003KT 10SM CLR 14/09 A3035 RMK AO2 SLP278 T01440089 $,2025-09-10T01:11:29Z,2025-09-09T21:11:29Z
KCOS,"Colorado Spring Arpt, CO, US",2025-09-09T14:54:00Z,2025-09-09T10:54:00Z,VFR,21.7,4.4,0,0,0,NA,1022.8,METAR KCOS 091454Z 00000KT 10SM SCT100 SCT250 22/04 A3020 RMK AO2 SLP140 T02170044 50002 $,2025-09-09T15:51:30Z,2025-09-09T11:51:30Z
KCOS,"Colorado Spring Arpt, CO, US",2025-09-09T15:54:00Z,2025-09-09T11:54:00Z,VFR,22.8,5,VAR,3,0,NA,1022.4,METAR KCOS 091554Z VRB03KT 10SM SCT110 BKN250 23/05 A3019 RMK AO2 SLP133 T02280050 $,2025-09-09T16:06:03Z,2025-09-09T12:06:03Z
KCOS,"Colorado Spring Arpt, CO, US",2025-09-09T16:54:00Z,2025-09-09T12:54:00Z,VFR,24.4,4.4,220,6,0,NA,1022.1,METAR KCOS 091654Z 22006KT 10SM SCT110 SCT250 24/04 A3018 RMK AO2 SLP132 T02440044 $,2025-09-09T17:12:54Z,2025-09-09T13:12:54Z
KCOS,"Colorado Spring Arpt, CO, US",2025-09-09T17:54:00Z,2025-09-09T13:54:00Z,VFR,26.1,5,210,5,0,NA,1021.8,METAR KCOS 091754Z 21005KT 10SM SCT110 SCT250 26/05 A3017 RMK AO2 SLP127 T02610050 10261 20106 57008 $,2025-09-09T18:09:21Z,2025-09-09T14:09:21Z
KCOS,"Colorado Spring Arpt, CO, US",2025-09-09T18:54:00Z,2025-09-09T14:54:00Z,VFR,25.6,2.2,210,6,0,NA,1021.1,METAR KCOS 091854Z 21006KT 10SM SCT110 BKN250 26/02 A3015 RMK AO2 SLP126 T02560022 $,2025-09-09T19:00:57Z,2025-09-09T15:00:57Z
KCOS,"Colorado Spring Arpt, CO, US",2025-09-09T19:54:00Z,2025-09-09T15:54:00Z,VFR,27.2,3.9,200,8,0,NA,1020.4,METAR KCOS 091954Z 20008KT 10SM SCT110 BKN230 27/04 A3013 RMK AO2 SLP116 T02720039 $,2025-09-09T20:10:18Z,2025-09-09T16:10:18Z
KCOS,"Colorado Spring Arpt, CO, US",2025-09-09T20:40:00Z,2025-09-09T16:40:00Z,VFR,26.1,3.3,170,10,19,NA,1020.1,SPECI KCOS 092040Z 17010G19KT 10SM TS SCT110CB SCT160 BKN230 26/03 A3012 RMK AO2 TSB40 OCNL LTGICCG VC W TS VC W MOV E T02610033 $,2025-09-09T20:43:26Z,2025-09-09T16:43:26Z
KCOS,"Colorado Spring Arpt, CO, US",2025-09-09T20:59:00Z,2025-09-09T16:59:00Z,VFR,25.6,2.8,190,9,0,NA,1020.1,SPECI KCOS 092059Z 19009KT 10SM SCT110 SCT160 BKN230 26/03 A3012 RMK AO2 TSE59 VCSH W T02560028 $,2025-09-09T21:12:45Z,2025-09-09T17:12:45Z
KCOS,"Colorado Spring Arpt, CO, US",2025-09-09T21:54:00Z,2025-09-09T17:54:00Z,VFR,26.1,4.4,70,4,0,NA,1019.7,METAR KCOS 092154Z 07004KT 10SM FEW080 SCT120 BKN250 26/04 A3011 RMK AO2 RAB22E37 TSE2059 SLP114 CB DSNT NE MOV E P0002 T02610044 $,2025-09-09T22:00:10Z,2025-09-09T18:00:10Z
KCOS,"Colorado Spring Arpt, CO, US",2025-09-09T22:32:00Z,2025-09-09T18:32:00Z,VFR,22.2,5.6,350,20,28,NA,1020.1,SPECI KCOS 092232Z 35020G28KT 10SM -RA FEW080 SCT110 BKN240 22/06 A3012 RMK AO2 PK WND 36028/2229 RAB32 CB DSNT NE MOV E P0000 T02220056 $,2025-09-09T22:37:48Z,2025-09-09T18:37:48Z
KCOS,"Colorado Spring Arpt, CO, US",2025-09-09T22:54:00Z,2025-09-09T18:54:00Z,VFR,22.2,7.8,30,18,0,NA,1019.7,METAR KCOS 092254Z 03018KT 10SM FEW060 BKN120 BKN240 22/08 A3011 RMK AO2 PK WND 36028/2229 RAB32E50 SLP122 VCSH NE-E P0000 T02220078 $,2025-09-09T22:58:33Z,2025-09-09T18:58:33Z
KCOS,"Colorado Spring Arpt, CO, US",2025-09-09T23:54:00Z,2025-09-09T19:54:00Z,VFR,21.7,6.7,50,14,0,NA,1020.1,METAR KCOS 092354Z 05014KT 10SM FEW090 BKN140 BKN250 22/07 A3012 RMK AO2 SLP129 CB DSNT E MOV E 60002 T02170067 10278 20217 53001 $,2025-09-10T00:12:39Z,2025-09-09T20:12:39Z
KCOS,"Colorado Spring Arpt, CO, US",2025-09-10T00:54:00Z,2025-09-09T20:54:00Z,VFR,20.6,6.7,350,11,0,NA,1021.1,METAR KCOS 100054Z 35011KT 10SM FEW090 BKN130 BKN250 21/07 A3015 RMK AO2 SLP144 CB DSNT S MOV NE T02060067 $,2025-09-10T01:11:29Z,2025-09-09T21:11:29Z
KCOU,"Columbia Rgnl, MO, US",2025-09-09T23:54:00Z,2025-09-09T19:54:00Z,VFR,23.9,7.8,70,3,0,NA,1017,METAR KCOU 092354Z 07003KT 10SM CLR 24/08 A3003 RMK AO2 SLP164 T02390078 10267 20239 56000 $,2025-09-10T00:12:39Z,2025-09-09T20:12:39Z
KCOU,"Columbia Rgnl, MO, US",2025-09-10T00:54:00Z,2025-09-09T20:54:00Z,VFR,21.1,7.8,70,5,0,NA,1017,METAR KCOU 100054Z 07005KT 10SM CLR 21/08 A3003 RMK AO2 SLP164 T02110078 $,2025-09-10T01:11:29Z,2025-09-09T21:11:29Z
KCPR,"Casper/Natrona Cnty, WY, US",2025-09-09T23:53:00Z,2025-09-09T19:53:00Z,VFR,25.6,2.2,220,4,0,NA,1015.7,METAR KCPR 092353Z 22004KT 10SM FU CLR 26/02 A2999 RMK AO2 SLP102 T02560022 10278 20217 56014,2025-09-10T00:12:39Z,2025-09-09T20:12:39Z
KCPR,"Casper/Natrona Cnty, WY, US",2025-09-10T00:53:00Z,2025-09-09T20:53:00Z,VFR,23.3,2.8,VAR,5,0,NA,1015.7,METAR KCPR 100053Z VRB05KT 10SM FU CLR 23/03 A2999 RMK AO2 SLP106 T02330028,2025-09-10T01:11:29Z,2025-09-09T21:11:29Z
KCRE,"North Myrtle Beach/Grand Strand Arpt, SC, US",2025-09-09T23:53:00Z,2025-09-09T19:53:00Z,MVFR,22.8,17.8,30,9,0,NA,1017.4,METAR KCRE 092353Z 03009KT 10SM OVC026 23/18 A3004 RMK AO1 SLP174 T02280178 10250 20228 53003,2025-09-10T00:12:39Z,2025-09-09T20:12:39Z
KCRE,"North Myrtle Beach/Grand Strand Arpt, SC, US",2025-09-10T00:53:00Z,2025-09-09T20:53:00Z,MVFR,22.2,17.8,10,7,0,NA,1018,METAR KCRE 100053Z 01007KT 10SM OVC028 22/18 A3006 RMK AO1 SLP180 T02220178,2025-09-10T01:11:29Z,2025-09-09T21:11:29Z
KCRG,"Jacksonville/Executive at Craig Arpt, FL, US",2025-09-09T23:53:00Z,2025-09-09T19:53:00Z,VFR,23.9,20.6,40,13,20,NA,1016,METAR KCRG 092353Z 04013G20KT 10SM SCT024 BKN033 24/21 A3000 RMK AO2 SLP159 60002 T02390206 10261 20239 52004,2025-09-10T00:12:39Z,2025-09-09T20:12:39Z
KCRG,"Jacksonville/Executive at Craig Arpt, FL, US",2025-09-10T00:53:00Z,2025-09-09T20:53:00Z,VFR,24.4,20,30,12,0,NA,1016.7,METAR KCRG 100053Z 03012KT 10SM CLR 24/20 A3002 RMK AO2 SLP164 T02440200,2025-09-10T01:11:29Z,2025-09-09T21:11:29Z
KCRP,"Corpus Christi Intl, TX, US",2025-09-09T23:51:00Z,2025-09-09T19:51:00Z,VFR,30,21.7,110,14,0,NA,1013.6,METAR KCRP 092351Z 11014KT 10SM FEW030 FEW040 FEW250 30/22 A2993 RMK AO2 SLP135 CB DSNT E SE MOV E TCU DSNT E T03000217 10333 20300 55000,2025-09-10T00:12:40Z,2025-09-09T20:12:40Z
KCRP,"Corpus Christi Intl, TX, US",2025-09-10T00:51:00Z,2025-09-09T20:51:00Z,VFR,28.9,22.2,90,13,0,NA,1014,METAR KCRP 100051Z 09013KT 10SM FEW022 FEW030 FEW250 29/22 A2994 RMK AO2 SLP139 T02890222 $,2025-09-10T01:11:29Z,2025-09-09T21:11:29Z
KCRQ,"Carlsbad/Palomar Arpt, CA, US",2025-09-09T23:53:00Z,2025-09-09T19:53:00Z,VFR,21.1,16.1,VAR,6,0,NA,1010.9,METAR KCRQ 092353Z AUTO VRB06KT 10SM CLR 21/16 A2985 RMK AO2 SLP106 T02110161 10233 20211 56014,2025-09-10T00:12:39Z,2025-09-09T20:12:39Z
KCRQ,"Carlsbad/Palomar Arpt, CA, US",2025-09-10T00:53:00Z,2025-09-09T20:53:00Z,VFR,21.1,16.1,250,5,0,NA,1010.9,METAR KCRQ 100053Z AUTO 25005KT 10SM CLR 21/16 A2985 RMK AO2 SLP105 T02110161,2025-09-10T01:11:29Z,2025-09-09T21:11:29Z
KCRW,"Charleston/Yeager Arpt, WV, US",2025-09-09T23:54:00Z,2025-09-09T19:54:00Z,VFR,19.4,9.4,0,0,0,NA,1020.7,METAR KCRW 092354Z 00000KT 10SM CLR 19/09 A3014 RMK AO2 SLP205 T01940094 10256 20194 56006 $,2025-09-10T00:12:39Z,2025-09-09T20:12:39Z
KCRW,"Charleston/Yeager Arpt, WV, US",2025-09-10T00:54:00Z,2025-09-09T20:54:00Z,VFR,16.1,10,150,3,0,NA,1021.1,METAR KCRW 100054Z 15003KT 10SM CLR 16/10 A3015 RMK AO2 SLP210 T01610100 $,2025-09-10T01:11:29Z,2025-09-09T21:11:29Z
KCSG,"Columbus Arpt, GA, US",2025-09-09T22:51:00Z,2025-09-09T18:51:00Z,NA,28.3,13.9,60,10,0,NA,1017.4,METAR KCSG 092251Z AUTO 06010KT 10SM 28/14 A3004 RMK AO2 SLP168 T02830139 $,2025-09-10T00:12:40Z,2025-09-09T20:12:40Z
KCTB,"Cut Bank Muni, MT, US",2025-09-09T23:56:00Z,2025-09-09T19:56:00Z,VFR,21.7,5.6,300,8,0,NA,1013,METAR KCTB 092356Z AUTO 30008KT 10SM CLR 22/06 A2991 RMK AO2 SLP111 T02170056 10272 20217 58005,2025-09-10T00:12:38Z,2025-09-09T20:12:38Z
KCTB,"Cut Bank Muni, MT, US",2025-09-10T00:56:00Z,2025-09-09T20:56:00Z,VFR,21.1,5.6,250,9,20,NA,1013.6,METAR KCTB 100056Z AUTO 25009G20KT 10SM BKN095 21/06 A2993 RMK AO2 LTG DSNT SW PRESRR SLP121 T02110056,2025-09-10T01:11:31Z,2025-09-09T21:11:31Z
KCUB,"Columbia/Downtown Arpt, SC, US",2025-09-09T23:53:00Z,2025-09-09T19:53:00Z,VFR,21.7,11.1,0,0,0,NA,1019,METAR KCUB 092353Z AUTO 00000KT 10SM CLR 22/11 A3009 RMK AO2 SLP189 T02170111 10261 20217 53004,2025-09-10T00:12:39Z,2025-09-09T20:12:39Z
KCUB,"Columbia/Downtown Arpt, SC, US",2025-09-10T00:53:00Z,2025-09-09T20:53:00Z,VFR,20.6,11.7,0,0,0,NA,1019.7,METAR KCUB 100053Z AUTO 00000KT 10SM CLR 21/12 A3011 RMK AO2 SLP195 T02060117,2025-09-10T01:11:31Z,2025-09-09T21:11:31Z
KCVG,"Cincinnati Intl, KY, US",2025-09-09T14:52:00Z,2025-09-09T10:52:00Z,VFR,19.4,8.3,130,4,0,NA,1023.5,METAR KCVG 091452Z 13004KT 10SM FEW250 19/08 A3022 RMK AO2 SLP228 T01940083 53002,2025-09-09T15:51:29Z,2025-09-09T11:51:29Z
KCVG,"Cincinnati Intl, KY, US",2025-09-09T15:52:00Z,2025-09-09T11:52:00Z,VFR,21.7,8.3,130,5,0,NA,1023.5,METAR KCVG 091552Z 13005KT 10SM FEW250 22/08 A3022 RMK AO2 SLP226 T02170083,2025-09-09T16:06:02Z,2025-09-09T12:06:02Z
KCVG,"Cincinnati Intl, KY, US",2025-09-09T16:52:00Z,2025-09-09T12:52:00Z,VFR,23.3,8.3,160,5,0,NA,1023.1,METAR KCVG 091652Z 16005KT 10SM FEW060 FEW250 23/08 A3021 RMK AO2 SLP221 T02330083,2025-09-09T17:12:51Z,2025-09-09T13:12:51Z
KCVG,"Cincinnati Intl, KY, US",2025-09-09T17:52:00Z,2025-09-09T13:52:00Z,VFR,23.3,7.8,140,4,0,NA,1022.4,METAR KCVG 091752Z 14004KT 10SM FEW065 SCT250 23/08 A3019 RMK AO2 SLP216 T02330078 10239 20133 58011,2025-09-09T18:09:20Z,2025-09-09T14:09:20Z
KCVG,"Cincinnati Intl, KY, US",2025-09-09T18:52:00Z,2025-09-09T14:52:00Z,VFR,24.4,7.8,140,10,15,NA,1021.8,METAR KCVG 091852Z 14010G15KT 10SM FEW250 24/08 A3017 RMK AO2 SLP208 T02440078,2025-09-09T19:00:56Z,2025-09-09T15:00:56Z
KCVG,"Cincinnati Intl, KY, US",2025-09-09T19:52:00Z,2025-09-09T15:52:00Z,VFR,25,7.2,110,7,0,NA,1020.7,METAR KCVG 091952Z 11007KT 10SM SCT250 25/07 A3014 RMK AO2 SLP200 T02500072,2025-09-09T20:10:15Z,2025-09-09T16:10:15Z
KCVG,"Cincinnati Intl, KY, US",2025-09-09T20:52:00Z,2025-09-09T16:52:00Z,VFR,25.6,6.7,110,7,0,NA,1020.4,METAR KCVG 092052Z 11007KT 10SM FEW250 26/07 A3013 RMK AO2 SLP197 T02560067 56018,2025-09-09T21:12:42Z,2025-09-09T17:12:42Z
KCVG,"Cincinnati Intl, KY, US",2025-09-09T21:52:00Z,2025-09-09T17:52:00Z,VFR,25,7.8,170,7,0,NA,1020.4,METAR KCVG 092152Z 17007KT 10SM FEW250 25/08 A3013 RMK AO2 SLP194 T02500078,2025-09-09T22:00:08Z,2025-09-09T18:00:08Z
KCVG,"Cincinnati Intl, KY, US",2025-09-09T22:52:00Z,2025-09-09T18:52:00Z,VFR,23.9,8.3,VAR,6,0,NA,1019.7,METAR KCVG 092252Z VRB06KT 10SM FEW250 24/08 A3011 RMK AO2 SLP191 T02390083,2025-09-09T22:58:31Z,2025-09-09T18:58:31Z
KCVG,"Cincinnati Intl, KY, US",2025-09-09T23:52:00Z,2025-09-09T19:52:00Z,VFR,21.1,7.8,180,5,0,NA,1020.1,METAR KCVG 092352Z 18005KT 10SM FEW250 21/08 A3012 RMK AO2 SLP193 T02110078 10256 20206 55006,2025-09-10T00:12:40Z,2025-09-09T20:12:40Z
KCVG,"Cincinnati Intl, KY, US",2025-09-10T00:52:00Z,2025-09-09T20:52:00Z,VFR,21.1,7.2,110,3,0,NA,1020.1,METAR KCVG 100052Z 11003KT 10SM FEW250 21/07 A3012 RMK AO2 SLP193 T02110072,2025-09-10T01:11:31Z,2025-09-09T21:11:31Z
KCVN,"Clovis Muni, NM, US",2025-09-09T23:56:00Z,2025-09-09T19:56:00Z,VFR,31.1,10,180,20,24,NA,1016.3,METAR KCVN 092356Z AUTO 18020G24KT 10SM CLR 31/10 A3001 RMK AO2 LTG DSNT NE AND E SLP120 T03110100 10344 20300 56008 $,2025-09-10T00:12:38Z,2025-09-09T20:12:38Z
KCVN,"Clovis Muni, NM, US",2025-09-10T00:56:00Z,2025-09-09T20:56:00Z,VFR,27.8,13.9,170,12,0,NA,1017,METAR KCVN 100056Z AUTO 17012KT 10SM CLR 28/14 A3003 RMK AO2 SLP132 T02780139 $,2025-09-10T01:11:31Z,2025-09-09T21:11:31Z
KCVO,"Corvallis Muni, OR, US",2025-09-09T23:56:00Z,2025-09-09T19:56:00Z,VFR,23.3,15.6,150,3,0,NA,1012.3,METAR KCVO 092356Z 15003KT 10SM BKN034 BKN047 OVC060 23/16 A2989 RMK AO2 SLP122 T02330156 10239 20194 56016,2025-09-10T00:12:38Z,2025-09-09T20:12:38Z
KCVO,"Corvallis Muni, OR, US",2025-09-10T01:02:00Z,2025-09-09T21:02:00Z,IFR,19,16,240,6,0,1,1013,SPECI KCVO 100102Z 24006KT 1SM +TSRA FEW007 SCT013 OVC027 19/16 A2991 RMK AO2 LTG DSNT E P0032 RVRNO,2025-09-10T01:11:31Z,2025-09-09T21:11:31Z
KCVS,"Clovis/Cannon AFB, NM, US",2025-09-09T23:55:00Z,2025-09-09T19:55:00Z,VFR,31.1,7.5,170,15,0,NA,1015.3,METAR KCVS 092355Z 17015KT 10SM FEW120 SCT200 31/08 A2998 RMK AO2A SLP089 T03110075 10349 20300 57008 $,2025-09-10T00:12:38Z,2025-09-09T20:12:38Z
KCVS,"Clovis/Cannon AFB, NM, US",2025-09-10T00:55:00Z,2025-09-09T20:55:00Z,VFR,28.8,9,160,14,0,NA,1016,METAR KCVS 100055Z 16014KT 10SM FEW120 SCT140 29/09 A3000 RMK AO2A SLP099 T02880090 $,2025-09-10T01:11:31Z,2025-09-09T21:11:31Z
KCWA,"Mosinee/C Wisconsin Arpt, WI, US",2025-09-09T23:50:00Z,2025-09-09T19:50:00Z,VFR,19,13,190,5,0,NA,1017,METAR KCWA 092350Z 19005KT 10SM SCT060 OVC085 19/13 A3003,2025-09-10T00:12:40Z,2025-09-09T20:12:40Z
KCWA,"Mosinee/C Wisconsin Arpt, WI, US",2025-09-10T00:50:00Z,2025-09-09T20:50:00Z,VFR,19,13,170,3,0,NA,1017.4,METAR KCWA 100050Z 17003KT 10SM OVC055 19/13 A3004,2025-09-10T01:11:31Z,2025-09-09T21:11:31Z
KCXO,"Conroe/Executive Arpt, TX, US",2025-09-09T23:53:00Z,2025-09-09T19:53:00Z,VFR,28.3,15,0,0,0,NA,1015.3,METAR KCXO 092353Z 00000KT 10SM CLR 28/15 A2998 RMK AO2 SLP148 T02830150 10317 20283 56003,2025-09-10T00:12:39Z,2025-09-09T20:12:39Z
KCXO,"Conroe/Executive Arpt, TX, US",2025-09-10T00:53:00Z,2025-09-09T20:53:00Z,VFR,21.7,17.2,0,0,0,NA,1015.3,METAR KCXO 100053Z 00000KT 10SM CLR 22/17 A2998 RMK AO2 SLP151 T02170172,2025-09-10T01:11:31Z,2025-09-09T21:11:31Z
KCYS,"Cheyenne Rgnl, WY, US",2025-09-09T23:53:00Z,2025-09-09T19:53:00Z,VFR,22.8,4.4,280,8,0,NA,1020.4,METAR KCYS 092353Z 28008KT 10SM SCT110 23/04 A3013 RMK AO2 LTG DSNT NW PRESRR SLP128 60002 T02280044 10250 20161 53003,2025-09-10T00:12:39Z,2025-09-09T20:12:39Z
KCYS,"Cheyenne Rgnl, WY, US",2025-09-10T00:53:00Z,2025-09-09T20:53:00Z,VFR,19.4,7.8,0,0,0,NA,1020.7,METAR KCYS 100053Z 00000KT 10SM SCT090 BKN110 19/08 A3014 RMK AO2 PK WND 29047/0004 RAB04E25 SLP138 P0000 T01940078,2025-09-10T01:11:31Z,2025-09-09T21:11:31Z
KDAA,"Fort Belvoir/Davison(AAF), VA, US",2025-09-09T23:55:00Z,2025-09-09T19:55:00Z,VFR,21.8,12.6,0,0,0,NA,1021.4,METAR KDAA 092355Z AUTO 00000KT 10SM OVC050 22/13 A3016 RMK AO2 SLP216 T02180126 10252 20218 55002 $,2025-09-10T00:12:39Z,2025-09-09T20:12:39Z
KDAA,"Fort Belvoir/Davison(AAF), VA, US",2025-09-10T00:55:00Z,2025-09-09T20:55:00Z,VFR,20.4,13.3,0,0,0,NA,1022.1,METAR KDAA 100055Z AUTO 00000KT 10SM CLR 20/13 A3018 RMK AO2 SLP222 T02040133 $,2025-09-10T01:11:31Z,2025-09-09T21:11:31Z
KDAB,"Daytona Beach Intl, FL, US",2025-09-09T23:55:00Z,2025-09-09T19:55:00Z,IFR,23.9,22.8,40,15,28,1,1014,SPECI KDAB 092355Z 04015G28KT 1SM +RA BR SCT007 BKN016 OVC028 24/23 A2994 RMK AO2 P0002 T02390228 RVRNO,2025-09-10T00:12:39Z,2025-09-09T20:12:39Z
KDAB,"Daytona Beach Intl, FL, US",2025-09-10T00:14:00Z,2025-09-09T20:14:00Z,IFR,23.9,22.8,30,23,35,2,1014,SPECI KDAB 100014Z 03023G35KT 2SM +RA BR BKN007 BKN016 OVC028 24/23 A2994 RMK AO2 PK WND 03035/0007 P0038 T02390228,2025-09-10T00:33:20Z,2025-09-09T20:33:20Z
KDAB,"Daytona Beach Intl, FL, US",2025-09-10T00:53:00Z,2025-09-09T20:53:00Z,IFR,23.9,22.8,40,22,31,2,1014.6,METAR KDAB 100053Z 04022G31KT 2SM +RA BR BKN007 OVC010 24/23 A2996 RMK AO2 PK WND 03035/0007 SLP145 P0120 T02390228,2025-09-10T01:11:31Z,2025-09-09T21:11:31Z
KDAG,"Barstow/Daggett Cnty, CA, US",2025-09-09T23:50:00Z,2025-09-09T19:50:00Z,VFR,33.9,0.6,240,13,23,NA,1007.9,METAR KDAG 092350Z AUTO 24013G23KT 10SM CLR 34/01 A2976 RMK AO2 SLP051 T03390006 10350 20289 56018,2025-09-10T00:12:40Z,2025-09-09T20:12:40Z
KDAG,"Barstow/Daggett Cnty, CA, US",2025-09-10T00:50:00Z,2025-09-09T20:50:00Z,VFR,32.2,3.3,260,18,26,NA,1007.5,METAR KDAG 100050Z AUTO 26018G26KT 10SM CLR 32/03 A2975 RMK AO2 PK WND 27027/0038 SLP050 T03220033,2025-09-10T01:11:31Z,2025-09-09T21:11:31Z
KDAL,"Dallas/Love Fld, TX, US",2025-09-09T14:53:00Z,2025-09-09T10:53:00Z,VFR,22.8,12.2,140,6,0,NA,1019,METAR KDAL 091453Z 14006KT 10SM FEW170 FEW250 23/12 A3009 RMK AO2 SLP183 T02280122 51012,2025-09-09T15:51:30Z,2025-09-09T11:51:30Z
KDAL,"Dallas/Love Fld, TX, US",2025-09-09T15:53:00Z,2025-09-09T11:53:00Z,VFR,23.9,12.2,150,9,0,NA,1019,METAR KDAL 091553Z 15009KT 120V190 10SM FEW180 24/12 A3009 RMK AO2 SLP183 T02390122,2025-09-09T16:06:03Z,2025-09-09T12:06:03Z
KDAL,"Dallas/Love Fld, TX, US",2025-09-09T16:53:00Z,2025-09-09T12:53:00Z,VFR,25.6,13.3,180,5,0,NA,1018.7,METAR KDAL 091653Z COR 18005KT 10SM CLR 26/13 A3008 RMK AO2 SLP178 T02560133,2025-09-09T17:12:54Z,2025-09-09T13:12:54Z
KDAL,"Dallas/Love Fld, TX, US",2025-09-09T17:53:00Z,2025-09-09T13:53:00Z,VFR,27.8,13.9,100,4,0,NA,1018,METAR KDAL 091753Z 10004KT 10SM CLR 28/14 A3006 RMK AO2 SLP172 T02780139 10278 20178 58010,2025-09-09T18:09:22Z,2025-09-09T14:09:22Z
KDAL,"Dallas/Love Fld, TX, US",2025-09-09T18:53:00Z,2025-09-09T14:53:00Z,VFR,28.9,13.9,80,6,0,NA,1017,METAR KDAL 091853Z 08006KT 10SM CLR 29/14 A3003 RMK AO2 SLP163 T02890139,2025-09-09T19:00:57Z,2025-09-09T15:00:57Z
KDAL,"Dallas/Love Fld, TX, US",2025-09-09T19:53:00Z,2025-09-09T15:53:00Z,VFR,28.9,13.3,VAR,5,0,NA,1016.3,METAR KDAL 091953Z VRB05KT 10SM CLR 29/13 A3001 RMK AO2 SLP156 T02890133,2025-09-09T20:10:18Z,2025-09-09T16:10:18Z
KDAL,"Dallas/Love Fld, TX, US",2025-09-09T20:53:00Z,2025-09-09T16:53:00Z,VFR,30,12.8,90,7,0,NA,1015.7,METAR KDAL 092053Z 09007KT 10SM CLR 30/13 A2999 RMK AO2 SLP149 T03000128 56022,2025-09-09T21:12:45Z,2025-09-09T17:12:45Z
KDAL,"Dallas/Love Fld, TX, US",2025-09-09T21:53:00Z,2025-09-09T17:53:00Z,VFR,30,12.2,160,7,0,NA,1015.3,METAR KDAL 092153Z 16007KT 10SM CLR 30/12 A2998 RMK AO2 SLP147 T03000122,2025-09-09T22:00:10Z,2025-09-09T18:00:10Z
KDAL,"Dallas/Love Fld, TX, US",2025-09-09T22:53:00Z,2025-09-09T18:53:00Z,VFR,30,10.6,110,7,0,NA,1015.3,METAR KDAL 092253Z 11007KT 10SM CLR 30/11 A2998 RMK AO2 SLP145 T03000106,2025-09-09T22:58:33Z,2025-09-09T18:58:33Z
KDAL,"Dallas/Love Fld, TX, US",2025-09-09T23:53:00Z,2025-09-09T19:53:00Z,VFR,29.4,11.7,140,8,0,NA,1015,METAR KDAL 092353Z 14008KT 10SM CLR 29/12 A2997 RMK AO2 SLP143 T02940117 10306 20272 56006,2025-09-10T00:12:39Z,2025-09-09T20:12:39Z
KDAL,"Dallas/Love Fld, TX, US",2025-09-10T00:53:00Z,2025-09-09T20:53:00Z,VFR,27.8,11.7,130,6,0,NA,1015,METAR KDAL 100053Z 13006KT 10SM FEW250 28/12 A2997 RMK AO2 SLP144 T02780117,2025-09-10T01:11:31Z,2025-09-09T21:11:31Z
KDAN,"Danville Rgnl, VA, US",2025-09-09T23:53:00Z,2025-09-09T19:53:00Z,VFR,18.9,12.2,50,4,0,NA,1021.1,METAR KDAN 092353Z AUTO 05004KT 10SM FEW060 19/12 A3015 RMK AO2 SLP204 T01890122 10244 20189 55003,2025-09-10T00:12:39Z,2025-09-09T20:12:39Z
KDAN,"Danville Rgnl, VA, US",2025-09-10T00:53:00Z,2025-09-09T20:53:00Z,VFR,17.2,12.8,30,3,0,NA,1021.8,METAR KDAN 100053Z AUTO 03003KT 10SM BKN060 17/13 A3017 RMK AO2 SLP208 T01720128,2025-09-10T01:11:31Z,2025-09-09T21:11:31Z
KDAY,"Dayton/Cox Intl, OH, US",2025-09-09T14:56:00Z,2025-09-09T10:56:00Z,VFR,20,6.1,130,4,0,NA,1024.5,METAR KDAY 091456Z 13004KT 10SM FEW250 20/06 A3025 RMK AO2 SLP239 T02000061 53001,2025-09-09T15:51:29Z,2025-09-09T11:51:29Z
KDAY,"Dayton/Cox Intl, OH, US",2025-09-09T15:56:00Z,2025-09-09T11:56:00Z,VFR,21.7,5,100,3,0,NA,1024.1,METAR KDAY 091556Z 10003KT 10SM FEW250 22/05 A3024 RMK AO2 SLP236 T02170050,2025-09-09T16:06:01Z,2025-09-09T12:06:01Z
KDAY,"Dayton/Cox Intl, OH, US",2025-09-09T16:56:00Z,2025-09-09T12:56:00Z,VFR,22.2,5,100,4,0,NA,1023.8,METAR KDAY 091656Z 10004KT 10SM FEW250 22/05 A3023 RMK AO2 SLP233 T02220050,2025-09-09T17:12:51Z,2025-09-09T13:12:51Z
KDAY,"Dayton/Cox Intl, OH, US",2025-09-09T17:56:00Z,2025-09-09T13:56:00Z,VFR,23.3,5.6,150,4,0,NA,1023.1,METAR KDAY 091756Z 15004KT 10SM FEW250 23/06 A3021 RMK AO2 SLP226 T02330056 10233 20100 58012,2025-09-09T18:09:20Z,2025-09-09T14:09:20Z
KDAY,"Dayton/Cox Intl, OH, US",2025-09-09T18:56:00Z,2025-09-09T14:56:00Z,VFR,24.4,5.6,190,6,0,NA,1022.1,METAR KDAY 091856Z 19006KT 10SM FEW250 24/06 A3018 RMK AO2 SLP217 T02440056,2025-09-09T19:00:56Z,2025-09-09T15:00:56Z
KDAY,"Dayton/Cox Intl, OH, US",2025-09-09T19:56:00Z,2025-09-09T15:56:00Z,VFR,25,6.1,140,9,0,NA,1021.4,METAR KDAY 091956Z 14009KT 10SM SCT250 25/06 A3016 RMK AO2 SLP211 T02500061,2025-09-09T20:10:15Z,2025-09-09T16:10:15Z
KDAY,"Dayton/Cox Intl, OH, US",2025-09-09T20:56:00Z,2025-09-09T16:56:00Z,VFR,23.9,6.7,0,0,0,NA,1021.1,METAR KDAY 092056Z 00000KT 10SM SCT250 24/07 A3015 RMK AO2 SLP207 T02390067 56019,2025-09-09T21:12:42Z,2025-09-09T17:12:42Z
KDAY,"Dayton/Cox Intl, OH, US",2025-09-09T21:56:00Z,2025-09-09T17:56:00Z,VFR,24.4,6.1,170,4,0,NA,1021.1,METAR KDAY 092156Z 17004KT 10SM SCT250 24/06 A3015 RMK AO2 SLP206 T02440061,2025-09-09T22:00:08Z,2025-09-09T18:00:08Z
KDAY,"Dayton/Cox Intl, OH, US",2025-09-09T22:56:00Z,2025-09-09T18:56:00Z,VFR,23.3,6.7,160,5,0,NA,1020.7,METAR KDAY 092256Z 16005KT 10SM SCT250 23/07 A3014 RMK AO2 SLP204 T02330067,2025-09-09T23:21:16Z,2025-09-09T19:21:16Z
KDAY,"Dayton/Cox Intl, OH, US",2025-09-09T23:56:00Z,2025-09-09T19:56:00Z,VFR,20.6,7.2,140,5,0,NA,1020.7,METAR KDAY 092356Z 14005KT 10SM FEW180 SCT250 21/07 A3014 RMK AO2 SLP204 T02060072 10250 20200 55004,2025-09-10T00:12:38Z,2025-09-09T20:12:38Z
KDAY,"Dayton/Cox Intl, OH, US",2025-09-10T00:56:00Z,2025-09-09T20:56:00Z,VFR,20,6.7,130,4,0,NA,1021.1,METAR KDAY 100056Z 13004KT 10SM FEW180 SCT250 20/07 A3015 RMK AO2 SLP205 T02000067,2025-09-10T01:11:31Z,2025-09-09T21:11:31Z
KDBQ,"Dubuque Rgnl, IA, US",2025-09-09T23:53:00Z,2025-09-09T19:53:00Z,VFR,18.3,12.2,160,7,0,NA,1018,METAR KDBQ 092353Z 16007KT 10SM CLR 18/12 A3006 RMK AO2 SLP179 T01830122 10244 20183 58001,2025-09-10T00:12:39Z,2025-09-09T20:12:39Z
KDBQ,"Dubuque Rgnl, IA, US",2025-09-10T00:53:00Z,2025-09-09T20:53:00Z,VFR,17.2,12.2,160,6,0,NA,1018,METAR KDBQ 100053Z 16006KT 10SM CLR 17/12 A3006 RMK AO2 SLP179 T01720122,2025-09-10T01:11:31Z,2025-09-09T21:11:31Z
KDCA,"Washington/Reagan-National Arpt, VA, US",2025-09-09T14:52:00Z,2025-09-09T10:52:00Z,VFR,21.7,12.2,70,13,19,NA,1025.8,METAR KDCA 091452Z 07013G19KT 10SM SCT035 SCT250 22/12 A3029 RMK AO2 SLP256 T02170122 53001,2025-09-09T15:51:27Z,2025-09-09T11:51:27Z
KDCA,"Washington/Reagan-National Arpt, VA, US",2025-09-09T15:52:00Z,2025-09-09T11:52:00Z,VFR,22.2,11.1,60,13,0,NA,1025.5,METAR KDCA 091552Z 06013KT 10SM FEW040 SCT250 22/11 A3028 RMK AO2 SLP251 T02220111,2025-09-09T16:06:00Z,2025-09-09T12:06:00Z
KDCA,"Washington/Reagan-National Arpt, VA, US",2025-09-09T16:52:00Z,2025-09-09T12:52:00Z,VFR,23.9,11.1,30,8,18,NA,1025.1,METAR KDCA 091652Z 03008G18KT 10SM FEW050 SCT250 24/11 A3027 RMK AO2 SLP249 T02390111,2025-09-09T17:12:49Z,2025-09-09T13:12:49Z
KDCA,"Washington/Reagan-National Arpt, VA, US",2025-09-09T17:52:00Z,2025-09-09T13:52:00Z,VFR,24.4,10,100,10,0,NA,1024.5,METAR KDCA 091752Z 10010KT 10SM FEW050 SCT250 24/10 A3025 RMK AO2 SLP242 T02440100 10244 20156 58014,2025-09-09T18:09:19Z,2025-09-09T14:09:19Z
KDCA,"Washington/Reagan-National Arpt, VA, US",2025-09-09T18:52:00Z,2025-09-09T14:52:00Z,VFR,23.9,10.6,50,6,0,NA,1023.8,METAR KDCA 091852Z 05006KT 10SM FEW050 SCT250 24/11 A3023 RMK AO2 SLP236 T02390106,2025-09-09T19:00:54Z,2025-09-09T15:00:54Z
KDCA,"Washington/Reagan-National Arpt, VA, US",2025-09-09T19:52:00Z,2025-09-09T15:52:00Z,VFR,24.4,11.7,80,7,0,NA,1023.1,METAR KDCA 091952Z 08007KT 10SM SCT055 BKN250 24/12 A3021 RMK AO2 SLP228 T02440117,2025-09-09T20:10:13Z,2025-09-09T16:10:13Z
KDCA,"Washington/Reagan-National Arpt, VA, US",2025-09-09T20:52:00Z,2025-09-09T16:52:00Z,VFR,23.3,11.7,60,8,0,NA,1022.8,METAR KDCA 092052Z 06008KT 10SM BKN050 BKN250 23/12 A3020 RMK AO2 SLP226 T02330117 56016,2025-09-09T21:12:40Z,2025-09-09T17:12:40Z
KDCA,"Washington/Reagan-National Arpt, VA, US",2025-09-09T21:52:00Z,2025-09-09T17:52:00Z,VFR,22.8,12.8,60,11,0,NA,1022.4,METAR KDCA 092152Z 06011KT 10SM BKN050 BKN250 23/13 A3019 RMK AO2 SLP223 T02280128,2025-09-09T22:00:06Z,2025-09-09T18:00:06Z
KDCA,"Washington/Reagan-National Arpt, VA, US",2025-09-09T22:52:00Z,2025-09-09T18:52:00Z,VFR,22.2,12.8,50,13,0,NA,1022.4,METAR KDCA 092252Z 05013KT 10SM BKN050 BKN250 22/13 A3019 RMK AO2 SLP222 T02220128,2025-09-09T22:58:30Z,2025-09-09T18:58:30Z
KDCA,"Washington/Reagan-National Arpt, VA, US",2025-09-09T23:52:00Z,2025-09-09T19:52:00Z,VFR,21.7,12.8,50,10,0,NA,1022.4,METAR KDCA 092352Z 05010KT 10SM SCT050 BKN250 22/13 A3019 RMK AO2 SLP223 T02170128 10250 20217 55003,2025-09-10T00:12:39Z,2025-09-09T20:12:39Z
KDCA,"Washington/Reagan-National Arpt, VA, US",2025-09-10T00:52:00Z,2025-09-09T20:52:00Z,VFR,20.6,13.3,80,6,0,NA,1023.1,METAR KDCA 100052Z 08006KT 10SM BKN046 BKN250 21/13 A3021 RMK AO2 SLP228 T02060133,2025-09-10T01:11:31Z,2025-09-09T21:11:31Z
KDDC,"Dodge City Arpt, KS, US",2025-09-10T00:52:00Z,2025-09-09T20:52:00Z,VFR,24.4,19.4,130,6,0,6,1014,METAR KDDC 100052Z AUTO 13006KT 6SM HZ CLR 24/19 A2994 RMK AO2 SLP115 T02440194 $,2025-09-10T01:11:31Z,2025-09-09T21:11:31Z
KDEC,"Decatur Arpt, IL, US",2025-09-09T23:54:00Z,2025-09-09T19:54:00Z,VFR,23.3,11.1,140,4,0,NA,1018.4,METAR KDEC 092354Z 14004KT 10SM CLR 23/11 A3007 RMK AO2 SLP182 T02330111 10278 20233 56005,2025-09-10T00:12:39Z,2025-09-09T20:12:39Z
KDEC,"Decatur Arpt, IL, US",2025-09-10T00:54:00Z,2025-09-09T20:54:00Z,VFR,21.1,11.7,120,6,0,NA,1018.7,METAR KDEC 100054Z 12006KT 10SM CLR 21/12 A3008 RMK AO2 SLP184 T02110117,2025-09-10T01:11:31Z,2025-09-09T21:11:31Z
KDEN,"Denver Intl, CO, US",2025-09-09T14:53:00Z,2025-09-09T10:53:00Z,VFR,21.1,5,240,8,0,NA,1019.7,METAR KDEN 091453Z 24008KT 10SM FEW100 FEW150 SCT220 21/05 A3011 RMK AO2 SLP124 T02110050 51006,2025-09-09T15:51:30Z,2025-09-09T11:51:30Z
KDEN,"Denver Intl, CO, US",2025-09-09T15:53:00Z,2025-09-09T11:53:00Z,VFR,23.3,4.4,240,5,0,NA,1020.1,METAR KDEN 091553Z 24005KT 10SM FEW100 FEW140 FEW180 SCT220 23/04 A3012 RMK AO2 SLP122 T02330044,2025-09-09T16:06:03Z,2025-09-09T12:06:03Z
KDEN,"Denver Intl, CO, US",2025-09-09T16:53:00Z,2025-09-09T12:53:00Z,VFR,25,4.4,260,3,0,NA,1019.7,METAR KDEN 091653Z 26003KT 10SM FEW080 FEW100 SCT140 BKN220 25/04 A3011 RMK AO2 SLP117 T02500044,2025-09-09T17:12:54Z,2025-09-09T13:12:54Z
KDEN,"Denver Intl, CO, US",2025-09-09T17:53:00Z,2025-09-09T13:53:00Z,VFR,26.7,3.9,0,0,0,NA,1019.4,METAR KDEN 091753Z 00000KT 10SM FEW100 SCT140 BKN220 27/04 A3010 RMK AO2 SLP109 T02670039 10267 20156 58005,2025-09-09T18:09:22Z,2025-09-09T14:09:22Z
KDEN,"Denver Intl, CO, US",2025-09-09T18:53:00Z,2025-09-09T14:53:00Z,VFR,28.3,3.3,0,0,0,NA,1018.7,METAR KDEN 091853Z 00000KT 10SM FEW100 SCT140 BKN220 28/03 A3008 RMK AO2 SLP099 VIRGA SW T02830033,2025-09-09T19:00:57Z,2025-09-09T15:00:57Z
KDEN,"Denver Intl, CO, US",2025-09-09T19:53:00Z,2025-09-09T15:53:00Z,VFR,28.9,2.2,VAR,4,0,NA,1017.7,METAR KDEN 091953Z VRB04KT 10SM SCT100 SCT140 BKN220 29/02 A3005 RMK AO2 SLP093 VIRGA SW T02890022,2025-09-09T20:10:18Z,2025-09-09T16:10:18Z
KDEN,"Denver Intl, CO, US",2025-09-09T20:53:00Z,2025-09-09T16:53:00Z,VFR,27.2,2.8,200,5,0,NA,1017.7,METAR KDEN 092053Z 20005KT 10SM SCT090 BKN140 BKN220 27/03 A3005 RMK AO2 SLP096 OCNL LTGICCG DSNT W CB DSNT W MOV E SHRA DSNT S-W T02720028 56015,2025-09-09T21:12:45Z,2025-09-09T17:12:45Z
KDEN,"Denver Intl, CO, US",2025-09-09T21:20:00Z,2025-09-09T17:20:00Z,VFR,26.1,2.2,250,30,41,NA,1018,SPECI KDEN 092120Z 25030G41KT 10SM -RA SCT090 BKN120 BKN160 BKN220 26/02 A3006 RMK AO2 PK WND 26041/2119 RAB18 BLDU S P0000 T02610022,2025-09-09T21:28:22Z,2025-09-09T17:28:22Z
KDEN,"Denver Intl, CO, US",2025-09-09T21:53:00Z,2025-09-09T17:53:00Z,VFR,25,3.9,210,12,0,NA,1018.7,METAR KDEN 092153Z 21012KT 10SM FEW070 BKN095 BKN140 BKN200 25/04 A3008 RMK AO2 PK WND 24044/2125 RAB18E45 SLP111 VIRGA P0000 T02500039,2025-09-09T22:00:10Z,2025-09-09T18:00:10Z
KDEN,"Denver Intl, CO, US",2025-09-09T22:53:00Z,2025-09-09T18:53:00Z,VFR,25,3.9,190,8,0,NA,1018,METAR KDEN 092253Z 19008KT 10SM FEW070 BKN095 BKN140 BKN200 25/04 A3006 RMK AO2 SLP103 VIRGA T02500039,2025-09-09T22:58:33Z,2025-09-09T18:58:33Z
KDEN,"Denver Intl, CO, US",2025-09-09T23:53:00Z,2025-09-09T19:53:00Z,VFR,25,3.9,280,12,0,NA,1018.7,METAR KDEN 092353Z 28012KT 10SM BKN120 BKN160 BKN200 25/04 A3008 RMK AO2 SLP108 VIRGA 60000 T02500039 10289 20244 51008,2025-09-10T00:12:39Z,2025-09-09T20:12:39Z
KDEN,"Denver Intl, CO, US",2025-09-10T00:53:00Z,2025-09-09T20:53:00Z,VFR,23.3,3.9,300,13,0,NA,1018,METAR KDEN 100053Z 30013KT 10SM FEW120 BKN160 BKN200 23/04 A3006 RMK AO2 SLP111 VIRGA T02330039,2025-09-10T01:11:31Z,2025-09-09T21:11:31Z
KDET,"Detroit/C Young Arpt, MI, US",2025-09-09T23:53:00Z,2025-09-09T19:53:00Z,VFR,20,6.1,140,4,0,NA,1021.4,METAR KDET 092353Z 14004KT 10SM CLR 20/06 A3016 RMK AO2 SLP213 T02000061 10244 20200 57005,2025-09-10T00:12:39Z,2025-09-09T20:12:39Z
KDET,"Detroit/C Young Arpt, MI, US",2025-09-10T00:53:00Z,2025-09-09T20:53:00Z,VFR,18.3,7.2,120,4,0,NA,1021.8,METAR KDET 100053Z 12004KT 10SM CLR 18/07 A3017 RMK AO2 SLPNO T01830072,2025-09-10T01:11:31Z,2025-09-09T21:11:31Z
KDFW,"Dallas-Ft Worth Intl, TX, US",2025-09-09T14:53:00Z,2025-09-09T10:53:00Z,VFR,22.8,11.7,160,7,0,NA,1018.7,METAR KDFW 091453Z 16007KT 10SM CLR 23/12 A3008 RMK AO2 SLP178 T02280117 51013 $,2025-09-09T15:51:30Z,2025-09-09T11:51:30Z
KDFW,"Dallas-Ft Worth Intl, TX, US",2025-09-09T15:53:00Z,2025-09-09T11:53:00Z,VFR,24.4,12.2,170,8,0,NA,1018.7,METAR KDFW 091553Z 17008KT 10SM CLR 24/12 A3008 RMK AO2 SLP177 T02440122 $,2025-09-09T16:06:03Z,2025-09-09T12:06:03Z
KDFW,"Dallas-Ft Worth Intl, TX, US",2025-09-09T16:53:00Z,2025-09-09T12:53:00Z,VFR,26.1,13.3,170,7,0,NA,1018,METAR KDFW 091653Z 17007KT 10SM CLR 26/13 A3006 RMK AO2 SLP173 T02610133 $,2025-09-09T17:12:54Z,2025-09-09T13:12:54Z
KDFW,"Dallas-Ft Worth Intl, TX, US",2025-09-09T17:53:00Z,2025-09-09T13:53:00Z,VFR,27.2,13.3,VAR,3,0,NA,1017.7,METAR KDFW 091753Z VRB03KT 10SM CLR 27/13 A3005 RMK AO2 SLP167 T02720133 10278 20178 58011 $,2025-09-09T18:09:21Z,2025-09-09T14:09:21Z
KDFW,"Dallas-Ft Worth Intl, TX, US",2025-09-09T18:53:00Z,2025-09-09T14:53:00Z,VFR,28.9,13.9,VAR,5,0,NA,1016.7,METAR KDFW 091853Z VRB05KT 10SM CLR 29/14 A3002 RMK AO2 SLP159 T02890139 $,2025-09-09T19:00:57Z,2025-09-09T15:00:57Z
KDFW,"Dallas-Ft Worth Intl, TX, US",2025-09-09T19:53:00Z,2025-09-09T15:53:00Z,VFR,29.4,13.3,VAR,3,0,NA,1016,METAR KDFW 091953Z VRB03KT 10SM FEW250 29/13 A3000 RMK AO2 SLP152 T02940133 $,2025-09-09T20:10:18Z,2025-09-09T16:10:18Z
KDFW,"Dallas-Ft Worth Intl, TX, US",2025-09-09T20:53:00Z,2025-09-09T16:53:00Z,VFR,30,13.3,130,7,0,NA,1015.3,METAR KDFW 092053Z 13007KT 10SM CLR 30/13 A2998 RMK AO2 SLP146 T03000133 56021 $,2025-09-09T21:12:45Z,2025-09-09T17:12:45Z
KDFW,"Dallas-Ft Worth Intl, TX, US",2025-09-09T21:53:00Z,2025-09-09T17:53:00Z,VFR,30,12.2,120,5,0,NA,1015.3,METAR KDFW 092153Z 12005KT 10SM CLR 30/12 A2998 RMK AO2 SLP143 T03000122 $,2025-09-09T22:00:10Z,2025-09-09T18:00:10Z
KDFW,"Dallas-Ft Worth Intl, TX, US",2025-09-09T22:53:00Z,2025-09-09T18:53:00Z,VFR,30,12.2,140,8,0,NA,1015,METAR KDFW 092253Z 14008KT 10SM CLR 30/12 A2997 RMK AO2 SLP141 T03000122 $,2025-09-09T22:58:33Z,2025-09-09T18:58:33Z
KDFW,"Dallas-Ft Worth Intl, TX, US",2025-09-09T23:53:00Z,2025-09-09T19:53:00Z,VFR,28.3,11.1,120,8,0,NA,1014.6,METAR KDFW 092353Z 12008KT 10SM CLR 28/11 A2996 RMK AO2 SLP138 T02830111 10306 20272 56007 $,2025-09-10T00:12:39Z,2025-09-09T20:12:39Z
KDFW,"Dallas-Ft Worth Intl, TX, US",2025-09-10T00:53:00Z,2025-09-09T20:53:00Z,VFR,26.1,12.2,130,7,0,NA,1014.6,METAR KDFW 100053Z 13007KT 10SM FEW250 26/12 A2996 RMK AO2 SLP139 T02610122 $,2025-09-10T01:11:31Z,2025-09-09T21:11:31Z
KDHN,"Dothan Rgnl, AL, US",2025-09-09T23:53:00Z,2025-09-09T19:53:00Z,VFR,26.1,16.7,50,5,0,NA,1018,METAR KDHN 092353Z AUTO 05005KT 10SM BKN090 26/17 A3006 RMK AO1 SLP172 T02610167 10300 20261 53005,2025-09-10T00:12:39Z,2025-09-09T20:12:39Z
KDHN,"Dothan Rgnl, AL, US",2025-09-10T00:53:00Z,2025-09-09T20:53:00Z,VFR,24.4,17.2,40,4,0,NA,1018.7,METAR KDHN 100053Z AUTO 04004KT 10SM SCT065 BKN090 24/17 A3008 RMK AO1 SLP180 T02440172,2025-09-10T01:11:31Z,2025-09-09T21:11:31Z
KDHT,"Dalhart Muni, TX, US",2025-09-09T23:53:00Z,2025-09-09T19:53:00Z,VFR,27.2,13.3,50,5,0,NA,1014.6,METAR KDHT 092353Z AUTO 05005KT 10SM FEW120 27/13 A2996 RMK AO2 SLP089 T02720133 10356 20250 58005,2025-09-10T00:12:39Z,2025-09-09T20:12:39Z
KDHT,"Dalhart Muni, TX, US",2025-09-10T00:53:00Z,2025-09-09T20:53:00Z,VFR,26.1,13.3,120,5,0,NA,1014.6,METAR KDHT 100053Z AUTO 12005KT 10SM CLR 26/13 A2996 RMK AO2 SLP091 T02610133,2025-09-10T01:11:31Z,2025-09-09T21:11:31Z
KDIK,"Dickinson/Roosevelt , ND, US",2025-09-09T23:56:00Z,2025-09-09T19:56:00Z,VFR,25.6,6.1,60,6,0,NA,1014.6,METAR KDIK 092356Z AUTO 06006KT 10SM CLR 26/06 A2996 RMK AO2 SLP136 T02560061 10278 20250 55001,2025-09-10T00:12:38Z,2025-09-09T20:12:38Z
KDIK,"Dickinson/Roosevelt , ND, US",2025-09-10T00:56:00Z,2025-09-09T20:56:00Z,VFR,21.7,7.2,60,5,0,NA,1014.6,METAR KDIK 100056Z AUTO 06005KT 10SM CLR 22/07 A2996 RMK AO2 SLP137 T02170072,2025-09-10T01:11:31Z,2025-09-09T21:11:31Z
KDLF,"Laughlin AFB, TX, US",2025-09-09T23:55:00Z,2025-09-09T19:55:00Z,VFR,31.7,18.6,140,11,0,NA,1012.6,METAR KDLF 092355Z AUTO 14011KT 10SM CLR 32/19 A2990 RMK AO2 SLP112 T03170186 10330 20296 57013 $,2025-09-10T00:12:38Z,2025-09-09T20:12:38Z
KDLF,"Laughlin AFB, TX, US",2025-09-10T00:55:00Z,2025-09-09T20:55:00Z,VFR,30.2,18.6,110,9,0,NA,1012.6,METAR KDLF 100055Z AUTO 11009KT 10SM CLR 30/19 A2990 RMK AO2 SLP113 T03020186 $,2025-09-10T01:11:31Z,2025-09-09T21:11:31Z
KDLH,"Duluth Intl Arpt, MN, US",2025-09-09T23:55:00Z,2025-09-09T19:55:00Z,MVFR,17.2,16.1,160,3,0,9,1016,METAR KDLH 092355Z 16003KT 9SM SCT008 BKN013 17/16 A3000 RMK AO2 SLP162 T01720161 10194 20172 51011 $,2025-09-10T00:12:38Z,2025-09-09T20:12:38Z
KDLH,"Duluth Intl Arpt, MN, US",2025-09-10T00:15:00Z,2025-09-09T20:15:00Z,IFR,16.7,16.1,150,3,0,8,1016.3,SPECI KDLH 100015Z 15003KT 8SM BKN007 BKN014 17/16 A3001 RMK AO2 T01670161 $,2025-09-10T00:33:20Z,2025-09-09T20:33:20Z
KDLH,"Duluth Intl Arpt, MN, US",2025-09-10T00:55:00Z,2025-09-09T20:55:00Z,VFR,15.6,15.6,140,3,0,6,1016.3,METAR KDLH 100055Z 14003KT 6SM BR CLR 16/16 A3001 RMK AO2 SLP165 T01560156 $,2025-09-10T01:11:31Z,2025-09-09T21:11:31Z
KDLS,"The Dalles Muni, OR, US",2025-09-09T23:53:00Z,2025-09-09T19:53:00Z,VFR,26.1,13.9,310,15,24,NA,1008.5,METAR KDLS 092353Z AUTO 31015G24KT 10SM SCT100 26/14 A2978 RMK AO2 LTG DSNT NE SLP084 T02610139 10272 20233 56013,2025-09-10T00:12:39Z,2025-09-09T20:12:39Z
KDLS,"The Dalles Muni, OR, US",2025-09-10T00:53:00Z,2025-09-09T20:53:00Z,VFR,25,13.9,290,14,20,NA,1009.2,METAR KDLS 100053Z AUTO 29014G20KT 10SM BKN100 25/14 A2980 RMK AO2 LTG DSNT SE AND S SLP089 T02500139,2025-09-10T01:11:31Z,2025-09-09T21:11:31Z
KDMA,"Tucson/Davis AFB, AZ, US",2025-09-09T23:55:00Z,2025-09-09T19:55:00Z,VFR,38.7,5.3,170,8,0,NA,1010.2,METAR KDMA 092355Z AUTO 17008KT 10SM CLR 39/05 A2983 RMK AO2 SLP049 T03870053 10399 20343 57016 $,2025-09-10T00:12:38Z,2025-09-09T20:12:38Z
KDMA,"Tucson/Davis AFB, AZ, US",2025-09-10T00:55:00Z,2025-09-09T20:55:00Z,VFR,38,4.8,150,7,0,NA,1009.9,METAR KDMA 100055Z AUTO 15007KT 10SM CLR 38/05 A2982 RMK AO2 SLP046 T03800048 $,2025-09-10T01:11:31Z,2025-09-09T21:11:31Z
KDMN,"Deming Muni, NM, US",2025-09-09T23:53:00Z,2025-09-09T19:53:00Z,VFR,35.6,6.1,190,9,14,NA,1015.3,METAR KDMN 092353Z AUTO 19009G14KT 10SM FEW110 36/06 A2998 RMK AO2 SLP068 T03560061 10361 20328 56016,2025-09-10T00:12:39Z,2025-09-09T20:12:39Z
KDMN,"Deming Muni, NM, US",2025-09-10T00:53:00Z,2025-09-09T20:53:00Z,VFR,33.9,6.1,220,7,0,NA,1015.3,METAR KDMN 100053Z AUTO 22007KT 10SM CLR 34/06 A2998 RMK AO2 SLP070 T03390061,2025-09-10T01:11:31Z,2025-09-09T21:11:31Z
KDNL,"Augusta/Daniel Fld, GA, US",2025-09-09T22:53:00Z,2025-09-09T18:53:00Z,VFR,25,11.1,30,7,0,NA,1019.4,METAR KDNL 092253Z AUTO 03007KT 10SM CLR 25/11 A3010 RMK AO2 SLP187 T02500111,2025-09-10T00:12:40Z,2025-09-09T20:12:40Z
KDNL,"Augusta/Daniel Fld, GA, US",2025-09-10T00:53:00Z,2025-09-09T20:53:00Z,VFR,21.7,11.1,10,5,0,NA,1020.1,METAR KDNL 100053Z AUTO 01005KT 10SM CLR 22/11 A3012 RMK AO2 SLP194 T02170111,2025-09-10T01:11:31Z,2025-09-09T21:11:31Z
KDOV,"Dover AFB, DE, US",2025-09-09T23:55:00Z,2025-09-09T19:55:00Z,VFR,20.2,12.9,40,10,0,NA,1022.4,METAR KDOV 092355Z 04010KT 10SM OVC039 20/13 A3019 RMK AO2A SLP227 T02020129 10239 20199 55003,2025-09-10T00:12:38Z,2025-09-09T20:12:38Z
KDOV,"Dover AFB, DE, US",2025-09-10T00:55:00Z,2025-09-09T20:55:00Z,VFR,19.7,12.9,40,12,0,NA,1022.4,METAR KDOV 100055Z 04012KT 10SM OVC035 20/13 A3019 RMK AO2A SLP227 T01970129,2025-09-10T01:11:31Z,2025-09-09T21:11:31Z
KDPA,"Dupage Cnty Arpt, IL, US",2025-09-09T23:52:00Z,2025-09-09T19:52:00Z,VFR,19.4,9.4,150,4,0,NA,1018.7,METAR KDPA 092352Z 15004KT 10SM CLR 19/09 A3008 RMK AO2 SLP188 T01940094 10244 20194 56006,2025-09-10T00:12:39Z,2025-09-09T20:12:39Z
KDPA,"Dupage Cnty Arpt, IL, US",2025-09-10T00:52:00Z,2025-09-09T20:52:00Z,VFR,17.8,10,0,0,0,NA,1019,METAR KDPA 100052Z 00000KT 10SM CLR 18/10 A3009 RMK AO2 SLP188 T01780100,2025-09-10T01:11:31Z,2025-09-09T21:11:31Z
KDRA,"Mercury/Desert Rock, NV, US",2025-09-09T23:53:00Z,2025-09-09T19:53:00Z,VFR,31.7,3.3,200,15,24,NA,1009.2,METAR KDRA 092353Z AUTO 20015G24KT 10SM CLR 32/03 A2980 RMK AO2 PK WND 21030/2317 SLP038 T03170033 10333 20300 56017,2025-09-10T00:12:39Z,2025-09-09T20:12:39Z
KDRA,"Mercury/Desert Rock, NV, US",2025-09-10T00:53:00Z,2025-09-09T20:53:00Z,VFR,31.1,3.3,180,11,28,NA,1008.9,METAR KDRA 100053Z AUTO 18011G28KT 10SM CLR 31/03 A2979 RMK AO2 PK WND 19029/0019 SLP039 T03110033,2025-09-10T01:11:31Z,2025-09-09T21:11:31Z
KDRI,"Deridder/Beauregard Rgnl, LA, US",2025-09-09T23:55:00Z,2025-09-09T19:55:00Z,VFR,28,14.9,0,0,0,NA,1015.3,METAR KDRI 092355Z AUTO 00000KT 10SM CLR 28/15 A2998 RMK AO2 T02800149 $,2025-09-10T00:12:38Z,2025-09-09T20:12:38Z
KDRI,"Deridder/Beauregard Rgnl, LA, US",2025-09-10T00:15:00Z,2025-09-09T20:15:00Z,VFR,26.9,15.9,0,0,0,9,1015.3,METAR KDRI 100015Z AUTO 00000KT 9SM CLR 27/16 A2998 RMK AO2 T02690159 $,2025-09-10T00:33:20Z,2025-09-09T20:33:20Z
KDRI,"Deridder/Beauregard Rgnl, LA, US",2025-09-10T00:55:00Z,2025-09-09T20:55:00Z,VFR,23.7,19.3,0,0,0,9,1015.3,METAR KDRI 100055Z AUTO 00000KT 9SM CLR 24/19 A2998 RMK AO2 T02370193 $,2025-09-10T01:11:31Z,2025-09-09T21:11:31Z
KDRO,"Durango/La Plata Cnty, CO, US",2025-09-09T23:53:00Z,2025-09-09T19:53:00Z,VFR,27.8,2.8,250,14,20,NA,1020.1,METAR KDRO 092353Z AUTO 25014G20KT 10SM BKN100 28/03 A3012 RMK AO2 SLP120 T02780028 10289 20250 56014,2025-09-10T00:12:39Z,2025-09-09T20:12:39Z
KDRO,"Durango/La Plata Cnty, CO, US",2025-09-10T00:53:00Z,2025-09-09T20:53:00Z,VFR,26.1,3.3,240,12,21,NA,1020.1,METAR KDRO 100053Z AUTO 24012G21KT 10SM FEW100 26/03 A3012 RMK AO2 SLP122 T02610033,2025-09-10T01:11:31Z,2025-09-09T21:11:31Z
KDRT,"Del Rio Intl, TX, US",2025-09-09T23:53:00Z,2025-09-09T19:53:00Z,VFR,31.7,18.3,130,11,0,NA,1013.6,METAR KDRT 092353Z AUTO 13011KT 10SM CLR 32/18 A2993 RMK AO2 SLP123 T03170183 10328 20294 56012,2025-09-10T00:12:39Z,2025-09-09T20:12:39Z
KDRT,"Del Rio Intl, TX, US",2025-09-10T00:53:00Z,2025-09-09T20:53:00Z,VFR,30.6,18.9,110,6,0,NA,1013.6,METAR KDRT 100053Z AUTO 11006KT 10SM CLR 31/19 A2993 RMK AO2 SLP125 T03060189,2025-09-10T01:11:31Z,2025-09-09T21:11:31Z
KDSM,"Des Moines Intl, IA, US",2025-09-09T14:54:00Z,2025-09-09T10:54:00Z,VFR,16.1,8.9,180,8,0,NA,1017.4,METAR KDSM 091454Z 18008KT 10SM FEW070 SCT100 BKN190 OVC250 16/09 A3004 RMK AO2 SLP170 T01610089 56005,2025-09-09T15:51:29Z,2025-09-09T11:51:29Z
KDSM,"Des Moines Intl, IA, US",2025-09-09T15:54:00Z,2025-09-09T11:54:00Z,VFR,17.2,9.4,190,6,0,NA,1018,METAR KDSM 091554Z 19006KT 10SM FEW070 FEW110 SCT190 OVC210 17/09 A3006 RMK AO2 SLP175 T01720094,2025-09-09T16:06:01Z,2025-09-09T12:06:01Z
KDSM,"Des Moines Intl, IA, US",2025-09-09T16:54:00Z,2025-09-09T12:54:00Z,VFR,18.3,10.6,VAR,6,0,NA,1018.7,METAR KDSM 091654Z VRB06KT 10SM FEW080 FEW110 SCT150 BKN210 OVC250 18/11 A3008 RMK AO2 SLP181 PRESENT WX VCSH T01830106,2025-09-09T17:12:51Z,2025-09-09T13:12:51Z
KDSM,"Des Moines Intl, IA, US",2025-09-09T17:54:00Z,2025-09-09T13:54:00Z,VFR,19.4,12.2,VAR,5,0,NA,1018,METAR KDSM 091754Z VRB05KT 10SM FEW075 SCT100 BKN150 BKN200 19/12 A3006 RMK AO2 SLP175 T01940122 10194 20144 50005,2025-09-09T18:09:20Z,2025-09-09T14:09:20Z
KDSM,"Des Moines Intl, IA, US",2025-09-09T18:54:00Z,2025-09-09T14:54:00Z,VFR,20.6,12.2,160,7,15,NA,1017.4,METAR KDSM 091854Z 16007G15KT 10SM FEW110 BKN150 BKN200 21/12 A3004 RMK AO2 SLP168 T02060122,2025-09-09T19:00:56Z,2025-09-09T15:00:56Z
KDSM,"Des Moines Intl, IA, US",2025-09-09T19:54:00Z,2025-09-09T15:54:00Z,VFR,22.8,13.3,150,6,0,NA,1016.7,METAR KDSM 091954Z 15006KT 10SM FEW035 BKN130 BKN200 23/13 A3002 RMK AO2 SLP161 T02280133,2025-09-09T20:10:15Z,2025-09-09T16:10:15Z
KDSM,"Des Moines Intl, IA, US",2025-09-09T20:54:00Z,2025-09-09T16:54:00Z,VFR,25,13.9,180,4,0,NA,1016,METAR KDSM 092054Z 18004KT 10SM FEW045 SCT130 SCT180 25/14 A3000 RMK AO2 SLP154 T02500139 56019,2025-09-09T21:12:42Z,2025-09-09T17:12:42Z
KDSM,"Des Moines Intl, IA, US",2025-09-09T21:54:00Z,2025-09-09T17:54:00Z,VFR,25,13.9,190,9,0,NA,1016,METAR KDSM 092154Z 19009KT 10SM FEW040 FEW120 SCT200 25/14 A3000 RMK AO2 SLP153 T02500139,2025-09-09T22:00:08Z,2025-09-09T18:00:08Z
KDSM,"Des Moines Intl, IA, US",2025-09-09T22:54:00Z,2025-09-09T18:54:00Z,VFR,24.4,14.4,160,11,0,NA,1015.7,METAR KDSM 092254Z 16011KT 10SM FEW040 SCT120 SCT200 24/14 A2999 RMK AO2 SLP152 T02440144,2025-09-09T22:58:31Z,2025-09-09T18:58:31Z
KDSM,"Des Moines Intl, IA, US",2025-09-09T23:54:00Z,2025-09-09T19:54:00Z,VFR,23.3,15,150,9,0,NA,1016,METAR KDSM 092354Z 15009KT 10SM SCT040 SCT250 23/15 A3000 RMK AO2 SLP156 T02330150 10256 20194 53001,2025-09-10T00:12:39Z,2025-09-09T20:12:39Z
KDSM,"Des Moines Intl, IA, US",2025-09-10T00:54:00Z,2025-09-09T20:54:00Z,VFR,21.7,15,150,7,0,NA,1016,METAR KDSM 100054Z 15007KT 10SM SCT040 SCT250 22/15 A3000 RMK AO2 SLP155 T02170150,2025-09-10T01:11:31Z,2025-09-09T21:11:31Z
KDTS,"Destin Arpt, FL, US",2025-09-09T23:53:00Z,2025-09-09T19:53:00Z,VFR,28.3,18.9,VAR,5,0,NA,1015.3,METAR KDTS 092353Z VRB05KT 10SM SCT065 OVC080 28/19 A2998 RMK AO2 SLP153 T02830189 10311 20283 53006,2025-09-10T00:12:39Z,2025-09-09T20:12:39Z
KDTS,"Destin Arpt, FL, US",2025-09-10T00:53:00Z,2025-09-09T20:53:00Z,VFR,27.8,18.9,20,5,0,NA,1016,METAR KDTS 100053Z 02005KT 10SM FEW060 BKN095 28/19 A3000 RMK AO2 SLP158 T02780189,2025-09-10T01:11:31Z,2025-09-09T21:11:31Z
KDTW,"Detroit/Metro Wayne Cnty, MI, US",2025-09-09T14:53:00Z,2025-09-09T10:53:00Z,VFR,20,9.4,190,7,0,NA,1024.8,METAR KDTW 091453Z 19007KT 10SM SCT250 20/09 A3026 RMK AO2 SLP245 T02000094 50000 $,2025-09-09T15:51:29Z,2025-09-09T11:51:29Z
KDTW,"Detroit/Metro Wayne Cnty, MI, US",2025-09-09T15:53:00Z,2025-09-09T11:53:00Z,VFR,21.7,7.2,190,7,0,NA,1024.5,METAR KDTW 091553Z 19007KT 10SM SCT250 22/07 A3025 RMK AO2 SLP243 T02170072 $,2025-09-09T16:06:01Z,2025-09-09T12:06:01Z
KDTW,"Detroit/Metro Wayne Cnty, MI, US",2025-09-09T16:53:00Z,2025-09-09T12:53:00Z,VFR,22.2,7.2,210,8,0,NA,1024.1,METAR KDTW 091653Z 21008KT 10SM FEW060 FEW250 22/07 A3024 RMK AO2 SLP239 T02220072 $,2025-09-09T17:12:51Z,2025-09-09T13:12:51Z
KDTW,"Detroit/Metro Wayne Cnty, MI, US",2025-09-09T17:53:00Z,2025-09-09T13:53:00Z,VFR,22.8,6.1,0,0,0,NA,1023.5,METAR KDTW 091753Z 00000KT 10SM FEW065 FEW250 23/06 A3022 RMK AO2 SLP233 T02280061 10233 20106 58012 $,2025-09-09T18:09:20Z,2025-09-09T14:09:20Z
KDTW,"Detroit/Metro Wayne Cnty, MI, US",2025-09-09T18:53:00Z,2025-09-09T14:53:00Z,VFR,23.3,6.1,VAR,4,0,NA,1022.8,METAR KDTW 091853Z VRB04KT 10SM SCT250 23/06 A3020 RMK AO2 SLP227 T02330061 $,2025-09-09T19:00:56Z,2025-09-09T15:00:56Z
KDTW,"Detroit/Metro Wayne Cnty, MI, US",2025-09-09T19:53:00Z,2025-09-09T15:53:00Z,VFR,23.3,6.1,130,7,0,NA,1022.1,METAR KDTW 091953Z 13007KT 10SM BKN250 23/06 A3018 RMK AO2 SLP219 T02330061 $,2025-09-09T20:10:15Z,2025-09-09T16:10:15Z
KDTW,"Detroit/Metro Wayne Cnty, MI, US",2025-09-09T20:53:00Z,2025-09-09T16:53:00Z,VFR,22.2,5,110,9,14,NA,1022.1,METAR KDTW 092053Z 11009G14KT 10SM BKN250 22/05 A3018 RMK AO2 SLP221 T02220050 55013 $,2025-09-09T21:12:42Z,2025-09-09T17:12:42Z
KDTW,"Detroit/Metro Wayne Cnty, MI, US",2025-09-09T21:53:00Z,2025-09-09T17:53:00Z,VFR,21.7,5,150,6,0,NA,1022.1,METAR KDTW 092153Z 15006KT 10SM BKN250 22/05 A3018 RMK AO2 SLP219 T02170050 $,2025-09-09T22:00:08Z,2025-09-09T18:00:08Z
KDTW,"Detroit/Metro Wayne Cnty, MI, US",2025-09-09T22:53:00Z,2025-09-09T18:53:00Z,VFR,21.1,6.1,VAR,6,0,NA,1021.8,METAR KDTW 092253Z VRB06KT 10SM BKN250 21/06 A3017 RMK AO2 SLP215 T02110061 $,2025-09-09T22:58:31Z,2025-09-09T18:58:31Z
KDTW,"Detroit/Metro Wayne Cnty, MI, US",2025-09-09T23:53:00Z,2025-09-09T19:53:00Z,VFR,20,7.2,120,5,0,NA,1021.4,METAR KDTW 092353Z 12005KT 10SM FEW180 BKN250 20/07 A3016 RMK AO2 SLP213 T02000072 10239 20200 58007 $,2025-09-10T00:12:39Z,2025-09-09T20:12:39Z
KDTW,"Detroit/Metro Wayne Cnty, MI, US",2025-09-10T00:53:00Z,2025-09-09T20:53:00Z,VFR,18.3,7.2,110,4,0,NA,1021.8,METAR KDTW 100053Z 11004KT 10SM FEW180 BKN250 18/07 A3017 RMK AO2 SLP216 T01830072 $,2025-09-10T01:11:31Z,2025-09-09T21:11:31Z
KDUA,"Durant/Eaker Fld, OK, US",2025-09-09T23:55:00Z,2025-09-09T19:55:00Z,VFR,27,16,140,7,0,NA,1016.3,METAR KDUA 092355Z AUTO 14007KT 10SM CLR 27/16 A3001 RMK AO2,2025-09-10T00:12:38Z,2025-09-09T20:12:38Z
KDUA,"Durant/Eaker Fld, OK, US",2025-09-10T00:15:00Z,2025-09-09T20:15:00Z,VFR,26,16,140,5,0,NA,1016.3,METAR KDUA 100015Z AUTO 14005KT 10SM CLR 26/16 A3001 RMK AO2,2025-09-10T00:33:20Z,2025-09-09T20:33:20Z
KDUA,"Durant/Eaker Fld, OK, US",2025-09-10T00:55:00Z,2025-09-09T20:55:00Z,VFR,24,17,140,3,0,NA,1016.7,METAR KDUA 100055Z AUTO 14003KT 10SM CLR 24/17 A3002 RMK AO2,2025-09-10T01:11:31Z,2025-09-09T21:11:31Z
KDUJ,"Du Bois Rgnl, PA, US",2025-09-09T23:53:00Z,2025-09-09T19:53:00Z,VFR,17.2,6.1,130,5,0,NA,1023.8,METAR KDUJ 092353Z AUTO 13005KT 10SM CLR 17/06 A3023 RMK AO2 SLP236 T01720061 10217 20172 56003,2025-09-10T00:12:39Z,2025-09-09T20:12:39Z
KDUJ,"Du Bois Rgnl, PA, US",2025-09-10T00:53:00Z,2025-09-09T20:53:00Z,VFR,16.1,5.6,120,6,0,NA,1023.8,METAR KDUJ 100053Z AUTO 12006KT 10SM CLR 16/06 A3023 RMK AO2 SLP237 T01610056,2025-09-10T01:11:31Z,2025-09-09T21:11:31Z
KDVL,"Devils Lake Rgnl, ND, US",2025-09-09T23:56:00Z,2025-09-09T19:56:00Z,VFR,23.3,12.8,130,5,0,NA,1015.7,METAR KDVL 092356Z AUTO 13005KT 10SM CLR 23/13 A2999 RMK AO2 SLP158 T02330128 10250 20222 50000,2025-09-10T00:12:38Z,2025-09-09T20:12:38Z
KDVL,"Devils Lake Rgnl, ND, US",2025-09-10T00:56:00Z,2025-09-09T20:56:00Z,VFR,20.6,13.3,120,5,0,NA,1016,METAR KDVL 100056Z AUTO 12005KT 10SM CLR 21/13 A3000 RMK AO2 SLP162 T02060133,2025-09-10T01:11:31Z,2025-09-09T21:11:31Z
KDXR,"Danbury Muni, CT, US",2025-09-09T23:53:00Z,2025-09-09T19:53:00Z,VFR,16.7,11.7,0,0,0,NA,1026.2,METAR KDXR 092353Z 00000KT 10SM CLR 17/12 A3030 RMK AO2 SLP260 T01670117 10239 20167 55001,2025-09-10T00:12:39Z,2025-09-09T20:12:39Z
KDXR,"Danbury Muni, CT, US",2025-09-10T00:53:00Z,2025-09-09T20:53:00Z,VFR,14.4,11.7,0,0,0,NA,1026.5,METAR KDXR 100053Z 00000KT 10SM CLR 14/12 A3031 RMK AO2 SLP262 T01440117,2025-09-10T01:11:31Z,2025-09-09T21:11:31Z
KDYS,"Abilene/Dyess AFB, TX, US",2025-09-09T23:55:00Z,2025-09-09T19:55:00Z,VFR,32.4,13.6,170,14,0,NA,1013.6,METAR KDYS 092355Z AUTO 17014KT 10SM CLR 32/14 A2993 RMK AO2 SLP112 T03240136 10339 20300 57010,2025-09-10T00:12:38Z,2025-09-09T20:12:38Z
KDYS,"Abilene/Dyess AFB, TX, US",2025-09-10T00:55:00Z,2025-09-09T20:55:00Z,VFR,30.2,13.4,170,9,0,NA,1014,METAR KDYS 100055Z AUTO 17009KT 10SM CLR 30/13 A2994 RMK AO2 SLP115 T03020134,2025-09-10T01:11:31Z,2025-09-09T21:11:31Z
KEAR,"Kearney Rgnl, NE, US",2025-09-09T23:56:00Z,2025-09-09T19:56:00Z,VFR,23.9,18.9,90,4,0,NA,1014.6,METAR KEAR 092356Z AUTO 09004KT 10SM CLR 24/19 A2996 RMK AO2 SLP132 T02390189 10250 20189 56007,2025-09-10T00:12:38Z,2025-09-09T20:12:38Z
KEAR,"Kearney Rgnl, NE, US",2025-09-10T00:56:00Z,2025-09-09T20:56:00Z,VFR,21.1,18.9,80,5,0,NA,1015.3,METAR KEAR 100056Z AUTO 08005KT 10SM CLR 21/19 A2998 RMK AO2 SLP140 T02110189,2025-09-10T01:11:31Z,2025-09-09T21:11:31Z
KEAT,"Wenatchee/Pangborn Mem, WA, US",2025-09-09T23:55:00Z,2025-09-09T19:55:00Z,VFR,26.7,11.1,VAR,NA,0,NA,1008.9,METAR KEAT 092355Z AUTO 10SM FEW048 FEW065 27/11 A2979 RMK AO2 SLP078 T02670111 10272 20194 56019,2025-09-10T00:12:38Z,2025-09-09T20:12:38Z
KEAT,"Wenatchee/Pangborn Mem, WA, US",2025-09-10T00:55:00Z,2025-09-09T20:55:00Z,VFR,26.7,10,260,3,0,NA,1008.5,METAR KEAT 100055Z AUTO 26003KT 10SM CLR 27/10 A2978 RMK AO2 SLP075 T02670100,2025-09-10T01:11:31Z,2025-09-09T21:11:31Z
KEAU,"Eau Claire/Chippewa Valley Rgnl, WI, US",2025-09-09T23:56:00Z,2025-09-09T19:56:00Z,VFR,17.2,15.6,0,0,0,NA,1016.3,METAR KEAU 092356Z 00000KT 10SM FEW080 OVC100 17/16 A3001 RMK AO2 RAB38E50 SLP160 P0000 60000 T01720156 10211 20172 52008,2025-09-10T00:12:38Z,2025-09-09T20:12:38Z
KEAU,"Eau Claire/Chippewa Valley Rgnl, WI, US",2025-09-10T00:56:00Z,2025-09-09T20:56:00Z,VFR,16.7,16.1,130,3,0,NA,1016.7,METAR KEAU 100056Z 13003KT 10SM FEW080 OVC095 17/16 A3002 RMK AO2 RAB05E50 SLP164 P0000 T01670161,2025-09-10T01:11:31Z,2025-09-09T21:11:31Z
KECG,"Elizabeth City Rgnl, NC, US",2025-09-09T23:54:00Z,2025-09-09T19:54:00Z,IFR,20.6,19.4,20,14,24,5,1018,METAR KECG 092354Z 02014G24KT 5SM -RA BR OVC008 21/19 A3006 RMK AO2 PK WND 02026/2324 CIG 006V010 SLP178 P0001 60006 T02060194 10228 20206 56008,2025-09-10T00:12:39Z,2025-09-09T20:12:39Z
KECG,"Elizabeth City Rgnl, NC, US",2025-09-10T00:54:00Z,2025-09-09T20:54:00Z,IFR,20.6,19.4,10,16,24,4,1018,METAR KECG 100054Z 01016G24KT 4SM -RA BR OVC007 21/19 A3006 RMK AO2 PK WND 02027/0026 CIG 006V010 SLP179 P0000 T02060194,2025-09-10T01:11:31Z,2025-09-09T21:11:31Z
KECP,"Panama City/NW Florida Beaches Intl, FL, US",2025-09-09T23:53:00Z,2025-09-09T19:53:00Z,VFR,28.3,19.4,350,4,0,NA,1015.3,METAR KECP 092353Z 35004KT 10SM OVC060 28/19 A2998 RMK AO2 SLP161 T02830194 10317 20283 53007,2025-09-10T00:12:39Z,2025-09-09T20:12:39Z
KECP,"Panama City/NW Florida Beaches Intl, FL, US",2025-09-10T00:53:00Z,2025-09-09T20:53:00Z,VFR,27.8,19.4,10,6,0,NA,1015.7,METAR KECP 100053Z 01006KT 10SM OVC060 28/19 A2999 RMK AO2 SLP167 T02780194,2025-09-10T01:11:31Z,2025-09-09T21:11:31Z
KEDW,"Edwards AFB, CA, US",2025-09-09T23:55:00Z,2025-09-09T19:55:00Z,VFR,30,6.6,220,19,23,50,1009.2,METAR KEDW 092355Z 22019G23KT 50SM CLR 30/07 A2980 RMK AO2A SLP068 T03000066 10316 20274 57014,2025-09-10T00:12:38Z,2025-09-09T20:12:38Z
KEDW,"Edwards AFB, CA, US",2025-09-10T00:55:00Z,2025-09-09T20:55:00Z,VFR,28.3,8.5,230,20,0,50,1009.2,METAR KEDW 100055Z 23020KT 50SM CLR 28/09 A2980 RMK AO2A SLP070 T02830085,2025-09-10T01:11:31Z,2025-09-09T21:11:31Z
KEED,"Needles Arpt, CA, US",2025-09-09T23:56:00Z,2025-09-09T19:56:00Z,VFR,40,12.2,190,14,23,NA,1005.2,METAR KEED 092356Z AUTO 19014G23KT 10SM CLR 40/12 A2968 RMK AO2 SLP015 T04000122 10411 20372 56017,2025-09-10T00:12:38Z,2025-09-09T20:12:38Z
KEED,"Needles Arpt, CA, US",2025-09-10T00:56:00Z,2025-09-09T20:56:00Z,VFR,39.4,12.2,200,13,0,NA,1004.8,METAR KEED 100056Z AUTO 20013KT 10SM CLR 39/12 A2967 RMK AO2 SLP011 T03940122,2025-09-10T01:11:31Z,2025-09-09T21:11:31Z
KEEN,"Keene/Hopkins Arpt, NH, US",2025-09-09T23:56:00Z,2025-09-09T19:56:00Z,VFR,17.2,8.3,VAR,4,0,NA,1027.2,METAR KEEN 092356Z AUTO VRB04KT 10SM CLR 17/08 A3033 RMK AO2 SLP273 T01720083 10228 20172 53004 $,2025-09-10T00:12:38Z,2025-09-09T20:12:38Z
KEEN,"Keene/Hopkins Arpt, NH, US",2025-09-10T00:56:00Z,2025-09-09T20:56:00Z,VFR,13.3,8.9,0,0,0,NA,1027.2,METAR KEEN 100056Z AUTO 00000KT 10SM CLR 13/09 A3033 RMK AO2 SLP276 T01330089 $,2025-09-10T01:11:31Z,2025-09-09T21:11:31Z
KEET,"Alabaster/Shelby Cnty, AL, US",2025-09-09T23:53:00Z,2025-09-09T19:53:00Z,VFR,26.1,14.4,0,0,0,NA,1018,METAR KEET 092353Z AUTO 00000KT 10SM CLR 26/14 A3006 RMK AO2 SLP174 T02610144 10311 20261 53003,2025-09-10T00:12:39Z,2025-09-09T20:12:39Z
KEET,"Alabaster/Shelby Cnty, AL, US",2025-09-10T00:53:00Z,2025-09-09T20:53:00Z,VFR,23.3,14.4,0,0,0,NA,1018.4,METAR KEET 100053Z AUTO 00000KT 10SM CLR 23/14 A3007 RMK AO2 SLP176 T02330144 TSNO,2025-09-10T01:11:31Z,2025-09-09T21:11:31Z
KEFD,"Houston/Ellington Arpt, TX, US",2025-09-09T22:54:00Z,2025-09-09T18:54:00Z,VFR,30,13,100,4,0,NA,1014,METAR KEFD 092254Z 10004KT 10SM CLR 30/13 A2994,2025-09-10T00:12:40Z,2025-09-09T20:12:40Z
KEFD,"Houston/Ellington Arpt, TX, US",2025-09-10T00:54:00Z,2025-09-09T20:54:00Z,VFR,26,15,130,5,0,NA,1014.6,METAR KEFD 100054Z 13005KT 10SM CLR 26/15 A2996,2025-09-10T01:11:31Z,2025-09-09T21:11:31Z
KEGE,"Eagle Cnty Rgnl, CO, US",2025-09-09T14:56:00Z,2025-09-09T10:56:00Z,VFR,11.1,2.8,0,0,0,NA,1025.8,METAR KEGE 091456Z 00000KT 10SM CLR 11/03 A3029 RMK AO2 SLP196 60000 T01110028 51003 $,2025-09-09T15:51:30Z,2025-09-09T11:51:30Z
KEGE,"Eagle Cnty Rgnl, CO, US",2025-09-09T15:56:00Z,2025-09-09T11:56:00Z,VFR,13.9,2.2,VAR,3,0,NA,1025.5,METAR KEGE 091556Z VRB03KT 10SM SCT100 14/02 A3028 RMK AO2 LTG DSNT W SLP188 T01390022 $,2025-09-09T16:06:03Z,2025-09-09T12:06:03Z
KEGE,"Eagle Cnty Rgnl, CO, US",2025-09-09T16:56:00Z,2025-09-09T12:56:00Z,VFR,17.2,2.2,200,4,0,NA,1025.1,METAR KEGE 091656Z 20004KT 10SM CLR 17/02 A3027 RMK AO2 SLP180 T01720022 $,2025-09-09T17:12:54Z,2025-09-09T13:12:54Z
KEGE,"Eagle Cnty Rgnl, CO, US",2025-09-09T17:56:00Z,2025-09-09T13:56:00Z,VFR,21.1,2.8,230,4,0,NA,1023.5,METAR KEGE 091756Z 23004KT 10SM CLR 21/03 A3022 RMK AO2 LTG DSNT N SLP161 60000 T02110028 10211 20083 58020 $,2025-09-09T18:09:21Z,2025-09-09T14:09:21Z
KEGE,"Eagle Cnty Rgnl, CO, US",2025-09-09T18:56:00Z,2025-09-09T14:56:00Z,VFR,23.3,3.3,320,3,0,NA,1022.1,METAR KEGE 091856Z 32003KT 10SM CLR 23/03 A3018 RMK AO2 LTG DSNT SW SLP144 T02330033 $,2025-09-09T19:00:57Z,2025-09-09T15:00:57Z
KEGE,"Eagle Cnty Rgnl, CO, US",2025-09-09T19:56:00Z,2025-09-09T15:56:00Z,VFR,24.4,6.1,290,12,16,NA,1021.4,METAR KEGE 091956Z 29012G16KT 10SM VCTS -RA CLR 24/06 A3016 RMK AO2 LTG DSNT SE AND S TSB55RAB45 SLP137 P0000 T02440061 $,2025-09-09T20:10:18Z,2025-09-09T16:10:18Z
KEGE,"Eagle Cnty Rgnl, CO, US",2025-09-09T20:21:00Z,2025-09-09T16:21:00Z,VFR,25,2,290,4,0,NA,1021.1,SPECI KEGE 092021Z 29004KT 10SM CLR 25/02 A3015 RMK AO2 LTG DSNT N AND SE AND S TSE10RAE03 P0000 $,2025-09-09T20:31:19Z,2025-09-09T16:31:19Z
KEGE,"Eagle Cnty Rgnl, CO, US",2025-09-09T20:56:00Z,2025-09-09T16:56:00Z,VFR,25.6,2.8,220,8,0,NA,1020.7,METAR KEGE 092056Z 22008KT 10SM CLR 26/03 A3014 RMK AO2 LTG DSNT N AND SW TSE10RAE03 SLP129 P0000 60000 T02560028 56024 $,2025-09-09T21:12:45Z,2025-09-09T17:12:45Z
KEGE,"Eagle Cnty Rgnl, CO, US",2025-09-09T21:56:00Z,2025-09-09T17:56:00Z,VFR,26.7,2.8,180,12,0,NA,1020.4,METAR KEGE 092156Z 18012KT 10SM CLR 27/03 A3013 RMK AO2 LTG DSNT NE SLP128 T02670028 $,2025-09-09T22:00:10Z,2025-09-09T18:00:10Z
KEGE,"Eagle Cnty Rgnl, CO, US",2025-09-09T22:56:00Z,2025-09-09T18:56:00Z,VFR,24.4,3.9,180,13,18,NA,1020.1,METAR KEGE 092256Z 18013G18KT 10SM CLR 24/04 A3012 RMK AO2 SLP128 T02440039 $,2025-09-09T22:58:33Z,2025-09-09T18:58:33Z
KEGE,"Eagle Cnty Rgnl, CO, US",2025-09-09T23:15:00Z,2025-09-09T19:15:00Z,VFR,22,6,180,7,0,NA,1019.7,SPECI KEGE 092315Z 18007KT 10SM VCTS -RA CLR 22/06 A3011 RMK AO2 PK WND 17031/2258 TSB04RAB2258 P0001 $,2025-09-09T23:21:18Z,2025-09-09T19:21:18Z
KEGE,"Eagle Cnty Rgnl, CO, US",2025-09-09T23:25:00Z,2025-09-09T19:25:00Z,VFR,21,10,190,11,16,9,1020.1,SPECI KEGE 092325Z 19011G16KT 9SM TS SCT110 21/10 A3012 RMK AO2 PK WND 17031/2258 TSB04E19B25RAB2258E23 P0001 $,2025-09-09T23:31:57Z,2025-09-09T19:31:57Z
KEGE,"Eagle Cnty Rgnl, CO, US",2025-09-09T23:56:00Z,2025-09-09T19:56:00Z,VFR,21.7,9.4,40,3,0,NA,1020.1,METAR KEGE 092356Z 04003KT 10SM FEW016 BKN100 22/09 A3012 RMK AO2 PK WND 17031/2258 LTG DSNT N AND S TSB04E19B25E50RAB2258E48 SLP135 P0008 60008 T02170094 10267 20200 56004 $,2025-09-10T00:12:38Z,2025-09-09T20:12:38Z
KEGE,"Eagle Cnty Rgnl, CO, US",2025-09-10T00:56:00Z,2025-09-09T20:56:00Z,VFR,19.4,12.2,170,5,0,NA,1020.1,METAR KEGE 100056Z AUTO 17005KT 10SM CLR 19/12 A3012 RMK AO2 LTG DSNT S SLP138 T01940122 $,2025-09-10T01:11:31Z,2025-09-09T21:11:31Z
KEGI,"Eglin AFB/Duke Fld, FL, US",2025-09-09T23:55:00Z,2025-09-09T19:55:00Z,VFR,28.3,18.1,60,5,0,NA,1015.7,METAR KEGI 092355Z AUTO 06005KT 10SM OVC060 28/18 A2999 RMK AO2 SLP155 T02830181 10312 20283 53006 $,2025-09-10T00:12:38Z,2025-09-09T20:12:38Z
KEGI,"Eglin AFB/Duke Fld, FL, US",2025-09-10T00:55:00Z,2025-09-09T20:55:00Z,VFR,26.8,17.8,40,3,0,NA,1016.3,METAR KEGI 100055Z AUTO 04003KT 10SM FEW065 BKN085 27/18 A3001 RMK AO2 SLP161 T02680178 $,2025-09-10T01:11:31Z,2025-09-09T21:11:31Z
KEKN,"Elkins Arpt, WV, US",2025-09-09T23:51:00Z,2025-09-09T19:51:00Z,VFR,16.1,7.8,0,0,0,NA,1022.8,METAR KEKN 092351Z AUTO 00000KT 10SM CLR 16/08 A3020 RMK AO2 SLP234 T01610078 10244 20161 53001,2025-09-10T00:12:40Z,2025-09-09T20:12:40Z
KEKN,"Elkins Arpt, WV, US",2025-09-10T00:51:00Z,2025-09-09T20:51:00Z,VFR,13.3,8.3,0,0,0,NA,1023.1,METAR KEKN 100051Z AUTO 00000KT 10SM CLR 13/08 A3021 RMK AO2 SLP238 T01330083,2025-09-10T01:11:31Z,2025-09-09T21:11:31Z
KEKO,"Elko Rgnl, NV, US",2025-09-09T23:56:00Z,2025-09-09T19:56:00Z,VFR,25,-3.3,310,4,0,NA,1011.9,METAR KEKO 092356Z AUTO 31004KT 10SM CLR 25/M03 A2988 RMK AO2 SLP067 T02501033 10261 20222 57017,2025-09-10T00:12:38Z,2025-09-09T20:12:38Z
KEKO,"Elko Rgnl, NV, US",2025-09-10T00:56:00Z,2025-09-09T20:56:00Z,VFR,24.4,-3.3,90,4,0,NA,1011.3,METAR KEKO 100056Z AUTO 09004KT 10SM CLR 24/M03 A2986 RMK AO2 SLP060 T02441033,2025-09-10T01:11:31Z,2025-09-09T21:11:31Z
KELD,"El Dorado/S Arkansas Rgnl, AR, US",2025-09-09T23:53:00Z,2025-09-09T19:53:00Z,VFR,26.1,16.7,0,0,0,NA,1015.7,METAR KELD 092353Z AUTO 00000KT 10SM CLR 26/17 A2999 RMK AO2 SLP154 T02610167 10311 20261 58007,2025-09-10T00:12:39Z,2025-09-09T20:12:39Z
KELD,"El Dorado/S Arkansas Rgnl, AR, US",2025-09-10T00:53:00Z,2025-09-09T20:53:00Z,VFR,22.2,17.2,0,0,0,NA,1015.7,METAR KELD 100053Z AUTO 00000KT 10SM CLR 22/17 A2999 RMK AO2 SLP155 T02220172,2025-09-10T01:11:31Z,2025-09-09T21:11:31Z
KELM,"Elmira-Corning Rgnl, NY, US",2025-09-09T23:53:00Z,2025-09-09T19:53:00Z,VFR,14.4,8.3,0,0,0,NA,1023.8,METAR KELM 092353Z 00000KT 10SM CLR 14/08 A3023 RMK AO2 SLP239 T01440083 10228 20128 55004,2025-09-10T00:12:39Z,2025-09-09T20:12:39Z
KELM,"Elmira-Corning Rgnl, NY, US",2025-09-10T00:53:00Z,2025-09-09T20:53:00Z,VFR,11.1,8.3,0,0,0,NA,1024.1,METAR KELM 100053Z 00000KT 10SM CLR 11/08 A3024 RMK AO2 SLP244 T01110083,2025-09-10T01:11:31Z,2025-09-09T21:11:31Z
KELO,"Ely Muni, MN, US",2025-09-09T23:55:00Z,2025-09-09T19:55:00Z,VFR,18,9,0,0,0,NA,1017,METAR KELO 092355Z AUTO 00000KT 10SM CLR 18/09 A3003 RMK AO2,2025-09-10T00:12:39Z,2025-09-09T20:12:39Z
KELO,"Ely Muni, MN, US",2025-09-10T00:15:00Z,2025-09-09T20:15:00Z,VFR,16,10,0,0,0,NA,1017,METAR KELO 100015Z AUTO 00000KT 10SM CLR 16/10 A3003 RMK AO2,2025-09-10T00:33:20Z,2025-09-09T20:33:20Z
KELO,"Ely Muni, MN, US",2025-09-10T00:55:00Z,2025-09-09T20:55:00Z,VFR,14,12,0,0,0,NA,1017.4,METAR KELO 100055Z AUTO 00000KT 10SM CLR 14/12 A3004 RMK AO2,2025-09-10T01:11:31Z,2025-09-09T21:11:31Z
KELP,"El Paso Intl, TX, US",2025-09-09T14:51:00Z,2025-09-09T10:51:00Z,VFR,25.6,13.3,150,8,0,NA,1018.7,METAR KELP 091451Z 15008KT 10SM SCT110 26/13 A3008 RMK AO2 SLP108 T02560133 51007,2025-09-09T15:51:30Z,2025-09-09T11:51:30Z
KELP,"El Paso Intl, TX, US",2025-09-09T15:51:00Z,2025-09-09T11:51:00Z,VFR,28.3,12.8,170,8,0,NA,1019,METAR KELP 091551Z 17008KT 10SM FEW110 FEW160 28/13 A3009 RMK AO2 SLP109 T02830128,2025-09-09T16:06:03Z,2025-09-09T12:06:03Z
KELP,"El Paso Intl, TX, US",2025-09-09T16:51:00Z,2025-09-09T12:51:00Z,VFR,30,12.8,180,6,0,NA,1019,METAR KELP 091651Z 18006KT 10SM FEW065 FEW110 30/13 A3009 RMK AO2 SLP107 T03000128,2025-09-09T16:54:04Z,2025-09-09T12:54:04Z
KELP,"El Paso Intl, TX, US",2025-09-09T17:51:00Z,2025-09-09T13:51:00Z,VFR,32.8,12.2,210,6,0,NA,1018.4,METAR KELP 091751Z 21006KT 10SM FEW075 33/12 A3007 RMK AO2 SLP102 CB DSNT NE T03280122 10328 20228 58004,2025-09-09T18:09:22Z,2025-09-09T14:09:22Z
KELP,"El Paso Intl, TX, US",2025-09-09T18:51:00Z,2025-09-09T14:51:00Z,VFR,33.9,11.7,VAR,4,0,NA,1017.7,METAR KELP 091851Z VRB04KT 10SM FEW085 34/12 A3005 RMK AO2 SLP090 CB DSNT NE T03390117,2025-09-09T19:00:57Z,2025-09-09T15:00:57Z
KELP,"El Paso Intl, TX, US",2025-09-09T19:51:00Z,2025-09-09T15:51:00Z,VFR,36.1,8.3,0,0,0,NA,1016.7,METAR KELP 091951Z 00000KT 10SM SCT100 36/08 A3002 RMK AO2 SLP080 CB DSNT NE E AND NW T03610083,2025-09-09T20:10:18Z,2025-09-09T16:10:18Z
KELP,"El Paso Intl, TX, US",2025-09-09T20:51:00Z,2025-09-09T16:51:00Z,VFR,36.1,6.7,VAR,6,0,NA,1016,METAR KELP 092051Z VRB06KT 10SM SCT110 36/07 A3000 RMK AO2 SLP074 CB DSNT NE AND E T03610067 56022,2025-09-09T20:54:01Z,2025-09-09T16:54:01Z
KELP,"El Paso Intl, TX, US",2025-09-09T21:51:00Z,2025-09-09T17:51:00Z,VFR,36.7,7.8,240,7,0,NA,1015.3,METAR KELP 092151Z 24007KT 10SM SCT110 37/08 A2998 RMK AO2 SLP067 CB DSNT NE T03670078,2025-09-09T22:00:10Z,2025-09-09T18:00:10Z
KELP,"El Paso Intl, TX, US",2025-09-09T22:51:00Z,2025-09-09T18:51:00Z,VFR,35.6,7.2,0,0,0,NA,1015,METAR KELP 092251Z 00000KT 10SM FEW110 36/07 A2997 RMK AO2 SLP064 CB DSNT NE T03560072,2025-09-09T22:58:33Z,2025-09-09T18:58:33Z
KELP,"El Paso Intl, TX, US",2025-09-09T23:51:00Z,2025-09-09T19:51:00Z,VFR,35.6,7.8,190,9,0,NA,1014.6,METAR KELP 092351Z 19009KT 10SM FEW110 36/08 A2996 RMK AO2 SLP063 T03560078 10367 20328 56012,2025-09-10T00:12:40Z,2025-09-09T20:12:40Z
KELP,"El Paso Intl, TX, US",2025-09-10T00:51:00Z,2025-09-09T20:51:00Z,VFR,34.4,7.8,190,9,0,NA,1014.3,METAR KELP 100051Z 19009KT 10SM FEW110 34/08 A2995 RMK AO2 SLP061 T03440078,2025-09-10T01:11:31Z,2025-09-09T21:11:31Z
KELY,"Ely/Yelland Fld, NV, US",2025-09-09T23:53:00Z,2025-09-09T19:53:00Z,VFR,24.4,-7.8,210,9,26,NA,1014,METAR KELY 092353Z AUTO 21009G26KT 10SM CLR 24/M08 A2994 RMK AO2 PK WND 19029/2302 SLP045 T02441078 10272 20239 56009,2025-09-10T00:12:39Z,2025-09-09T20:12:39Z
KELY,"Ely/Yelland Fld, NV, US",2025-09-10T00:53:00Z,2025-09-09T20:53:00Z,VFR,23.9,-6.1,190,17,24,NA,1014,METAR KELY 100053Z AUTO 19017G24KT 10SM CLR 24/M06 A2994 RMK AO2 PK WND 20027/0000 SLP052 T02391061,2025-09-10T01:11:31Z,2025-09-09T21:11:31Z
KEND,"Enid/Vance AFB, OK, US",2025-09-09T23:55:00Z,2025-09-09T19:55:00Z,VFR,29.1,16.6,180,16,0,NA,1012.3,METAR KEND 092355Z AUTO 18016KT 10SM CLR 29/17 A2989 RMK AO2 SLP112 T02910166 10315 20284 57005 $,2025-09-10T00:12:38Z,2025-09-09T20:12:38Z
KEND,"Enid/Vance AFB, OK, US",2025-09-10T00:55:00Z,2025-09-09T20:55:00Z,VFR,26.8,17,150,11,0,NA,1012.3,METAR KEND 100055Z AUTO 15011KT 10SM CLR 27/17 A2989 RMK AO2 SLP112 T02680170 $,2025-09-10T01:11:31Z,2025-09-09T21:11:31Z
KENV,"Wendover Arpt, UT, US",2025-09-09T23:56:00Z,2025-09-09T19:56:00Z,VFR,30,-5.6,50,7,0,NA,1009.6,METAR KENV 092356Z AUTO 05007KT 10SM CLR 30/M06 A2981 RMK AO2 SLP056 T03001056 10311 20250 58021,2025-09-10T00:12:38Z,2025-09-09T20:12:38Z
KENV,"Wendover Arpt, UT, US",2025-09-10T00:56:00Z,2025-09-09T20:56:00Z,VFR,28.3,-5,30,7,0,NA,1009.2,METAR KENV 100056Z AUTO 03007KT 10SM CLR 28/M05 A2980 RMK AO2 SLP053 T02831050,2025-09-10T01:11:31Z,2025-09-09T21:11:31Z
KENW,"Kenosha Rgnl, WI, US",2025-09-09T23:53:00Z,2025-09-09T19:53:00Z,VFR,19,12,150,7,0,NA,1019.7,METAR KENW 092353Z 15007KT 10SM CLR 19/12 A3011,2025-09-10T00:12:39Z,2025-09-09T20:12:39Z
KENW,"Kenosha Rgnl, WI, US",2025-09-10T00:53:00Z,2025-09-09T20:53:00Z,VFR,18,13,150,5,0,NA,1019.7,METAR KENW 100053Z 15005KT 10SM CLR 18/13 A3011,2025-09-10T01:11:31Z,2025-09-09T21:11:31Z
KERI,"Erie Intl, PA, US",2025-09-09T23:51:00Z,2025-09-09T19:51:00Z,VFR,17.8,9.4,60,7,0,NA,1022.8,METAR KERI 092351Z 06007KT 10SM CLR 18/09 A3020 RMK AO2 SLP227 T01780094 10233 20178 55003 $,2025-09-10T00:12:40Z,2025-09-09T20:12:40Z
KERI,"Erie Intl, PA, US",2025-09-10T00:51:00Z,2025-09-09T20:51:00Z,VFR,16.7,10.6,90,5,0,NA,1022.8,METAR KERI 100051Z 09005KT 10SM CLR 17/11 A3020 RMK AO2 SLP226 T01670106 $,2025-09-10T01:11:31Z,2025-09-09T21:11:31Z
KESC,"Escanaba/Delta Cnty, MI, US",2025-09-09T23:56:00Z,2025-09-09T19:56:00Z,VFR,16.7,13.3,180,8,0,NA,1018.4,METAR KESC 092356Z AUTO 18008KT 10SM OVC080 17/13 A3007 RMK AO2 SLP186 T01670133 10172 20161 53006,2025-09-10T00:12:38Z,2025-09-09T20:12:38Z
KESC,"Escanaba/Delta Cnty, MI, US",2025-09-10T00:56:00Z,2025-09-09T20:56:00Z,VFR,16.1,14.4,200,5,0,NA,1019,METAR KESC 100056Z AUTO 20005KT 10SM -RA OVC075 16/14 A3009 RMK AO2 RAB36 SLP194 P0000 T01610144,2025-09-10T01:11:31Z,2025-09-09T21:11:31Z
KESF,"Alexandria/Esler Rgnl, LA, US",2025-09-09T23:53:00Z,2025-09-09T19:53:00Z,VFR,26.1,20,0,0,0,NA,1014.3,METAR KESF 092353Z AUTO 00000KT 10SM CLR 26/20 A2995 RMK AO2 SLP140 T02610200 10311 20261 56006,2025-09-10T00:12:39Z,2025-09-09T20:12:39Z
KESF,"Alexandria/Esler Rgnl, LA, US",2025-09-10T00:53:00Z,2025-09-09T20:53:00Z,VFR,22.2,19.4,0,0,0,NA,1015,METAR KESF 100053Z AUTO 00000KT 10SM CLR 22/19 A2997 RMK AO2 SLP146 T02220194,2025-09-10T01:11:31Z,2025-09-09T21:11:31Z
KEUG,"Eugene/Mahlon Sweet Fld, OR, US",2025-09-09T14:54:00Z,2025-09-09T10:54:00Z,VFR,16.7,13.9,190,6,0,NA,1014.3,METAR KEUG 091454Z 19006KT 10SM BKN047 BKN065 OVC100 17/14 A2995 RMK AO2 SLP139 T01670139 53001,2025-09-09T15:51:30Z,2025-09-09T11:51:30Z
KEUG,"Eugene/Mahlon Sweet Fld, OR, US",2025-09-09T15:54:00Z,2025-09-09T11:54:00Z,VFR,17.8,14.4,170,3,0,NA,1014.3,METAR KEUG 091554Z 17003KT 10SM BKN031 BKN045 OVC080 18/14 A2995 RMK AO2 SLP140 T01780144,2025-09-09T16:06:03Z,2025-09-09T12:06:03Z
KEUG,"Eugene/Mahlon Sweet Fld, OR, US",2025-09-09T16:54:00Z,2025-09-09T12:54:00Z,VFR,18.3,14.4,160,4,0,NA,1014.3,METAR KEUG 091654Z 16004KT 10SM BKN033 BKN042 OVC080 18/14 A2995 RMK AO2 SLP140 T01830144,2025-09-09T17:12:54Z,2025-09-09T13:12:54Z
KEUG,"Eugene/Mahlon Sweet Fld, OR, US",2025-09-09T17:54:00Z,2025-09-09T13:54:00Z,VFR,18.3,15,160,4,0,NA,1014.6,METAR KEUG 091754Z 16004KT 10SM FEW014 BKN034 OVC045 18/15 A2996 RMK AO2 SLP143 T01830150 10189 20161 53004,2025-09-09T18:09:21Z,2025-09-09T14:09:21Z
KEUG,"Eugene/Mahlon Sweet Fld, OR, US",2025-09-09T18:54:00Z,2025-09-09T14:54:00Z,VFR,18.9,14.4,VAR,3,0,NA,1014.3,METAR KEUG 091854Z VRB03KT 10SM FEW014 SCT035 OVC047 19/14 A2995 RMK AO2 SLP142 T01890144,2025-09-09T19:00:57Z,2025-09-09T15:00:57Z
KEUG,"Eugene/Mahlon Sweet Fld, OR, US",2025-09-09T19:54:00Z,2025-09-09T15:54:00Z,MVFR,20.6,15,VAR,4,0,NA,1014.3,METAR KEUG 091954Z VRB04KT 10SM BKN018 BKN036 BKN070 21/15 A2995 RMK AO2 SLP139 T02060150,2025-09-09T20:10:18Z,2025-09-09T16:10:18Z
KEUG,"Eugene/Mahlon Sweet Fld, OR, US",2025-09-09T20:54:00Z,2025-09-09T16:54:00Z,MVFR,21.1,15,120,3,0,NA,1013.6,METAR KEUG 092054Z 12003KT 10SM BKN020 BKN036 OVC070 21/15 A2993 RMK AO2 SLP135 T02110150 58007,2025-09-09T21:12:45Z,2025-09-09T17:12:45Z
KEUG,"Eugene/Mahlon Sweet Fld, OR, US",2025-09-09T21:54:00Z,2025-09-09T17:54:00Z,MVFR,21.1,15.6,0,0,0,NA,1013.3,METAR KEUG 092154Z 00000KT 10SM FEW021 BKN027 OVC047 21/16 A2992 RMK AO2 SLP131 T02110156,2025-09-09T22:00:10Z,2025-09-09T18:00:10Z
KEUG,"Eugene/Mahlon Sweet Fld, OR, US",2025-09-09T22:54:00Z,2025-09-09T18:54:00Z,MVFR,21.7,15.6,180,5,0,NA,1013,METAR KEUG 092254Z 18005KT 10SM BKN024 BKN031 OVC070 22/16 A2991 RMK AO2 SLP126 T02170156,2025-09-09T22:58:33Z,2025-09-09T18:58:33Z
KEUG,"Eugene/Mahlon Sweet Fld, OR, US",2025-09-09T23:54:00Z,2025-09-09T19:54:00Z,VFR,21.7,16.1,230,6,0,NA,1012.6,METAR KEUG 092354Z 23006KT 10SM FEW023 SCT028 BKN065 22/16 A2990 RMK AO2 LTG DSNT E SLP123 CB DSNT E T02170161 10222 20183 56013,2025-09-10T00:12:39Z,2025-09-09T20:12:39Z
KEUG,"Eugene/Mahlon Sweet Fld, OR, US",2025-09-10T00:54:00Z,2025-09-09T20:54:00Z,VFR,21.7,16.1,200,7,0,NA,1012.3,METAR KEUG 100054Z 20007KT 10SM BKN070 22/16 A2989 RMK AO2 LTG DSNT N SLP120 T02170161,2025-09-10T01:11:31Z,2025-09-09T21:11:31Z
KEVV,"Evansville Rgnl, IN, US",2025-09-09T23:54:00Z,2025-09-09T19:54:00Z,VFR,23.9,10.6,40,5,0,NA,1018.4,METAR KEVV 092354Z 04005KT 10SM CLR 24/11 A3007 RMK AO2 SLP179 T02390106 10278 20233 56008 $,2025-09-10T00:12:39Z,2025-09-09T20:12:39Z
KEVV,"Evansville Rgnl, IN, US",2025-09-10T00:54:00Z,2025-09-09T20:54:00Z,VFR,20,12.2,40,4,0,NA,1018.4,METAR KEVV 100054Z 04004KT 10SM CLR 20/12 A3007 RMK AO2 SLP180 T02000122 $,2025-09-10T01:11:31Z,2025-09-09T21:11:31Z
KEVW,"Evanston/Uinta Cnty, WY, US",2025-09-09T23:53:00Z,2025-09-09T19:53:00Z,VFR,22.8,-1.1,240,11,21,NA,1018,METAR KEVW 092353Z AUTO 24011G21KT 10SM CLR 23/M01 A3006 RMK AO2 PK WND 23026/2332 SLP090 T02281011 10250 20200 57011,2025-09-10T00:12:39Z,2025-09-09T20:12:39Z
KEVW,"Evanston/Uinta Cnty, WY, US",2025-09-10T00:53:00Z,2025-09-09T20:53:00Z,VFR,22.2,-0.6,250,9,0,NA,1017.7,METAR KEVW 100053Z AUTO 25009KT 10SM CLR 22/M01 A3005 RMK AO2 SLP091 T02221006,2025-09-10T01:11:31Z,2025-09-09T21:11:31Z
KEWB,"New Bedford Rgnl, MA, US",2025-09-09T23:53:00Z,2025-09-09T19:53:00Z,VFR,15.6,11.1,20,4,0,NA,1026.2,METAR KEWB 092353Z 02004KT 10SM CLR 16/11 A3030 RMK AO2 SLP261 T01560111 10217 20156 58004,2025-09-10T00:12:39Z,2025-09-09T20:12:39Z
KEWB,"New Bedford Rgnl, MA, US",2025-09-10T00:53:00Z,2025-09-09T20:53:00Z,VFR,14.4,11.1,30,4,0,NA,1026.5,METAR KEWB 100053Z 03004KT 10SM CLR 14/11 A3031 RMK AO2 SLP265 T01440111,2025-09-10T01:11:31Z,2025-09-09T21:11:31Z
KEWN,"New Bern/Coastal Carolina Rgnl, NC, US",2025-09-09T23:54:00Z,2025-09-09T19:54:00Z,MVFR,21.7,18.9,10,11,0,NA,1017.7,METAR KEWN 092354Z 01011KT 10SM OVC021 22/19 A3005 RMK AO2 SLP177 T02170189 10244 20217 56004,2025-09-10T00:12:39Z,2025-09-09T20:12:39Z
KEWN,"New Bern/Coastal Carolina Rgnl, NC, US",2025-09-10T00:54:00Z,2025-09-09T20:54:00Z,MVFR,21.7,18.9,340,8,0,NA,1018.4,METAR KEWN 100054Z 34008KT 10SM OVC017 22/19 A3007 RMK AO2 SLP183 T02170189,2025-09-10T01:11:31Z,2025-09-09T21:11:31Z
KEWR,"Newark Intl, NJ, US",2025-09-09T14:51:00Z,2025-09-09T10:51:00Z,VFR,21.1,7.8,70,10,18,NA,1027.2,METAR KEWR 091451Z 07010G18KT 10SM SCT038 SCT250 21/08 A3033 RMK AO2 SLP271 T02110078 53002 $,2025-09-09T15:51:27Z,2025-09-09T11:51:27Z
KEWR,"Newark Intl, NJ, US",2025-09-09T15:51:00Z,2025-09-09T11:51:00Z,VFR,21.7,10,80,5,15,NA,1027.2,METAR KEWR 091551Z 08005G15KT 10SM SCT040 SCT250 22/10 A3033 RMK AO2 SLP269 T02170100 $,2025-09-09T16:06:00Z,2025-09-09T12:06:00Z
KEWR,"Newark Intl, NJ, US",2025-09-09T16:51:00Z,2025-09-09T12:51:00Z,VFR,22.8,10,VAR,5,0,NA,1026.8,METAR KEWR 091651Z VRB05KT 10SM FEW040 SCT250 23/10 A3032 RMK AO2 SLP265 T02280100 $,2025-09-09T16:54:01Z,2025-09-09T12:54:01Z
KEWR,"Newark Intl, NJ, US",2025-09-09T17:51:00Z,2025-09-09T13:51:00Z,VFR,23.3,10,50,5,0,NA,1026.2,METAR KEWR 091751Z 05005KT 10SM FEW045 BKN250 23/10 A3030 RMK AO2 SLP261 T02330100 10233 20156 58010 $,2025-09-09T18:09:19Z,2025-09-09T14:09:19Z
KEWR,"Newark Intl, NJ, US",2025-09-09T18:51:00Z,2025-09-09T14:51:00Z,VFR,23.3,10.6,100,7,0,NA,1025.8,METAR KEWR 091851Z 10007KT 10SM SCT048 BKN250 23/11 A3029 RMK AO2 SLP255 T02330106 $,2025-09-09T19:00:54Z,2025-09-09T15:00:54Z
KEWR,"Newark Intl, NJ, US",2025-09-09T19:51:00Z,2025-09-09T15:51:00Z,VFR,22.8,11.7,120,8,16,NA,1025.8,METAR KEWR 091951Z 12008G16KT 090V160 10SM SCT043 SCT050 BKN250 23/12 A3029 RMK AO2 SLP255 T02280117 $,2025-09-09T20:10:13Z,2025-09-09T16:10:13Z
KEWR,"Newark Intl, NJ, US",2025-09-09T20:51:00Z,2025-09-09T16:51:00Z,VFR,22.8,11.7,120,7,15,NA,1025.5,METAR KEWR 092051Z 12007G15KT 10SM FEW042 SCT050 BKN250 23/12 A3028 RMK AO2 SLP251 T02280117 56009 $,2025-09-09T20:53:58Z,2025-09-09T16:53:58Z
KEWR,"Newark Intl, NJ, US",2025-09-09T21:51:00Z,2025-09-09T17:51:00Z,VFR,22.2,11.7,110,10,16,NA,1025.1,METAR KEWR 092151Z 11010G16KT 10SM FEW042 SCT120 BKN250 22/12 A3027 RMK AO2 SLP248 T02220117 $,2025-09-09T22:00:06Z,2025-09-09T18:00:06Z
KEWR,"Newark Intl, NJ, US",2025-09-09T22:51:00Z,2025-09-09T18:51:00Z,VFR,21.7,11.1,130,6,0,NA,1024.8,METAR KEWR 092251Z 13006KT 10SM FEW040 SCT100 BKN250 22/11 A3026 RMK AO2 SLP246 T02170111 $,2025-09-09T22:58:30Z,2025-09-09T18:58:30Z
KEWR,"Newark Intl, NJ, US",2025-09-09T23:51:00Z,2025-09-09T19:51:00Z,VFR,21.1,11.1,80,7,0,NA,1024.8,METAR KEWR 092351Z 08007KT 10SM FEW040 SCT100 BKN250 21/11 A3026 RMK AO2 SLP247 T02110111 10239 20206 55005 $,2025-09-10T00:12:40Z,2025-09-09T20:12:40Z
KEWR,"Newark Intl, NJ, US",2025-09-10T00:51:00Z,2025-09-09T20:51:00Z,VFR,20.6,11.1,100,5,0,NA,1025.1,METAR KEWR 100051Z 10005KT 10SM FEW040 SCT070 BKN250 21/11 A3027 RMK AO2 SLP248 T02060111 $,2025-09-10T01:11:31Z,2025-09-09T21:11:31Z
KEYW,"Key West Intl, FL, US",2025-09-09T15:42:00Z,2025-09-09T11:42:00Z,VFR,30.6,26.1,210,9,0,NA,1014.6,SPECI KEYW 091542Z 21009KT 10SM FEW002 SCT027 31/26 A2996 RMK AO2 T03060261,2025-09-09T15:51:29Z,2025-09-09T11:51:29Z
KEYW,"Key West Intl, FL, US",2025-09-09T15:53:00Z,2025-09-09T11:53:00Z,VFR,30.6,25.6,210,9,0,NA,1014.6,METAR KEYW 091553Z 21009KT 10SM FEW002 FEW026 31/26 A2996 RMK AO2 SLP151 T03060256,2025-09-09T16:06:02Z,2025-09-09T12:06:02Z
KEYW,"Key West Intl, FL, US",2025-09-09T16:53:00Z,2025-09-09T12:53:00Z,VFR,31.1,26.1,200,9,0,NA,1014.6,METAR KEYW 091653Z 20009KT 10SM SCT025 31/26 A2996 RMK AO2 SLP151 T03110261,2025-09-09T17:12:51Z,2025-09-09T13:12:51Z
KEYW,"Key West Intl, FL, US",2025-09-09T17:53:00Z,2025-09-09T13:53:00Z,VFR,31.1,26.7,190,10,0,NA,1013.6,METAR KEYW 091753Z 19010KT 10SM SCT024 31/27 A2993 RMK AO2 SLP140 T03110267 10311 20289 58011,2025-09-09T18:09:20Z,2025-09-09T14:09:20Z
KEYW,"Key West Intl, FL, US",2025-09-09T18:53:00Z,2025-09-09T14:53:00Z,VFR,30.6,26.1,210,10,0,NA,1013.3,METAR KEYW 091853Z 21010KT 10SM SCT023 31/26 A2992 RMK AO2 SLP138 T03060261,2025-09-09T19:00:56Z,2025-09-09T15:00:56Z
KEYW,"Key West Intl, FL, US",2025-09-09T19:53:00Z,2025-09-09T15:53:00Z,VFR,31.1,26.1,220,8,0,NA,1013,METAR KEYW 091953Z 22008KT 10SM SCT024 31/26 A2991 RMK AO2 SLP132 T03110261,2025-09-09T20:10:15Z,2025-09-09T16:10:15Z
KEYW,"Key West Intl, FL, US",2025-09-09T20:53:00Z,2025-09-09T16:53:00Z,VFR,30.6,26.1,200,9,0,7,1013,METAR KEYW 092053Z 20009KT 7SM FEW023 31/26 A2991 RMK AO2 SLP135 T03060261 55005,2025-09-09T21:12:42Z,2025-09-09T17:12:42Z
KEYW,"Key West Intl, FL, US",2025-09-09T21:53:00Z,2025-09-09T17:53:00Z,VFR,30.6,26.1,230,7,0,NA,1012.6,METAR KEYW 092153Z 23007KT 10SM FEW022 31/26 A2990 RMK AO2 SLP132 T03060261,2025-09-09T22:00:08Z,2025-09-09T18:00:08Z
KEYW,"Key West Intl, FL, US",2025-09-09T22:53:00Z,2025-09-09T18:53:00Z,VFR,30,25.6,240,9,0,NA,1013.3,METAR KEYW 092253Z 24009KT 10SM SCT023 SCT120 30/26 A2992 RMK AO2 LTG DSNT NE SLP138 T03000256,2025-09-09T22:58:31Z,2025-09-09T18:58:31Z
KEYW,"Key West Intl, FL, US",2025-09-09T23:53:00Z,2025-09-09T19:53:00Z,VFR,30,25.6,240,7,0,NA,1013.6,METAR KEYW 092353Z 24007KT 10SM SCT024 30/26 A2993 RMK AO2 SLP141 T03000256 10311 20300 53006,2025-09-10T00:12:39Z,2025-09-09T20:12:39Z
KEYW,"Key West Intl, FL, US",2025-09-10T01:08:00Z,2025-09-09T21:08:00Z,MVFR,30,25.6,260,8,0,NA,1014.6,SPECI KEYW 100108Z AUTO 26008KT 10SM VCTS BKN025 30/26 A2996 RMK AO2 LTG DSNT NE T03000256,2025-09-10T01:11:31Z,2025-09-09T21:11:31Z
KFAF,"Fort Eustis/Felker AAF, VA, US",2025-09-09T23:55:00Z,2025-09-09T19:55:00Z,MVFR,19.7,17.5,30,7,15,NA,1019.4,METAR KFAF 092355Z 03007G15KT 10SM BKN012 OVC015 20/18 A3010 RMK AO2A SLP196 60000 T01970175 10237 20193 58005 $,2025-09-10T00:12:38Z,2025-09-09T20:12:38Z
KFAF,"Fort Eustis/Felker AAF, VA, US",2025-09-10T00:28:00Z,2025-09-09T20:28:00Z,MVFR,19,17,30,5,0,NA,1019.7,SPECI KFAF 100028Z 03005KT 10SM BKN010 OVC014 19/17 A3011 RMK AO2A DZE2355DZB16E28 BKN V OVC SLP200 $,2025-09-10T00:33:20Z,2025-09-09T20:33:20Z
KFAF,"Fort Eustis/Felker AAF, VA, US",2025-09-10T00:55:00Z,2025-09-09T20:55:00Z,MVFR,19.4,17.2,20,6,0,NA,1019.4,METAR KFAF 100055Z 02006KT 10SM -DZ OVC012 19/17 A3010 RMK AO2A DZE2355DZB16E28DZB45 SLP196 P0000 T01940172 $,2025-09-10T01:11:31Z,2025-09-09T21:11:31Z
KFAR,"Fargo/Hector Intl, ND, US",2025-09-09T23:53:00Z,2025-09-09T19:53:00Z,VFR,22.8,12.2,60,5,0,NA,1014.6,METAR KFAR 092353Z 06005KT 10SM CLR 23/12 A2996 RMK AO2 SLP144 T02280122 10261 20222 53005,2025-09-10T00:12:39Z,2025-09-09T20:12:39Z
KFAR,"Fargo/Hector Intl, ND, US",2025-09-10T00:53:00Z,2025-09-09T20:53:00Z,VFR,18.3,11.7,90,3,0,NA,1015,METAR KFAR 100053Z 09003KT 10SM CLR 18/12 A2997 RMK AO2 SLP151 T01830117,2025-09-10T01:11:31Z,2025-09-09T21:11:31Z
KFAT,"Fresno/Yosemite Intl, CA, US",2025-09-09T23:53:00Z,2025-09-09T19:53:00Z,VFR,29.4,11.7,310,10,0,NA,1009.6,METAR KFAT 092353Z 31010KT 10SM SCT060 SCT120 SCT200 29/12 A2981 RMK AO2 SLP092 T02940117 10294 20244 56021,2025-09-10T00:12:39Z,2025-09-09T20:12:39Z
KFAT,"Fresno/Yosemite Intl, CA, US",2025-09-10T00:53:00Z,2025-09-09T20:53:00Z,VFR,28.9,11.7,300,12,15,NA,1009.2,METAR KFAT 100053Z 30012G15KT 10SM FEW060 SCT120 SCT200 29/12 A2980 RMK AO2 SLP087 T02890117,2025-09-10T01:11:31Z,2025-09-09T21:11:31Z
KFAY,"Fayetteville Rgnl, NC, US",2025-09-10T00:01:00Z,2025-09-09T20:01:00Z,MVFR,22.2,16.1,30,9,0,NA,1019,SPECI KFAY 100001Z 03009KT 10SM OVC029 22/16 A3009 RMK AO2 T02220161,2025-09-10T00:12:38Z,2025-09-09T20:12:38Z
KFAY,"Fayetteville Rgnl, NC, US",2025-09-10T00:53:00Z,2025-09-09T20:53:00Z,MVFR,21.7,16.1,20,9,0,NA,1019.7,METAR KFAY 100053Z 02009KT 10SM OVC028 22/16 A3011 RMK AO2 SLP190 T02170161,2025-09-10T01:11:31Z,2025-09-09T21:11:31Z
KFBG,"Fort Bragg/Simmons AAF, NC, US",2025-09-09T23:55:00Z,2025-09-09T19:55:00Z,MVFR,22.8,16.3,40,6,0,NA,1018.7,METAR KFBG 092355Z AUTO 04006KT 10SM OVC030 23/16 A3008 RMK AO2 SLP188 T02280163 10264 20228 50003,2025-09-10T00:12:38Z,2025-09-09T20:12:38Z
KFBG,"Fort Bragg/Simmons AAF, NC, US",2025-09-10T00:15:00Z,2025-09-09T20:15:00Z,MVFR,23,16,70,6,0,NA,1018.7,SPECI KFBG 100015Z AUTO 07006KT 10SM OVC029 23/16 A3008 RMK AO2 SLP188,2025-09-10T00:33:20Z,2025-09-09T20:33:20Z
KFBG,"Fort Bragg/Simmons AAF, NC, US",2025-09-10T00:55:00Z,2025-09-09T20:55:00Z,MVFR,22.2,16.4,10,5,0,NA,1019.4,METAR KFBG 100055Z AUTO 01005KT 10SM OVC028 22/16 A3010 RMK AO2 SLP194 T02220164,2025-09-10T01:11:31Z,2025-09-09T21:11:31Z
KFCS,"Fort Carson/Butts AAF, CO, US",2025-09-09T23:55:00Z,2025-09-09T19:55:00Z,VFR,22.7,8.4,360,7,0,NA,1018.4,METAR KFCS 092355Z AUTO 36007KT 10SM FEW130 23/08 A3007 RMK AO2 LTG DSNT S SLP132 6//// T02270084 10297 20227 53003 $,2025-09-10T00:12:38Z,2025-09-09T20:12:38Z
KFCS,"Fort Carson/Butts AAF, CO, US",2025-09-10T00:55:00Z,2025-09-09T20:55:00Z,VFR,20.8,7.4,360,6,0,NA,1019,METAR KFCS 100055Z AUTO 36006KT 10SM BKN120 BKN160 21/07 A3009 RMK AO2 LTG DSNT S SLP145 T02080074 $,2025-09-10T01:11:31Z,2025-09-09T21:11:31Z
KFDY,"Findlay Arpt, OH, US",2025-09-09T23:53:00Z,2025-09-09T19:53:00Z,VFR,21.1,6.1,70,3,0,NA,1020.4,METAR KFDY 092353Z AUTO 07003KT 10SM CLR 21/06 A3013 RMK AO2 SLP199 T02110061 10250 20206 56006,2025-09-10T00:12:39Z,2025-09-09T20:12:39Z
KFDY,"Findlay Arpt, OH, US",2025-09-10T00:53:00Z,2025-09-09T20:53:00Z,VFR,18.9,8.9,60,8,0,NA,1020.7,METAR KFDY 100053Z AUTO 06008KT 10SM CLR 19/09 A3014 RMK AO2 SLP200 T01890089,2025-09-10T01:11:31Z,2025-09-09T21:11:31Z
KFFO,"Wright Patterson AFB, OH, US",2025-09-09T23:55:00Z,2025-09-09T19:55:00Z,VFR,20.1,8.7,110,3,0,NA,1020.1,METAR KFFO 092355Z AUTO 11003KT 10SM CLR 20/09 A3012 RMK AO2 SLP202 T02010087 10262 20201 58002,2025-09-10T00:12:38Z,2025-09-09T20:12:38Z
KFFO,"Wright Patterson AFB, OH, US",2025-09-10T00:55:00Z,2025-09-09T20:55:00Z,VFR,17.4,9.5,0,0,0,NA,1020.4,METAR KFFO 100055Z AUTO 00000KT 10SM CLR 17/10 A3013 RMK AO2 SLP205 T01740095,2025-09-10T01:11:31Z,2025-09-09T21:11:31Z
KFHR,"Friday Harbor Arpt, WA, US",2025-09-09T23:53:00Z,2025-09-09T19:53:00Z,VFR,21.7,12.8,230,7,0,NA,1013,METAR KFHR 092353Z AUTO 23007KT 10SM CLR 22/13 A2991 RMK AO2 SLP128 6//// T02170128 10222 20189 58008,2025-09-10T00:12:39Z,2025-09-09T20:12:39Z
KFHR,"Friday Harbor Arpt, WA, US",2025-09-10T00:53:00Z,2025-09-09T20:53:00Z,VFR,18.3,12.8,VAR,3,0,NA,1013,METAR KFHR 100053Z AUTO VRB03KT 10SM CLR 18/13 A2991 RMK AO2 SLP129 T01830128,2025-09-10T01:11:31Z,2025-09-09T21:11:31Z
KFHU,"Fort Huachuca/Libby AAF, AZ, US",2025-09-09T23:55:00Z,2025-09-09T19:55:00Z,VFR,34,7.1,260,14,0,NA,1016.7,METAR KFHU 092355Z AUTO 26014KT 10SM FEW110 34/07 A3002 RMK AO2 SLP081 T03400071 10345 20307 57013,2025-09-10T00:12:42Z,2025-09-09T20:12:42Z
KFHU,"Fort Huachuca/Libby AAF, AZ, US",2025-09-10T00:55:00Z,2025-09-09T20:55:00Z,VFR,32.8,6.9,230,11,16,NA,1016.7,METAR KFHU 100055Z AUTO 23011G16KT 10SM FEW110 33/07 A3002 RMK AO2 SLP084 T03280069,2025-09-10T01:11:31Z,2025-09-09T21:11:31Z
KFKL,"Franklin/Lamberton Fld, PA, US",2025-09-09T23:56:00Z,2025-09-09T19:56:00Z,VFR,16.7,7.2,0,0,0,NA,1023.5,METAR KFKL 092356Z AUTO 00000KT 10SM CLR 17/07 A3022 RMK AO2 SLPNO 6//// T01670072 10233 20167 55004,2025-09-10T00:12:42Z,2025-09-09T20:12:42Z
KFKL,"Franklin/Lamberton Fld, PA, US",2025-09-10T00:56:00Z,2025-09-09T20:56:00Z,VFR,17.8,7.2,0,0,0,NA,1023.5,METAR KFKL 100056Z AUTO 00000KT 10SM CLR 18/07 A3022 RMK AO2 SLPNO T01780072,2025-09-10T01:11:31Z,2025-09-09T21:11:31Z
KFLG,"Flagstaff/Pulliam Arpt, AZ, US",2025-09-09T23:57:00Z,2025-09-09T19:57:00Z,VFR,23.9,5.6,210,12,22,NA,1021.8,METAR KFLG 092357Z 21012G22KT 10SM FEW070 24/06 A3017 RMK AO2 PK WND 19028/2317 SLP120 T02390056 10256 20217 55007 $,2025-09-10T00:12:42Z,2025-09-09T20:12:42Z
KFLG,"Flagstaff/Pulliam Arpt, AZ, US",2025-09-10T00:57:00Z,2025-09-09T20:57:00Z,VFR,22.2,6.1,200,13,20,NA,1021.8,METAR KFLG 100057Z 20013G20KT 10SM CLR 22/06 A3017 RMK AO2 PK WND 21026/0002 SLP124 T02220061 $,2025-09-10T01:11:31Z,2025-09-09T21:11:31Z
KFLL,"Ft Lauderdale-Hollywood Intl, FL, US",2025-09-09T15:47:00Z,2025-09-09T11:47:00Z,VFR,30,24,0,0,0,NA,1014.6,SPECI KFLL 091547Z 00000KT 10SM TS SCT025CB BKN080 BKN250 30/24 A2996 RMK AO2 TSB47 OCNL LTGICCG SW-NW TS SW-NW MOV NE TCU NE-E,2025-09-09T15:51:29Z,2025-09-09T11:51:29Z
KFLL,"Ft Lauderdale-Hollywood Intl, FL, US",2025-09-09T15:53:00Z,2025-09-09T11:53:00Z,VFR,29.4,23.9,280,13,18,NA,1014.6,METAR KFLL 091553Z 28013G18KT 10SM TS SCT025CB BKN080 BKN250 29/24 A2996 RMK AO2 TSB47 SLP143 OCNL LTGICCG SW-NW TS SW-NW MOV NE TCU NE-E T02940239,2025-09-09T16:06:02Z,2025-09-09T12:06:02Z
KFLL,"Ft Lauderdale-Hollywood Intl, FL, US",2025-09-09T16:53:00Z,2025-09-09T12:53:00Z,VFR,26.7,23.9,60,7,0,NA,1014.6,METAR KFLL 091653Z 06007KT 10SM -TSRA SCT025CB BKN045 BKN065 BKN250 27/24 A2996 RMK AO2 RAB37 SLP144 OCNL LTGICCG N-E AND SW-W MOV NE P0001 T02670239,2025-09-09T17:12:51Z,2025-09-09T13:12:51Z
KFLL,"Ft Lauderdale-Hollywood Intl, FL, US",2025-09-09T17:53:00Z,2025-09-09T13:53:00Z,VFR,26.1,23.9,150,8,0,NA,1014.3,METAR KFLL 091753Z 15008KT 10SM -TSRA FEW025CB SCT050 OVC080 26/24 A2995 RMK AO2 RAE1659B42 SLP142 OCNL LTGICCG OHD-S-W TS OHD-S-W MOV NE P0000 60001 T02610239 10306 20256 58002,2025-09-09T18:09:20Z,2025-09-09T14:09:20Z
KFLL,"Ft Lauderdale-Hollywood Intl, FL, US",2025-09-09T18:53:00Z,2025-09-09T14:53:00Z,VFR,25.6,23.9,VAR,5,0,NA,1014,METAR KFLL 091853Z VRB05KT 10SM TS FEW025CB SCT055 BKN075 26/24 A2994 RMK AO2 RAE49 SLP137 OCNL LTGICCG W-N TS W-N MOV NE CB E-SE MOV NE P0003 T02560239,2025-09-09T19:00:56Z,2025-09-09T15:00:56Z
KFLL,"Ft Lauderdale-Hollywood Intl, FL, US",2025-09-09T19:20:00Z,2025-09-09T15:20:00Z,VFR,25.6,23.9,220,3,0,NA,1013.6,SPECI KFLL 091920Z 22003KT 10SM -RA FEW025 SCT075 BKN110 BKN220 26/24 A2993 RMK AO2 RAB1859 TSE19 OCNL LTGICCG DSNT E-SE CB DSNT E-SE MOV NE P0002 T02560239,2025-09-09T19:30:40Z,2025-09-09T15:30:40Z
KFLL,"Ft Lauderdale-Hollywood Intl, FL, US",2025-09-09T19:53:00Z,2025-09-09T15:53:00Z,VFR,25.6,23.9,70,4,0,NA,1013.3,METAR KFLL 091953Z 07004KT 10SM -RA FEW025 FEW065 BKN110 BKN220 26/24 A2992 RMK AO2 RAB1859 TSE19 SLP129 CB DSNT E AND SE MOV NE P0004 T02560239,2025-09-09T20:10:15Z,2025-09-09T16:10:15Z
KFLL,"Ft Lauderdale-Hollywood Intl, FL, US",2025-09-09T20:53:00Z,2025-09-09T16:53:00Z,VFR,26.7,23.9,120,3,0,NA,1013,METAR KFLL 092053Z 12003KT 10SM FEW060 SCT075 BKN090 27/24 A2991 RMK AO2 RAE15 SLP126 P0000 60007 T02670239 56016,2025-09-09T21:12:42Z,2025-09-09T17:12:42Z
KFLL,"Ft Lauderdale-Hollywood Intl, FL, US",2025-09-09T21:53:00Z,2025-09-09T17:53:00Z,VFR,27.2,24.4,0,0,0,NA,1012.6,METAR KFLL 092153Z COR 00000KT 10SM FEW025 FEW060 SCT110 OVC220 27/24 A2990 RMK AO2 SLP124 T02720244,2025-09-09T22:00:08Z,2025-09-09T18:00:08Z
KFLL,"Ft Lauderdale-Hollywood Intl, FL, US",2025-09-09T22:53:00Z,2025-09-09T18:53:00Z,VFR,27.2,25,200,3,0,NA,1013.3,METAR KFLL 092253Z 20003KT 10SM FEW025 SCT060 BKN085 OVC220 27/25 A2992 RMK AO2 SLP132 T02720250,2025-09-09T22:58:31Z,2025-09-09T18:58:31Z
KFLL,"Ft Lauderdale-Hollywood Intl, FL, US",2025-09-09T23:53:00Z,2025-09-09T19:53:00Z,VFR,26.7,25,0,0,0,NA,1013.6,METAR KFLL 092353Z 00000KT 10SM FEW025 BKN090 BKN110 OVC200 27/25 A2993 RMK AO2 RAB05E40 SLP135 P0002 60009 T02670250 10278 20250 53009,2025-09-10T00:12:43Z,2025-09-09T20:12:43Z
KFLL,"Ft Lauderdale-Hollywood Intl, FL, US",2025-09-10T00:53:00Z,2025-09-09T20:53:00Z,VFR,26.7,25,210,3,0,NA,1014.3,METAR KFLL 100053Z 21003KT 10SM FEW023 FEW070 SCT110 BKN200 27/25 A2995 RMK AO2 SLP140 T02670250,2025-09-10T01:11:31Z,2025-09-09T21:11:31Z
KFLO,"Florence Rgnl, SC, US",2025-09-09T23:53:00Z,2025-09-09T19:53:00Z,VFR,23.9,15,30,6,0,NA,1018.4,METAR KFLO 092353Z 03006KT 10SM OVC040 24/15 A3007 RMK AO2 SLP182 6//// T02390150 10272 20239 53001 PNO,2025-09-10T00:12:42Z,2025-09-09T20:12:42Z
KFLO,"Florence Rgnl, SC, US",2025-09-10T00:53:00Z,2025-09-09T20:53:00Z,VFR,23.3,15.6,20,6,0,NA,1019,METAR KFLO 100053Z 02006KT 10SM OVC041 23/16 A3009 RMK AO2 SLP188 T02330156 PNO,2025-09-10T01:11:31Z,2025-09-09T21:11:31Z
KFME,"Fort Meade/Tipton Fld, MD, US",2025-09-10T00:09:00Z,2025-09-09T20:09:00Z,VFR,18,13,90,4,0,NA,1024.1,METAR KFME 100009Z AUTO 09004KT 10SM OVC046 18/13 A3024 RMK AO1,2025-09-10T00:12:42Z,2025-09-09T20:12:42Z
KFME,"Fort Meade/Tipton Fld, MD, US",2025-09-10T00:29:00Z,2025-09-09T20:29:00Z,VFR,19,13,90,7,0,NA,1024.1,METAR KFME 100029Z AUTO 09007KT 10SM OVC046 19/13 A3024 RMK AO1,2025-09-10T00:33:20Z,2025-09-09T20:33:20Z
KFME,"Fort Meade/Tipton Fld, MD, US",2025-09-10T01:09:00Z,2025-09-09T21:09:00Z,VFR,17,13,80,5,0,NA,1024.1,METAR KFME 100109Z AUTO 08005KT 10SM CLR 17/13 A3024 RMK AO1,2025-09-10T01:11:31Z,2025-09-09T21:11:31Z
KFMN,"Farmington/Four Corners Rgnl, NM, US",2025-09-09T23:53:00Z,2025-09-09T19:53:00Z,VFR,31.1,1.7,230,16,21,NA,1016.3,METAR KFMN 092353Z 23016G21KT 10SM CLR 31/02 A3001 RMK AO2 SLP099 6//// T03110017 10317 20267 56013 PNO $,2025-09-10T00:12:43Z,2025-09-09T20:12:43Z
KFMN,"Farmington/Four Corners Rgnl, NM, US",2025-09-10T00:53:00Z,2025-09-09T20:53:00Z,VFR,29.4,1.1,250,9,0,NA,1016.3,METAR KFMN 100053Z 25009KT 10SM CLR 29/01 A3001 RMK AO2 SLP102 T02940011 PNO $,2025-09-10T01:11:31Z,2025-09-09T21:11:31Z
KFMY,"Fort Myers/Page Fld, FL, US",2025-09-09T23:53:00Z,2025-09-09T19:53:00Z,VFR,25,23.3,170,5,0,NA,1012.6,METAR KFMY 092353Z 17005KT 10SM CLR 25/23 A2990 RMK AO2 RAE15 SLP128 P0000 60010 T02500233 10311 20244 50004,2025-09-10T00:12:43Z,2025-09-09T20:12:43Z
KFMY,"Fort Myers/Page Fld, FL, US",2025-09-10T00:53:00Z,2025-09-09T20:53:00Z,VFR,24.4,23.3,180,4,0,NA,1013.6,METAR KFMY 100053Z 18004KT 10SM CLR 24/23 A2993 RMK AO2 SLP138 T02440233,2025-09-10T01:11:33Z,2025-09-09T21:11:33Z
KFNL,"Fort Collins/N Colorado Rgnl, CO, US",2025-09-09T23:56:00Z,2025-09-09T19:56:00Z,VFR,25,6.7,230,21,29,NA,1017.7,METAR KFNL 092356Z AUTO 23021G29KT 10SM CLR 25/07 A3005 RMK AO2 PK WND 23029/2352 SLP119 T02500067 10317 20250 53004 $,2025-09-10T00:12:42Z,2025-09-09T20:12:42Z
KFNL,"Fort Collins/N Colorado Rgnl, CO, US",2025-09-10T00:56:00Z,2025-09-09T20:56:00Z,VFR,23.3,7.2,230,6,0,NA,1017.4,METAR KFNL 100056Z AUTO 23006KT 10SM FEW100 SCT120 23/07 A3004 RMK AO2 LTG DSNT NE SLP116 T02330072 $,2025-09-10T01:11:33Z,2025-09-09T21:11:33Z
KFNT,"Flint/Bishop Intl, MI, US",2025-09-09T23:53:00Z,2025-09-09T19:53:00Z,VFR,17.8,9.4,150,4,0,NA,1021.1,METAR KFNT 092353Z 15004KT 10SM CLR 18/09 A3015 RMK AO2 SLP211 T01780094 10239 20178 58004 $,2025-09-10T00:12:43Z,2025-09-09T20:12:43Z
KFNT,"Flint/Bishop Intl, MI, US",2025-09-10T00:53:00Z,2025-09-09T20:53:00Z,VFR,17.2,8.3,170,5,0,NA,1021.4,METAR KFNT 100053Z 17005KT 10SM CLR 17/08 A3016 RMK AO2 SLP213 T01720083 $,2025-09-10T01:11:33Z,2025-09-09T21:11:33Z
KFOD,"Fort Dodge Rgnl, IA, US",2025-09-09T23:56:00Z,2025-09-09T19:56:00Z,VFR,22.8,16.7,210,3,0,NA,1015.7,METAR KFOD 092356Z AUTO 21003KT 10SM SCT049 23/17 A2999 RMK AO2 SLP164 T02280167 10250 20206 53004 $,2025-09-10T00:12:42Z,2025-09-09T20:12:42Z
KFOD,"Fort Dodge Rgnl, IA, US",2025-09-10T00:56:00Z,2025-09-09T20:56:00Z,VFR,21.7,17.2,160,4,0,NA,1016,METAR KFOD 100056Z AUTO 16004KT 10SM OVC049 22/17 A3000 RMK AO2 SLP166 T02170172 $,2025-09-10T01:11:33Z,2025-09-09T21:11:33Z
KFOE,"Topeka/Forbes Fld, KS, US",2025-09-09T23:53:00Z,2025-09-09T19:53:00Z,VFR,23.3,16.1,170,6,0,NA,1015.3,METAR KFOE 092353Z 17006KT 10SM SCT039 23/16 A2998 RMK AO2 SLP145 T02330161 10256 20222 53002 $,2025-09-10T00:12:42Z,2025-09-09T20:12:42Z
KFOE,"Topeka/Forbes Fld, KS, US",2025-09-10T00:53:00Z,2025-09-09T20:53:00Z,VFR,20,15.6,160,4,0,NA,1015.3,METAR KFOE 100053Z 16004KT 10SM SCT047 20/16 A2998 RMK AO2 SLP148 T02000156 $,2025-09-10T01:11:33Z,2025-09-09T21:11:33Z
KFPR,"Ft Pierce/Treasure Coast Intl, FL, US",2025-09-09T23:53:00Z,2025-09-09T19:53:00Z,VFR,25,23.9,0,0,0,6,1013,METAR KFPR 092353Z 00000KT 6SM -RA BR FEW055 SCT085 BKN110 25/24 A2991 RMK AO2 RAB25 SLP129 P0003 60007 T02500239 10311 20244 50001,2025-09-10T00:12:42Z,2025-09-09T20:12:42Z
KFPR,"Ft Pierce/Treasure Coast Intl, FL, US",2025-09-10T00:53:00Z,2025-09-09T20:53:00Z,VFR,25,24.4,270,3,0,NA,1014,METAR KFPR 100053Z AUTO 27003KT 10SM BKN035 BKN046 OVC060 25/24 A2994 RMK AO2 RAE32 SLP136 P0001 T02500244,2025-09-10T01:11:33Z,2025-09-09T21:11:33Z
KFRG,"Farmingdale/Republic Arpt, NY, US",2025-09-09T23:53:00Z,2025-09-09T19:53:00Z,VFR,18.9,11.1,80,7,0,NA,1025.1,METAR KFRG 092353Z 08007KT 10SM BKN065 19/11 A3027 RMK AO2 SLP251 T01890111 10222 20189 56004,2025-09-10T00:12:42Z,2025-09-09T20:12:42Z
KFRG,"Farmingdale/Republic Arpt, NY, US",2025-09-10T00:53:00Z,2025-09-09T20:53:00Z,VFR,18.3,11.1,70,6,0,NA,1025.1,METAR KFRG 100053Z 07006KT 10SM BKN060 18/11 A3027 RMK AO2 SLP251 T01830111,2025-09-10T01:11:33Z,2025-09-09T21:11:33Z
KFRI,"Ft Riley/Marshall Fld, KS, US",2025-09-09T23:55:00Z,2025-09-09T19:55:00Z,VFR,25.5,16.9,130,7,0,NA,1013.6,METAR KFRI 092355Z AUTO 13007KT 10SM CLR 26/17 A2993 RMK AO2 SLP125 T02550169 10268 20240 55002,2025-09-10T00:12:42Z,2025-09-09T20:12:42Z
KFRI,"Ft Riley/Marshall Fld, KS, US",2025-09-10T00:55:00Z,2025-09-09T20:55:00Z,VFR,23.2,17.4,110,7,0,NA,1014,METAR KFRI 100055Z AUTO 11007KT 10SM CLR 23/17 A2994 RMK AO2 SLP130 T02320174,2025-09-10T01:11:33Z,2025-09-09T21:11:33Z
KFSD,"Sioux Falls/Foss Fld, SD, US",2025-09-09T15:41:00Z,2025-09-09T11:41:00Z,IFR,17.2,16.1,180,4,0,NA,1015.3,SPECI KFSD 091541Z 18004KT 10SM OVC007 17/16 A2998 RMK AO2 RAB18E36 TSE40 P0003 T01720161,2025-09-09T15:51:29Z,2025-09-09T11:51:29Z
KFSD,"Sioux Falls/Foss Fld, SD, US",2025-09-09T15:56:00Z,2025-09-09T11:56:00Z,IFR,17.2,15.6,170,3,0,NA,1016,METAR KFSD 091556Z 17003KT 10SM OVC009 17/16 A3000 RMK AO2 RAB18E36 TSE40 SLP154 P0003 T01720156,2025-09-09T16:06:01Z,2025-09-09T12:06:01Z
KFSD,"Sioux Falls/Foss Fld, SD, US",2025-09-09T16:29:00Z,2025-09-09T12:29:00Z,MVFR,17.8,16.7,200,4,0,NA,1015.7,SPECI KFSD 091629Z 20004KT 10SM -RA SCT009 BKN030 BKN110 18/17 A2999 RMK AO2 RAB14 P0001 T01780167,2025-09-09T16:36:27Z,2025-09-09T12:36:27Z
KFSD,"Sioux Falls/Foss Fld, SD, US",2025-09-09T16:56:00Z,2025-09-09T12:56:00Z,IFR,18.3,16.7,160,6,0,NA,1015.3,METAR KFSD 091656Z 16006KT 10SM BKN009 BKN110 BKN250 18/17 A2998 RMK AO2 RAB14E54 SLP150 ACC OHD P0002 T01830167,2025-09-09T17:12:51Z,2025-09-09T13:12:51Z
KFSD,"Sioux Falls/Foss Fld, SD, US",2025-09-09T17:15:00Z,2025-09-09T13:15:00Z,MVFR,18.9,16.7,190,11,0,NA,1015.3,SPECI KFSD 091715Z 19011KT 10SM BKN011 19/17 A2998 RMK AO2 T01890167,2025-09-09T17:30:35Z,2025-09-09T13:30:35Z
KFSD,"Sioux Falls/Foss Fld, SD, US",2025-09-09T17:56:00Z,2025-09-09T13:56:00Z,MVFR,18.9,16.7,210,5,0,NA,1015.3,METAR KFSD 091756Z 21005KT 10SM BKN012 BKN150 19/17 A2998 RMK AO2 SLP150 60005 T01890167 10194 20161 58001,2025-09-09T18:09:20Z,2025-09-09T14:09:20Z
KFSD,"Sioux Falls/Foss Fld, SD, US",2025-09-09T18:56:00Z,2025-09-09T14:56:00Z,MVFR,21.1,16.7,VAR,NA,0,NA,1015,METAR KFSD 091856Z 10SM BKN017 BKN090 21/17 A2997 RMK AO2 SLP145 T02110167,2025-09-09T19:00:56Z,2025-09-09T15:00:56Z
KFSD,"Sioux Falls/Foss Fld, SD, US",2025-09-09T18:56:00Z,2025-09-09T14:56:00Z,MVFR,21.1,16.7,160,8,0,NA,1015,METAR KFSD 091856Z COR 16008KT 10SM BKN017 BKN090 21/17 A2997 RMK AO2 SLP145 T02110167,2025-09-09T19:20:54Z,2025-09-09T15:20:54Z
KFSD,"Sioux Falls/Foss Fld, SD, US",2025-09-09T19:56:00Z,2025-09-09T15:56:00Z,MVFR,22.2,17.2,VAR,6,0,NA,1014.6,METAR KFSD 091956Z VRB06KT 10SM BKN019 BKN090 22/17 A2996 RMK AO2 SLP141 T02220172,2025-09-09T20:10:15Z,2025-09-09T16:10:15Z
KFSD,"Sioux Falls/Foss Fld, SD, US",2025-09-09T20:11:00Z,2025-09-09T16:11:00Z,VFR,23.3,17.2,VAR,5,0,NA,1014.6,SPECI KFSD 092011Z VRB05KT 10SM SCT019 BKN090 23/17 A2996 RMK AO2 T02330172,2025-09-09T20:31:18Z,2025-09-09T16:31:18Z
KFSD,"Sioux Falls/Foss Fld, SD, US",2025-09-09T20:56:00Z,2025-09-09T16:56:00Z,VFR,23.9,17.2,210,5,0,NA,1014.3,METAR KFSD 092056Z 21005KT 10SM FEW019 FEW090 24/17 A2995 RMK AO2 SLP136 T02390172 56011,2025-09-09T21:12:42Z,2025-09-09T17:12:42Z
KFSD,"Sioux Falls/Foss Fld, SD, US",2025-09-09T21:56:00Z,2025-09-09T17:56:00Z,VFR,24.4,17.2,210,4,0,NA,1014.3,METAR KFSD 092156Z 21004KT 10SM FEW019 FEW090 24/17 A2995 RMK AO2 SLP135 T02440172,2025-09-09T22:00:08Z,2025-09-09T18:00:08Z
KFSD,"Sioux Falls/Foss Fld, SD, US",2025-09-09T22:56:00Z,2025-09-09T18:56:00Z,VFR,24.4,17.2,0,0,0,NA,1014.3,METAR KFSD 092256Z 00000KT 10SM FEW019 FEW090 24/17 A2995 RMK AO2 SLP136 T02440172,2025-09-09T23:21:16Z,2025-09-09T19:21:16Z
KFSD,"Sioux Falls/Foss Fld, SD, US",2025-09-09T23:56:00Z,2025-09-09T19:56:00Z,VFR,23.9,17.8,110,5,0,NA,1014.6,METAR KFSD 092356Z 11005KT 10SM FEW020 SCT031 24/18 A2996 RMK AO2 SLP139 T02390178 10250 20189 53001,2025-09-10T00:12:42Z,2025-09-09T20:12:42Z
KFSD,"Sioux Falls/Foss Fld, SD, US",2025-09-10T00:56:00Z,2025-09-09T20:56:00Z,MVFR,22.2,17.8,140,7,0,NA,1014.6,METAR KFSD 100056Z 14007KT 10SM FEW020 BKN030 22/18 A2996 RMK AO2 SLP142 T02220178,2025-09-10T01:11:33Z,2025-09-09T21:11:33Z
KFSM,"Fort Smith Rgnl, AR, US",2025-09-09T23:53:00Z,2025-09-09T19:53:00Z,VFR,27.2,10.6,180,4,0,NA,1015.3,METAR KFSM 092353Z 18004KT 10SM CLR 27/11 A2998 RMK AO2 SLP148 T02720106 10300 20267 55013,2025-09-10T00:12:42Z,2025-09-09T20:12:42Z
KFSM,"Fort Smith Rgnl, AR, US",2025-09-10T00:53:00Z,2025-09-09T20:53:00Z,VFR,23.9,12.2,0,0,0,NA,1015.7,METAR KFSM 100053Z 00000KT 10SM CLR 24/12 A2999 RMK AO2 SLP150 T02390122,2025-09-10T01:11:33Z,2025-09-09T21:11:33Z
KFST,"Fort Stockton/Pecos Cnty, TX, US",2025-09-09T23:53:00Z,2025-09-09T19:53:00Z,VFR,31.7,15,130,14,0,NA,1015,METAR KFST 092353Z AUTO 13014KT 10SM CLR 32/15 A2997 RMK AO2 SLP098 T03170150 10344 20317 55006,2025-09-10T00:12:43Z,2025-09-09T20:12:43Z
KFST,"Fort Stockton/Pecos Cnty, TX, US",2025-09-10T00:53:00Z,2025-09-09T20:53:00Z,VFR,29.4,16.1,130,14,24,NA,1015.3,METAR KFST 100053Z AUTO 13014G24KT 10SM CLR 29/16 A2998 RMK AO2 SLP103 T02940161,2025-09-10T01:11:33Z,2025-09-09T21:11:33Z
KFTK,"Fort Knox/Godman AAF, KY, US",2025-09-09T23:55:00Z,2025-09-09T19:55:00Z,VFR,22.4,13.4,0,0,0,NA,1018.4,METAR KFTK 092355Z AUTO 00000KT 10SM CLR 22/13 A3007 RMK AO2 SLP183 T02240134 10273 20212 55006,2025-09-10T00:12:42Z,2025-09-09T20:12:42Z
KFTK,"Fort Knox/Godman AAF, KY, US",2025-09-10T00:55:00Z,2025-09-09T20:55:00Z,VFR,17.8,14.3,0,0,0,NA,1018.4,METAR KFTK 100055Z AUTO 00000KT 10SM CLR 18/14 A3007 RMK AO2 SLP182 T01780143,2025-09-10T01:11:33Z,2025-09-09T21:11:33Z
KFTW,"Fort Worth/Meacham Intl, TX, US",2025-09-09T23:53:00Z,2025-09-09T19:53:00Z,VFR,28.9,11.7,110,8,0,NA,1014.6,METAR KFTW 092353Z 11008KT 10SM CLR 29/12 A2996 RMK AO2 SLP136 T02890117 10306 20278 58008 $,2025-09-10T00:12:43Z,2025-09-09T20:12:43Z
KFTW,"Fort Worth/Meacham Intl, TX, US",2025-09-10T00:53:00Z,2025-09-09T20:53:00Z,VFR,26.1,11.1,130,8,0,NA,1014.6,METAR KFTW 100053Z 13008KT 10SM CLR 26/11 A2996 RMK AO2 SLP139 T02610111 $,2025-09-10T01:11:33Z,2025-09-09T21:11:33Z
KFTY,"Atlanta/Fulton Cnty, GA, US",2025-09-09T22:53:00Z,2025-09-09T18:53:00Z,VFR,26.1,12.2,50,3,0,NA,1019,METAR KFTY 092253Z 05003KT 10SM CLR 26/12 A3009 RMK AO2 SLP181 T02610122 $,2025-09-10T00:12:43Z,2025-09-09T20:12:43Z
KFWA,"Fort Wayne Intl, IN, US",2025-09-09T14:54:00Z,2025-09-09T10:54:00Z,VFR,19.4,9.4,160,7,0,NA,1024.1,METAR KFWA 091454Z 16007KT 10SM SCT250 19/09 A3024 RMK AO2 SLP240 T01940094 52002,2025-09-09T15:51:29Z,2025-09-09T11:51:29Z
KFWA,"Fort Wayne Intl, IN, US",2025-09-09T15:54:00Z,2025-09-09T11:54:00Z,VFR,22.2,8.3,200,9,0,NA,1023.8,METAR KFWA 091554Z 20009KT 10SM SCT250 22/08 A3023 RMK AO2 SLP237 T02220083,2025-09-09T16:06:01Z,2025-09-09T12:06:01Z
KFWA,"Fort Wayne Intl, IN, US",2025-09-09T16:54:00Z,2025-09-09T12:54:00Z,VFR,23.3,7.2,220,7,0,NA,1023.5,METAR KFWA 091654Z 22007KT 10SM BKN250 23/07 A3022 RMK AO2 SLP232 T02330072,2025-09-09T17:12:51Z,2025-09-09T13:12:51Z
KFWA,"Fort Wayne Intl, IN, US",2025-09-09T17:54:00Z,2025-09-09T13:54:00Z,VFR,23.9,7.2,150,8,0,NA,1022.8,METAR KFWA 091754Z 15008KT 10SM BKN250 24/07 A3020 RMK AO2 SLP226 T02390072 10239 20072 58013,2025-09-09T18:09:20Z,2025-09-09T14:09:20Z
KFWA,"Fort Wayne Intl, IN, US",2025-09-09T18:54:00Z,2025-09-09T14:54:00Z,VFR,23.9,6.7,0,0,0,NA,1021.8,METAR KFWA 091854Z 00000KT 10SM BKN250 24/07 A3017 RMK AO2 SLP215 T02390067,2025-09-09T19:00:56Z,2025-09-09T15:00:56Z
KFWA,"Fort Wayne Intl, IN, US",2025-09-09T19:54:00Z,2025-09-09T15:54:00Z,VFR,23.9,7.2,230,4,0,NA,1021.1,METAR KFWA 091954Z 23004KT 10SM BKN250 24/07 A3015 RMK AO2 SLP209 T02390072,2025-09-09T20:10:15Z,2025-09-09T16:10:15Z
KFWA,"Fort Wayne Intl, IN, US",2025-09-09T20:54:00Z,2025-09-09T16:54:00Z,VFR,23.9,7.2,180,7,0,NA,1021.1,METAR KFWA 092054Z 18007KT 10SM FEW170 BKN250 24/07 A3015 RMK AO2 SLP211 T02390072 55015,2025-09-09T21:12:42Z,2025-09-09T17:12:42Z
KFWA,"Fort Wayne Intl, IN, US",2025-09-09T21:54:00Z,2025-09-09T17:54:00Z,VFR,23.3,7.2,160,4,0,NA,1021.1,METAR KFWA 092154Z 16004KT 10SM BKN250 23/07 A3015 RMK AO2 SLP208 T02330072,2025-09-09T22:00:08Z,2025-09-09T18:00:08Z
KFWA,"Fort Wayne Intl, IN, US",2025-09-09T22:54:00Z,2025-09-09T18:54:00Z,VFR,21.7,8.9,110,5,0,NA,1020.4,METAR KFWA 092254Z 11005KT 10SM OVC240 22/09 A3013 RMK AO2 SLP204 T02170089,2025-09-09T22:58:31Z,2025-09-09T18:58:31Z
KFWA,"Fort Wayne Intl, IN, US",2025-09-09T23:54:00Z,2025-09-09T19:54:00Z,VFR,20,9.4,100,3,0,NA,1020.7,METAR KFWA 092354Z 10003KT 10SM OVC240 20/09 A3014 RMK AO2 SLP206 T02000094 10250 20200 55005,2025-09-10T00:12:42Z,2025-09-09T20:12:42Z
KFWA,"Fort Wayne Intl, IN, US",2025-09-10T00:54:00Z,2025-09-09T20:54:00Z,VFR,18.3,9.4,0,0,0,NA,1020.7,METAR KFWA 100054Z 00000KT 10SM BKN240 18/09 A3014 RMK AO2 SLP205 T01830094,2025-09-10T01:11:33Z,2025-09-09T21:11:33Z
KFXE,"Ft Lauderdale Exec, FL, US",2025-09-09T23:53:00Z,2025-09-09T19:53:00Z,VFR,27.2,25.6,180,3,0,NA,1014,METAR KFXE 092353Z 18003KT 10SM SCT065 OVC085 27/26 A2994 RMK AO2 SLP140 T02720256 10283 20261 53009,2025-09-10T00:12:43Z,2025-09-09T20:12:43Z
KFXE,"Ft Lauderdale Exec, FL, US",2025-09-10T00:53:00Z,2025-09-09T20:53:00Z,VFR,27.2,25.6,160,3,0,NA,1014,METAR KFXE 100053Z 16003KT 10SM CLR 27/26 A2994 RMK AO2 SLP142 T02720256,2025-09-10T01:11:33Z,2025-09-09T21:11:33Z
KFYV,"Fayetteville/Drake Fld, AR, US",2025-09-09T23:53:00Z,2025-09-09T19:53:00Z,VFR,25,12.2,160,6,0,NA,1016.7,METAR KFYV 092353Z 16006KT 10SM CLR 25/12 A3002 RMK AO2 SLP156 T02500122 10278 20250 55005,2025-09-10T00:12:43Z,2025-09-09T20:12:43Z
KFYV,"Fayetteville/Drake Fld, AR, US",2025-09-10T00:53:00Z,2025-09-09T20:53:00Z,VFR,21.7,12.2,0,0,0,NA,1017,METAR KFYV 100053Z 00000KT 10SM CLR 22/12 A3003 RMK AO2 SLP161 T02170122,2025-09-10T01:11:33Z,2025-09-09T21:11:33Z
KGCC,"Gillette/Campbell Cnty, WY, US",2025-09-09T23:53:00Z,2025-09-09T19:53:00Z,VFR,27.2,5.6,50,12,0,NA,1014.6,METAR KGCC 092353Z AUTO 05012KT 10SM BKN110 27/06 A2996 RMK AO2 LTG DSNT N SLP106 T02720056 10300 20261 56009,2025-09-10T00:12:43Z,2025-09-09T20:12:43Z
KGCC,"Gillette/Campbell Cnty, WY, US",2025-09-10T00:26:00Z,2025-09-09T20:26:00Z,VFR,24.4,6.1,10,20,28,NA,1015.7,SPECI KGCC 100026Z AUTO 01020G28KT 10SM BKN100 24/06 A2999 RMK AO2 PK WND 34032/0012 WSHFT 0006 LTG DSNT N AND NE PRESRR T02440061,2025-09-10T00:33:20Z,2025-09-09T20:33:20Z
KGCC,"Gillette/Campbell Cnty, WY, US",2025-09-10T00:53:00Z,2025-09-09T20:53:00Z,VFR,22.2,7.2,40,16,0,NA,1016,METAR KGCC 100053Z AUTO 04016KT 10SM FEW100 22/07 A3000 RMK AO2 PK WND 34032/0012 WSHFT 0006 LTG DSNT NE SLP126 T02220072,2025-09-10T01:11:33Z,2025-09-09T21:11:33Z
KGCK,"Garden City Rgnl, KS, US",2025-09-09T23:54:00Z,2025-09-09T19:54:00Z,VFR,28.3,17.2,140,11,0,NA,1014.3,METAR KGCK 092354Z 14011KT 10SM CLR 28/17 A2995 RMK AO2 SLP110 T02830172 10328 20283 53002,2025-09-10T00:12:42Z,2025-09-09T20:12:42Z
KGCK,"Garden City Rgnl, KS, US",2025-09-10T00:54:00Z,2025-09-09T20:54:00Z,VFR,25.6,16.7,130,9,0,NA,1014,METAR KGCK 100054Z 13009KT 10SM CLR 26/17 A2994 RMK AO2 SLP109 T02560167,2025-09-10T01:11:33Z,2025-09-09T21:11:33Z
KGCN,"Grand Canyon Park Arpt, AZ, US",2025-09-09T23:54:00Z,2025-09-09T19:54:00Z,VFR,26.1,1.7,210,13,23,NA,1019.7,METAR KGCN 092354Z 21013G23KT 10SM CLR 26/02 A3011 RMK AO2 SLP106 T02610017 10272 20239 56013,2025-09-10T00:12:42Z,2025-09-09T20:12:42Z
KGCN,"Grand Canyon Park Arpt, AZ, US",2025-09-10T00:54:00Z,2025-09-09T20:54:00Z,VFR,24.4,3.3,210,13,22,NA,1019.7,METAR KGCN 100054Z 21013G22KT 10SM CLR 24/03 A3011 RMK AO2 PK WND 22026/2357 SLP109 T02440033,2025-09-10T01:11:33Z,2025-09-09T21:11:33Z
KGDV,"Glendive/Dawson Arpt, MT, US",2025-09-09T23:56:00Z,2025-09-09T19:56:00Z,VFR,27.2,5.6,30,7,0,NA,1014.3,METAR KGDV 092356Z AUTO 03007KT 10SM CLR 27/06 A2995 RMK AO2 SLP130 T02720056 10283 20244 56007 TSNO $,2025-09-10T00:12:42Z,2025-09-09T20:12:42Z
KGDV,"Glendive/Dawson Arpt, MT, US",2025-09-10T00:56:00Z,2025-09-09T20:56:00Z,VFR,25,6.1,50,7,0,NA,1014.3,METAR KGDV 100056Z AUTO 05007KT 10SM CLR 25/06 A2995 RMK AO2 SLP133 T02500061 TSNO $,2025-09-10T01:11:33Z,2025-09-09T21:11:33Z
KGEG,"Spokane Intl, WA, US",2025-09-09T14:53:00Z,2025-09-09T10:53:00Z,VFR,17.2,11.1,300,8,0,NA,1013.6,METAR KGEG 091453Z 30008KT 10SM FEW085 FEW120 FEW300 17/11 A2993 RMK AO2 SLP119 OCNL LTGCGICCC DSNT N-NE CB DSNT N-NE MOV N SHRA DSNT N-NE 60002 T01720111 53005 $,2025-09-09T15:51:30Z,2025-09-09T11:51:30Z
KGEG,"Spokane Intl, WA, US",2025-09-09T15:53:00Z,2025-09-09T11:53:00Z,VFR,20,10.6,10,4,0,NA,1013.6,METAR KGEG 091553Z 01004KT 10SM FEW120 FEW150 FEW300 20/11 A2993 RMK AO2 SLP121 OCNL LTGCGICCC DSNT N-NE CB DSNT N-NE AND NW MOV N SHRA DSNT N-NE T02000106 $,2025-09-09T16:06:03Z,2025-09-09T12:06:03Z
KGEG,"Spokane Intl, WA, US",2025-09-09T16:53:00Z,2025-09-09T12:53:00Z,VFR,21.7,10,40,6,0,NA,1013.6,METAR KGEG 091653Z 04006KT 10SM FEW120 FEW150 FEW300 22/10 A2993 RMK AO2 SLP118 CB DSNT N-NE AND NW MOV N T02170100 $,2025-09-09T17:12:54Z,2025-09-09T13:12:54Z
KGEG,"Spokane Intl, WA, US",2025-09-09T17:53:00Z,2025-09-09T13:53:00Z,VFR,23.9,8.9,310,5,0,NA,1013.3,METAR KGEG 091753Z 31005KT 10SM FEW110 FEW160 FEW200 24/09 A2992 RMK AO2 SLP115 60002 T02390089 10244 20167 58002 $,2025-09-09T18:09:22Z,2025-09-09T14:09:22Z
KGEG,"Spokane Intl, WA, US",2025-09-09T18:53:00Z,2025-09-09T14:53:00Z,VFR,25.6,7.2,340,8,0,NA,1012.6,METAR KGEG 091853Z 34008KT 10SM FEW110 FEW150 FEW250 26/07 A2990 RMK AO2 SLP107 T02560072 $,2025-09-09T19:00:57Z,2025-09-09T15:00:57Z
KGEG,"Spokane Intl, WA, US",2025-09-09T19:53:00Z,2025-09-09T15:53:00Z,VFR,26.7,7.2,0,0,0,9,1012.3,METAR KGEG 091953Z 00000KT 9SM FEW090 SCT140 SCT200 27/07 A2989 RMK AO2 SLP102 T02670072 $,2025-09-09T20:10:18Z,2025-09-09T16:10:18Z
KGEG,"Spokane Intl, WA, US",2025-09-09T20:53:00Z,2025-09-09T16:53:00Z,VFR,26.1,7.8,290,5,0,NA,1011.6,METAR KGEG 092053Z 29005KT 10SM FEW090 BKN160 BKN200 26/08 A2987 RMK AO2 SLP096 VIRGA T02610078 57015 $,2025-09-09T21:12:45Z,2025-09-09T17:12:45Z
KGEG,"Spokane Intl, WA, US",2025-09-09T21:53:00Z,2025-09-09T17:53:00Z,VFR,26.7,7.2,70,6,0,NA,1010.9,METAR KGEG 092153Z 07006KT 10SM FEW090 SCT160 BKN180 27/07 A2985 RMK AO2 SLP090 VIRGA T02670072 $,2025-09-09T22:00:10Z,2025-09-09T18:00:10Z
KGEG,"Spokane Intl, WA, US",2025-09-09T22:53:00Z,2025-09-09T18:53:00Z,VFR,27.8,8.3,20,6,0,NA,1010.6,METAR KGEG 092253Z 02006KT 10SM FEW090 FEW150 SCT200 28/08 A2984 RMK AO2 SLP084 T02780083 $,2025-09-09T22:58:33Z,2025-09-09T18:58:33Z
KGEG,"Spokane Intl, WA, US",2025-09-09T23:53:00Z,2025-09-09T19:53:00Z,VFR,27.8,6.7,0,0,0,NA,1009.9,METAR KGEG 092353Z 00000KT 10SM FEW090 FEW150 SCT220 28/07 A2982 RMK AO2 SLP079 T02780067 10278 20239 56017 $,2025-09-10T00:12:43Z,2025-09-09T20:12:43Z
KGEG,"Spokane Intl, WA, US",2025-09-10T00:53:00Z,2025-09-09T20:53:00Z,VFR,27.8,6.7,VAR,4,0,NA,1009.2,METAR KGEG 100053Z VRB04KT 10SM FEW090 FEW150 FEW220 28/07 A2980 RMK AO2 SLP073 T02780067 $,2025-09-10T01:11:33Z,2025-09-09T21:11:33Z
KGFA,"Malmstrom AFB, MT, US",2025-09-10T00:55:00Z,2025-09-09T20:55:00Z,VFR,25.1,6.3,120,10,0,NA,1010.9,METAR KGFA 100055Z 12010KT 10SM BKN110 25/06 A2985 RMK AO2A PK WND 11026/2358 SLP096 T02510063 $,2025-09-10T01:11:33Z,2025-09-09T21:11:33Z
KGFK,"Grand Forks Intl, ND, US",2025-09-09T23:53:00Z,2025-09-09T19:53:00Z,VFR,24.4,8.9,70,4,0,NA,1014.6,METAR KGFK 092353Z 07004KT 10SM CLR 24/09 A2996 RMK AO2 SLP147 T02440089 10272 20239 53003,2025-09-10T00:12:43Z,2025-09-09T20:12:43Z
KGFK,"Grand Forks Intl, ND, US",2025-09-10T00:53:00Z,2025-09-09T20:53:00Z,VFR,22.2,8.9,90,4,0,NA,1015,METAR KGFK 100053Z 09004KT 10SM CLR 22/09 A2997 RMK AO2 SLP150 T02220089,2025-09-10T01:11:33Z,2025-09-09T21:11:33Z
KGFL,"Glens Falls/Warren Cnty, NY, US",2025-09-09T23:53:00Z,2025-09-09T19:53:00Z,VFR,12.8,12.2,0,0,0,NA,1025.5,METAR KGFL 092353Z AUTO 00000KT 10SM CLR 13/12 A3028 RMK AO2 SLP256 T01280122 10228 20128 55001,2025-09-10T00:12:43Z,2025-09-09T20:12:43Z
KGFL,"Glens Falls/Warren Cnty, NY, US",2025-09-10T01:00:00Z,2025-09-09T21:00:00Z,IFR,10.6,10.6,0,0,0,1.75,1025.8,SPECI KGFL 100100Z AUTO 00000KT 1 3/4SM BR CLR 11/11 A3029 RMK AO2 T01060106,2025-09-10T01:11:33Z,2025-09-09T21:11:33Z
KGGG,"Longview/Gregg Cnty, TX, US",2025-09-09T23:53:00Z,2025-09-09T19:53:00Z,VFR,25.6,15.6,0,0,0,NA,1015.7,METAR KGGG 092353Z 00000KT 10SM CLR 26/16 A2999 RMK AO2 SLP152 T02560156 10300 20256 56006,2025-09-10T00:12:43Z,2025-09-09T20:12:43Z
KGGG,"Longview/Gregg Cnty, TX, US",2025-09-10T00:53:00Z,2025-09-09T20:53:00Z,VFR,22.8,15.6,0,0,0,NA,1015.7,METAR KGGG 100053Z 00000KT 10SM CLR 23/16 A2999 RMK AO2 SLP151 T02280156,2025-09-10T01:11:33Z,2025-09-09T21:11:33Z
KGGW,"Glasgow Intl Arpt, MT, US",2025-09-09T23:53:00Z,2025-09-09T19:53:00Z,VFR,28.3,3.3,100,5,0,NA,1013.3,METAR KGGW 092353Z AUTO 10005KT 10SM CLR 28/03 A2992 RMK AO2 SLP125 T02830033 10289 20244 56008 TSNO,2025-09-10T00:12:43Z,2025-09-09T20:12:43Z
KGGW,"Glasgow Intl Arpt, MT, US",2025-09-10T00:53:00Z,2025-09-09T20:53:00Z,VFR,26.1,3.3,110,6,0,NA,1013.3,METAR KGGW 100053Z AUTO 11006KT 10SM CLR 26/03 A2992 RMK AO2 SLP126 T02610033 TSNO,2025-09-10T01:11:33Z,2025-09-09T21:11:33Z
KGJT,"Grand Junction Rgnl, CO, US",2025-09-09T14:53:00Z,2025-09-09T10:53:00Z,VFR,22.2,5.6,100,10,0,NA,1019,METAR KGJT 091453Z 10010KT 10SM FEW110 22/06 A3009 RMK AO2 SLP119 T02220056 51004,2025-09-09T15:51:30Z,2025-09-09T11:51:30Z
KGJT,"Grand Junction Rgnl, CO, US",2025-09-09T15:53:00Z,2025-09-09T11:53:00Z,VFR,23.9,3.9,120,11,0,NA,1018.7,METAR KGJT 091553Z 12011KT 10SM CLR 24/04 A3008 RMK AO2 SLP115 T02390039,2025-09-09T16:06:03Z,2025-09-09T12:06:03Z
KGJT,"Grand Junction Rgnl, CO, US",2025-09-09T16:53:00Z,2025-09-09T12:53:00Z,VFR,25.6,3.9,130,9,0,NA,1017.7,METAR KGJT 091653Z 13009KT 10SM CLR 26/04 A3005 RMK AO2 SLP107 T02560039,2025-09-09T17:12:54Z,2025-09-09T13:12:54Z
KGJT,"Grand Junction Rgnl, CO, US",2025-09-09T17:27:00Z,2025-09-09T13:27:00Z,VFR,23.9,7.2,250,11,0,9,1018,SPECI KGJT 091727Z 25011KT 9SM -TSRA FEW070 SCT100 BKN120 24/07 A3006 RMK AO2 RAB22 TSB21 P0000 T02390072,2025-09-09T17:30:38Z,2025-09-09T13:30:38Z
KGJT,"Grand Junction Rgnl, CO, US",2025-09-09T17:45:00Z,2025-09-09T13:45:00Z,MVFR,17.8,10,90,15,0,3,1018,SPECI KGJT 091745Z 09015KT 3SM GR FEW046 SCT065 OVC110 18/10 A3006 RMK AO2 RAB22E42GRB42 TSB21E44 P0012 T01780100,2025-09-09T17:52:16Z,2025-09-09T13:52:16Z
KGJT,"Grand Junction Rgnl, CO, US",2025-09-09T17:53:00Z,2025-09-09T13:53:00Z,VFR,21.7,10.6,50,8,0,6,1018,METAR KGJT 091753Z 05008KT 6SM TSGR FEW038 SCT049 BKN100 22/11 A3006 RMK AO2 RAB22E42GRB42 TSB21E44B51 SLP114 P0016 60016 T02170106 10261 20150 55008,2025-09-09T18:09:22Z,2025-09-09T14:09:22Z
KGJT,"Grand Junction Rgnl, CO, US",2025-09-09T18:12:00Z,2025-09-09T14:12:00Z,VFR,22.2,13.3,40,9,0,NA,1017.7,SPECI KGJT 091812Z 04009KT 10SM GR FEW033 FEW060 SCT110 22/13 A3005 RMK AO2 TSE06 P0000 T02220133,2025-09-09T18:38:59Z,2025-09-09T14:38:59Z
KGJT,"Grand Junction Rgnl, CO, US",2025-09-09T18:53:00Z,2025-09-09T14:53:00Z,VFR,26.7,7.8,0,0,0,NA,1017,METAR KGJT 091853Z 00000KT 10SM GR SCT110 27/08 A3003 RMK AO2 TSE06 SLP095 P0000 T02670078,2025-09-09T19:00:57Z,2025-09-09T15:00:57Z
KGJT,"Grand Junction Rgnl, CO, US",2025-09-09T19:30:00Z,2025-09-09T15:30:00Z,VFR,26.7,13.3,VAR,3,0,9,1016.7,SPECI KGJT 091930Z VRB03KT 9SM GR FEW002 FEW110 27/13 A3002 RMK AO2 P0000 T02670133,2025-09-09T19:41:16Z,2025-09-09T15:41:16Z
KGJT,"Grand Junction Rgnl, CO, US",2025-09-09T19:53:00Z,2025-09-09T15:53:00Z,VFR,27.8,11.7,0,0,0,NA,1016.3,METAR KGJT 091953Z 00000KT 10SM FEW100 28/12 A3001 RMK AO2 GRE50 SLP091 P0000 T02780117,2025-09-09T20:10:18Z,2025-09-09T16:10:18Z
KGJT,"Grand Junction Rgnl, CO, US",2025-09-09T21:02:00Z,2025-09-09T17:02:00Z,VFR,27.8,9.4,260,7,0,NA,1015.3,SPECI KGJT 092102Z 26007KT 10SM VCTS CLR 28/09 A2998 RMK AO2 LTG DSNT W T02780094,2025-09-09T21:12:45Z,2025-09-09T17:12:45Z
KGJT,"Grand Junction Rgnl, CO, US",2025-09-09T21:29:00Z,2025-09-09T17:29:00Z,VFR,26.1,11.1,310,9,0,NA,1015,SPECI KGJT 092129Z 31009KT 10SM FEW090 SCT110 26/11 A2997 RMK AO2 T02610111,2025-09-09T21:39:40Z,2025-09-09T17:39:40Z
KGJT,"Grand Junction Rgnl, CO, US",2025-09-09T21:38:00Z,2025-09-09T17:38:00Z,VFR,26.1,11.1,310,10,0,NA,1015,SPECI KGJT 092138Z 31010KT 10SM VCTS FEW046 BKN110 26/11 A2997 RMK AO2 T02610111,2025-09-09T21:50:17Z,2025-09-09T17:50:17Z
KGJT,"Grand Junction Rgnl, CO, US",2025-09-09T21:53:00Z,2025-09-09T17:53:00Z,VFR,27.2,9.4,290,11,0,NA,1015,METAR KGJT 092153Z 29011KT 10SM FEW110 27/09 A2997 RMK AO2 SLP081 T02720094,2025-09-09T22:00:10Z,2025-09-09T18:00:10Z
KGJT,"Grand Junction Rgnl, CO, US",2025-09-09T22:02:00Z,2025-09-09T18:02:00Z,VFR,26.7,8.3,290,10,0,NA,1015,SPECI KGJT 092202Z 29010KT 10SM VCTS FEW110 27/08 A2997 RMK AO2 LTG DSNT W T02670083,2025-09-09T22:20:16Z,2025-09-09T18:20:16Z
KGJT,"Grand Junction Rgnl, CO, US",2025-09-09T22:53:00Z,2025-09-09T18:53:00Z,VFR,25.6,11.7,300,5,0,NA,1014.3,METAR KGJT 092253Z 30005KT 10SM VCTS FEW120 26/12 A2995 RMK AO2 LTG DSNT W SLP080 T02560117,2025-09-09T22:58:33Z,2025-09-09T18:58:33Z
KGJT,"Grand Junction Rgnl, CO, US",2025-09-09T23:38:00Z,2025-09-09T19:38:00Z,VFR,23.3,10,20,9,0,NA,1014.3,SPECI KGJT 092338Z 02009KT 10SM TS BKN120 23/10 A2995 RMK AO2 LTG DSNT W TSB32 T02330100,2025-09-09T23:42:26Z,2025-09-09T19:42:26Z
KGJT,"Grand Junction Rgnl, CO, US",2025-09-09T23:53:00Z,2025-09-09T19:53:00Z,VFR,22.8,10,20,11,0,NA,1014,METAR KGJT 092353Z 02011KT 10SM VCTS SCT120 23/10 A2994 RMK AO2 LTG DSNT W TSB32E47 SLP081 60000 T02280100 10289 20217 57008,2025-09-10T00:12:43Z,2025-09-09T20:12:43Z
KGJT,"Grand Junction Rgnl, CO, US",2025-09-10T00:13:00Z,2025-09-09T20:13:00Z,VFR,23.9,8.3,20,10,0,NA,1014,SPECI KGJT 100013Z 02010KT 10SM FEW090 SCT110 24/08 A2994 RMK AO2 T02390083,2025-09-10T00:33:20Z,2025-09-09T20:33:20Z
KGJT,"Grand Junction Rgnl, CO, US",2025-09-10T00:53:00Z,2025-09-09T20:53:00Z,VFR,22.8,8.9,20,11,0,NA,1014,METAR KGJT 100053Z 02011KT 10SM CLR 23/09 A2994 RMK AO2 LTG DSNT N AND NE SLP081 T02280089,2025-09-10T01:11:33Z,2025-09-09T21:11:33Z
KGLD,"Goodland/Renner Fld, KS, US",2025-09-09T23:53:00Z,2025-09-09T19:53:00Z,VFR,25.6,13.9,140,14,20,NA,1015,METAR KGLD 092353Z AUTO 14014G20KT 10SM VCTS SCT110 26/14 A2997 RMK AO2 LTG DSNT S-W TSE27 SLP110 T02560139 10328 20256 58000,2025-09-10T00:12:43Z,2025-09-09T20:12:43Z
KGLD,"Goodland/Renner Fld, KS, US",2025-09-10T00:14:00Z,2025-09-09T20:14:00Z,VFR,26.7,8.3,180,9,23,NA,1015,SPECI KGLD 100014Z AUTO 18009G23KT 10SM CLR 27/08 A2997 RMK AO2 PK WND 14029/0000 LTG DSNT S-NW T02670083,2025-09-10T00:33:20Z,2025-09-09T20:33:20Z
KGLD,"Goodland/Renner Fld, KS, US",2025-09-10T01:00:00Z,2025-09-09T21:00:00Z,VFR,25,13.9,90,9,21,NA,1015.7,SPECI KGLD 100100Z AUTO 09009G21KT 10SM VCTS BKN120 25/14 A2999 RMK AO2 LTG DSNT ALQDS T02500139,2025-09-10T01:11:33Z,2025-09-09T21:11:33Z
KGLH,"Greenville/Mid Delta Arpt, MS, US",2025-09-09T23:53:00Z,2025-09-09T19:53:00Z,VFR,30,19.4,350,3,0,NA,1015.3,METAR KGLH 092353Z AUTO 35003KT 10SM BKN070 30/19 A2998 RMK AO2 SLP157 T03000194 10333 20294 55002,2025-09-10T00:12:43Z,2025-09-09T20:12:43Z
KGLH,"Greenville/Mid Delta Arpt, MS, US",2025-09-10T00:53:00Z,2025-09-09T20:53:00Z,VFR,27.2,18.9,340,5,0,NA,1015.3,METAR KGLH 100053Z AUTO 34005KT 10SM FEW065 27/19 A2998 RMK AO2 SLP158 T02720189,2025-09-10T01:11:33Z,2025-09-09T21:11:33Z
KGMU,"Greenville/Downtown Arpt, SC, US",2025-09-09T23:53:00Z,2025-09-09T19:53:00Z,VFR,21,11,70,6,0,NA,1021.1,METAR KGMU 092353Z AUTO 07006KT 10SM CLR 21/11 A3015,2025-09-10T00:12:43Z,2025-09-09T20:12:43Z
KGMU,"Greenville/Downtown Arpt, SC, US",2025-09-10T00:53:00Z,2025-09-09T20:53:00Z,NA,19.4,10,70,4,0,NA,1021.4,METAR KGMU 100053Z 07004KT 19/10 A3016 RMK AO2 SLP207 T01940100 $,2025-09-10T01:11:33Z,2025-09-09T21:11:33Z
KGNV,"Gainesville Rgnl, FL, US",2025-09-10T00:08:00Z,2025-09-09T20:08:00Z,MVFR,25,20.6,20,9,0,NA,1016.7,SPECI KGNV 100008Z 02009KT 10SM BKN024 OVC034 25/21 A3002 RMK AO2 T02500206,2025-09-10T00:12:42Z,2025-09-09T20:12:42Z
KGNV,"Gainesville Rgnl, FL, US",2025-09-10T00:53:00Z,2025-09-09T20:53:00Z,VFR,24.4,20,20,10,0,NA,1017,METAR KGNV 100053Z 02010KT 10SM FEW023 BKN032 24/20 A3003 RMK AO2 SLP167 T02440200,2025-09-10T01:11:33Z,2025-09-09T21:11:33Z
KGON,"Groton-New London Arpt, CT, US",2025-09-09T23:56:00Z,2025-09-09T19:56:00Z,VFR,15.6,13.3,60,5,0,NA,1025.8,METAR KGON 092356Z 06005KT 10SM CLR 16/13 A3029 RMK AO2 SLP256 T01560133 10200 20156 58003,2025-09-10T00:12:42Z,2025-09-09T20:12:42Z
KGON,"Groton-New London Arpt, CT, US",2025-09-10T00:56:00Z,2025-09-09T20:56:00Z,VFR,14.4,13.3,50,5,0,NA,1026.2,METAR KGON 100056Z 05005KT 10SM CLR 14/13 A3030 RMK AO2 SLP260 T01440133,2025-09-10T01:11:33Z,2025-09-09T21:11:33Z
KGPI,"Kalispell/Glacier Park Intl, MT, US",2025-09-09T23:55:00Z,2025-09-09T19:55:00Z,VFR,23.9,8.9,180,7,0,NA,1010.6,METAR KGPI 092355Z 18007KT 10SM CLR 24/09 A2984 RMK AO2 SLP097 T02390089 10261 20211 56018 $,2025-09-10T00:12:42Z,2025-09-09T20:12:42Z
KGPI,"Kalispell/Glacier Park Intl, MT, US",2025-09-10T00:55:00Z,2025-09-09T20:55:00Z,VFR,22.2,9.4,0,0,0,NA,1010.9,METAR KGPI 100055Z 00000KT 10SM CLR 22/09 A2985 RMK AO2 SLP099 T02220094 $,2025-09-10T01:11:33Z,2025-09-09T21:11:33Z
KGPT,"Gulfport-Biloxi Intl, MS, US",2025-09-09T23:53:00Z,2025-09-09T19:53:00Z,VFR,27.2,22.2,130,8,0,NA,1015,METAR KGPT 092353Z 13008KT 10SM CLR 27/22 A2997 RMK AO2 SLP147 T02720222 10306 20272 55002,2025-09-10T00:12:43Z,2025-09-09T20:12:43Z
KGPT,"Gulfport-Biloxi Intl, MS, US",2025-09-10T00:53:00Z,2025-09-09T20:53:00Z,VFR,26.1,22.8,0,0,0,NA,1015.7,METAR KGPT 100053Z 00000KT 10SM CLR 26/23 A2999 RMK AO2 SLP154 T02610228,2025-09-10T01:11:33Z,2025-09-09T21:11:33Z
KGRB,"Green Bay/Straubel Intl, WI, US",2025-09-09T23:53:00Z,2025-09-09T19:53:00Z,VFR,20.6,9.4,180,8,0,NA,1017.7,METAR KGRB 092353Z 18008KT 10SM CLR 21/09 A3005 RMK AO2 SLP177 T02060094 10244 20206 53001,2025-09-10T00:12:42Z,2025-09-09T20:12:42Z
KGRB,"Green Bay/Straubel Intl, WI, US",2025-09-10T00:53:00Z,2025-09-09T20:53:00Z,VFR,17.2,11.7,170,6,0,NA,1018,METAR KGRB 100053Z 17006KT 10SM FEW120 17/12 A3006 RMK AO2 SLP180 T01720117,2025-09-10T01:11:33Z,2025-09-09T21:11:33Z
KGRF,"Fort Lewis/Gray AAF, WA, US",2025-09-09T23:55:00Z,2025-09-09T19:55:00Z,VFR,23.4,13.3,340,5,0,NA,1011.9,METAR KGRF 092355Z AUTO 34005KT 10SM OVC035 23/13 A2988 RMK AO2 SLP121 T02340133 10236 20195 56010 $,2025-09-10T00:12:42Z,2025-09-09T20:12:42Z
KGRF,"Fort Lewis/Gray AAF, WA, US",2025-09-10T00:55:00Z,2025-09-09T20:55:00Z,VFR,22.4,13.2,10,6,0,NA,1011.6,METAR KGRF 100055Z AUTO 01006KT 10SM SCT035 22/13 A2987 RMK AO2 SLP118 T02240132 $,2025-09-10T01:11:33Z,2025-09-09T21:11:33Z
KGRI,"Grand Island Rgnl, NE, US",2025-09-09T23:53:00Z,2025-09-09T19:53:00Z,VFR,25,18.9,120,6,0,NA,1014.6,METAR KGRI 092353Z 12006KT 10SM CLR 25/19 A2996 RMK AO2 SLP136 T02500189 10261 20206 56003,2025-09-10T00:12:43Z,2025-09-09T20:12:43Z
KGRI,"Grand Island Rgnl, NE, US",2025-09-10T00:53:00Z,2025-09-09T20:53:00Z,VFR,21.7,18.9,120,5,0,NA,1014.6,METAR KGRI 100053Z AUTO 12005KT 10SM CLR 22/19 A2996 RMK AO2 SLP140 T02170189,2025-09-10T01:11:33Z,2025-09-09T21:11:33Z
KGRK,"Killeen-Ft Hood Rgnl, TX, US",2025-09-09T23:55:00Z,2025-09-09T19:55:00Z,VFR,29.9,12.8,90,6,0,NA,1015.3,METAR KGRK 092355Z AUTO 09006KT 10SM CLR 30/13 A2998 RMK AO2 SLP142 T02990128 10309 20283 57007,2025-09-10T00:12:42Z,2025-09-09T20:12:42Z
KGRK,"Killeen-Ft Hood Rgnl, TX, US",2025-09-10T00:55:00Z,2025-09-09T20:55:00Z,VFR,27.6,12.8,90,6,0,NA,1015.3,METAR KGRK 100055Z AUTO 09006KT 10SM CLR 28/13 A2998 RMK AO2 LTG DSNT S SLP143 T02760128,2025-09-10T01:11:33Z,2025-09-09T21:11:33Z
KGRR,"Grand Rapids Intl, MI, US",2025-09-09T14:53:00Z,2025-09-09T10:53:00Z,VFR,17.8,9.4,200,5,0,NA,1023.5,METAR KGRR 091453Z 20005KT 10SM SCT250 18/09 A3022 RMK AO2 SLP235 T01780094 53001 $,2025-09-09T15:51:29Z,2025-09-09T11:51:29Z
KGRR,"Grand Rapids Intl, MI, US",2025-09-09T15:53:00Z,2025-09-09T11:53:00Z,VFR,19.4,7.8,VAR,5,0,NA,1023.5,METAR KGRR 091553Z VRB05KT 10SM SCT250 19/08 A3022 RMK AO2 SLP233 T01940078,2025-09-09T16:06:02Z,2025-09-09T12:06:02Z
KGRR,"Grand Rapids Intl, MI, US",2025-09-09T16:53:00Z,2025-09-09T12:53:00Z,VFR,21.1,6.1,230,6,15,NA,1023.1,METAR KGRR 091653Z 23006G15KT 10SM FEW055 BKN250 21/06 A3021 RMK AO2 SLP230 T02110061 $,2025-09-09T17:12:51Z,2025-09-09T13:12:51Z
KGRR,"Grand Rapids Intl, MI, US",2025-09-09T17:53:00Z,2025-09-09T13:53:00Z,VFR,22.2,6.1,200,8,0,NA,1022.4,METAR KGRR 091753Z 20008KT 10SM BKN250 22/06 A3019 RMK AO2 SLP225 T02220061 10222 20078 58010,2025-09-09T18:09:20Z,2025-09-09T14:09:20Z
KGRR,"Grand Rapids Intl, MI, US",2025-09-09T18:53:00Z,2025-09-09T14:53:00Z,VFR,21.7,6.7,180,6,0,NA,1021.8,METAR KGRR 091853Z 18006KT 10SM BKN250 22/07 A3017 RMK AO2 SLP218 T02170067,2025-09-09T19:00:56Z,2025-09-09T15:00:56Z
KGRR,"Grand Rapids Intl, MI, US",2025-09-09T19:53:00Z,2025-09-09T15:53:00Z,VFR,22.8,7.2,190,8,0,NA,1021.1,METAR KGRR 091953Z 19008KT 10SM BKN250 23/07 A3015 RMK AO2 SLP211 T02280072,2025-09-09T20:10:15Z,2025-09-09T16:10:15Z
KGRR,"Grand Rapids Intl, MI, US",2025-09-09T20:53:00Z,2025-09-09T16:53:00Z,VFR,22.8,7.8,170,7,0,NA,1020.7,METAR KGRR 092053Z 17007KT 10SM BKN250 23/08 A3014 RMK AO2 SLP207 T02280078 56018,2025-09-09T21:12:42Z,2025-09-09T17:12:42Z
KGRR,"Grand Rapids Intl, MI, US",2025-09-09T21:53:00Z,2025-09-09T17:53:00Z,VFR,22.8,8.3,200,6,0,NA,1020.7,METAR KGRR 092153Z 20006KT 10SM BKN250 23/08 A3014 RMK AO2 SLP206 T02280083,2025-09-09T22:00:08Z,2025-09-09T18:00:08Z
KGRR,"Grand Rapids Intl, MI, US",2025-09-09T22:53:00Z,2025-09-09T18:53:00Z,VFR,21.1,7.8,160,8,0,NA,1020.7,METAR KGRR 092253Z 16008KT 10SM BKN250 21/08 A3014 RMK AO2 SLP205 T02110078,2025-09-09T22:58:31Z,2025-09-09T18:58:31Z
KGRR,"Grand Rapids Intl, MI, US",2025-09-09T23:53:00Z,2025-09-09T19:53:00Z,VFR,19.4,8.9,140,3,0,NA,1020.4,METAR KGRR 092353Z 14003KT 10SM BKN250 19/09 A3013 RMK AO2 SLP205 T01940089 10228 20194 58002,2025-09-10T00:12:42Z,2025-09-09T20:12:42Z
KGRR,"Grand Rapids Intl, MI, US",2025-09-10T00:53:00Z,2025-09-09T20:53:00Z,VFR,16.7,9.4,0,0,0,NA,1020.7,METAR KGRR 100053Z 00000KT 10SM BKN250 17/09 A3014 RMK AO2 SLP205 T01670094,2025-09-10T01:11:33Z,2025-09-09T21:11:33Z
KGSB,"Goldsboro/Johnson AFB, NC, US",2025-09-09T23:55:00Z,2025-09-09T19:55:00Z,MVFR,21.9,17,10,11,0,NA,1018.4,METAR KGSB 092355Z 01011KT 10SM OVC025 22/17 A3007 RMK AO2A CIG 024 RWY26 SLP186 T02190170 10251 20219 58003 $,2025-09-10T00:12:42Z,2025-09-09T20:12:42Z
KGSB,"Goldsboro/Johnson AFB, NC, US",2025-09-10T00:55:00Z,2025-09-09T20:55:00Z,MVFR,21.5,17.1,10,10,0,NA,1018.7,METAR KGSB 100055Z 01010KT 10SM OVC021 22/17 A3008 RMK AO2A SLP189 T02150171 $,2025-09-10T01:11:33Z,2025-09-09T21:11:33Z
KGSO,"Greensboro Intl, NC, US",2025-09-09T14:54:00Z,2025-09-09T10:54:00Z,VFR,19.4,8.9,20,7,20,NA,1024.5,METAR KGSO 091454Z 02007G20KT 360V060 10SM FEW040 FEW250 19/09 A3025 RMK AO2 SLP239 T01940089 50001,2025-09-09T15:51:29Z,2025-09-09T11:51:29Z
KGSO,"Greensboro Intl, NC, US",2025-09-09T15:54:00Z,2025-09-09T11:54:00Z,VFR,20.6,7.2,60,14,20,NA,1024.1,METAR KGSO 091554Z 06014G20KT 10SM FEW060 FEW250 21/07 A3024 RMK AO2 SLP235 T02060072,2025-09-09T16:06:01Z,2025-09-09T12:06:01Z
KGSO,"Greensboro Intl, NC, US",2025-09-09T16:54:00Z,2025-09-09T12:54:00Z,VFR,21.1,8.3,60,14,19,NA,1023.5,METAR KGSO 091654Z 06014G19KT 10SM FEW060 FEW250 21/08 A3022 RMK AO2 SLP228 T02110083,2025-09-09T17:12:51Z,2025-09-09T13:12:51Z
KGSO,"Greensboro Intl, NC, US",2025-09-09T17:54:00Z,2025-09-09T13:54:00Z,VFR,22.8,7.2,50,12,0,NA,1022.8,METAR KGSO 091754Z 05012KT 10SM FEW250 23/07 A3020 RMK AO2 SLP220 T02280072 10228 20122 58017,2025-09-09T18:09:20Z,2025-09-09T14:09:20Z
KGSO,"Greensboro Intl, NC, US",2025-09-09T18:54:00Z,2025-09-09T14:54:00Z,VFR,22.8,7.2,50,14,19,NA,1022.1,METAR KGSO 091854Z 05014G19KT 10SM FEW250 23/07 A3018 RMK AO2 SLP212 T02280072,2025-09-09T19:00:56Z,2025-09-09T15:00:56Z
KGSO,"Greensboro Intl, NC, US",2025-09-09T19:54:00Z,2025-09-09T15:54:00Z,VFR,22.8,7.8,40,12,17,NA,1021.4,METAR KGSO 091954Z 04012G17KT 10SM FEW060 FEW250 23/08 A3016 RMK AO2 SLP207 T02280078,2025-09-09T20:10:15Z,2025-09-09T16:10:15Z
KGSO,"Greensboro Intl, NC, US",2025-09-09T20:54:00Z,2025-09-09T16:54:00Z,VFR,22.8,8.9,70,11,0,NA,1021.1,METAR KGSO 092054Z 07011KT 10SM FEW060 FEW250 23/09 A3015 RMK AO2 SLP205 T02280089 56016,2025-09-09T21:12:42Z,2025-09-09T17:12:42Z
KGSO,"Greensboro Intl, NC, US",2025-09-09T21:54:00Z,2025-09-09T17:54:00Z,VFR,22.8,8.9,60,9,0,NA,1021.1,METAR KGSO 092154Z 06009KT 10SM FEW035 FEW060 FEW250 23/09 A3015 RMK AO2 SLP202 T02280089,2025-09-09T22:00:08Z,2025-09-09T18:00:08Z
KGSO,"Greensboro Intl, NC, US",2025-09-09T22:54:00Z,2025-09-09T18:54:00Z,VFR,21.1,9.4,70,10,0,NA,1020.7,METAR KGSO 092254Z 07010KT 10SM FEW040 FEW250 21/09 A3014 RMK AO2 SLP201 T02110094,2025-09-09T22:58:31Z,2025-09-09T18:58:31Z
KGSO,"Greensboro Intl, NC, US",2025-09-09T23:54:00Z,2025-09-09T19:54:00Z,VFR,19.4,10,30,4,0,NA,1020.7,METAR KGSO 092354Z 03004KT 10SM SCT048 BKN250 19/10 A3014 RMK AO2 SLP202 T01940100 10233 20189 55003,2025-09-10T00:12:42Z,2025-09-09T20:12:42Z
KGSO,"Greensboro Intl, NC, US",2025-09-10T00:54:00Z,2025-09-09T20:54:00Z,VFR,18.9,11.1,0,0,0,NA,1021.4,METAR KGSO 100054Z 00000KT 10SM BKN048 19/11 A3016 RMK AO2 SLP208 T01890111,2025-09-10T01:11:33Z,2025-09-09T21:11:33Z
KGSP,"Greenville-Spartanburg Intl, SC, US",2025-09-09T22:53:00Z,2025-09-09T18:53:00Z,VFR,21.7,11.1,50,6,0,NA,1020.4,METAR KGSP 092253Z AUTO 05006KT 10SM CLR 22/11 A3013 RMK AO2 SLP197 T02170111 $,2025-09-10T00:12:43Z,2025-09-09T20:12:43Z
KGSP,"Greenville-Spartanburg Intl, SC, US",2025-09-10T00:53:00Z,2025-09-09T20:53:00Z,VFR,16.1,11.7,40,3,0,NA,1021.1,METAR KGSP 100053Z AUTO 04003KT 10SM CLR 16/12 A3015 RMK AO2 SLP206 T01610117 $,2025-09-10T01:11:33Z,2025-09-09T21:11:33Z
KGTB,"Ft Drum/Wheeler AAF, NY, US",2025-09-09T23:55:00Z,2025-09-09T19:55:00Z,VFR,15.7,9.8,0,0,0,NA,1023.8,METAR KGTB 092355Z AUTO 00000KT 10SM CLR 16/10 A3023 RMK AO2 SLP239 T01570098 10225 20156 55002,2025-09-10T00:12:42Z,2025-09-09T20:12:42Z
KGTB,"Ft Drum/Wheeler AAF, NY, US",2025-09-10T00:55:00Z,2025-09-09T20:55:00Z,VFR,14.3,9.3,0,0,0,NA,1023.8,METAR KGTB 100055Z AUTO 00000KT 10SM CLR 14/09 A3023 RMK AO2 SLPNO T01430093,2025-09-10T01:11:33Z,2025-09-09T21:11:33Z
KGTF,"Great Falls Intl, MT, US",2025-09-09T14:53:00Z,2025-09-09T10:53:00Z,VFR,15.6,5.6,220,4,0,NA,1016,METAR KGTF 091453Z 22004KT 10SM CLR 16/06 A3000 RMK AO2 SLP144 T01560056 53002 $,2025-09-09T15:51:30Z,2025-09-09T11:51:30Z
KGTF,"Great Falls Intl, MT, US",2025-09-09T15:53:00Z,2025-09-09T11:53:00Z,VFR,19.4,5.6,0,0,0,NA,1016,METAR KGTF 091553Z 00000KT 10SM CLR 19/06 A3000 RMK AO2 SLP136 T01940056 $,2025-09-09T16:06:03Z,2025-09-09T12:06:03Z
KGTF,"Great Falls Intl, MT, US",2025-09-09T16:53:00Z,2025-09-09T12:53:00Z,VFR,21.7,6.7,80,4,0,NA,1016,METAR KGTF 091653Z 08004KT 10SM CLR 22/07 A3000 RMK AO2 SLP127 T02170067 $,2025-09-09T17:12:54Z,2025-09-09T13:12:54Z
KGTF,"Great Falls Intl, MT, US",2025-09-09T17:53:00Z,2025-09-09T13:53:00Z,VFR,23.3,6.1,60,5,0,NA,1015.7,METAR KGTF 091753Z 06005KT 10SM SCT110 23/06 A2999 RMK AO2 SLP127 T02330061 10233 20072 58006 $,2025-09-09T18:09:22Z,2025-09-09T14:09:22Z
KGTF,"Great Falls Intl, MT, US",2025-09-09T18:53:00Z,2025-09-09T14:53:00Z,VFR,25,5.6,VAR,4,0,NA,1015,METAR KGTF 091853Z VRB04KT 10SM CLR 25/06 A2997 RMK AO2 SLP123 T02500056 $,2025-09-09T19:00:57Z,2025-09-09T15:00:57Z
KGTF,"Great Falls Intl, MT, US",2025-09-09T19:53:00Z,2025-09-09T15:53:00Z,VFR,26.7,5.6,90,6,0,NA,1014,METAR KGTF 091953Z 09006KT 10SM CLR 27/06 A2994 RMK AO2 LTG DSNT SE AND SW SLP112 T02670056 $,2025-09-09T20:10:18Z,2025-09-09T16:10:18Z
KGTF,"Great Falls Intl, MT, US",2025-09-09T20:53:00Z,2025-09-09T16:53:00Z,VFR,26.7,5,VAR,NA,0,NA,1013.6,METAR KGTF 092053Z 10SM CLR 27/05 A2993 RMK AO2 SLP108 T02670050 56017 $,2025-09-09T21:12:45Z,2025-09-09T17:12:45Z
KGTF,"Great Falls Intl, MT, US",2025-09-09T21:53:00Z,2025-09-09T17:53:00Z,VFR,27.8,4.4,VAR,3,0,NA,1013,METAR KGTF 092153Z VRB03KT 10SM CLR 28/04 A2991 RMK AO2 LTG DSNT SE RAB09E18 SLP104 P0000 T02780044 $,2025-09-09T22:00:10Z,2025-09-09T18:00:10Z
KGTF,"Great Falls Intl, MT, US",2025-09-09T22:53:00Z,2025-09-09T18:53:00Z,VFR,27.2,5,120,18,0,NA,1013,METAR KGTF 092253Z 12018KT 10SM FEW100 27/05 A2991 RMK AO2 SLP107 T02720050 $,2025-09-09T22:58:33Z,2025-09-09T18:58:33Z
KGTF,"Great Falls Intl, MT, US",2025-09-09T23:53:00Z,2025-09-09T19:53:00Z,VFR,26.1,6.1,130,13,0,NA,1012.6,METAR KGTF 092353Z 13013KT 10SM CLR 26/06 A2990 RMK AO2 SLP104 60000 T02610061 10283 20233 58010 $,2025-09-10T00:12:43Z,2025-09-09T20:12:43Z
KGTF,"Great Falls Intl, MT, US",2025-09-10T00:53:00Z,2025-09-09T20:53:00Z,VFR,23.9,6.7,130,10,18,NA,1012.3,METAR KGTF 100053Z 13010G18KT 10SM CLR 24/07 A2989 RMK AO2 SLP104 T02390067 $,2025-09-10T01:11:33Z,2025-09-09T21:11:33Z
KGTR,"Golden Triangle Arpt, MS, US",2025-09-09T23:56:00Z,2025-09-09T19:56:00Z,VFR,27.2,16.1,70,5,0,NA,1017,METAR KGTR 092356Z 07005KT 10SM CLR 27/16 A3003 RMK AO2 SLP170 T02720161 10311 20272 55003,2025-09-10T00:12:42Z,2025-09-09T20:12:42Z
KGTR,"Golden Triangle Arpt, MS, US",2025-09-10T00:56:00Z,2025-09-09T20:56:00Z,VFR,25.6,16.7,70,4,0,NA,1017.4,METAR KGTR 100056Z 07004KT 10SM CLR 26/17 A3004 RMK AO2 SLP173 T02560167,2025-09-10T01:11:33Z,2025-09-09T21:11:33Z
KGUC,"Gunnison Arpt, CO, US",2025-09-09T23:56:00Z,2025-09-09T19:56:00Z,VFR,18.9,4.4,100,10,0,NA,1023.8,METAR KGUC 092356Z AUTO 10010KT 10SM FEW080 BKN100 BKN120 19/04 A3023 RMK AO2 LTG DSNT SW-N RAE19 SLP178 P0000 60000 T01890044 10228 20156 56007 $,2025-09-10T00:12:42Z,2025-09-09T20:12:42Z
KGUC,"Gunnison Arpt, CO, US",2025-09-10T01:00:00Z,2025-09-09T21:00:00Z,VFR,17,6,110,6,0,NA,1023.5,SPECI KGUC 100100Z AUTO 11006KT 10SM VCTS SCT100 SCT120 17/06 A3022 RMK AO2 TSE0057B00 $,2025-09-10T01:11:33Z,2025-09-09T21:11:33Z
KGUP,"Gallup Muni, NM, US",2025-09-09T23:53:00Z,2025-09-09T19:53:00Z,VFR,28.9,0.6,240,14,26,NA,1020.1,METAR KGUP 092353Z AUTO 24014G26KT 10SM FEW110 29/01 A3012 RMK AO2 PK WND 24029/2329 SLP040 T02890006 10294 20261 56013,2025-09-10T00:12:42Z,2025-09-09T20:12:42Z
KGUP,"Gallup Muni, NM, US",2025-09-10T00:53:00Z,2025-09-09T20:53:00Z,VFR,27.2,0.6,230,13,20,NA,1019.7,METAR KGUP 100053Z AUTO 23013G20KT 10SM CLR 27/01 A3011 RMK AO2 SLP045 T02720006,2025-09-10T01:11:33Z,2025-09-09T21:11:33Z
KGUS,"Peru/Grissom ARB, IN, US",2025-09-09T23:55:00Z,2025-09-09T19:55:00Z,VFR,21.1,10.3,0,0,0,NA,1019.4,METAR KGUS 092355Z 00000KT 10SM BKN200 21/10 A3010 RMK AO2A SLP195 T02110103 10255 20211 56005 $,2025-09-10T00:12:42Z,2025-09-09T20:12:42Z
KGUS,"Peru/Grissom ARB, IN, US",2025-09-10T00:55:00Z,2025-09-09T20:55:00Z,VFR,17.5,10.6,0,0,0,NA,1019.4,METAR KGUS 100055Z 00000KT 10SM SCT150 SCT200 18/11 A3010 RMK AO2A SLP195 T01750106 $,2025-09-10T01:11:33Z,2025-09-09T21:11:33Z
KGUY,"Guymon Muni, OK, US",2025-09-09T23:53:00Z,2025-09-09T19:53:00Z,VFR,30.6,17.2,130,13,22,NA,1013,METAR KGUY 092353Z AUTO 13013G22KT 10SM CLR 31/17 A2991 RMK AO2 LTG DSNT SW SLP079 T03060172 10333 20289 55006,2025-09-10T00:12:43Z,2025-09-09T20:12:43Z
KGUY,"Guymon Muni, OK, US",2025-09-10T00:53:00Z,2025-09-09T20:53:00Z,VFR,27.8,16.7,150,11,17,NA,1013.6,METAR KGUY 100053Z AUTO 15011G17KT 10SM CLR 28/17 A2993 RMK AO2 SLP085 T02780167,2025-09-10T01:11:33Z,2025-09-09T21:11:33Z
KGWO,"Greenwood/Leflore Arpt, MS, US",2025-09-09T23:53:00Z,2025-09-09T19:53:00Z,VFR,29.4,18.3,120,4,0,NA,1015.7,METAR KGWO 092353Z AUTO 12004KT 10SM CLR 29/18 A2999 RMK AO2 SLP155 T02940183 10333 20294 55003,2025-09-10T00:12:42Z,2025-09-09T20:12:42Z
KGWO,"Greenwood/Leflore Arpt, MS, US",2025-09-10T00:53:00Z,2025-09-09T20:53:00Z,VFR,26.7,18.9,110,4,0,NA,1016,METAR KGWO 100053Z AUTO 11004KT 10SM CLR 27/19 A3000 RMK AO2 SLP157 T02670189,2025-09-10T01:11:33Z,2025-09-09T21:11:33Z
KGYI,"Dennison/N Texas Rgnl, TX, US",2025-09-09T23:50:00Z,2025-09-09T19:50:00Z,VFR,28,15,130,8,0,NA,1016,METAR KGYI 092350Z 13008KT 10SM CLR 28/15 A3000,2025-09-10T00:12:43Z,2025-09-09T20:12:43Z
KGYI,"Dennison/N Texas Rgnl, TX, US",2025-09-10T00:15:00Z,2025-09-09T20:15:00Z,VFR,26.6,14.8,140,6,0,NA,1016,METAR KGYI 100015Z AUTO 14006KT 10SM CLR 27/15 A3000 RMK AO2 T02660148 $,2025-09-10T00:33:20Z,2025-09-09T20:33:20Z
KGYI,"Dennison/N Texas Rgnl, TX, US",2025-09-10T00:55:00Z,2025-09-09T20:55:00Z,VFR,25.2,14.9,140,5,0,NA,1016,METAR KGYI 100055Z AUTO 14005KT 10SM CLR 25/15 A3000 RMK AO2 T02520149 $,2025-09-10T01:11:33Z,2025-09-09T21:11:33Z
KGYY,"Gary Intl, IN, US",2025-09-09T23:50:00Z,2025-09-09T19:50:00Z,VFR,22,11,0,0,0,NA,1019.4,METAR KGYY 092350Z 00000KT 10SM CLR 22/11 A3010,2025-09-10T00:12:43Z,2025-09-09T20:12:43Z
KGYY,"Gary Intl, IN, US",2025-09-10T00:50:00Z,2025-09-09T20:50:00Z,VFR,17,13,0,0,0,NA,1019.4,METAR KGYY 100050Z 00000KT 10SM CLR 17/13 A3010,2025-09-10T01:11:33Z,2025-09-09T21:11:33Z
KHBG,"Hattiesburg/Chain Muni, MS, US",2025-09-09T23:53:00Z,2025-09-09T19:53:00Z,VFR,29.4,20,100,4,0,NA,1015.7,METAR KHBG 092353Z AUTO 10004KT 10SM CLR 29/20 A2999 RMK AO2 SLP152 T02940200 10328 20294 55001 PWINO $,2025-09-10T00:12:43Z,2025-09-09T20:12:43Z
KHBG,"Hattiesburg/Chain Muni, MS, US",2025-09-10T00:53:00Z,2025-09-09T20:53:00Z,VFR,26.1,20.6,0,0,0,NA,1016.3,METAR KHBG 100053Z AUTO 00000KT 10SM SCT120 26/21 A3001 RMK AO2 SLP159 T02610206 PWINO $,2025-09-10T01:11:33Z,2025-09-09T21:11:33Z
KHBR,"Hobart Muni, OK, US",2025-09-09T23:53:00Z,2025-09-09T19:53:00Z,VFR,31.7,12.8,160,16,0,NA,1013.6,METAR KHBR 092353Z AUTO 16016KT 10SM CLR 32/13 A2993 RMK AO2 SLP118 T03170128 10339 20294 57009,2025-09-10T00:12:43Z,2025-09-09T20:12:43Z
KHBR,"Hobart Muni, OK, US",2025-09-10T00:53:00Z,2025-09-09T20:53:00Z,VFR,28.3,13.9,160,13,0,NA,1014.3,METAR KHBR 100053Z AUTO 16013KT 10SM CLR 28/14 A2995 RMK AO2 SLP126 T02830139,2025-09-10T01:11:33Z,2025-09-09T21:11:33Z
KHDN,"Hayden/Yampa Valley Arpt, CO, US",2025-09-09T23:56:00Z,2025-09-09T19:56:00Z,VFR,23.3,4.4,130,4,0,NA,1019.4,METAR KHDN 092356Z AUTO 13004KT 10SM CLR 23/04 A3010 RMK AO2 LTG DSNT SE SLP118 6//// T02330044 10256 20172 56018 $,2025-09-10T00:12:42Z,2025-09-09T20:12:42Z
KHDN,"Hayden/Yampa Valley Arpt, CO, US",2025-09-10T00:56:00Z,2025-09-09T20:56:00Z,VFR,20,6.1,120,12,0,NA,1019.4,METAR KHDN 100056Z AUTO 12012KT 10SM FEW090 BKN110 20/06 A3010 RMK AO2 LTG DSNT E RAB34E45 SLP125 P0000 T02000061 $,2025-09-10T01:11:33Z,2025-09-09T21:11:33Z
KHEF,"Manassas Rgnl, VA, US",2025-09-09T23:56:00Z,2025-09-09T19:56:00Z,VFR,21.7,12.8,80,6,0,NA,1022.8,METAR KHEF 092356Z 08006KT 10SM BKN050 22/13 A3020 RMK AO2 SLP231 T02170128 10256 20211 55001,2025-09-10T00:12:42Z,2025-09-09T20:12:42Z
KHEF,"Manassas Rgnl, VA, US",2025-09-10T00:56:00Z,2025-09-09T20:56:00Z,VFR,20.6,12.2,70,6,0,NA,1023.1,METAR KHEF 100056Z 07006KT 10SM SCT050 21/12 A3021 RMK AO2 SLP235 T02060122,2025-09-10T01:11:33Z,2025-09-09T21:11:33Z
KHFD,"Hartford/Brainard Arpt, CT, US",2025-09-09T23:53:00Z,2025-09-09T19:53:00Z,VFR,17.2,12.8,0,0,0,NA,1025.8,METAR KHFD 092353Z 00000KT 10SM CLR 17/13 A3029 RMK AO2 SLP256 T01720128 10228 20172 56001,2025-09-10T00:12:43Z,2025-09-09T20:12:43Z
KHFD,"Hartford/Brainard Arpt, CT, US",2025-09-10T00:53:00Z,2025-09-09T20:53:00Z,VFR,16.1,11.7,0,0,0,NA,1026.2,METAR KHFD 100053Z 00000KT 10SM CLR 16/12 A3030 RMK AO2 SLP260 T01610117,2025-09-10T01:11:33Z,2025-09-09T21:11:33Z
KHGR,"Hagerstown Rgnl, MD, US",2025-09-09T23:53:00Z,2025-09-09T19:53:00Z,VFR,20.6,7.8,110,4,0,NA,1023.1,METAR KHGR 092353Z 11004KT 10SM CLR 21/08 A3021 RMK AO2 SLP240 T02060078 10256 20206 55001 $,2025-09-10T00:12:42Z,2025-09-09T20:12:42Z
KHGR,"Hagerstown Rgnl, MD, US",2025-09-10T00:53:00Z,2025-09-09T20:53:00Z,VFR,18.3,8.9,70,3,0,NA,1023.8,METAR KHGR 100053Z 07003KT 10SM CLR 18/09 A3023 RMK AO2 SLP245 T01830089 $,2025-09-10T01:11:33Z,2025-09-09T21:11:33Z
KHHR,"Hawthorne Muni, CA, US",2025-09-09T23:53:00Z,2025-09-09T19:53:00Z,VFR,23.3,17.2,240,10,0,NA,1010.9,METAR KHHR 092353Z 24010KT 10SM CLR 23/17 A2985 RMK AO2 SLP106 T02330172 10250 20233 56018,2025-09-10T00:12:43Z,2025-09-09T20:12:43Z
KHHR,"Hawthorne Muni, CA, US",2025-09-10T00:53:00Z,2025-09-09T20:53:00Z,VFR,22.8,17.2,270,10,0,NA,1010.6,METAR KHHR 100053Z 27010KT 10SM CLR 23/17 A2984 RMK AO2 SLP105 T02280172,2025-09-10T01:11:33Z,2025-09-09T21:11:33Z
KHIB,"Hibbing/Chisholm Arpt, MN, US",2025-09-09T23:53:00Z,2025-09-09T19:53:00Z,VFR,18.9,11.7,360,3,0,NA,1016.3,METAR KHIB 092353Z AUTO 36003KT 10SM CLR 19/12 A3001 RMK AO2 SLP162 T01890117 10217 20189 53014,2025-09-10T00:12:43Z,2025-09-09T20:12:43Z
KHIB,"Hibbing/Chisholm Arpt, MN, US",2025-09-10T00:53:00Z,2025-09-09T20:53:00Z,VFR,13.3,12.8,360,3,0,NA,1016.7,METAR KHIB 100053Z AUTO 36003KT 10SM CLR 13/13 A3002 RMK AO2 SLP168 T01330128,2025-09-10T01:11:33Z,2025-09-09T21:11:33Z
KHIF,"Ogden/Hill AFB, UT, US",2025-09-09T23:55:00Z,2025-09-09T19:55:00Z,VFR,28.9,-2.3,290,10,0,NA,1011.6,METAR KHIF 092355Z AUTO 29010KT 10SM FEW110 29/M02 A2987 RMK AO2 SLP048 T02891023 10300 20270 57017,2025-09-10T00:12:42Z,2025-09-09T20:12:42Z
KHIF,"Ogden/Hill AFB, UT, US",2025-09-10T00:55:00Z,2025-09-09T20:55:00Z,VFR,27.2,0.8,10,3,0,NA,1011.3,METAR KHIF 100055Z AUTO 01003KT 10SM FEW130 27/01 A2986 RMK AO2 SLP051 T02720008,2025-09-10T01:11:33Z,2025-09-09T21:11:33Z
KHII,"Lake Havasu City Arpt, AZ, US",2025-09-09T23:55:00Z,2025-09-09T19:55:00Z,VFR,39,5,180,10,16,NA,1004.8,METAR KHII 092355Z AUTO 18010G16KT 140V200 10SM CLR 39/05 A2967 RMK AO2,2025-09-10T00:12:42Z,2025-09-09T20:12:42Z
KHII,"Lake Havasu City Arpt, AZ, US",2025-09-10T00:15:00Z,2025-09-09T20:15:00Z,VFR,39,3,180,8,15,NA,1004.8,METAR KHII 100015Z AUTO 18008G15KT 10SM CLR 39/03 A2967 RMK AO2,2025-09-10T00:33:20Z,2025-09-09T20:33:20Z
KHII,"Lake Havasu City Arpt, AZ, US",2025-09-10T00:55:00Z,2025-09-09T20:55:00Z,VFR,39,2,170,12,0,NA,1004.5,METAR KHII 100055Z AUTO 17012KT 10SM CLR 39/02 A2966 RMK AO2,2025-09-10T01:11:33Z,2025-09-09T21:11:33Z
KHIO,"Portland/Hillsboro Arpt, OR, US",2025-09-09T23:53:00Z,2025-09-09T19:53:00Z,VFR,26.1,12.8,20,3,0,NA,1010.9,METAR KHIO 092353Z 02003KT 10SM CLR 26/13 A2985 RMK AO2 SLP104 T02610128 10261 20189 56020,2025-09-10T00:12:43Z,2025-09-09T20:12:43Z
KHKY,"Hickory Rgnl, NC, US",2025-09-09T22:53:00Z,2025-09-09T18:53:00Z,VFR,21.7,7.8,60,6,0,NA,1021.4,METAR KHKY 092253Z 06006KT 10SM CLR 22/08 A3016 RMK AO2 SLP197 T02170078 $,2025-09-10T00:12:43Z,2025-09-09T20:12:43Z
KHKY,"Hickory Rgnl, NC, US",2025-09-10T00:53:00Z,2025-09-09T20:53:00Z,VFR,16.7,9.4,0,0,0,NA,1021.8,METAR KHKY 100053Z AUTO 00000KT 10SM CLR 17/09 A3017 RMK AO2 SLP202 T01670094 $,2025-09-10T01:11:33Z,2025-09-09T21:11:33Z
KHLG,"Wheeling/Ohio Cnty, WV, US",2025-09-09T23:53:00Z,2025-09-09T19:53:00Z,VFR,20,6.1,60,5,0,NA,1022.1,METAR KHLG 092353Z 06005KT 10SM CLR 20/06 A3018 RMK AO2 SLP219 T02000061 10239 20200 56005,2025-09-10T00:12:43Z,2025-09-09T20:12:43Z
KHLG,"Wheeling/Ohio Cnty, WV, US",2025-09-10T00:53:00Z,2025-09-09T20:53:00Z,VFR,18.3,6.7,90,6,0,NA,1022.1,METAR KHLG 100053Z 09006KT 10SM CLR 18/07 A3018 RMK AO2 SLP220 T01830067,2025-09-10T01:11:33Z,2025-09-09T21:11:33Z
KHLN,"Helena Rgnl, MT, US",2025-09-09T14:53:00Z,2025-09-09T10:53:00Z,VFR,11.7,6.7,10,3,0,NA,1017,METAR KHLN 091453Z 01003KT 10SM CLR 12/07 A3003 RMK AO2 SLP165 T01170067 53003,2025-09-09T15:51:30Z,2025-09-09T11:51:30Z
KHLN,"Helena Rgnl, MT, US",2025-09-09T15:53:00Z,2025-09-09T11:53:00Z,VFR,14.4,6.1,0,0,0,NA,1016.7,METAR KHLN 091553Z 00000KT 10SM CLR 14/06 A3002 RMK AO2 SLP159 T01440061,2025-09-09T16:06:03Z,2025-09-09T12:06:03Z
KHLN,"Helena Rgnl, MT, US",2025-09-09T16:53:00Z,2025-09-09T12:53:00Z,VFR,17.2,6.7,VAR,4,0,NA,1016.3,METAR KHLN 091653Z VRB04KT 10SM CLR 17/07 A3001 RMK AO2 SLP156 T01720067,2025-09-09T17:12:54Z,2025-09-09T13:12:54Z
KHLN,"Helena Rgnl, MT, US",2025-09-09T17:53:00Z,2025-09-09T13:53:00Z,VFR,19.4,6.1,70,3,0,NA,1016,METAR KHLN 091753Z 07003KT 10SM CLR 19/06 A3000 RMK AO2 SLP152 T01940061 10200 20100 56010,2025-09-09T18:09:21Z,2025-09-09T14:09:21Z
KHLN,"Helena Rgnl, MT, US",2025-09-09T18:53:00Z,2025-09-09T14:53:00Z,VFR,22.2,7.2,50,6,0,NA,1015.3,METAR KHLN 091853Z 05006KT 10SM CLR 22/07 A2998 RMK AO2 SLP138 T02220072,2025-09-09T19:00:57Z,2025-09-09T15:00:57Z
KHLN,"Helena Rgnl, MT, US",2025-09-09T19:53:00Z,2025-09-09T15:53:00Z,VFR,24.4,7.8,VAR,3,0,NA,1014.6,METAR KHLN 091953Z VRB03KT 10SM CLR 24/08 A2996 RMK AO2 SLP134 T02440078,2025-09-09T20:10:18Z,2025-09-09T16:10:18Z
KHLN,"Helena Rgnl, MT, US",2025-09-09T20:53:00Z,2025-09-09T16:53:00Z,VFR,25,7.2,350,6,0,NA,1014.3,METAR KHLN 092053Z 35006KT 10SM BKN110 25/07 A2995 RMK AO2 SLP131 T02500072 56014,2025-09-09T21:12:45Z,2025-09-09T17:12:45Z
KHLN,"Helena Rgnl, MT, US",2025-09-09T21:53:00Z,2025-09-09T17:53:00Z,VFR,26.7,3.9,280,4,0,NA,1013.3,METAR KHLN 092153Z 28004KT 10SM CLR 27/04 A2992 RMK AO2 SLP119 T02670039,2025-09-09T22:00:10Z,2025-09-09T18:00:10Z
KHLN,"Helena Rgnl, MT, US",2025-09-09T22:53:00Z,2025-09-09T18:53:00Z,VFR,26.7,3.9,0,0,0,NA,1012.6,METAR KHLN 092253Z 00000KT 10SM CLR 27/04 A2990 RMK AO2 SLP114 T02670039,2025-09-09T22:58:33Z,2025-09-09T18:58:33Z
KHLN,"Helena Rgnl, MT, US",2025-09-09T23:53:00Z,2025-09-09T19:53:00Z,VFR,26.7,3.3,100,3,0,NA,1012.3,METAR KHLN 092353Z 10003KT 10SM CLR 27/03 A2989 RMK AO2 SLP108 T02670033 10272 20200 56020,2025-09-10T00:12:43Z,2025-09-09T20:12:43Z
KHLN,"Helena Rgnl, MT, US",2025-09-10T00:53:00Z,2025-09-09T20:53:00Z,VFR,25.6,3.3,110,3,0,NA,1011.9,METAR KHLN 100053Z 11003KT 10SM CLR 26/03 A2988 RMK AO2 SLP106 T02560033,2025-09-10T01:11:33Z,2025-09-09T21:11:33Z
KHLR,"Killeen/Ft Hood AAF, TX, US",2025-09-10T00:55:00Z,2025-09-09T20:55:00Z,VFR,27.3,14,100,5,0,6,1015,METAR KHLR 100055Z AUTO 10005KT 6SM HZ CLR 27/14 A2997 RMK AO2 SLP140 T02730140,2025-09-10T01:11:33Z,2025-09-09T21:11:33Z
KHMN,"Holloman AFB, NM, US",2025-09-09T22:55:00Z,2025-09-09T18:55:00Z,VFR,35.4,6.6,120,6,0,NA,1016,METAR KHMN 092255Z AUTO 12006KT 10SM FEW100 35/07 A3000 RMK AO2 SLP073 T03540066 $,2025-09-10T00:12:43Z,2025-09-09T20:12:43Z
KHMN,"Holloman AFB, NM, US",2025-09-10T00:55:00Z,2025-09-09T20:55:00Z,VFR,34.6,5.1,210,8,0,NA,1015.7,METAR KHMN 100055Z AUTO 21008KT 10SM FEW100 35/05 A2999 RMK AO2 LTG DSNT E PRESFR SLP069 T03460051 $,2025-09-10T01:11:33Z,2025-09-09T21:11:33Z
KHOB,"Hobbs Arpt, NM, US",2025-09-09T23:50:00Z,2025-09-09T19:50:00Z,VFR,33,9,140,10,18,NA,1015.7,METAR KHOB 092350Z 14010G18KT 10SM CLR 33/09 A2999,2025-09-10T00:12:43Z,2025-09-09T20:12:43Z
KHOB,"Hobbs Arpt, NM, US",2025-09-10T00:15:00Z,2025-09-09T20:15:00Z,VFR,33,10,160,14,0,NA,1015.7,METAR KHOB 100015Z AUTO 16014KT 10SM CLR 33/10 A2999 RMK AO2,2025-09-10T00:33:20Z,2025-09-09T20:33:20Z
KHOB,"Hobbs Arpt, NM, US",2025-09-10T00:55:00Z,2025-09-09T20:55:00Z,VFR,31,10,140,13,19,NA,1016,METAR KHOB 100055Z AUTO 14013G19KT 10SM CLR 31/10 A3000 RMK AO2,2025-09-10T01:11:33Z,2025-09-09T21:11:33Z
KHON,"Huron Rgnl, SD, US",2025-09-09T23:55:00Z,2025-09-09T19:55:00Z,VFR,23.3,17.8,140,5,0,NA,1014,METAR KHON 092355Z AUTO 14005KT 10SM CLR 23/18 A2994 RMK AO2 SLP135 T02330178 10261 20222 53004,2025-09-10T00:12:42Z,2025-09-09T20:12:42Z
KHON,"Huron Rgnl, SD, US",2025-09-10T00:55:00Z,2025-09-09T20:55:00Z,VFR,21.1,17.8,130,3,0,NA,1014.3,METAR KHON 100055Z AUTO 13003KT 10SM CLR 21/18 A2995 RMK AO2 SLP136 T02110178,2025-09-10T01:11:33Z,2025-09-09T21:11:33Z
KHOP,"Fort Campbell, KY, US",2025-09-09T23:55:00Z,2025-09-09T19:55:00Z,VFR,26.7,13.8,150,3,0,NA,1017,METAR KHOP 092355Z AUTO 15003KT 10SM CLR 27/14 A3003 RMK AO2 SLP168 T02670138 10303 20267 57008 $,2025-09-10T00:12:42Z,2025-09-09T20:12:42Z
KHOP,"Fort Campbell, KY, US",2025-09-10T00:55:00Z,2025-09-09T20:55:00Z,VFR,24.4,14.5,120,3,0,NA,1017.4,METAR KHOP 100055Z AUTO 12003KT 10SM CLR 24/15 A3004 RMK AO2 SLP172 T02440145 $,2025-09-10T01:11:33Z,2025-09-09T21:11:33Z
KHOT,"Hot Springs Mem, AR, US",2025-09-09T23:53:00Z,2025-09-09T19:53:00Z,VFR,26.7,11.1,150,4,0,NA,1016,METAR KHOT 092353Z AUTO 15004KT 10SM CLR 27/11 A3000 RMK AO2 SLP155 60000 T02670111 10289 20261 56016 $,2025-09-10T00:12:43Z,2025-09-09T20:12:43Z
KHOT,"Hot Springs Mem, AR, US",2025-09-10T00:53:00Z,2025-09-09T20:53:00Z,VFR,22.8,13.3,0,0,0,NA,1016.3,METAR KHOT 100053Z AUTO 00000KT 10SM CLR 23/13 A3001 RMK AO2 SLP157 T02280133 $,2025-09-10T01:11:33Z,2025-09-09T21:11:33Z
KHOU,"Houston/Hobby Arpt, TX, US",2025-09-09T14:53:00Z,2025-09-09T10:53:00Z,VFR,26.1,15,80,8,0,NA,1016.7,METAR KHOU 091453Z 08008KT 10SM CLR 26/15 A3002 RMK AO2 SLP171 T02610150 51008,2025-09-09T15:51:30Z,2025-09-09T11:51:30Z
KHOU,"Houston/Hobby Arpt, TX, US",2025-09-09T15:53:00Z,2025-09-09T11:53:00Z,VFR,27.2,13.9,VAR,5,0,NA,1017,METAR KHOU 091553Z VRB05KT 10SM CLR 27/14 A3003 RMK AO2 SLP173 T02720139,2025-09-09T16:06:03Z,2025-09-09T12:06:03Z
KHOU,"Houston/Hobby Arpt, TX, US",2025-09-09T16:53:00Z,2025-09-09T12:53:00Z,VFR,28.3,13.9,50,6,0,NA,1017,METAR KHOU 091653Z 05006KT 10SM CLR 28/14 A3003 RMK AO2 SLP174 T02830139,2025-09-09T17:12:54Z,2025-09-09T13:12:54Z
KHOU,"Houston/Hobby Arpt, TX, US",2025-09-09T17:53:00Z,2025-09-09T13:53:00Z,VFR,29.4,14.4,50,8,0,NA,1016.7,METAR KHOU 091753Z 05008KT 10SM CLR 29/14 A3002 RMK AO2 SLP169 T02940144 10294 20206 58002,2025-09-09T18:09:21Z,2025-09-09T14:09:21Z
KHOU,"Houston/Hobby Arpt, TX, US",2025-09-09T18:53:00Z,2025-09-09T14:53:00Z,VFR,30,12.8,70,8,0,NA,1015.7,METAR KHOU 091853Z COR 07008KT 10SM CLR 30/13 A2999 RMK AO2 SLP161 T03000128,2025-09-09T19:00:57Z,2025-09-09T15:00:57Z
KHOU,"Houston/Hobby Arpt, TX, US",2025-09-09T19:53:00Z,2025-09-09T15:53:00Z,VFR,30.6,13.9,40,8,0,NA,1015.3,METAR KHOU 091953Z 04008KT 10SM CLR 31/14 A2998 RMK AO2 SLP155 T03060139,2025-09-09T20:10:18Z,2025-09-09T16:10:18Z
KHOU,"Houston/Hobby Arpt, TX, US",2025-09-09T20:53:00Z,2025-09-09T16:53:00Z,VFR,31.1,13.3,VAR,6,0,NA,1014.6,METAR KHOU 092053Z VRB06KT 10SM CLR 31/13 A2996 RMK AO2 SLP150 T03110133 56020,2025-09-09T21:12:45Z,2025-09-09T17:12:45Z
KHOU,"Houston/Hobby Arpt, TX, US",2025-09-09T21:53:00Z,2025-09-09T17:53:00Z,VFR,31.1,10.6,70,8,0,NA,1014.3,METAR KHOU 092153Z 07008KT 10SM CLR 31/11 A2995 RMK AO2 SLP147 T03110106,2025-09-09T22:00:10Z,2025-09-09T18:00:10Z
KHOU,"Houston/Hobby Arpt, TX, US",2025-09-09T22:53:00Z,2025-09-09T18:53:00Z,VFR,30.6,12.2,50,6,0,NA,1014.3,METAR KHOU 092253Z 05006KT 10SM CLR 31/12 A2995 RMK AO2 SLP145 T03060122,2025-09-09T22:58:33Z,2025-09-09T18:58:33Z
KHOU,"Houston/Hobby Arpt, TX, US",2025-09-09T23:53:00Z,2025-09-09T19:53:00Z,VFR,30,14.4,120,6,0,NA,1014.3,METAR KHOU 092353Z 12006KT 10SM CLR 30/14 A2995 RMK AO2 SLP147 T03000144 10317 20294 55002,2025-09-10T00:12:43Z,2025-09-09T20:12:43Z
KHOU,"Houston/Hobby Arpt, TX, US",2025-09-10T00:53:00Z,2025-09-09T20:53:00Z,VFR,27.8,13.9,110,6,0,NA,1014.6,METAR KHOU 100053Z 11006KT 10SM CLR 28/14 A2996 RMK AO2 SLP151 T02780139,2025-09-10T01:11:33Z,2025-09-09T21:11:33Z
KHPN,"White Plains/Westchester Cnty, NY, US",2025-09-09T14:56:00Z,2025-09-09T10:56:00Z,VFR,20,9.4,70,5,0,NA,1027.9,METAR KHPN 091456Z 07005KT 10SM CLR 20/09 A3035 RMK AO2 SLP274 T02000094 53005,2025-09-09T15:51:27Z,2025-09-09T11:51:27Z
KHPN,"White Plains/Westchester Cnty, NY, US",2025-09-09T15:56:00Z,2025-09-09T11:56:00Z,VFR,21.1,4.4,80,12,17,NA,1027.5,METAR KHPN 091556Z 08012G17KT 10SM FEW040 21/04 A3034 RMK AO2 SLP272 T02110044,2025-09-09T16:06:00Z,2025-09-09T12:06:00Z
KHPN,"White Plains/Westchester Cnty, NY, US",2025-09-09T16:56:00Z,2025-09-09T12:56:00Z,VFR,21.1,7.8,90,13,20,NA,1027.2,METAR KHPN 091656Z 09013G20KT 10SM CLR 21/08 A3033 RMK AO2 SLP269 T02110078,2025-09-09T17:12:49Z,2025-09-09T13:12:49Z
KHPN,"White Plains/Westchester Cnty, NY, US",2025-09-09T17:56:00Z,2025-09-09T13:56:00Z,VFR,21.7,8.3,100,9,0,NA,1026.8,METAR KHPN 091756Z 10009KT 10SM FEW040 22/08 A3032 RMK AO2 SLP266 T02170083 10217 20150 58008,2025-09-09T18:09:19Z,2025-09-09T14:09:19Z
KHPN,"White Plains/Westchester Cnty, NY, US",2025-09-09T18:56:00Z,2025-09-09T14:56:00Z,VFR,21.1,5,110,11,19,NA,1026.8,METAR KHPN 091856Z 11011G19KT 10SM FEW040 21/05 A3032 RMK AO2 SLP263 T02110050,2025-09-09T19:00:54Z,2025-09-09T15:00:54Z
KHPN,"White Plains/Westchester Cnty, NY, US",2025-09-09T19:56:00Z,2025-09-09T15:56:00Z,VFR,21.7,7.8,110,8,17,NA,1026.2,METAR KHPN 091956Z 11008G17KT 10SM FEW040 FEW060 22/08 A3030 RMK AO2 SLP258 T02170078,2025-09-09T20:10:12Z,2025-09-09T16:10:12Z
KHPN,"White Plains/Westchester Cnty, NY, US",2025-09-09T20:56:00Z,2025-09-09T16:56:00Z,VFR,21.7,8.3,80,8,0,NA,1025.8,METAR KHPN 092056Z 08008KT 10SM FEW060 22/08 A3029 RMK AO2 SLP256 T02170083 56009,2025-09-09T21:12:40Z,2025-09-09T17:12:40Z
KHPN,"White Plains/Westchester Cnty, NY, US",2025-09-09T21:56:00Z,2025-09-09T17:56:00Z,VFR,20.6,8.9,90,7,0,NA,1025.8,METAR KHPN 092156Z 09007KT 10SM CLR 21/09 A3029 RMK AO2 SLP256 T02060089,2025-09-09T22:00:06Z,2025-09-09T18:00:06Z
KHPN,"White Plains/Westchester Cnty, NY, US",2025-09-09T22:56:00Z,2025-09-09T18:56:00Z,VFR,18.9,10,80,4,0,NA,1025.5,METAR KHPN 092256Z 08004KT 10SM CLR 19/10 A3028 RMK AO2 SLP252 T01890100,2025-09-09T23:21:15Z,2025-09-09T19:21:15Z
KHPN,"White Plains/Westchester Cnty, NY, US",2025-09-09T23:56:00Z,2025-09-09T19:56:00Z,VFR,17.8,11.1,60,3,0,NA,1025.1,METAR KHPN 092356Z 06003KT 10SM CLR 18/11 A3027 RMK AO2 SLP250 T01780111 10217 20178 57006,2025-09-10T00:12:42Z,2025-09-09T20:12:42Z
KHPN,"White Plains/Westchester Cnty, NY, US",2025-09-10T00:56:00Z,2025-09-09T20:56:00Z,VFR,16.7,12.2,60,5,0,NA,1025.5,METAR KHPN 100056Z 06005KT 10SM FEW060 17/12 A3028 RMK AO2 SLP252 T01670122,2025-09-10T01:11:33Z,2025-09-09T21:11:33Z
KHQM,"Hoquiam/Bowerman Arpt, WA, US",2025-09-09T23:53:00Z,2025-09-09T19:53:00Z,VFR,19.4,14.4,280,10,0,NA,1013.3,METAR KHQM 092353Z AUTO 28010KT 10SM CLR 19/14 A2992 RMK AO2 SLP133 T01940144 10206 20150 56015,2025-09-10T00:12:42Z,2025-09-09T20:12:42Z
KHQM,"Hoquiam/Bowerman Arpt, WA, US",2025-09-10T00:53:00Z,2025-09-09T20:53:00Z,VFR,18.9,14.4,280,8,0,NA,1013.3,METAR KHQM 100053Z AUTO 28008KT 10SM CLR 19/14 A2992 RMK AO2 SLP135 T01890144,2025-09-10T01:11:33Z,2025-09-09T21:11:33Z
KHRL,"Harlingen/Valley Intl, TX, US",2025-09-09T14:52:00Z,2025-09-09T10:52:00Z,VFR,29.4,24.4,20,8,0,NA,1014.3,METAR KHRL 091452Z 02008KT 10SM FEW026 SCT065 BKN080 29/24 A2995 RMK AO2 SLP142 T02940244 53009 $,2025-09-09T15:51:30Z,2025-09-09T11:51:30Z
KHRL,"Harlingen/Valley Intl, TX, US",2025-09-09T15:52:00Z,2025-09-09T11:52:00Z,VFR,30,23.9,20,10,0,NA,1014.6,METAR KHRL 091552Z 02010KT 10SM FEW022 SCT070 OVC090 30/24 A2996 RMK AO2 SLP144 T03000239,2025-09-09T16:06:03Z,2025-09-09T12:06:03Z
KHRL,"Harlingen/Valley Intl, TX, US",2025-09-09T16:52:00Z,2025-09-09T12:52:00Z,VFR,31.1,24.4,60,9,0,NA,1014.6,METAR KHRL 091652Z 06009KT 10SM SCT060 SCT070 31/24 A2996 RMK AO2 SLP143 T03110244,2025-09-09T17:12:54Z,2025-09-09T13:12:54Z
KHRL,"Harlingen/Valley Intl, TX, US",2025-09-09T17:52:00Z,2025-09-09T13:52:00Z,VFR,30,24.4,60,13,0,NA,1014.3,METAR KHRL 091752Z 06013KT 10SM SCT065 SCT075 BKN090 30/24 A2995 RMK AO2 RAB05E29 SLP141 P0009 60009 T03000244 10317 20233 58001,2025-09-09T18:09:22Z,2025-09-09T14:09:22Z
KHRL,"Harlingen/Valley Intl, TX, US",2025-09-09T18:52:00Z,2025-09-09T14:52:00Z,VFR,28.3,25,10,8,0,NA,1014,METAR KHRL 091852Z 01008KT 10SM -RA SCT035 SCT080 BKN100 28/25 A2994 RMK AO2 RAB46 SLP136 P0000 T02830250,2025-09-09T19:00:57Z,2025-09-09T15:00:57Z
KHRL,"Harlingen/Valley Intl, TX, US",2025-09-09T19:52:00Z,2025-09-09T15:52:00Z,VFR,32.2,23.9,30,9,0,NA,1013,METAR KHRL 091952Z 03009KT 10SM FEW034 SCT041 SCT060 32/24 A2991 RMK AO2 LTG DSNT S RAE1855 SLP127 P0000 T03220239,2025-09-09T20:10:18Z,2025-09-09T16:10:18Z
KHRL,"Harlingen/Valley Intl, TX, US",2025-09-09T20:52:00Z,2025-09-09T16:52:00Z,VFR,32.8,23.3,60,11,0,NA,1012.3,METAR KHRL 092052Z 06011KT 10SM FEW038 33/23 A2989 RMK AO2 LTG DSNT S SLP121 60000 T03280233 58021,2025-09-09T21:12:45Z,2025-09-09T17:12:45Z
KHRL,"Harlingen/Valley Intl, TX, US",2025-09-09T21:52:00Z,2025-09-09T17:52:00Z,VFR,33.3,23.3,70,12,0,NA,1012.3,METAR KHRL 092152Z 07012KT 10SM CLR 33/23 A2989 RMK AO2 LTG DSNT SW SLP120 T03330233,2025-09-09T22:00:10Z,2025-09-09T18:00:10Z
KHRL,"Harlingen/Valley Intl, TX, US",2025-09-09T22:52:00Z,2025-09-09T18:52:00Z,VFR,31.1,23.3,60,12,0,NA,1012.6,METAR KHRL 092252Z 06012KT 10SM SCT036 SCT080 31/23 A2990 RMK AO2 SLP123 T03110233,2025-09-09T22:58:33Z,2025-09-09T18:58:33Z
KHRL,"Harlingen/Valley Intl, TX, US",2025-09-09T23:52:00Z,2025-09-09T19:52:00Z,VFR,30.6,23.9,70,14,0,NA,1012.6,METAR KHRL 092352Z 07014KT 10SM FEW030 31/24 A2990 RMK AO2 SLP125 60000 T03060239 10339 20283 53004,2025-09-10T00:12:43Z,2025-09-09T20:12:43Z
KHRL,"Harlingen/Valley Intl, TX, US",2025-09-10T00:52:00Z,2025-09-09T20:52:00Z,VFR,27.8,23.3,70,8,0,NA,1013.3,METAR KHRL 100052Z COR 07008KT 10SM CLR 28/23 A2992 RMK AO2 SLP130 T02780233,2025-09-10T01:11:33Z,2025-09-09T21:11:33Z
KHRO,"Harrison/Boone Cnty, AR, US",2025-09-09T23:53:00Z,2025-09-09T19:53:00Z,VFR,25,8.3,0,0,0,NA,1017.4,METAR KHRO 092353Z AUTO 00000KT 10SM CLR 25/08 A3004 RMK AO2 SLP163 T02500083 10278 20250 55004 $,2025-09-10T00:12:43Z,2025-09-09T20:12:43Z
KHRO,"Harrison/Boone Cnty, AR, US",2025-09-10T00:53:00Z,2025-09-09T20:53:00Z,VFR,20.6,11.1,0,0,0,NA,1017,METAR KHRO 100053Z AUTO 00000KT 10SM CLR 21/11 A3003 RMK AO2 SLP162 T02060111 $,2025-09-10T01:11:33Z,2025-09-09T21:11:33Z
KHRT,"Ft Walton Beach/Hurlburt Fld, FL, US",2025-09-09T23:55:00Z,2025-09-09T19:55:00Z,VFR,28.5,18.8,50,6,0,NA,1015,METAR KHRT 092355Z 05006KT 10SM BKN060 BKN080 29/19 A2997 RMK AO2A SLP147 T02850188 10313 20283 50008 $,2025-09-10T00:12:42Z,2025-09-09T20:12:42Z
KHRT,"Ft Walton Beach/Hurlburt Fld, FL, US",2025-09-10T00:55:00Z,2025-09-09T20:55:00Z,VFR,27.8,18.7,50,5,0,NA,1015.7,METAR KHRT 100055Z 05005KT 10SM BKN085 28/19 A2999 RMK AO2A SLP154 T02780187 $,2025-09-10T01:11:33Z,2025-09-09T21:11:33Z
KHST,"Homestead AFB, FL, US",2025-09-09T23:55:00Z,2025-09-09T19:55:00Z,VFR,27.1,23.7,90,3,0,NA,1014,METAR KHST 092355Z 09003KT 10SM VCTS FEW030CB SCT050 BKN170 BKN250 27/24 A2994 RMK LTG SE LTG DSNT NE-SE DZB10E16 SLP142 P0000 60000 T02710237 10296 20267 52012,2025-09-10T00:12:42Z,2025-09-09T20:12:42Z
KHST,"Homestead AFB, FL, US",2025-09-10T00:25:00Z,2025-09-09T20:25:00Z,VFR,27,24,0,0,0,NA,1014.3,SPECI KHST 100025Z 00000KT 10SM FEW030 SCT110 BKN230 27/24 A2995 RMK LTG DSNT E-SE AND W-NW SLP145,2025-09-10T00:33:20Z,2025-09-09T20:33:20Z
KHST,"Homestead AFB, FL, US",2025-09-10T01:04:00Z,2025-09-09T21:04:00Z,VFR,27,24,0,0,0,NA,1015,SPECI KHST 100104Z AUTO 00000KT 10SM FEW110 SCT210 27/24 A2997 RMK AO2 LTG DSNT E DZE0055DZB0056E04 SLP152,2025-09-10T01:11:33Z,2025-09-09T21:11:33Z
KHSV,"Huntsville Intl, AL, US",2025-09-09T14:53:00Z,2025-09-09T10:53:00Z,VFR,22.8,12.8,130,10,0,NA,1022.1,METAR KHSV 091453Z 13010KT 10SM FEW043 FEW060 23/13 A3018 RMK AO2 SLP212 T02280128 53005 $,2025-09-09T15:51:29Z,2025-09-09T11:51:29Z
KHSV,"Huntsville Intl, AL, US",2025-09-09T15:53:00Z,2025-09-09T11:53:00Z,VFR,23.9,12.8,150,8,0,NA,1022.1,METAR KHSV 091553Z 15008KT 10SM FEW045 FEW060 24/13 A3018 RMK AO2 SLP213 T02390128 $,2025-09-09T16:06:02Z,2025-09-09T12:06:02Z
KHSV,"Huntsville Intl, AL, US",2025-09-09T16:53:00Z,2025-09-09T12:53:00Z,VFR,25,13.3,110,7,0,NA,1021.4,METAR KHSV 091653Z 11007KT 10SM FEW049 25/13 A3016 RMK AO2 SLP207 T02500133 $,2025-09-09T17:12:51Z,2025-09-09T13:12:51Z
KHSV,"Huntsville Intl, AL, US",2025-09-09T17:53:00Z,2025-09-09T13:53:00Z,VFR,26.1,13.9,VAR,4,0,NA,1020.7,METAR KHSV 091753Z VRB04KT 10SM FEW047 26/14 A3014 RMK AO2 SLP200 T02610139 10261 20178 58012 $,2025-09-09T18:09:20Z,2025-09-09T14:09:20Z
KHSV,"Huntsville Intl, AL, US",2025-09-09T18:53:00Z,2025-09-09T14:53:00Z,VFR,26.7,15,140,4,0,NA,1019.7,METAR KHSV 091853Z 14004KT 10SM FEW050 27/15 A3011 RMK AO2 SLP192 T02670150 $,2025-09-09T19:00:56Z,2025-09-09T15:00:56Z
KHSV,"Huntsville Intl, AL, US",2025-09-09T19:53:00Z,2025-09-09T15:53:00Z,VFR,28.3,13.9,0,0,0,NA,1019,METAR KHSV 091953Z 00000KT 10SM FEW055 28/14 A3009 RMK AO2 SLP184 T02830139 $,2025-09-09T20:10:15Z,2025-09-09T16:10:15Z
KHSV,"Huntsville Intl, AL, US",2025-09-09T20:53:00Z,2025-09-09T16:53:00Z,VFR,27.8,13.9,100,4,0,NA,1019,METAR KHSV 092053Z 10004KT 10SM FEW060 28/14 A3009 RMK AO2 SLP182 T02780139 56017 $,2025-09-09T21:12:42Z,2025-09-09T17:12:42Z
KHSV,"Huntsville Intl, AL, US",2025-09-09T21:53:00Z,2025-09-09T17:53:00Z,VFR,27.2,13.3,0,0,0,NA,1018.7,METAR KHSV 092153Z 00000KT 10SM FEW060 27/13 A3008 RMK AO2 SLP179 T02720133 $,2025-09-09T22:00:08Z,2025-09-09T18:00:08Z
KHSV,"Huntsville Intl, AL, US",2025-09-09T22:53:00Z,2025-09-09T18:53:00Z,VFR,27.2,14.4,150,6,0,NA,1018.7,METAR KHSV 092253Z 15006KT 10SM FEW065 27/14 A3008 RMK AO2 SLP179 T02720144 $,2025-09-09T22:58:31Z,2025-09-09T18:58:31Z
KHSV,"Huntsville Intl, AL, US",2025-09-09T23:53:00Z,2025-09-09T19:53:00Z,VFR,24.4,-1.7,140,4,0,NA,1018.7,METAR KHSV 092353Z 14004KT 10SM FEW065 24/M02 A3008 RMK AO2 SLP180 T02441017 10283 20244 55003 $,2025-09-10T00:12:43Z,2025-09-09T20:12:43Z
KHSV,"Huntsville Intl, AL, US",2025-09-10T00:53:00Z,2025-09-09T20:53:00Z,VFR,22.2,16.1,120,3,0,NA,1018.7,METAR KHSV 100053Z 12003KT 10SM FEW065 22/16 A3008 RMK AO2 SLP179 T02220161 $,2025-09-10T01:11:33Z,2025-09-09T21:11:33Z
KHTS,"Huntington/Ferguson Fld, WV, US",2025-09-09T23:51:00Z,2025-09-09T19:51:00Z,VFR,21.7,7.8,90,3,0,NA,1020.7,METAR KHTS 092351Z 09003KT 10SM CLR 22/08 A3014 RMK AO2 SLP203 T02170078 10261 20217 55003,2025-09-10T00:12:43Z,2025-09-09T20:12:43Z
KHTS,"Huntington/Ferguson Fld, WV, US",2025-09-10T00:51:00Z,2025-09-09T20:51:00Z,VFR,18.9,9.4,90,4,0,NA,1020.7,METAR KHTS 100051Z 09004KT 10SM CLR 19/09 A3014 RMK AO2 SLP202 T01890094,2025-09-10T01:11:33Z,2025-09-09T21:11:33Z
KHUF,"Terre Haute/Hulman Fld, IN, US",2025-09-09T23:53:00Z,2025-09-09T19:53:00Z,VFR,19.4,11.7,100,4,0,NA,1019.4,METAR KHUF 092353Z 10004KT 10SM CLR 19/12 A3010 RMK AO2 SLP192 T01940117 10261 20194 55004,2025-09-10T00:12:43Z,2025-09-09T20:12:43Z
KHUF,"Terre Haute/Hulman Fld, IN, US",2025-09-10T00:53:00Z,2025-09-09T20:53:00Z,VFR,13.9,12.2,0,0,0,NA,1019.4,METAR KHUF 100053Z 00000KT 10SM CLR 14/12 A3010 RMK AO2 SLP193 T01390122,2025-09-10T01:11:33Z,2025-09-09T21:11:33Z
KHUL,"Houlton Intl, ME, US",2025-09-09T23:53:00Z,2025-09-09T19:53:00Z,VFR,10,10,0,0,0,NA,1027.2,METAR KHUL 092353Z AUTO 00000KT 10SM CLR 10/10 A3033 RMK AO2 SLP276 T01000100 10200 20100 53004,2025-09-10T00:12:43Z,2025-09-09T20:12:43Z
KHUL,"Houlton Intl, ME, US",2025-09-10T00:53:00Z,2025-09-09T20:53:00Z,VFR,9.4,8.9,0,0,0,NA,1027.5,METAR KHUL 100053Z AUTO 00000KT 10SM CLR 09/09 A3034 RMK AO2 SLP277 T00940089,2025-09-10T01:11:33Z,2025-09-09T21:11:33Z
KHUT,"Hutchinson Muni, KS, US",2025-09-09T23:52:00Z,2025-09-09T19:52:00Z,VFR,26.7,18.9,160,5,0,NA,1013.6,METAR KHUT 092352Z 16005KT 10SM CLR 27/19 A2993 RMK AO2 SLP115 T02670189 10283 20244 58005,2025-09-10T00:12:43Z,2025-09-09T20:12:43Z
KHUT,"Hutchinson Muni, KS, US",2025-09-10T00:52:00Z,2025-09-09T20:52:00Z,VFR,22.8,19.4,70,4,0,NA,1013.6,METAR KHUT 100052Z 07004KT 10SM CLR 23/19 A2993 RMK AO2 SLP117 T02280194,2025-09-10T01:11:33Z,2025-09-09T21:11:33Z
KHVN,"New Haven/Tweed Arpt, CT, US",2025-09-09T23:53:00Z,2025-09-09T19:53:00Z,VFR,18.9,13.9,80,5,0,NA,1025.8,METAR KHVN 092353Z 08005KT 10SM BKN250 19/14 A3029 RMK AO2 SLP255 T01890139 10239 20189 58006,2025-09-10T00:12:43Z,2025-09-09T20:12:43Z
KHVN,"New Haven/Tweed Arpt, CT, US",2025-09-10T00:53:00Z,2025-09-09T20:53:00Z,VFR,17.8,13.9,70,3,0,NA,1026.2,METAR KHVN 100053Z 07003KT 10SM CLR 18/14 A3030 RMK AO2 SLP259 T01780139,2025-09-10T01:11:33Z,2025-09-09T21:11:33Z
KHVR,"Havre/City Arpt, MT, US",2025-09-09T23:53:00Z,2025-09-09T19:53:00Z,VFR,28.9,8.3,100,14,0,NA,1011.3,METAR KHVR 092353Z AUTO 10014KT 10SM CLR 29/08 A2986 RMK AO2 SLP100 T02890083 10306 20228 56011,2025-09-10T00:12:43Z,2025-09-09T20:12:43Z
KHVR,"Havre/City Arpt, MT, US",2025-09-10T00:53:00Z,2025-09-09T20:53:00Z,VFR,26.7,8.3,100,10,0,NA,1011.3,METAR KHVR 100053Z AUTO 10010KT 10SM CLR 27/08 A2986 RMK AO2 SLP102 T02670083,2025-09-10T01:11:33Z,2025-09-09T21:11:33Z
KHXD,"Hilton Head Arpt, SC, US",2025-09-09T23:50:00Z,2025-09-09T19:50:00Z,VFR,25,15,50,9,0,NA,1017.7,METAR KHXD 092350Z 05009KT 10SM CLR 25/15 A3005,2025-09-10T00:12:43Z,2025-09-09T20:12:43Z
KHXD,"Hilton Head Arpt, SC, US",2025-09-10T00:50:00Z,2025-09-09T20:50:00Z,VFR,24,15,40,9,0,NA,1018,METAR KHXD 100050Z 04009KT 10SM CLR 24/15 A3006,2025-09-10T01:11:33Z,2025-09-09T21:11:33Z
KHYA,"Hyannis/Barnstable Muni, MA, US",2025-09-09T23:56:00Z,2025-09-09T19:56:00Z,VFR,16.1,11.7,40,5,0,NA,1026.2,METAR KHYA 092356Z 04005KT 10SM CLR 16/12 A3030 RMK AO2 SLP261 T01610117 10211 20161 56003 $,2025-09-10T00:12:42Z,2025-09-09T20:12:42Z
KHYA,"Hyannis/Barnstable Muni, MA, US",2025-09-10T00:56:00Z,2025-09-09T20:56:00Z,VFR,15.6,11.7,50,4,0,NA,1026.5,METAR KHYA 100056Z 05004KT 10SM CLR 16/12 A3031 RMK AO2 SLP265 T01560117 $,2025-09-10T01:11:33Z,2025-09-09T21:11:33Z
KHYI,"San Marcos Muni, TX, US",2025-09-09T23:56:00Z,2025-09-09T19:56:00Z,VFR,31.1,13.9,130,7,0,NA,1015,METAR KHYI 092356Z 13007KT 10SM CLR 31/14 A2997 RMK AO2 SLP141 T03110139 10333 20306 56006,2025-09-10T00:12:42Z,2025-09-09T20:12:42Z
KHYI,"San Marcos Muni, TX, US",2025-09-10T00:56:00Z,2025-09-09T20:56:00Z,VFR,27.8,14.4,140,4,0,NA,1015,METAR KHYI 100056Z 14004KT 10SM CLR 28/14 A2997 RMK AO2 SLP144 T02780144,2025-09-10T01:11:33Z,2025-09-09T21:11:33Z
KHYR,"Hayward Muni, WI, US",2025-09-09T23:53:00Z,2025-09-09T19:53:00Z,VFR,15.6,15,0,0,0,6,1016.7,METAR KHYR 092353Z AUTO 00000KT 6SM -RA BR BKN047 OVC070 16/15 A3002 RMK AO2 SLP165 P0003 60022 T01560150 10183 20156 50009,2025-09-10T00:12:43Z,2025-09-09T20:12:43Z
KHYR,"Hayward Muni, WI, US",2025-09-10T00:53:00Z,2025-09-09T20:53:00Z,VFR,15,15,0,0,0,6,1016.3,METAR KHYR 100053Z AUTO 00000KT 6SM BR FEW038 SCT047 OVC060 15/15 A3001 RMK AO2 RAE51 SLP163 P0001 T01500150,2025-09-10T01:11:33Z,2025-09-09T21:11:33Z
KHYS,"Hays Rgnl, KS, US",2025-09-09T23:56:00Z,2025-09-09T19:56:00Z,VFR,27.2,18.3,130,8,0,NA,1014,METAR KHYS 092356Z AUTO 13008KT 10SM CLR 27/18 A2994 RMK AO2 SLP127 T02720183 10300 20261 55000 $,2025-09-10T00:12:42Z,2025-09-09T20:12:42Z
KHYS,"Hays Rgnl, KS, US",2025-09-10T00:56:00Z,2025-09-09T20:56:00Z,VFR,23.9,18.3,110,7,0,NA,1014,METAR KHYS 100056Z AUTO 11007KT 10SM CLR 24/18 A2994 RMK AO2 SLP127 T02390183 $,2025-09-10T01:11:33Z,2025-09-09T21:11:33Z
KHZY,"Ashtabula/NE Ohio Rgnl, OH, US",2025-09-09T23:53:00Z,2025-09-09T19:53:00Z,VFR,16.7,10.6,50,3,0,NA,1022.4,METAR KHZY 092353Z AUTO 05003KT 10SM CLR 17/11 A3019 RMK AO2 SLP226 T01670106 10233 20156 55003 $,2025-09-10T00:12:43Z,2025-09-09T20:12:43Z
KHZY,"Ashtabula/NE Ohio Rgnl, OH, US",2025-09-10T00:53:00Z,2025-09-09T20:53:00Z,VFR,13.9,10,80,4,0,NA,1022.4,METAR KHZY 100053Z AUTO 08004KT 10SM CLR 14/10 A3019 RMK AO2 SLP222 T01390100 $,2025-09-10T01:11:33Z,2025-09-09T21:11:33Z
KIAB,"McConnell AFB, KS, US",2025-09-09T23:55:00Z,2025-09-09T19:55:00Z,VFR,28.7,19,150,6,0,NA,1013.3,METAR KIAB 092355Z AUTO 15006KT 10SM CLR 29/19 A2992 RMK AO2 SLP123 T02870190 10292 20257 55004,2025-09-10T00:12:42Z,2025-09-09T20:12:42Z
KIAB,"McConnell AFB, KS, US",2025-09-10T00:55:00Z,2025-09-09T20:55:00Z,VFR,26.3,19.4,140,7,0,NA,1013.3,METAR KIAB 100055Z AUTO 14007KT 10SM CLR 26/19 A2992 RMK AO2 SLP124 T02630194,2025-09-10T01:11:35Z,2025-09-09T21:11:35Z
KIAD,"Washington/Dulles Intl, VA, US",2025-09-09T14:52:00Z,2025-09-09T10:52:00Z,VFR,21.7,10.6,10,7,0,NA,1026.2,METAR KIAD 091452Z 01007KT 10SM FEW200 22/11 A3030 RMK AO2 SLP257 T02170106 58001,2025-09-09T15:51:27Z,2025-09-09T11:51:27Z
KIAD,"Washington/Dulles Intl, VA, US",2025-09-09T15:52:00Z,2025-09-09T11:52:00Z,VFR,22.8,10,110,8,0,NA,1025.8,METAR KIAD 091552Z 11008KT 10SM FEW035 SCT250 23/10 A3029 RMK AO2 SLP255 T02280100,2025-09-09T16:06:00Z,2025-09-09T12:06:00Z
KIAD,"Washington/Dulles Intl, VA, US",2025-09-09T16:52:00Z,2025-09-09T12:52:00Z,VFR,23.3,8.3,60,7,0,NA,1025.1,METAR KIAD 091652Z 06007KT 10SM FEW045 SCT250 23/08 A3027 RMK AO2 SLP250 T02330083,2025-09-09T17:12:49Z,2025-09-09T13:12:49Z
KIAD,"Washington/Dulles Intl, VA, US",2025-09-09T17:52:00Z,2025-09-09T13:52:00Z,VFR,23.9,8.3,100,7,19,NA,1024.5,METAR KIAD 091752Z 10007G19KT 10SM FEW045 FEW250 24/08 A3025 RMK AO2 SLP243 T02390083 10244 20128 58014,2025-09-09T18:09:19Z,2025-09-09T14:09:19Z
KIAD,"Washington/Dulles Intl, VA, US",2025-09-09T18:52:00Z,2025-09-09T14:52:00Z,VFR,25,7.8,100,8,17,NA,1023.8,METAR KIAD 091852Z COR 10008G17KT 10SM FEW055 FEW250 25/08 A3023 RMK AO2 SLP235 T02500078,2025-09-09T19:00:54Z,2025-09-09T15:00:54Z
KIAD,"Washington/Dulles Intl, VA, US",2025-09-09T19:14:00Z,2025-09-09T15:14:00Z,VFR,24.4,7.2,VAR,6,0,NA,1023.8,SPECI KIAD 091914Z VRB06KT 10SM FEW055 FEW250 24/07 A3023 RMK AO2 T02440072,2025-09-09T19:30:37Z,2025-09-09T15:30:37Z
KIAD,"Washington/Dulles Intl, VA, US",2025-09-09T19:52:00Z,2025-09-09T15:52:00Z,VFR,24.4,7.2,90,10,14,NA,1023.5,METAR KIAD 091952Z 09010G14KT 10SM FEW055 FEW250 24/07 A3022 RMK AO2 SLP231 T02440072,2025-09-09T20:10:13Z,2025-09-09T16:10:13Z
KIAD,"Washington/Dulles Intl, VA, US",2025-09-09T20:52:00Z,2025-09-09T16:52:00Z,VFR,24.4,8.3,70,9,17,NA,1023.1,METAR KIAD 092052Z 07009G17KT 10SM FEW060 FEW250 24/08 A3021 RMK AO2 SLP228 T02440083 56016,2025-09-09T21:12:40Z,2025-09-09T17:12:40Z
KIAD,"Washington/Dulles Intl, VA, US",2025-09-09T21:52:00Z,2025-09-09T17:52:00Z,VFR,23.3,9.4,50,6,0,NA,1022.8,METAR KIAD 092152Z 05006KT 10SM FEW060 FEW250 23/09 A3020 RMK AO2 SLP226 T02330094,2025-09-09T22:00:06Z,2025-09-09T18:00:06Z
KIAD,"Washington/Dulles Intl, VA, US",2025-09-09T22:52:00Z,2025-09-09T18:52:00Z,VFR,22.2,10,80,6,0,NA,1022.8,METAR KIAD 092252Z 08006KT 10SM FEW050 22/10 A3020 RMK AO2 SLP225 T02220100,2025-09-09T22:58:29Z,2025-09-09T18:58:29Z
KIAD,"Washington/Dulles Intl, VA, US",2025-09-09T23:52:00Z,2025-09-09T19:52:00Z,VFR,20.6,10.6,80,7,0,NA,1022.8,METAR KIAD 092352Z 08007KT 10SM SCT050 SCT100 21/11 A3020 RMK AO2 SLP227 T02060106 10256 20206 55001,2025-09-10T00:12:43Z,2025-09-09T20:12:43Z
KIAD,"Washington/Dulles Intl, VA, US",2025-09-10T00:52:00Z,2025-09-09T20:52:00Z,VFR,19.4,11.1,90,5,0,NA,1023.1,METAR KIAD 100052Z 09005KT 10SM FEW055 19/11 A3021 RMK AO2 SLP230 T01940111,2025-09-10T01:11:35Z,2025-09-09T21:11:35Z
KIAG,"Niagara Falls Intl, NY, US",2025-09-09T23:53:00Z,2025-09-09T19:53:00Z,VFR,16.7,10,60,7,0,NA,1023.1,METAR KIAG 092353Z 06007KT 10SM CLR 17/10 A3021 RMK AO2 SLP232 T01670100 10233 20167 57004,2025-09-10T00:12:43Z,2025-09-09T20:12:43Z
KIAG,"Niagara Falls Intl, NY, US",2025-09-10T00:53:00Z,2025-09-09T20:53:00Z,VFR,15.6,9.4,70,6,0,NA,1023.1,METAR KIAG 100053Z 07006KT 10SM CLR 16/09 A3021 RMK AO2 SLP232 T01560094,2025-09-10T01:11:35Z,2025-09-09T21:11:35Z
KIAH,"Houston/Bush Intl, TX, US",2025-09-09T14:53:00Z,2025-09-09T10:53:00Z,VFR,24.4,14.4,70,6,0,NA,1017.4,METAR KIAH 091453Z 07006KT 10SM CLR 24/14 A3004 RMK AO2 SLP172 T02440144 51008,2025-09-09T15:51:30Z,2025-09-09T11:51:30Z
KIAH,"Houston/Bush Intl, TX, US",2025-09-09T15:53:00Z,2025-09-09T11:53:00Z,VFR,26.7,13.3,60,5,0,NA,1017.4,METAR KIAH 091553Z 06005KT 10SM CLR 27/13 A3004 RMK AO2 SLP173 T02670133,2025-09-09T16:06:03Z,2025-09-09T12:06:03Z
KIAH,"Houston/Bush Intl, TX, US",2025-09-09T16:53:00Z,2025-09-09T12:53:00Z,VFR,27.8,13.3,30,7,0,NA,1017.7,METAR KIAH 091653Z 03007KT 10SM CLR 28/13 A3005 RMK AO2 SLP174 T02780133,2025-09-09T17:12:54Z,2025-09-09T13:12:54Z
KIAH,"Houston/Bush Intl, TX, US",2025-09-09T17:53:00Z,2025-09-09T13:53:00Z,VFR,30,12.8,360,6,0,NA,1017,METAR KIAH 091753Z 36006KT 10SM CLR 30/13 A3003 RMK AO2 SLP167 T03000128 10300 20178 58005,2025-09-09T18:09:22Z,2025-09-09T14:09:22Z
KIAH,"Houston/Bush Intl, TX, US",2025-09-09T18:53:00Z,2025-09-09T14:53:00Z,VFR,30.6,13.9,30,7,0,NA,1016,METAR KIAH 091853Z 03007KT 10SM CLR 31/14 A3000 RMK AO2 SLP159 T03060139,2025-09-09T19:00:57Z,2025-09-09T15:00:57Z
KIAH,"Houston/Bush Intl, TX, US",2025-09-09T19:53:00Z,2025-09-09T15:53:00Z,VFR,31.1,13.3,40,6,0,NA,1015.3,METAR KIAH 091953Z 04006KT 10SM CLR 31/13 A2998 RMK AO2 SLP152 T03110133,2025-09-09T20:10:18Z,2025-09-09T16:10:18Z
KIAH,"Houston/Bush Intl, TX, US",2025-09-09T20:53:00Z,2025-09-09T16:53:00Z,VFR,31.1,11.7,50,4,0,NA,1015,METAR KIAH 092053Z 05004KT 10SM CLR 31/12 A2997 RMK AO2 SLP147 T03110117 56020,2025-09-09T21:12:45Z,2025-09-09T17:12:45Z
KIAH,"Houston/Bush Intl, TX, US",2025-09-09T21:53:00Z,2025-09-09T17:53:00Z,VFR,31.1,12.8,30,5,0,NA,1014.6,METAR KIAH 092153Z 03005KT 10SM CLR 31/13 A2996 RMK AO2 SLP145 T03110128,2025-09-09T22:00:10Z,2025-09-09T18:00:10Z
KIAH,"Houston/Bush Intl, TX, US",2025-09-09T22:53:00Z,2025-09-09T18:53:00Z,VFR,30.6,11.7,80,9,0,NA,1014.6,METAR KIAH 092253Z 08009KT 10SM CLR 31/12 A2996 RMK AO2 SLP145 T03060117,2025-09-09T22:58:33Z,2025-09-09T18:58:33Z
KIAH,"Houston/Bush Intl, TX, US",2025-09-09T23:53:00Z,2025-09-09T19:53:00Z,VFR,28.9,12.8,100,8,0,NA,1014.6,METAR KIAH 092353Z 10008KT 10SM CLR 29/13 A2996 RMK AO2 SLP146 T02890128 10317 20289 55001,2025-09-10T00:12:43Z,2025-09-09T20:12:43Z
KIAH,"Houston/Bush Intl, TX, US",2025-09-10T00:53:00Z,2025-09-09T20:53:00Z,VFR,24.4,13.9,120,5,0,NA,1015,METAR KIAH 100053Z 12005KT 10SM CLR 24/14 A2997 RMK AO2 SLP150 T02440139,2025-09-10T01:11:35Z,2025-09-09T21:11:35Z
KICT,"Wichita/Eisenhower Arpt, KS, US",2025-09-09T14:53:00Z,2025-09-09T10:53:00Z,VFR,20.6,12.8,200,16,23,NA,1016,METAR KICT 091453Z 20016G23KT 10SM SCT190 SCT250 21/13 A3000 RMK AO2 SLP149 T02060128 55007 $,2025-09-09T15:51:30Z,2025-09-09T11:51:30Z
KICT,"Wichita/Eisenhower Arpt, KS, US",2025-09-09T15:53:00Z,2025-09-09T11:53:00Z,VFR,22.2,13.9,200,19,24,NA,1016,METAR KICT 091553Z 20019G24KT 10SM SCT120 SCT150 BKN190 BKN250 22/14 A3000 RMK AO2 SLP148 ACC NW-NE T02220139 $,2025-09-09T16:06:03Z,2025-09-09T12:06:03Z
KICT,"Wichita/Eisenhower Arpt, KS, US",2025-09-09T16:53:00Z,2025-09-09T12:53:00Z,VFR,23.3,15,190,11,16,NA,1016.3,METAR KICT 091653Z 19011G16KT 10SM SCT120 SCT150 BKN190 BKN250 23/15 A3001 RMK AO2 SLP153 ACC OHD T02330150 $,2025-09-09T17:12:54Z,2025-09-09T13:12:54Z
KICT,"Wichita/Eisenhower Arpt, KS, US",2025-09-09T17:53:00Z,2025-09-09T13:53:00Z,VFR,25.6,15.6,160,11,0,NA,1016,METAR KICT 091753Z 16011KT 10SM FEW190 SCT250 26/16 A3000 RMK AO2 SLP148 T02560156 10256 20150 50001 $,2025-09-09T18:09:22Z,2025-09-09T14:09:22Z
KICT,"Wichita/Eisenhower Arpt, KS, US",2025-09-09T18:53:00Z,2025-09-09T14:53:00Z,VFR,26.7,16.7,170,11,0,NA,1015,METAR KICT 091853Z 17011KT 10SM FEW190 FEW250 27/17 A2997 RMK AO2 SLP138 T02670167 $,2025-09-09T19:00:57Z,2025-09-09T15:00:57Z
KICT,"Wichita/Eisenhower Arpt, KS, US",2025-09-09T19:53:00Z,2025-09-09T15:53:00Z,VFR,27.8,17.2,180,16,20,NA,1014,METAR KICT 091953Z 18016G20KT 10SM FEW190 FEW250 28/17 A2994 RMK AO2 SLP127 T02780172 $,2025-09-09T20:10:18Z,2025-09-09T16:10:18Z
KICT,"Wichita/Eisenhower Arpt, KS, US",2025-09-09T20:53:00Z,2025-09-09T16:53:00Z,VFR,28.3,17.8,200,10,17,NA,1014,METAR KICT 092053Z 20010G17KT 10SM FEW190 FEW250 28/18 A2994 RMK AO2 SLP127 T02830178 55020,2025-09-09T21:12:45Z,2025-09-09T17:12:45Z
KICT,"Wichita/Eisenhower Arpt, KS, US",2025-09-09T21:53:00Z,2025-09-09T17:53:00Z,VFR,28.3,18.3,200,11,0,NA,1013.6,METAR KICT 092153Z 20011KT 10SM FEW190 FEW250 28/18 A2993 RMK AO2 SLP123 T02830183,2025-09-09T22:00:10Z,2025-09-09T18:00:10Z
KICT,"Wichita/Eisenhower Arpt, KS, US",2025-09-09T22:53:00Z,2025-09-09T18:53:00Z,VFR,28.9,18.9,200,6,0,NA,1013.6,METAR KICT 092253Z 20006KT 10SM FEW190 FEW250 29/19 A2993 RMK AO2 SLP123 T02890189,2025-09-09T22:58:33Z,2025-09-09T18:58:33Z
KICT,"Wichita/Eisenhower Arpt, KS, US",2025-09-09T23:53:00Z,2025-09-09T19:53:00Z,VFR,27.8,19.4,160,6,0,NA,1013.3,METAR KICT 092353Z 16006KT 10SM FEW200 28/19 A2992 RMK AO2 SLP121 T02780194 10289 20250 56005,2025-09-10T00:12:43Z,2025-09-09T20:12:43Z
KICT,"Wichita/Eisenhower Arpt, KS, US",2025-09-10T00:53:00Z,2025-09-09T20:53:00Z,VFR,25.6,19.4,140,7,0,NA,1013.3,METAR KICT 100053Z 14007KT 10SM FEW200 FEW250 26/19 A2992 RMK AO2 SLP123 T02560194,2025-09-10T01:11:35Z,2025-09-09T21:11:35Z
KIDA,"Idaho Falls Rgnl, ID, US",2025-09-09T14:53:00Z,2025-09-09T10:53:00Z,VFR,15,7.2,40,6,0,NA,1016.7,METAR KIDA 091453Z 04006KT 10SM CLR 15/07 A3002 RMK AO2 SLP138 T01500072 50002,2025-09-09T15:51:30Z,2025-09-09T11:51:30Z
KIDA,"Idaho Falls Rgnl, ID, US",2025-09-09T15:53:00Z,2025-09-09T11:53:00Z,VFR,17.2,8.3,350,6,0,NA,1016.7,METAR KIDA 091553Z 35006KT 10SM CLR 17/08 A3002 RMK AO2 SLP133 T01720083,2025-09-09T16:06:03Z,2025-09-09T12:06:03Z
KIDA,"Idaho Falls Rgnl, ID, US",2025-09-09T16:53:00Z,2025-09-09T12:53:00Z,VFR,22.2,6.7,190,3,0,NA,1016.7,METAR KIDA 091653Z 19003KT 10SM CLR 22/07 A3002 RMK AO2 SLP130 T02220067,2025-09-09T17:12:54Z,2025-09-09T13:12:54Z
KIDA,"Idaho Falls Rgnl, ID, US",2025-09-09T17:53:00Z,2025-09-09T13:53:00Z,VFR,23.3,7.8,290,4,0,NA,1016.3,METAR KIDA 091753Z 29004KT 10SM CLR 23/08 A3001 RMK AO2 SLP129 T02330078 10233 20089 58004,2025-09-09T18:09:21Z,2025-09-09T14:09:21Z
KIDA,"Idaho Falls Rgnl, ID, US",2025-09-09T18:53:00Z,2025-09-09T14:53:00Z,VFR,23.3,7.2,290,3,0,NA,1016,METAR KIDA 091853Z 29003KT 10SM FEW120 23/07 A3000 RMK AO2 SLP125 T02330072,2025-09-09T19:00:57Z,2025-09-09T15:00:57Z
KIDA,"Idaho Falls Rgnl, ID, US",2025-09-09T19:53:00Z,2025-09-09T15:53:00Z,VFR,21.7,9.4,300,3,0,NA,1016,METAR KIDA 091953Z 30003KT 10SM OVC110 22/09 A3000 RMK AO2 SLP126 T02170094,2025-09-09T20:10:18Z,2025-09-09T16:10:18Z
KIDA,"Idaho Falls Rgnl, ID, US",2025-09-09T20:53:00Z,2025-09-09T16:53:00Z,VFR,24.4,6.7,320,3,0,NA,1014.6,METAR KIDA 092053Z 32003KT 10SM FEW041 24/07 A2996 RMK AO2 LTG DSNT E RAB31E45 SLP109 P0000 60000 T02440067 58016,2025-09-09T21:12:45Z,2025-09-09T17:12:45Z
KIDA,"Idaho Falls Rgnl, ID, US",2025-09-09T21:53:00Z,2025-09-09T17:53:00Z,VFR,24.4,6.7,90,5,0,NA,1014.3,METAR KIDA 092153Z 09005KT 10SM CLR 24/07 A2995 RMK AO2 SLP105 T02440067,2025-09-09T22:00:10Z,2025-09-09T18:00:10Z
KIDA,"Idaho Falls Rgnl, ID, US",2025-09-09T22:53:00Z,2025-09-09T18:53:00Z,VFR,24.4,7.2,70,9,0,NA,1013.6,METAR KIDA 092253Z 07009KT 10SM CLR 24/07 A2993 RMK AO2 SLP097 T02440072,2025-09-09T22:58:33Z,2025-09-09T18:58:33Z
KIDA,"Idaho Falls Rgnl, ID, US",2025-09-09T23:53:00Z,2025-09-09T19:53:00Z,VFR,24.4,6.1,60,8,0,NA,1013.3,METAR KIDA 092353Z 06008KT 10SM CLR 24/06 A2992 RMK AO2 SLP095 60000 T02440061 10250 20200 58010,2025-09-10T00:12:43Z,2025-09-09T20:12:43Z
KIDA,"Idaho Falls Rgnl, ID, US",2025-09-10T00:53:00Z,2025-09-09T20:53:00Z,VFR,24.4,6.7,110,10,0,NA,1013,METAR KIDA 100053Z 11010KT 10SM CLR 24/07 A2991 RMK AO2 SLP095 T02440067,2025-09-10T01:11:35Z,2025-09-09T21:11:35Z
KIFP,"Bullhead City Intl, AZ, US",2025-09-09T23:49:00Z,2025-09-09T19:49:00Z,VFR,39,-5,180,16,0,20,1003.5,METAR KIFP 092349Z 18016KT 20SM CLR 39/M05 A2963,2025-09-10T00:12:43Z,2025-09-09T20:12:43Z
KIFP,"Bullhead City Intl, AZ, US",2025-09-10T00:47:00Z,2025-09-09T20:47:00Z,VFR,39,-11,200,14,0,20,1003.5,METAR KIFP 100047Z 20014KT 20SM CLR 39/M11 A2963,2025-09-10T01:11:35Z,2025-09-09T21:11:35Z
KIGM,"Kingman Arpt, AZ, US",2025-09-09T23:51:00Z,2025-09-09T19:51:00Z,VFR,31.7,6.1,210,19,30,NA,1011.9,METAR KIGM 092351Z AUTO 21019G30KT 10SM CLR 32/06 A2988 RMK AO2 PK WND 22032/2322 SLP044 T03170061 10328 20300 56016,2025-09-10T00:12:43Z,2025-09-09T20:12:43Z
KIGM,"Kingman Arpt, AZ, US",2025-09-10T00:51:00Z,2025-09-09T20:51:00Z,VFR,31.1,6.7,220,15,0,NA,1011.6,METAR KIGM 100051Z AUTO 22015KT 10SM CLR 31/07 A2987 RMK AO2 PK WND 23033/0019 SLP039 T03110067,2025-09-10T01:11:35Z,2025-09-09T21:11:35Z
KIKK,"Kankakee Arpt, IL, US",2025-09-09T23:55:00Z,2025-09-09T19:55:00Z,VFR,20,11,130,3,0,NA,1019.7,METAR KIKK 092355Z AUTO 13003KT 10SM CLR 20/11 A3011 RMK AO2,2025-09-10T00:12:42Z,2025-09-09T20:12:42Z
KIKK,"Kankakee Arpt, IL, US",2025-09-10T00:18:00Z,2025-09-09T20:18:00Z,VFR,19,11,0,0,0,NA,1019.4,METAR KIKK 100018Z AUTO 00000KT 10SM CLR 19/11 A3010 RMK AO2,2025-09-10T00:33:24Z,2025-09-09T20:33:24Z
KIKK,"Kankakee Arpt, IL, US",2025-09-10T00:58:00Z,2025-09-09T20:58:00Z,VFR,18,12,110,4,0,NA,1019.7,METAR KIKK 100058Z AUTO 11004KT 10SM CLR 18/12 A3011 RMK AO2,2025-09-10T01:11:35Z,2025-09-09T21:11:35Z
KILG,"Wilmington/New Castle Arpt, DE, US",2025-09-09T23:51:00Z,2025-09-09T19:51:00Z,VFR,20.6,12.8,70,11,0,NA,1024.1,METAR KILG 092351Z AUTO 07011KT 10SM OVC050 21/13 A3024 RMK AO2 SLP240 T02060128 10250 20206 53000,2025-09-10T00:12:43Z,2025-09-09T20:12:43Z
KILG,"Wilmington/New Castle Arpt, DE, US",2025-09-10T00:51:00Z,2025-09-09T20:51:00Z,VFR,20,12.2,70,8,0,NA,1024.5,METAR KILG 100051Z AUTO 07008KT 10SM OVC055 20/12 A3025 RMK AO2 SLP241 T02000122,2025-09-10T01:11:35Z,2025-09-09T21:11:35Z
KILM,"Wilmington Intl, NC, US",2025-09-09T23:53:00Z,2025-09-09T19:53:00Z,MVFR,22.2,18.3,10,9,0,NA,1017.4,METAR KILM 092353Z 01009KT 10SM OVC024 22/18 A3004 RMK AO2 SLP171 T02220183 10250 20222 58001,2025-09-10T00:12:43Z,2025-09-09T20:12:43Z
KILM,"Wilmington Intl, NC, US",2025-09-10T00:26:00Z,2025-09-09T20:26:00Z,MVFR,21.7,18.3,360,9,0,NA,1017.7,SPECI KILM 100026Z 36009KT 10SM SCT023 OVC030 22/18 A3005 RMK AO2 T02170183,2025-09-10T00:33:24Z,2025-09-09T20:33:24Z
KILM,"Wilmington Intl, NC, US",2025-09-10T01:00:00Z,2025-09-09T21:00:00Z,VFR,21.7,18.3,10,10,0,NA,1017.7,SPECI KILM 100100Z 01010KT 10SM SCT022 OVC034 22/18 A3005 RMK AO2 T02170183,2025-09-10T01:11:35Z,2025-09-09T21:11:35Z
KILN,"Wilmington Arpt, OH, US",2025-09-09T23:54:00Z,2025-09-09T19:54:00Z,VFR,20,8.9,100,3,0,NA,1020.7,METAR KILN 092354Z AUTO 10003KT 10SM CLR 20/09 A3014 RMK AO2 SLP207 T02000089 10244 20194 58004,2025-09-10T00:12:42Z,2025-09-09T20:12:42Z
KILN,"Wilmington Arpt, OH, US",2025-09-10T00:54:00Z,2025-09-09T20:54:00Z,VFR,17.8,8.3,100,3,0,NA,1020.7,METAR KILN 100054Z AUTO 10003KT 10SM CLR 18/08 A3014 RMK AO2 SLP208 T01780083,2025-09-10T01:11:35Z,2025-09-09T21:11:35Z
KIMT,"Iron Mountain/Ford Aprt, MI, US",2025-09-10T00:05:00Z,2025-09-09T20:05:00Z,IFR,14.4,14.4,10,5,0,2,1018,SPECI KIMT 100005Z AUTO 01005KT 2SM +RA BR FEW038 OVC060 14/14 A3006 RMK AO2 P0015 T01440144,2025-09-10T00:12:42Z,2025-09-09T20:12:42Z
KIMT,"Iron Mountain/Ford Aprt, MI, US",2025-09-10T00:13:00Z,2025-09-09T20:13:00Z,MVFR,15,15,VAR,3,0,4,1018,SPECI KIMT 100013Z AUTO VRB03KT 4SM VCTS -RA BR OVC055 15/15 A3006 RMK AO2 LTG DSNT NW P0017 T01500150,2025-09-10T00:33:24Z,2025-09-09T20:33:24Z
KIMT,"Iron Mountain/Ford Aprt, MI, US",2025-09-10T00:54:00Z,2025-09-09T20:54:00Z,VFR,15,15,10,4,0,NA,1018,METAR KIMT 100054Z AUTO 01004KT 10SM OVC060 15/15 A3006 RMK AO2 RAE39 SLP181 P0017 T01500150,2025-09-10T01:11:35Z,2025-09-09T21:11:35Z
KIND,"Indianapolis Intl, IN, US",2025-09-09T14:54:00Z,2025-09-09T10:54:00Z,VFR,20,8.9,170,5,0,NA,1023.1,METAR KIND 091454Z 17005KT 10SM BKN250 20/09 A3021 RMK AO2 SLP228 T02000089 53001,2025-09-09T15:51:29Z,2025-09-09T11:51:29Z
KIND,"Indianapolis Intl, IN, US",2025-09-09T15:54:00Z,2025-09-09T11:54:00Z,VFR,22.2,7.8,170,7,0,NA,1023.1,METAR KIND 091554Z 17007KT 10SM BKN250 22/08 A3021 RMK AO2 SLP226 T02220078,2025-09-09T16:06:01Z,2025-09-09T12:06:01Z
KIND,"Indianapolis Intl, IN, US",2025-09-09T16:54:00Z,2025-09-09T12:54:00Z,VFR,22.8,7.2,190,8,0,NA,1022.8,METAR KIND 091654Z 19008KT 10SM BKN250 23/07 A3020 RMK AO2 SLP222 T02280072,2025-09-09T17:12:51Z,2025-09-09T13:12:51Z
KIND,"Indianapolis Intl, IN, US",2025-09-09T17:54:00Z,2025-09-09T13:54:00Z,VFR,24.4,7.2,140,8,0,NA,1022.1,METAR KIND 091754Z 14008KT 10SM BKN250 24/07 A3018 RMK AO2 SLP216 T02440072 10244 20117 58011,2025-09-09T18:09:20Z,2025-09-09T14:09:20Z
KIND,"Indianapolis Intl, IN, US",2025-09-09T18:54:00Z,2025-09-09T14:54:00Z,VFR,24.4,6.7,150,9,0,NA,1021.1,METAR KIND 091854Z 15009KT 10SM BKN250 24/07 A3015 RMK AO2 SLP208 T02440067,2025-09-09T19:00:56Z,2025-09-09T15:00:56Z
KIND,"Indianapolis Intl, IN, US",2025-09-09T19:54:00Z,2025-09-09T15:54:00Z,VFR,24.4,7.2,120,8,15,NA,1020.4,METAR KIND 091954Z 12008G15KT 100V160 10SM BKN250 24/07 A3013 RMK AO2 SLP201 T02440072,2025-09-09T20:10:15Z,2025-09-09T16:10:15Z
KIND,"Indianapolis Intl, IN, US",2025-09-09T20:54:00Z,2025-09-09T16:54:00Z,VFR,24.4,7.2,120,9,0,NA,1020.1,METAR KIND 092054Z 12009KT 10SM FEW200 BKN250 24/07 A3012 RMK AO2 SLP197 T02440072 56019,2025-09-09T21:12:42Z,2025-09-09T17:12:42Z
KIND,"Indianapolis Intl, IN, US",2025-09-09T21:54:00Z,2025-09-09T17:54:00Z,VFR,23.3,7.2,180,4,0,NA,1020.1,METAR KIND 092154Z 18004KT 10SM SCT200 BKN240 23/07 A3012 RMK AO2 SLP196 T02330072,2025-09-09T22:00:08Z,2025-09-09T18:00:08Z
KIND,"Indianapolis Intl, IN, US",2025-09-09T22:54:00Z,2025-09-09T18:54:00Z,VFR,24.4,8.3,170,8,0,NA,1019.7,METAR KIND 092254Z 17008KT 10SM SCT200 BKN240 24/08 A3011 RMK AO2 SLP192 T02440083,2025-09-09T22:58:31Z,2025-09-09T18:58:31Z
KIND,"Indianapolis Intl, IN, US",2025-09-09T23:54:00Z,2025-09-09T19:54:00Z,VFR,21.1,7.2,160,6,0,NA,1019.7,METAR KIND 092354Z 16006KT 10SM FEW200 BKN250 21/07 A3011 RMK AO2 SLP193 T02110072 10256 20211 56005,2025-09-10T00:12:42Z,2025-09-09T20:12:42Z
KIND,"Indianapolis Intl, IN, US",2025-09-10T00:54:00Z,2025-09-09T20:54:00Z,VFR,21.1,8.3,140,3,0,NA,1019.7,METAR KIND 100054Z 14003KT 10SM FEW200 BKN250 21/08 A3011 RMK AO2 SLP193 T02110083,2025-09-10T01:11:35Z,2025-09-09T21:11:35Z
KINL,"International Falls/Einarson Fld, MN, US",2025-09-09T23:54:00Z,2025-09-09T19:54:00Z,VFR,20,13.3,0,0,0,NA,1015.7,METAR KINL 092354Z AUTO 00000KT 10SM CLR 20/13 A2999 RMK AO2 SLP156 T02000133 10233 20200 53003,2025-09-10T00:12:42Z,2025-09-09T20:12:42Z
KINL,"International Falls/Einarson Fld, MN, US",2025-09-10T00:54:00Z,2025-09-09T20:54:00Z,VFR,13.9,12.2,0,0,0,NA,1016,METAR KINL 100054Z AUTO 00000KT 10SM CLR 14/12 A3000 RMK AO2 SLP165 T01390122,2025-09-10T01:11:35Z,2025-09-09T21:11:35Z
KINT,"Winston-Salem/Reynolds Arpt, NC, US",2025-09-10T00:54:00Z,2025-09-09T20:54:00Z,VFR,17.2,10.6,30,3,0,NA,1022.1,METAR KINT 100054Z 03003KT 10SM CLR 17/11 A3018 RMK AO2 SLP214 T01720106 $,2025-09-10T01:11:35Z,2025-09-09T21:11:35Z
KINW,"Winslow/Lindberg Rgnl, AZ, US",2025-09-09T23:56:00Z,2025-09-09T19:56:00Z,VFR,31.7,5.6,220,15,0,NA,1015.7,METAR KINW 092356Z AUTO 22015KT 10SM FEW100 32/06 A2999 RMK AO2 PK WND 23028/2312 SLP078 T03170056 10328 20294 56010,2025-09-10T00:12:42Z,2025-09-09T20:12:42Z
KINW,"Winslow/Lindberg Rgnl, AZ, US",2025-09-10T00:56:00Z,2025-09-09T20:56:00Z,VFR,30,6.1,210,15,0,NA,1015.7,METAR KINW 100056Z AUTO 21015KT 10SM FEW100 30/06 A2999 RMK AO2 SLP082 T03000061,2025-09-10T01:11:35Z,2025-09-09T21:11:35Z
KIPT,"Williamsport Rgnl, PA, US",2025-09-09T23:54:00Z,2025-09-09T19:54:00Z,VFR,17.8,12.2,0,0,0,NA,1023.5,METAR KIPT 092354Z 00000KT 10SM CLR 18/12 A3022 RMK AO2 SLP232 T01780122 10244 20172 55002 $,2025-09-10T00:12:42Z,2025-09-09T20:12:42Z
KIPT,"Williamsport Rgnl, PA, US",2025-09-10T00:54:00Z,2025-09-09T20:54:00Z,VFR,15,9.4,VAR,3,0,NA,1023.8,METAR KIPT 100054Z VRB03KT 10SM CLR 15/09 A3023 RMK AO2 SLP238 T01500094 $,2025-09-10T01:11:35Z,2025-09-09T21:11:35Z
KIRK,"Kirksville Rgnl, MO, US",2025-09-09T23:55:00Z,2025-09-09T19:55:00Z,VFR,21.1,12.8,160,4,0,NA,1017.4,METAR KIRK 092355Z AUTO 16004KT 10SM SCT120 21/13 A3004 RMK AO2 SLP174 T02110128 10267 20211 56001 $,2025-09-10T00:12:42Z,2025-09-09T20:12:42Z
KIRK,"Kirksville Rgnl, MO, US",2025-09-10T00:55:00Z,2025-09-09T20:55:00Z,VFR,17.8,11.1,150,3,0,NA,1017.4,METAR KIRK 100055Z AUTO 15003KT 10SM CLR 18/11 A3004 RMK AO2 SLP173 T01780111 $,2025-09-10T01:11:35Z,2025-09-09T21:11:35Z
KISM,"Kissimmee Muni, FL, US",2025-09-09T23:56:00Z,2025-09-09T19:56:00Z,MVFR,23.9,22.8,90,3,0,4,1014.6,METAR KISM 092356Z 09003KT 4SM RA BR OVC065 24/23 A2996 RMK AO2 SLP145 P0006 60022 T02390228 10306 20239 50013 $,2025-09-10T00:12:42Z,2025-09-09T20:12:42Z
KISM,"Kissimmee Muni, FL, US",2025-09-10T00:56:00Z,2025-09-09T20:56:00Z,VFR,23.9,22.2,20,3,0,NA,1015.3,METAR KISM 100056Z 02003KT 10SM -RA FEW045 BKN070 OVC090 24/22 A2998 RMK AO2 SLP150 P0008 T02390222 $,2025-09-10T01:11:35Z,2025-09-09T21:11:35Z
KISO,"Kinston Rgnl, NC, US",2025-09-09T23:56:00Z,2025-09-09T19:56:00Z,MVFR,21,18,20,9,14,NA,1019,METAR KISO 092356Z 02009G14KT 10SM OVC022 21/18 A3009,2025-09-10T00:12:42Z,2025-09-09T20:12:42Z
KISO,"Kinston Rgnl, NC, US",2025-09-10T00:56:00Z,2025-09-09T20:56:00Z,MVFR,21,18,10,8,0,NA,1019,METAR KISO 100056Z 01008KT 10SM OVC018 21/18 A3009,2025-09-10T01:11:35Z,2025-09-09T21:11:35Z
KISP,"Islip/Macarthur Arpt, NY, US",2025-09-09T23:56:00Z,2025-09-09T19:56:00Z,VFR,18.9,11.1,80,5,0,NA,1025.1,METAR KISP 092356Z 08005KT 10SM FEW040 BKN060 BKN250 19/11 A3027 RMK SLP249 T01890111 10233 20189 56005,2025-09-10T00:12:42Z,2025-09-09T20:12:42Z
KISP,"Islip/Macarthur Arpt, NY, US",2025-09-10T00:56:00Z,2025-09-09T20:56:00Z,VFR,18.3,11.7,60,7,0,NA,1025.1,METAR KISP 100056Z 06007KT 10SM FEW040 SCT055 BKN250 18/12 A3027 RMK SLP249 T01830117,2025-09-10T01:11:35Z,2025-09-09T21:11:35Z
KITH,"Ithaca/Tompkins Rgnl, NY, US",2025-09-09T23:56:00Z,2025-09-09T19:56:00Z,VFR,13.9,10.6,80,5,0,NA,1024.5,METAR KITH 092356Z 08005KT 10SM CLR 14/11 A3025 RMK AO2 SLP248 T01390106 10228 20133 56006,2025-09-10T00:12:42Z,2025-09-09T20:12:42Z
KITH,"Ithaca/Tompkins Rgnl, NY, US",2025-09-10T00:56:00Z,2025-09-09T20:56:00Z,VFR,12.8,9.4,80,5,0,NA,1024.8,METAR KITH 100056Z 08005KT 10SM CLR 13/09 A3026 RMK AO2 SLP249 T01280094,2025-09-10T01:11:35Z,2025-09-09T21:11:35Z
KIWA,"Phoenix/Mesa Gateway Arpt, AZ, US",2025-09-09T23:49:00Z,2025-09-09T19:49:00Z,VFR,39,14,240,5,0,NA,1007.2,METAR KIWA 092349Z 24005KT 10SM FEW080 39/14 A2974,2025-09-10T00:12:43Z,2025-09-09T20:12:43Z
KIWA,"Phoenix/Mesa Gateway Arpt, AZ, US",2025-09-10T00:52:00Z,2025-09-09T20:52:00Z,VFR,39,12,250,8,0,NA,1006.5,METAR KIWA 100052Z 25008KT 220V300 10SM FEW100 39/12 A2972,2025-09-10T01:11:35Z,2025-09-09T21:11:35Z
KJAC,"Jackson Hole Arpt, WY, US",2025-09-09T23:56:00Z,2025-09-09T19:56:00Z,VFR,12.8,8.9,60,8,0,NA,1020.4,METAR KJAC 092356Z 06008KT 10SM -RA BKN070 OVC080 13/09 A3013 RMK AO2 LTG DSNT W SLP189 P0002 60016 T01280089 10228 20117 53020,2025-09-10T00:12:42Z,2025-09-09T20:12:42Z
KJAC,"Jackson Hole Arpt, WY, US",2025-09-10T00:56:00Z,2025-09-09T20:56:00Z,VFR,11.7,9.4,20,11,0,NA,1021.1,METAR KJAC 100056Z 02011KT 10SM -RA FEW033 BKN060 OVC095 12/09 A3015 RMK AO2 SLP198 P0004 T01170094,2025-09-10T01:11:35Z,2025-09-09T21:11:35Z
KJAN,"Jackson/Evers Intl, MS, US",2025-09-09T23:54:00Z,2025-09-09T19:54:00Z,VFR,26.7,23.9,0,0,0,NA,1015.7,METAR KJAN 092354Z 00000KT 10SM SCT055 BKN090 27/24 A2999 RMK AO2 RAE31 SLP153 P0001 60003 T02670239 10322 20256 50000,2025-09-10T00:12:42Z,2025-09-09T20:12:42Z
KJAN,"Jackson/Evers Intl, MS, US",2025-09-10T00:54:00Z,2025-09-09T20:54:00Z,VFR,26.1,22.2,90,4,0,NA,1016.3,METAR KJAN 100054Z 09004KT 10SM SCT055 26/22 A3001 RMK AO2 SLP158 T02610222,2025-09-10T01:11:35Z,2025-09-09T21:11:35Z
KJAX,"Jacksonville Intl, FL, US",2025-09-09T15:40:00Z,2025-09-09T11:40:00Z,MVFR,25,22.2,20,12,0,NA,1017.4,SPECI KJAX 091540Z 02012KT 10SM -RA FEW008 BKN014 OVC110 25/22 A3004 RMK AO2 RAB40 P0000 T02500222 $,2025-09-09T15:51:29Z,2025-09-09T11:51:29Z
KJAX,"Jacksonville Intl, FL, US",2025-09-09T15:56:00Z,2025-09-09T11:56:00Z,MVFR,25,23,10,13,19,NA,1017.4,METAR KJAX 091556Z 01013G19KT 10SM -RA FEW008 BKN014 OVC110 25/23 A3004,2025-09-09T16:11:16Z,2025-09-09T12:11:16Z
KJAX,"Jacksonville Intl, FL, US",2025-09-09T16:56:00Z,2025-09-09T12:56:00Z,MVFR,26.1,22.8,40,17,24,NA,1017,METAR KJAX 091656Z 04017G24KT 10SM FEW008 BKN014 BKN110 26/23 A3003 RMK AO2 RAE34 SLP169 P0001 T02610228 $,2025-09-09T17:12:51Z,2025-09-09T13:12:51Z
KJAX,"Jacksonville Intl, FL, US",2025-09-09T17:56:00Z,2025-09-09T13:56:00Z,MVFR,26.7,22.2,30,16,24,NA,1017,METAR KJAX 091756Z 03016G24KT 10SM BKN014 BKN110 OVC250 27/22 A3003 RMK AO2 PK WND 04026/1724 SLP168 60001 T02670222 10272 20222 58002 $,2025-09-09T18:09:20Z,2025-09-09T14:09:20Z
KJAX,"Jacksonville Intl, FL, US",2025-09-09T18:24:00Z,2025-09-09T14:24:00Z,MVFR,26.7,21.7,30,18,26,NA,1016.3,SPECI KJAX 091824Z 03018G26KT 10SM BKN017 OVC250 27/22 A3001 RMK AO2 PK WND 05030/1814 T02670217 $,2025-09-09T18:38:56Z,2025-09-09T14:38:56Z
KJAX,"Jacksonville Intl, FL, US",2025-09-09T18:56:00Z,2025-09-09T14:56:00Z,MVFR,27.2,21.7,40,15,21,NA,1016,METAR KJAX 091856Z 04015G21KT 10SM BKN018 BKN026 BKN250 27/22 A3000 RMK AO2 PK WND 05030/1814 SLP157 T02720217 $,2025-09-09T19:00:56Z,2025-09-09T15:00:56Z
KJAX,"Jacksonville Intl, FL, US",2025-09-09T19:56:00Z,2025-09-09T15:56:00Z,MVFR,26.1,21.1,30,12,0,NA,1015.7,METAR KJAX 091956Z 03012KT 10SM BKN019 BKN029 BKN250 26/21 A2999 RMK AO2 SLP157 T02610211 $,2025-09-09T20:10:15Z,2025-09-09T16:10:15Z
KJAX,"Jacksonville Intl, FL, US",2025-09-09T20:56:00Z,2025-09-09T16:56:00Z,MVFR,25.6,19.4,40,17,27,NA,1016,METAR KJAX 092056Z 04017G27KT 10SM BKN021 BKN030 BKN250 26/19 A3000 RMK AO2 PK WND 04027/2048 SLP158 T02560194 55010 $,2025-09-09T21:12:42Z,2025-09-09T17:12:42Z
KJAX,"Jacksonville Intl, FL, US",2025-09-09T21:56:00Z,2025-09-09T17:56:00Z,VFR,25.6,20,30,12,19,NA,1015.7,METAR KJAX 092156Z 03012G19KT 10SM SCT025 BKN150 BKN250 26/20 A2999 RMK AO2 SLP157 T02560200 $,2025-09-09T22:00:08Z,2025-09-09T18:00:08Z
KJAX,"Jacksonville Intl, FL, US",2025-09-09T22:56:00Z,2025-09-09T18:56:00Z,VFR,25.6,19.4,30,9,0,NA,1016,METAR KJAX 092256Z 03009KT 10SM SCT027 BKN160 BKN250 26/19 A3000 RMK AO2 PK WND 06026/2222 SLP159 T02560194 $,2025-09-09T23:21:16Z,2025-09-09T19:21:16Z
KJAX,"Jacksonville Intl, FL, US",2025-09-09T23:56:00Z,2025-09-09T19:56:00Z,VFR,24.4,18.9,30,8,0,NA,1016.3,METAR KJAX 092356Z 03008KT 10SM FEW027 BKN170 BKN250 24/19 A3001 RMK AO2 SLP162 T02440189 10272 20244 53003 $,2025-09-10T00:12:42Z,2025-09-09T20:12:42Z
KJAX,"Jacksonville Intl, FL, US",2025-09-10T00:56:00Z,2025-09-09T20:56:00Z,VFR,23.3,18.9,10,4,0,NA,1016.7,METAR KJAX 100056Z 01004KT 10SM FEW025 SCT120 BKN170 BKN250 23/19 A3002 RMK AO2 SLP166 T02330189 $,2025-09-10T01:11:35Z,2025-09-09T21:11:35Z
KJBR,"Jonesboro Muni, AR, US",2025-09-09T23:53:00Z,2025-09-09T19:53:00Z,VFR,27.2,13.9,230,5,0,NA,1016.3,METAR KJBR 092353Z AUTO 23005KT 10SM CLR 27/14 A3001 RMK AO2 SLP158 T02720139 10306 20272 56012 $,2025-09-10T00:12:43Z,2025-09-09T20:12:43Z
KJBR,"Jonesboro Muni, AR, US",2025-09-10T00:53:00Z,2025-09-09T20:53:00Z,VFR,23.3,15,0,0,0,NA,1016.7,METAR KJBR 100053Z AUTO 00000KT 10SM CLR 23/15 A3002 RMK AO2 SLP161 T02330150 $,2025-09-10T01:11:35Z,2025-09-09T21:11:35Z
KJCT,"Junction/Kimble Cnty, TX, US",2025-09-09T23:51:00Z,2025-09-09T19:51:00Z,VFR,30,17.8,160,6,0,NA,1016,METAR KJCT 092351Z AUTO 16006KT 10SM CLR 30/18 A3000 RMK AO2 SLP124 T03000178 10317 20278 56007,2025-09-10T00:12:43Z,2025-09-09T20:12:43Z
KJCT,"Junction/Kimble Cnty, TX, US",2025-09-10T00:51:00Z,2025-09-09T20:51:00Z,VFR,27.8,17.8,160,4,0,NA,1016,METAR KJCT 100051Z AUTO 16004KT 10SM CLR 28/18 A3000 RMK AO2 SLP126 T02780178,2025-09-10T01:11:35Z,2025-09-09T21:11:35Z
KJFK,"New York/JF Kennedy Intl, NY, US",2025-09-09T14:51:00Z,2025-09-09T10:51:00Z,VFR,21.1,8.3,70,13,0,NA,1027.5,METAR KJFK 091451Z 07013KT 10SM SCT027 BKN250 21/08 A3034 RMK AO2 SLP272 T02110083 53004,2025-09-09T15:51:27Z,2025-09-09T11:51:27Z
KJFK,"New York/JF Kennedy Intl, NY, US",2025-09-09T15:51:00Z,2025-09-09T11:51:00Z,VFR,21.7,8.3,60,11,0,NA,1027.2,METAR KJFK 091551Z 06011KT 10SM FEW028 FEW032 BKN250 22/08 A3033 RMK AO2 SLP270 T02170083,2025-09-09T16:06:00Z,2025-09-09T12:06:00Z
KJFK,"New York/JF Kennedy Intl, NY, US",2025-09-09T16:51:00Z,2025-09-09T12:51:00Z,VFR,22.2,11.1,130,10,16,NA,1026.8,METAR KJFK 091651Z 13010G16KT 10SM FEW028 SCT050 BKN250 22/11 A3032 RMK AO2 SLP265 T02220111 $,2025-09-09T16:54:01Z,2025-09-09T12:54:01Z
KJFK,"New York/JF Kennedy Intl, NY, US",2025-09-09T17:51:00Z,2025-09-09T13:51:00Z,VFR,22.8,11.7,120,12,20,NA,1026.5,METAR KJFK 091751Z 12012G20KT 10SM FEW030 SCT050 BKN250 23/12 A3031 RMK AO2 SLP262 T02280117 10228 20161 58010 $,2025-09-09T18:09:19Z,2025-09-09T14:09:19Z
KJFK,"New York/JF Kennedy Intl, NY, US",2025-09-09T18:51:00Z,2025-09-09T14:51:00Z,VFR,21.7,11.7,120,16,22,NA,1026.2,METAR KJFK 091851Z 12016G22KT 10SM SCT040 SCT060 BKN250 22/12 A3030 RMK AO2 SLP259 T02170117,2025-09-09T19:00:54Z,2025-09-09T15:00:54Z
KJFK,"New York/JF Kennedy Intl, NY, US",2025-09-09T19:51:00Z,2025-09-09T15:51:00Z,VFR,21.7,11.7,110,14,23,NA,1025.8,METAR KJFK 091951Z 11014G23KT 10SM FEW040 FEW060 BKN250 22/12 A3029 RMK AO2 SLP258 T02170117,2025-09-09T20:10:13Z,2025-09-09T16:10:13Z
KJFK,"New York/JF Kennedy Intl, NY, US",2025-09-09T20:51:00Z,2025-09-09T16:51:00Z,VFR,21.1,11.7,100,12,20,NA,1025.8,METAR KJFK 092051Z 10012G20KT 10SM FEW040 SCT060 BKN250 21/12 A3029 RMK AO2 SLP255 T02110117 58007,2025-09-09T20:53:58Z,2025-09-09T16:53:58Z
KJFK,"New York/JF Kennedy Intl, NY, US",2025-09-09T21:51:00Z,2025-09-09T17:51:00Z,VFR,20.6,10.6,90,13,0,NA,1025.5,METAR KJFK 092151Z 09013KT 10SM FEW040 SCT060 BKN250 21/11 A3028 RMK AO2 SLP253 T02060106,2025-09-09T22:00:06Z,2025-09-09T18:00:06Z
KJFK,"New York/JF Kennedy Intl, NY, US",2025-09-09T22:51:00Z,2025-09-09T18:51:00Z,VFR,20,11.7,90,6,0,NA,1025.1,METAR KJFK 092251Z 09006KT 10SM FEW040 SCT065 BKN250 20/12 A3027 RMK AO2 SLP250 T02000117,2025-09-09T22:58:30Z,2025-09-09T18:58:30Z
KJFK,"New York/JF Kennedy Intl, NY, US",2025-09-09T23:51:00Z,2025-09-09T19:51:00Z,VFR,18.9,12.8,100,6,0,NA,1025.1,METAR KJFK 092351Z 10006KT 10SM FEW040 BKN065 BKN250 19/13 A3027 RMK AO2 SLP250 T01890128 10228 20189 56005,2025-09-10T00:12:43Z,2025-09-09T20:12:43Z
KJFK,"New York/JF Kennedy Intl, NY, US",2025-09-10T00:51:00Z,2025-09-09T20:51:00Z,VFR,18.9,12.2,90,7,0,NA,1025.1,METAR KJFK 100051Z 09007KT 10SM BKN060 BKN250 19/12 A3027 RMK AO2 SLP251 T01890122,2025-09-10T01:11:35Z,2025-09-09T21:11:35Z
KJHW,"Jamestown/Chautauqua Cnty, NY, US",2025-09-09T23:56:00Z,2025-09-09T19:56:00Z,VFR,16.7,9.4,330,6,0,NA,1023.8,METAR KJHW 092356Z AUTO 33006KT 10SM CLR 17/09 A3023 RMK AO2 SLP243 T01670094 10217 20167 55004 $,2025-09-10T00:12:42Z,2025-09-09T20:12:42Z
KJHW,"Jamestown/Chautauqua Cnty, NY, US",2025-09-10T00:56:00Z,2025-09-09T20:56:00Z,VFR,15,10.6,330,6,0,NA,1024.1,METAR KJHW 100056Z AUTO 33006KT 10SM CLR 15/11 A3024 RMK AO2 SLP245 T01500106 $,2025-09-10T01:11:35Z,2025-09-09T21:11:35Z
KJKL,"Jackson/Carroll Arpt, KY, US",2025-09-09T23:53:00Z,2025-09-09T19:53:00Z,VFR,20,8.9,0,0,0,NA,1021.1,METAR KJKL 092353Z AUTO 00000KT 10SM CLR 20/09 A3015 RMK AO2 SLP201 T02000089 10239 20200 56005,2025-09-10T00:12:42Z,2025-09-09T20:12:42Z
KJKL,"Jackson/Carroll Arpt, KY, US",2025-09-10T00:53:00Z,2025-09-09T20:53:00Z,VFR,18.3,10,0,0,0,NA,1021.1,METAR KJKL 100053Z AUTO 00000KT 10SM CLR 18/10 A3015 RMK AO2 SLP201 T01830100,2025-09-10T01:11:35Z,2025-09-09T21:11:35Z
KJLN,"Joplin Rgnl, MO, US",2025-09-09T23:53:00Z,2025-09-09T19:53:00Z,VFR,24.4,12.8,180,6,0,NA,1016,METAR KJLN 092353Z 18006KT 10SM CLR 24/13 A3000 RMK AO2 LTG DSNT N AND E SLP152 60000 T02440128 10267 20211 55000,2025-09-10T00:12:42Z,2025-09-09T20:12:42Z
KJLN,"Joplin Rgnl, MO, US",2025-09-10T00:53:00Z,2025-09-09T20:53:00Z,VFR,23.3,13.3,150,4,0,NA,1016.3,METAR KJLN 100053Z 15004KT 10SM SCT085 23/13 A3001 RMK AO2 LTG DSNT E SLP153 T02330133,2025-09-10T01:11:35Z,2025-09-09T21:11:35Z
KJMS,"Jamestown Rgnl, ND, US",2025-09-09T23:56:00Z,2025-09-09T19:56:00Z,VFR,22.2,13.3,90,3,0,NA,1015.3,METAR KJMS 092356Z AUTO 09003KT 10SM CLR 22/13 A2998 RMK AO2 SLP151 T02220133 10250 20222 51001,2025-09-10T00:12:42Z,2025-09-09T20:12:42Z
KJMS,"Jamestown Rgnl, ND, US",2025-09-10T00:56:00Z,2025-09-09T20:56:00Z,VFR,18.9,12.8,100,6,0,NA,1015.7,METAR KJMS 100056Z AUTO 10006KT 10SM CLR 19/13 A2999 RMK AO2 SLP156 T01890128,2025-09-10T01:11:35Z,2025-09-09T21:11:35Z
KJNX,"Smithfield/Johnston Rgnl, NC, US",2025-09-10T00:10:00Z,2025-09-09T20:10:00Z,MVFR,21,21,20,8,0,NA,1019.7,METAR KJNX 100010Z AUTO 02008KT 10SM OVC023 21/21 A3011 RMK AO2,2025-09-10T00:12:42Z,2025-09-09T20:12:42Z
KJNX,"Smithfield/Johnston Rgnl, NC, US",2025-09-10T00:30:00Z,2025-09-09T20:30:00Z,MVFR,21,21,10,7,0,NA,1019.7,METAR KJNX 100030Z AUTO 01007KT 10SM OVC026 21/21 A3011 RMK AO2,2025-09-10T00:33:24Z,2025-09-09T20:33:24Z
KJNX,"Smithfield/Johnston Rgnl, NC, US",2025-09-10T01:10:00Z,2025-09-09T21:10:00Z,MVFR,21,21,20,8,0,NA,1020.1,METAR KJNX 100110Z AUTO 02008KT 10SM OVC026 21/21 A3012 RMK AO2,2025-09-10T01:11:35Z,2025-09-09T21:11:35Z
KJQF,"Concord Rgnl, NC, US",2025-09-09T23:50:00Z,2025-09-09T19:50:00Z,VFR,19,9,0,0,0,NA,1021.4,METAR KJQF 092350Z 00000KT 10SM CLR 19/09 A3016,2025-09-10T00:12:43Z,2025-09-09T20:12:43Z
KJQF,"Concord Rgnl, NC, US",2025-09-10T00:50:00Z,2025-09-09T20:50:00Z,VFR,17,11,0,0,0,NA,1022.1,METAR KJQF 100050Z 00000KT 10SM CLR 17/11 A3018,2025-09-10T01:11:35Z,2025-09-09T21:11:35Z
KJST,"Johnstown/Murtha Arpt, PA, US",2025-09-09T23:54:00Z,2025-09-09T19:54:00Z,VFR,16.1,5.6,130,3,0,NA,1024.1,METAR KJST 092354Z AUTO 13003KT 10SM CLR 16/06 A3024 RMK AO2 SLP241 T01610056 10206 20161 55001,2025-09-10T00:12:42Z,2025-09-09T20:12:42Z
KJST,"Johnstown/Murtha Arpt, PA, US",2025-09-10T00:54:00Z,2025-09-09T20:54:00Z,VFR,14.4,5.6,120,4,0,NA,1024.1,METAR KJST 100054Z AUTO 12004KT 10SM CLR 14/06 A3024 RMK AO2 SLP239 T01440056,2025-09-10T01:11:35Z,2025-09-09T21:11:35Z
KJWY,"Midlothian/Mid-Way Rgnl, TX, US",2025-09-09T23:55:00Z,2025-09-09T19:55:00Z,VFR,28,11.4,150,3,0,NA,1016,METAR KJWY 092355Z AUTO 15003KT 10SM CLR 28/11 A3000 RMK AO2 T02800114 10300 20272 56006 $,2025-09-10T00:12:42Z,2025-09-09T20:12:42Z
KJWY,"Midlothian/Mid-Way Rgnl, TX, US",2025-09-10T00:15:00Z,2025-09-09T20:15:00Z,VFR,26.7,12.2,120,3,0,NA,1015.7,METAR KJWY 100015Z AUTO 12003KT 10SM CLR 27/12 A2999 RMK AO2 T02670122 $,2025-09-10T00:33:24Z,2025-09-09T20:33:24Z
KJWY,"Midlothian/Mid-Way Rgnl, TX, US",2025-09-10T00:55:00Z,2025-09-09T20:55:00Z,VFR,25.2,11.9,140,3,0,NA,1016,METAR KJWY 100055Z AUTO 14003KT 10SM CLR 25/12 A3000 RMK AO2 T02520119 $,2025-09-10T01:11:35Z,2025-09-09T21:11:35Z
KJXN,"Jackson Cnty, MI, US",2025-09-09T23:56:00Z,2025-09-09T19:56:00Z,VFR,18.9,8.3,150,4,0,NA,1021.1,METAR KJXN 092356Z 15004KT 10SM CLR 19/08 A3015 RMK AO2 SLP212 6//// T01890083 10244 20189 56004 PNO,2025-09-10T00:12:42Z,2025-09-09T20:12:42Z
KJXN,"Jackson Cnty, MI, US",2025-09-10T00:56:00Z,2025-09-09T20:56:00Z,VFR,15,9.4,0,0,0,NA,1021.4,METAR KJXN 100056Z 00000KT 10SM CLR 15/09 A3016 RMK AO2 SLP214 T01500094 PNO,2025-09-10T01:11:35Z,2025-09-09T21:11:35Z
KKLS,"Kelso/Longview Arpt, WA, US",2025-09-09T23:56:00Z,2025-09-09T19:56:00Z,VFR,24.4,15.6,280,8,0,NA,1011.9,METAR KKLS 092356Z AUTO 28008KT 10SM FEW041 24/16 A2988 RMK AO2 SLP123 T02440156 10250 20194 56014,2025-09-10T00:12:42Z,2025-09-09T20:12:42Z
KKLS,"Kelso/Longview Arpt, WA, US",2025-09-10T00:56:00Z,2025-09-09T20:56:00Z,VFR,23.3,15.6,300,10,0,NA,1011.9,METAR KKLS 100056Z AUTO 30010KT 10SM CLR 23/16 A2988 RMK AO2 SLP122 T02330156,2025-09-10T01:11:35Z,2025-09-09T21:11:35Z
KLAA,"Lamar Muni, CO, US",2025-09-09T23:53:00Z,2025-09-09T19:53:00Z,VFR,30,12.8,130,13,18,NA,1014,METAR KLAA 092353Z AUTO 13013G18KT 10SM CLR 30/13 A2994 RMK AO2 LTG DSNT S RAE2256 SLP090 P0000 60000 T03000128 10333 20289 58001,2025-09-10T00:12:43Z,2025-09-09T20:12:43Z
KLAA,"Lamar Muni, CO, US",2025-09-10T00:53:00Z,2025-09-09T20:53:00Z,VFR,27.2,13.9,120,11,0,NA,1014,METAR KLAA 100053Z AUTO 12011KT 10SM CLR 27/14 A2994 RMK AO2 SLP093 T02720139,2025-09-10T01:11:35Z,2025-09-09T21:11:35Z
KLAF,"Lafayette/Purdue Univ Arpt, IN, US",2025-09-09T23:54:00Z,2025-09-09T19:54:00Z,VFR,21.7,9.4,0,0,0,NA,1019.4,METAR KLAF 092354Z 00000KT 10SM CLR 22/09 A3010 RMK AO2 SLP194 T02170094 10250 20217 55005,2025-09-10T00:12:42Z,2025-09-09T20:12:42Z
KLAF,"Lafayette/Purdue Univ Arpt, IN, US",2025-09-10T00:54:00Z,2025-09-09T20:54:00Z,VFR,16.1,11.1,0,0,0,NA,1019.4,METAR KLAF 100054Z AUTO 00000KT 10SM CLR 16/11 A3010 RMK AO2 SLP193 T01610111,2025-09-10T01:11:35Z,2025-09-09T21:11:35Z
KLAL,"Lakeland/Linder Intl, FL, US",2025-09-09T23:50:00Z,2025-09-09T19:50:00Z,MVFR,25,23,50,10,0,6,1014.3,METAR KLAL 092350Z 05010KT 6SM BKN010 25/23 A2995,2025-09-10T00:12:43Z,2025-09-09T20:12:43Z
KLAL,"Lakeland/Linder Intl, FL, US",2025-09-10T00:50:00Z,2025-09-09T20:50:00Z,MVFR,24,23,80,4,0,8,1014.3,METAR KLAL 100050Z 08004KT 8SM BKN030 24/23 A2995,2025-09-10T01:11:35Z,2025-09-09T21:11:35Z
KLAN,"Lansing/Capital City Arpt, MI, US",2025-09-09T23:53:00Z,2025-09-09T19:53:00Z,VFR,20.6,8.3,170,3,0,NA,1020.7,METAR KLAN 092353Z 17003KT 10SM CLR 21/08 A3014 RMK AO2 SLP208 T02060083 10233 20206 56004,2025-09-10T00:12:43Z,2025-09-09T20:12:43Z
KLAN,"Lansing/Capital City Arpt, MI, US",2025-09-10T00:53:00Z,2025-09-09T20:53:00Z,VFR,16.1,10,0,0,0,NA,1021.1,METAR KLAN 100053Z 00000KT 10SM CLR 16/10 A3015 RMK AO2 SLP209 T01610100,2025-09-10T01:11:35Z,2025-09-09T21:11:35Z
KLAR,"Laramie Rgnl, WY, US",2025-09-09T23:53:00Z,2025-09-09T19:53:00Z,VFR,17.2,6.1,130,5,0,NA,1022.4,METAR KLAR 092353Z AUTO 13005KT 10SM SCT100 17/06 A3019 RMK AO2 WSHFT 2250 TSE2254 SLP144 60002 T01720061 10239 20156 53006,2025-09-10T00:12:43Z,2025-09-09T20:12:43Z
KLAR,"Laramie Rgnl, WY, US",2025-09-10T00:53:00Z,2025-09-09T20:53:00Z,VFR,15.6,7.2,70,4,0,NA,1022.1,METAR KLAR 100053Z AUTO 07004KT 10SM BKN100 16/07 A3018 RMK AO2 SLP148 T01560072,2025-09-10T01:11:35Z,2025-09-09T21:11:35Z
KLAS,"Las Vegas/Reid Intl, NV, US",2025-09-09T23:56:00Z,2025-09-09T19:56:00Z,VFR,35.6,-6.7,240,7,18,NA,1007.5,METAR KLAS 092356Z 24007G18KT 10SM FEW220 36/M07 A2975 RMK AO2 SLP043 T03561067 10361 20322 56018,2025-09-10T00:12:42Z,2025-09-09T20:12:42Z
KLAS,"Las Vegas/Reid Intl, NV, US",2025-09-10T00:56:00Z,2025-09-09T20:56:00Z,VFR,33.9,-5,240,18,25,NA,1006.9,METAR KLAS 100056Z 24018G25KT 10SM FEW220 34/M05 A2973 RMK AO2 SLP038 T03391050,2025-09-10T01:11:35Z,2025-09-09T21:11:35Z
KLAW,"Lawton-Fort Sill Rgnl, OK, US",2025-09-09T14:53:00Z,2025-09-09T10:53:00Z,VFR,22.8,11.7,170,8,0,NA,1018,METAR KLAW 091453Z 17008KT 10SM CLR 23/12 A3006 RMK AO2 SLP170 T02280117 50004,2025-09-09T15:51:30Z,2025-09-09T11:51:30Z
KLAW,"Lawton-Fort Sill Rgnl, OK, US",2025-09-09T15:53:00Z,2025-09-09T11:53:00Z,VFR,25,11.7,200,9,16,NA,1018,METAR KLAW 091553Z 20009G16KT 10SM CLR 25/12 A3006 RMK AO2 SLP170 T02500117,2025-09-09T16:06:03Z,2025-09-09T12:06:03Z
KLAW,"Lawton-Fort Sill Rgnl, OK, US",2025-09-09T16:53:00Z,2025-09-09T12:53:00Z,VFR,27.2,12.8,190,10,17,NA,1017.7,METAR KLAW 091653Z 19010G17KT 10SM CLR 27/13 A3005 RMK AO2 SLP165 T02720128,2025-09-09T17:12:54Z,2025-09-09T13:12:54Z
KLAW,"Lawton-Fort Sill Rgnl, OK, US",2025-09-09T17:53:00Z,2025-09-09T13:53:00Z,VFR,29.4,14.4,180,12,19,NA,1016.7,METAR KLAW 091753Z 18012G19KT 10SM CLR 29/14 A3002 RMK AO2 SLP155 T02940144 10294 20161 58013,2025-09-09T18:09:21Z,2025-09-09T14:09:21Z
KLAW,"Lawton-Fort Sill Rgnl, OK, US",2025-09-09T18:53:00Z,2025-09-09T14:53:00Z,VFR,31.1,15,200,11,16,NA,1016.3,METAR KLAW 091853Z 20011G16KT 10SM CLR 31/15 A3001 RMK AO2 SLP150 T03110150,2025-09-09T19:00:57Z,2025-09-09T15:00:57Z
KLAW,"Lawton-Fort Sill Rgnl, OK, US",2025-09-09T19:53:00Z,2025-09-09T15:53:00Z,VFR,31.7,14.4,150,11,0,NA,1015.3,METAR KLAW 091953Z 15011KT 10SM CLR 32/14 A2998 RMK AO2 SLP140 T03170144,2025-09-09T20:10:18Z,2025-09-09T16:10:18Z
KLAW,"Lawton-Fort Sill Rgnl, OK, US",2025-09-09T20:53:00Z,2025-09-09T16:53:00Z,VFR,32.2,14.4,170,11,20,NA,1014.6,METAR KLAW 092053Z 17011G20KT 10SM CLR 32/14 A2996 RMK AO2 SLP133 T03220144 58021,2025-09-09T21:12:45Z,2025-09-09T17:12:45Z
KLAW,"Lawton-Fort Sill Rgnl, OK, US",2025-09-09T21:53:00Z,2025-09-09T17:53:00Z,VFR,32.2,14.4,160,10,19,NA,1014.3,METAR KLAW 092153Z 16010G19KT 10SM CLR 32/14 A2995 RMK AO2 SLP130 T03220144,2025-09-09T22:00:10Z,2025-09-09T18:00:10Z
KLAW,"Lawton-Fort Sill Rgnl, OK, US",2025-09-09T22:53:00Z,2025-09-09T18:53:00Z,VFR,32.2,14.4,160,12,18,NA,1014.3,METAR KLAW 092253Z 16012G18KT 10SM CLR 32/14 A2995 RMK AO2 SLP131 T03220144,2025-09-09T22:58:33Z,2025-09-09T18:58:33Z
KLAW,"Lawton-Fort Sill Rgnl, OK, US",2025-09-09T23:53:00Z,2025-09-09T19:53:00Z,VFR,30.6,15,150,10,0,NA,1014.3,METAR KLAW 092353Z 15010KT 10SM CLR 31/15 A2995 RMK AO2 SLP130 T03060150 10328 20289 56004,2025-09-10T00:12:43Z,2025-09-09T20:12:43Z
KLAW,"Lawton-Fort Sill Rgnl, OK, US",2025-09-10T00:53:00Z,2025-09-09T20:53:00Z,VFR,28.3,15,140,9,0,NA,1014.3,METAR KLAW 100053Z AUTO 14009KT 10SM CLR 28/15 A2995 RMK AO2 SLP131 T02830150,2025-09-10T01:11:35Z,2025-09-09T21:11:35Z
KLAX,"Los Angeles Intl, CA, US",2025-09-09T14:53:00Z,2025-09-09T10:53:00Z,MVFR,20,17.2,110,3,0,NA,1014,METAR KLAX 091453Z 11003KT 10SM SCT009 BKN016 20/17 A2994 RMK AO2 SLP137 T02000172 53008 $,2025-09-09T15:51:32Z,2025-09-09T11:51:32Z
KLAX,"Los Angeles Intl, CA, US",2025-09-09T15:53:00Z,2025-09-09T11:53:00Z,MVFR,20.6,16.7,160,4,0,5,1014.6,METAR KLAX 091553Z 16004KT 5SM HZ FEW009 SCT016 OVC019 21/17 A2996 RMK AO2 SLP142 T02060167 $,2025-09-09T16:06:05Z,2025-09-09T12:06:05Z
KLAX,"Los Angeles Intl, CA, US",2025-09-09T16:53:00Z,2025-09-09T12:53:00Z,MVFR,21.7,16.7,130,5,0,7,1014.6,METAR KLAX 091653Z 13005KT 7SM FEW009 SCT017 BKN023 22/17 A2996 RMK AO2 SLP142 T02170167 $,2025-09-09T17:12:57Z,2025-09-09T13:12:57Z
KLAX,"Los Angeles Intl, CA, US",2025-09-09T17:36:00Z,2025-09-09T13:36:00Z,VFR,22.8,15.6,150,5,0,NA,1014.3,SPECI KLAX 091736Z 15005KT 10SM FEW009 FEW018 SCT023 23/16 A2995 RMK AO2 T02280156 $,2025-09-09T17:41:40Z,2025-09-09T13:41:40Z
KLAX,"Los Angeles Intl, CA, US",2025-09-09T17:53:00Z,2025-09-09T13:53:00Z,VFR,23.3,15.6,150,5,0,NA,1014.3,METAR KLAX 091753Z 15005KT 10SM FEW009 FEW025 23/16 A2995 RMK AO2 SLP140 T02330156 10233 20189 50002 $,2025-09-09T18:09:23Z,2025-09-09T14:09:23Z
KLAX,"Los Angeles Intl, CA, US",2025-09-09T18:53:00Z,2025-09-09T14:53:00Z,VFR,23.9,17.2,270,11,0,NA,1014,METAR KLAX 091853Z 27011KT 10SM SCT019 24/17 A2994 RMK AO2 SLP137 T02390172 $,2025-09-09T19:00:59Z,2025-09-09T15:00:59Z
KLAX,"Los Angeles Intl, CA, US",2025-09-09T19:53:00Z,2025-09-09T15:53:00Z,VFR,23.3,16.1,230,9,0,NA,1013.3,METAR KLAX 091953Z 23009KT 10SM FEW010 23/16 A2992 RMK AO2 SLP128 T02330161 $,2025-09-09T20:10:19Z,2025-09-09T16:10:19Z
KLAX,"Los Angeles Intl, CA, US",2025-09-09T20:53:00Z,2025-09-09T16:53:00Z,VFR,23.9,16.1,240,12,20,NA,1012.6,METAR KLAX 092053Z 24012G20KT 10SM FEW025 24/16 A2990 RMK AO2 SLP125 T02390161 58015 $,2025-09-09T21:12:46Z,2025-09-09T17:12:46Z
KLAX,"Los Angeles Intl, CA, US",2025-09-09T21:53:00Z,2025-09-09T17:53:00Z,VFR,23.9,16.7,260,12,0,NA,1011.9,METAR KLAX 092153Z 26012KT 10SM FEW012 FEW025 SCT055 24/17 A2988 RMK AO2 SLP117 T02390167 $,2025-09-09T22:00:15Z,2025-09-09T18:00:15Z
KLAX,"Los Angeles Intl, CA, US",2025-09-09T22:53:00Z,2025-09-09T18:53:00Z,VFR,23.9,16.7,240,14,0,NA,1011.3,METAR KLAX 092253Z 24014KT 10SM FEW012 FEW060 24/17 A2986 RMK AO2 SLP110 T02390167 $,2025-09-09T22:58:34Z,2025-09-09T18:58:34Z
KLAX,"Los Angeles Intl, CA, US",2025-09-09T23:53:00Z,2025-09-09T19:53:00Z,VFR,23.3,17.2,260,12,0,NA,1010.9,METAR KLAX 092353Z 26012KT 10SM FEW013 SCT060 23/17 A2985 RMK AO2 SLP106 T02330172 10244 20228 56018 $,2025-09-10T00:12:43Z,2025-09-09T20:12:43Z
KLAX,"Los Angeles Intl, CA, US",2025-09-10T00:53:00Z,2025-09-09T20:53:00Z,VFR,22.2,17.2,250,11,0,NA,1010.9,METAR KLAX 100053Z 25011KT 10SM SCT014 22/17 A2985 RMK AO2 SLP104 T02220172 $,2025-09-10T01:11:35Z,2025-09-09T21:11:35Z
KLBB,"Lubbock Intl Arpt, TX, US",2025-09-09T14:53:00Z,2025-09-09T10:53:00Z,VFR,23.3,18.3,210,12,0,NA,1019,METAR KLBB 091453Z 21012KT 10SM SCT012 SCT090 23/18 A3009 RMK AO2 SLP138 T02330183 51004,2025-09-09T15:51:30Z,2025-09-09T11:51:30Z
KLBB,"Lubbock Intl Arpt, TX, US",2025-09-09T15:53:00Z,2025-09-09T11:53:00Z,VFR,24.4,17.8,180,8,0,NA,1019,METAR KLBB 091553Z 18008KT 10SM FEW100 24/18 A3009 RMK AO2 SLP139 T02440178,2025-09-09T16:06:03Z,2025-09-09T12:06:03Z
KLBB,"Lubbock Intl Arpt, TX, US",2025-09-09T16:53:00Z,2025-09-09T12:53:00Z,VFR,27.8,18.3,170,7,0,NA,1019,METAR KLBB 091653Z 17007KT 10SM FEW075 FEW100 28/18 A3009 RMK AO2 SLP136 ACC DSNT E-SE T02780183,2025-09-09T17:12:54Z,2025-09-09T13:12:54Z
KLBB,"Lubbock Intl Arpt, TX, US",2025-09-09T17:53:00Z,2025-09-09T13:53:00Z,VFR,29.4,17.2,160,8,0,NA,1018.7,METAR KLBB 091753Z 16008KT 10SM FEW075 FEW110 29/17 A3008 RMK AO2 SLP131 ACC DSNT E-SE T02940172 10294 20194 58002,2025-09-09T18:09:21Z,2025-09-09T14:09:21Z
KLBB,"Lubbock Intl Arpt, TX, US",2025-09-09T18:53:00Z,2025-09-09T14:53:00Z,VFR,31.1,17.8,180,8,0,NA,1018,METAR KLBB 091853Z 18008KT 10SM FEW100 31/18 A3006 RMK AO2 SLP124 T03110178,2025-09-09T19:00:57Z,2025-09-09T15:00:57Z
KLBB,"Lubbock Intl Arpt, TX, US",2025-09-09T19:53:00Z,2025-09-09T15:53:00Z,VFR,32.2,17.8,160,13,0,NA,1017.4,METAR KLBB 091953Z 16013KT 10SM FEW075 32/18 A3004 RMK AO2 SLP115 CB DSNT W T03220178,2025-09-09T20:10:18Z,2025-09-09T16:10:18Z
KLBB,"Lubbock Intl Arpt, TX, US",2025-09-09T20:53:00Z,2025-09-09T16:53:00Z,VFR,32.8,16.7,190,13,0,NA,1016.3,METAR KLBB 092053Z 19013KT 10SM FEW075 FEW250 33/17 A3001 RMK AO2 SLP107 CB DSNT W-NW MOV E T03280167 58020,2025-09-09T21:12:45Z,2025-09-09T17:12:45Z
KLBB,"Lubbock Intl Arpt, TX, US",2025-09-09T21:53:00Z,2025-09-09T17:53:00Z,VFR,32.8,16.1,180,13,0,NA,1016,METAR KLBB 092153Z 18013KT 10SM FEW075 FEW250 33/16 A3000 RMK AO2 SLP104 CB DSNT W-NW AND N MOV E T03280161,2025-09-09T22:00:10Z,2025-09-09T18:00:10Z
KLBB,"Lubbock Intl Arpt, TX, US",2025-09-09T22:53:00Z,2025-09-09T18:53:00Z,VFR,32.2,16.1,180,15,0,NA,1016,METAR KLBB 092253Z 18015KT 10SM FEW075 SCT250 32/16 A3000 RMK AO2 SLP102 CB DSNT W-N MOV E T03220161,2025-09-09T22:58:33Z,2025-09-09T18:58:33Z
KLBB,"Lubbock Intl Arpt, TX, US",2025-09-09T23:53:00Z,2025-09-09T19:53:00Z,VFR,31.1,15,180,14,0,NA,1015.3,METAR KLBB 092353Z 18014KT 10SM FEW070 SCT250 31/15 A2998 RMK AO2 SLP099 CB DSNT NW-NE MOV E T03110150 10333 20289 57010,2025-09-10T00:12:43Z,2025-09-09T20:12:43Z
KLBB,"Lubbock Intl Arpt, TX, US",2025-09-10T00:53:00Z,2025-09-09T20:53:00Z,VFR,28.9,15,160,8,0,NA,1016,METAR KLBB 100053Z 16008KT 10SM FEW070 SCT250 29/15 A3000 RMK AO2 SLP106 CB DSNT NW-NE MOV SE T02890150,2025-09-10T01:11:35Z,2025-09-09T21:11:35Z
KLBE,"Latrobe/Palmer Rgnl, PA, US",2025-09-09T23:45:00Z,2025-09-09T19:45:00Z,VFR,19,10,0,0,0,NA,1023.1,METAR KLBE 092345Z 00000KT 10SM CLR 19/10 A3021,2025-09-10T00:12:43Z,2025-09-09T20:12:43Z
KLBF,"N Platte/Lee Bird Fld, NE, US",2025-09-09T23:53:00Z,2025-09-09T19:53:00Z,VFR,25,16.1,130,7,0,NA,1015,METAR KLBF 092353Z AUTO 13007KT 10SM CLR 25/16 A2997 RMK AO2 SLP125 T02500161 10294 20250 53001,2025-09-10T00:12:43Z,2025-09-09T20:12:43Z
KLBF,"N Platte/Lee Bird Fld, NE, US",2025-09-10T00:53:00Z,2025-09-09T20:53:00Z,VFR,20.6,16.7,110,4,0,NA,1015.7,METAR KLBF 100053Z AUTO 11004KT 10SM CLR 21/17 A2999 RMK AO2 SLP138 T02060167,2025-09-10T01:11:35Z,2025-09-09T21:11:35Z
KLBL,"Liberal/Mid America Rgnl, KS, US",2025-09-09T23:56:00Z,2025-09-09T19:56:00Z,VFR,30.6,19.4,140,11,0,NA,1013.6,METAR KLBL 092356Z AUTO 14011KT 10SM CLR 31/19 A2993 RMK AO2 SLP099 6//// T03060194 10328 20300 56009 PNO $,2025-09-10T00:12:42Z,2025-09-09T20:12:42Z
KLBL,"Liberal/Mid America Rgnl, KS, US",2025-09-10T00:56:00Z,2025-09-09T20:56:00Z,VFR,27.8,18.3,150,10,0,NA,1014.3,METAR KLBL 100056Z AUTO 15010KT 10SM CLR 28/18 A2995 RMK AO2 SLP110 T02780183 PNO $,2025-09-10T01:11:35Z,2025-09-09T21:11:35Z
KLBT,"Lumberton Muni, NC, US",2025-09-09T23:56:00Z,2025-09-09T19:56:00Z,MVFR,22.8,16.1,30,10,0,NA,1018.7,METAR KLBT 092356Z AUTO 03010KT 10SM OVC030 23/16 A3008 RMK AO2 SLP184 T02280161 10272 20228 53003,2025-09-10T00:12:42Z,2025-09-09T20:12:42Z
KLBT,"Lumberton Muni, NC, US",2025-09-10T00:56:00Z,2025-09-09T20:56:00Z,MVFR,22.8,16.1,30,10,0,NA,1019.4,METAR KLBT 100056Z AUTO 03010KT 10SM OVC029 23/16 A3010 RMK AO2 SLP190 T02280161,2025-09-10T01:11:35Z,2025-09-09T21:11:35Z
KLBX,"Angleton/Texas Gulf Coast Rgnl, TX, US",2025-09-09T23:53:00Z,2025-09-09T19:53:00Z,VFR,27.8,16.7,120,6,0,NA,1014.6,METAR KLBX 092353Z AUTO 12006KT 10SM CLR 28/17 A2996 RMK AO2 SLP146 T02780167 10317 20278 55000,2025-09-10T00:12:42Z,2025-09-09T20:12:42Z
KLBX,"Angleton/Texas Gulf Coast Rgnl, TX, US",2025-09-10T00:53:00Z,2025-09-09T20:53:00Z,VFR,25,17.2,140,4,0,NA,1015.3,METAR KLBX 100053Z AUTO 14004KT 10SM CLR 25/17 A2998 RMK AO2 SLP150 T02500172,2025-09-10T01:11:35Z,2025-09-09T21:11:35Z
KLCH,"Lake Charles Rgnl, LA, US",2025-09-09T23:53:00Z,2025-09-09T19:53:00Z,VFR,27.2,15.6,160,5,0,NA,1014.6,METAR KLCH 092353Z 16005KT 10SM CLR 27/16 A2996 RMK AO2 SLP152 T02720156 10317 20272 55003,2025-09-10T00:12:43Z,2025-09-09T20:12:43Z
KLCH,"Lake Charles Rgnl, LA, US",2025-09-10T00:53:00Z,2025-09-09T20:53:00Z,VFR,23.9,16.1,210,3,0,NA,1015,METAR KLCH 100053Z 21003KT 10SM CLR 24/16 A2997 RMK AO2 SLP156 T02390161,2025-09-10T01:11:35Z,2025-09-09T21:11:35Z
KLCK,"Columbus/Rickenbacker Intl, OH, US",2025-09-09T23:55:00Z,2025-09-09T19:55:00Z,VFR,19.1,10.3,100,4,0,NA,1021.1,METAR KLCK 092355Z AUTO 10004KT 10SM CLR 19/10 A3015 RMK AO2 T01910103 10255 20191,2025-09-10T00:12:42Z,2025-09-09T20:12:42Z
KLCK,"Columbus/Rickenbacker Intl, OH, US",2025-09-10T00:55:00Z,2025-09-09T20:55:00Z,VFR,16.8,9.9,100,4,0,NA,1021.1,METAR KLCK 100055Z AUTO 10004KT 10SM CLR 17/10 A3015 RMK AO2 T01680099,2025-09-10T01:11:35Z,2025-09-09T21:11:35Z
KLEB,"Lebanon Muni, NH, US",2025-09-09T23:53:00Z,2025-09-09T19:53:00Z,VFR,13.3,9.4,0,0,0,NA,1026.5,METAR KLEB 092353Z 00000KT 10SM CLR 13/09 A3031 RMK AO2 SLP262 T01330094 10244 20133 53001,2025-09-10T00:12:42Z,2025-09-09T20:12:42Z
KLEB,"Lebanon Muni, NH, US",2025-09-10T00:53:00Z,2025-09-09T20:53:00Z,VFR,12.8,9.4,0,0,0,NA,1026.8,METAR KLEB 100053Z 00000KT 10SM CLR 13/09 A3032 RMK AO2 SLP267 T01280094,2025-09-10T01:11:35Z,2025-09-09T21:11:35Z
KLEE,"Leesburg Muni, FL, US",2025-09-09T23:53:00Z,2025-09-09T19:53:00Z,MVFR,25,23.9,10,8,0,9,1015,METAR KLEE 092353Z AUTO 01008KT 9SM -RA FEW010 SCT016 OVC023 25/24 A2997 RMK AO2 RAB45 SLP146 P0000 60000 T02500239 10294 20250 51007,2025-09-10T00:12:43Z,2025-09-09T20:12:43Z
KLEE,"Leesburg Muni, FL, US",2025-09-10T00:16:00Z,2025-09-09T20:16:00Z,VFR,24.4,23.3,20,8,0,8,1015,SPECI KLEE 100016Z AUTO 02008KT 8SM -RA FEW012 SCT030 OVC037 24/23 A2997 RMK AO2 P0001 T02440233,2025-09-10T00:33:24Z,2025-09-09T20:33:24Z
KLEE,"Leesburg Muni, FL, US",2025-09-10T00:57:00Z,2025-09-09T20:57:00Z,MVFR,23.9,22.8,60,12,21,7,1015.7,SPECI KLEE 100057Z AUTO 06012G21KT 7SM FEW006 BKN013 OVC033 24/23 A2999 RMK AO2 RAE57 P0000 T02390228,2025-09-10T01:11:35Z,2025-09-09T21:11:35Z
KLEX,"Lexington/Blue Grass Aprt, KY, US",2025-09-09T23:54:00Z,2025-09-09T19:54:00Z,VFR,21.7,9.4,70,8,0,NA,1019.7,METAR KLEX 092354Z 07008KT 10SM CLR 22/09 A3011 RMK AO2 SLP193 T02170094 10261 20217 56005,2025-09-10T00:12:42Z,2025-09-09T20:12:42Z
KLEX,"Lexington/Blue Grass Aprt, KY, US",2025-09-10T00:54:00Z,2025-09-09T20:54:00Z,VFR,20.6,8.9,100,4,0,NA,1020.1,METAR KLEX 100054Z 10004KT 10SM CLR 21/09 A3012 RMK AO2 SLP195 T02060089,2025-09-10T01:11:35Z,2025-09-09T21:11:35Z
KLFI,"Langley AFB, VA, US",2025-09-09T23:55:00Z,2025-09-09T19:55:00Z,MVFR,20.8,16.8,60,13,23,NA,1019.7,METAR KLFI 092355Z 06013G23KT 10SM OVC015 21/17 A3011 RMK AO2A PK WND 03027/19 SLP203 60000 T02080168 10228 20206 56006 $,2025-09-10T00:12:42Z,2025-09-09T20:12:42Z
KLFI,"Langley AFB, VA, US",2025-09-10T00:26:00Z,2025-09-09T20:26:00Z,MVFR,20,18,50,16,20,5,1019.7,SPECI KLFI 100026Z 05016G20KT 5SM HZ OVC016 20/18 A3011 RMK AO2A DZE2355DZB09E25RAB25E26 CIG 015 RWY26 SLP203 $,2025-09-10T00:33:24Z,2025-09-09T20:33:24Z
KLFI,"Langley AFB, VA, US",2025-09-10T01:02:00Z,2025-09-09T21:02:00Z,MVFR,20,18,40,11,19,NA,1019.7,SPECI KLFI 100102Z 04011G19KT 10SM -DZ BKN013 20/18 A3011 RMK AO2A DZB02 SLP203 $,2025-09-10T01:11:35Z,2025-09-09T21:11:35Z
KLFK,"Lufkin/Angelina Cnty, TX, US",2025-09-09T23:53:00Z,2025-09-09T19:53:00Z,VFR,27.2,13.9,100,3,0,NA,1015.3,METAR KLFK 092353Z AUTO 10003KT 10SM CLR 27/14 A2998 RMK AO2 SLP150 T02720139 10317 20272 56003,2025-09-10T00:12:43Z,2025-09-09T20:12:43Z
KLFK,"Lufkin/Angelina Cnty, TX, US",2025-09-10T00:53:00Z,2025-09-09T20:53:00Z,VFR,23.3,14.4,0,0,0,NA,1015.7,METAR KLFK 100053Z AUTO 00000KT 10SM CLR 23/14 A2999 RMK AO2 SLP151 T02330144,2025-09-10T01:11:35Z,2025-09-09T21:11:35Z
KLFT,"Lafayette Rgnl, LA, US",2025-09-09T23:53:00Z,2025-09-09T19:53:00Z,VFR,30,18.9,0,0,0,NA,1014.3,METAR KLFT 092353Z 00000KT 10SM BKN060 30/19 A2995 RMK AO2 SLP141 T03000189 10317 20300 55003,2025-09-10T00:12:43Z,2025-09-09T20:12:43Z
KLFT,"Lafayette Rgnl, LA, US",2025-09-10T00:53:00Z,2025-09-09T20:53:00Z,VFR,26.7,21.7,0,0,0,NA,1014.6,METAR KLFT 100053Z 00000KT 10SM SCT060 27/22 A2996 RMK AO2 LTG DSNT NE SLP145 T02670217,2025-09-10T01:11:35Z,2025-09-09T21:11:35Z
KLGA,"New York/La Guardia Arpt, NY, US",2025-09-09T14:51:00Z,2025-09-09T10:51:00Z,VFR,19.4,10,40,15,0,NA,1027.2,METAR KLGA 091451Z 04015KT 10SM FEW030 SCT250 19/10 A3033 RMK AO2 SLP272 T01940100 53004,2025-09-09T15:51:27Z,2025-09-09T11:51:27Z
KLGA,"New York/La Guardia Arpt, NY, US",2025-09-09T15:51:00Z,2025-09-09T11:51:00Z,VFR,20.6,10,50,13,0,NA,1027.2,METAR KLGA 091551Z 05013KT 10SM FEW028 SCT250 21/10 A3033 RMK AO2 SLP269 T02060100,2025-09-09T16:06:00Z,2025-09-09T12:06:00Z
KLGA,"New York/La Guardia Arpt, NY, US",2025-09-09T16:51:00Z,2025-09-09T12:51:00Z,VFR,21.1,10.6,40,15,0,NA,1026.8,METAR KLGA 091651Z 04015KT 10SM FEW028 SCT250 21/11 A3032 RMK AO2 SLP266 T02110106,2025-09-09T16:54:01Z,2025-09-09T12:54:01Z
KLGA,"New York/La Guardia Arpt, NY, US",2025-09-09T17:51:00Z,2025-09-09T13:51:00Z,VFR,21.1,10.6,40,14,0,NA,1026.5,METAR KLGA 091751Z 04014KT 10SM FEW035 BKN250 21/11 A3031 RMK AO2 SLP263 T02110106 10217 20161 58009,2025-09-09T18:09:19Z,2025-09-09T14:09:19Z
KLGA,"New York/La Guardia Arpt, NY, US",2025-09-09T18:51:00Z,2025-09-09T14:51:00Z,VFR,21.7,11.7,40,14,0,NA,1026.2,METAR KLGA 091851Z 04014KT 10SM SCT050 BKN250 22/12 A3030 RMK AO2 SLP259 T02170117,2025-09-09T19:00:54Z,2025-09-09T15:00:54Z
KLGA,"New York/La Guardia Arpt, NY, US",2025-09-09T19:51:00Z,2025-09-09T15:51:00Z,VFR,22.2,12.8,50,14,0,NA,1025.8,METAR KLGA 091951Z 05014KT 10SM SCT050 BKN250 22/13 A3029 RMK AO2 SLP256 T02220128,2025-09-09T20:10:13Z,2025-09-09T16:10:13Z
KLGA,"New York/La Guardia Arpt, NY, US",2025-09-09T20:51:00Z,2025-09-09T16:51:00Z,VFR,22.2,12.2,40,12,0,NA,1025.1,METAR KLGA 092051Z 04012KT 10SM FEW037 FEW047 SCT055 BKN250 22/12 A3027 RMK AO2 SLP251 T02220122 58012,2025-09-09T20:53:58Z,2025-09-09T16:53:58Z
KLGA,"New York/La Guardia Arpt, NY, US",2025-09-09T21:51:00Z,2025-09-09T17:51:00Z,VFR,21.7,11.1,50,12,0,NA,1025.1,METAR KLGA 092151Z 05012KT 10SM FEW045 BKN250 22/11 A3027 RMK AO2 SLP250 T02170111,2025-09-09T22:00:06Z,2025-09-09T18:00:06Z
KLGA,"New York/La Guardia Arpt, NY, US",2025-09-09T22:51:00Z,2025-09-09T18:51:00Z,VFR,21.1,9.4,70,11,21,NA,1024.8,METAR KLGA 092251Z 07011G21KT 10SM FEW045 SCT060 BKN250 21/09 A3026 RMK AO2 SLP246 T02110094,2025-09-09T22:58:30Z,2025-09-09T18:58:30Z
KLGA,"New York/La Guardia Arpt, NY, US",2025-09-09T23:51:00Z,2025-09-09T19:51:00Z,VFR,20.6,9.4,80,10,0,NA,1024.8,METAR KLGA 092351Z 08010KT 10SM FEW045 SCT060 BKN250 21/09 A3026 RMK AO2 SLP247 T02060094 10222 20206 55004,2025-09-10T00:12:43Z,2025-09-09T20:12:43Z
KLGA,"New York/La Guardia Arpt, NY, US",2025-09-10T00:51:00Z,2025-09-09T20:51:00Z,VFR,20.6,8.9,70,8,0,NA,1025.1,METAR KLGA 100051Z 07008KT 10SM BKN060 BKN250 21/09 A3027 RMK AO2 SLP249 T02060089 $,2025-09-10T01:11:35Z,2025-09-09T21:11:35Z
KLGB,"Long Beach Arpt, CA, US",2025-09-09T15:01:00Z,2025-09-09T11:01:00Z,MVFR,20,17.2,160,4,0,NA,1014,SPECI KLGB 091501Z 16004KT 10SM BKN018 20/17 A2994 RMK AO2 T02000172,2025-09-09T15:51:32Z,2025-09-09T11:51:32Z
KLGB,"Long Beach Arpt, CA, US",2025-09-09T15:53:00Z,2025-09-09T11:53:00Z,MVFR,20.6,16.1,190,4,0,NA,1014.3,METAR KLGB 091553Z 19004KT 10SM OVC018 21/16 A2995 RMK AO2 SLP142 T02060161,2025-09-09T16:06:05Z,2025-09-09T12:06:05Z
KLGB,"Long Beach Arpt, CA, US",2025-09-09T16:53:00Z,2025-09-09T12:53:00Z,MVFR,21.7,16.1,200,5,0,NA,1014.6,METAR KLGB 091653Z 20005KT 10SM OVC021 22/16 A2996 RMK AO2 SLP144 T02170161,2025-09-09T17:12:57Z,2025-09-09T13:12:57Z
KLGB,"Long Beach Arpt, CA, US",2025-09-09T17:53:00Z,2025-09-09T13:53:00Z,VFR,22.2,15.6,200,4,0,NA,1014,METAR KLGB 091753Z COR 10SM 20004KT FEW022 22/16 A2994 RMK AO2 SLP139 T02220156 10222 20189 50002,2025-09-09T18:09:23Z,2025-09-09T14:09:23Z
KLGB,"Long Beach Arpt, CA, US",2025-09-09T18:53:00Z,2025-09-09T14:53:00Z,VFR,23.3,15,VAR,6,0,NA,1013.6,METAR KLGB 091853Z VRB06KT 10SM CLR 23/15 A2993 RMK AO2 SLP134 T02330150,2025-09-09T19:00:59Z,2025-09-09T15:00:59Z
KLGB,"Long Beach Arpt, CA, US",2025-09-09T19:53:00Z,2025-09-09T15:53:00Z,VFR,23.9,15,210,6,0,NA,1013,METAR KLGB 091953Z 21006KT 10SM CLR 24/15 A2991 RMK AO2 SLP128 T02390150,2025-09-09T20:10:19Z,2025-09-09T16:10:19Z
KLGB,"Long Beach Arpt, CA, US",2025-09-09T20:53:00Z,2025-09-09T16:53:00Z,VFR,24.4,15.6,170,6,0,NA,1012.3,METAR KLGB 092053Z 17006KT 10SM CLR 24/16 A2989 RMK AO2 SLP121 T02440156 58018,2025-09-09T21:12:46Z,2025-09-09T17:12:46Z
KLGB,"Long Beach Arpt, CA, US",2025-09-09T21:53:00Z,2025-09-09T17:53:00Z,VFR,25.6,15.6,180,8,0,NA,1011.6,METAR KLGB 092153Z 18008KT 10SM CLR 26/16 A2987 RMK AO2 SLP113 T02560156,2025-09-09T22:00:15Z,2025-09-09T18:00:15Z
KLGB,"Long Beach Arpt, CA, US",2025-09-09T22:53:00Z,2025-09-09T18:53:00Z,VFR,25,15,200,7,0,NA,1010.6,METAR KLGB 092253Z 20007KT 10SM CLR 25/15 A2984 RMK AO2 SLP105 T02500150,2025-09-09T22:58:34Z,2025-09-09T18:58:34Z
KLGB,"Long Beach Arpt, CA, US",2025-09-09T23:53:00Z,2025-09-09T19:53:00Z,VFR,25,16.1,210,8,0,NA,1010.2,METAR KLGB 092353Z 21008KT 10SM CLR 25/16 A2983 RMK AO2 SLP100 T02500161 10256 20222 56021,2025-09-10T00:12:43Z,2025-09-09T20:12:43Z
KLGB,"Long Beach Arpt, CA, US",2025-09-10T00:53:00Z,2025-09-09T20:53:00Z,VFR,25,16.1,290,8,0,NA,1010.2,METAR KLGB 100053Z 29008KT 10SM CLR 25/16 A2983 RMK AO2 SLP100 T02500161,2025-09-10T01:11:35Z,2025-09-09T21:11:35Z
KLGU,"Logan/Cache Arpt, UT, US",2025-09-09T23:51:00Z,2025-09-09T19:51:00Z,VFR,28.9,3.9,210,6,0,NA,1011.3,METAR KLGU 092351Z AUTO 21006KT 10SM CLR 29/04 A2986 RMK AO2 SLP053 6//// T02890039 10306 20244 56014,2025-09-10T00:12:43Z,2025-09-09T20:12:43Z
KLGU,"Logan/Cache Arpt, UT, US",2025-09-10T00:51:00Z,2025-09-09T20:51:00Z,VFR,26.7,5,0,0,0,NA,1011.3,METAR KLGU 100051Z AUTO 00000KT 10SM CLR 27/05 A2986 RMK AO2 SLP055 T02670050,2025-09-10T01:11:35Z,2025-09-09T21:11:35Z
KLIT,"Little Rock/Clinton Natl, AR, US",2025-09-09T14:53:00Z,2025-09-09T10:53:00Z,VFR,20,11.7,0,0,0,NA,1019.7,METAR KLIT 091453Z 00000KT 10SM SCT160 20/12 A3011 RMK AO2 SLP196 T02000117 51006,2025-09-09T15:51:29Z,2025-09-09T11:51:29Z
KLIT,"Little Rock/Clinton Natl, AR, US",2025-09-09T15:53:00Z,2025-09-09T11:53:00Z,VFR,22.2,12.8,0,0,0,NA,1019.7,METAR KLIT 091553Z 00000KT 10SM FEW160 22/13 A3011 RMK AO2 SLP197 T02220128,2025-09-09T16:06:02Z,2025-09-09T12:06:02Z
KLIT,"Little Rock/Clinton Natl, AR, US",2025-09-09T16:53:00Z,2025-09-09T12:53:00Z,VFR,25,13.9,330,3,0,NA,1019.4,METAR KLIT 091653Z 33003KT 10SM CLR 25/14 A3010 RMK AO2 SLP194 T02500139,2025-09-09T17:12:51Z,2025-09-09T13:12:51Z
KLIT,"Little Rock/Clinton Natl, AR, US",2025-09-09T17:53:00Z,2025-09-09T13:53:00Z,VFR,26.7,14.4,150,5,0,NA,1019,METAR KLIT 091753Z 15005KT 10SM FEW250 27/14 A3009 RMK AO2 SLP188 T02670144 10267 20139 58008,2025-09-09T18:09:20Z,2025-09-09T14:09:20Z
KLIT,"Little Rock/Clinton Natl, AR, US",2025-09-09T18:53:00Z,2025-09-09T14:53:00Z,VFR,27.2,13.3,110,6,0,NA,1018,METAR KLIT 091853Z 11006KT 10SM FEW250 27/13 A3006 RMK AO2 SLP180 T02720133,2025-09-09T19:00:56Z,2025-09-09T15:00:56Z
KLIT,"Little Rock/Clinton Natl, AR, US",2025-09-09T19:53:00Z,2025-09-09T15:53:00Z,VFR,27.8,12.8,0,0,0,NA,1017.7,METAR KLIT 091953Z 00000KT 10SM FEW250 28/13 A3005 RMK AO2 SLP175 T02780128 $,2025-09-09T20:10:15Z,2025-09-09T16:10:15Z
KLIT,"Little Rock/Clinton Natl, AR, US",2025-09-09T20:53:00Z,2025-09-09T16:53:00Z,VFR,28.9,11.7,VAR,5,0,NA,1017.4,METAR KLIT 092053Z VRB05KT 10SM FEW250 29/12 A3004 RMK AO2 SLP174 T02890117 $,2025-09-09T21:12:42Z,2025-09-09T17:12:42Z
KLIT,"Little Rock/Clinton Natl, AR, US",2025-09-09T21:53:00Z,2025-09-09T17:53:00Z,VFR,28.3,12.8,160,4,0,NA,1017,METAR KLIT 092153Z 16004KT 10SM FEW250 28/13 A3003 RMK AO2 SLP168 T02830128 $,2025-09-09T22:00:08Z,2025-09-09T18:00:08Z
KLIT,"Little Rock/Clinton Natl, AR, US",2025-09-09T22:53:00Z,2025-09-09T18:53:00Z,VFR,28.3,12.8,VAR,3,0,NA,1016,METAR KLIT 092253Z VRB03KT 10SM FEW250 28/13 A3000 RMK AO2 SLP160 T02830128 $,2025-09-09T22:58:31Z,2025-09-09T18:58:31Z
KLIT,"Little Rock/Clinton Natl, AR, US",2025-09-09T23:53:00Z,2025-09-09T19:53:00Z,VFR,27.2,13.9,0,0,0,NA,1016,METAR KLIT 092353Z 00000KT 10SM FEW250 27/14 A3000 RMK AO2 SLP159 T02720139 10289 20261 56015 $,2025-09-10T00:12:43Z,2025-09-09T20:12:43Z
KLIT,"Little Rock/Clinton Natl, AR, US",2025-09-10T00:53:00Z,2025-09-09T20:53:00Z,VFR,23.9,16.1,0,0,0,NA,1016,METAR KLIT 100053Z 00000KT 10SM FEW250 24/16 A3000 RMK AO2 SLP158 T02390161 $,2025-09-10T01:11:35Z,2025-09-09T21:11:35Z
KLLQ,"Monticello/Ellis Fld, AR, US",2025-09-09T23:53:00Z,2025-09-09T19:53:00Z,VFR,28.9,15.6,0,0,0,NA,1015.3,METAR KLLQ 092353Z AUTO 00000KT 10SM CLR 29/16 A2998 RMK AO2 SLP150 T02890156 10333 20289 56006,2025-09-10T00:12:43Z,2025-09-09T20:12:43Z
KLLQ,"Monticello/Ellis Fld, AR, US",2025-09-10T00:53:00Z,2025-09-09T20:53:00Z,VFR,26.1,15.6,0,0,0,NA,1015.3,METAR KLLQ 100053Z AUTO 00000KT 10SM CLR 26/16 A2998 RMK AO2 SLP150 T02610156,2025-09-10T01:11:35Z,2025-09-09T21:11:35Z
KLMT,"Klamath Falls Intl, OR, US",2025-09-09T23:53:00Z,2025-09-09T19:53:00Z,VFR,16.7,8.9,270,7,0,NA,1014.3,METAR KLMT 092353Z 27007KT 10SM -RA SCT050 BKN075 OVC095 17/09 A2995 RMK AO2 RAB44 SLP115 P0000 60001 T01670089 10178 20144 56011,2025-09-10T00:12:43Z,2025-09-09T20:12:43Z
KLMT,"Klamath Falls Intl, OR, US",2025-09-10T00:53:00Z,2025-09-09T20:53:00Z,VFR,16.1,9.4,280,8,0,NA,1014,METAR KLMT 100053Z 28008KT 10SM FEW060 BKN085 16/09 A2994 RMK AO2 RAE02 SLP113 P0000 T01610094,2025-09-10T01:11:35Z,2025-09-09T21:11:35Z
KLND,"Lander/Hunt Fld, WY, US",2025-09-09T23:53:00Z,2025-09-09T19:53:00Z,VFR,23.9,6.1,290,5,0,NA,1015,METAR KLND 092353Z AUTO 29005KT 10SM CLR 24/06 A2997 RMK AO2 SLP082 60001 T02390061 10244 20206 56012,2025-09-10T00:12:43Z,2025-09-09T20:12:43Z
KLND,"Lander/Hunt Fld, WY, US",2025-09-10T00:53:00Z,2025-09-09T20:53:00Z,VFR,23.3,6.1,280,4,0,NA,1015,METAR KLND 100053Z AUTO 28004KT 10SM CLR 23/06 A2997 RMK AO2 LTG DSNT NE SLP084 T02330061,2025-09-10T01:11:35Z,2025-09-09T21:11:35Z
KLNK,"Lincoln Arpt, NE, US",2025-09-09T14:54:00Z,2025-09-09T10:54:00Z,VFR,20.6,16.1,190,7,0,NA,1016,METAR KLNK 091454Z 19007KT 10SM FEW020 21/16 A3000 RMK AO2 SLP151 T02060161 53003,2025-09-09T15:51:29Z,2025-09-09T11:51:29Z
KLNK,"Lincoln Arpt, NE, US",2025-09-09T15:54:00Z,2025-09-09T11:54:00Z,VFR,21.7,15.6,210,10,0,NA,1016.3,METAR KLNK 091554Z 21010KT 10SM BKN034 OVC050 22/16 A3001 RMK AO2 SLP156 T02170156,2025-09-09T16:06:01Z,2025-09-09T12:06:01Z
KLNK,"Lincoln Arpt, NE, US",2025-09-09T16:32:00Z,2025-09-09T12:32:00Z,MVFR,21.1,15,200,10,0,NA,1016.3,SPECI KLNK 091632Z 20010KT 10SM OVC029 21/15 A3001 RMK AO2 T02110150,2025-09-09T16:36:27Z,2025-09-09T12:36:27Z
KLNK,"Lincoln Arpt, NE, US",2025-09-09T16:47:00Z,2025-09-09T12:47:00Z,VFR,22.2,15.6,190,7,0,NA,1016,SPECI KLNK 091647Z 19007KT 10SM SCT029 BKN034 OVC041 22/16 A3000 RMK AO2 T02220156,2025-09-09T16:54:03Z,2025-09-09T12:54:03Z
KLNK,"Lincoln Arpt, NE, US",2025-09-09T17:10:00Z,2025-09-09T13:10:00Z,MVFR,22.8,16.1,210,10,0,NA,1016,SPECI KLNK 091710Z 21010KT 10SM BKN029 OVC041 23/16 A3000 RMK AO2 T02280161,2025-09-09T17:12:51Z,2025-09-09T13:12:51Z
KLNK,"Lincoln Arpt, NE, US",2025-09-09T17:36:00Z,2025-09-09T13:36:00Z,VFR,22.8,16.1,190,9,0,NA,1015.7,SPECI KLNK 091736Z 19009KT 10SM SCT029 BKN040 23/16 A2999 RMK AO2 T02280161,2025-09-09T17:41:37Z,2025-09-09T13:41:37Z
KLNK,"Lincoln Arpt, NE, US",2025-09-09T17:54:00Z,2025-09-09T13:54:00Z,MVFR,22.8,15.6,220,9,0,NA,1015.7,METAR KLNK 091754Z 22009KT 10SM BKN028 OVC040 23/16 A2999 RMK AO2 SLP148 T02280156 10233 20172 56007,2025-09-09T18:09:20Z,2025-09-09T14:09:20Z
KLNK,"Lincoln Arpt, NE, US",2025-09-09T18:28:00Z,2025-09-09T14:28:00Z,MVFR,23.9,16.7,190,8,0,NA,1015.7,SPECI KLNK 091828Z 19008KT 10SM OVC029 24/17 A2999 RMK AO2 T02390167,2025-09-09T18:38:56Z,2025-09-09T14:38:56Z
KLNK,"Lincoln Arpt, NE, US",2025-09-09T18:41:00Z,2025-09-09T14:41:00Z,MVFR,23.3,16.1,VAR,6,0,NA,1015.3,SPECI KLNK 091841Z VRB06KT 10SM BKN030 BKN038 23/16 A2998 RMK AO2 T02330161,2025-09-09T18:50:46Z,2025-09-09T14:50:46Z
KLNK,"Lincoln Arpt, NE, US",2025-09-09T18:54:00Z,2025-09-09T14:54:00Z,VFR,24.4,17.2,190,8,0,NA,1015.3,METAR KLNK 091854Z 19008KT 10SM SCT030 SCT037 24/17 A2998 RMK AO2 SLP143 T02440172,2025-09-09T19:00:56Z,2025-09-09T15:00:56Z
KLNK,"Lincoln Arpt, NE, US",2025-09-09T19:54:00Z,2025-09-09T15:54:00Z,VFR,25,17.2,VAR,6,0,NA,1015,METAR KLNK 091954Z AUTO VRB06KT 10SM SCT032 25/17 A2997 RMK AO2 SLP139 T02500172,2025-09-09T20:10:15Z,2025-09-09T16:10:15Z
KLNK,"Lincoln Arpt, NE, US",2025-09-09T20:54:00Z,2025-09-09T16:54:00Z,VFR,25,17.2,180,8,0,NA,1014.6,METAR KLNK 092054Z 18008KT 10SM CLR 25/17 A2996 RMK AO2 SLP136 T02500172 56011,2025-09-09T21:12:42Z,2025-09-09T17:12:42Z
KLNK,"Lincoln Arpt, NE, US",2025-09-09T21:54:00Z,2025-09-09T17:54:00Z,VFR,25,17.2,VAR,4,0,NA,1014.6,METAR KLNK 092154Z VRB04KT 10SM SCT036 25/17 A2996 RMK AO2 SLP135 T02500172,2025-09-09T22:00:08Z,2025-09-09T18:00:08Z
KLNK,"Lincoln Arpt, NE, US",2025-09-09T22:54:00Z,2025-09-09T18:54:00Z,VFR,25.6,17.8,190,7,0,NA,1014.6,METAR KLNK 092254Z 19007KT 10SM CLR 26/18 A2996 RMK AO2 SLP136 T02560178,2025-09-09T22:58:31Z,2025-09-09T18:58:31Z
KLNK,"Lincoln Arpt, NE, US",2025-09-09T23:54:00Z,2025-09-09T19:54:00Z,VFR,25,17.8,190,6,0,NA,1014.6,METAR KLNK 092354Z 19006KT 10SM BKN040 25/18 A2996 RMK AO2 SLP135 T02500178 10261 20228 56001,2025-09-10T00:12:42Z,2025-09-09T20:12:42Z
KLNK,"Lincoln Arpt, NE, US",2025-09-10T00:54:00Z,2025-09-09T20:54:00Z,VFR,22.2,17.2,180,5,0,NA,1014.3,METAR KLNK 100054Z 18005KT 10SM FEW040 22/17 A2995 RMK AO2 SLP134 T02220172,2025-09-10T01:11:35Z,2025-09-09T21:11:35Z
KLNS,"Lancaster Arpt, PA, US",2025-09-09T23:53:00Z,2025-09-09T19:53:00Z,VFR,16.7,11.1,90,5,0,NA,1023.8,METAR KLNS 092353Z COR 09005KT 10SM CLR 17/11 A3023 RMK AO2 SLP238 T01670111 10233 20167 55001 $,2025-09-10T00:12:42Z,2025-09-09T20:12:42Z
KLNS,"Lancaster Arpt, PA, US",2025-09-10T00:53:00Z,2025-09-09T20:53:00Z,VFR,16.1,11.7,90,4,0,NA,1024.5,METAR KLNS 100053Z 09004KT 10SM CLR 16/12 A3025 RMK AO2 SLP242 T01610117 $,2025-09-10T01:11:35Z,2025-09-09T21:11:35Z
KLOL,"Lovelock/Derby Fld, NV, US",2025-09-09T23:53:00Z,2025-09-09T19:53:00Z,VFR,25.6,0,0,0,0,NA,1010.6,METAR KLOL 092353Z AUTO 00000KT 10SM CLR 26/00 A2984 RMK AO2 SLP074 T02560000 10267 20217 56022,2025-09-10T00:12:43Z,2025-09-09T20:12:43Z
KLOL,"Lovelock/Derby Fld, NV, US",2025-09-10T00:53:00Z,2025-09-09T20:53:00Z,VFR,25,-0.6,150,6,0,NA,1009.9,METAR KLOL 100053Z AUTO 15006KT 10SM CLR 25/M01 A2982 RMK AO2 SLP071 T02501006,2025-09-10T01:11:35Z,2025-09-09T21:11:35Z
KLOU,"Louisville/Bowman Fld, KY, US",2025-09-09T23:53:00Z,2025-09-09T19:53:00Z,VFR,22.2,10,0,0,0,NA,1019,METAR KLOU 092353Z 00000KT 10SM CLR 22/10 A3009 RMK AO2 SLP188 T02220100 10267 20222 56007,2025-09-10T00:12:43Z,2025-09-09T20:12:43Z
KLOU,"Louisville/Bowman Fld, KY, US",2025-09-10T00:53:00Z,2025-09-09T20:53:00Z,VFR,19.4,10.6,50,3,0,NA,1019,METAR KLOU 100053Z 05003KT 10SM CLR 19/11 A3009 RMK AO2 SLP187 T01940106,2025-09-10T01:11:35Z,2025-09-09T21:11:35Z
KLOZ,"London-Corbin Arpt, KY, US",2025-09-09T23:53:00Z,2025-09-09T19:53:00Z,VFR,21.1,12.8,0,0,0,NA,1020.4,METAR KLOZ 092353Z AUTO 00000KT 10SM CLR 21/13 A3013 RMK AO2 SLP198 T02110128 10250 20211 56004,2025-09-10T00:12:43Z,2025-09-09T20:12:43Z
KLOZ,"London-Corbin Arpt, KY, US",2025-09-10T00:53:00Z,2025-09-09T20:53:00Z,VFR,18.3,13.9,0,0,0,NA,1020.7,METAR KLOZ 100053Z AUTO 00000KT 10SM CLR 18/14 A3014 RMK AO2 SLP199 T01830139,2025-09-10T01:11:35Z,2025-09-09T21:11:35Z
KLRD,"Laredo Intl, TX, US",2025-09-09T14:56:00Z,2025-09-09T10:56:00Z,VFR,27.2,21.7,100,6,0,NA,1016.7,METAR KLRD 091456Z 10006KT 10SM CLR 27/22 A3002 RMK AO2 SLP161 T02720217 51010 $,2025-09-09T15:51:30Z,2025-09-09T11:51:30Z
KLRD,"Laredo Intl, TX, US",2025-09-09T15:56:00Z,2025-09-09T11:56:00Z,VFR,30,20.6,90,7,0,NA,1016.7,METAR KLRD 091556Z 09007KT 10SM CLR 30/21 A3002 RMK AO2 SLP162 T03000206 $,2025-09-09T16:06:03Z,2025-09-09T12:06:03Z
KLRD,"Laredo Intl, TX, US",2025-09-09T16:56:00Z,2025-09-09T12:56:00Z,VFR,30.6,20,VAR,3,0,NA,1016.7,METAR KLRD 091656Z VRB03KT 10SM FEW043 SCT050 31/20 A3002 RMK AO2 SLP161 T03060200 $,2025-09-09T17:12:54Z,2025-09-09T13:12:54Z
KLRD,"Laredo Intl, TX, US",2025-09-09T17:56:00Z,2025-09-09T13:56:00Z,VFR,31.7,18.9,VAR,4,0,NA,1016,METAR KLRD 091756Z VRB04KT 10SM CLR 32/19 A3000 RMK AO2 SLP155 T03170189 10322 20233 58005 $,2025-09-09T18:09:21Z,2025-09-09T14:09:21Z
KLRD,"Laredo Intl, TX, US",2025-09-09T18:56:00Z,2025-09-09T14:56:00Z,VFR,33.3,18.9,0,0,0,NA,1015.3,METAR KLRD 091856Z 00000KT 10SM BKN065 33/19 A2998 RMK AO2 SLP148 T03330189 $,2025-09-09T19:00:57Z,2025-09-09T15:00:57Z
KLRD,"Laredo Intl, TX, US",2025-09-09T19:56:00Z,2025-09-09T15:56:00Z,VFR,35,18.3,140,9,0,NA,1014.6,METAR KLRD 091956Z 14009KT 10SM OVC060 35/18 A2996 RMK AO2 SLP139 T03500183 $,2025-09-09T20:10:18Z,2025-09-09T16:10:18Z
KLRD,"Laredo Intl, TX, US",2025-09-09T20:56:00Z,2025-09-09T16:56:00Z,VFR,33.9,17.8,50,4,0,NA,1014,METAR KLRD 092056Z 05004KT 10SM OVC070 34/18 A2994 RMK AO2 SLP133 T03390178 56021 $,2025-09-09T21:12:45Z,2025-09-09T17:12:45Z
KLRD,"Laredo Intl, TX, US",2025-09-09T21:56:00Z,2025-09-09T17:56:00Z,VFR,35,17.2,100,4,0,NA,1013.3,METAR KLRD 092156Z 10004KT 10SM OVC085 35/17 A2992 RMK AO2 SLP127 T03500172 $,2025-09-09T22:00:10Z,2025-09-09T18:00:10Z
KLRD,"Laredo Intl, TX, US",2025-09-09T22:56:00Z,2025-09-09T18:56:00Z,VFR,35,17.2,110,5,0,NA,1013,METAR KLRD 092256Z 11005KT 10SM CLR 35/17 A2991 RMK AO2 SLP124 T03500172 $,2025-09-09T22:58:33Z,2025-09-09T18:58:33Z
KLRD,"Laredo Intl, TX, US",2025-09-09T23:56:00Z,2025-09-09T19:56:00Z,VFR,33.9,16.7,0,0,0,NA,1013,METAR KLRD 092356Z 00000KT 10SM CLR 34/17 A2991 RMK AO2 SLP123 T03390167 10356 20311 56010 $,2025-09-10T00:12:42Z,2025-09-09T20:12:42Z
KLRD,"Laredo Intl, TX, US",2025-09-10T00:56:00Z,2025-09-09T20:56:00Z,VFR,32.2,17.2,80,5,0,NA,1013.3,METAR KLRD 100056Z 08005KT 10SM CLR 32/17 A2992 RMK AO2 SLP127 T03220172 $,2025-09-10T01:11:35Z,2025-09-09T21:11:35Z
KLRF,"Little Rock AFB, AR, US",2025-09-09T23:55:00Z,2025-09-09T19:55:00Z,VFR,25.8,16.6,0,0,0,NA,1016,METAR KLRF 092355Z AUTO 00000KT 10SM CLR 26/17 A3000 RMK AO2 SLP160 T02580166 10289 20258 56014,2025-09-10T00:12:42Z,2025-09-09T20:12:42Z
KLRF,"Little Rock AFB, AR, US",2025-09-10T00:55:00Z,2025-09-09T20:55:00Z,VFR,20.1,16.9,0,0,0,NA,1016,METAR KLRF 100055Z AUTO 00000KT 10SM CLR 20/17 A3000 RMK AO2 SLP161 T02010169,2025-09-10T01:11:35Z,2025-09-09T21:11:35Z
KLRU,"Las Cruces Intl, NM, US",2025-09-09T23:55:00Z,2025-09-09T19:55:00Z,VFR,33.8,5.5,180,7,0,NA,1016.3,METAR KLRU 092355Z AUTO 18007KT 10SM CLR 34/06 A3001 RMK AO2 T03380055 10354 20301,2025-09-10T00:12:42Z,2025-09-09T20:12:42Z
KLRU,"Las Cruces Intl, NM, US",2025-09-10T00:15:00Z,2025-09-09T20:15:00Z,VFR,33.6,4.7,180,3,0,NA,1016.3,METAR KLRU 100015Z AUTO 18003KT 10SM CLR 34/05 A3001 RMK AO2 T03360047,2025-09-10T00:33:24Z,2025-09-09T20:33:24Z
KLRU,"Las Cruces Intl, NM, US",2025-09-10T00:55:00Z,2025-09-09T20:55:00Z,VFR,32.1,4,190,6,0,NA,1016.3,METAR KLRU 100055Z AUTO 19006KT 10SM CLR 32/04 A3001 RMK AO2 T03210040,2025-09-10T01:11:35Z,2025-09-09T21:11:35Z
KLSE,"La Crosse Muni, WI, US",2025-09-09T23:53:00Z,2025-09-09T19:53:00Z,MVFR,20.6,14.4,90,3,0,3,1016.3,METAR KLSE 092353Z 09003KT 3SM -RA FEW047 OVC070 21/14 A3001 RMK AO2 RAB44 SLP157 P0003 60003 T02060144 10267 20206 53006,2025-09-10T00:12:43Z,2025-09-09T20:12:43Z
KLSE,"La Crosse Muni, WI, US",2025-09-10T00:53:00Z,2025-09-09T20:53:00Z,VFR,18.3,16.1,0,0,0,6,1016.3,METAR KLSE 100053Z 00000KT 6SM RA BR SCT060 BKN085 OVC110 18/16 A3001 RMK AO2 RAE14B38 SLP158 P0001 T01830161,2025-09-10T01:11:35Z,2025-09-09T21:11:35Z
KLSF,"Fort Benning/Lawson AAF, GA, US",2025-09-09T22:55:00Z,2025-09-09T18:55:00Z,VFR,28.6,14.8,70,6,0,NA,1016,METAR KLSF 092255Z AUTO 07006KT 10SM CLR 29/15 A3000 RMK AO2 SLP162 T02860148 $,2025-09-10T00:12:43Z,2025-09-09T20:12:43Z
KLSF,"Fort Benning/Lawson AAF, GA, US",2025-09-10T00:55:00Z,2025-09-09T20:55:00Z,VFR,25.1,15.4,60,3,0,NA,1017,METAR KLSF 100055Z AUTO 06003KT 10SM CLR 25/15 A3003 RMK AO2 SLP172 T02510154 $,2025-09-10T01:11:35Z,2025-09-09T21:11:35Z
KLSV,"Nellis AFB, NV, US",2025-09-09T23:55:00Z,2025-09-09T19:55:00Z,VFR,36.3,-12.2,220,15,22,NA,1004.5,METAR KLSV 092355Z 22015G22KT 10SM CLR 36/M12 A2966 RMK AO2A SLP013 T03631122 10375 20341 57020 $,2025-09-10T00:12:42Z,2025-09-09T20:12:42Z
KLSV,"Nellis AFB, NV, US",2025-09-10T00:55:00Z,2025-09-09T20:55:00Z,VFR,35.5,-9.9,230,13,0,NA,1004.1,METAR KLSV 100055Z 23013KT 10SM CLR 36/M10 A2965 RMK AO2A SLP010 T03551099 $,2025-09-10T01:11:35Z,2025-09-09T21:11:35Z
KLTS,"Altus AFB, OK, US",2025-09-09T23:55:00Z,2025-09-09T19:55:00Z,VFR,31.8,13,160,13,0,NA,1012.3,METAR KLTS 092355Z AUTO 16013KT 10SM CLR 32/13 A2989 RMK AO2 SLP106 T03180130 10346 20308 57010 $,2025-09-10T00:12:42Z,2025-09-09T20:12:42Z
KLTS,"Altus AFB, OK, US",2025-09-10T00:55:00Z,2025-09-09T20:55:00Z,VFR,28.8,12.6,150,11,0,NA,1013,METAR KLTS 100055Z AUTO 15011KT 10SM CLR 29/13 A2991 RMK AO2 SLP115 T02880126 $,2025-09-10T01:11:35Z,2025-09-09T21:11:35Z
KLUF,"Phoenix/Luke AFB, AZ, US",2025-09-09T23:55:00Z,2025-09-09T19:55:00Z,VFR,40.2,9.5,240,13,0,NA,1005.5,METAR KLUF 092355Z 24013KT 10SM FEW100 40/10 A2969 RMK AO2A SLP036 T04020095 10412 20366 57021,2025-09-10T00:12:42Z,2025-09-09T20:12:42Z
KLUF,"Phoenix/Luke AFB, AZ, US",2025-09-10T00:55:00Z,2025-09-09T20:55:00Z,VFR,39.7,10,230,9,0,NA,1005.2,METAR KLUF 100055Z AUTO 23009KT 10SM CLR 40/10 A2968 RMK AO2 SLP033 T03970100,2025-09-10T01:11:35Z,2025-09-09T21:11:35Z
KLUK,"Cincinnati/Lunken Fld, OH, US",2025-09-09T23:53:00Z,2025-09-09T19:53:00Z,VFR,18.9,11.7,0,0,0,NA,1019.7,METAR KLUK 092353Z 00000KT 10SM CLR 19/12 A3011 RMK AO2 SLP196 T01890117 10267 20189 55005,2025-09-10T00:12:43Z,2025-09-09T20:12:43Z
KLUK,"Cincinnati/Lunken Fld, OH, US",2025-09-10T00:53:00Z,2025-09-09T20:53:00Z,VFR,16.1,10.6,0,0,0,NA,1020.1,METAR KLUK 100053Z 00000KT 10SM CLR 16/11 A3012 RMK AO2 SLP199 T01610106,2025-09-10T01:11:35Z,2025-09-09T21:11:35Z
KLVM,"Livingston/Mission Fld, MT, US",2025-09-09T23:53:00Z,2025-09-09T19:53:00Z,NA,25.6,3.3,VAR,NA,0,NA,1013.3,METAR KLVM 092353Z AUTO 26/03 A2992 RMK AO2 LTG DSNT S SLP100 T02560033 10283 20217 56016 PWINO $,2025-09-10T00:12:43Z,2025-09-09T20:12:43Z
KLVM,"Livingston/Mission Fld, MT, US",2025-09-10T00:53:00Z,2025-09-09T20:53:00Z,NA,NA,NA,VAR,NA,0,NA,1013.3,METAR KLVM 100053Z AUTO A2992 RMK AO2 LTG DSNT S AND SW SLPNO PWINO FZRANO $,2025-09-10T01:11:35Z,2025-09-09T21:11:35Z
KLVS,"Las Vegas Muni, NM, US",2025-09-09T23:53:00Z,2025-09-09T19:53:00Z,VFR,25.6,6.7,160,11,0,NA,1021.8,METAR KLVS 092353Z AUTO 16011KT 10SM CLR 26/07 A3017 RMK AO2 SLP111 60004 T02560067 10267 20189 56011,2025-09-10T00:12:43Z,2025-09-09T20:12:43Z
KLVS,"Las Vegas Muni, NM, US",2025-09-10T00:53:00Z,2025-09-09T20:53:00Z,VFR,20,8.3,150,11,0,NA,1021.8,METAR KLVS 100053Z AUTO 15011KT 10SM CLR 20/08 A3017 RMK AO2 LTG DSNT S SLP126 T02000083,2025-09-10T01:11:35Z,2025-09-09T21:11:35Z
KLWB,"Lewisburg/Greenbrier Valley Arpt, WV, US",2025-09-09T22:51:00Z,2025-09-09T18:51:00Z,VFR,20,7,130,4,0,NA,1023.1,METAR KLWB 092251Z 13004KT 10SM CLR 20/07 A3021,2025-09-10T00:12:43Z,2025-09-09T20:12:43Z
KLWM,"Lawrence Muni, MA, US",2025-09-09T23:54:00Z,2025-09-09T19:54:00Z,VFR,16.1,11.1,80,4,0,NA,1028.5,METAR KLWM 092354Z 08004KT 10SM CLR 16/11 A3037 RMK AO2 SLP283 T01610111 10211 20161 53001,2025-09-10T00:12:42Z,2025-09-09T20:12:42Z
KLWM,"Lawrence Muni, MA, US",2025-09-10T00:54:00Z,2025-09-09T20:54:00Z,VFR,15.6,11.1,80,4,0,NA,1028.2,METAR KLWM 100054Z 08004KT 10SM CLR 16/11 A3036 RMK AO2 SLP282 T01560111,2025-09-10T01:11:35Z,2025-09-09T21:11:35Z
KLWS,"Lewiston/Nez Perce Cnty, ID, US",2025-09-09T23:56:00Z,2025-09-09T19:56:00Z,VFR,28.3,9.4,0,0,0,NA,1007.5,METAR KLWS 092356Z 00000KT 10SM CLR 28/09 A2975 RMK AO2 SLP065 T02830094 10289 20233 56022 $,2025-09-10T00:12:42Z,2025-09-09T20:12:42Z
KLWS,"Lewiston/Nez Perce Cnty, ID, US",2025-09-10T00:56:00Z,2025-09-09T20:56:00Z,VFR,27.8,9.4,0,0,0,NA,1007.2,METAR KLWS 100056Z 00000KT 10SM CLR 28/09 A2974 RMK AO2 SLP063 T02780094 $,2025-09-10T01:11:35Z,2025-09-09T21:11:35Z
KLWT,"Lewistown Muni, MT, US",2025-09-09T23:54:00Z,2025-09-09T19:54:00Z,VFR,23.9,5.6,280,6,0,NA,1014.3,METAR KLWT 092354Z AUTO 28006KT 10SM BKN100 24/06 A2995 RMK AO2 LTG DSNT N SLP114 T02390056 10289 20239 55003,2025-09-10T00:12:42Z,2025-09-09T20:12:42Z
KLWT,"Lewistown Muni, MT, US",2025-09-10T00:54:00Z,2025-09-09T20:54:00Z,VFR,21.1,9.4,360,7,0,NA,1014.3,METAR KLWT 100054Z AUTO 36007KT 10SM FEW070 OVC100 21/09 A2995 RMK AO2 LTG DSNT N RAB08E49 SLP121 P0004 T02110094,2025-09-10T01:11:35Z,2025-09-09T21:11:35Z
KLYH,"Lynchburg/Glenn Fld, VA, US",2025-09-09T23:54:00Z,2025-09-09T19:54:00Z,VFR,16.7,10,0,0,0,NA,1022.1,METAR KLYH 092354Z 00000KT 10SM CLR 17/10 A3018 RMK AO2 SLP218 T01670100 10239 20167 55001,2025-09-10T00:12:42Z,2025-09-09T20:12:42Z
KLYH,"Lynchburg/Glenn Fld, VA, US",2025-09-10T00:54:00Z,2025-09-09T20:54:00Z,VFR,15.6,10,350,3,0,NA,1022.8,METAR KLYH 100054Z 35003KT 10SM CLR 16/10 A3020 RMK AO2 SLP222 T01560100,2025-09-10T01:11:35Z,2025-09-09T21:11:35Z
KMAF,"Midland Intl, TX, US",2025-09-09T23:53:00Z,2025-09-09T19:53:00Z,VFR,33.3,14.4,170,16,0,9,1015.3,METAR KMAF 092353Z 17016KT 9SM CLR 33/14 A2998 RMK AO2 SLP103 T03330144 10350 20300 56005 $,2025-09-10T00:12:43Z,2025-09-09T20:12:43Z
KMAF,"Midland Intl, TX, US",2025-09-10T00:53:00Z,2025-09-09T20:53:00Z,VFR,31.1,15.6,180,17,0,9,1015.3,METAR KMAF 100053Z 18017KT 9SM CLR 31/16 A2998 RMK AO2 SLP106 T03110156 $,2025-09-10T01:11:35Z,2025-09-09T21:11:35Z
KMBG,"Mobridge Muni, SD, US",2025-09-09T23:52:00Z,2025-09-09T19:52:00Z,VFR,26.1,13.3,100,10,0,NA,1013.6,METAR KMBG 092352Z AUTO 10010KT 10SM CLR 26/13 A2993 RMK AO2 SLP126 T02610133 10294 20256 53004 $,2025-09-10T00:12:43Z,2025-09-09T20:12:43Z
KMBG,"Mobridge Muni, SD, US",2025-09-10T00:52:00Z,2025-09-09T20:52:00Z,VFR,22.2,13.3,100,9,0,NA,1013.6,METAR KMBG 100052Z AUTO 10009KT 10SM CLR 22/13 A2993 RMK AO2 SLP129 T02220133 $,2025-09-10T01:11:35Z,2025-09-09T21:11:35Z
KMBS,"Saginaw Intl, MI, US",2025-09-09T23:53:00Z,2025-09-09T19:53:00Z,VFR,18.9,12.2,0,0,0,NA,1021.1,METAR KMBS 092353Z 00000KT 10SM CLR 19/12 A3015 RMK AO2 SLP211 T01890122 10233 20189 56003,2025-09-10T00:12:43Z,2025-09-09T20:12:43Z
KMBS,"Saginaw Intl, MI, US",2025-09-10T00:53:00Z,2025-09-09T20:53:00Z,VFR,17.2,10,160,5,0,NA,1021.1,METAR KMBS 100053Z 16005KT 10SM CLR 17/10 A3015 RMK AO2 SLP210 T01720100,2025-09-10T01:11:37Z,2025-09-09T21:11:37Z
KMCB,"McComb/Lewis Fld, MS, US",2025-09-09T23:53:00Z,2025-09-09T19:53:00Z,VFR,26.1,21.1,0,0,0,NA,1015.3,METAR KMCB 092353Z AUTO 00000KT 10SM CLR 26/21 A2998 RMK AO2 SLP148 T02610211 10311 20239 58001 $,2025-09-10T00:12:43Z,2025-09-09T20:12:43Z
KMCB,"McComb/Lewis Fld, MS, US",2025-09-10T00:53:00Z,2025-09-09T20:53:00Z,VFR,22.8,21.1,0,0,0,NA,1016,METAR KMCB 100053Z AUTO 00000KT 10SM CLR 23/21 A3000 RMK AO2 SLP154 T02280211 $,2025-09-10T01:11:37Z,2025-09-09T21:11:37Z
KMCC,"McClellan AFB, CA, US",2025-09-09T23:55:00Z,2025-09-09T19:55:00Z,VFR,26,13,200,8,0,NA,1010.2,METAR KMCC 092355Z AUTO 20008KT 10SM FEW044 26/13 A2983 RMK AO2,2025-09-10T00:12:42Z,2025-09-09T20:12:42Z
KMCC,"McClellan AFB, CA, US",2025-09-10T00:15:00Z,2025-09-09T20:15:00Z,VFR,25,13,210,10,0,NA,1010.2,METAR KMCC 100015Z AUTO 21010KT 10SM FEW044 25/13 A2983 RMK AO2,2025-09-10T00:33:24Z,2025-09-09T20:33:24Z
KMCC,"McClellan AFB, CA, US",2025-09-10T00:55:00Z,2025-09-09T20:55:00Z,VFR,25,13,190,9,0,NA,1010.2,METAR KMCC 100055Z AUTO 19009KT 10SM CLR 25/13 A2983 RMK AO2,2025-09-10T01:11:37Z,2025-09-09T21:11:37Z
KMCE,"Merced/Macready Fld, CA, US",2025-09-09T23:53:00Z,2025-09-09T19:53:00Z,VFR,27.8,10.6,340,6,0,NA,1009.6,METAR KMCE 092353Z AUTO 34006KT 10SM CLR 28/11 A2981 RMK AO2 SLP095 T02780106 10294 20239 56020,2025-09-10T00:12:43Z,2025-09-09T20:12:43Z
KMCE,"Merced/Macready Fld, CA, US",2025-09-10T00:53:00Z,2025-09-09T20:53:00Z,VFR,27.8,10.6,340,6,0,NA,1009.2,METAR KMCE 100053Z AUTO 34006KT 10SM CLR 28/11 A2980 RMK AO2 SLP090 T02780106,2025-09-10T01:11:37Z,2025-09-09T21:11:37Z
KMCF,"Tampa/MacDill AFB, FL, US",2025-09-09T23:55:00Z,2025-09-09T19:55:00Z,VFR,26.8,24.6,100,6,0,NA,1013.3,METAR KMCF 092355Z AUTO 10006KT 10SM BKN130 27/25 A2992 RMK AO2 SLP134 60002 T02680246 10286 20267 53003,2025-09-10T00:12:42Z,2025-09-09T20:12:42Z
KMCF,"Tampa/MacDill AFB, FL, US",2025-09-10T00:20:00Z,2025-09-09T20:20:00Z,MVFR,26,23,50,9,0,NA,1014,SPECI KMCF 100020Z AUTO 05009KT 10SM BKN014 BKN120 26/23 A2994 RMK AO2 CIG 014V120 BKN014 V FEW SLP141,2025-09-10T00:33:24Z,2025-09-09T20:33:24Z
KMCF,"Tampa/MacDill AFB, FL, US",2025-09-10T00:35:00Z,2025-09-09T20:35:00Z,VFR,26,23,70,15,0,NA,1014,SPECI KMCF 100035Z AUTO 07015KT 10SM SCT015 BKN038 BKN046 26/23 A2994 RMK AO2 SLP141,2025-09-10T01:11:37Z,2025-09-09T21:11:37Z
KMCI,"Kansas City Intl, MO, US",2025-09-09T14:53:00Z,2025-09-09T10:53:00Z,VFR,15.6,13.9,180,9,0,6,1018.4,METAR KMCI 091453Z 18009KT 6SM -RA BR BKN110 16/14 A3007 RMK AO2 RAB1357 SLP176 P0006 60008 T01560139 51007 $,2025-09-09T15:51:29Z,2025-09-09T11:51:29Z
KMCI,"Kansas City Intl, MO, US",2025-09-09T15:53:00Z,2025-09-09T11:53:00Z,VFR,15.6,14.4,190,13,0,NA,1017.4,METAR KMCI 091553Z 19013KT 10SM -RA FEW036 BKN047 OVC090 16/14 A3004 RMK AO2 SLP169 P0005 T01560144 $,2025-09-09T16:06:02Z,2025-09-09T12:06:02Z
KMCI,"Kansas City Intl, MO, US",2025-09-09T16:53:00Z,2025-09-09T12:53:00Z,VFR,17.2,14.4,180,13,0,NA,1017.4,METAR KMCI 091653Z 18013KT 10SM FEW010 BKN120 BKN250 17/14 A3004 RMK AO2 RAE03 SLP168 P0001 T01720144 $,2025-09-09T17:12:51Z,2025-09-09T13:12:51Z
KMCI,"Kansas City Intl, MO, US",2025-09-09T17:53:00Z,2025-09-09T13:53:00Z,VFR,19.4,15,200,6,0,NA,1017.4,METAR KMCI 091753Z 20006KT 10SM SCT016 BKN110 19/15 A3004 RMK AO2 LTG DSNT S AND SW SLP166 60014 T01940150 10194 20144 56009 $,2025-09-09T18:09:20Z,2025-09-09T14:09:20Z
KMCI,"Kansas City Intl, MO, US",2025-09-09T18:53:00Z,2025-09-09T14:53:00Z,VFR,21.1,15.6,140,4,0,NA,1017,METAR KMCI 091853Z 14004KT 10SM FEW020 SCT250 21/16 A3003 RMK AO2 SLP161 CB DSNT SE-S MOV SE T02110156 $,2025-09-09T19:00:56Z,2025-09-09T15:00:56Z
KMCI,"Kansas City Intl, MO, US",2025-09-09T19:19:00Z,2025-09-09T15:19:00Z,MVFR,22.2,15,180,8,0,NA,1017,SPECI KMCI 091919Z 18008KT 10SM BKN022 22/15 A3003 RMK AO2 CB DSNT SE-S MOV SE T02220150 $,2025-09-09T19:20:54Z,2025-09-09T15:20:54Z
KMCI,"Kansas City Intl, MO, US",2025-09-09T19:53:00Z,2025-09-09T15:53:00Z,MVFR,21.7,15.6,200,7,14,NA,1016.7,METAR KMCI 091953Z 20007G14KT 10SM BKN023 22/16 A3002 RMK AO2 SLP161 T02170156 $,2025-09-09T20:10:15Z,2025-09-09T16:10:15Z
KMCI,"Kansas City Intl, MO, US",2025-09-09T20:21:00Z,2025-09-09T16:21:00Z,VFR,22.2,15.6,160,6,0,NA,1016.7,SPECI KMCI 092021Z 16006KT 10SM FEW023 FEW250 22/16 A3002 RMK AO2 T02220156 $,2025-09-09T20:31:18Z,2025-09-09T16:31:18Z
KMCI,"Kansas City Intl, MO, US",2025-09-09T20:53:00Z,2025-09-09T16:53:00Z,VFR,22.8,15,VAR,4,0,NA,1016.3,METAR KMCI 092053Z VRB04KT 10SM FEW023 FEW250 23/15 A3001 RMK AO2 SLP155 T02280150 58009 $,2025-09-09T21:12:42Z,2025-09-09T17:12:42Z
KMCI,"Kansas City Intl, MO, US",2025-09-09T21:53:00Z,2025-09-09T17:53:00Z,VFR,23.3,15,160,8,0,NA,1016,METAR KMCI 092153Z 16008KT 10SM FEW250 23/15 A3000 RMK AO2 SLP151 T02330150 $,2025-09-09T22:00:08Z,2025-09-09T18:00:08Z
KMCI,"Kansas City Intl, MO, US",2025-09-09T22:53:00Z,2025-09-09T18:53:00Z,VFR,23.3,14.4,160,8,0,NA,1016,METAR KMCI 092253Z 16008KT 10SM FEW250 23/14 A3000 RMK AO2 SLP151 T02330144 $,2025-09-09T22:58:31Z,2025-09-09T18:58:31Z
KMCI,"Kansas City Intl, MO, US",2025-09-09T23:53:00Z,2025-09-09T19:53:00Z,VFR,22.2,14.4,140,7,0,NA,1016.3,METAR KMCI 092353Z 14007KT 10SM BKN047 BKN250 22/14 A3001 RMK AO2 SLP154 T02220144 10239 20189 55001 $,2025-09-10T00:12:42Z,2025-09-09T20:12:42Z
KMCI,"Kansas City Intl, MO, US",2025-09-10T00:53:00Z,2025-09-09T20:53:00Z,VFR,21.1,14.4,150,7,0,NA,1016.3,METAR KMCI 100053Z 15007KT 10SM OVC049 21/14 A3001 RMK AO2 SLP156 T02110144 $,2025-09-10T01:11:37Z,2025-09-09T21:11:37Z
KMCK,"McCook Muni, NE, US",2025-09-09T23:53:00Z,2025-09-09T19:53:00Z,VFR,25,16.7,90,6,0,NA,1014.3,METAR KMCK 092353Z AUTO 09006KT 10SM CLR 25/17 A2995 RMK AO2 SLP125 T02500167 10283 20228 55006,2025-09-10T00:12:43Z,2025-09-09T20:12:43Z
KMCK,"McCook Muni, NE, US",2025-09-10T00:53:00Z,2025-09-09T20:53:00Z,MVFR,22.8,16.7,90,5,0,5,1015,METAR KMCK 100053Z AUTO 09005KT 5SM HZ CLR 23/17 A2997 RMK AO2 SLP132 T02280167,2025-09-10T01:11:37Z,2025-09-09T21:11:37Z
KMCN,"Macon/Middle Georgia Rgnl, GA, US",2025-09-09T23:53:00Z,2025-09-09T19:53:00Z,VFR,21.7,15.6,70,5,0,NA,1018.4,METAR KMCN 092353Z AUTO 07005KT 10SM CLR 22/16 A3007 RMK AO2 SLP179 T02170156 10278 20217 $,2025-09-10T00:12:43Z,2025-09-09T20:12:43Z
KMCN,"Macon/Middle Georgia Rgnl, GA, US",2025-09-10T00:53:00Z,2025-09-09T20:53:00Z,VFR,20.6,15.6,40,4,0,NA,1019,METAR KMCN 100053Z AUTO 04004KT 10SM CLR 21/16 A3009 RMK AO2 SLP188 T02060156 $,2025-09-10T01:11:37Z,2025-09-09T21:11:37Z
KMCO,"Orlando Intl, FL, US",2025-09-09T14:53:00Z,2025-09-09T10:53:00Z,VFR,27.8,22.8,70,5,0,NA,1015,METAR KMCO 091453Z 07005KT 10SM FEW030 FEW070 BKN160 BKN250 28/23 A2997 RMK AO2 SLP148 TCU DSNT NE T02780228 51010 $,2025-09-09T15:51:29Z,2025-09-09T11:51:29Z
KMCO,"Orlando Intl, FL, US",2025-09-09T15:53:00Z,2025-09-09T11:53:00Z,VFR,28.9,23.3,VAR,3,0,NA,1015,METAR KMCO 091553Z VRB03KT 10SM FEW020 BKN160 BKN250 29/23 A2997 RMK AO2 SLP149 T02890233 $,2025-09-09T16:06:02Z,2025-09-09T12:06:02Z
KMCO,"Orlando Intl, FL, US",2025-09-09T16:53:00Z,2025-09-09T12:53:00Z,VFR,29.4,23.3,70,5,0,NA,1014.6,METAR KMCO 091653Z 07005KT 10SM SCT025 BKN160 29/23 A2996 RMK AO2 SLP144 T02940233 $,2025-09-09T17:12:51Z,2025-09-09T13:12:51Z
KMCO,"Orlando Intl, FL, US",2025-09-09T17:53:00Z,2025-09-09T13:53:00Z,VFR,30,23.3,0,0,0,NA,1014,METAR KMCO 091753Z 00000KT 10SM BKN032 BKN055 BKN160 30/23 A2994 RMK AO2 SLP136 T03000233 10300 20244 58012 $,2025-09-09T18:09:20Z,2025-09-09T14:09:20Z
KMCO,"Orlando Intl, FL, US",2025-09-09T18:46:00Z,2025-09-09T14:46:00Z,MVFR,25.6,23.9,70,13,18,6,1013.6,SPECI KMCO 091846Z 07013G18KT 6SM R35L/5000VP6000FT +RA BR BKN029 BKN045 BKN160 26/24 A2993 RMK AO2 RAB30 VIS NE-E W 2 1/2 P0001 T02560239 $,2025-09-09T18:50:46Z,2025-09-09T14:50:46Z
KMCO,"Orlando Intl, FL, US",2025-09-09T18:57:00Z,2025-09-09T14:57:00Z,IFR,25,23.3,50,9,0,1.25,1014,SPECI KMCO 091857Z 05009KT 1 1/4SM R35L/5500VP6000FT +RA BR SCT029 BKN044 OVC060 25/23 A2994 RMK AO2 P0010 T02500233 $,2025-09-09T19:00:56Z,2025-09-09T15:00:56Z
KMCO,"Orlando Intl, FL, US",2025-09-09T19:13:00Z,2025-09-09T15:13:00Z,IFR,24.4,23.9,50,10,0,1.5,1014,SPECI KMCO 091913Z 05010KT 1 1/2SM R35L/4000VP6000FT +TSRA BR BKN025CB OVC055 24/24 A2994 RMK AO2 TSB13 OCNL LTGICCG OHD SW-NW-NE-E TS OHD SW-NW-NE-E STNRY P0050 T02440239 $,2025-09-09T19:20:54Z,2025-09-09T15:20:54Z
KMCO,"Orlando Intl, FL, US",2025-09-09T19:58:00Z,2025-09-09T15:58:00Z,IFR,23.9,23.3,40,9,0,1.5,1014.3,SPECI KMCO 091958Z 04009KT 1 1/2SM R35L/1400V3500FT +TSRA BR BKN026CB OVC047 24/23 A2995 RMK AO2 OCNL LTGICCG OHD SW-NW-NE TS OHD SW-NW-NE STNRY P0011 T02390233 $,2025-09-09T20:10:15Z,2025-09-09T16:10:15Z
KMCO,"Orlando Intl, FL, US",2025-09-09T20:28:00Z,2025-09-09T16:28:00Z,MVFR,23.9,22.8,30,9,0,3,1013.6,SPECI KMCO 092028Z 03009KT 3SM R35L/5500VP6000FT +TSRA BR SCT026CB BKN042 OVC070 24/23 A2993 RMK AO2 OCNL LTGIC N-NE TS N-NE STNRY P0059 T02390228 $,2025-09-09T20:31:18Z,2025-09-09T16:31:18Z
KMCO,"Orlando Intl, FL, US",2025-09-09T20:47:00Z,2025-09-09T16:47:00Z,VFR,24,23,50,10,0,7,1013.3,SPECI KMCO 092047Z 05010KT 7SM -RA FEW026 SCT045 OVC075 24/23 A2992 RMK AO2 TSE47 TS DSIPTD P0072 $,2025-09-09T20:54:00Z,2025-09-09T16:54:00Z
KMCO,"Orlando Intl, FL, US",2025-09-09T20:53:00Z,2025-09-09T16:53:00Z,VFR,23.9,22.8,30,10,0,7,1013.3,METAR KMCO 092053Z 03010KT 7SM -RA FEW026 SCT045 BKN075 OVC130 24/23 A2992 RMK AO2 TSE47 SLP129 P0073 60217 T02390228 58007 $,2025-09-09T21:12:42Z,2025-09-09T17:12:42Z
KMCO,"Orlando Intl, FL, US",2025-09-09T21:53:00Z,2025-09-09T17:53:00Z,VFR,24.4,23.3,10,11,0,NA,1013.6,METAR KMCO 092153Z 01011KT 10SM -RA FEW021 BKN039 BKN050 OVC130 24/23 A2993 RMK AO2 SLP135 P0004 T02440233 $,2025-09-09T22:00:08Z,2025-09-09T18:00:08Z
KMCO,"Orlando Intl, FL, US",2025-09-09T22:44:00Z,2025-09-09T18:44:00Z,MVFR,24.4,23.9,10,3,0,NA,1014,SPECI KMCO 092244Z 01003KT 10SM BKN010 BKN043 OVC100 24/24 A2994 RMK AO2 RAE2158 P0000 T02440239 $,2025-09-09T22:48:17Z,2025-09-09T18:48:17Z
KMCO,"Orlando Intl, FL, US",2025-09-09T22:53:00Z,2025-09-09T18:53:00Z,VFR,24.4,23.3,40,3,0,NA,1014,METAR KMCO 092253Z 04003KT 10SM SCT009 BKN043 BKN080 OVC130 24/23 A2994 RMK AO2 RAE2158 SLP137 P0000 T02440233 $,2025-09-09T22:58:31Z,2025-09-09T18:58:31Z
KMCO,"Orlando Intl, FL, US",2025-09-09T23:09:00Z,2025-09-09T19:09:00Z,IFR,25,23.3,50,3,0,NA,1014.3,SPECI KMCO 092309Z 05003KT 10SM BKN008 BKN043 OVC080 25/23 A2995 RMK AO2 T02500233 $,2025-09-09T23:21:16Z,2025-09-09T19:21:16Z
KMCO,"Orlando Intl, FL, US",2025-09-09T23:39:00Z,2025-09-09T19:39:00Z,MVFR,24.4,23.9,240,3,0,NA,1014,SPECI KMCO 092339Z 24003KT 10SM SCT008 BKN014 BKN045 OVC130 24/24 A2994 RMK AO2 T02440239 $,2025-09-09T23:42:25Z,2025-09-09T19:42:25Z
KMCO,"Orlando Intl, FL, US",2025-09-09T23:53:00Z,2025-09-09T19:53:00Z,VFR,24.4,23.9,260,4,0,NA,1014,METAR KMCO 092353Z 26004KT 10SM SCT007 SCT017 BKN045 OVC130 24/24 A2994 RMK AO2 SLP138 60221 T02440239 10306 20233 51009 $,2025-09-10T00:12:42Z,2025-09-09T20:12:42Z
KMCO,"Orlando Intl, FL, US",2025-09-10T00:31:00Z,2025-09-09T20:31:00Z,IFR,24.4,23.9,200,3,0,NA,1014.6,SPECI KMCO 100031Z 20003KT 10SM BKN005 BKN045 OVC140 24/24 A2996 RMK AO2 T02440239 $,2025-09-10T00:33:24Z,2025-09-09T20:33:24Z
KMCO,"Orlando Intl, FL, US",2025-09-10T00:53:00Z,2025-09-09T20:53:00Z,IFR,24.4,23.9,300,4,0,NA,1015,METAR KMCO 100053Z 30004KT 10SM -RA BKN005 BKN019 OVC045 24/24 A2997 RMK AO2 RAB35 SLP146 P0000 T02440239 $,2025-09-10T01:11:37Z,2025-09-09T21:11:37Z
KMCW,"Mason City Muni, IA, US",2025-09-09T23:53:00Z,2025-09-09T19:53:00Z,VFR,20,15,140,4,0,NA,1016,METAR KMCW 092353Z AUTO 14004KT 10SM BKN055 BKN075 20/15 A3000 RMK AO2 SLP150 60000 T02000150 10228 20172 55000,2025-09-10T00:12:42Z,2025-09-09T20:12:42Z
KMCW,"Mason City Muni, IA, US",2025-09-10T00:53:00Z,2025-09-09T20:53:00Z,VFR,18.9,14.4,140,5,0,NA,1016,METAR KMCW 100053Z AUTO 14005KT 10SM OVC049 19/14 A3000 RMK AO2 SLP152 T01890144,2025-09-10T01:11:37Z,2025-09-09T21:11:37Z
KMDH,"Murphysboro/S Illinois Arpt, IL, US",2025-09-09T23:52:00Z,2025-09-09T19:52:00Z,VFR,24.4,13.3,0,0,0,NA,1017,METAR KMDH 092352Z 00000KT 10SM CLR 24/13 A3003 RMK AO2 SLP169 T02440133 10289 20244 56009,2025-09-10T00:12:43Z,2025-09-09T20:12:43Z
KMDH,"Murphysboro/S Illinois Arpt, IL, US",2025-09-10T00:52:00Z,2025-09-09T20:52:00Z,VFR,18.9,13.9,0,0,0,NA,1017.4,METAR KMDH 100052Z 00000KT 10SM CLR 19/14 A3004 RMK AO2 SLP171 T01890139,2025-09-10T01:11:37Z,2025-09-09T21:11:37Z
KMDT,"Harrisburg Intl, PA, US",2025-09-09T23:56:00Z,2025-09-09T19:56:00Z,VFR,20.6,9.4,70,4,0,NA,1023.5,METAR KMDT 092356Z 07004KT 10SM FEW250 21/09 A3022 RMK AO2 SLP233 T02060094 10250 20206 55001,2025-09-10T00:12:42Z,2025-09-09T20:12:42Z
KMDT,"Harrisburg Intl, PA, US",2025-09-10T00:56:00Z,2025-09-09T20:56:00Z,VFR,18.9,10,90,5,0,NA,1023.8,METAR KMDT 100056Z 09005KT 10SM FEW100 FEW250 19/10 A3023 RMK AO2 SLP237 T01890100,2025-09-10T01:11:37Z,2025-09-09T21:11:37Z
KMDW,"Chicago/Midway Intl, IL, US",2025-09-09T14:53:00Z,2025-09-09T10:53:00Z,VFR,19.4,5.6,210,8,0,NA,1022.1,METAR KMDW 091453Z 21008KT 10SM BKN250 19/06 A3018 RMK AO2 SLP216 T01940056 50000 $,2025-09-09T15:51:29Z,2025-09-09T11:51:29Z
KMDW,"Chicago/Midway Intl, IL, US",2025-09-09T15:53:00Z,2025-09-09T11:53:00Z,VFR,21.1,5.6,210,7,0,NA,1022.4,METAR KMDW 091553Z 21007KT 10SM BKN250 21/06 A3019 RMK AO2 SLP216 T02110056 $,2025-09-09T16:06:01Z,2025-09-09T12:06:01Z
KMDW,"Chicago/Midway Intl, IL, US",2025-09-09T16:53:00Z,2025-09-09T12:53:00Z,VFR,23.3,6.1,210,9,0,NA,1021.8,METAR KMDW 091653Z 21009KT 10SM BKN250 23/06 A3017 RMK AO2 SLP212 T02330061 $,2025-09-09T17:12:51Z,2025-09-09T13:12:51Z
KMDW,"Chicago/Midway Intl, IL, US",2025-09-09T17:53:00Z,2025-09-09T13:53:00Z,VFR,22.8,5,190,8,15,NA,1021.1,METAR KMDW 091753Z 19008G15KT 10SM BKN250 23/05 A3015 RMK AO2 SLP205 T02280050 10233 20128 58011 $,2025-09-09T18:09:20Z,2025-09-09T14:09:20Z
KMDW,"Chicago/Midway Intl, IL, US",2025-09-09T18:53:00Z,2025-09-09T14:53:00Z,VFR,23.9,5.6,200,7,15,NA,1020.7,METAR KMDW 091853Z 20007G15KT 10SM FEW200 BKN250 24/06 A3014 RMK AO2 SLP201 T02390056 $,2025-09-09T19:00:56Z,2025-09-09T15:00:56Z
KMDW,"Chicago/Midway Intl, IL, US",2025-09-09T19:53:00Z,2025-09-09T15:53:00Z,VFR,25,6.7,190,9,0,NA,1020.1,METAR KMDW 091953Z 19009KT 10SM SCT200 BKN250 25/07 A3012 RMK AO2 SLP195 T02500067 $,2025-09-09T20:10:15Z,2025-09-09T16:10:15Z
KMDW,"Chicago/Midway Intl, IL, US",2025-09-09T20:53:00Z,2025-09-09T16:53:00Z,VFR,24.4,5.6,180,9,0,NA,1019.7,METAR KMDW 092053Z 18009KT 10SM BKN200 BKN250 24/06 A3011 RMK AO2 SLP190 T02440056 58014 $,2025-09-09T21:12:42Z,2025-09-09T17:12:42Z
KMDW,"Chicago/Midway Intl, IL, US",2025-09-09T21:53:00Z,2025-09-09T17:53:00Z,VFR,24.4,6.1,180,8,0,NA,1019.4,METAR KMDW 092153Z 18008KT 140V210 10SM BKN200 BKN250 24/06 A3010 RMK AO2 SLP188 T02440061 $,2025-09-09T22:00:08Z,2025-09-09T18:00:08Z
KMDW,"Chicago/Midway Intl, IL, US",2025-09-09T22:53:00Z,2025-09-09T18:53:00Z,VFR,23.9,5.6,200,6,0,NA,1019.4,METAR KMDW 092253Z 20006KT 10SM FEW150 BKN200 BKN250 24/06 A3010 RMK AO2 SLP187 T02390056 $,2025-09-09T22:58:31Z,2025-09-09T18:58:31Z
KMDW,"Chicago/Midway Intl, IL, US",2025-09-09T23:53:00Z,2025-09-09T19:53:00Z,VFR,23.3,6.1,180,7,0,NA,1019,METAR KMDW 092353Z 18007KT 10SM FEW150 BKN200 BKN250 23/06 A3009 RMK AO2 SLP186 T02330061 10250 20228 56005 $,2025-09-10T00:12:43Z,2025-09-09T20:12:43Z
KMDW,"Chicago/Midway Intl, IL, US",2025-09-10T00:53:00Z,2025-09-09T20:53:00Z,VFR,22.2,6.1,160,3,0,NA,1019,METAR KMDW 100053Z 16003KT 10SM FEW150 BKN200 BKN250 22/06 A3009 RMK AO2 SLP185 T02220061 $,2025-09-10T01:11:37Z,2025-09-09T21:11:37Z
KMEI,"Meridian/Key Fld, MS, US",2025-09-09T23:58:00Z,2025-09-09T19:58:00Z,VFR,28.3,17.8,80,5,0,NA,1016.3,METAR KMEI 092358Z 08005KT 10SM CLR 28/18 A3001 RMK AO2 SLP158 T02830178 10317 20283 55000 $,2025-09-10T00:12:42Z,2025-09-09T20:12:42Z
KMEI,"Meridian/Key Fld, MS, US",2025-09-10T00:58:00Z,2025-09-09T20:58:00Z,VFR,26.1,17.8,70,4,0,NA,1016.7,METAR KMEI 100058Z 07004KT 10SM CLR 26/18 A3002 RMK AO2 SLP161 T02610178 $,2025-09-10T01:11:37Z,2025-09-09T21:11:37Z
KMEM,"Memphis Intl, TN, US",2025-09-09T15:28:00Z,2025-09-09T11:28:00Z,MVFR,26.1,17.8,210,11,0,NA,1019.7,SPECI KMEM 091528Z 21011KT 10SM BKN026 BKN033 26/18 A3011 RMK AO2 T02610178 $,2025-09-09T15:51:29Z,2025-09-09T11:51:29Z
KMEM,"Memphis Intl, TN, US",2025-09-09T15:54:00Z,2025-09-09T11:54:00Z,VFR,26.7,17.8,170,10,0,NA,1019.7,METAR KMEM 091554Z 17010KT 10SM SCT028 27/18 A3011 RMK AO2 SLP190 T02670178 $,2025-09-09T16:06:01Z,2025-09-09T12:06:01Z
KMEM,"Memphis Intl, TN, US",2025-09-09T16:54:00Z,2025-09-09T12:54:00Z,VFR,27.8,17.8,210,8,0,NA,1019.4,METAR KMEM 091654Z 21008KT 10SM SCT033 28/18 A3010 RMK AO2 SLP188 T02780178 $,2025-09-09T17:12:51Z,2025-09-09T13:12:51Z
KMEM,"Memphis Intl, TN, US",2025-09-09T17:54:00Z,2025-09-09T13:54:00Z,VFR,27.8,16.7,VAR,4,0,NA,1018.7,METAR KMEM 091754Z VRB04KT 10SM FEW038 SCT044 SCT065 28/17 A3008 RMK AO2 SLP184 T02780167 10294 20167 58009 $,2025-09-09T18:09:20Z,2025-09-09T14:09:20Z
KMEM,"Memphis Intl, TN, US",2025-09-09T18:54:00Z,2025-09-09T14:54:00Z,VFR,30.6,16.1,0,0,0,NA,1018.4,METAR KMEM 091854Z 00000KT 10SM FEW050 SCT060 31/16 A3007 RMK AO2 SLP177 T03060161 $,2025-09-09T19:00:56Z,2025-09-09T15:00:56Z
KMEM,"Memphis Intl, TN, US",2025-09-09T19:54:00Z,2025-09-09T15:54:00Z,VFR,31.1,14.4,310,3,0,NA,1017.7,METAR KMEM 091954Z 31003KT 10SM SCT055 SCT070 SCT200 31/14 A3005 RMK AO2 SLP170 T03110144 $,2025-09-09T20:10:15Z,2025-09-09T16:10:15Z
KMEM,"Memphis Intl, TN, US",2025-09-09T20:54:00Z,2025-09-09T16:54:00Z,VFR,31.7,15,VAR,3,0,NA,1017,METAR KMEM 092054Z VRB03KT 10SM SCT060 32/15 A3003 RMK AO2 SLP164 T03170150 57019 $,2025-09-09T21:12:42Z,2025-09-09T17:12:42Z
KMEM,"Memphis Intl, TN, US",2025-09-09T21:54:00Z,2025-09-09T17:54:00Z,VFR,30.6,14.4,180,4,0,NA,1016.7,METAR KMEM 092154Z 18004KT 10SM SCT070 31/14 A3002 RMK AO2 SLP161 T03060144 $,2025-09-09T22:00:08Z,2025-09-09T18:00:08Z
KMEM,"Memphis Intl, TN, US",2025-09-09T22:54:00Z,2025-09-09T18:54:00Z,VFR,28.9,13.9,200,3,0,NA,1016.3,METAR KMEM 092254Z 20003KT 10SM SCT065 29/14 A3001 RMK AO2 SLP158 T02890139 $,2025-09-09T22:58:31Z,2025-09-09T18:58:31Z
KMEM,"Memphis Intl, TN, US",2025-09-09T23:54:00Z,2025-09-09T19:54:00Z,VFR,28.9,15,40,3,0,NA,1016,METAR KMEM 092354Z 04003KT 10SM FEW065 29/15 A3000 RMK AO2 SLP157 T02890150 10317 20278 56008 $,2025-09-10T00:12:42Z,2025-09-09T20:12:42Z
KMEM,"Memphis Intl, TN, US",2025-09-10T00:54:00Z,2025-09-09T20:54:00Z,VFR,26.7,16.1,20,4,0,NA,1016.3,METAR KMEM 100054Z 02004KT 10SM FEW075 27/16 A3001 RMK AO2 SLP159 T02670161 $,2025-09-10T01:11:37Z,2025-09-09T21:11:37Z
KMFD,"Mansfield/Lahm Rgnl, OH, US",2025-09-09T23:52:00Z,2025-09-09T19:52:00Z,VFR,18.3,8.3,100,4,0,NA,1021.8,METAR KMFD 092352Z 10004KT 10SM CLR 18/08 A3017 RMK AO2 SLP217 T01830083 10239 20178 58004,2025-09-10T00:12:43Z,2025-09-09T20:12:43Z
KMFD,"Mansfield/Lahm Rgnl, OH, US",2025-09-10T00:52:00Z,2025-09-09T20:52:00Z,VFR,18.3,7.2,110,4,0,NA,1021.8,METAR KMFD 100052Z 11004KT 10SM CLR 18/07 A3017 RMK AO2 SLP216 T01830072,2025-09-10T01:11:37Z,2025-09-09T21:11:37Z
KMFE,"McAllen/Miller Intl, TX, US",2025-09-09T14:53:00Z,2025-09-09T10:53:00Z,VFR,28.9,23.3,30,6,0,NA,1015.3,METAR KMFE 091453Z 03006KT 10SM SCT024 SCT031 BKN042 29/23 A2998 RMK AO2 SLP150 T02890233 53010 $,2025-09-09T15:51:30Z,2025-09-09T11:51:30Z
KMFE,"McAllen/Miller Intl, TX, US",2025-09-09T15:53:00Z,2025-09-09T11:53:00Z,VFR,31.7,23.9,10,8,0,NA,1015.3,METAR KMFE 091553Z 01008KT 10SM FEW025 SCT050 32/24 A2998 RMK AO2 SLP150 T03170239 $,2025-09-09T16:06:03Z,2025-09-09T12:06:03Z
KMFE,"McAllen/Miller Intl, TX, US",2025-09-09T16:53:00Z,2025-09-09T12:53:00Z,VFR,31.7,22.8,40,8,0,NA,1015.3,METAR KMFE 091653Z 04008KT 10SM FEW032 SCT050 BKN060 32/23 A2998 RMK AO2 SLP149 T03170228 $,2025-09-09T17:12:54Z,2025-09-09T13:12:54Z
KMFE,"McAllen/Miller Intl, TX, US",2025-09-09T17:58:00Z,2025-09-09T13:58:00Z,VFR,31.1,22.8,10,16,22,NA,1015,SPECI KMFE 091758Z 01016G22KT 10SM BKN035 31/23 A2997 RMK AO2 T03110228 $,2025-09-09T18:09:21Z,2025-09-09T14:09:21Z
KMFE,"McAllen/Miller Intl, TX, US",2025-09-09T18:08:00Z,2025-09-09T14:08:00Z,IFR,27.2,23.3,10,16,22,1.75,1015,SPECI KMFE 091808Z 01016G22KT 1 3/4SM HZ BKN037 BKN050 27/23 A2997 RMK AO2 LTG DSNT NE T02720233 $,2025-09-09T18:13:46Z,2025-09-09T14:13:46Z
KMFE,"McAllen/Miller Intl, TX, US",2025-09-09T18:15:00Z,2025-09-09T14:15:00Z,MVFR,27.2,23.3,10,16,22,5,1015,SPECI KMFE 091815Z 01016G22KT 5SM HZ BKN039 OVC060 27/23 A2997 RMK AO2 LTG DSNT NE T02720233 $,2025-09-09T18:38:59Z,2025-09-09T14:38:59Z
KMFE,"McAllen/Miller Intl, TX, US",2025-09-09T18:53:00Z,2025-09-09T14:53:00Z,VFR,30.6,24.4,10,16,22,NA,1014.6,METAR KMFE 091853Z 01016G22KT 10SM FEW027 BKN080 OVC090 31/24 A2996 RMK AO2 SLP142 T03060244 $,2025-09-09T19:00:57Z,2025-09-09T15:00:57Z
KMFE,"McAllen/Miller Intl, TX, US",2025-09-09T19:53:00Z,2025-09-09T15:53:00Z,VFR,29.4,23.9,150,4,0,NA,1014,METAR KMFE 091953Z 15004KT 10SM SCT060 BKN075 29/24 A2994 RMK AO2 SLP137 T02940239 $,2025-09-09T20:10:18Z,2025-09-09T16:10:18Z
KMFE,"McAllen/Miller Intl, TX, US",2025-09-09T20:53:00Z,2025-09-09T16:53:00Z,VFR,33.3,21.7,40,8,0,NA,1013,METAR KMFE 092053Z 04008KT 10SM FEW039 33/22 A2991 RMK AO2 LTG DSNT S SLP125 T03330217 58020 $,2025-09-09T21:12:45Z,2025-09-09T17:12:45Z
KMFE,"McAllen/Miller Intl, TX, US",2025-09-09T21:53:00Z,2025-09-09T17:53:00Z,VFR,33.9,21.1,60,9,15,NA,1012.6,METAR KMFE 092153Z 06009G15KT 10SM CLR 34/21 A2990 RMK AO2 LTG DSNT E SLP121 T03390211 $,2025-09-09T22:00:10Z,2025-09-09T18:00:10Z
KMFE,"McAllen/Miller Intl, TX, US",2025-09-09T22:24:00Z,2025-09-09T18:24:00Z,VFR,31.1,22.8,100,18,25,NA,1013,SPECI KMFE 092224Z 10018G25KT 10SM VCTS BKN050 BKN095 31/23 A2991 RMK AO2 TSE18 T03110228 $,2025-09-09T22:37:48Z,2025-09-09T18:37:48Z
KMFE,"McAllen/Miller Intl, TX, US",2025-09-09T22:39:00Z,2025-09-09T18:39:00Z,VFR,27.8,22.2,130,17,0,NA,1013.3,SPECI KMFE 092239Z 13017KT 10SM VCTS FEW039 SCT049 BKN070 28/22 A2992 RMK AO2 PK WND 10026/2226 WSHFT 2219 TSE18 T02780222 $,2025-09-09T22:48:19Z,2025-09-09T18:48:19Z
KMFE,"McAllen/Miller Intl, TX, US",2025-09-09T22:53:00Z,2025-09-09T18:53:00Z,VFR,27.2,22.8,130,11,0,NA,1013,METAR KMFE 092253Z 13011KT 10SM FEW039 SCT070 BKN100 27/23 A2991 RMK AO2 PK WND 10026/2226 WSHFT 2219 TSE18 SLP128 T02720228 $,2025-09-09T22:58:33Z,2025-09-09T18:58:33Z
KMFE,"McAllen/Miller Intl, TX, US",2025-09-09T23:53:00Z,2025-09-09T19:53:00Z,VFR,28.3,23.9,140,6,0,NA,1013,METAR KMFE 092353Z 14006KT 10SM FEW100 28/24 A2991 RMK AO2 SLP127 T02830239 10350 20267 51006 $,2025-09-10T00:12:43Z,2025-09-09T20:12:43Z
KMFE,"McAllen/Miller Intl, TX, US",2025-09-10T00:53:00Z,2025-09-09T20:53:00Z,VFR,27.8,24.4,130,7,0,NA,1013.6,METAR KMFE 100053Z 13007KT 10SM SCT035 28/24 A2993 RMK AO2 SLP134 T02780244 $,2025-09-10T01:11:37Z,2025-09-09T21:11:37Z
KMFR,"Medford/Rogue Valley Intl, OR, US",2025-09-09T14:53:00Z,2025-09-09T10:53:00Z,MVFR,16.1,14.4,0,0,0,NA,1014.3,METAR KMFR 091453Z 00000KT 10SM BKN011 BKN019 OVC080 16/14 A2995 RMK AO2 RAE1359 SLP136 P0000 60000 T01610144 58001 $,2025-09-09T15:51:30Z,2025-09-09T11:51:30Z
KMFR,"Medford/Rogue Valley Intl, OR, US",2025-09-09T15:53:00Z,2025-09-09T11:53:00Z,MVFR,16.1,13.9,0,0,0,NA,1014.3,METAR KMFR 091553Z 00000KT 10SM FEW011 BKN023 BKN090 16/14 A2995 RMK AO2 SLP137 T01610139 $,2025-09-09T16:06:03Z,2025-09-09T12:06:03Z
KMFR,"Medford/Rogue Valley Intl, OR, US",2025-09-09T16:53:00Z,2025-09-09T12:53:00Z,MVFR,17.2,13.9,0,0,0,NA,1014.6,METAR KMFR 091653Z 00000KT 10SM FEW011 BKN023 BKN090 17/14 A2996 RMK AO2 SLP138 T01720139 $,2025-09-09T17:12:54Z,2025-09-09T13:12:54Z
KMFR,"Medford/Rogue Valley Intl, OR, US",2025-09-09T17:41:00Z,2025-09-09T13:41:00Z,MVFR,17.8,14.4,0,0,0,NA,1014.3,SPECI KMFR 091741Z 00000KT 10SM BKN013 BKN026 OVC085 18/14 A2995 RMK AO2 T01780144 $,2025-09-09T17:52:16Z,2025-09-09T13:52:16Z
KMFR,"Medford/Rogue Valley Intl, OR, US",2025-09-09T17:53:00Z,2025-09-09T13:53:00Z,VFR,18.3,14.4,350,3,0,NA,1014.3,METAR KMFR 091753Z 35003KT 10SM SCT014 OVC085 18/14 A2995 RMK AO2 SLP135 60000 T01830144 10183 20156 58000 $,2025-09-09T18:09:21Z,2025-09-09T14:09:21Z
KMFR,"Medford/Rogue Valley Intl, OR, US",2025-09-09T18:53:00Z,2025-09-09T14:53:00Z,VFR,18.9,13.3,0,0,0,NA,1014,METAR KMFR 091853Z 00000KT 10SM FEW023 OVC080 19/13 A2994 RMK AO2 SLP134 T01890133 $,2025-09-09T19:00:57Z,2025-09-09T15:00:57Z
KMFR,"Medford/Rogue Valley Intl, OR, US",2025-09-09T19:53:00Z,2025-09-09T15:53:00Z,VFR,20,12.2,0,0,0,NA,1013.6,METAR KMFR 091953Z 00000KT 10SM OVC090 20/12 A2993 RMK AO2 SLP129 T02000122 $,2025-09-09T20:10:18Z,2025-09-09T16:10:18Z
KMFR,"Medford/Rogue Valley Intl, OR, US",2025-09-09T20:53:00Z,2025-09-09T16:53:00Z,VFR,21.1,11.7,0,0,0,NA,1013.3,METAR KMFR 092053Z 00000KT 10SM BKN090 21/12 A2992 RMK AO2 SLP122 T02110117 58012 $,2025-09-09T21:12:45Z,2025-09-09T17:12:45Z
KMFR,"Medford/Rogue Valley Intl, OR, US",2025-09-09T21:53:00Z,2025-09-09T17:53:00Z,VFR,22.8,10.6,210,3,0,NA,1012.3,METAR KMFR 092153Z 21003KT 10SM SCT044 BKN090 23/11 A2989 RMK AO2 SLP114 T02280106 $,2025-09-09T22:00:10Z,2025-09-09T18:00:10Z
KMFR,"Medford/Rogue Valley Intl, OR, US",2025-09-09T22:53:00Z,2025-09-09T18:53:00Z,VFR,22.8,10.6,200,4,0,NA,1011.9,METAR KMFR 092253Z 20004KT 10SM OVC090 23/11 A2988 RMK AO2 SLP110 T02280106 $,2025-09-09T22:58:33Z,2025-09-09T18:58:33Z
KMFR,"Medford/Rogue Valley Intl, OR, US",2025-09-09T23:42:00Z,2025-09-09T19:42:00Z,VFR,22.8,11.7,290,10,0,NA,1011.9,SPECI KMFR 092342Z 29010KT 10SM FEW048 SCT065 BKN110 23/12 A2988 RMK AO2 WSHFT 2322 T02280117 $,2025-09-09T23:52:55Z,2025-09-09T19:52:55Z
KMFR,"Medford/Rogue Valley Intl, OR, US",2025-09-09T23:53:00Z,2025-09-09T19:53:00Z,VFR,22.2,11.7,280,7,0,NA,1011.9,METAR KMFR 092353Z 28007KT 10SM FEW047 FEW065 SCT110 22/12 A2988 RMK AO2 WSHFT 2322 SLP109 T02220117 10233 20183 56013 $,2025-09-10T00:12:43Z,2025-09-09T20:12:43Z
KMFR,"Medford/Rogue Valley Intl, OR, US",2025-09-10T00:53:00Z,2025-09-09T20:53:00Z,VFR,21.1,12.2,320,5,0,NA,1011.9,METAR KMFR 100053Z 32005KT 10SM CLR 21/12 A2988 RMK AO2 SLP111 T02110122 $,2025-09-10T01:11:37Z,2025-09-09T21:11:37Z
KMGE,"Marietta/Dobbins AFB, GA, US",2025-09-09T23:55:00Z,2025-09-09T19:55:00Z,VFR,23.9,12.8,70,3,0,NA,1018.7,METAR KMGE 092355Z 07003KT 10SM FEW080 FEW250 24/13 A3008 RMK AO2A SLP181 T02390128 10269 20239 55000 $,2025-09-10T00:12:42Z,2025-09-09T20:12:42Z
KMGE,"Marietta/Dobbins AFB, GA, US",2025-09-10T00:55:00Z,2025-09-09T20:55:00Z,VFR,21.7,13.6,0,0,0,NA,1019,METAR KMGE 100055Z 00000KT 10SM FEW150 FEW250 22/14 A3009 RMK AO2A SLP184 T02170136 $,2025-09-10T01:11:37Z,2025-09-09T21:11:37Z
KMGM,"Montgomery Rgnl, AL, US",2025-09-09T22:53:00Z,2025-09-09T18:53:00Z,VFR,28.9,13.9,80,6,0,NA,1017,METAR KMGM 092253Z 08006KT 10SM CLR 29/14 A3003 RMK AO2 SLP165 T02890139 $,2025-09-10T00:12:43Z,2025-09-09T20:12:43Z
KMGM,"Montgomery Rgnl, AL, US",2025-09-10T00:53:00Z,2025-09-09T20:53:00Z,VFR,23.9,15,0,0,0,NA,1017.7,METAR KMGM 100053Z 00000KT 10SM CLR 24/15 A3005 RMK AO2 SLP173 T02390150 $,2025-09-10T01:11:37Z,2025-09-09T21:11:37Z
KMGW,"Morgantown Muni, WV, US",2025-09-09T23:53:00Z,2025-09-09T19:53:00Z,VFR,18.9,8.9,70,3,0,NA,1022.4,METAR KMGW 092353Z 07003KT 10SM CLR 19/09 A3019 RMK AO2 SLP222 T01890089 10233 20189 56005,2025-09-10T00:12:43Z,2025-09-09T20:12:43Z
KMGW,"Morgantown Muni, WV, US",2025-09-10T00:53:00Z,2025-09-09T20:53:00Z,VFR,17.2,7.2,VAR,4,0,NA,1022.4,METAR KMGW 100053Z VRB04KT 10SM CLR 17/07 A3019 RMK AO2 SLP223 T01720072,2025-09-10T01:11:37Z,2025-09-09T21:11:37Z
KMHK,"Manhattan Rgnl, KS, US",2025-09-09T23:52:00Z,2025-09-09T19:52:00Z,VFR,24.4,17.8,140,5,0,NA,1014.3,METAR KMHK 092352Z 14005KT 10SM CLR 24/18 A2995 RMK AO2 SLP134 T02440178 10261 20233 58001,2025-09-10T00:12:43Z,2025-09-09T20:12:43Z
KMHK,"Manhattan Rgnl, KS, US",2025-09-10T00:52:00Z,2025-09-09T20:52:00Z,VFR,21.7,17.2,100,3,0,NA,1014.3,METAR KMHK 100052Z 10003KT 10SM CLR 22/17 A2995 RMK AO2 SLP136 T02170172,2025-09-10T01:11:37Z,2025-09-09T21:11:37Z
KMHR,"Sacramento/Mather Fld, CA, US",2025-09-09T23:55:00Z,2025-09-09T19:55:00Z,NA,25,13,230,8,0,NA,1010.2,METAR KMHR 092355Z AUTO 23008KT 200V270 10SM 25/13 A2983 RMK AO2,2025-09-10T00:12:42Z,2025-09-09T20:12:42Z
KMHR,"Sacramento/Mather Fld, CA, US",2025-09-10T00:15:00Z,2025-09-09T20:15:00Z,VFR,25,13,230,9,0,NA,1010.2,METAR KMHR 100015Z 23009KT 190V250 10SM BKN085 25/13 A2983 RMK AO2,2025-09-10T00:33:24Z,2025-09-09T20:33:24Z
KMHR,"Sacramento/Mather Fld, CA, US",2025-09-10T00:50:00Z,2025-09-09T20:50:00Z,VFR,24,14,230,12,0,NA,1009.9,METAR KMHR 100050Z 23012KT 10SM BKN085 24/14 A2982 RMK AO2,2025-09-10T01:11:37Z,2025-09-09T21:11:37Z
KMHT,"Manchester Rgnl, NH, US",2025-09-09T23:53:00Z,2025-09-09T19:53:00Z,VFR,14.4,8.9,130,4,0,NA,1027.5,METAR KMHT 092353Z 13004KT 10SM BKN250 14/09 A3034 RMK AO2 SLP287 T01440089 10228 20144 51006,2025-09-10T00:12:42Z,2025-09-09T20:12:42Z
KMHT,"Manchester Rgnl, NH, US",2025-09-10T00:53:00Z,2025-09-09T20:53:00Z,VFR,13.9,8.9,110,3,0,NA,1027.2,METAR KMHT 100053Z 11003KT 10SM FEW250 14/09 A3033 RMK AO2 SLP285 T01390089,2025-09-10T01:11:37Z,2025-09-09T21:11:37Z
KMIA,"Miami Intl, FL, US",2025-09-09T15:41:00Z,2025-09-09T11:41:00Z,VFR,30.6,25,VAR,4,0,NA,1014.6,SPECI KMIA 091541Z VRB04KT 10SM SCT024CB BKN250 31/25 A2996 RMK AO2 CB VC E-SE AND DSNT ALQDS MOV NE T03060250 $,2025-09-09T15:51:29Z,2025-09-09T11:51:29Z
KMIA,"Miami Intl, FL, US",2025-09-09T15:53:00Z,2025-09-09T11:53:00Z,VFR,31.1,24.4,150,4,0,NA,1014.3,METAR KMIA 091553Z 15004KT 10SM SCT025CB BKN250 31/24 A2995 RMK AO2 LTG DSNT N SLP143 CB VC NE AND DSNT ALQDS MOV NE T03110244 $,2025-09-09T16:06:02Z,2025-09-09T12:06:02Z
KMIA,"Miami Intl, FL, US",2025-09-09T16:27:00Z,2025-09-09T12:27:00Z,MVFR,31.1,24.4,130,6,0,NA,1014.3,SPECI KMIA 091627Z 13006KT 10SM TS BKN026CB BKN250 31/24 A2995 RMK AO2 TSB26 OCNL LTGICCG VC W-NW TS VC W-NW MOV NE CB DSNT ALQDS MOV NE T03110244 $,2025-09-09T16:36:27Z,2025-09-09T12:36:27Z
KMIA,"Miami Intl, FL, US",2025-09-09T16:55:00Z,2025-09-09T12:55:00Z,MVFR,28.9,24.4,330,9,14,NA,1014.3,SPECI KMIA 091655Z 33009G14KT 10SM TS BKN025CB BKN045 BKN250 29/24 A2995 RMK AO2 LTG DSNT NE AND SW AND W OCNL LTGICCG VC W-NW TS VC W-NW MOV NE CB DSNT ALQDS MOV NE T02890244 $,2025-09-09T17:12:51Z,2025-09-09T13:12:51Z
KMIA,"Miami Intl, FL, US",2025-09-09T17:24:00Z,2025-09-09T13:24:00Z,LIFR,25.6,23.9,20,4,0,0.5,1015,SPECI KMIA 091724Z 02004KT 1/2SM +TSRA FG BKN006 OVC015CB 26/24 A2997 RMK AO2 RAB05 PRESRR OCNL LTGICCG OHD TS OHD MOV NE P0024 T02560239 RVRNO $,2025-09-09T17:30:35Z,2025-09-09T13:30:35Z
KMIA,"Miami Intl, FL, US",2025-09-09T17:34:00Z,2025-09-09T13:34:00Z,LIFR,24.4,23.9,290,9,0,0.25,1015.7,SPECI KMIA 091734Z 29009KT 1/4SM +TSRA FG VV006 24/24 A2999 RMK AO2 RAB05 FRQ LTGICCG OHD TS OHD MOV NE P0096 T02440239 RVRNO $,2025-09-09T17:41:37Z,2025-09-09T13:41:37Z
KMIA,"Miami Intl, FL, US",2025-09-09T17:43:00Z,2025-09-09T13:43:00Z,LIFR,24.4,24.4,340,3,0,0.25,1015.7,SPECI KMIA 091743Z 34003KT 1/4SM +TSRA FG VV005 24/24 A2999 RMK AO2 RAB05 CONS LTGICCCCG OHD TS OHD MOV NE P0171 T02440244 RVRNO $,2025-09-09T17:52:14Z,2025-09-09T13:52:14Z
KMIA,"Miami Intl, FL, US",2025-09-09T18:03:00Z,2025-09-09T14:03:00Z,LIFR,23.9,23.9,350,3,0,0.75,1015,SPECI KMIA 091803Z 35003KT 3/4SM +TSRA BR SCT005 OVC014CB 24/24 A2997 RMK AO2 OCNL LTGICCG OHD TS OHD MOV NE P0023 T02390239 RVRNO $,2025-09-09T18:09:20Z,2025-09-09T14:09:20Z
KMIA,"Miami Intl, FL, US",2025-09-09T18:24:00Z,2025-09-09T14:24:00Z,MVFR,24.4,23.9,340,5,0,5,1014.3,SPECI KMIA 091824Z 34005KT 5SM -TSRA BR SCT015CB SCT035 OVC250 24/24 A2995 RMK AO2 PRESFR OCNL LTGICCG NE-E TS NE-E MOV NE P0050 T02440239 $,2025-09-09T18:38:56Z,2025-09-09T14:38:56Z
KMIA,"Miami Intl, FL, US",2025-09-09T18:47:00Z,2025-09-09T14:47:00Z,VFR,25,24,0,0,0,NA,1014.3,SPECI KMIA 091847Z 00000KT 10SM FEW015 SCT035 SCT070 BKN250 25/24 A2995 RMK AO2 RAE28 TSE46 TS DSIPTD CB DSNT ALQDS MOV NE P0050 $,2025-09-09T18:50:46Z,2025-09-09T14:50:46Z
KMIA,"Miami Intl, FL, US",2025-09-09T18:53:00Z,2025-09-09T14:53:00Z,VFR,25,23.9,40,3,0,NA,1014.3,METAR KMIA 091853Z 04003KT 10SM FEW015 SCT035 SCT070 BKN250 25/24 A2995 RMK AO2 RAE28 TSE46 SLP140 TS DSIPTD CB DSNT ALQDS MOV NE P0050 T02500239 $,2025-09-09T19:00:56Z,2025-09-09T15:00:56Z
KMIA,"Miami Intl, FL, US",2025-09-09T19:53:00Z,2025-09-09T15:53:00Z,VFR,26.7,23.3,0,0,0,NA,1013.3,METAR KMIA 091953Z 00000KT 10SM FEW015 FEW035 SCT070 BKN250 27/23 A2992 RMK AO2 SLP132 CB DSNT E-S-W MOV NE T02670233 $,2025-09-09T20:10:15Z,2025-09-09T16:10:15Z
KMIA,"Miami Intl, FL, US",2025-09-09T20:53:00Z,2025-09-09T16:53:00Z,VFR,27.8,23.3,0,0,0,NA,1013,METAR KMIA 092053Z 00000KT 10SM FEW025 SCT055 SCT110 BKN250 28/23 A2991 RMK AO2 SLP129 CB DSNT E-S-SW MOV NE 60050 T02780233 56021 $,2025-09-09T21:12:42Z,2025-09-09T17:12:42Z
KMIA,"Miami Intl, FL, US",2025-09-09T21:53:00Z,2025-09-09T17:53:00Z,VFR,27.8,23.9,0,0,0,NA,1013,METAR KMIA 092153Z 00000KT 10SM FEW020 SCT047 SCT110 OVC250 28/24 A2991 RMK AO2 SLP129 T02780239 $,2025-09-09T22:00:08Z,2025-09-09T18:00:08Z
KMIA,"Miami Intl, FL, US",2025-09-09T22:53:00Z,2025-09-09T18:53:00Z,VFR,27.8,23.9,0,0,0,NA,1013.6,METAR KMIA 092253Z 00000KT 10SM FEW020 BKN070 BKN110 OVC250 28/24 A2993 RMK AO2 SLP136 CB DSNT SE-SW-NW MOV E T02780239 $,2025-09-09T22:58:31Z,2025-09-09T18:58:31Z
KMIA,"Miami Intl, FL, US",2025-09-09T23:53:00Z,2025-09-09T19:53:00Z,VFR,27.2,24.4,150,3,0,NA,1014,METAR KMIA 092353Z 15003KT 10SM FEW020 SCT070 SCT110 BKN250 27/24 A2994 RMK AO2 SLP139 OCNL LTGIC DSNT SE CB DSNT SE 60050 T02720244 10278 20239 53010 $,2025-09-10T00:12:42Z,2025-09-09T20:12:42Z
KMIA,"Miami Intl, FL, US",2025-09-10T00:53:00Z,2025-09-09T20:53:00Z,VFR,26.7,24.4,0,0,0,NA,1014.6,METAR KMIA 100053Z 00000KT 10SM SCT110 BKN250 27/24 A2996 RMK AO2 SLP145 T02670244 $,2025-09-10T01:11:37Z,2025-09-09T21:11:37Z
KMIB,"Minot AFB, ND, US",2025-09-09T23:55:00Z,2025-09-09T19:55:00Z,VFR,26.4,10.9,130,5,0,NA,1013,METAR KMIB 092355Z 13005KT 10SM CLR 26/11 A2991 RMK AO2A PRESRR SLP132 T02640109 10281 20250 55001,2025-09-10T00:12:42Z,2025-09-09T20:12:42Z
KMIB,"Minot AFB, ND, US",2025-09-10T00:55:00Z,2025-09-09T20:55:00Z,VFR,23.2,12.2,110,6,0,NA,1013.3,METAR KMIB 100055Z 11006KT 10SM CLR 23/12 A2992 RMK AO2A SLP137 T02320122,2025-09-10T01:11:37Z,2025-09-09T21:11:37Z
KMIE,"Muncie/Johnson Fld, IN, US",2025-09-09T23:53:00Z,2025-09-09T19:53:00Z,VFR,18.3,11.7,100,3,0,NA,1020.1,METAR KMIE 092353Z 10003KT 10SM CLR 18/12 A3012 RMK AO2 SLP197 T01830117 10256 20183 55005,2025-09-10T00:12:42Z,2025-09-09T20:12:42Z
KMIE,"Muncie/Johnson Fld, IN, US",2025-09-10T00:53:00Z,2025-09-09T20:53:00Z,VFR,16.1,10.6,110,3,0,NA,1020.4,METAR KMIE 100053Z 11003KT 10SM CLR 16/11 A3013 RMK AO2 SLP196 T01610106,2025-09-10T01:11:37Z,2025-09-09T21:11:37Z
KMIV,"Millville Muni, NJ, US",2025-09-09T23:54:00Z,2025-09-09T19:54:00Z,VFR,19.4,12.8,60,11,16,NA,1023.5,METAR KMIV 092354Z AUTO 06011G16KT 10SM OVC048 19/13 A3022 RMK AO2 SLP232 T01940128 10233 20194 56003 $,2025-09-10T00:12:42Z,2025-09-09T20:12:42Z
KMIV,"Millville Muni, NJ, US",2025-09-10T00:54:00Z,2025-09-09T20:54:00Z,VFR,18.9,12.8,50,9,0,NA,1023.5,METAR KMIV 100054Z AUTO 05009KT 10SM FEW035 BKN047 OVC090 19/13 A3022 RMK AO2 SLP233 T01890128 $,2025-09-10T01:11:37Z,2025-09-09T21:11:37Z
KMKC,"Kansas City/Wheeler Downtown Arpt, MO, US",2025-09-09T23:54:00Z,2025-09-09T19:54:00Z,VFR,22.8,14.4,130,7,0,NA,1016,METAR KMKC 092354Z 13007KT 10SM BKN050 BKN060 23/14 A3000 RMK AO2 SLP154 T02280144 10244 20194 55001,2025-09-10T00:12:42Z,2025-09-09T20:12:42Z
KMKC,"Kansas City/Wheeler Downtown Arpt, MO, US",2025-09-10T00:54:00Z,2025-09-09T20:54:00Z,VFR,21.7,13.9,150,9,0,NA,1016.3,METAR KMKC 100054Z 15009KT 10SM OVC050 22/14 A3001 RMK AO2 SLP157 T02170139,2025-09-10T01:11:37Z,2025-09-09T21:11:37Z
KMKE,"Milwaukee/Mitchell Intl, WI, US",2025-09-09T23:52:00Z,2025-09-09T19:52:00Z,VFR,18.9,9.4,170,8,0,NA,1019,METAR KMKE 092352Z 17008KT 10SM FEW150 BKN240 19/09 A3009 RMK AO2 SLP188 T01890094 10233 20189 53001,2025-09-10T00:12:43Z,2025-09-09T20:12:43Z
KMKE,"Milwaukee/Mitchell Intl, WI, US",2025-09-10T00:52:00Z,2025-09-09T20:52:00Z,VFR,17.8,10.6,180,6,0,NA,1019,METAR KMKE 100052Z 18006KT 10SM SCT120 BKN230 18/11 A3009 RMK AO2 SLP187 T01780106,2025-09-10T01:11:37Z,2025-09-09T21:11:37Z
KMKG,"Muskegon Cnty Arpt, MI, US",2025-09-09T23:55:00Z,2025-09-09T19:55:00Z,VFR,17.8,8.3,160,3,0,NA,1020.4,METAR KMKG 092355Z 16003KT 10SM BKN250 18/08 A3013 RMK AO2 SLP204 T01780083 10228 20178 57003,2025-09-10T00:12:42Z,2025-09-09T20:12:42Z
KMKG,"Muskegon Cnty Arpt, MI, US",2025-09-10T00:55:00Z,2025-09-09T20:55:00Z,VFR,15,9.4,0,0,0,NA,1020.4,METAR KMKG 100055Z 00000KT 10SM BKN250 15/09 A3013 RMK AO2 SLP203 T01500094,2025-09-10T01:11:37Z,2025-09-09T21:11:37Z
KMKL,"Jackson/McKellar Rgnl, TN, US",2025-09-09T23:53:00Z,2025-09-09T19:53:00Z,VFR,27.2,16.7,0,0,0,NA,1017,METAR KMKL 092353Z AUTO 00000KT 10SM CLR 27/17 A3003 RMK AO1 SLP166 T02720167 10311 20272 55007,2025-09-10T00:12:42Z,2025-09-09T20:12:42Z
KMKL,"Jackson/McKellar Rgnl, TN, US",2025-09-10T00:53:00Z,2025-09-09T20:53:00Z,VFR,24.4,16.7,150,3,0,NA,1017,METAR KMKL 100053Z AUTO 15003KT 10SM CLR 24/17 A3003 RMK AO1 SLP167 T02440167,2025-09-10T01:11:37Z,2025-09-09T21:11:37Z
KMLB,"Melbourne Intl, FL, US",2025-09-09T23:53:00Z,2025-09-09T19:53:00Z,VFR,23.9,22.8,300,3,0,7,1013.3,METAR KMLB 092353Z 30003KT 7SM -RA FEW090 BKN110 24/23 A2992 RMK AO2 TSB05E20 SLP132 P0047 60100 T02390228 10306 20233 50006,2025-09-10T00:12:42Z,2025-09-09T20:12:42Z
KMLB,"Melbourne Intl, FL, US",2025-09-10T00:53:00Z,2025-09-09T20:53:00Z,VFR,23.9,22.8,0,0,0,6,1013.6,METAR KMLB 100053Z 00000KT 6SM -RA BR FEW090 BKN110 24/23 A2993 RMK AO2 SLP135 P0014 T02390228,2025-09-10T01:11:37Z,2025-09-09T21:11:37Z
KMLC,"McAlester Rgnl, OK, US",2025-09-09T23:53:00Z,2025-09-09T19:53:00Z,VFR,26.7,15.6,200,3,0,NA,1015,METAR KMLC 092353Z AUTO 20003KT 10SM CLR 27/16 A2997 RMK AO2 SLP141 T02670156 10300 20267 58012,2025-09-10T00:12:42Z,2025-09-09T20:12:42Z
KMLC,"McAlester Rgnl, OK, US",2025-09-10T00:53:00Z,2025-09-09T20:53:00Z,VFR,22.8,16.1,190,4,0,NA,1015.7,METAR KMLC 100053Z AUTO 19004KT 10SM CLR 23/16 A2999 RMK AO2 SLP149 T02280161,2025-09-10T01:11:37Z,2025-09-09T21:11:37Z
KMLI,"Moline/Quad City Intl, IL, US",2025-09-09T14:52:00Z,2025-09-09T10:52:00Z,VFR,18.3,9.4,VAR,4,0,NA,1020.4,METAR KMLI 091452Z VRB04KT 10SM CLR 18/09 A3013 RMK AO2 SLP204 T01830094 53002,2025-09-09T15:51:29Z,2025-09-09T11:51:29Z
KMLI,"Moline/Quad City Intl, IL, US",2025-09-09T15:52:00Z,2025-09-09T11:52:00Z,VFR,21.1,9.4,180,9,0,NA,1020.1,METAR KMLI 091552Z 18009KT 10SM CLR 21/09 A3012 RMK AO2 SLP198 T02110094,2025-09-09T16:06:02Z,2025-09-09T12:06:02Z
KMLI,"Moline/Quad City Intl, IL, US",2025-09-09T16:52:00Z,2025-09-09T12:52:00Z,VFR,23.3,9.4,180,10,0,NA,1019.7,METAR KMLI 091652Z 18010KT 10SM CLR 23/09 A3011 RMK AO2 SLP195 T02330094,2025-09-09T17:12:51Z,2025-09-09T13:12:51Z
KMLI,"Moline/Quad City Intl, IL, US",2025-09-09T17:52:00Z,2025-09-09T13:52:00Z,VFR,23.3,8.9,160,8,0,NA,1019.4,METAR KMLI 091752Z 16008KT 10SM CLR 23/09 A3010 RMK AO2 SLP191 T02330089 10244 20100 56012,2025-09-09T18:09:20Z,2025-09-09T14:09:20Z
KMLI,"Moline/Quad City Intl, IL, US",2025-09-09T18:52:00Z,2025-09-09T14:52:00Z,VFR,23.3,8.9,190,8,0,NA,1019,METAR KMLI 091852Z 19008KT 10SM CLR 23/09 A3009 RMK AO2 SLP187 T02330089,2025-09-09T19:00:56Z,2025-09-09T15:00:56Z
KMLI,"Moline/Quad City Intl, IL, US",2025-09-09T19:52:00Z,2025-09-09T15:52:00Z,VFR,23.3,9.4,200,6,0,NA,1018.4,METAR KMLI 091952Z 20006KT 10SM SCT120 23/09 A3007 RMK AO2 SLP182 T02330094,2025-09-09T20:10:15Z,2025-09-09T16:10:15Z
KMLI,"Moline/Quad City Intl, IL, US",2025-09-09T20:52:00Z,2025-09-09T16:52:00Z,VFR,23.3,10,200,3,0,NA,1018,METAR KMLI 092052Z 20003KT 10SM FEW110 23/10 A3006 RMK AO2 SLP178 T02330100 56012,2025-09-09T21:12:42Z,2025-09-09T17:12:42Z
KMLI,"Moline/Quad City Intl, IL, US",2025-09-09T21:52:00Z,2025-09-09T17:52:00Z,VFR,23.3,10,0,0,0,NA,1017.7,METAR KMLI 092152Z 00000KT 10SM CLR 23/10 A3005 RMK AO2 SLP173 T02330100,2025-09-09T22:00:08Z,2025-09-09T18:00:08Z
KMLI,"Moline/Quad City Intl, IL, US",2025-09-09T22:52:00Z,2025-09-09T18:52:00Z,VFR,22.2,11.7,170,3,0,NA,1017.7,METAR KMLI 092252Z 17003KT 10SM CLR 22/12 A3005 RMK AO2 SLP174 T02220117,2025-09-09T22:58:31Z,2025-09-09T18:58:31Z
KMLI,"Moline/Quad City Intl, IL, US",2025-09-09T23:52:00Z,2025-09-09T19:52:00Z,VFR,20.6,11.7,150,3,0,NA,1017.7,METAR KMLI 092352Z 15003KT 10SM CLR 21/12 A3005 RMK AO2 SLP175 T02060117 10244 20206 55005,2025-09-10T00:12:43Z,2025-09-09T20:12:43Z
KMLI,"Moline/Quad City Intl, IL, US",2025-09-10T00:52:00Z,2025-09-09T20:52:00Z,VFR,16.7,12.8,170,4,0,NA,1017.7,METAR KMLI 100052Z 17004KT 10SM CLR 17/13 A3005 RMK AO2 SLP176 T01670128,2025-09-10T01:11:37Z,2025-09-09T21:11:37Z
KMLS,"Miles City/Wiley Fld, MT, US",2025-09-09T23:53:00Z,2025-09-09T19:53:00Z,VFR,28.3,5,50,11,0,NA,1013,METAR KMLS 092353Z AUTO 05011KT 10SM CLR 28/05 A2991 RMK AO2 SLP115 T02830050 10300 20256 57009,2025-09-10T00:12:43Z,2025-09-09T20:12:43Z
KMLS,"Miles City/Wiley Fld, MT, US",2025-09-10T00:53:00Z,2025-09-09T20:53:00Z,VFR,26.7,5.6,50,12,0,NA,1013,METAR KMLS 100053Z AUTO 05012KT 10SM CLR 27/06 A2991 RMK AO2 SLP116 T02670056,2025-09-10T01:11:37Z,2025-09-09T21:11:37Z
KMLU,"Monroe Rgnl, LA, US",2025-09-09T23:53:00Z,2025-09-09T19:53:00Z,VFR,29.4,20.6,0,0,0,NA,1015.3,METAR KMLU 092353Z 00000KT 10SM CLR 29/21 A2998 RMK AO2 SLP151 T02940206 10328 20294 55006,2025-09-10T00:12:43Z,2025-09-09T20:12:43Z
KMLU,"Monroe Rgnl, LA, US",2025-09-10T00:53:00Z,2025-09-09T20:53:00Z,VFR,25.6,20.6,0,0,0,NA,1015.3,METAR KMLU 100053Z 00000KT 10SM CLR 26/21 A2998 RMK AO2 SLP153 T02560206,2025-09-10T01:11:37Z,2025-09-09T21:11:37Z
KMMT,"Columbia/McEntire JNGB, SC, US",2025-09-09T22:55:00Z,2025-09-09T18:55:00Z,VFR,26.6,9.4,330,7,0,NA,1017.7,METAR KMMT 092255Z 33007KT 10SM SCT250 27/09 A3005 RMK AO2A SLP177 T02660094 $,2025-09-10T00:12:43Z,2025-09-09T20:12:43Z
KMMT,"Columbia/McEntire JNGB, SC, US",2025-09-10T00:55:00Z,2025-09-09T20:55:00Z,VFR,18.4,11.5,320,3,0,NA,1018.7,METAR KMMT 100055Z 32003KT 10SM CLR 18/12 A3008 RMK AO2A SLP188 T01840115 $,2025-09-10T01:11:37Z,2025-09-09T21:11:37Z
KMMU,"Morristown Muni, NJ, US",2025-09-09T23:45:00Z,2025-09-09T19:45:00Z,VFR,16,13,60,3,0,NA,1025.1,METAR KMMU 092345Z 06003KT 10SM SCT050 SCT250 16/13 A3027,2025-09-10T00:12:43Z,2025-09-09T20:12:43Z
KMMU,"Morristown Muni, NJ, US",2025-09-10T00:45:00Z,2025-09-09T20:45:00Z,VFR,14,12,30,5,0,NA,1025.5,METAR KMMU 100045Z 03005KT 10SM SCT060 14/12 A3028,2025-09-10T01:11:37Z,2025-09-09T21:11:37Z
KMMV,"McMinnville Muni, OR, US",2025-09-09T23:53:00Z,2025-09-09T19:53:00Z,VFR,25,13.9,180,4,0,NA,1011.3,METAR KMMV 092353Z AUTO 18004KT 10SM FEW048 SCT110 25/14 A2986 RMK AO2 SLP110 T02500139 10256 20194 56017,2025-09-10T00:12:42Z,2025-09-09T20:12:42Z
KMMV,"McMinnville Muni, OR, US",2025-09-10T00:53:00Z,2025-09-09T20:53:00Z,VFR,25.6,13.3,220,4,0,NA,1010.9,METAR KMMV 100053Z AUTO 22004KT 10SM FEW055 26/13 A2985 RMK AO2 SLP107 T02560133,2025-09-10T01:11:37Z,2025-09-09T21:11:37Z
KMOB,"Mobile Rgnl, AL, US",2025-09-09T23:56:00Z,2025-09-09T19:56:00Z,VFR,27.2,19.4,50,5,0,NA,1015.7,METAR KMOB 092356Z 05005KT 10SM FEW046 FEW080 SCT150 27/19 A2999 RMK AO2 SLP152 T02720194 10311 20272 55000,2025-09-10T00:12:42Z,2025-09-09T20:12:42Z
KMOB,"Mobile Rgnl, AL, US",2025-09-10T00:56:00Z,2025-09-09T20:56:00Z,VFR,25,20,20,3,0,NA,1016.3,METAR KMOB 100056Z 02003KT 10SM FEW150 25/20 A3001 RMK AO2 SLP160 T02500200,2025-09-10T01:11:37Z,2025-09-09T21:11:37Z
KMOD,"Modesto/Sham Fld, CA, US",2025-09-09T23:53:00Z,2025-09-09T19:53:00Z,VFR,26.1,12.8,310,8,0,NA,1009.9,METAR KMOD 092353Z 31008KT 10SM CLR 26/13 A2982 RMK AO2 SLP098 T02610128 10272 20233 56015,2025-09-10T00:12:43Z,2025-09-09T20:12:43Z
KMOD,"Modesto/Sham Fld, CA, US",2025-09-10T00:53:00Z,2025-09-09T20:53:00Z,VFR,25.6,13.3,340,10,0,NA,1009.6,METAR KMOD 100053Z 34010KT 10SM CLR 26/13 A2981 RMK AO2 SLP095 T02560133,2025-09-10T01:11:37Z,2025-09-09T21:11:37Z
KMOT,"Minot Intl, ND, US",2025-09-09T23:54:00Z,2025-09-09T19:54:00Z,VFR,25,12.8,60,5,0,NA,1014.6,METAR KMOT 092354Z 06005KT 10SM CLR 25/13 A2996 RMK AO2 SLP143 T02500128 10272 20239 55002,2025-09-10T00:12:42Z,2025-09-09T20:12:42Z
KMOT,"Minot Intl, ND, US",2025-09-10T00:54:00Z,2025-09-09T20:54:00Z,VFR,21.1,13.3,60,5,0,NA,1014.6,METAR KMOT 100054Z 06005KT 10SM CLR 21/13 A2996 RMK AO2 SLP146 T02110133,2025-09-10T01:11:37Z,2025-09-09T21:11:37Z
KMPV,"Montpelier/Knapp Arpt, VT, US",2025-09-09T23:51:00Z,2025-09-09T19:51:00Z,VFR,12.8,7.8,160,3,0,NA,1027.9,METAR KMPV 092351Z AUTO 16003KT 10SM CLR 13/08 A3035 RMK AO2 SLP282 T01280078 10217 20128 56003,2025-09-10T00:12:43Z,2025-09-09T20:12:43Z
KMPV,"Montpelier/Knapp Arpt, VT, US",2025-09-10T00:51:00Z,2025-09-09T20:51:00Z,VFR,16.1,6.7,180,9,0,NA,1027.9,METAR KMPV 100051Z AUTO 18009KT 10SM CLR 16/07 A3035 RMK AO2 SLP283 T01610067,2025-09-10T01:11:37Z,2025-09-09T21:11:37Z
KMQY,"Smyrna Arpt, TN, US",2025-09-09T23:56:00Z,2025-09-09T19:56:00Z,VFR,25,13.9,80,5,0,NA,1019,METAR KMQY 092356Z 08005KT 10SM CLR 25/14 A3009 RMK AO2 SLP193 6//// T02500139 10289 20244 56007,2025-09-10T00:12:42Z,2025-09-09T20:12:42Z
KMQY,"Smyrna Arpt, TN, US",2025-09-10T00:56:00Z,2025-09-09T20:56:00Z,VFR,20,15.6,0,0,0,NA,1019,METAR KMQY 100056Z 00000KT 10SM CLR 20/16 A3009 RMK AO2 SLP194 T02000156,2025-09-10T01:11:37Z,2025-09-09T21:11:37Z
KMRB,"Martinsburg/E West Virginia Rgnl, WV, US",2025-09-09T23:53:00Z,2025-09-09T19:53:00Z,VFR,17.2,7.8,110,3,0,NA,1022.8,METAR KMRB 092353Z 11003KT 10SM CLR 17/08 A3020 RMK AO2 SLP225 T01720078 10261 20172 55002,2025-09-10T00:12:43Z,2025-09-09T20:12:43Z
KMRB,"Martinsburg/E West Virginia Rgnl, WV, US",2025-09-10T00:53:00Z,2025-09-09T20:53:00Z,VFR,15,8.3,0,0,0,NA,1023.1,METAR KMRB 100053Z 00000KT 10SM CLR 15/08 A3021 RMK AO2 SLP230 T01500083,2025-09-10T01:11:37Z,2025-09-09T21:11:37Z
KMRY,"Monterey Rgnl, CA, US",2025-09-09T23:54:00Z,2025-09-09T19:54:00Z,VFR,22.2,15.6,240,9,0,NA,1013.3,METAR KMRY 092354Z 24009KT 10SM CLR 22/16 A2992 RMK AO2 SLP141 T02220156 10239 20194 57013,2025-09-10T00:12:42Z,2025-09-09T20:12:42Z
KMRY,"Monterey Rgnl, CA, US",2025-09-10T00:54:00Z,2025-09-09T20:54:00Z,VFR,20.6,16.1,230,9,0,NA,1013,METAR KMRY 100054Z 23009KT 10SM SCT018 21/16 A2991 RMK AO2 SLP138 T02060161,2025-09-10T01:11:37Z,2025-09-09T21:11:37Z
KMSL,"Muscle Shoals/NW Alabama Rgnl, AL, US",2025-09-09T23:53:00Z,2025-09-09T19:53:00Z,VFR,25,15.6,80,3,0,NA,1018,METAR KMSL 092353Z AUTO 08003KT 10SM CLR 25/16 A3006 RMK AO2 SLP174 T02500156 10289 20250 57004 $,2025-09-10T00:12:43Z,2025-09-09T20:12:43Z
KMSL,"Muscle Shoals/NW Alabama Rgnl, AL, US",2025-09-10T00:53:00Z,2025-09-09T20:53:00Z,VFR,21.1,16.1,0,0,0,NA,1018,METAR KMSL 100053Z AUTO 00000KT 10SM CLR 21/16 A3006 RMK AO2 SLP176 T02110161 $,2025-09-10T01:11:37Z,2025-09-09T21:11:37Z
KMSN,"Madison/Dane Cnty Rgnl, WI, US",2025-09-09T23:53:00Z,2025-09-09T19:53:00Z,VFR,20.6,8.9,180,4,0,NA,1018,METAR KMSN 092353Z 18004KT 10SM FEW120 BKN250 21/09 A3006 RMK AO2 SLP179 T02060089 10244 20206 53000 $,2025-09-10T00:12:42Z,2025-09-09T20:12:42Z
KMSN,"Madison/Dane Cnty Rgnl, WI, US",2025-09-10T00:53:00Z,2025-09-09T20:53:00Z,VFR,19.4,8.9,180,5,0,NA,1018,METAR KMSN 100053Z 18005KT 10SM SCT120 BKN250 19/09 A3006 RMK AO2 SLP178 T01940089 $,2025-09-10T01:11:37Z,2025-09-09T21:11:37Z
KMSO,"Missoula Intl, MT, US",2025-09-09T14:53:00Z,2025-09-09T10:53:00Z,VFR,11.7,7.8,0,0,0,NA,1015.7,METAR KMSO 091453Z 00000KT 10SM CLR 12/08 A2999 RMK AO2 SLP145 T01170078 50007,2025-09-09T15:51:30Z,2025-09-09T11:51:30Z
KMSO,"Missoula Intl, MT, US",2025-09-09T15:53:00Z,2025-09-09T11:53:00Z,VFR,13.3,7.8,160,3,0,NA,1015.7,METAR KMSO 091553Z 16003KT 10SM CLR 13/08 A2999 RMK AO2 SLP146 T01330078,2025-09-09T16:06:03Z,2025-09-09T12:06:03Z
KMSO,"Missoula Intl, MT, US",2025-09-09T16:53:00Z,2025-09-09T12:53:00Z,VFR,15,7.8,160,3,0,NA,1016,METAR KMSO 091653Z 16003KT 10SM CLR 15/08 A3000 RMK AO2 SLP149 T01500078,2025-09-09T17:12:54Z,2025-09-09T13:12:54Z
KMSO,"Missoula Intl, MT, US",2025-09-09T17:53:00Z,2025-09-09T13:53:00Z,VFR,16.7,7.2,140,3,0,NA,1015.7,METAR KMSO 091753Z 14003KT 10SM CLR 17/07 A2999 RMK AO2 SLP144 T01670072 10167 20083 58000,2025-09-09T18:09:21Z,2025-09-09T14:09:21Z
KMSO,"Missoula Intl, MT, US",2025-09-09T18:53:00Z,2025-09-09T14:53:00Z,VFR,18.3,7.8,0,0,0,NA,1015.3,METAR KMSO 091853Z 00000KT 10SM CLR 18/08 A2998 RMK AO2 SLP139 T01830078,2025-09-09T19:00:57Z,2025-09-09T15:00:57Z
KMSO,"Missoula Intl, MT, US",2025-09-09T19:53:00Z,2025-09-09T15:53:00Z,VFR,18.9,8.9,260,8,0,NA,1014.3,METAR KMSO 091953Z 26008KT 10SM CLR 19/09 A2995 RMK AO2 SLP133 T01890089,2025-09-09T20:10:18Z,2025-09-09T16:10:18Z
KMSO,"Missoula Intl, MT, US",2025-09-09T20:53:00Z,2025-09-09T16:53:00Z,VFR,20.6,7.8,310,7,0,NA,1013.6,METAR KMSO 092053Z 31007KT 10SM CLR 21/08 A2993 RMK AO2 SLP123 T02060078 58018,2025-09-09T21:12:45Z,2025-09-09T17:12:45Z
KMSO,"Missoula Intl, MT, US",2025-09-09T21:53:00Z,2025-09-09T17:53:00Z,VFR,23.9,7.2,VAR,3,0,NA,1012.6,METAR KMSO 092153Z VRB03KT 10SM CLR 24/07 A2990 RMK AO2 SLP109 T02390072,2025-09-09T22:00:10Z,2025-09-09T18:00:10Z
KMSO,"Missoula Intl, MT, US",2025-09-09T22:53:00Z,2025-09-09T18:53:00Z,VFR,24.4,7.2,270,4,0,NA,1011.9,METAR KMSO 092253Z 27004KT 10SM CLR 24/07 A2988 RMK AO2 SLP104 T02440072,2025-09-09T22:58:33Z,2025-09-09T18:58:33Z
KMSO,"Missoula Intl, MT, US",2025-09-09T23:53:00Z,2025-09-09T19:53:00Z,VFR,25,6.7,0,0,0,NA,1010.9,METAR KMSO 092353Z 00000KT 10SM CLR 25/07 A2985 RMK AO2 SLP095 T02500067 10250 20167 57024,2025-09-10T00:12:43Z,2025-09-09T20:12:43Z
KMSO,"Missoula Intl, MT, US",2025-09-10T00:53:00Z,2025-09-09T20:53:00Z,VFR,23.3,8.3,200,4,0,NA,1010.9,METAR KMSO 100053Z 20004KT 10SM CLR 23/08 A2985 RMK AO2 SLP096 T02330083,2025-09-10T01:11:37Z,2025-09-09T21:11:37Z
KMSP,"Minneapolis-St Paul Intl, MN, US",2025-09-09T14:53:00Z,2025-09-09T10:53:00Z,MVFR,18.9,12.8,200,7,0,NA,1014.6,METAR KMSP 091453Z 20007KT 10SM OVC029 19/13 A2996 RMK AO2 SLP144 T01890128 53003,2025-09-09T15:51:29Z,2025-09-09T11:51:29Z
KMSP,"Minneapolis-St Paul Intl, MN, US",2025-09-09T15:53:00Z,2025-09-09T11:53:00Z,MVFR,19.4,13.3,230,11,17,NA,1015.3,METAR KMSP 091553Z 23011G17KT 10SM OVC029 19/13 A2998 RMK AO2 SLP148 T01940133,2025-09-09T16:06:02Z,2025-09-09T12:06:02Z
KMSP,"Minneapolis-St Paul Intl, MN, US",2025-09-09T16:53:00Z,2025-09-09T12:53:00Z,MVFR,20,13.9,210,7,0,NA,1015.3,METAR KMSP 091653Z 21007KT 10SM OVC025 20/14 A2998 RMK AO2 SLP150 T02000139,2025-09-09T17:12:51Z,2025-09-09T13:12:51Z
KMSP,"Minneapolis-St Paul Intl, MN, US",2025-09-09T17:53:00Z,2025-09-09T13:53:00Z,MVFR,20,13.9,200,7,0,NA,1015,METAR KMSP 091753Z 20007KT 10SM OVC023 20/14 A2997 RMK AO2 SLP146 T02000139 10200 20183 50002,2025-09-09T18:09:20Z,2025-09-09T14:09:20Z
KMSP,"Minneapolis-St Paul Intl, MN, US",2025-09-09T18:53:00Z,2025-09-09T14:53:00Z,MVFR,20,14.4,210,8,0,NA,1014.6,METAR KMSP 091853Z 21008KT 10SM BKN023 BKN120 BKN160 OVC250 20/14 A2996 RMK AO2 LTG DSNT E-SW SLP144 T02000144,2025-09-09T19:00:56Z,2025-09-09T15:00:56Z
KMSP,"Minneapolis-St Paul Intl, MN, US",2025-09-09T19:39:00Z,2025-09-09T15:39:00Z,MVFR,18.9,15.6,210,7,0,9,1015.3,SPECI KMSP 091939Z 21007KT 9SM VCTS -RA BKN022CB BKN075 OVC095 19/16 A2998 RMK AO2 LTG DSNT E AND S RAB20 VCTS E MOV NE P0001 T01890156,2025-09-09T19:51:19Z,2025-09-09T15:51:19Z
KMSP,"Minneapolis-St Paul Intl, MN, US",2025-09-09T19:53:00Z,2025-09-09T15:53:00Z,VFR,18.3,16.1,210,7,0,9,1015.7,METAR KMSP 091953Z 21007KT 9SM RA SCT020 BKN070 OVC095 18/16 A2999 RMK AO2 LTG DSNT E AND SE RAB20 SLP152 P0003 T01830161,2025-09-09T20:10:15Z,2025-09-09T16:10:15Z
KMSP,"Minneapolis-St Paul Intl, MN, US",2025-09-09T21:03:00Z,2025-09-09T17:03:00Z,VFR,17.8,16.7,0,0,0,9,1015,SPECI KMSP 092103Z COR 00000KT 9SM -RA FEW007 BKN095 BKN110 OVC140 18/17 A2997 RMK AO2 LTG DSNT E P0000 T01780167,2025-09-09T21:12:42Z,2025-09-09T17:12:42Z
KMSP,"Minneapolis-St Paul Intl, MN, US",2025-09-09T21:53:00Z,2025-09-09T17:53:00Z,VFR,17.8,16.7,150,5,0,8,1015.3,METAR KMSP 092153Z 15005KT 8SM SCT009 SCT012 BKN110 OVC140 18/17 A2998 RMK AO2 RAE04 SLP151 P0000 T01780167,2025-09-09T22:00:08Z,2025-09-09T18:00:08Z
KMSP,"Minneapolis-St Paul Intl, MN, US",2025-09-09T22:25:00Z,2025-09-09T18:25:00Z,IFR,17.8,16.7,170,6,0,8,1015.7,SPECI KMSP 092225Z 17006KT 8SM BKN009 OVC012 18/17 A2999 RMK AO2 T01780167,2025-09-09T22:37:47Z,2025-09-09T18:37:47Z
KMSP,"Minneapolis-St Paul Intl, MN, US",2025-09-09T22:53:00Z,2025-09-09T18:53:00Z,IFR,17.8,16.7,150,5,0,8,1016,METAR KMSP 092253Z 15005KT 8SM BKN007 OVC012 18/17 A3000 RMK AO2 SLP156 T01780167,2025-09-09T22:58:31Z,2025-09-09T18:58:31Z
KMSP,"Minneapolis-St Paul Intl, MN, US",2025-09-09T23:13:00Z,2025-09-09T19:13:00Z,MVFR,17.8,16.7,160,5,0,8,1016,SPECI KMSP 092313Z 16005KT 8SM OVC010 18/17 A3000 RMK AO2 T01780167,2025-09-09T23:21:16Z,2025-09-09T19:21:16Z
KMSP,"Minneapolis-St Paul Intl, MN, US",2025-09-10T00:10:00Z,2025-09-09T20:10:00Z,VFR,17.8,16.7,140,4,0,8,1016,SPECI KMSP 100010Z 14004KT 8SM SCT015 OVC100 18/17 A3000 RMK AO2 T01780167,2025-09-10T00:12:42Z,2025-09-09T20:12:42Z
KMSP,"Minneapolis-St Paul Intl, MN, US",2025-09-10T00:53:00Z,2025-09-09T20:53:00Z,VFR,17.8,16.7,0,0,0,8,1016,METAR KMSP 100053Z 00000KT 8SM SCT019 OVC100 18/17 A3000 RMK AO2 SLP157 T01780167,2025-09-10T01:11:37Z,2025-09-09T21:11:37Z
KMSS,"Massena Intl, NY, US",2025-09-09T23:53:00Z,2025-09-09T19:53:00Z,VFR,13.9,10.6,0,0,0,NA,1025.1,METAR KMSS 092353Z AUTO 00000KT 10SM CLR 14/11 A3027 RMK AO2 SLP253 T01390106 10217 20133 55002,2025-09-10T00:12:43Z,2025-09-09T20:12:43Z
KMSS,"Massena Intl, NY, US",2025-09-10T00:53:00Z,2025-09-09T20:53:00Z,VFR,11.7,9.4,0,0,0,NA,1025.1,METAR KMSS 100053Z AUTO 00000KT 10SM CLR 12/09 A3027 RMK AO2 SLP252 T01170094,2025-09-10T01:11:37Z,2025-09-09T21:11:37Z
KMSY,"New Orleans/Armstrong Intl, LA, US",2025-09-09T23:53:00Z,2025-09-09T19:53:00Z,VFR,29.4,21.7,80,11,0,NA,1015,METAR KMSY 092353Z 08011KT 10SM SCT030 BKN180 29/22 A2997 RMK AO2 SLP151 SHRA DSNT W T02940217 10328 20294 53003,2025-09-10T00:12:47Z,2025-09-09T20:12:47Z
KMSY,"New Orleans/Armstrong Intl, LA, US",2025-09-10T00:53:00Z,2025-09-09T20:53:00Z,VFR,28.9,22.2,90,7,0,NA,1015.3,METAR KMSY 100053Z 09007KT 10SM FEW030 SCT250 29/22 A2998 RMK AO2 SLP156 CB DSNT W T02890222,2025-09-10T01:11:37Z,2025-09-09T21:11:37Z
KMTC,"Selfridge ANGB, MI, US",2025-09-09T23:56:00Z,2025-09-09T19:56:00Z,VFR,18.4,9.7,140,5,0,NA,1020.1,METAR KMTC 092356Z 14005KT 10SM FEW180 BKN230 18/10 A3012 RMK AO2A SLP205 T01840097 10242 20181 58006 $,2025-09-10T00:12:46Z,2025-09-09T20:12:46Z
KMTC,"Selfridge ANGB, MI, US",2025-09-10T00:56:00Z,2025-09-09T20:56:00Z,VFR,17.9,11,150,3,0,NA,1020.4,METAR KMTC 100056Z 15003KT 10SM FEW180 BKN230 18/11 A3013 RMK AO2A SLP207 T01790110 $,2025-09-10T01:11:37Z,2025-09-09T21:11:37Z
KMTH,"Marathon Arpt, FL, US",2025-09-09T23:53:00Z,2025-09-09T19:53:00Z,VFR,30,23.9,220,3,0,NA,1013.6,METAR KMTH 092353Z AUTO 22003KT 10SM CLR 30/24 A2993 RMK AO2 SLP134 T03000239 10317 20294 53008 $,2025-09-10T00:12:47Z,2025-09-09T20:12:47Z
KMTH,"Marathon Arpt, FL, US",2025-09-10T00:53:00Z,2025-09-09T20:53:00Z,VFR,29.4,23.9,0,0,0,NA,1014.6,METAR KMTH 100053Z AUTO 00000KT 10SM CLR 29/24 A2996 RMK AO2 SLP143 T02940239 $,2025-09-10T01:11:37Z,2025-09-09T21:11:37Z
KMTJ,"Montrose Rgnl, CO, US",2025-09-09T23:53:00Z,2025-09-09T19:53:00Z,VFR,27.2,6.1,100,10,0,NA,1017,METAR KMTJ 092353Z AUTO 10010KT 10SM SCT110 27/06 A3003 RMK AO2 LTG DSNT E SLP094 60001 T02720061 10289 20233 56010,2025-09-10T00:12:47Z,2025-09-09T20:12:47Z
KMTJ,"Montrose Rgnl, CO, US",2025-09-10T00:53:00Z,2025-09-09T20:53:00Z,VFR,24.4,6.1,110,11,0,NA,1017.4,METAR KMTJ 100053Z AUTO 11011KT 10SM CLR 24/06 A3004 RMK AO2 SLP100 T02440061,2025-09-10T01:11:37Z,2025-09-09T21:11:37Z
KMTN,"Baltimore/Martin State Arpt, MD, US",2025-09-09T23:46:00Z,2025-09-09T19:46:00Z,VFR,21,14,130,5,0,NA,1024.1,METAR KMTN 092346Z 13005KT 10SM CLR 21/14 A3024,2025-09-10T00:12:48Z,2025-09-09T20:12:48Z
KMTN,"Baltimore/Martin State Arpt, MD, US",2025-09-10T00:48:00Z,2025-09-09T20:48:00Z,VFR,20,14,110,4,0,NA,1024.1,METAR KMTN 100048Z 11004KT 10SM CLR 20/14 A3024,2025-09-10T01:11:37Z,2025-09-09T21:11:37Z
KMUI,"Fort Indiantown Gap/Muir AAF, PA, US",2025-09-09T23:55:00Z,2025-09-09T19:55:00Z,VFR,17.2,11.2,30,3,0,NA,1023.5,METAR KMUI 092355Z 03003KT 10SM FEW050 FEW250 17/11 A3022 RMK AO2A SLP237 T01720112 10243 20172 55001,2025-09-10T00:12:46Z,2025-09-09T20:12:46Z
KMUO,"Mountain Home AFB, ID, US",2025-09-09T23:55:00Z,2025-09-09T19:55:00Z,VFR,28.1,2.3,280,7,0,7,1009.2,METAR KMUO 092355Z 28007KT 7SM SCT200 28/02 A2980 RMK AO2A SLP066 T02810023 10289 20254 57013 $,2025-09-10T00:12:46Z,2025-09-09T20:12:46Z
KMUO,"Mountain Home AFB, ID, US",2025-09-10T00:55:00Z,2025-09-09T20:55:00Z,VFR,27.8,2.8,330,6,0,7,1008.9,METAR KMUO 100055Z 33006KT 7SM SCT180 28/03 A2979 RMK AO2A SLP064 T02780028 $,2025-09-10T01:11:37Z,2025-09-09T21:11:37Z
KMWA,"Marion Rgnl, IL, US",2025-09-09T23:45:00Z,2025-09-09T19:45:00Z,VFR,26,14,0,0,0,NA,1017.4,METAR KMWA 092345Z 00000KT 10SM BKN100 26/14 A3004,2025-09-10T00:12:48Z,2025-09-09T20:12:48Z
KMWA,"Marion Rgnl, IL, US",2025-09-10T00:15:00Z,2025-09-09T20:15:00Z,VFR,21.7,13.1,0,0,0,NA,1017.4,METAR KMWA 100015Z AUTO 00000KT 10SM CLR 22/13 A3004 RMK AO2 T02170131,2025-09-10T00:33:24Z,2025-09-09T20:33:24Z
KMWA,"Marion Rgnl, IL, US",2025-09-10T00:55:00Z,2025-09-09T20:55:00Z,VFR,19.6,13,0,0,0,NA,1018,METAR KMWA 100055Z AUTO 00000KT 10SM CLR 20/13 A3006 RMK AO2 T01960130,2025-09-10T01:11:37Z,2025-09-09T21:11:37Z
KMWH,"Moses Lake/Grant Cnty, WA, US",2025-09-09T23:52:00Z,2025-09-09T19:52:00Z,VFR,28.9,10.6,270,6,0,NA,1008.9,METAR KMWH 092352Z 27006KT 10SM CLR 29/11 A2979 RMK AO2 SLP081 T02890106 10300 20250 56019,2025-09-10T00:12:47Z,2025-09-09T20:12:47Z
KMWH,"Moses Lake/Grant Cnty, WA, US",2025-09-10T00:52:00Z,2025-09-09T20:52:00Z,VFR,28.3,10,250,9,0,NA,1008.5,METAR KMWH 100052Z 25009KT 10SM CLR 28/10 A2978 RMK AO2 SLP078 T02830100,2025-09-10T01:11:37Z,2025-09-09T21:11:37Z
KMWN,"Mount Washington(OBS), NH, US",2025-09-10T00:58:00Z,2025-09-09T20:58:00Z,VFR,7,-8,150,13,0,90,NA,METAR KMWN 100058Z 15013KT 90SM SCT180 SCT200 07/M08 RMK,2025-09-10T01:11:37Z,2025-09-09T21:11:37Z
KMXF,"Maxwell AFB, AL, US",2025-09-09T23:55:00Z,2025-09-09T19:55:00Z,VFR,27.1,14.5,0,0,0,NA,1016.3,METAR KMXF 092355Z AUTO 00000KT 10SM CLR 27/15 A3001 RMK AO2 SLP164 T02710145 10303 20270 53001,2025-09-10T00:12:46Z,2025-09-09T20:12:46Z
KMXF,"Maxwell AFB, AL, US",2025-09-10T00:55:00Z,2025-09-09T20:55:00Z,VFR,23.3,16.3,0,0,0,NA,1016.7,METAR KMXF 100055Z AUTO 00000KT 10SM CLR 23/16 A3002 RMK AO2 SLP167 T02330163,2025-09-10T01:11:37Z,2025-09-09T21:11:37Z
KMYL,"McCall Muni, ID, US",2025-09-09T23:51:00Z,2025-09-09T19:51:00Z,VFR,23.3,3.3,VAR,6,0,NA,1013,METAR KMYL 092351Z AUTO VRB06KT 10SM FEW090 23/03 A2991 RMK AO2 SLP083 6//// T02330033 56014,2025-09-10T00:12:47Z,2025-09-09T20:12:47Z
KMYL,"McCall Muni, ID, US",2025-09-10T00:51:00Z,2025-09-09T20:51:00Z,VFR,22.8,3.9,350,6,0,NA,1013,METAR KMYL 100051Z AUTO 35006KT 10SM FEW100 23/04 A2991 RMK AO2 SLP087 T02280039,2025-09-10T01:11:37Z,2025-09-09T21:11:37Z
KMYR,"Myrtle Beach Intl, SC, US",2025-09-09T14:53:00Z,2025-09-09T10:53:00Z,VFR,21.1,14.4,10,9,14,NA,1020.7,METAR KMYR 091453Z 01009G14KT 10SM CLR 21/14 A3014 RMK AO2 SLP204 T02110144 53004 $,2025-09-09T15:51:29Z,2025-09-09T11:51:29Z
KMYR,"Myrtle Beach Intl, SC, US",2025-09-09T15:53:00Z,2025-09-09T11:53:00Z,VFR,22.2,15.6,360,13,0,NA,1020.7,METAR KMYR 091553Z 36013KT 10SM CLR 22/16 A3014 RMK AO2 SLP204 T02220156 $,2025-09-09T16:06:01Z,2025-09-09T12:06:01Z
KMYR,"Myrtle Beach Intl, SC, US",2025-09-09T16:53:00Z,2025-09-09T12:53:00Z,VFR,23.9,16.7,360,12,0,NA,1020.1,METAR KMYR 091653Z 36012KT 10SM CLR 24/17 A3012 RMK AO2 SLP199 T02390167 $,2025-09-09T17:12:51Z,2025-09-09T13:12:51Z
KMYR,"Myrtle Beach Intl, SC, US",2025-09-09T17:53:00Z,2025-09-09T13:53:00Z,VFR,25,17.2,360,15,0,NA,1019.4,METAR KMYR 091753Z 36015KT 10SM CLR 25/17 A3010 RMK AO2 SLP194 T02500172 10250 20183 58010 $,2025-09-09T18:09:20Z,2025-09-09T14:09:20Z
KMYR,"Myrtle Beach Intl, SC, US",2025-09-09T18:53:00Z,2025-09-09T14:53:00Z,VFR,25,17.2,10,11,0,NA,1018.7,METAR KMYR 091853Z 01011KT 10SM SCT033 25/17 A3008 RMK AO2 SLP185 T02500172 $,2025-09-09T19:00:56Z,2025-09-09T15:00:56Z
KMYR,"Myrtle Beach Intl, SC, US",2025-09-09T19:53:00Z,2025-09-09T15:53:00Z,VFR,25,17.2,10,12,0,NA,1018,METAR KMYR 091953Z 01012KT 10SM CLR 25/17 A3006 RMK AO2 SLP178 T02500172 $,2025-09-09T20:10:15Z,2025-09-09T16:10:15Z
KMYR,"Myrtle Beach Intl, SC, US",2025-09-09T20:53:00Z,2025-09-09T16:53:00Z,VFR,25.6,17.8,350,13,0,NA,1017.4,METAR KMYR 092053Z 35013KT 10SM CLR 26/18 A3004 RMK AO2 SLP173 T02560178 56020 $,2025-09-09T21:12:42Z,2025-09-09T17:12:42Z
KMYR,"Myrtle Beach Intl, SC, US",2025-09-09T21:53:00Z,2025-09-09T17:53:00Z,VFR,25,18.3,30,10,0,NA,1017.7,METAR KMYR 092153Z 03010KT 10SM FEW029 25/18 A3005 RMK AO2 SLP174 T02500183 $,2025-09-09T22:00:08Z,2025-09-09T18:00:08Z
KMYR,"Myrtle Beach Intl, SC, US",2025-09-09T22:18:00Z,2025-09-09T18:18:00Z,MVFR,24,18,20,10,14,NA,1017.7,SPECI KMYR 092218Z 02010G14KT 10SM BKN027 24/18 A3005 RMK AO2 $,2025-09-09T22:20:14Z,2025-09-09T18:20:14Z
KMYR,"Myrtle Beach Intl, SC, US",2025-09-09T22:53:00Z,2025-09-09T18:53:00Z,MVFR,23.9,18.3,10,8,0,NA,1017.7,METAR KMYR 092253Z 01008KT 10SM OVC027 24/18 A3005 RMK AO2 SLP175 T02390183 $,2025-09-09T22:58:31Z,2025-09-09T18:58:31Z
KMYR,"Myrtle Beach Intl, SC, US",2025-09-09T23:53:00Z,2025-09-09T19:53:00Z,MVFR,23.3,18.3,30,7,14,NA,1018,METAR KMYR 092353Z 03007G14KT 10SM OVC027 23/18 A3006 RMK AO2 SLP179 T02330183 10261 20233 53006 $,2025-09-10T00:12:47Z,2025-09-09T20:12:47Z
KMYR,"Myrtle Beach Intl, SC, US",2025-09-10T00:53:00Z,2025-09-09T20:53:00Z,MVFR,23.3,17.8,20,7,0,NA,1018.7,METAR KMYR 100053Z 02007KT 350V070 10SM OVC029 23/18 A3008 RMK AO2 SLP185 T02330178 $,2025-09-10T01:11:37Z,2025-09-09T21:11:37Z
KMYV,"Marysville/Yuba Cnty, CA, US",2025-09-09T23:53:00Z,2025-09-09T19:53:00Z,VFR,25.6,13.3,160,11,0,NA,1010.2,METAR KMYV 092353Z AUTO 16011KT 10SM CLR 26/13 A2983 RMK AO2 SLP104 T02560133 10278 20233 56020,2025-09-10T00:12:47Z,2025-09-09T20:12:47Z
KMYV,"Marysville/Yuba Cnty, CA, US",2025-09-10T00:53:00Z,2025-09-09T20:53:00Z,VFR,25,13.9,180,12,0,NA,1009.9,METAR KMYV 100053Z AUTO 18012KT 10SM CLR 25/14 A2982 RMK AO2 SLP100 T02500139,2025-09-10T01:11:37Z,2025-09-09T21:11:37Z
KNBC,"Beaufort(MCAS), SC, US",2025-09-09T23:56:00Z,2025-09-09T19:56:00Z,VFR,22.2,16.1,50,4,0,7,1017.7,METAR KNBC 092356Z 05004KT 7SM SCT200 SCT250 22/16 A3005 RMK AO2 SLP175 T02220161 10278 20222 53002,2025-09-10T00:12:46Z,2025-09-09T20:12:46Z
KNBC,"Beaufort(MCAS), SC, US",2025-09-10T00:56:00Z,2025-09-09T20:56:00Z,VFR,21.7,16.7,350,5,0,7,1018,METAR KNBC 100056Z 35005KT 7SM SCT200 SCT250 22/17 A3006 RMK AO2 SLP178 T02170167,2025-09-10T01:11:37Z,2025-09-09T21:11:37Z
KNBG,"New Orleans (NAS), LA, US",2025-09-09T23:55:00Z,2025-09-09T19:55:00Z,VFR,27.2,22.8,100,7,0,NA,1015,METAR KNBG 092355Z 10007KT 10SM FEW028 FEW250 27/23 A2997 RMK AO2 SLP147 T02720228 10306 20272 53001,2025-09-10T00:12:46Z,2025-09-09T20:12:46Z
KNBG,"New Orleans (NAS), LA, US",2025-09-10T00:55:00Z,2025-09-09T20:55:00Z,VFR,25.6,22.2,80,4,0,NA,1015.3,METAR KNBG 100055Z 08004KT 10SM FEW030 FEW250 26/22 A2998 RMK AO2 SLP151 CB DSNT NW T02560222,2025-09-10T01:11:37Z,2025-09-09T21:11:37Z
KNCA,"New River MCAS, NC, US",2025-09-09T23:56:00Z,2025-09-09T19:56:00Z,MVFR,21.7,18.3,360,12,18,NA,1017.4,METAR KNCA 092356Z 36012G18KT 10SM OVC019 22/18 A3004 RMK AO2 SLP175 T02170183 10239 20217 53000,2025-09-10T00:12:46Z,2025-09-09T20:12:46Z
KNCA,"New River MCAS, NC, US",2025-09-10T00:56:00Z,2025-09-09T20:56:00Z,MVFR,21.7,18.3,360,12,19,NA,1017.7,METAR KNCA 100056Z 36012G19KT 10SM OVC019 22/18 A3005 RMK AO2 SLP178 T02170183,2025-09-10T01:11:37Z,2025-09-09T21:11:37Z
KNDZ,"Milton/Whiting-S(NAS, FL, US",2025-09-09T23:56:00Z,2025-09-09T19:56:00Z,VFR,27.8,18.9,30,7,0,NA,1016,METAR KNDZ 092356Z 03007KT 10SM FEW050 SCT250 28/19 A3000 RMK AO2 SLP143 T02780189 10311 20278 53005 $,2025-09-10T00:12:46Z,2025-09-09T20:12:46Z
KNDZ,"Milton/Whiting-S(NAS, FL, US",2025-09-10T00:56:00Z,2025-09-09T20:56:00Z,VFR,26.1,18.9,40,7,0,NA,1016.3,METAR KNDZ 100056Z 04007KT 10SM FEW048 BKN085 BKN250 26/19 A3001 RMK AO2 SLP149 T02610189 $,2025-09-10T01:11:37Z,2025-09-09T21:11:37Z
KNEL,"Lakehurst(NAS), NJ, US",2025-09-10T01:00:00Z,2025-09-09T21:00:00Z,NA,17.8,12.8,60,4,0,NA,1024.1,METAR KNEL 100100Z AUTO 06004KT BKN044 18/13 A3024 RMK AO2 SLP237 T01780128 PNO $,2025-09-10T01:11:37Z,2025-09-09T21:11:37Z
KNEW,"New Orleans/Lakefront Arpt, LA, US",2025-09-09T23:53:00Z,2025-09-09T19:53:00Z,VFR,28.3,22.2,110,9,0,NA,1015.3,METAR KNEW 092353Z 11009KT 10SM CLR 28/22 A2998 RMK AO1 SLP145 T02830222 10311 20283 55000,2025-09-10T00:12:47Z,2025-09-09T20:12:47Z
KNEW,"New Orleans/Lakefront Arpt, LA, US",2025-09-10T00:53:00Z,2025-09-09T20:53:00Z,VFR,27.8,22.2,110,6,0,NA,1015.7,METAR KNEW 100053Z 11006KT 10SM CLR 28/22 A2999 RMK AO1 SLP149 T02780222,2025-09-10T01:11:37Z,2025-09-09T21:11:37Z
KNFG,"Camp Pendleton(MCB), CA, US",2025-09-09T23:52:00Z,2025-09-09T19:52:00Z,VFR,23.3,16.1,VAR,6,0,NA,1010.9,METAR KNFG 092352Z AUTO VRB06KT 10SM CLR 23/16 A2985 RMK AO2 SLP106 T02330161 10256 20233 56014 $,2025-09-10T00:12:47Z,2025-09-09T20:12:47Z
KNFG,"Camp Pendleton(MCB), CA, US",2025-09-10T00:52:00Z,2025-09-09T20:52:00Z,VFR,22.2,16.7,210,8,0,NA,1010.9,METAR KNFG 100052Z 21008KT 10SM FEW010 22/17 A2985 RMK AO2 SLP106 T02220167 $,2025-09-10T01:11:37Z,2025-09-09T21:11:37Z
KNFL,"Fallon (NAS), NV, US",2025-09-09T23:57:00Z,2025-09-09T19:57:00Z,VFR,26.1,-0.6,360,7,0,9,1010.2,METAR KNFL 092357Z 36007KT 9SM SCT070 SCT120 BKN180 BKN220 26/M01 A2983 RMK AO2 SLP078 T02611006 10261 20222 56023,2025-09-10T00:12:46Z,2025-09-09T20:12:46Z
KNFL,"Fallon (NAS), NV, US",2025-09-10T00:57:00Z,2025-09-09T20:57:00Z,VFR,25,0,340,7,0,NA,1009.9,METAR KNFL 100057Z 34007KT 10SM CLR 25/00 A2982 RMK AO2 SLP074 T02500000,2025-09-10T01:11:37Z,2025-09-09T21:11:37Z
KNFW,"Fort Worth/Carswell NAS, TX, US",2025-09-09T23:52:00Z,2025-09-09T19:52:00Z,VFR,30,12.2,130,10,0,NA,1015,METAR KNFW 092352Z 13010KT 10SM CLR 30/12 A2997 RMK AO2 SLP131 T03000122 10311 20283 58008 $,2025-09-10T00:12:47Z,2025-09-09T20:12:47Z
KNFW,"Fort Worth/Carswell NAS, TX, US",2025-09-10T00:52:00Z,2025-09-09T20:52:00Z,VFR,28.3,11.7,130,7,0,NA,1015,METAR KNFW 100052Z 13007KT 10SM FEW250 28/12 A2997 RMK AO2 SLP132 T02830117 $,2025-09-10T01:11:37Z,2025-09-09T21:11:37Z
KNGP,"Corpus Christi/Truax Fld NAS, TX, US",2025-09-09T23:56:00Z,2025-09-09T19:56:00Z,VFR,30,21.1,80,12,0,NA,1013.6,METAR KNGP 092356Z 08012KT 10SM FEW030 FEW250 30/21 A2993 RMK AO2 SLP135 TCU DSNT S T03000211 10322 20300 55001,2025-09-10T00:12:46Z,2025-09-09T20:12:46Z
KNGP,"Corpus Christi/Truax Fld NAS, TX, US",2025-09-10T00:56:00Z,2025-09-09T20:56:00Z,VFR,28.9,22.8,90,11,0,NA,1014,METAR KNGP 100056Z 09011KT 10SM SCT025 29/23 A2994 RMK AO2 SLP138 T02890228,2025-09-10T01:11:37Z,2025-09-09T21:11:37Z
KNGU,"Norfolk NAS, VA, US",2025-09-09T23:59:00Z,2025-09-09T19:59:00Z,MVFR,20,17.8,30,17,26,4,1020.1,METAR KNGU 092359Z AUTO 03017G26KT 4SM BR OVC014 20/18 A3012 RMK AO2 PK WND 03026/2340 SLP200 60000 T02000178 10233 20200 56007,2025-09-10T00:12:46Z,2025-09-09T20:12:46Z
KNGU,"Norfolk NAS, VA, US",2025-09-09T23:59:00Z,2025-09-09T19:59:00Z,MVFR,20,17.8,30,17,26,4,1020.1,METAR KNGU 092359Z 03017G26KT 4SM BR OVC014 20/18 A3012 RMK AO2 PK WND 03026/2340 SLP200 60000 T02000178 10233 20200 56007,2025-09-10T00:33:24Z,2025-09-09T20:33:24Z
KNGU,"Norfolk NAS, VA, US",2025-09-10T00:59:00Z,2025-09-09T20:59:00Z,MVFR,20,17.8,30,14,21,3,1020.1,METAR KNGU 100059Z 03014G21KT 3SM BR OVC013 20/18 A3012 RMK AO2 PK WND 03026/0033 SFC VIS 6 SLP200 T02000178,2025-09-10T01:11:37Z,2025-09-09T21:11:37Z
KNHK,"Patuxent River NAS, MD, US",2025-09-09T23:52:00Z,2025-09-09T19:52:00Z,VFR,20,15,50,13,21,NA,1022.1,METAR KNHK 092352Z 05013G21KT 10SM BKN035 OVC050 20/15 A3018 RMK AO2 SLP219 T02000150 10233 20200 58001 $,2025-09-10T00:12:47Z,2025-09-09T20:12:47Z
KNHK,"Patuxent River NAS, MD, US",2025-09-10T00:52:00Z,2025-09-09T20:52:00Z,VFR,20,13.9,50,14,23,NA,1022.4,METAR KNHK 100052Z 05014G23KT 10SM BKN040 OVC250 20/14 A3019 RMK AO2 SLP222 T02000139 $,2025-09-10T01:11:37Z,2025-09-09T21:11:37Z
KNID,"China Lake (NAF), CA, US",2025-09-09T23:56:00Z,2025-09-09T19:56:00Z,VFR,32.8,-0.6,230,13,20,NA,1008.5,METAR KNID 092356Z 23013G20KT 10SM FEW280 33/M01 A2978 RMK AO2 SLP062 T03281006 10344 20311 56014 $,2025-09-10T00:12:46Z,2025-09-09T20:12:46Z
KNID,"China Lake (NAF), CA, US",2025-09-10T00:56:00Z,2025-09-09T20:56:00Z,VFR,31.1,2.2,230,15,22,NA,1008.5,METAR KNID 100056Z 23015G22KT 10SM FEW280 31/02 A2978 RMK AO2 SLP063 T03110022 $,2025-09-10T01:11:37Z,2025-09-09T21:11:37Z
KNIP,"Jacksonville (NAS), FL, US",2025-09-09T23:53:00Z,2025-09-09T19:53:00Z,VFR,24.4,20.6,30,13,0,NA,1016.3,METAR KNIP 092353Z 03013KT 10SM SCT024 BKN031 BKN120 24/21 A3001 RMK AO2 SLP157 T2 SET 60002 T02440206 10267 20244 50003,2025-09-10T00:12:47Z,2025-09-09T20:12:47Z
KNIP,"Jacksonville (NAS), FL, US",2025-09-10T00:53:00Z,2025-09-09T20:53:00Z,VFR,24.4,20,30,11,20,NA,1016.7,METAR KNIP 100053Z 03011G20KT 10SM SCT024 BKN031 BKN120 24/20 A3002 RMK AO2 SLP161 T2 SET T02440200,2025-09-10T01:11:37Z,2025-09-09T21:11:37Z
KNJK,"El Centro(NAF), CA, US",2025-09-09T23:56:00Z,2025-09-09T19:56:00Z,VFR,38.9,1.1,250,18,0,NA,1004.8,METAR KNJK 092356Z 25018KT 10SM CLR 39/01 A2967 RMK AO2 PK WND 23026/2331 SLP061 T03890011 10406 20367 56019 $,2025-09-10T00:12:46Z,2025-09-09T20:12:46Z
KNJK,"El Centro(NAF), CA, US",2025-09-10T00:56:00Z,2025-09-09T20:56:00Z,VFR,37.2,1.1,260,22,0,NA,1004.5,METAR KNJK 100056Z 26022KT 10SM CLR 37/01 A2966 RMK AO2 PK WND 25027/0056 SLP059 T03720011 $,2025-09-10T01:11:37Z,2025-09-09T21:11:37Z
KNKT,"Cherry Point MCAS, NC, US",2025-09-09T23:55:00Z,2025-09-09T19:55:00Z,MVFR,21.7,18.9,20,18,26,NA,1017.4,METAR KNKT 092355Z 02018G26KT 10SM OVC016 22/19 A3004 RMK AO2 PK WND 02026/2355 SLP168 T02170189 10244 20217 58003,2025-09-10T00:12:46Z,2025-09-09T20:12:46Z
KNKT,"Cherry Point MCAS, NC, US",2025-09-10T01:10:00Z,2025-09-09T21:10:00Z,MVFR,21.7,18.9,10,16,24,NA,1018,SPECI KNKT 100110Z 01016G24KT 10SM OVC014 22/19 A3006 RMK AO2 T02170189,2025-09-10T01:11:37Z,2025-09-09T21:11:37Z
KNKX,"Miramar (MCAS), CA, US",2025-09-09T23:55:00Z,2025-09-09T19:55:00Z,VFR,22.2,16.1,240,8,0,NA,1011.6,METAR KNKX 092355Z AUTO 24008KT 10SM CLR 22/16 A2987 RMK AO2 SLP107 T02220161 10261 20222 56010,2025-09-10T00:12:47Z,2025-09-09T20:12:47Z
KNKX,"Miramar (MCAS), CA, US",2025-09-10T00:55:00Z,2025-09-09T20:55:00Z,VFR,21.7,16.1,240,6,0,NA,1011.3,METAR KNKX 100055Z AUTO 24006KT 10SM CLR 22/16 A2986 RMK AO2 SLP106 T02170161,2025-09-10T01:11:37Z,2025-09-09T21:11:37Z
KNLC,"Lemoore (NAS), CA, US",2025-09-09T23:56:00Z,2025-09-09T19:56:00Z,VFR,30,13.3,360,9,0,NA,1009.2,METAR KNLC 092356Z 36009KT 10SM FEW070 SCT210 30/13 A2980 RMK AO2 SLP089 RH/34 T03000133 10311 20250 56023,2025-09-10T00:12:46Z,2025-09-09T20:12:46Z
KNLC,"Lemoore (NAS), CA, US",2025-09-10T00:56:00Z,2025-09-09T20:56:00Z,VFR,29.4,13.3,350,12,0,NA,1008.9,METAR KNLC 100056Z 35012KT 10SM FEW070 SCT210 29/13 A2979 RMK AO2 SLP086 RH/36 T02940133,2025-09-10T01:11:37Z,2025-09-09T21:11:37Z
KNMM,"Meridian/MCCain(NAS), MS, US",2025-09-09T23:56:00Z,2025-09-09T19:56:00Z,VFR,26.1,17.2,80,3,0,NA,1016.7,METAR KNMM 092356Z 08003KT 10SM CLR 26/17 A3002 RMK AO2 SLP173 T02610172 10306 20261 55001,2025-09-10T00:12:46Z,2025-09-09T20:12:46Z
KNMM,"Meridian/MCCain(NAS), MS, US",2025-09-10T00:56:00Z,2025-09-09T20:56:00Z,VFR,25,17.8,0,0,0,NA,1017,METAR KNMM 100056Z 00000KT 10SM CLR 25/18 A3003 RMK AO2 SLP176 T02500178,2025-09-10T01:11:37Z,2025-09-09T21:11:37Z
KNPA,"Pensacola (NAS), FL, US",2025-09-09T23:56:00Z,2025-09-09T19:56:00Z,VFR,27.8,21.1,100,3,0,NA,1015.3,METAR KNPA 092356Z 10003KT 10SM SCT048 28/21 A2998 RMK AO2 SLP153 T02780211 10306 20272 53002,2025-09-10T00:12:46Z,2025-09-09T20:12:46Z
KNPA,"Pensacola (NAS), FL, US",2025-09-10T00:56:00Z,2025-09-09T20:56:00Z,VFR,27.2,19.4,40,5,0,NA,1015.7,METAR KNPA 100056Z 04005KT 10SM FEW040 SCT250 27/19 A2999 RMK AO2 SLP157 T02720194,2025-09-10T01:11:37Z,2025-09-09T21:11:37Z
KNQA,"Millington Rgnl, TN, US",2025-09-09T23:50:00Z,2025-09-09T19:50:00Z,VFR,28,18,0,0,0,NA,1016,METAR KNQA 092350Z 00000KT 10SM CLR 28/18 A3000,2025-09-10T00:12:48Z,2025-09-09T20:12:48Z
KNQA,"Millington Rgnl, TN, US",2025-09-10T00:50:00Z,2025-09-09T20:50:00Z,VFR,24,18,30,3,0,NA,1016,METAR KNQA 100050Z 03003KT 10SM CLR 24/18 A3000,2025-09-10T01:11:37Z,2025-09-09T21:11:37Z
KNQI,"Kingsville(NAS), TX, US",2025-09-09T23:56:00Z,2025-09-09T19:56:00Z,VFR,30,21.1,100,11,0,NA,1013.6,METAR KNQI 092356Z 10011KT 10SM FEW050 FEW085 30/21 A2993 RMK AO2 SLP131 TCU DSNT SE T03000211 10339 20300 53004 $,2025-09-10T00:12:46Z,2025-09-09T20:12:46Z
KNQI,"Kingsville(NAS), TX, US",2025-09-10T00:56:00Z,2025-09-09T20:56:00Z,VFR,28.3,21.7,110,9,0,NA,1014,METAR KNQI 100056Z 11009KT 10SM FEW045 28/22 A2994 RMK AO2 SLP136 T02830217 $,2025-09-10T01:11:37Z,2025-09-09T21:11:37Z
KNQX,"Key West (NAS), FL, US",2025-09-09T23:53:00Z,2025-09-09T19:53:00Z,VFR,29.4,24.4,230,8,0,NA,1013.6,METAR KNQX 092353Z 23008KT 10SM FEW023 BKN250 29/24 A2993 RMK AO2 SLP134 FRQ LTGIC DSNT N CB DSNT N T02940244 10317 20294 53007 $,2025-09-10T00:12:47Z,2025-09-09T20:12:47Z
KNQX,"Key West (NAS), FL, US",2025-09-10T00:53:00Z,2025-09-09T20:53:00Z,VFR,29.4,24.4,230,6,0,NA,1014.3,METAR KNQX 100053Z 23006KT 10SM TS SCT025CB SCT080 BKN250 29/24 A2995 RMK AO2 TSB47 SLP141 OCNL LTGICCG VC NW TS NW MOV NE T1 SET T02940244 $,2025-09-10T01:11:37Z,2025-09-09T21:11:37Z
KNRB,"Mayport (NS), FL, US",2025-09-09T23:52:00Z,2025-09-09T19:52:00Z,VFR,25,21.1,40,18,0,NA,1016,METAR KNRB 092352Z 04018KT 10SM FEW020 SCT025 BKN250 25/21 A3000 RMK AO2 PK WND 04029/2300 SLP157 60001 T02500211 10256 20244 53003,2025-09-10T00:12:47Z,2025-09-09T20:12:47Z
KNRB,"Mayport (NS), FL, US",2025-09-10T00:28:00Z,2025-09-09T20:28:00Z,MVFR,25,20,40,20,28,NA,1016.3,SPECI KNRB 100028Z 04020G28KT 10SM BKN025 BKN250 25/20 A3001 RMK AO2 PK WND 05029/2359 T02500200,2025-09-10T00:33:24Z,2025-09-09T20:33:24Z
KNRB,"Mayport (NS), FL, US",2025-09-10T00:52:00Z,2025-09-09T20:52:00Z,MVFR,25,21.1,30,19,0,NA,1016.7,METAR KNRB 100052Z 03019KT 10SM BKN025 BKN250 25/21 A3002 RMK AO2 PK WND 05029/2359 SLP163 T02500211,2025-09-10T01:11:37Z,2025-09-09T21:11:37Z
KNSE,"Milton/Whiting N(NAS, FL, US",2025-09-09T23:56:00Z,2025-09-09T19:56:00Z,VFR,25.6,19.4,30,7,0,NA,1016,METAR KNSE 092356Z 03007KT 10SM SCT055 SCT250 26/19 A3000 RMK AO2 SLP143 T02560194 10311 20256 53004 $,2025-09-10T00:12:46Z,2025-09-09T20:12:46Z
KNSE,"Milton/Whiting N(NAS, FL, US",2025-09-10T00:56:00Z,2025-09-09T20:56:00Z,VFR,23.3,19.4,40,5,0,NA,1016.7,METAR KNSE 100056Z 04005KT 10SM FEW050 SCT090 23/19 A3002 RMK AO2 SLP149 T02330194 $,2025-09-10T01:11:37Z,2025-09-09T21:11:37Z
KNTD,"Pt Mugu (NAS), CA, US",2025-09-09T23:55:00Z,2025-09-09T19:55:00Z,VFR,22.2,17.2,250,9,0,NA,1011.3,METAR KNTD 092355Z 25009KT 10SM SCT008 SCT015 BKN075 22/17 A2986 RMK AO2 SLP112 T02220172 10244 20217 56017 $,2025-09-10T00:12:46Z,2025-09-09T20:12:46Z
KNTD,"Pt Mugu (NAS), CA, US",2025-09-10T00:55:00Z,2025-09-09T20:55:00Z,VFR,21.1,17.2,250,8,0,NA,1011.3,METAR KNTD 100055Z 25008KT 10SM FEW010 FEW015 SCT075 21/17 A2986 RMK AO2 SLP111 T02110172 $,2025-09-10T01:11:37Z,2025-09-09T21:11:37Z
KNTU,"Oceana(NAS), VA, US",2025-09-09T23:56:00Z,2025-09-09T19:56:00Z,LIFR,20,18.9,30,21,30,0.5,1018.7,METAR KNTU 092356Z 03021G30KT 1/2SM DZ FG BKN006 OVC010 20/19 A3008 RMK AO2 PK WND 01033/2324 SLP187 P0002 60005 T02000189 10222 20194 58008,2025-09-10T00:12:46Z,2025-09-09T20:12:46Z
KNTU,"Oceana(NAS), VA, US",2025-09-10T00:03:00Z,2025-09-09T20:03:00Z,IFR,20,18.9,30,18,30,3,1018.7,SPECI KNTU 100003Z 03018G30KT 3SM DZ BR BKN006 OVC011 20/19 A3008 RMK AO2 PK WND 03027/0002 P0000 T02000189,2025-09-10T00:33:24Z,2025-09-09T20:33:24Z
KNTU,"Oceana(NAS), VA, US",2025-09-10T00:56:00Z,2025-09-09T20:56:00Z,IFR,20,19.4,30,15,24,3,1018.7,METAR KNTU 100056Z 03015G24KT 3SM DZ BR OVC006 20/19 A3008 RMK AO2 PK WND 02029/0018 VIS 2 RWY 5R SLP187 P0001 T02000194,2025-09-10T01:11:37Z,2025-09-09T21:11:37Z
KNUQ,"Moffett Fed Airfld, CA, US",2025-09-09T23:55:00Z,2025-09-09T19:55:00Z,VFR,24,15,290,11,17,NA,1011.6,METAR KNUQ 092355Z AUTO 29011G17KT 10SM BKN047 24/15 A2987 RMK AO2,2025-09-10T00:12:46Z,2025-09-09T20:12:46Z
KNUQ,"Moffett Fed Airfld, CA, US",2025-09-10T00:15:00Z,2025-09-09T20:15:00Z,VFR,24,14,280,10,15,NA,1011.6,METAR KNUQ 100015Z AUTO 28010G15KT 240V310 10SM OVC047 24/14 A2987 RMK AO2,2025-09-10T00:33:24Z,2025-09-09T20:33:24Z
KNUQ,"Moffett Fed Airfld, CA, US",2025-09-10T00:55:00Z,2025-09-09T20:55:00Z,VFR,23,14,280,10,15,NA,1011.6,METAR KNUQ 100055Z AUTO 28010G15KT 10SM SCT047 23/14 A2987 RMK AO2,2025-09-10T01:11:37Z,2025-09-09T21:11:37Z
KNUW,"Whidbey Island(NAS), WA, US",2025-09-09T23:53:00Z,2025-09-09T19:53:00Z,VFR,17.2,12.8,260,4,0,NA,1013,METAR KNUW 092353Z 26004KT 10SM FEW030 SCT050 BKN180 17/13 A2991 RMK AO2 SLP133 T01720128 10183 20156 56011 $,2025-09-10T00:12:47Z,2025-09-09T20:12:47Z
KNUW,"Whidbey Island(NAS), WA, US",2025-09-10T00:53:00Z,2025-09-09T20:53:00Z,VFR,16.1,12.8,280,5,0,NA,1013.3,METAR KNUW 100053Z 28005KT 10SM FEW030 FEW050 BKN100 BKN180 16/13 A2992 RMK AO2 SLP134 T01610128 $,2025-09-10T01:11:39Z,2025-09-09T21:11:39Z
KNXP,"Twentynine Palms/Self Arpt, CA, US",2025-09-09T23:54:00Z,2025-09-09T19:54:00Z,VFR,35.6,-4.4,230,11,19,NA,1009.9,METAR KNXP 092354Z AUTO 23011G19KT 10SM CLR 36/M04 A2982 RMK AO2 SLP060 T03561044 10367 20300 56023 PWINO $,2025-09-10T00:12:47Z,2025-09-09T20:12:47Z
KNXP,"Twentynine Palms/Self Arpt, CA, US",2025-09-10T00:54:00Z,2025-09-09T20:54:00Z,VFR,33.3,-2.2,240,14,0,NA,1009.9,METAR KNXP 100054Z AUTO 24014KT 10SM CLR 33/M02 A2982 RMK AO2 SLP062 T03331022 PWINO $,2025-09-10T01:11:39Z,2025-09-09T21:11:39Z
KNYG,"Quantico (MCAF), VA, US",2025-09-09T23:56:00Z,2025-09-09T19:56:00Z,VFR,22.2,14.4,50,10,0,NA,1022.4,METAR KNYG 092356Z AUTO 05010KT 10SM SCT050 22/14 A3019 RMK AO2 SLP225 T02220144 10244 20217 58003,2025-09-10T00:12:46Z,2025-09-09T20:12:46Z
KNYG,"Quantico (MCAF), VA, US",2025-09-10T00:56:00Z,2025-09-09T20:56:00Z,VFR,21.1,15,80,9,0,NA,1023.1,METAR KNYG 100056Z AUTO 08009KT 10SM OVC050 21/15 A3021 RMK AO2 SLP231 T02110150,2025-09-10T01:11:39Z,2025-09-09T21:11:39Z
KNYL,"Yuma (MCAS), AZ, US",2025-09-09T23:57:00Z,2025-09-09T19:57:00Z,VFR,38.3,0.6,270,8,0,NA,1004.8,METAR KNYL 092357Z 27008KT 10SM CLR 38/01 A2967 RMK AO2 SLP044 T03830006 10389 20356 56020,2025-09-10T00:12:46Z,2025-09-09T20:12:46Z
KNYL,"Yuma (MCAS), AZ, US",2025-09-10T00:57:00Z,2025-09-09T20:57:00Z,VFR,37.8,1.1,290,4,0,NA,1004.5,METAR KNYL 100057Z 29004KT 10SM CLR 38/01 A2966 RMK AO2 SLP040 T03780011,2025-09-10T01:11:39Z,2025-09-09T21:11:39Z
KNZY,"San Diego/North Island NAS, CA, US",2025-09-09T23:52:00Z,2025-09-09T19:52:00Z,VFR,22.2,16.1,VAR,6,0,NA,1011.3,METAR KNZY 092352Z VRB06KT 10SM FEW022 22/16 A2986 RMK AO2 SLP110 T02220161 10233 20217 56013,2025-09-10T00:12:47Z,2025-09-09T20:12:47Z
KNZY,"San Diego/North Island NAS, CA, US",2025-09-10T00:52:00Z,2025-09-09T20:52:00Z,VFR,21.7,16.7,290,6,0,NA,1011.3,METAR KNZY 100052Z 29006KT 10SM SCT020 22/17 A2986 RMK AO2 SLP110 T02170167,2025-09-10T01:11:39Z,2025-09-09T21:11:39Z
KOAJ,"Jacksonville/Ellis Arpt, NC, US",2025-09-09T23:56:00Z,2025-09-09T19:56:00Z,MVFR,21.7,18.3,20,6,0,NA,1018.4,METAR KOAJ 092356Z 02006KT 10SM OVC022 22/18 A3007 RMK AO2 SLP183 T02170183 10233 20217 55000 $,2025-09-10T00:12:46Z,2025-09-09T20:12:46Z
KOAJ,"Jacksonville/Ellis Arpt, NC, US",2025-09-10T00:56:00Z,2025-09-09T20:56:00Z,MVFR,21.1,18.3,10,5,0,NA,1018.7,METAR KOAJ 100056Z 01005KT 10SM OVC020 21/18 A3008 RMK AO2 SLP187 T02110183 $,2025-09-10T01:11:39Z,2025-09-09T21:11:39Z
KOAK,"Oakland Intl, CA, US",2025-09-09T15:21:00Z,2025-09-09T11:21:00Z,VFR,18.9,16.7,200,6,0,NA,1014.6,SPECI KOAK 091521Z 20006KT 10SM FEW020 SCT038 BKN250 19/17 A2996 RMK AO2 RAE02 P0000 T01890167,2025-09-09T15:51:32Z,2025-09-09T11:51:32Z
KOAK,"Oakland Intl, CA, US",2025-09-09T15:53:00Z,2025-09-09T11:53:00Z,VFR,18.9,17.2,190,7,0,NA,1014.6,METAR KOAK 091553Z 19007KT 10SM SCT019 BKN038 BKN050 BKN250 19/17 A2996 RMK AO2 RAE02 SLP144 P0000 T01890172,2025-09-09T16:06:05Z,2025-09-09T12:06:05Z
KOAK,"Oakland Intl, CA, US",2025-09-09T17:10:00Z,2025-09-09T13:10:00Z,MVFR,19.4,16.7,160,7,0,NA,1014.6,SPECI KOAK 091710Z 16007KT 10SM FEW019 BKN027 BKN037 BKN250 19/17 A2996 RMK AO2 T01940167,2025-09-09T17:12:57Z,2025-09-09T13:12:57Z
KOAK,"Oakland Intl, CA, US",2025-09-09T17:53:00Z,2025-09-09T13:53:00Z,VFR,20.6,16.7,190,8,0,NA,1014.3,METAR KOAK 091753Z 19008KT 10SM FEW014 SCT020 BKN038 BKN250 21/17 A2995 RMK AO2 RAB14E23 SLP142 P0000 60002 T02060167 10206 20183 58001,2025-09-09T18:09:23Z,2025-09-09T14:09:23Z
KOAK,"Oakland Intl, CA, US",2025-09-09T18:53:00Z,2025-09-09T14:53:00Z,VFR,20.6,16.1,180,5,0,NA,1014.3,METAR KOAK 091853Z 18005KT 10SM FEW020 BKN040 BKN250 21/16 A2995 RMK AO2 SLP141 T02060161,2025-09-09T19:00:59Z,2025-09-09T15:00:59Z
KOAK,"Oakland Intl, CA, US",2025-09-09T19:53:00Z,2025-09-09T15:53:00Z,VFR,22.2,16.1,VAR,6,0,NA,1013.6,METAR KOAK 091953Z VRB06KT 10SM SCT050 BKN160 BKN250 22/16 A2993 RMK AO2 SLP136 T02220161,2025-09-09T20:10:19Z,2025-09-09T16:10:19Z
KOAK,"Oakland Intl, CA, US",2025-09-09T22:53:00Z,2025-09-09T18:53:00Z,VFR,22.2,16.1,250,15,0,NA,1012.6,METAR KOAK 092253Z 25015KT 10SM FEW008 SCT038 BKN048 BKN200 22/16 A2990 RMK AO2 SLP124 T02220161,2025-09-09T22:58:34Z,2025-09-09T18:58:34Z
KOAK,"Oakland Intl, CA, US",2025-09-09T23:53:00Z,2025-09-09T19:53:00Z,VFR,21.7,15.6,260,10,0,NA,1012.3,METAR KOAK 092353Z 26010KT 10SM FEW008 SCT024 BKN050 BKN200 22/16 A2989 RMK AO2 SLP121 T02170156 10228 20200 56013,2025-09-10T00:12:47Z,2025-09-09T20:12:47Z
KOAK,"Oakland Intl, CA, US",2025-09-10T00:53:00Z,2025-09-09T20:53:00Z,VFR,21.1,16.1,260,10,0,NA,1011.9,METAR KOAK 100053Z 26010KT 10SM FEW008 SCT020 BKN220 21/16 A2988 RMK AO2 SLP119 T02110161,2025-09-10T01:11:39Z,2025-09-09T21:11:39Z
KOFF,"Bellevue/Offutt AFB, NE, US",2025-09-09T23:55:00Z,2025-09-09T19:55:00Z,VFR,25,17.9,150,6,0,NA,1014.3,METAR KOFF 092355Z 15006KT 10SM BKN043 BKN250 25/18 A2995 RMK AO2A SLP141 T02500179 10263 20228 55002,2025-09-10T00:12:47Z,2025-09-09T20:12:47Z
KOFF,"Bellevue/Offutt AFB, NE, US",2025-09-10T00:55:00Z,2025-09-09T20:55:00Z,VFR,22.3,17.6,100,3,0,NA,1014,METAR KOFF 100055Z 10003KT 10SM BKN044 22/18 A2994 RMK AO2A SLP138 T02230176,2025-09-10T01:11:39Z,2025-09-09T21:11:39Z
KOFK,"Norfolk/Stefan Mem, NE, US",2025-09-09T23:56:00Z,2025-09-09T19:56:00Z,VFR,22.8,17.8,130,6,0,NA,1014.3,METAR KOFK 092356Z AUTO 13006KT 10SM CLR 23/18 A2995 RMK AO2 SLP135 T02280178 10256 20228 53001,2025-09-10T00:12:46Z,2025-09-09T20:12:46Z
KOFK,"Norfolk/Stefan Mem, NE, US",2025-09-10T00:56:00Z,2025-09-09T20:56:00Z,VFR,20,17.8,130,6,0,NA,1014.3,METAR KOFK 100056Z AUTO 13006KT 10SM CLR 20/18 A2995 RMK AO2 SLP137 T02000178,2025-09-10T01:11:39Z,2025-09-09T21:11:39Z
KOGB,"Orangeburg Muni, SC, US",2025-09-09T23:53:00Z,2025-09-09T19:53:00Z,VFR,22.2,10.6,10,4,0,NA,1019,METAR KOGB 092353Z AUTO 01004KT 10SM CLR 22/11 A3009 RMK AO2 SLP186 T02220106 10261 20222 53003,2025-09-10T00:12:47Z,2025-09-09T20:12:47Z
KOGB,"Orangeburg Muni, SC, US",2025-09-10T00:53:00Z,2025-09-09T20:53:00Z,VFR,20.6,11.1,350,4,0,NA,1019.4,METAR KOGB 100053Z AUTO 35004KT 10SM CLR 21/11 A3010 RMK AO2 SLP189 T02060111,2025-09-10T01:11:39Z,2025-09-09T21:11:39Z
KOGD,"Ogden/Hinckley Arpt, UT, US",2025-09-09T23:53:00Z,2025-09-09T19:53:00Z,VFR,28.3,0.6,300,5,0,NA,1010.6,METAR KOGD 092353Z 30005KT 10SM CLR 28/01 A2984 RMK AO2 SLP043 T02830006 10306 20278 56017,2025-09-10T00:12:47Z,2025-09-09T20:12:47Z
KOGD,"Ogden/Hinckley Arpt, UT, US",2025-09-10T00:53:00Z,2025-09-09T20:53:00Z,VFR,27.8,0.6,30,7,0,NA,1010.2,METAR KOGD 100053Z 03007KT 10SM CLR 28/01 A2983 RMK AO2 SLP039 T02780006,2025-09-10T01:11:39Z,2025-09-09T21:11:39Z
KOGS,"Ogdensburg Intl, NY, US",2025-09-09T23:55:00Z,2025-09-09T19:55:00Z,VFR,13,11,0,0,0,NA,1023.8,METAR KOGS 092355Z AUTO 00000KT 10SM CLR 13/11 A3023 RMK AO2,2025-09-10T00:12:46Z,2025-09-09T20:12:46Z
KOGS,"Ogdensburg Intl, NY, US",2025-09-10T00:15:00Z,2025-09-09T20:15:00Z,VFR,12,11,0,0,0,NA,1023.8,METAR KOGS 100015Z AUTO 00000KT 10SM CLR 12/11 A3023 RMK AO2,2025-09-10T00:33:24Z,2025-09-09T20:33:24Z
KOGS,"Ogdensburg Intl, NY, US",2025-09-10T00:55:00Z,2025-09-09T20:55:00Z,VFR,11,10,0,0,0,NA,1023.8,METAR KOGS 100055Z AUTO 00000KT 10SM CLR 11/10 A3023 RMK AO2,2025-09-10T01:11:39Z,2025-09-09T21:11:39Z
KOKC,"Oklahoma City/Will Rogers Intl, OK, US",2025-09-09T14:52:00Z,2025-09-09T10:52:00Z,VFR,21.7,11.1,180,14,0,NA,1018.4,METAR KOKC 091452Z 18014KT 10SM BKN090 22/11 A3007 RMK AO2 SLP172 T02170111 53004,2025-09-09T15:51:30Z,2025-09-09T11:51:30Z
KOKC,"Oklahoma City/Will Rogers Intl, OK, US",2025-09-09T15:52:00Z,2025-09-09T11:52:00Z,VFR,23.9,12.2,190,11,0,NA,1018.4,METAR KOKC 091552Z 19011KT 10SM SCT095 SCT250 24/12 A3007 RMK AO2 SLP169 T02390122,2025-09-09T16:06:03Z,2025-09-09T12:06:03Z
KOKC,"Oklahoma City/Will Rogers Intl, OK, US",2025-09-09T16:52:00Z,2025-09-09T12:52:00Z,VFR,25.6,12.8,180,15,0,NA,1017.7,METAR KOKC 091652Z 18015KT 10SM FEW100 SCT250 26/13 A3005 RMK AO2 SLP163 T02560128,2025-09-09T17:12:54Z,2025-09-09T13:12:54Z
KOKC,"Oklahoma City/Will Rogers Intl, OK, US",2025-09-09T17:52:00Z,2025-09-09T13:52:00Z,VFR,27.2,14.4,180,13,23,NA,1017,METAR KOKC 091752Z 18013G23KT 10SM SCT250 27/14 A3003 RMK AO2 SLP156 T02720144 10272 20156 58014,2025-09-09T18:09:22Z,2025-09-09T14:09:22Z
KOKC,"Oklahoma City/Will Rogers Intl, OK, US",2025-09-09T18:52:00Z,2025-09-09T14:52:00Z,VFR,28.3,15,170,12,0,NA,1016.7,METAR KOKC 091852Z 17012KT 10SM SCT250 28/15 A3002 RMK AO2 SLP151 T02830150,2025-09-09T19:00:57Z,2025-09-09T15:00:57Z
KOKC,"Oklahoma City/Will Rogers Intl, OK, US",2025-09-09T19:52:00Z,2025-09-09T15:52:00Z,VFR,28.9,15.6,190,13,0,NA,1016,METAR KOKC 091952Z 19013KT 10SM FEW250 29/16 A3000 RMK AO2 SLP143 T02890156,2025-09-09T20:10:18Z,2025-09-09T16:10:18Z
KOKC,"Oklahoma City/Will Rogers Intl, OK, US",2025-09-09T20:52:00Z,2025-09-09T16:52:00Z,VFR,29.4,16.1,180,14,19,NA,1015.3,METAR KOKC 092052Z 18014G19KT 10SM FEW200 FEW250 29/16 A2998 RMK AO2 SLP140 T02940161 57016,2025-09-09T21:12:45Z,2025-09-09T17:12:45Z
KOKC,"Oklahoma City/Will Rogers Intl, OK, US",2025-09-09T21:52:00Z,2025-09-09T17:52:00Z,VFR,29.4,16.1,170,11,21,NA,1015.3,METAR KOKC 092152Z 17011G21KT 10SM FEW200 FEW250 29/16 A2998 RMK AO2 SLP138 T02940161,2025-09-09T22:00:10Z,2025-09-09T18:00:10Z
KOKC,"Oklahoma City/Will Rogers Intl, OK, US",2025-09-09T22:52:00Z,2025-09-09T18:52:00Z,VFR,28.9,16.1,160,14,0,NA,1015,METAR KOKC 092252Z 16014KT 10SM FEW200 FEW250 29/16 A2997 RMK AO2 SLP137 T02890161,2025-09-09T22:58:33Z,2025-09-09T18:58:33Z
KOKC,"Oklahoma City/Will Rogers Intl, OK, US",2025-09-09T23:52:00Z,2025-09-09T19:52:00Z,VFR,27.8,16.7,170,10,0,NA,1015,METAR KOKC 092352Z 17010KT 10SM FEW180 FEW250 28/17 A2997 RMK AO2 SLP136 T02780167 10300 20272 56005,2025-09-10T00:12:47Z,2025-09-09T20:12:47Z
KOKC,"Oklahoma City/Will Rogers Intl, OK, US",2025-09-10T00:52:00Z,2025-09-09T20:52:00Z,VFR,24.4,16.7,170,8,0,NA,1014.6,METAR KOKC 100052Z 17008KT 10SM FEW180 FEW250 24/17 A2996 RMK AO2 SLP134 T02440167,2025-09-10T01:11:39Z,2025-09-09T21:11:39Z
KOLF,"Wolf Point/Clayton Arpt, MT, US",2025-09-09T23:53:00Z,2025-09-09T19:53:00Z,VFR,28.3,5.6,90,7,0,NA,1013.6,METAR KOLF 092353Z AUTO 09007KT 10SM CLR 28/06 A2993 RMK AO2 SLP132 T02830056 10294 20244 56008,2025-09-10T00:12:47Z,2025-09-09T20:12:47Z
KOLF,"Wolf Point/Clayton Arpt, MT, US",2025-09-10T00:53:00Z,2025-09-09T20:53:00Z,VFR,25.6,6.1,90,5,0,9,1013.3,METAR KOLF 100053Z AUTO 09005KT 9SM CLR 26/06 A2992 RMK AO2 SLP130 T02560061,2025-09-10T01:11:39Z,2025-09-09T21:11:39Z
KOLM,"Olympia Rgnl, WA, US",2025-09-09T23:54:00Z,2025-09-09T19:54:00Z,VFR,22.2,12.8,40,4,0,NA,1012.6,METAR KOLM 092354Z 04004KT 10SM CLR 22/13 A2990 RMK AO2 SLP125 T02220128 10233 20172 56014,2025-09-10T00:12:47Z,2025-09-09T20:12:47Z
KOLM,"Olympia Rgnl, WA, US",2025-09-10T00:54:00Z,2025-09-09T20:54:00Z,VFR,22.8,12.8,10,6,0,NA,1012.3,METAR KOLM 100054Z 01006KT 10SM SCT120 23/13 A2989 RMK AO2 SLP122 T02280128,2025-09-10T01:11:39Z,2025-09-09T21:11:39Z
KOLS,"Nogales Intl, AZ, US",2025-09-09T23:54:00Z,2025-09-09T19:54:00Z,VFR,34.4,8.9,260,7,0,NA,1014.6,METAR KOLS 092354Z AUTO 26007KT 220V290 10SM CLR 34/09 A2996 RMK AO2 SLP068 T03440089 10361 20317 56013,2025-09-10T00:12:47Z,2025-09-09T20:12:47Z
KOLS,"Nogales Intl, AZ, US",2025-09-10T00:54:00Z,2025-09-09T20:54:00Z,VFR,32.8,9.4,230,7,0,NA,1014.3,METAR KOLS 100054Z AUTO 23007KT 10SM CLR 33/09 A2995 RMK AO2 SLP071 T03280094,2025-09-10T01:11:39Z,2025-09-09T21:11:39Z
KOLU,"Columbus Muni, NE, US",2025-09-09T23:56:00Z,2025-09-09T19:56:00Z,VFR,23.9,18.9,130,6,0,NA,1014.6,METAR KOLU 092356Z AUTO 13006KT 10SM CLR 24/19 A2996 RMK AO2 SLP141 T02390189 10250 20228 57001,2025-09-10T00:12:46Z,2025-09-09T20:12:46Z
KOLU,"Columbus Muni, NE, US",2025-09-10T00:56:00Z,2025-09-09T20:56:00Z,VFR,21.1,18.3,100,5,0,NA,1014.6,METAR KOLU 100056Z AUTO 10005KT 10SM CLR 21/18 A2996 RMK AO2 SLP141 T02110183,2025-09-10T01:11:39Z,2025-09-09T21:11:39Z
KOMA,"Omaha/Eppley Fld, NE, US",2025-09-09T14:52:00Z,2025-09-09T10:52:00Z,VFR,20,15,180,12,0,NA,1016,METAR KOMA 091452Z 18012KT 10SM SCT042 SCT085 20/15 A3000 RMK AO2 SLP154 T02000150 50004,2025-09-09T15:51:29Z,2025-09-09T11:51:29Z
KOMA,"Omaha/Eppley Fld, NE, US",2025-09-09T15:52:00Z,2025-09-09T11:52:00Z,VFR,21.1,15.6,170,10,0,NA,1016,METAR KOMA 091552Z COR 17010KT 10SM SCT040 SCT080 21/16 A3000 RMK AO2 SLP155 T02110156,2025-09-09T16:06:02Z,2025-09-09T12:06:02Z
KOMA,"Omaha/Eppley Fld, NE, US",2025-09-09T16:52:00Z,2025-09-09T12:52:00Z,VFR,22.2,16.1,210,10,0,NA,1016.3,METAR KOMA 091652Z 21010KT 10SM SCT024 SCT050 BKN080 22/16 A3001 RMK AO2 SLP157 T02220161,2025-09-09T17:12:51Z,2025-09-09T13:12:51Z
KOMA,"Omaha/Eppley Fld, NE, US",2025-09-09T17:52:00Z,2025-09-09T13:52:00Z,VFR,23.9,16.1,190,8,0,NA,1015.7,METAR KOMA 091752Z 19008KT 10SM SCT024 24/16 A2999 RMK AO2 SLP148 T02390161 10239 20161 58004,2025-09-09T18:09:20Z,2025-09-09T14:09:20Z
KOMA,"Omaha/Eppley Fld, NE, US",2025-09-09T18:52:00Z,2025-09-09T14:52:00Z,VFR,23.9,16.7,210,9,0,NA,1015,METAR KOMA 091852Z 21009KT 10SM SCT027 24/17 A2997 RMK AO2 SLP143 T02390167,2025-09-09T19:00:56Z,2025-09-09T15:00:56Z
KOMA,"Omaha/Eppley Fld, NE, US",2025-09-09T19:21:00Z,2025-09-09T15:21:00Z,MVFR,23.9,16.7,160,5,0,NA,1015,SPECI KOMA 091921Z 16005KT 10SM BKN029 24/17 A2997 RMK AO2 T02390167,2025-09-09T19:30:40Z,2025-09-09T15:30:40Z
KOMA,"Omaha/Eppley Fld, NE, US",2025-09-09T19:52:00Z,2025-09-09T15:52:00Z,MVFR,25,17.2,170,6,0,NA,1015,METAR KOMA 091952Z 17006KT 10SM BKN030 25/17 A2997 RMK AO2 SLP141 T02500172,2025-09-09T20:10:15Z,2025-09-09T16:10:15Z
KOMA,"Omaha/Eppley Fld, NE, US",2025-09-09T20:52:00Z,2025-09-09T16:52:00Z,VFR,25,17.2,170,6,0,NA,1014.6,METAR KOMA 092052Z 17006KT 10SM SCT030 25/17 A2996 RMK AO2 SLP139 T02500172 56008,2025-09-09T21:12:42Z,2025-09-09T17:12:42Z
KOMA,"Omaha/Eppley Fld, NE, US",2025-09-09T21:52:00Z,2025-09-09T17:52:00Z,VFR,25,16.7,160,4,0,NA,1014.6,METAR KOMA 092152Z 16004KT 10SM SCT039 25/17 A2996 RMK AO2 SLP138 T02500167,2025-09-09T22:00:08Z,2025-09-09T18:00:08Z
KOMA,"Omaha/Eppley Fld, NE, US",2025-09-09T22:52:00Z,2025-09-09T18:52:00Z,VFR,25,16.7,170,5,0,NA,1014.6,METAR KOMA 092252Z 17005KT 10SM SCT038 BKN044 BKN250 25/17 A2996 RMK AO2 SLP138 T02500167,2025-09-09T22:58:31Z,2025-09-09T18:58:31Z
KOMA,"Omaha/Eppley Fld, NE, US",2025-09-09T23:52:00Z,2025-09-09T19:52:00Z,VFR,25,16.7,160,9,0,NA,1014.3,METAR KOMA 092352Z 16009KT 10SM SCT046 BKN250 25/17 A2995 RMK AO2 SLP136 T02500167 10256 20233 57003,2025-09-10T00:12:47Z,2025-09-09T20:12:47Z
KOMA,"Omaha/Eppley Fld, NE, US",2025-09-10T00:52:00Z,2025-09-09T20:52:00Z,VFR,23.3,17.2,150,6,0,NA,1014.3,METAR KOMA 100052Z 15006KT 10SM BKN044 23/17 A2995 RMK AO2 SLP137 T02330172,2025-09-10T01:11:39Z,2025-09-09T21:11:39Z
KONO,"Ontario Muni, OR, US",2025-09-09T23:53:00Z,2025-09-09T19:53:00Z,VFR,28.9,6.1,210,4,0,NA,1008.2,METAR KONO 092353Z AUTO 21004KT 10SM CLR 29/06 A2977 RMK AO2 SLP066 T02890061 10294 20250 56016,2025-09-10T00:12:47Z,2025-09-09T20:12:47Z
KONO,"Ontario Muni, OR, US",2025-09-10T00:53:00Z,2025-09-09T20:53:00Z,VFR,27.8,8.3,160,5,0,NA,1007.9,METAR KONO 100053Z AUTO 16005KT 10SM CLR 28/08 A2976 RMK AO2 SLP064 T02780083,2025-09-10T01:11:39Z,2025-09-09T21:11:39Z
KONP,"Newport Muni, OR, US",2025-09-09T23:55:00Z,2025-09-09T19:55:00Z,VFR,17,14,340,12,0,NA,1014.6,METAR KONP 092355Z AUTO 34012KT 10SM CLR 17/14 A2996 RMK AO2,2025-09-10T00:12:46Z,2025-09-09T20:12:46Z
KONP,"Newport Muni, OR, US",2025-09-10T00:15:00Z,2025-09-09T20:15:00Z,VFR,17,14,350,9,17,NA,1014.6,METAR KONP 100015Z AUTO 35009G17KT 10SM CLR 17/14 A2996 RMK AO2,2025-09-10T00:33:31Z,2025-09-09T20:33:31Z
KONP,"Newport Muni, OR, US",2025-09-10T00:55:00Z,2025-09-09T20:55:00Z,VFR,16,14,340,7,0,NA,1014.6,METAR KONP 100055Z AUTO 34007KT 10SM CLR 16/14 A2996 RMK AO2,2025-09-10T01:11:39Z,2025-09-09T21:11:39Z
KONT,"Ontario Intl, CA, US",2025-09-09T14:53:00Z,2025-09-09T10:53:00Z,VFR,17.2,14.4,260,5,0,NA,1014.6,METAR KONT 091453Z 26005KT 10SM FEW010 17/14 A2996 RMK AO2 SLP134 T01720144 53008 $,2025-09-09T15:51:32Z,2025-09-09T11:51:32Z
KONT,"Ontario Intl, CA, US",2025-09-09T15:53:00Z,2025-09-09T11:53:00Z,VFR,19.4,14.4,220,4,0,NA,1015,METAR KONT 091553Z 22004KT 10SM FEW010 19/14 A2997 RMK AO2 SLP134 T01940144 $,2025-09-09T16:06:05Z,2025-09-09T12:06:05Z
KONT,"Ontario Intl, CA, US",2025-09-09T16:53:00Z,2025-09-09T12:53:00Z,VFR,21.1,14.4,VAR,4,0,NA,1015,METAR KONT 091653Z VRB04KT 10SM FEW010 21/14 A2997 RMK AO2 SLP135 T02110144 $,2025-09-09T17:12:57Z,2025-09-09T13:12:57Z
KONT,"Ontario Intl, CA, US",2025-09-09T17:53:00Z,2025-09-09T13:53:00Z,VFR,23.3,12.8,0,0,0,NA,1014.6,METAR KONT 091753Z 00000KT 10SM CLR 23/13 A2996 RMK AO2 SLP130 T02330128 10239 20172 58002 $,2025-09-09T18:09:23Z,2025-09-09T14:09:23Z
KONT,"Ontario Intl, CA, US",2025-09-09T18:53:00Z,2025-09-09T14:53:00Z,VFR,25.6,11.1,VAR,3,0,NA,1013.6,METAR KONT 091853Z VRB03KT 10SM CLR 26/11 A2993 RMK AO2 SLP121 T02560111 $,2025-09-09T19:00:59Z,2025-09-09T15:00:59Z
KONT,"Ontario Intl, CA, US",2025-09-09T19:53:00Z,2025-09-09T15:53:00Z,VFR,27.2,10.6,190,5,0,NA,1013,METAR KONT 091953Z 19005KT 10SM CLR 27/11 A2991 RMK AO2 SLP112 T02720106 $,2025-09-09T20:10:19Z,2025-09-09T16:10:19Z
KONT,"Ontario Intl, CA, US",2025-09-09T20:53:00Z,2025-09-09T16:53:00Z,VFR,29.4,11.7,270,10,21,NA,1011.9,METAR KONT 092053Z 27010G21KT 10SM CLR 29/12 A2988 RMK AO2 SLP103 T02940117 56025 $,2025-09-09T21:12:46Z,2025-09-09T17:12:46Z
KONT,"Ontario Intl, CA, US",2025-09-09T21:53:00Z,2025-09-09T17:53:00Z,VFR,29.4,9.4,250,10,18,NA,1011.3,METAR KONT 092153Z 25010G18KT 10SM CLR 29/09 A2986 RMK AO2 SLP096 T02940094,2025-09-09T22:00:15Z,2025-09-09T18:00:15Z
KONT,"Ontario Intl, CA, US",2025-09-09T22:53:00Z,2025-09-09T18:53:00Z,VFR,29.4,10.6,240,11,18,NA,1010.6,METAR KONT 092253Z 24011G18KT 10SM CLR 29/11 A2984 RMK AO2 SLP090 T02940106,2025-09-09T22:58:34Z,2025-09-09T18:58:34Z
KONT,"Ontario Intl, CA, US",2025-09-09T23:53:00Z,2025-09-09T19:53:00Z,VFR,28.3,10,240,10,17,NA,1010.2,METAR KONT 092353Z 24010G17KT 10SM CLR 28/10 A2983 RMK AO2 SLP087 T02830100 10300 20233 56016,2025-09-10T00:12:47Z,2025-09-09T20:12:47Z
KONT,"Ontario Intl, CA, US",2025-09-10T00:53:00Z,2025-09-09T20:53:00Z,VFR,26.7,10.6,250,11,18,NA,1010.2,METAR KONT 100053Z 25011G18KT 10SM CLR 27/11 A2983 RMK AO2 SLP088 T02670106 $,2025-09-10T01:11:39Z,2025-09-09T21:11:39Z
KOPF,"Miami/Opa Locka Arpt, FL, US",2025-09-09T23:53:00Z,2025-09-09T19:53:00Z,VFR,26.7,24.4,0,0,0,NA,1014.3,METAR KOPF 092353Z 00000KT 10SM BKN110 27/24 A2995 RMK AO2 RAE03 SLP141 P0000 60020 T02670244 10278 20244 53009 $,2025-09-10T00:12:47Z,2025-09-09T20:12:47Z
KOPF,"Miami/Opa Locka Arpt, FL, US",2025-09-10T00:53:00Z,2025-09-09T20:53:00Z,VFR,26.7,25,0,0,0,NA,1014.6,METAR KOPF 100053Z 00000KT 10SM BKN095 BKN110 27/25 A2996 RMK AO2 SLP147 T02670250 $,2025-09-10T01:11:39Z,2025-09-09T21:11:39Z
KOQU,"N Kingston/Quonset Arpt, RI, US",2025-09-09T23:55:00Z,2025-09-09T19:55:00Z,VFR,19,14,50,14,0,NA,1026.2,METAR KOQU 092355Z AUTO 05014KT 10SM CLR 19/14 A3030 RMK AO2 10224 20190,2025-09-10T00:12:46Z,2025-09-09T20:12:46Z
KOQU,"N Kingston/Quonset Arpt, RI, US",2025-09-10T00:15:00Z,2025-09-09T20:15:00Z,VFR,19,15,50,12,0,NA,1026.2,METAR KOQU 100015Z AUTO 05012KT 10SM CLR 19/15 A3030 RMK AO2,2025-09-10T00:33:31Z,2025-09-09T20:33:31Z
KOQU,"N Kingston/Quonset Arpt, RI, US",2025-09-10T00:55:00Z,2025-09-09T20:55:00Z,VFR,18,15,50,14,0,NA,1026.2,METAR KOQU 100055Z AUTO 05014KT 10SM CLR 18/15 A3030 RMK AO2,2025-09-10T01:11:39Z,2025-09-09T21:11:39Z
KORD,"Chicago/O'Hare Intl, IL, US",2025-09-09T14:51:00Z,2025-09-09T10:51:00Z,VFR,18.9,5,200,8,0,NA,1022.1,METAR KORD 091451Z 20008KT 10SM BKN250 19/05 A3018 RMK AO2 SLP217 T01890050 55000,2025-09-09T15:51:29Z,2025-09-09T11:51:29Z
KORD,"Chicago/O'Hare Intl, IL, US",2025-09-09T15:51:00Z,2025-09-09T11:51:00Z,VFR,20.6,6.1,180,7,0,NA,1022.1,METAR KORD 091551Z 18007KT 10SM BKN250 21/06 A3018 RMK AO2 SLP216 T02060061,2025-09-09T16:06:02Z,2025-09-09T12:06:02Z
KORD,"Chicago/O'Hare Intl, IL, US",2025-09-09T16:51:00Z,2025-09-09T12:51:00Z,VFR,20.6,6.1,240,7,0,NA,1021.8,METAR KORD 091651Z 24007KT 10SM BKN250 21/06 A3017 RMK AO2 SLP214 T02060061,2025-09-09T16:54:02Z,2025-09-09T12:54:02Z
KORD,"Chicago/O'Hare Intl, IL, US",2025-09-09T17:51:00Z,2025-09-09T13:51:00Z,VFR,22.2,6.1,0,0,0,NA,1020.7,METAR KORD 091751Z 00000KT 10SM BKN250 22/06 A3014 RMK AO2 SLP204 T02220061 10222 20117 58012,2025-09-09T18:09:20Z,2025-09-09T14:09:20Z
KORD,"Chicago/O'Hare Intl, IL, US",2025-09-09T18:51:00Z,2025-09-09T14:51:00Z,VFR,23.3,5,210,6,0,NA,1020.4,METAR KORD 091851Z 21006KT 10SM BKN250 23/05 A3013 RMK AO2 SLP200 T02330050,2025-09-09T19:00:56Z,2025-09-09T15:00:56Z
KORD,"Chicago/O'Hare Intl, IL, US",2025-09-09T19:51:00Z,2025-09-09T15:51:00Z,VFR,23.3,6.1,200,7,0,NA,1020.1,METAR KORD 091951Z 20007KT 10SM SCT250 BKN300 23/06 A3012 RMK AO2 SLP196 T02330061,2025-09-09T20:10:15Z,2025-09-09T16:10:15Z
KORD,"Chicago/O'Hare Intl, IL, US",2025-09-09T20:51:00Z,2025-09-09T16:51:00Z,VFR,23.3,6.1,160,5,0,NA,1019.4,METAR KORD 092051Z 16005KT 10SM SCT250 BKN300 23/06 A3010 RMK AO2 SLP189 T02330061 58014,2025-09-09T20:54:00Z,2025-09-09T16:54:00Z
KORD,"Chicago/O'Hare Intl, IL, US",2025-09-09T21:51:00Z,2025-09-09T17:51:00Z,VFR,23.3,6.7,200,6,0,NA,1019,METAR KORD 092151Z 20006KT 10SM SCT250 BKN300 23/07 A3009 RMK AO2 SLP188 T02330067,2025-09-09T22:00:08Z,2025-09-09T18:00:08Z
KORD,"Chicago/O'Hare Intl, IL, US",2025-09-09T22:51:00Z,2025-09-09T18:51:00Z,VFR,22.8,6.7,190,6,0,NA,1019,METAR KORD 092251Z 19006KT 10SM SCT240 BKN300 23/07 A3009 RMK AO2 SLP186 T02280067,2025-09-09T22:58:31Z,2025-09-09T18:58:31Z
KORD,"Chicago/O'Hare Intl, IL, US",2025-09-09T23:51:00Z,2025-09-09T19:51:00Z,VFR,21.7,6.7,180,7,0,NA,1018.7,METAR KORD 092351Z 18007KT 10SM SCT230 BKN300 22/07 A3008 RMK AO2 SLP186 T02170067 10244 20217 56005,2025-09-10T00:12:48Z,2025-09-09T20:12:48Z
KORD,"Chicago/O'Hare Intl, IL, US",2025-09-10T00:51:00Z,2025-09-09T20:51:00Z,VFR,20.6,6.7,160,3,0,NA,1018.7,METAR KORD 100051Z 16003KT 10SM BKN220 OVC300 21/07 A3008 RMK AO2 SLP185 T02060067,2025-09-10T01:11:39Z,2025-09-09T21:11:39Z
KORF,"Norfolk Intl, VA, US",2025-09-09T14:51:00Z,2025-09-09T10:51:00Z,MVFR,22.2,17.8,40,19,25,NA,1021.8,METAR KORF 091451Z 04019G25KT 10SM BKN019 OVC027 22/18 A3017 RMK AO2 PK WND 04026/1435 SLP215 T02220178 53002,2025-09-09T15:51:27Z,2025-09-09T11:51:27Z
KORF,"Norfolk Intl, VA, US",2025-09-09T15:51:00Z,2025-09-09T11:51:00Z,MVFR,22.8,18.3,40,18,0,NA,1021.8,METAR KORF 091551Z 04018KT 10SM FEW017 BKN024 OVC031 23/18 A3017 RMK AO2 PK WND 04028/1519 SLP214 T02280183,2025-09-09T16:06:00Z,2025-09-09T12:06:00Z
KORF,"Norfolk Intl, VA, US",2025-09-09T16:51:00Z,2025-09-09T12:51:00Z,MVFR,23.3,18.3,40,15,23,NA,1021.4,METAR KORF 091651Z 04015G23KT 10SM BKN018 OVC026 23/18 A3016 RMK AO2 PK WND 03027/1626 SLP212 T02330183,2025-09-09T16:54:01Z,2025-09-09T12:54:01Z
KORF,"Norfolk Intl, VA, US",2025-09-09T17:51:00Z,2025-09-09T13:51:00Z,MVFR,22.8,17.8,40,17,26,NA,1021.1,METAR KORF 091751Z 04017G26KT 10SM SCT021 OVC027 23/18 A3015 RMK AO2 PK WND 03029/1659 SLP207 T02280178 10233 20200 58007,2025-09-09T18:09:19Z,2025-09-09T14:09:19Z
KORF,"Norfolk Intl, VA, US",2025-09-09T18:51:00Z,2025-09-09T14:51:00Z,MVFR,22.2,18.3,40,18,25,NA,1020.4,METAR KORF 091851Z 04018G25KT 10SM OVC020 22/18 A3013 RMK AO2 PK WND 03027/1802 SLP201 T02220183,2025-09-09T19:00:54Z,2025-09-09T15:00:54Z
KORF,"Norfolk Intl, VA, US",2025-09-09T19:51:00Z,2025-09-09T15:51:00Z,MVFR,21.1,18.9,30,19,26,9,1020.1,METAR KORF 091951Z 03019G26KT 9SM BKN017 OVC022 21/19 A3012 RMK AO2 PK WND 03029/1936 SLP200 T02110189,2025-09-09T20:10:13Z,2025-09-09T16:10:13Z
KORF,"Norfolk Intl, VA, US",2025-09-09T20:36:00Z,2025-09-09T16:36:00Z,MVFR,20.6,18.9,30,18,30,7,1020.4,SPECI KORF 092036Z 03018G30KT 7SM FEW007 BKN012 OVC019 21/19 A3013 RMK AO2 PK WND 02030/2031 T02060189,2025-09-09T20:43:21Z,2025-09-09T16:43:21Z
KORF,"Norfolk Intl, VA, US",2025-09-09T20:51:00Z,2025-09-09T16:51:00Z,MVFR,20.6,18.9,20,17,25,6,1020.1,METAR KORF 092051Z 02017G25KT 6SM BR SCT007 OVC012 21/19 A3012 RMK AO2 PK WND 02030/2031 SLP200 T02060189 56008,2025-09-09T20:53:58Z,2025-09-09T16:53:58Z
KORF,"Norfolk Intl, VA, US",2025-09-09T21:51:00Z,2025-09-09T17:51:00Z,MVFR,21.1,18.3,30,21,30,NA,1019.7,METAR KORF 092151Z 03021G30KT 10SM OVC014 21/18 A3011 RMK AO2 PK WND 03031/2055 SLP195 T02110183,2025-09-09T22:00:06Z,2025-09-09T18:00:06Z
KORF,"Norfolk Intl, VA, US",2025-09-09T22:51:00Z,2025-09-09T18:51:00Z,MVFR,20.6,18.3,30,18,29,9,1019.4,METAR KORF 092251Z 03018G29KT 9SM OVC014 21/18 A3010 RMK AO2 PK WND 04034/2230 SLP193 T02060183,2025-09-09T22:58:30Z,2025-09-09T18:58:30Z
KORF,"Norfolk Intl, VA, US",2025-09-09T23:51:00Z,2025-09-09T19:51:00Z,MVFR,20,18.3,30,21,28,8,1019.4,METAR KORF 092351Z 03021G28KT 8SM OVC013 20/18 A3010 RMK AO2 PK WND 04031/2311 SLP192 T02000183 10228 20200 56007,2025-09-10T00:12:48Z,2025-09-09T20:12:48Z
KORF,"Norfolk Intl, VA, US",2025-09-10T01:03:00Z,2025-09-09T21:03:00Z,IFR,20,18.9,20,18,28,4,1019.4,SPECI KORF 100103Z 02018G28KT 4SM BR OVC008 20/19 A3010 RMK AO2 PK WND 01028/0058 T02000189,2025-09-10T01:11:39Z,2025-09-09T21:11:39Z
KORH,"Worcester Muni, MA, US",2025-09-09T23:54:00Z,2025-09-09T19:54:00Z,VFR,15,7.2,80,6,0,NA,1027.5,METAR KORH 092354Z 08006KT 10SM CLR 15/07 A3034 RMK AO2 SLP276 T01500072 10200 20150 58003,2025-09-10T00:12:47Z,2025-09-09T20:12:47Z
KORH,"Worcester Muni, MA, US",2025-09-10T00:54:00Z,2025-09-09T20:54:00Z,VFR,13.9,8.3,70,4,0,NA,1027.9,METAR KORH 100054Z 07004KT 10SM CLR 14/08 A3035 RMK AO2 SLP277 T01390083,2025-09-10T01:11:39Z,2025-09-09T21:11:39Z
KORS,"Eastsound/Orcas Island Arpt, WA, US",2025-09-09T23:55:00Z,2025-09-09T19:55:00Z,VFR,19,16,0,0,0,NA,1012.6,METAR KORS 092355Z AUTO 00000KT 10SM CLR 19/16 A2990 RMK AO2,2025-09-10T00:12:46Z,2025-09-09T20:12:46Z
KORS,"Eastsound/Orcas Island Arpt, WA, US",2025-09-10T00:15:00Z,2025-09-09T20:15:00Z,VFR,19,16,320,5,0,NA,1012.6,METAR KORS 100015Z AUTO 32005KT 10SM CLR 19/16 A2990 RMK AO2,2025-09-10T00:33:31Z,2025-09-09T20:33:31Z
KORS,"Eastsound/Orcas Island Arpt, WA, US",2025-09-10T00:55:00Z,2025-09-09T20:55:00Z,VFR,19,16,0,0,0,9,1012.6,METAR KORS 100055Z AUTO 00000KT 9SM CLR 19/16 A2990 RMK AO2,2025-09-10T01:11:39Z,2025-09-09T21:11:39Z
KOSH,"Oshkosh/Wittman Rgnl, WI, US",2025-09-09T23:53:00Z,2025-09-09T19:53:00Z,VFR,17.8,11.7,170,5,0,NA,1018,METAR KOSH 092353Z 17005KT 10SM SCT095 BKN110 18/12 A3006 RMK AO2 SLP175 T01780117 10239 20178 53002,2025-09-10T00:12:47Z,2025-09-09T20:12:47Z
KOSH,"Oshkosh/Wittman Rgnl, WI, US",2025-09-10T00:53:00Z,2025-09-09T20:53:00Z,VFR,16.1,10.6,180,5,0,NA,1018,METAR KOSH 100053Z 18005KT 10SM FEW120 16/11 A3006 RMK AO2 SLP176 T01610106,2025-09-10T01:11:39Z,2025-09-09T21:11:39Z
KOSU,"Columbus/Ohio State Univ Arpt, OH, US",2025-09-09T23:53:00Z,2025-09-09T19:53:00Z,VFR,20,6.7,110,5,0,NA,1020.7,METAR KOSU 092353Z 11005KT 10SM CLR 20/07 A3014 RMK AO2 SLP206 T02000067 10250 20200 58004,2025-09-10T00:12:47Z,2025-09-09T20:12:47Z
KOSU,"Columbus/Ohio State Univ Arpt, OH, US",2025-09-10T00:53:00Z,2025-09-09T20:53:00Z,VFR,18.9,7.2,110,4,0,NA,1021.1,METAR KOSU 100053Z 11004KT 10SM CLR 19/07 A3015 RMK AO2 SLP208 T01890072,2025-09-10T01:11:39Z,2025-09-09T21:11:39Z
KOTH,"North Bend/SW Oregon Rgnl, OR, US",2025-09-09T23:56:00Z,2025-09-09T19:56:00Z,VFR,17.2,15,350,10,0,NA,1014.3,METAR KOTH 092356Z 35010KT 10SM BKN075 OVC110 17/15 A2995 RMK AO2 SLP141 60003 T01720150 10172 20161 58010,2025-09-10T00:12:46Z,2025-09-09T20:12:46Z
KOTH,"North Bend/SW Oregon Rgnl, OR, US",2025-09-10T00:56:00Z,2025-09-09T20:56:00Z,VFR,17.2,15,350,11,0,NA,1014.3,METAR KOTH 100056Z 35011KT 10SM OVC080 17/15 A2995 RMK AO2 SLP140 T01720150,2025-09-10T01:11:39Z,2025-09-09T21:11:39Z
KOTM,"Ottumwa Rgnl, IA, US",2025-09-09T23:53:00Z,2025-09-09T19:53:00Z,VFR,22.8,11.1,150,6,0,NA,1015.7,METAR KOTM 092353Z AUTO 15006KT 10SM CLR 23/11 A2999 RMK AO2 SLP152 T02280111 10272 20228 58007,2025-09-10T00:12:47Z,2025-09-09T20:12:47Z
KOTM,"Ottumwa Rgnl, IA, US",2025-09-10T00:53:00Z,2025-09-09T20:53:00Z,VFR,19.4,11.7,140,5,0,NA,1016.7,METAR KOTM 100053Z AUTO 14005KT 10SM CLR 19/12 A3002 RMK AO2 SLP163 T01940117,2025-09-10T01:11:39Z,2025-09-09T21:11:39Z
KOWB,"Owensboro/Daviess Cnty, KY, US",2025-09-09T23:56:00Z,2025-09-09T19:56:00Z,VFR,25,12.8,60,7,0,NA,1018,METAR KOWB 092356Z 06007KT 10SM CLR 25/13 A3006 RMK AO2 SLP179 T02500128 10283 20250 56007,2025-09-10T00:12:46Z,2025-09-09T20:12:46Z
KOWB,"Owensboro/Daviess Cnty, KY, US",2025-09-10T00:56:00Z,2025-09-09T20:56:00Z,VFR,23.3,13.3,70,4,0,NA,1018.4,METAR KOWB 100056Z 07004KT 10SM CLR 23/13 A3007 RMK AO2 SLP179 T02330133,2025-09-10T01:11:39Z,2025-09-09T21:11:39Z
KOWD,"Norwood Mem, MA, US",2025-09-09T23:53:00Z,2025-09-09T19:53:00Z,VFR,13.3,11.7,0,0,0,NA,1027.5,METAR KOWD 092353Z 00000KT 10SM CLR 13/12 A3034 RMK AO2 SLP272 T01330117 10217 20133 58001,2025-09-10T00:12:47Z,2025-09-09T20:12:47Z
KOWD,"Norwood Mem, MA, US",2025-09-10T00:53:00Z,2025-09-09T20:53:00Z,VFR,10.6,10.6,0,0,0,NA,1027.5,METAR KOWD 100053Z 00000KT 10SM CLR 11/11 A3034 RMK AO2 SLP273 T01060106,2025-09-10T01:11:39Z,2025-09-09T21:11:39Z
KOXR,"Oxnard Arpt, CA, US",2025-09-09T23:51:00Z,2025-09-09T19:51:00Z,VFR,22.2,17.2,250,12,0,NA,1010.9,METAR KOXR 092351Z 25012KT 10SM FEW010 22/17 A2985 RMK AO2 SLP106 T02220172 10233 20217 56020 $,2025-09-10T00:12:47Z,2025-09-09T20:12:47Z
KOXR,"Oxnard Arpt, CA, US",2025-09-10T00:51:00Z,2025-09-09T20:51:00Z,VFR,21.1,17.2,270,13,0,NA,1010.6,METAR KOXR 100051Z 27013KT 10SM CLR 21/17 A2984 RMK AO2 SLP104 T02110172 $,2025-09-10T01:11:39Z,2025-09-09T21:11:39Z
KOZR,"Ozark/Cairns AAF, AL, US",2025-09-09T23:55:00Z,2025-09-09T19:55:00Z,VFR,26.1,16.6,40,4,0,NA,1015.7,METAR KOZR 092355Z AUTO 04004KT 10SM FEW070 26/17 A2999 RMK AO2 SLP155 T02610166 10305 20261 56002,2025-09-10T00:12:46Z,2025-09-09T20:12:46Z
KOZR,"Ozark/Cairns AAF, AL, US",2025-09-10T00:55:00Z,2025-09-09T20:55:00Z,VFR,25.9,16.7,30,4,0,NA,1016,METAR KOZR 100055Z AUTO 03004KT 10SM OVC070 26/17 A3000 RMK AO2 SLP159 T02590167,2025-09-10T01:11:39Z,2025-09-09T21:11:39Z
KPAE,"Everett/Paine Fld, WA, US",2025-09-09T23:53:00Z,2025-09-09T19:53:00Z,VFR,20,13.9,340,5,0,NA,1013.3,METAR KPAE 092353Z 34005KT 10SM CLR 20/14 A2992 RMK AO2 SLP131 T02000139 10206 20161 56012,2025-09-10T00:12:47Z,2025-09-09T20:12:47Z
KPAE,"Everett/Paine Fld, WA, US",2025-09-10T00:53:00Z,2025-09-09T20:53:00Z,VFR,19.4,13.3,330,5,0,NA,1013.3,METAR KPAE 100053Z 33005KT 10SM CLR 19/13 A2992 RMK AO2 SLP130 T01940133,2025-09-10T01:11:39Z,2025-09-09T21:11:39Z
KPAH,"Paducah/Barkley Rgnl, KY, US",2025-09-09T23:53:00Z,2025-09-09T19:53:00Z,VFR,26.1,15.6,70,3,0,NA,1016.7,METAR KPAH 092353Z 07003KT 10SM FEW065 26/16 A3002 RMK AO2 SLP163 T02610156 10294 20261 56009 $,2025-09-10T00:12:47Z,2025-09-09T20:12:47Z
KPAH,"Paducah/Barkley Rgnl, KY, US",2025-09-10T00:53:00Z,2025-09-09T20:53:00Z,VFR,20.6,17.2,0,0,0,NA,1017,METAR KPAH 100053Z 00000KT 10SM BKN065 21/17 A3003 RMK AO2 SLP166 T02060172 $,2025-09-10T01:11:39Z,2025-09-09T21:11:39Z
KPAM,"Tyndall AFB, FL, US",2025-09-09T23:55:00Z,2025-09-09T19:55:00Z,VFR,28.6,20.6,30,4,0,NA,1014.6,METAR KPAM 092355Z 03004KT 10SM SCT040 BKN065 29/21 A2996 RMK AO2A SLP148 T02860206 10307 20285 53007,2025-09-10T00:12:46Z,2025-09-09T20:12:46Z
KPAM,"Tyndall AFB, FL, US",2025-09-10T00:55:00Z,2025-09-09T20:55:00Z,VFR,28.3,19.8,40,6,0,NA,1015.3,METAR KPAM 100055Z 04006KT 10SM BKN055 BKN070 28/20 A2998 RMK AO2A SLP155 T02830198,2025-09-10T01:11:39Z,2025-09-09T21:11:39Z
KPAO,"Palo Alto Arpt, CA, US",2025-09-09T23:47:00Z,2025-09-09T19:47:00Z,VFR,23,14,270,10,19,NA,1011.9,METAR KPAO 092347Z 27010G19KT 10SM BKN045 23/14 A2988,2025-09-10T00:12:48Z,2025-09-09T20:12:48Z
KPAO,"Palo Alto Arpt, CA, US",2025-09-10T00:47:00Z,2025-09-09T20:47:00Z,VFR,23,14,250,12,17,NA,1011.9,METAR KPAO 100047Z 25012G17KT 10SM SCT032 23/14 A2988,2025-09-10T01:11:39Z,2025-09-09T21:11:39Z
KPBF,"Pine Bluff/Grider Fld, AR, US",2025-09-09T23:53:00Z,2025-09-09T19:53:00Z,VFR,28.3,16.1,50,4,0,NA,1015.7,METAR KPBF 092353Z AUTO 05004KT 10SM CLR 28/16 A2999 RMK AO2 SLP154 6//// T02830161 10317 20283 56010 $,2025-09-10T00:12:47Z,2025-09-09T20:12:47Z
KPBF,"Pine Bluff/Grider Fld, AR, US",2025-09-10T00:53:00Z,2025-09-09T20:53:00Z,VFR,23.9,16.7,0,0,0,NA,1015.7,METAR KPBF 100053Z AUTO 00000KT 10SM CLR 24/17 A2999 RMK AO2 SLP152 T02390167 $,2025-09-10T01:11:39Z,2025-09-09T21:11:39Z
KPBG,"Plattsburgh Intl, NY, US",2025-09-09T23:53:00Z,2025-09-09T19:53:00Z,VFR,14.4,12.8,0,0,0,NA,1024.8,METAR KPBG 092353Z AUTO 00000KT 10SM CLR 14/13 A3026 RMK AO2 SLP247 T01440128 10222 20144 56003,2025-09-10T00:12:47Z,2025-09-09T20:12:47Z
KPBG,"Plattsburgh Intl, NY, US",2025-09-10T00:53:00Z,2025-09-09T20:53:00Z,VFR,12.8,11.7,0,0,0,NA,1024.8,METAR KPBG 100053Z AUTO 00000KT 10SM CLR 13/12 A3026 RMK AO2 SLP248 T01280117,2025-09-10T01:11:39Z,2025-09-09T21:11:39Z
KPBI,"Palm Beach Intl, FL, US",2025-09-09T14:53:00Z,2025-09-09T10:53:00Z,VFR,29.4,23.9,300,3,0,NA,1015,METAR KPBI 091453Z 30003KT 10SM SCT034 SCT150 BKN250 29/24 A2997 RMK AO2 SLP149 CB DSNT SE-S T02940239 52013 $,2025-09-09T15:51:29Z,2025-09-09T11:51:29Z
KPBI,"Palm Beach Intl, FL, US",2025-09-09T15:53:00Z,2025-09-09T11:53:00Z,VFR,30.6,23.9,VAR,3,0,NA,1015,METAR KPBI 091553Z VRB03KT 10SM SCT030 BKN250 31/24 A2997 RMK AO2 SLP147 CB DSNT E-SE S SW T03060239 $,2025-09-09T16:06:01Z,2025-09-09T12:06:01Z
KPBI,"Palm Beach Intl, FL, US",2025-09-09T16:53:00Z,2025-09-09T12:53:00Z,VFR,31.1,23.9,340,3,0,NA,1014.6,METAR KPBI 091653Z COR 34003KT 10SM SCT031 BKN055 BKN250 31/24 A2996 RMK AO2 SLP144 OCNL LTGICCG DSNT E S CB DSNT E S T03110239 $,2025-09-09T17:12:51Z,2025-09-09T13:12:51Z
KPBI,"Palm Beach Intl, FL, US",2025-09-09T18:05:00Z,2025-09-09T14:05:00Z,MVFR,26.7,23.9,120,17,0,6,1014.3,SPECI KPBI 091805Z 12017KT 6SM TSRA BR SCT020 BKN030CB BKN250 27/24 A2995 RMK AO2 WSHFT 1745 RAB00 OCNL LTGICCG E-SE TS E-SE MOV NE P0003 T02670239 $,2025-09-09T18:09:20Z,2025-09-09T14:09:20Z
KPBI,"Palm Beach Intl, FL, US",2025-09-09T18:39:00Z,2025-09-09T14:39:00Z,VFR,27.8,23.3,90,9,0,NA,1014.3,SPECI KPBI 091839Z 09009KT 10SM SCT020 BKN040 BKN100 28/23 A2995 RMK AO2 WSHFT 1745 RAB00E21 TSE38 CB DSNT SE-SW AND DSNT NW-NE P0004 T02780233 $,2025-09-09T18:50:46Z,2025-09-09T14:50:46Z
KPBI,"Palm Beach Intl, FL, US",2025-09-09T18:53:00Z,2025-09-09T14:53:00Z,VFR,28.3,23.9,110,11,0,NA,1014,METAR KPBI 091853Z 11011KT 10SM FEW020 BKN040 BKN100 28/24 A2994 RMK AO2 WSHFT 1745 RAB00E21 TSE38 SLP138 CB DSNT NE AND DSNT SE-SW P0004 T02830239 $,2025-09-09T19:00:56Z,2025-09-09T15:00:56Z
KPBI,"Palm Beach Intl, FL, US",2025-09-09T19:53:00Z,2025-09-09T15:53:00Z,VFR,28.3,22.8,140,6,0,NA,1013.3,METAR KPBI 091953Z 14006KT 10SM FEW020 SCT050 BKN100 28/23 A2992 RMK AO2 SLP130 FRQ LTGIC DSNT NE CB DSNT NE AND DSNT SE T02830228 $,2025-09-09T20:10:15Z,2025-09-09T16:10:15Z
KPBI,"Palm Beach Intl, FL, US",2025-09-09T20:53:00Z,2025-09-09T16:53:00Z,VFR,28.3,25.6,150,8,0,NA,1013,METAR KPBI 092053Z 15008KT 10SM FEW014 SCT032 BKN100 28/26 A2991 RMK AO2 RAB02E36 SLP127 P0001 60005 T02830256 58013 $,2025-09-09T21:12:42Z,2025-09-09T17:12:42Z
KPBI,"Palm Beach Intl, FL, US",2025-09-09T21:53:00Z,2025-09-09T17:53:00Z,VFR,28.3,23.9,190,5,0,NA,1013,METAR KPBI 092153Z 19005KT 10SM FEW025 SCT100 BKN250 28/24 A2991 RMK AO2 SLP127 T02830239 $,2025-09-09T22:00:08Z,2025-09-09T18:00:08Z
KPBI,"Palm Beach Intl, FL, US",2025-09-09T22:53:00Z,2025-09-09T18:53:00Z,VFR,27.8,23.3,210,5,0,NA,1013.6,METAR KPBI 092253Z 21005KT 10SM FEW030 BKN110 BKN250 28/23 A2993 RMK AO2 SLP134 T02780233 $,2025-09-09T22:58:31Z,2025-09-09T18:58:31Z
KPBI,"Palm Beach Intl, FL, US",2025-09-09T23:53:00Z,2025-09-09T19:53:00Z,VFR,27.2,23.3,190,4,0,NA,1013.6,METAR KPBI 092353Z 19004KT 10SM FEW055 SCT085 BKN120 BKN250 27/23 A2993 RMK AO2 SLP135 OCNL LTGIC DSNT SE-SW CB DSNT SE-SW 60005 T02720233 10289 20267 53008 $,2025-09-10T00:12:47Z,2025-09-09T20:12:47Z
KPBI,"Palm Beach Intl, FL, US",2025-09-10T00:53:00Z,2025-09-09T20:53:00Z,VFR,27.2,23.3,180,6,0,NA,1014,METAR KPBI 100053Z 18006KT 10SM FEW085 SCT120 BKN250 27/23 A2994 RMK AO2 SLP138 T02720233 $,2025-09-10T01:11:39Z,2025-09-09T21:11:39Z
KPCW,"Port Clinton/Erie-Ottawa Arpt, OH, US",2025-09-09T23:45:00Z,2025-09-09T19:45:00Z,VFR,19,11,100,7,0,NA,1021.1,METAR KPCW 092345Z AUTO 10007KT 10SM CLR 19/11 A3015 RMK AO2,2025-09-10T00:12:48Z,2025-09-09T20:12:48Z
KPCW,"Port Clinton/Erie-Ottawa Arpt, OH, US",2025-09-10T00:55:00Z,2025-09-09T20:55:00Z,VFR,16,12,100,5,0,NA,1021.1,METAR KPCW 100055Z AUTO 10005KT 10SM CLR 16/12 A3015 RMK AO2,2025-09-10T01:11:39Z,2025-09-09T21:11:39Z
KPDK,"Atlanta/Dekalb-Peachtree Arpt, GA, US",2025-09-09T22:53:00Z,2025-09-09T18:53:00Z,VFR,25.6,11.1,10,8,0,NA,1019.4,METAR KPDK 092253Z 01008KT 10SM CLR 26/11 A3010 RMK AO2 SLP181 T02560111 $,2025-09-10T00:12:48Z,2025-09-09T20:12:48Z
KPDK,"Atlanta/Dekalb-Peachtree Arpt, GA, US",2025-09-10T00:53:00Z,2025-09-09T20:53:00Z,VFR,20.6,12.8,0,0,0,NA,1020.1,METAR KPDK 100053Z AUTO 00000KT 10SM CLR 21/13 A3012 RMK AO2 SLP190 T02060128 $,2025-09-10T01:11:39Z,2025-09-09T21:11:39Z
KPDT,"Pendleton/E Oregon Rgnl, OR, US",2025-09-09T23:53:00Z,2025-09-09T19:53:00Z,VFR,26.1,11.7,280,7,0,NA,1009.6,METAR KPDT 092353Z 28007KT 10SM -RA FEW050 SCT070CB BKN120 26/12 A2981 RMK AO2 RAB48 SLP081 TS SE MOV N P0000 60000 T02610117 10272 20222 56016,2025-09-10T00:12:47Z,2025-09-09T20:12:47Z
KPDT,"Pendleton/E Oregon Rgnl, OR, US",2025-09-10T00:53:00Z,2025-09-09T20:53:00Z,VFR,27.2,10.6,360,6,0,NA,1008.5,METAR KPDT 100053Z 36006KT 10SM CLR 27/11 A2978 RMK AO2 RAE22 SLP071 P0000 T02720106,2025-09-10T01:11:39Z,2025-09-09T21:11:39Z
KPDX,"Portland Intl, OR, US",2025-09-09T14:53:00Z,2025-09-09T10:53:00Z,VFR,17.8,12.8,320,5,0,NA,1014,METAR KPDX 091453Z 32005KT 10SM BKN110 BKN250 18/13 A2994 RMK AO2 SLP136 T01780128 51004,2025-09-09T15:51:30Z,2025-09-09T11:51:30Z
KPDX,"Portland Intl, OR, US",2025-09-09T15:53:00Z,2025-09-09T11:53:00Z,VFR,18.3,12.8,350,4,0,NA,1014,METAR KPDX 091553Z 35004KT 10SM FEW025 SCT110 BKN250 18/13 A2994 RMK AO2 SLP137 T01830128,2025-09-09T16:06:03Z,2025-09-09T12:06:03Z
KPDX,"Portland Intl, OR, US",2025-09-09T16:53:00Z,2025-09-09T12:53:00Z,VFR,18.9,13.3,350,3,0,NA,1014.3,METAR KPDX 091653Z 35003KT 10SM FEW025 BKN110 BKN250 19/13 A2995 RMK AO2 SLP139 T01890133,2025-09-09T17:12:54Z,2025-09-09T13:12:54Z
KPDX,"Portland Intl, OR, US",2025-09-09T17:53:00Z,2025-09-09T13:53:00Z,VFR,20,13.3,310,4,0,9,1014,METAR KPDX 091753Z 31004KT 9SM FEW025 SCT110 BKN250 20/13 A2994 RMK AO2 SLP137 T02000133 10200 20178 50001,2025-09-09T18:09:21Z,2025-09-09T14:09:21Z
KPDX,"Portland Intl, OR, US",2025-09-09T18:53:00Z,2025-09-09T14:53:00Z,VFR,21.1,13.3,VAR,5,0,NA,1014,METAR KPDX 091853Z VRB05KT 10SM FEW030 SCT100 BKN250 21/13 A2994 RMK AO2 SLP135 ACC OHD T02110133,2025-09-09T19:00:57Z,2025-09-09T15:00:57Z
KPDX,"Portland Intl, OR, US",2025-09-09T19:53:00Z,2025-09-09T15:53:00Z,VFR,22.8,13.9,300,6,0,NA,1013.3,METAR KPDX 091953Z 30006KT 10SM FEW035 BKN100 BKN250 23/14 A2992 RMK AO2 SLP130 CB DSNT E T02280139,2025-09-09T20:10:18Z,2025-09-09T16:10:18Z
KPDX,"Portland Intl, OR, US",2025-09-09T20:53:00Z,2025-09-09T16:53:00Z,VFR,23.9,13.9,VAR,5,0,NA,1013,METAR KPDX 092053Z VRB05KT 10SM FEW040 SCT100 BKN250 24/14 A2991 RMK AO2 SLP126 CB DSNT E T02390139 58012,2025-09-09T21:12:45Z,2025-09-09T17:12:45Z
KPDX,"Portland Intl, OR, US",2025-09-09T21:53:00Z,2025-09-09T17:53:00Z,VFR,24.4,13.3,300,6,0,NA,1011.9,METAR KPDX 092153Z 30006KT 10SM SCT040 SCT100 BKN250 24/13 A2988 RMK AO2 SLP117 CB DSNT NE AND E T02440133,2025-09-09T22:00:10Z,2025-09-09T18:00:10Z
KPDX,"Portland Intl, OR, US",2025-09-09T22:53:00Z,2025-09-09T18:53:00Z,VFR,25,12.8,290,5,0,NA,1011.3,METAR KPDX 092253Z 29005KT 10SM FEW043 SCT200 BKN250 25/13 A2986 RMK AO2 SLP111 CB DSNT NE AND SE T02500128,2025-09-09T22:58:33Z,2025-09-09T18:58:33Z
KPDX,"Portland Intl, OR, US",2025-09-09T23:53:00Z,2025-09-09T19:53:00Z,VFR,26.1,13.3,270,9,0,NA,1011.3,METAR KPDX 092353Z 27009KT 10SM FEW025 SCT055 BKN200 BKN250 26/13 A2986 RMK AO2 SLP109 CB DSNT NE AND SE T02610133 10261 20200 56017,2025-09-10T00:12:47Z,2025-09-09T20:12:47Z
KPDX,"Portland Intl, OR, US",2025-09-10T00:53:00Z,2025-09-09T20:53:00Z,VFR,26.1,13.9,310,7,0,NA,1010.9,METAR KPDX 100053Z 31007KT 10SM SCT050 BKN120 BKN250 26/14 A2985 RMK AO2 SLP107 CB DSNT SE T02610139,2025-09-10T01:11:39Z,2025-09-09T21:11:39Z
KPGA,"Page Muni, AZ, US",2025-09-09T23:53:00Z,2025-09-09T19:53:00Z,VFR,32.8,2.2,220,8,18,NA,1011.9,METAR KPGA 092353Z AUTO 22008G18KT 10SM CLR 33/02 A2988 RMK AO2 SLP046 T03280022 10333 20294 56020,2025-09-10T00:12:47Z,2025-09-09T20:12:47Z
KPGA,"Page Muni, AZ, US",2025-09-10T00:53:00Z,2025-09-09T20:53:00Z,VFR,31.7,2.8,VAR,5,0,NA,1011.9,METAR KPGA 100053Z AUTO VRB05KT 10SM CLR 32/03 A2988 RMK AO2 SLP046 T03170028,2025-09-10T01:11:39Z,2025-09-09T21:11:39Z
KPGD,"Punta Gorda Arpt, FL, US",2025-09-09T23:53:00Z,2025-09-09T19:53:00Z,VFR,23.9,23.3,VAR,3,0,NA,1014,METAR KPGD 092353Z VRB03KT 10SM CLR 24/23 A2994 RMK AO2 SLP136 60183 T02390233 10294 20239 51010,2025-09-10T00:12:47Z,2025-09-09T20:12:47Z
KPGD,"Punta Gorda Arpt, FL, US",2025-09-10T00:53:00Z,2025-09-09T20:53:00Z,IFR,23.9,23.3,30,4,0,NA,1015,METAR KPGD 100053Z AUTO 03004KT 10SM BKN005 24/23 A2997 RMK AO2 SLP146 T02390233,2025-09-10T01:11:39Z,2025-09-09T21:11:39Z
KPGV,"Greenville/Pitt Arpt, NC, US",2025-09-10T00:05:00Z,2025-09-09T20:05:00Z,MVFR,21,21,20,11,0,NA,1018.7,METAR KPGV 100005Z AUTO 02011KT 10SM OVC017 21/21 A3008 RMK AO2,2025-09-10T00:12:46Z,2025-09-09T20:12:46Z
KPGV,"Greenville/Pitt Arpt, NC, US",2025-09-10T00:25:00Z,2025-09-09T20:25:00Z,MVFR,21,21,20,9,0,NA,1019,METAR KPGV 100025Z AUTO 02009KT 10SM OVC017 21/21 A3009 RMK AO2,2025-09-10T00:33:31Z,2025-09-09T20:33:31Z
KPGV,"Greenville/Pitt Arpt, NC, US",2025-09-10T01:05:00Z,2025-09-09T21:05:00Z,MVFR,21,21,20,9,17,NA,1019.4,METAR KPGV 100105Z AUTO 02009G17KT 10SM OVC015 21/21 A3010 RMK AO2,2025-09-10T01:11:39Z,2025-09-09T21:11:39Z
KPHF,"Newport News/Williamsburg Intl, VA, US",2025-09-09T23:54:00Z,2025-09-09T19:54:00Z,MVFR,20,17.8,30,9,18,NA,1020.1,METAR KPHF 092354Z 03009G18KT 10SM OVC015 20/18 A3012 RMK AO2 SLP200 60000 T02000178 10222 20194 58006,2025-09-10T00:12:47Z,2025-09-09T20:12:47Z
KPHF,"Newport News/Williamsburg Intl, VA, US",2025-09-10T00:27:00Z,2025-09-09T20:27:00Z,MVFR,19.4,17.8,30,9,21,6,1020.4,SPECI KPHF 100027Z 03009G21KT 6SM -RA BR OVC013 19/18 A3013 RMK AO2 RAB07 P0000 T01940178,2025-09-10T00:33:31Z,2025-09-09T20:33:31Z
KPHF,"Newport News/Williamsburg Intl, VA, US",2025-09-10T01:09:00Z,2025-09-09T21:09:00Z,MVFR,18.9,17.8,20,10,20,4,1020.4,SPECI KPHF 100109Z 02010G20KT 4SM -RA BR OVC011 19/18 A3013 RMK AO2 P0001 T01890178,2025-09-10T01:11:39Z,2025-09-09T21:11:39Z
KPHL,"Philadelphia Intl, PA, US",2025-09-09T14:54:00Z,2025-09-09T10:54:00Z,VFR,22.2,12.8,70,13,20,NA,1026.5,METAR KPHL 091454Z 07013G20KT 10SM BKN037 BKN270 BKN350 22/13 A3031 RMK AO2 SLP262 T02220128 53004 $,2025-09-09T15:51:27Z,2025-09-09T11:51:27Z
KPHL,"Philadelphia Intl, PA, US",2025-09-09T15:54:00Z,2025-09-09T11:54:00Z,VFR,22.8,12.8,70,9,19,NA,1026.2,METAR KPHL 091554Z 07009G19KT 10SM BKN038 BKN250 BKN330 23/13 A3030 RMK AO2 SLP261 T02280128 $,2025-09-09T16:06:00Z,2025-09-09T12:06:00Z
KPHL,"Philadelphia Intl, PA, US",2025-09-09T16:54:00Z,2025-09-09T12:54:00Z,VFR,23.9,12.2,60,8,17,NA,1025.8,METAR KPHL 091654Z 06008G17KT 10SM BKN045 BKN230 BKN330 24/12 A3029 RMK AO2 SLP256 T02390122 $,2025-09-09T17:12:49Z,2025-09-09T13:12:49Z
KPHL,"Philadelphia Intl, PA, US",2025-09-09T17:54:00Z,2025-09-09T13:54:00Z,VFR,24.4,11.7,70,9,0,NA,1025.5,METAR KPHL 091754Z 07009KT 10SM SCT050 BKN330 24/12 A3028 RMK AO2 SLP252 T02440117 10250 20172 58010 $,2025-09-09T18:09:19Z,2025-09-09T14:09:19Z
KPHL,"Philadelphia Intl, PA, US",2025-09-09T18:54:00Z,2025-09-09T14:54:00Z,VFR,25,12.2,100,8,0,NA,1024.8,METAR KPHL 091854Z 10008KT 10SM SCT055 BKN330 25/12 A3026 RMK AO2 SLP247 T02500122 $,2025-09-09T19:00:54Z,2025-09-09T15:00:54Z
KPHL,"Philadelphia Intl, PA, US",2025-09-09T19:54:00Z,2025-09-09T15:54:00Z,VFR,22.8,12.2,90,13,0,NA,1024.5,METAR KPHL 091954Z 09013KT 10SM SCT050 BKN330 23/12 A3025 RMK AO2 SLP241 T02280122 $,2025-09-09T20:10:12Z,2025-09-09T16:10:12Z
KPHL,"Philadelphia Intl, PA, US",2025-09-09T20:54:00Z,2025-09-09T16:54:00Z,VFR,22.8,12.2,80,13,0,NA,1024.5,METAR KPHL 092054Z 08013KT 10SM BKN045 BKN055 BKN330 23/12 A3025 RMK AO2 SLP242 T02280122 55010 $,2025-09-09T21:12:40Z,2025-09-09T17:12:40Z
KPHL,"Philadelphia Intl, PA, US",2025-09-09T21:54:00Z,2025-09-09T17:54:00Z,VFR,22.8,12.2,90,12,0,NA,1024.1,METAR KPHL 092154Z 09012KT 10SM SCT040 BKN055 BKN330 23/12 A3024 RMK AO2 SLP238 T02280122 $,2025-09-09T22:00:06Z,2025-09-09T18:00:06Z
KPHL,"Philadelphia Intl, PA, US",2025-09-09T22:54:00Z,2025-09-09T18:54:00Z,VFR,21.1,11.7,80,13,0,NA,1024.1,METAR KPHL 092254Z 08013KT 10SM FEW038 OVC050 21/12 A3024 RMK AO2 SLP240 T02110117 $,2025-09-09T22:58:29Z,2025-09-09T18:58:29Z
KPHL,"Philadelphia Intl, PA, US",2025-09-09T23:54:00Z,2025-09-09T19:54:00Z,VFR,20.6,12.8,70,9,17,NA,1024.1,METAR KPHL 092354Z 07009G17KT 10SM BKN045 OVC055 21/13 A3024 RMK AO2 SLP240 T02060128 10250 20200 56002 $,2025-09-10T00:12:47Z,2025-09-09T20:12:47Z
KPHL,"Philadelphia Intl, PA, US",2025-09-10T00:54:00Z,2025-09-09T20:54:00Z,VFR,19.4,12.2,60,9,0,NA,1024.5,METAR KPHL 100054Z 06009KT 10SM SCT044 OVC060 19/12 A3025 RMK AO2 SLP243 T01940122 $,2025-09-10T01:11:39Z,2025-09-09T21:11:39Z
KPHX,"Phoenix/Sky Harbor Intl, AZ, US",2025-09-09T14:51:00Z,2025-09-09T10:51:00Z,VFR,31.7,15,100,4,0,NA,1010.6,METAR KPHX 091451Z 10004KT 10SM FEW100 32/15 A2984 RMK AO2 SLP082 T03170150 53010,2025-09-09T15:51:32Z,2025-09-09T11:51:32Z
KPHX,"Phoenix/Sky Harbor Intl, AZ, US",2025-09-09T15:51:00Z,2025-09-09T11:51:00Z,VFR,33.9,15.6,110,4,0,NA,1010.6,METAR KPHX 091551Z 11004KT 10SM FEW100 34/16 A2984 RMK AO2 SLP083 T03390156,2025-09-09T16:06:05Z,2025-09-09T12:06:05Z
KPHX,"Phoenix/Sky Harbor Intl, AZ, US",2025-09-09T16:51:00Z,2025-09-09T12:51:00Z,VFR,36.1,13.9,VAR,4,0,NA,1010.6,METAR KPHX 091651Z VRB04KT 10SM FEW100 36/14 A2984 RMK AO2 SLP082 T03610139,2025-09-09T16:54:06Z,2025-09-09T12:54:06Z
KPHX,"Phoenix/Sky Harbor Intl, AZ, US",2025-09-09T17:51:00Z,2025-09-09T13:51:00Z,VFR,36.7,13.9,VAR,4,0,NA,1010.2,METAR KPHX 091751Z VRB04KT 10SM FEW100 37/14 A2983 RMK AO2 SLP078 T03670139 10372 20300 58004,2025-09-09T18:09:23Z,2025-09-09T14:09:23Z
KPHX,"Phoenix/Sky Harbor Intl, AZ, US",2025-09-09T18:51:00Z,2025-09-09T14:51:00Z,VFR,37.2,14.4,310,4,0,NA,1009.2,METAR KPHX 091851Z 31004KT 10SM FEW100 37/14 A2980 RMK AO2 SLP069 T03720144,2025-09-09T19:00:59Z,2025-09-09T15:00:59Z
KPHX,"Phoenix/Sky Harbor Intl, AZ, US",2025-09-09T19:51:00Z,2025-09-09T15:51:00Z,VFR,40,14.4,150,12,16,NA,1008.5,METAR KPHX 091951Z 15012G16KT 10SM FEW100 40/14 A2978 RMK AO2 SLP060 T04000144,2025-09-09T20:10:19Z,2025-09-09T16:10:19Z
KPHX,"Phoenix/Sky Harbor Intl, AZ, US",2025-09-09T20:51:00Z,2025-09-09T16:51:00Z,VFR,40,14.4,180,6,0,NA,1007.5,METAR KPHX 092051Z 18006KT 10SM FEW100 40/14 A2975 RMK AO2 SLP049 T04000144 58026,2025-09-09T20:54:03Z,2025-09-09T16:54:03Z
KPHX,"Phoenix/Sky Harbor Intl, AZ, US",2025-09-09T21:51:00Z,2025-09-09T17:51:00Z,VFR,40.6,13.3,VAR,5,0,NA,1006.9,METAR KPHX 092151Z VRB05KT 10SM FEW100 41/13 A2973 RMK AO2 SLP043 T04060133,2025-09-09T22:00:15Z,2025-09-09T18:00:15Z
KPHX,"Phoenix/Sky Harbor Intl, AZ, US",2025-09-09T22:51:00Z,2025-09-09T18:51:00Z,VFR,39.4,12.8,0,0,0,NA,1005.8,METAR KPHX 092251Z 00000KT 10SM FEW100 39/13 A2970 RMK AO2 SLP036 T03940128,2025-09-09T22:58:34Z,2025-09-09T18:58:34Z
KPHX,"Phoenix/Sky Harbor Intl, AZ, US",2025-09-09T23:51:00Z,2025-09-09T19:51:00Z,VFR,40,12.8,300,6,0,NA,1005.5,METAR KPHX 092351Z 30006KT 10SM FEW100 40/13 A2969 RMK AO2 SLP029 T04000128 10411 20367 56020,2025-09-10T00:12:48Z,2025-09-09T20:12:48Z
KPHX,"Phoenix/Sky Harbor Intl, AZ, US",2025-09-10T00:51:00Z,2025-09-09T20:51:00Z,VFR,39.4,12.2,VAR,NA,0,NA,1004.8,METAR KPHX 100051Z 10SM FEW100 39/12 A2967 RMK AO2 SLP025 T03940122,2025-09-10T01:11:39Z,2025-09-09T21:11:39Z
KPIA,"Peoria Intl, IL, US",2025-09-09T23:54:00Z,2025-09-09T19:54:00Z,VFR,21.7,7.8,130,3,0,NA,1018.4,METAR KPIA 092354Z 13003KT 10SM CLR 22/08 A3007 RMK AO2 SLP181 T02170078 10256 20217 58004,2025-09-10T00:12:47Z,2025-09-09T20:12:47Z
KPIA,"Peoria Intl, IL, US",2025-09-10T00:54:00Z,2025-09-09T20:54:00Z,VFR,19.4,8.9,0,0,0,NA,1018.4,METAR KPIA 100054Z 00000KT 10SM CLR 19/09 A3007 RMK AO2 SLP183 T01940089,2025-09-10T01:11:39Z,2025-09-09T21:11:39Z
KPIB,"Hattiesburg/Laurel Rgnl, MS, US",2025-09-09T22:56:00Z,2025-09-09T18:56:00Z,VFR,29.4,20,80,4,0,NA,1016,METAR KPIB 092256Z AUTO 08004KT 10SM FEW048 29/20 A3000 RMK AO2 SLP155 T02940200,2025-09-10T00:12:48Z,2025-09-09T20:12:48Z
KPIB,"Hattiesburg/Laurel Rgnl, MS, US",2025-09-10T00:56:00Z,2025-09-09T20:56:00Z,VFR,26.1,20.6,0,0,0,NA,1016.7,METAR KPIB 100056Z AUTO 00000KT 10SM SCT120 26/21 A3002 RMK AO2 SLP163 T02610206,2025-09-10T01:11:39Z,2025-09-09T21:11:39Z
KPIE,"St Petersburg-Clearwater Intl, FL, US",2025-09-09T23:53:00Z,2025-09-09T19:53:00Z,VFR,27.2,23.9,50,14,23,NA,1013.6,METAR KPIE 092353Z 05014G23KT 10SM SCT022 SCT027 27/24 A2993 RMK AO2 SLP133 60001 T02720239 10289 20272 53002,2025-09-10T00:12:47Z,2025-09-09T20:12:47Z
KPIE,"St Petersburg-Clearwater Intl, FL, US",2025-09-10T00:53:00Z,2025-09-09T20:53:00Z,VFR,26.1,22.8,70,10,0,NA,1014.3,METAR KPIE 100053Z AUTO 07010KT 10SM CLR 26/23 A2995 RMK AO2 SLP140 T02610228,2025-09-10T01:11:39Z,2025-09-09T21:11:39Z
KPIH,"Pocatello Rgnl, ID, US",2025-09-09T23:53:00Z,2025-09-09T19:53:00Z,VFR,27.2,7.2,10,9,0,NA,1011.6,METAR KPIH 092353Z 01009KT 10SM FEW070 27/07 A2987 RMK AO2 SLP071 60000 T02720072 10272 20228 56012,2025-09-10T00:12:47Z,2025-09-09T20:12:47Z
KPIH,"Pocatello Rgnl, ID, US",2025-09-10T00:53:00Z,2025-09-09T20:53:00Z,VFR,25.6,8.3,20,10,0,NA,1011.3,METAR KPIH 100053Z 02010KT 10SM SCT070 26/08 A2986 RMK AO2 SLP071 T02560083,2025-09-10T01:11:39Z,2025-09-09T21:11:39Z
KPIR,"Pierre Muni, SD, US",2025-09-09T23:53:00Z,2025-09-09T19:53:00Z,VFR,26.7,16.7,80,12,0,NA,1012.6,METAR KPIR 092353Z AUTO 08012KT 10SM CLR 27/17 A2990 RMK AO2 SLP115 T02670167 10300 20267 53001,2025-09-10T00:12:47Z,2025-09-09T20:12:47Z
KPIR,"Pierre Muni, SD, US",2025-09-10T00:53:00Z,2025-09-09T20:53:00Z,VFR,23.3,15.6,80,9,0,NA,1013.3,METAR KPIR 100053Z AUTO 08009KT 10SM CLR 23/16 A2992 RMK AO2 SLP121 T02330156,2025-09-10T01:11:39Z,2025-09-09T21:11:39Z
KPIT,"Pittsburgh Intl, PA, US",2025-09-09T14:51:00Z,2025-09-09T10:51:00Z,VFR,18.9,7.2,120,5,0,NA,1026.2,METAR KPIT 091451Z 12005KT 10SM FEW250 19/07 A3030 RMK AO2 SLP267 T01890072 52003 $,2025-09-09T15:51:27Z,2025-09-09T11:51:27Z
KPIT,"Pittsburgh Intl, PA, US",2025-09-09T15:51:00Z,2025-09-09T11:51:00Z,VFR,20.6,6.1,VAR,5,0,NA,1025.8,METAR KPIT 091551Z VRB05KT 10SM FEW040 FEW250 21/06 A3029 RMK AO2 SLP262 T02060061 $,2025-09-09T16:06:00Z,2025-09-09T12:06:00Z
KPIT,"Pittsburgh Intl, PA, US",2025-09-09T16:51:00Z,2025-09-09T12:51:00Z,VFR,21.1,5.6,VAR,NA,0,NA,1025.1,METAR KPIT 091651Z 10SM FEW250 21/06 A3027 RMK AO2 SLP254 T02110056 $,2025-09-09T16:54:01Z,2025-09-09T12:54:01Z
KPIT,"Pittsburgh Intl, PA, US",2025-09-09T16:51:00Z,2025-09-09T12:51:00Z,VFR,21.1,5.6,VAR,6,0,NA,1025.1,METAR KPIT 091651Z COR VRB06KT 10SM FEW250 21/06 A3027 RMK AO2 SLP254 T02110056 $,2025-09-09T17:12:49Z,2025-09-09T13:12:49Z
KPIT,"Pittsburgh Intl, PA, US",2025-09-09T17:51:00Z,2025-09-09T13:51:00Z,VFR,22.2,5,VAR,4,0,NA,1024.1,METAR KPIT 091751Z VRB04KT 10SM FEW250 22/05 A3024 RMK AO2 SLP246 T02220050 10222 20083 58020 $,2025-09-09T18:09:19Z,2025-09-09T14:09:19Z
KPIT,"Pittsburgh Intl, PA, US",2025-09-09T18:51:00Z,2025-09-09T14:51:00Z,VFR,22.8,4.4,140,5,0,NA,1023.5,METAR KPIT 091851Z 14005KT 10SM FEW250 23/04 A3022 RMK AO2 SLP239 T02280044,2025-09-09T19:00:54Z,2025-09-09T15:00:54Z
KPIT,"Pittsburgh Intl, PA, US",2025-09-09T19:51:00Z,2025-09-09T15:51:00Z,VFR,23.3,4.4,150,6,16,NA,1023.1,METAR KPIT 091951Z 15006G16KT 10SM SCT250 23/04 A3021 RMK AO2 SLP234 T02330044,2025-09-09T20:10:13Z,2025-09-09T16:10:13Z
KPIT,"Pittsburgh Intl, PA, US",2025-09-09T20:51:00Z,2025-09-09T16:51:00Z,VFR,23.3,5,VAR,5,0,NA,1022.4,METAR KPIT 092051Z VRB05KT 10SM SCT250 23/05 A3019 RMK AO2 SLP230 T02330050 56016,2025-09-09T20:53:58Z,2025-09-09T16:53:58Z
KPIT,"Pittsburgh Intl, PA, US",2025-09-09T21:51:00Z,2025-09-09T17:51:00Z,VFR,23.3,6.1,0,0,0,NA,1022.4,METAR KPIT 092151Z 00000KT 10SM FEW250 23/06 A3019 RMK AO2 SLP227 T02330061,2025-09-09T22:00:06Z,2025-09-09T18:00:06Z
KPIT,"Pittsburgh Intl, PA, US",2025-09-09T22:51:00Z,2025-09-09T18:51:00Z,VFR,22.8,6.1,150,4,0,NA,1022.1,METAR KPIT 092251Z 15004KT 10SM FEW250 23/06 A3018 RMK AO2 SLP226 T02280061,2025-09-09T22:58:30Z,2025-09-09T18:58:30Z
KPIT,"Pittsburgh Intl, PA, US",2025-09-09T23:51:00Z,2025-09-09T19:51:00Z,VFR,21.1,6.7,90,3,0,NA,1022.1,METAR KPIT 092351Z 09003KT 10SM FEW250 21/07 A3018 RMK AO2 SLP225 T02110067 10239 20206 56005,2025-09-10T00:12:48Z,2025-09-09T20:12:48Z
KPIT,"Pittsburgh Intl, PA, US",2025-09-10T00:51:00Z,2025-09-09T20:51:00Z,VFR,17.8,8.9,0,0,0,NA,1022.1,METAR KPIT 100051Z 00000KT 10SM CLR 18/09 A3018 RMK AO2 SLP226 T01780089,2025-09-10T01:11:39Z,2025-09-09T21:11:39Z
KPKB,"Parkersburg/Mid Ohio Valley Rgnl, WV, US",2025-09-09T23:53:00Z,2025-09-09T19:53:00Z,VFR,17.8,10.6,0,0,0,NA,1021.4,METAR KPKB 092353Z 00000KT 10SM CLR 18/11 A3016 RMK AO2 SLP213 T01780106 10256 20178 58004,2025-09-10T00:12:47Z,2025-09-09T20:12:47Z
KPKB,"Parkersburg/Mid Ohio Valley Rgnl, WV, US",2025-09-10T00:53:00Z,2025-09-09T20:53:00Z,VFR,15,10.6,0,0,0,NA,1021.4,METAR KPKB 100053Z 00000KT 10SM CLR 15/11 A3016 RMK AO2 SLP212 T01500106,2025-09-10T01:11:39Z,2025-09-09T21:11:39Z
KPLN,"Pellston Rgnl, MI, US",2025-09-09T23:54:00Z,2025-09-09T19:54:00Z,VFR,18.3,13.9,330,3,0,NA,1019.7,METAR KPLN 092354Z AUTO 33003KT 10SM OVC110 18/14 A3011 RMK AO2 SLP197 T01830139 10228 20183 53004,2025-09-10T00:12:47Z,2025-09-09T20:12:47Z
KPLN,"Pellston Rgnl, MI, US",2025-09-10T00:54:00Z,2025-09-09T20:54:00Z,VFR,17.2,13.9,170,3,0,NA,1019,METAR KPLN 100054Z AUTO 17003KT 10SM BKN100 OVC120 17/14 A3009 RMK AO2 SLP191 T01720139,2025-09-10T01:11:39Z,2025-09-09T21:11:39Z
KPMD,"Palmdale Rgnl, CA, US",2025-09-09T23:53:00Z,2025-09-09T19:53:00Z,VFR,27.2,6.7,230,19,0,NA,1011.3,METAR KPMD 092353Z 23019KT 10SM CLR 27/07 A2986 RMK AO2 PK WND 23030/2325 SLP084 T02720067 10289 20272 56016,2025-09-10T00:12:47Z,2025-09-09T20:12:47Z
KPMD,"Palmdale Rgnl, CA, US",2025-09-10T00:53:00Z,2025-09-09T20:53:00Z,VFR,25.6,8.9,230,20,27,NA,1010.9,METAR KPMD 100053Z 23020G27KT 10SM CLR 26/09 A2985 RMK AO2 PK WND 26027/0043 SLP084 T02560089,2025-09-10T01:11:39Z,2025-09-09T21:11:39Z
KPNA,"Pinedale/Wentz Fld, WY, US",2025-09-09T23:55:00Z,2025-09-09T19:55:00Z,VFR,20,2,20,13,0,NA,1019.7,METAR KPNA 092355Z AUTO 02013KT 10SM CLR 20/02 A3011 RMK AO2,2025-09-10T00:12:47Z,2025-09-09T20:12:47Z
KPNA,"Pinedale/Wentz Fld, WY, US",2025-09-10T00:15:00Z,2025-09-09T20:15:00Z,VFR,20,1,350,11,0,NA,1019.7,METAR KPNA 100015Z AUTO 35011KT 10SM CLR 20/01 A3011 RMK AO2,2025-09-10T00:33:31Z,2025-09-09T20:33:31Z
KPNA,"Pinedale/Wentz Fld, WY, US",2025-09-10T00:55:00Z,2025-09-09T20:55:00Z,VFR,18,3,320,6,0,NA,1019.7,METAR KPNA 100055Z AUTO 32006KT 10SM CLR 18/03 A3011 RMK AO2,2025-09-10T01:11:39Z,2025-09-09T21:11:39Z
KPNC,"Ponca City Rgnl, OK, US",2025-09-09T23:53:00Z,2025-09-09T19:53:00Z,VFR,28.9,16.7,180,8,0,NA,1013.3,METAR KPNC 092353Z AUTO 18008KT 10SM CLR 29/17 A2992 RMK AO2 SLP122 T02890167 10306 20272 56003,2025-09-10T00:12:47Z,2025-09-09T20:12:47Z
KPNC,"Ponca City Rgnl, OK, US",2025-09-10T00:53:00Z,2025-09-09T20:53:00Z,VFR,27.2,16.7,170,7,0,NA,1013.6,METAR KPNC 100053Z AUTO 17007KT 10SM CLR 27/17 A2993 RMK AO2 SLP125 T02720167,2025-09-10T01:11:39Z,2025-09-09T21:11:39Z
KPNE,"Philadelphia/NE Arpt, PA, US",2025-09-09T23:54:00Z,2025-09-09T19:54:00Z,VFR,19.4,11.1,80,10,0,NA,1024.8,METAR KPNE 092354Z 08010KT 10SM OVC055 19/11 A3026 RMK AO2 SLP248 T01940111 10233 20194 56002,2025-09-10T00:12:47Z,2025-09-09T20:12:47Z
KPNE,"Philadelphia/NE Arpt, PA, US",2025-09-10T00:54:00Z,2025-09-09T20:54:00Z,VFR,18.9,11.7,80,7,0,NA,1025.1,METAR KPNE 100054Z 08007KT 10SM OVC055 19/12 A3027 RMK AO2 SLP248 T01890117,2025-09-10T01:11:39Z,2025-09-09T21:11:39Z
KPNS,"Pensacola Intl, FL, US",2025-09-09T23:53:00Z,2025-09-09T19:53:00Z,VFR,28.3,18.9,70,6,0,NA,1015.3,METAR KPNS 092353Z 07006KT 10SM CLR 28/19 A2998 RMK AO2 SLP153 T02830189 10311 20283 53005,2025-09-10T00:12:47Z,2025-09-09T20:12:47Z
KPNS,"Pensacola Intl, FL, US",2025-09-10T00:53:00Z,2025-09-09T20:53:00Z,VFR,27.2,19.4,40,4,0,NA,1016,METAR KPNS 100053Z 04004KT 10SM CLR 27/19 A3000 RMK AO2 SLP158 T02720194,2025-09-10T01:11:39Z,2025-09-09T21:11:39Z
KPOB,"Pope AAF, NC, US",2025-09-09T23:55:00Z,2025-09-09T19:55:00Z,VFR,22.6,16.1,20,8,0,NA,1019,METAR KPOB 092355Z AUTO 02008KT 10SM OVC032 23/16 A3009 RMK AO2 SLP191 T02260161 10267 20225 50004 $,2025-09-10T00:12:46Z,2025-09-09T20:12:46Z
KPOB,"Pope AAF, NC, US",2025-09-10T00:25:00Z,2025-09-09T20:25:00Z,MVFR,22,16,30,11,0,NA,1019.4,SPECI KPOB 100025Z AUTO 03011KT 10SM OVC029 22/16 A3010 RMK AO2 CIG 028 RWY23 SLP195 $,2025-09-10T00:33:31Z,2025-09-09T20:33:31Z
KPOB,"Pope AAF, NC, US",2025-09-10T00:55:00Z,2025-09-09T20:55:00Z,MVFR,22,15.8,20,8,0,NA,1019.7,METAR KPOB 100055Z AUTO 02008KT 10SM OVC028 22/16 A3011 RMK AO2 CIG 027 RWY23 SLP198 T02200158 $,2025-09-10T01:11:39Z,2025-09-09T21:11:39Z
KPOE,"Fort Polk AAF, LA, US",2025-09-09T22:55:00Z,2025-09-09T18:55:00Z,VFR,30.5,11.9,30,5,0,NA,1014.6,METAR KPOE 092255Z AUTO 03005KT 10SM CLR 31/12 A2996 RMK AO2 SLP145 T03050119,2025-09-10T00:12:48Z,2025-09-09T20:12:48Z
KPOE,"Fort Polk AAF, LA, US",2025-09-10T00:55:00Z,2025-09-09T20:55:00Z,VFR,24.1,16.6,20,3,0,NA,1015,METAR KPOE 100055Z AUTO 02003KT 10SM CLR 24/17 A2997 RMK AO2 SLP149 T02410166,2025-09-10T01:11:39Z,2025-09-09T21:11:39Z
KPOU,"Poughkeepsie/Hudson Valley Rgnl, NY, US",2025-09-09T23:53:00Z,2025-09-09T19:53:00Z,VFR,16.7,11.7,0,0,0,NA,1025.1,METAR KPOU 092353Z 00000KT 10SM CLR 17/12 A3027 RMK AO2 SLP246 T01670117 10233 20161 55000,2025-09-10T00:12:47Z,2025-09-09T20:12:47Z
KPOU,"Poughkeepsie/Hudson Valley Rgnl, NY, US",2025-09-10T00:53:00Z,2025-09-09T20:53:00Z,VFR,13.9,11.7,0,0,0,NA,1025.5,METAR KPOU 100053Z AUTO 00000KT 10SM CLR 14/12 A3028 RMK AO2 SLP251 T01390117,2025-09-10T01:11:39Z,2025-09-09T21:11:39Z
KPQI,"Presque Isle Intl, ME, US",2025-09-09T23:56:00Z,2025-09-09T19:56:00Z,VFR,11.7,10.6,0,0,0,NA,1027.5,METAR KPQI 092356Z AUTO 00000KT 10SM CLR 12/11 A3034 RMK AO2 SLP302 T01170106 10200 20117 53005,2025-09-10T00:12:46Z,2025-09-09T20:12:46Z
KPQI,"Presque Isle Intl, ME, US",2025-09-10T00:56:00Z,2025-09-09T20:56:00Z,VFR,10.6,10,0,0,0,NA,1027.9,METAR KPQI 100056Z AUTO 00000KT 10SM CLR 11/10 A3035 RMK AO2 SLP304 T01060100,2025-09-10T01:11:39Z,2025-09-09T21:11:39Z
KPRB,"Paso Robles Muni, CA, US",2025-09-09T23:53:00Z,2025-09-09T19:53:00Z,VFR,26.1,12.2,210,12,0,NA,1011.6,METAR KPRB 092353Z AUTO 21012KT 10SM CLR 26/12 A2987 RMK AO2 SLP109 T02610122 10278 20211 56019,2025-09-10T00:12:47Z,2025-09-09T20:12:47Z
KPRB,"Paso Robles Muni, CA, US",2025-09-10T00:53:00Z,2025-09-09T20:53:00Z,VFR,24.4,12.8,200,11,0,NA,1011.6,METAR KPRB 100053Z AUTO 20011KT 10SM CLR 24/13 A2987 RMK AO2 SLP109 T02440128,2025-09-10T01:11:39Z,2025-09-09T21:11:39Z
KPRC,"Prescott/Love Fld, AZ, US",2025-09-09T23:53:00Z,2025-09-09T19:53:00Z,VFR,28.3,7.8,190,11,23,NA,1017,METAR KPRC 092353Z 19011G23KT 10SM CLR 28/08 A3003 RMK AO2 SLP082 T02830078 10300 20272 56011,2025-09-10T00:12:47Z,2025-09-09T20:12:47Z
KPRC,"Prescott/Love Fld, AZ, US",2025-09-10T00:53:00Z,2025-09-09T20:53:00Z,VFR,27.2,6.1,200,14,20,NA,1016.7,METAR KPRC 100053Z 20014G20KT 10SM CLR 27/06 A3002 RMK AO2 SLP085 T02720061,2025-09-10T01:11:39Z,2025-09-09T21:11:39Z
KPRX,"Paris/Cox Fld, TX, US",2025-09-09T23:56:00Z,2025-09-09T19:56:00Z,VFR,26.7,12.8,100,5,0,NA,1016,METAR KPRX 092356Z AUTO 10005KT 10SM CLR 27/13 A3000 RMK AO2 SLP156 T02670128 10289 20261 56007,2025-09-10T00:12:46Z,2025-09-09T20:12:46Z
KPRX,"Paris/Cox Fld, TX, US",2025-09-10T00:56:00Z,2025-09-09T20:56:00Z,VFR,22.8,12.8,120,6,0,NA,1016,METAR KPRX 100056Z AUTO 12006KT 10SM CLR 23/13 A3000 RMK AO2 SLP155 T02280128,2025-09-10T01:11:39Z,2025-09-09T21:11:39Z
KPSC,"Pasco/Tri Cities Arpt, WA, US",2025-09-09T23:53:00Z,2025-09-09T19:53:00Z,VFR,29.4,12.2,330,5,0,NA,1007.5,METAR KPSC 092353Z 33005KT 10SM CLR 29/12 A2975 RMK AO2 SLP071 T02940122 10294 20250 56022,2025-09-10T00:12:47Z,2025-09-09T20:12:47Z
KPSC,"Pasco/Tri Cities Arpt, WA, US",2025-09-10T00:53:00Z,2025-09-09T20:53:00Z,VFR,27.2,13.3,330,5,0,NA,1007.2,METAR KPSC 100053Z 33005KT 10SM CLR 27/13 A2974 RMK AO2 SLP069 T02720133,2025-09-10T01:11:39Z,2025-09-09T21:11:39Z
KPSM,"Portsmouth Intl, NH, US",2025-09-09T23:55:00Z,2025-09-09T19:55:00Z,VFR,16.1,13.2,120,4,0,NA,1027.5,METAR KPSM 092355Z 12004KT 10SM BKN250 16/13 A3034 RMK AO2A SLP277 T01610132 10211 20160 55002,2025-09-10T00:12:46Z,2025-09-09T20:12:46Z
KPSM,"Portsmouth Intl, NH, US",2025-09-10T00:55:00Z,2025-09-09T20:55:00Z,VFR,15.5,12.6,0,0,0,NA,1027.5,METAR KPSM 100055Z 00000KT 10SM SCT250 16/13 A3034 RMK AO2A SLP277 T01550126,2025-09-10T01:11:39Z,2025-09-09T21:11:39Z
KPSP,"Palm Springs Intl, CA, US",2025-09-09T14:53:00Z,2025-09-09T10:53:00Z,VFR,26.1,8.3,0,0,0,NA,1010.2,METAR KPSP 091453Z 00000KT 10SM CLR 26/08 A2983 RMK AO2 SLP098 T02610083 53008,2025-09-09T15:51:32Z,2025-09-09T11:51:32Z
KPSP,"Palm Springs Intl, CA, US",2025-09-09T15:53:00Z,2025-09-09T11:53:00Z,VFR,30,6.1,VAR,3,0,NA,1010.6,METAR KPSP 091553Z VRB03KT 10SM CLR 30/06 A2984 RMK AO2 SLP098 T03000061,2025-09-09T16:06:05Z,2025-09-09T12:06:05Z
KPSP,"Palm Springs Intl, CA, US",2025-09-09T16:53:00Z,2025-09-09T12:53:00Z,VFR,32.8,3.9,0,0,0,NA,1010.6,METAR KPSP 091653Z 00000KT 10SM CLR 33/04 A2984 RMK AO2 SLP098 T03280039,2025-09-09T17:12:57Z,2025-09-09T13:12:57Z
KPSP,"Palm Springs Intl, CA, US",2025-09-09T17:53:00Z,2025-09-09T13:53:00Z,VFR,35,0.6,150,5,0,NA,1010.2,METAR KPSP 091753Z 15005KT 10SM CLR 35/01 A2983 RMK AO2 SLP095 T03500006 10350 20228 58001,2025-09-09T18:09:23Z,2025-09-09T14:09:23Z
KPSP,"Palm Springs Intl, CA, US",2025-09-09T18:53:00Z,2025-09-09T14:53:00Z,VFR,36.1,-0.6,0,0,0,NA,1009.6,METAR KPSP 091853Z 00000KT 10SM CLR 36/M01 A2981 RMK AO2 SLP089 T03611006,2025-09-09T19:00:59Z,2025-09-09T15:00:59Z
KPSP,"Palm Springs Intl, CA, US",2025-09-09T20:04:00Z,2025-09-09T16:04:00Z,VFR,37.2,-1.1,360,9,0,NA,1008.5,SPECI KPSP 092004Z 36009KT 10SM CLR 37/M01 A2978 RMK AO2 T03721011,2025-09-09T20:10:19Z,2025-09-09T16:10:19Z
KPSP,"Palm Springs Intl, CA, US",2025-09-09T20:53:00Z,2025-09-09T16:53:00Z,VFR,37.8,-0.6,360,9,0,NA,1007.5,METAR KPSP 092053Z 36009KT 10SM CLR 38/M01 A2975 RMK AO2 SLP070 T03781006 58025,2025-09-09T21:12:46Z,2025-09-09T17:12:46Z
KPSP,"Palm Springs Intl, CA, US",2025-09-09T21:53:00Z,2025-09-09T17:53:00Z,VFR,39.4,-1.7,350,10,17,NA,1006.9,METAR KPSP 092153Z 35010G17KT 10SM CLR 39/M02 A2973 RMK AO2 SLP061 T03941017,2025-09-09T22:00:15Z,2025-09-09T18:00:15Z
KPSP,"Palm Springs Intl, CA, US",2025-09-09T22:53:00Z,2025-09-09T18:53:00Z,VFR,39.4,-0.6,330,15,0,NA,1006.2,METAR KPSP 092253Z 33015KT 10SM CLR 39/M01 A2971 RMK AO2 SLP054 T03941006,2025-09-09T22:58:34Z,2025-09-09T18:58:34Z
KPSP,"Palm Springs Intl, CA, US",2025-09-09T23:53:00Z,2025-09-09T19:53:00Z,VFR,37.8,2.2,300,14,24,NA,1005.5,METAR KPSP 092353Z 30014G24KT 10SM CLR 38/02 A2969 RMK AO2 SLP048 T03780022 10400 20344 56021,2025-09-10T00:12:47Z,2025-09-09T20:12:47Z
KPSP,"Palm Springs Intl, CA, US",2025-09-10T00:53:00Z,2025-09-09T20:53:00Z,VFR,37.2,5,310,11,0,NA,1005.2,METAR KPSP 100053Z 31011KT 10SM CLR 37/05 A2968 RMK AO2 SLP047 T03720050,2025-09-10T01:11:39Z,2025-09-09T21:11:39Z
KPTK,"Pontiac/Oakland Intl, MI, US",2025-09-09T23:53:00Z,2025-09-09T19:53:00Z,VFR,19.4,5,170,3,0,NA,1021.8,METAR KPTK 092353Z 17003KT 10SM BKN150 OVC250 19/05 A3017 RMK AO2 SLP215 T01940050 10250 20194 58001,2025-09-10T00:12:47Z,2025-09-09T20:12:47Z
KPTK,"Pontiac/Oakland Intl, MI, US",2025-09-10T00:53:00Z,2025-09-09T20:53:00Z,VFR,17.2,7.2,0,0,0,NA,1021.8,METAR KPTK 100053Z 00000KT 10SM FEW075 BKN150 OVC250 17/07 A3017 RMK AO2 SLP214 T01720072,2025-09-10T01:11:39Z,2025-09-09T21:11:39Z
KPUB,"Pueblo Mem Arpt, CO, US",2025-09-09T14:53:00Z,2025-09-09T10:53:00Z,NA,19.4,6.7,270,8,0,NA,1019.4,METAR KPUB 091453Z 27008KT CLR 19/07 A3010 RMK AO2 SLP135 T01940067 50005 RVRNO $,2025-09-09T15:51:30Z,2025-09-09T11:51:30Z
KPUB,"Pueblo Mem Arpt, CO, US",2025-09-09T15:53:00Z,2025-09-09T11:53:00Z,VFR,23.3,7.2,290,5,0,NA,1019.4,METAR KPUB 091553Z 29005KT 10SM CLR 23/07 A3010 RMK AO2 SLP127 T02330072 $,2025-09-09T16:06:03Z,2025-09-09T12:06:03Z
KPUB,"Pueblo Mem Arpt, CO, US",2025-09-09T16:53:00Z,2025-09-09T12:53:00Z,VFR,27.2,6.7,VAR,6,0,NA,1018.7,METAR KPUB 091653Z VRB06KT 10SM CLR 27/07 A3008 RMK AO2 SLP119 T02720067,2025-09-09T17:12:54Z,2025-09-09T13:12:54Z
KPUB,"Pueblo Mem Arpt, CO, US",2025-09-09T17:53:00Z,2025-09-09T13:53:00Z,VFR,28.9,6.1,200,6,0,NA,1018.4,METAR KPUB 091753Z 20006KT 10SM CLR 29/06 A3007 RMK AO2 SLP112 T02890061 10289 20122 58011 $,2025-09-09T18:09:21Z,2025-09-09T14:09:21Z
KPUB,"Pueblo Mem Arpt, CO, US",2025-09-09T18:53:00Z,2025-09-09T14:53:00Z,VFR,30,5.6,VAR,5,0,NA,1017.4,METAR KPUB 091853Z VRB05KT 10SM CLR 30/06 A3004 RMK AO2 SLP106 T03000056 $,2025-09-09T19:00:57Z,2025-09-09T15:00:57Z
KPUB,"Pueblo Mem Arpt, CO, US",2025-09-09T19:53:00Z,2025-09-09T15:53:00Z,VFR,31.1,5,150,7,0,NA,1016.7,METAR KPUB 091953Z 15007KT 10SM CLR 31/05 A3002 RMK AO2 SLP099 T03110050 $,2025-09-09T20:10:18Z,2025-09-09T16:10:18Z
KPUB,"Pueblo Mem Arpt, CO, US",2025-09-09T20:53:00Z,2025-09-09T16:53:00Z,VFR,31.7,2.8,VAR,3,0,NA,1015.7,METAR KPUB 092053Z VRB03KT 10SM CLR 32/03 A2999 RMK AO2 SLP087 T03170028 58022 $,2025-09-09T21:12:45Z,2025-09-09T17:12:45Z
KPUB,"Pueblo Mem Arpt, CO, US",2025-09-09T21:53:00Z,2025-09-09T17:53:00Z,VFR,32.2,2.8,140,7,0,NA,1015.3,METAR KPUB 092153Z 14007KT 10SM CLR 32/03 A2998 RMK AO2 SLP084 T03220028 $,2025-09-09T22:00:10Z,2025-09-09T18:00:10Z
KPUB,"Pueblo Mem Arpt, CO, US",2025-09-09T22:53:00Z,2025-09-09T18:53:00Z,VFR,31.1,1.7,VAR,3,0,NA,1015,METAR KPUB 092253Z VRB03KT 10SM CLR 31/02 A2997 RMK AO2 SLP085 T03110017 $,2025-09-09T22:58:33Z,2025-09-09T18:58:33Z
KPUB,"Pueblo Mem Arpt, CO, US",2025-09-09T23:53:00Z,2025-09-09T19:53:00Z,VFR,30.6,3.3,120,6,0,NA,1014.6,METAR KPUB 092353Z 12006KT 10SM CLR 31/03 A2996 RMK AO2 LTG DSNT SW SLP084 T03060033 10328 20283 56008 $,2025-09-10T00:12:47Z,2025-09-09T20:12:47Z
KPUB,"Pueblo Mem Arpt, CO, US",2025-09-10T01:09:00Z,2025-09-09T21:09:00Z,VFR,25,7.8,310,19,27,9,1017.4,SPECI KPUB 100109Z 31019G27KT 9SM -RA FEW050 FEW070 OVC110 25/08 A3004 RMK AO2 PK WND 26028/0059 LTG DSNT N AND SE AND NW RAB01 P0000 T02500078 $,2025-09-10T01:11:39Z,2025-09-09T21:11:39Z
KPUW,"Pullman/Moscow Rgnl, WA, US",2025-09-09T23:53:00Z,2025-09-09T19:53:00Z,VFR,27.2,7.2,VAR,3,0,8,1010.2,METAR KPUW 092353Z AUTO VRB03KT 8SM CLR 27/07 A2983 RMK AO2 SLP085 T02720072 10283 20211 56020,2025-09-10T00:12:47Z,2025-09-09T20:12:47Z
KPUW,"Pullman/Moscow Rgnl, WA, US",2025-09-10T01:07:00Z,2025-09-09T21:07:00Z,IFR,25.6,6.7,0,0,0,1.75,1009.9,SPECI KPUW 100107Z AUTO 00000KT 1 3/4SM HZ CLR 26/07 A2982 RMK AO2 T02560067,2025-09-10T01:11:39Z,2025-09-09T21:11:39Z
KPVD,"Providence/Green Mem, RI, US",2025-09-09T14:51:00Z,2025-09-09T10:51:00Z,VFR,19.4,12.2,70,11,0,NA,1028.5,METAR KPVD 091451Z 07011KT 10SM FEW030 FEW250 19/12 A3037 RMK AO2 SLP284 T01940122 58002,2025-09-09T15:51:27Z,2025-09-09T11:51:27Z
KPVD,"Providence/Green Mem, RI, US",2025-09-09T15:51:00Z,2025-09-09T11:51:00Z,VFR,21.1,10.6,50,11,17,NA,1028.5,METAR KPVD 091551Z 05011G17KT 10SM FEW033 FEW250 21/11 A3037 RMK AO2 SLP285 T02110106,2025-09-09T16:06:00Z,2025-09-09T12:06:00Z
KPVD,"Providence/Green Mem, RI, US",2025-09-09T16:51:00Z,2025-09-09T12:51:00Z,VFR,22.2,9.4,60,11,18,NA,1027.9,METAR KPVD 091651Z 06011G18KT 10SM FEW038 FEW250 22/09 A3035 RMK AO2 SLP278 T02220094,2025-09-09T16:54:01Z,2025-09-09T12:54:01Z
KPVD,"Providence/Green Mem, RI, US",2025-09-09T17:51:00Z,2025-09-09T13:51:00Z,VFR,22.2,8.9,50,10,0,NA,1027.5,METAR KPVD 091751Z 05010KT 10SM FEW040 FEW250 22/09 A3034 RMK AO2 SLP276 T02220089 10228 20111 58008,2025-09-09T18:09:19Z,2025-09-09T14:09:19Z
KPVD,"Providence/Green Mem, RI, US",2025-09-09T18:51:00Z,2025-09-09T14:51:00Z,VFR,22.8,8.9,60,9,0,NA,1027.2,METAR KPVD 091851Z 06009KT 10SM FEW050 BKN250 23/09 A3033 RMK AO2 SLP270 T02280089,2025-09-09T19:00:54Z,2025-09-09T15:00:54Z
KPVD,"Providence/Green Mem, RI, US",2025-09-09T19:51:00Z,2025-09-09T15:51:00Z,VFR,21.7,9.4,70,10,0,NA,1027.2,METAR KPVD 091951Z 07010KT 10SM FEW050 BKN250 22/09 A3033 RMK AO2 SLP270 T02170094,2025-09-09T20:10:13Z,2025-09-09T16:10:13Z
KPVD,"Providence/Green Mem, RI, US",2025-09-09T20:51:00Z,2025-09-09T16:51:00Z,VFR,21.1,10.6,90,6,0,NA,1027.2,METAR KPVD 092051Z 09006KT 10SM FEW050 BKN250 21/11 A3033 RMK AO2 SLP269 T02110106 56006,2025-09-09T20:53:58Z,2025-09-09T16:53:58Z
KPVD,"Providence/Green Mem, RI, US",2025-09-09T21:51:00Z,2025-09-09T17:51:00Z,VFR,19.4,10,60,10,0,NA,1026.8,METAR KPVD 092151Z 06010KT 10SM BKN250 19/10 A3032 RMK AO2 SLP268 T01940100,2025-09-09T22:00:06Z,2025-09-09T18:00:06Z
KPVD,"Providence/Green Mem, RI, US",2025-09-09T21:51:00Z,2025-09-09T17:51:00Z,VFR,19.4,10,60,10,0,NA,1026.8,METAR KPVD 092151Z COR 06010KT 10SM FEW045 BKN250 19/10 A3032 RMK AO2 SLP268 T01940100,2025-09-09T22:20:13Z,2025-09-09T18:20:13Z
KPVD,"Providence/Green Mem, RI, US",2025-09-09T22:51:00Z,2025-09-09T18:51:00Z,VFR,18.3,11.1,60,10,0,NA,1027.2,METAR KPVD 092251Z 06010KT 10SM FEW045 BKN250 18/11 A3033 RMK AO2 SLP270 T01830111,2025-09-09T22:58:30Z,2025-09-09T18:58:30Z
KPVD,"Providence/Green Mem, RI, US",2025-09-09T23:51:00Z,2025-09-09T19:51:00Z,VFR,16.7,11.1,50,9,0,NA,1026.8,METAR KPVD 092351Z 05009KT 10SM FEW045 BKN250 17/11 A3032 RMK AO2 SLP269 T01670111 10228 20167 58001,2025-09-10T00:12:48Z,2025-09-09T20:12:48Z
KPVD,"Providence/Green Mem, RI, US",2025-09-10T00:51:00Z,2025-09-09T20:51:00Z,VFR,16.1,11.1,60,6,0,NA,1027.2,METAR KPVD 100051Z 06006KT 10SM CLR 16/11 A3033 RMK AO2 SLP270 T01610111,2025-09-10T01:11:39Z,2025-09-09T21:11:39Z
KPVU,"Provo Muni, UT, US",2025-09-09T23:56:00Z,2025-09-09T19:56:00Z,NA,30,0.6,50,5,0,NA,1011.3,METAR KPVU 092356Z 05005KT 10SM 30/01 A2986 RMK AO2 SLP051 T03000006 10311 20278 56020 $,2025-09-10T00:12:46Z,2025-09-09T20:12:46Z
KPVU,"Provo Muni, UT, US",2025-09-10T00:56:00Z,2025-09-09T20:56:00Z,VFR,28.9,-0.6,0,0,0,9,1010.9,METAR KPVU 100056Z 00000KT 9SM CLR 29/M01 A2985 RMK AO2 SLP049 T02891006 $,2025-09-10T01:11:39Z,2025-09-09T21:11:39Z
KPWK,"Chicago Exec, IL, US",2025-09-09T23:52:00Z,2025-09-09T19:52:00Z,VFR,20.6,8.3,170,5,0,NA,1019.7,METAR KPWK 092352Z 17005KT 10SM CLR 21/08 A3011 RMK AO2 SLP194 T02060083 10250 20206 55003,2025-09-10T00:12:47Z,2025-09-09T20:12:47Z
KPWK,"Chicago Exec, IL, US",2025-09-10T00:52:00Z,2025-09-09T20:52:00Z,VFR,19.4,8.9,110,4,0,NA,1019.4,METAR KPWK 100052Z 11004KT 10SM CLR 19/09 A3010 RMK AO2 SLP194 T01940089,2025-09-10T01:11:39Z,2025-09-09T21:11:39Z
KPWM,"Portland Intl, ME, US",2025-09-09T23:51:00Z,2025-09-09T19:51:00Z,VFR,15,13.3,0,0,0,NA,1028.5,METAR KPWM 092351Z 00000KT 10SM CLR 15/13 A3037 RMK AO2 SLP283 T01500133 10206 20150 53001 $,2025-09-10T00:12:48Z,2025-09-09T20:12:48Z
KPWM,"Portland Intl, ME, US",2025-09-10T00:51:00Z,2025-09-09T20:51:00Z,VFR,13.9,12.8,0,0,0,NA,1028.2,METAR KPWM 100051Z 00000KT 10SM CLR 14/13 A3036 RMK AO2 SLP281 T01390128 $,2025-09-10T01:11:39Z,2025-09-09T21:11:39Z
KPWT,"Bremerton Arpt, WA, US",2025-09-09T23:56:00Z,2025-09-09T19:56:00Z,VFR,20.6,13.3,VAR,3,0,NA,1013.3,METAR KPWT 092356Z AUTO VRB03KT 10SM CLR 21/13 A2992 RMK AO2 SLP135 T02060133 10211 20167 56012,2025-09-10T00:12:46Z,2025-09-09T20:12:46Z
KPWT,"Bremerton Arpt, WA, US",2025-09-10T00:56:00Z,2025-09-09T20:56:00Z,VFR,20.6,14.4,70,4,0,NA,1013.3,METAR KPWT 100056Z AUTO 07004KT 10SM OVC033 21/14 A2992 RMK AO2 SLP134 T02060144,2025-09-10T01:11:39Z,2025-09-09T21:11:39Z
KRAL,"Riverside Muni, CA, US",2025-09-09T23:53:00Z,2025-09-09T19:53:00Z,VFR,28.3,11.7,280,9,21,NA,1009.9,METAR KRAL 092353Z 28009G21KT 10SM CLR 28/12 A2982 RMK AO2 SLP082 T02830117 10306 20239 56018 $,2025-09-10T00:12:47Z,2025-09-09T20:12:47Z
KRAL,"Riverside Muni, CA, US",2025-09-10T00:53:00Z,2025-09-09T20:53:00Z,VFR,26.7,10.6,290,9,25,NA,1009.9,METAR KRAL 100053Z 29009G25KT 10SM CLR 27/11 A2982 RMK AO2 SLP083 T02670106 $,2025-09-10T01:11:39Z,2025-09-09T21:11:39Z
KRAP,"Rapid City Rgnl, SD, US",2025-09-09T23:52:00Z,2025-09-09T19:52:00Z,VFR,28.3,7.2,80,10,0,NA,1015,METAR KRAP 092352Z 08010KT 10SM CLR 28/07 A2997 RMK AO2 SLP123 60000 T02830072 10311 20278 55004,2025-09-10T00:12:47Z,2025-09-09T20:12:47Z
KRAP,"Rapid City Rgnl, SD, US",2025-09-10T00:52:00Z,2025-09-09T20:52:00Z,VFR,24.4,8.3,50,10,0,NA,1014.6,METAR KRAP 100052Z 05010KT 10SM CLR 24/08 A2996 RMK AO2 SLP126 T02440083,2025-09-10T01:11:39Z,2025-09-09T21:11:39Z
KRBL,"Red Bluff Muni, CA, US",2025-09-09T23:54:00Z,2025-09-09T19:54:00Z,VFR,26.7,12.2,160,7,0,NA,1009.9,METAR KRBL 092354Z AUTO 16007KT 10SM CLR 27/12 A2982 RMK AO2 SLP094 T02670122 10272 20222 56020,2025-09-10T00:12:47Z,2025-09-09T20:12:47Z
KRBL,"Red Bluff Muni, CA, US",2025-09-10T00:54:00Z,2025-09-09T20:54:00Z,VFR,25.6,12.2,150,5,0,NA,1009.6,METAR KRBL 100054Z AUTO 15005KT 10SM CLR 26/12 A2981 RMK AO2 SLP092 T02560122,2025-09-10T01:11:39Z,2025-09-09T21:11:39Z
KRCA,"Ellsworth AFB, SD, US",2025-09-09T23:55:00Z,2025-09-09T19:55:00Z,VFR,27.7,8,70,9,0,NA,1014,METAR KRCA 092355Z AUTO 07009KT 10SM CLR 28/08 A2994 RMK AO2 SLP118 T02770080 10296 20270 55005 PWINO $,2025-09-10T00:12:47Z,2025-09-09T20:12:47Z
KRCA,"Ellsworth AFB, SD, US",2025-09-10T00:55:00Z,2025-09-09T20:55:00Z,VFR,24.6,8.1,70,9,0,NA,1014,METAR KRCA 100055Z AUTO 07009KT 10SM CLR 25/08 A2994 RMK AO2 SLP120 T02460081 PWINO $,2025-09-10T01:11:39Z,2025-09-09T21:11:39Z
KRDD,"Redding Muni, CA, US",2025-09-09T23:53:00Z,2025-09-09T19:53:00Z,VFR,25.6,11.1,130,7,0,NA,1009.6,METAR KRDD 092353Z 13007KT 10SM CLR 26/11 A2981 RMK AO2 SLP089 T02560111 10278 20222 56018,2025-09-10T00:12:47Z,2025-09-09T20:12:47Z
KRDD,"Redding Muni, CA, US",2025-09-10T00:53:00Z,2025-09-09T20:53:00Z,VFR,26.1,10.6,190,7,0,NA,1008.9,METAR KRDD 100053Z 19007KT 10SM CLR 26/11 A2979 RMK AO2 LTG DSNT SW SLP083 T02610106,2025-09-10T01:11:39Z,2025-09-09T21:11:39Z
KRDG,"Reading/Spaatz Fld, PA, US",2025-09-09T23:54:00Z,2025-09-09T19:54:00Z,VFR,20,10,90,4,0,NA,1024.1,METAR KRDG 092354Z 09004KT 10SM FEW050 20/10 A3024 RMK AO2 SLP243 T02000100 10239 20200 55000 $,2025-09-10T00:12:47Z,2025-09-09T20:12:47Z
KRDG,"Reading/Spaatz Fld, PA, US",2025-09-10T00:54:00Z,2025-09-09T20:54:00Z,VFR,19.4,10,100,3,0,NA,1024.5,METAR KRDG 100054Z 10003KT 10SM SCT050 19/10 A3025 RMK AO2 SLP247 T01940100 $,2025-09-10T01:11:39Z,2025-09-09T21:11:39Z
KRDM,"Redmond Muni, OR, US",2025-09-09T23:56:00Z,2025-09-09T19:56:00Z,VFR,18.3,9.4,250,10,0,NA,1013.3,METAR KRDM 092356Z 25010KT 10SM FEW050 BKN090 BKN110 18/09 A2992 RMK AO2 RAE42 SLP120 P0000 60000 T01830094 10222 20172 55002,2025-09-10T00:12:46Z,2025-09-09T20:12:46Z
KRDM,"Redmond Muni, OR, US",2025-09-10T00:56:00Z,2025-09-09T20:56:00Z,VFR,17.2,10.6,260,5,0,NA,1013,METAR KRDM 100056Z 26005KT 10SM FEW075 FEW095 OVC110 17/11 A2991 RMK AO2 RAB05E45 SLP119 P0000 T01720106,2025-09-10T01:11:39Z,2025-09-09T21:11:39Z
KRDR,"Grand Forks AFB, ND, US",2025-09-09T23:55:00Z,2025-09-09T19:55:00Z,VFR,24,8.8,120,3,0,NA,1014.3,METAR KRDR 092355Z AUTO 12003KT 10SM CLR 24/09 A2995 RMK AO2 SLP146 T02400088 10274 20240 53003 $,2025-09-10T00:12:46Z,2025-09-09T20:12:46Z
KRDR,"Grand Forks AFB, ND, US",2025-09-10T00:55:00Z,2025-09-09T20:55:00Z,VFR,21.9,8.4,0,0,0,NA,1014.6,METAR KRDR 100055Z AUTO 00000KT 10SM CLR 22/08 A2996 RMK AO2 SLP150 T02190084 $,2025-09-10T01:11:39Z,2025-09-09T21:11:39Z
KRDU,"Raleigh-Durham Intl, NC, US",2025-09-09T14:51:00Z,2025-09-09T10:51:00Z,VFR,20,10.6,20,13,21,NA,1023.5,METAR KRDU 091451Z 02013G21KT 10SM FEW040 SCT250 20/11 A3022 RMK AO2 SLP231 T02000106 51001,2025-09-09T15:51:29Z,2025-09-09T11:51:29Z
KRDU,"Raleigh-Durham Intl, NC, US",2025-09-09T15:51:00Z,2025-09-09T11:51:00Z,VFR,21.7,12.2,20,8,16,NA,1023.5,METAR KRDU 091551Z 02008G16KT 10SM SCT030 SCT250 22/12 A3022 RMK AO2 SLP230 T02170122,2025-09-09T16:06:02Z,2025-09-09T12:06:02Z
KRDU,"Raleigh-Durham Intl, NC, US",2025-09-09T16:51:00Z,2025-09-09T12:51:00Z,VFR,22.2,12.8,50,10,20,NA,1022.8,METAR KRDU 091651Z 05010G20KT 10SM SCT035 SCT250 22/13 A3020 RMK AO2 SLP223 T02220128,2025-09-09T16:54:03Z,2025-09-09T12:54:03Z
KRDU,"Raleigh-Durham Intl, NC, US",2025-09-09T17:51:00Z,2025-09-09T13:51:00Z,VFR,23.3,13.3,40,8,17,NA,1022.1,METAR KRDU 091751Z 04008G17KT 10SM SCT036 SCT250 23/13 A3018 RMK AO2 SLP218 T02330133 10233 20133 58013,2025-09-09T18:09:20Z,2025-09-09T14:09:20Z
KRDU,"Raleigh-Durham Intl, NC, US",2025-09-09T18:51:00Z,2025-09-09T14:51:00Z,VFR,23.9,14.4,30,9,15,NA,1021.4,METAR KRDU 091851Z 03009G15KT 10SM BKN037 BKN250 24/14 A3016 RMK AO2 SLP211 T02390144,2025-09-09T19:00:56Z,2025-09-09T15:00:56Z
KRDU,"Raleigh-Durham Intl, NC, US",2025-09-09T19:51:00Z,2025-09-09T15:51:00Z,VFR,23.9,14.4,20,7,15,NA,1020.7,METAR KRDU 091951Z 02007G15KT 330V070 10SM BKN035 BKN250 24/14 A3014 RMK AO2 SLP205 T02390144,2025-09-09T20:10:15Z,2025-09-09T16:10:15Z
KRDU,"Raleigh-Durham Intl, NC, US",2025-09-09T20:51:00Z,2025-09-09T16:51:00Z,VFR,23.3,14.4,50,11,17,NA,1020.7,METAR KRDU 092051Z 05011G17KT 10SM BKN035 BKN055 OVC250 23/14 A3014 RMK AO2 SLP203 T02330144 56014,2025-09-09T20:54:00Z,2025-09-09T16:54:00Z
KRDU,"Raleigh-Durham Intl, NC, US",2025-09-09T21:51:00Z,2025-09-09T17:51:00Z,VFR,22.8,15,20,9,18,NA,1020.4,METAR KRDU 092151Z 02009G18KT 10SM BKN035 BKN055 OVC250 23/15 A3013 RMK AO2 SLP200 T02280150,2025-09-09T22:00:08Z,2025-09-09T18:00:08Z
KRDU,"Raleigh-Durham Intl, NC, US",2025-09-09T22:51:00Z,2025-09-09T18:51:00Z,MVFR,21.7,15,40,9,0,NA,1020.4,METAR KRDU 092251Z 04009KT 10SM BKN030 BKN055 OVC250 22/15 A3013 RMK AO2 SLP201 T02170150,2025-09-09T22:58:31Z,2025-09-09T18:58:31Z
KRDU,"Raleigh-Durham Intl, NC, US",2025-09-09T23:51:00Z,2025-09-09T19:51:00Z,MVFR,21.1,15,30,7,0,NA,1020.4,METAR KRDU 092351Z 03007KT 10SM BKN030 OVC250 21/15 A3013 RMK AO2 SLP199 T02110150 10244 20211 56004,2025-09-10T00:12:47Z,2025-09-09T20:12:47Z
KRDU,"Raleigh-Durham Intl, NC, US",2025-09-10T00:51:00Z,2025-09-09T20:51:00Z,MVFR,20.6,15,30,6,0,NA,1020.7,METAR KRDU 100051Z 03006KT 10SM BKN028 OVC250 21/15 A3014 RMK AO2 SLP205 T02060150,2025-09-10T01:11:39Z,2025-09-09T21:11:39Z
KRFD,"Rockford Intl, IL, US",2025-09-09T23:54:00Z,2025-09-09T19:54:00Z,VFR,18.3,11.7,0,0,0,NA,1019,METAR KRFD 092354Z 00000KT 10SM BKN210 OVC250 18/12 A3009 RMK AO2 SLP191 T01830117 10244 20183 55003,2025-09-10T00:12:47Z,2025-09-09T20:12:47Z
KRFD,"Rockford Intl, IL, US",2025-09-10T00:54:00Z,2025-09-09T20:54:00Z,VFR,18.9,10,110,4,0,NA,1019,METAR KRFD 100054Z 11004KT 10SM OVC190 19/10 A3009 RMK AO2 SLP190 T01890100,2025-09-10T01:11:39Z,2025-09-09T21:11:39Z
KRHI,"Rhinelander/Oneida Cnty, WI, US",2025-09-09T23:53:00Z,2025-09-09T19:53:00Z,VFR,14.4,13.9,350,3,0,NA,1018.7,METAR KRHI 092353Z AUTO 35003KT 10SM -RA OVC042 14/14 A3008 RMK AO2 LTG DSNT NE AND W SLP187 P0010 60017 T01440139 10183 20144 53019,2025-09-10T00:12:47Z,2025-09-09T20:12:47Z
KRHI,"Rhinelander/Oneida Cnty, WI, US",2025-09-10T00:29:00Z,2025-09-09T20:29:00Z,IFR,14.4,13.9,0,0,0,2,1018.7,SPECI KRHI 100029Z AUTO 00000KT 2SM +RA BR BKN043 OVC060 14/14 A3008 RMK AO2 VIS 1V4 P0016 T01440139,2025-09-10T00:33:31Z,2025-09-09T20:33:31Z
KRHI,"Rhinelander/Oneida Cnty, WI, US",2025-09-10T00:53:00Z,2025-09-09T20:53:00Z,VFR,14.4,13.9,120,5,0,8,1018.4,METAR KRHI 100053Z AUTO 12005KT 8SM -RA BKN048 OVC095 14/14 A3007 RMK AO2 SLP185 P0020 T01440139,2025-09-10T01:11:39Z,2025-09-09T21:11:39Z
KRHP,"Andrews/W Carolina Rgnl, NC, US",2025-09-10T00:01:00Z,2025-09-09T20:01:00Z,VFR,15.7,13.1,0,0,0,NA,1021.4,METAR KRHP 100001Z AUTO 00000KT 10SM CLR 16/13 A3016 RMK AO2 T01570131,2025-09-10T00:12:46Z,2025-09-09T20:12:46Z
KRHP,"Andrews/W Carolina Rgnl, NC, US",2025-09-10T00:21:00Z,2025-09-09T20:21:00Z,VFR,15.3,13,0,0,0,NA,1021.8,METAR KRHP 100021Z AUTO 00000KT 10SM CLR 15/13 A3017 RMK AO2 T01530130,2025-09-10T00:33:31Z,2025-09-09T20:33:31Z
KRHP,"Andrews/W Carolina Rgnl, NC, US",2025-09-10T01:01:00Z,2025-09-09T21:01:00Z,VFR,14,12.5,0,0,0,NA,1021.8,METAR KRHP 100101Z AUTO 00000KT 10SM CLR 14/13 A3017 RMK AO2 T01400125,2025-09-10T01:11:39Z,2025-09-09T21:11:39Z
KRIC,"Richmond Intl, VA, US",2025-09-09T15:44:00Z,2025-09-09T11:44:00Z,VFR,21.7,13.9,30,11,20,NA,1024.1,SPECI KRIC 091544Z 03011G20KT 10SM BKN031 BKN250 22/14 A3024 RMK AO2 T02170139,2025-09-09T15:51:27Z,2025-09-09T11:51:27Z
KRIC,"Richmond Intl, VA, US",2025-09-09T15:54:00Z,2025-09-09T11:54:00Z,VFR,21.7,13.9,50,11,19,NA,1024.1,METAR KRIC 091554Z 05011G19KT 10SM OVC033 22/14 A3024 RMK AO2 SLP242 T02170139,2025-09-09T16:06:00Z,2025-09-09T12:06:00Z
KRIC,"Richmond Intl, VA, US",2025-09-09T16:54:00Z,2025-09-09T12:54:00Z,VFR,23.3,14.4,40,8,18,NA,1023.5,METAR KRIC 091654Z 04008G18KT 360V060 10SM BKN033 BKN044 23/14 A3022 RMK AO2 SLP238 T02330144,2025-09-09T17:12:49Z,2025-09-09T13:12:49Z
KRIC,"Richmond Intl, VA, US",2025-09-09T17:54:00Z,2025-09-09T13:54:00Z,VFR,22.8,14.4,40,11,18,NA,1023.1,METAR KRIC 091754Z 04011G18KT 10SM SCT032 BKN044 23/14 A3021 RMK AO2 SLP236 T02280144 10233 20128 58008,2025-09-09T18:09:19Z,2025-09-09T14:09:19Z
KRIC,"Richmond Intl, VA, US",2025-09-09T18:54:00Z,2025-09-09T14:54:00Z,VFR,23.9,15,10,11,17,NA,1022.4,METAR KRIC 091854Z 01011G17KT 10SM SCT033 OVC045 24/15 A3019 RMK AO2 SLP228 T02390150,2025-09-09T19:00:54Z,2025-09-09T15:00:54Z
KRIC,"Richmond Intl, VA, US",2025-09-09T19:54:00Z,2025-09-09T15:54:00Z,VFR,23.9,14.4,50,10,0,NA,1021.8,METAR KRIC 091954Z 05010KT 10SM BKN040 24/14 A3017 RMK AO2 SLP220 T02390144,2025-09-09T20:10:13Z,2025-09-09T16:10:13Z
KRIC,"Richmond Intl, VA, US",2025-09-09T20:54:00Z,2025-09-09T16:54:00Z,VFR,22.2,14.4,50,10,0,NA,1021.4,METAR KRIC 092054Z 05010KT 10SM BKN040 BKN055 22/14 A3016 RMK AO2 SLP219 T02220144 56017,2025-09-09T21:12:40Z,2025-09-09T17:12:40Z
KRIC,"Richmond Intl, VA, US",2025-09-09T21:54:00Z,2025-09-09T17:54:00Z,VFR,22.2,15,30,9,0,NA,1021.8,METAR KRIC 092154Z 03009KT 10SM BKN042 BKN050 22/15 A3017 RMK AO2 SLP220 T02220150,2025-09-09T22:00:06Z,2025-09-09T18:00:06Z
KRIC,"Richmond Intl, VA, US",2025-09-09T22:54:00Z,2025-09-09T18:54:00Z,VFR,21.7,15.6,40,10,0,NA,1021.1,METAR KRIC 092254Z 04010KT 10SM FEW034 OVC040 22/16 A3015 RMK AO2 SLP215 T02170156,2025-09-09T22:58:29Z,2025-09-09T18:58:29Z
KRIC,"Richmond Intl, VA, US",2025-09-09T23:54:00Z,2025-09-09T19:54:00Z,MVFR,20.6,15.6,30,9,0,NA,1021.4,METAR KRIC 092354Z 03009KT 10SM FEW027 OVC030 21/16 A3016 RMK AO2 SLP216 T02060156 10244 20206 58003 $,2025-09-10T00:12:47Z,2025-09-09T20:12:47Z
KRIC,"Richmond Intl, VA, US",2025-09-10T00:54:00Z,2025-09-09T20:54:00Z,VFR,20,15.6,50,10,0,NA,1021.8,METAR KRIC 100054Z 05010KT 10SM OVC039 20/16 A3017 RMK AO2 SLP220 T02000156 $,2025-09-10T01:11:39Z,2025-09-09T21:11:39Z
KRIL,"Rifle/Garfield Cnty, CO, US",2025-09-09T23:53:00Z,2025-09-09T19:53:00Z,VFR,27.8,1.1,270,13,0,NA,1016,METAR KRIL 092353Z AUTO 27013KT 10SM CLR 28/01 A3000 RMK AO2 SLP090 60001 T02780011 10300 20250 55008,2025-09-10T00:12:47Z,2025-09-09T20:12:47Z
KRIL,"Rifle/Garfield Cnty, CO, US",2025-09-10T00:53:00Z,2025-09-09T20:53:00Z,VFR,27.8,-2.8,220,16,35,NA,1016.3,METAR KRIL 100053Z AUTO 22016G35KT 10SM FEW110 28/M03 A3001 RMK AO2 PK WND 23035/0051 LTG DSNT W SLP094 T02781028,2025-09-10T01:11:39Z,2025-09-09T21:11:39Z
KRIV,"Riverside/March ARB, CA, US",2025-09-09T23:55:00Z,2025-09-09T19:55:00Z,VFR,28.9,9.1,320,13,0,NA,1009.9,METAR KRIV 092355Z AUTO 32013KT 10SM CLR 29/09 A2982 RMK AO2 SLP086 T02890091 10307 20250 57016,2025-09-10T00:12:47Z,2025-09-09T20:12:47Z
KRIV,"Riverside/March ARB, CA, US",2025-09-10T00:55:00Z,2025-09-09T20:55:00Z,VFR,27.1,9.4,310,11,0,NA,1009.9,METAR KRIV 100055Z AUTO 31011KT 10SM CLR 27/09 A2982 RMK AO2 SLP086 T02710094,2025-09-10T01:11:41Z,2025-09-09T21:11:41Z
KRIW,"Riverton Rgnl, WY, US",2025-09-09T23:53:00Z,2025-09-09T19:53:00Z,VFR,26.1,1.7,50,6,0,NA,1015,METAR KRIW 092353Z AUTO 05006KT 10SM CLR 26/02 A2997 RMK AO2 SLP091 T02610017 10267 20172 56014,2025-09-10T00:12:47Z,2025-09-09T20:12:47Z
KRIW,"Riverton Rgnl, WY, US",2025-09-10T00:53:00Z,2025-09-09T20:53:00Z,VFR,22.2,6.1,30,4,0,NA,1015,METAR KRIW 100053Z AUTO 03004KT 10SM VCTS FEW029 BKN110 22/06 A2997 RMK AO2 LTG DSNT NE RAB26E48 SLP095 P0000 T02220061,2025-09-10T01:11:41Z,2025-09-09T21:11:41Z
KRKD,"Rockland/Knox Cnty, ME, US",2025-09-09T23:56:00Z,2025-09-09T19:56:00Z,VFR,11.7,11.7,0,0,0,NA,1028.9,METAR KRKD 092356Z AUTO 00000KT 10SM CLR 12/12 A3038 RMK AO2 SLP288 6//// T01170117 10183 20117 53002 PNO $,2025-09-10T00:12:46Z,2025-09-09T20:12:46Z
KRKD,"Rockland/Knox Cnty, ME, US",2025-09-10T00:20:00Z,2025-09-09T20:20:00Z,IFR,12,12,0,0,0,1.5,1028.9,SPECI KRKD 100020Z AUTO 00000KT 1 1/2SM BR CLR 12/12 A3038 RMK AO2 VIS 1/4V5 PNO $,2025-09-10T00:33:31Z,2025-09-09T20:33:31Z
KRKD,"Rockland/Knox Cnty, ME, US",2025-09-10T00:56:00Z,2025-09-09T20:56:00Z,VFR,10,10,0,0,0,NA,1028.9,METAR KRKD 100056Z AUTO 00000KT 10SM CLR 10/10 A3038 RMK AO2 SLP286 T01000100 PNO $,2025-09-10T01:11:41Z,2025-09-09T21:11:41Z
KRKS,"Rock Springs/SW Wyoming Rgnl, WY, US",2025-09-09T23:54:00Z,2025-09-09T19:54:00Z,VFR,20.6,2.8,30,10,0,NA,1018.4,METAR KRKS 092354Z AUTO 03010KT 10SM BKN100 21/03 A3007 RMK AO2 PK WND 31026/2255 WSHFT 2243 SLP105 T02060028 10256 20200 55001,2025-09-10T00:12:47Z,2025-09-09T20:12:47Z
KRKS,"Rock Springs/SW Wyoming Rgnl, WY, US",2025-09-10T00:54:00Z,2025-09-09T20:54:00Z,VFR,19.4,3.9,250,7,0,NA,1018.7,METAR KRKS 100054Z AUTO 25007KT 10SM FEW060 SCT085 BKN110 19/04 A3008 RMK AO2 SLP114 T01940039,2025-09-10T01:11:41Z,2025-09-09T21:11:41Z
KRME,"Rome/Griffiss Intl, NY, US",2025-09-09T23:53:00Z,2025-09-09T19:53:00Z,VFR,17.2,10.6,70,6,0,NA,1025.1,METAR KRME 092353Z 07006KT 10SM CLR 17/11 A3027 RMK AO2 SLP250 T01720106 10228 20172 55001,2025-09-10T00:12:47Z,2025-09-09T20:12:47Z
KRME,"Rome/Griffiss Intl, NY, US",2025-09-10T00:53:00Z,2025-09-09T20:53:00Z,VFR,15,10,90,4,0,NA,1025.5,METAR KRME 100053Z AUTO 09004KT 10SM CLR 15/10 A3028 RMK AO2 SLP252 T01500100,2025-09-10T01:11:41Z,2025-09-09T21:11:41Z
KRMG,"Rome/Russell Arpt, GA, US",2025-09-09T23:53:00Z,2025-09-09T19:53:00Z,VFR,24.4,15,290,3,0,NA,1018.7,METAR KRMG 092353Z AUTO 29003KT 10SM CLR 24/15 A3008 RMK AO2 SLP178 T02440150 10300 20244 55002,2025-09-10T00:12:47Z,2025-09-09T20:12:47Z
KRMG,"Rome/Russell Arpt, GA, US",2025-09-10T00:53:00Z,2025-09-09T20:53:00Z,VFR,22.2,16.1,0,0,0,NA,1019,METAR KRMG 100053Z AUTO 00000KT 10SM CLR 22/16 A3009 RMK AO2 SLP180 T02220161,2025-09-10T01:11:41Z,2025-09-09T21:11:41Z
KRND,"Randolph AFB, TX, US",2025-09-09T23:55:00Z,2025-09-09T19:55:00Z,VFR,31.7,12.5,60,5,0,NA,1014.3,METAR KRND 092355Z AUTO 06005KT 10SM CLR 32/13 A2995 RMK AO2 SLP134 T03170125 10333 20302 57007 $,2025-09-10T00:12:46Z,2025-09-09T20:12:46Z
KRND,"Randolph AFB, TX, US",2025-09-10T00:55:00Z,2025-09-09T20:55:00Z,VFR,29.5,12.8,50,4,0,NA,1014.6,METAR KRND 100055Z AUTO 05004KT 10SM CLR 30/13 A2996 RMK AO2 VIS 2 RWY33L SLP138 T02950128 $,2025-09-10T01:11:41Z,2025-09-09T21:11:41Z
KRNH,"New Richmond Muni, WI, US",2025-09-09T23:50:00Z,2025-09-09T19:50:00Z,MVFR,16.3,16.3,200,4,0,7,1016.7,METAR KRNH 092350Z AUTO 20004KT 7SM OVC012 16/16 A3002 RMK AO2 60031 T01630163 10197 20162,2025-09-10T00:12:48Z,2025-09-09T20:12:48Z
KRNH,"New Richmond Muni, WI, US",2025-09-10T00:10:00Z,2025-09-09T20:10:00Z,MVFR,16.3,16.3,200,3,0,7,1016.7,METAR KRNH 100010Z AUTO 20003KT 7SM -DZ BKN014 OVC024 16/16 A3002 RMK AO2 T01630163,2025-09-10T00:33:31Z,2025-09-09T20:33:31Z
KRNH,"New Richmond Muni, WI, US",2025-09-10T00:50:00Z,2025-09-09T20:50:00Z,MVFR,16.2,16.2,210,3,0,7,1016.7,METAR KRNH 100050Z AUTO 21003KT 7SM OVC028 16/16 A3002 RMK AO2 T01620162,2025-09-10T01:11:41Z,2025-09-09T21:11:41Z
KRNO,"Reno/Tahoe Intl, NV, US",2025-09-09T14:55:00Z,2025-09-09T10:55:00Z,VFR,14.4,4.4,170,3,0,NA,1017,METAR KRNO 091455Z 17003KT 10SM FEW075 BKN130 BKN200 14/04 A3003 RMK AO2 SLP126 T01440044 58003,2025-09-09T15:51:32Z,2025-09-09T11:51:32Z
KRNO,"Reno/Tahoe Intl, NV, US",2025-09-09T15:55:00Z,2025-09-09T11:55:00Z,VFR,15.6,4.4,0,0,0,NA,1017.4,METAR KRNO 091555Z 00000KT 10SM FEW070 SCT130 BKN200 16/04 A3004 RMK AO2 SLP129 T01560044,2025-09-09T16:06:05Z,2025-09-09T12:06:05Z
KRNO,"Reno/Tahoe Intl, NV, US",2025-09-09T16:55:00Z,2025-09-09T12:55:00Z,VFR,16.1,4.4,0,0,0,NA,1017,METAR KRNO 091655Z 00000KT 10SM FEW070 BKN200 16/04 A3003 RMK AO2 SLP127 T01610044,2025-09-09T17:12:57Z,2025-09-09T13:12:57Z
KRNO,"Reno/Tahoe Intl, NV, US",2025-09-09T17:55:00Z,2025-09-09T13:55:00Z,VFR,17.8,4.4,VAR,3,0,NA,1016.3,METAR KRNO 091755Z VRB03KT 10SM FEW070 BKN200 18/04 A3001 RMK AO2 SLP119 T01780044 10178 20144 58006,2025-09-09T18:09:23Z,2025-09-09T14:09:23Z
KRNO,"Reno/Tahoe Intl, NV, US",2025-09-09T18:55:00Z,2025-09-09T14:55:00Z,VFR,19.4,4.4,20,3,0,NA,1015.7,METAR KRNO 091855Z 02003KT 10SM SCT080 BKN200 19/04 A2999 RMK AO2 SLP109 T01940044,2025-09-09T19:00:59Z,2025-09-09T15:00:59Z
KRNO,"Reno/Tahoe Intl, NV, US",2025-09-09T19:55:00Z,2025-09-09T15:55:00Z,VFR,21.1,3.9,360,3,0,NA,1014.6,METAR KRNO 091955Z 36003KT 10SM SCT080 BKN200 21/04 A2996 RMK AO2 SLP099 T02110039,2025-09-09T20:10:19Z,2025-09-09T16:10:19Z
KRNO,"Reno/Tahoe Intl, NV, US",2025-09-09T20:55:00Z,2025-09-09T16:55:00Z,VFR,23.3,3.3,30,7,0,NA,1013.6,METAR KRNO 092055Z 03007KT 10SM SCT090 BKN200 23/03 A2993 RMK AO2 SLP087 T02330033 58024,2025-09-09T21:12:46Z,2025-09-09T17:12:46Z
KRNO,"Reno/Tahoe Intl, NV, US",2025-09-09T21:55:00Z,2025-09-09T17:55:00Z,VFR,25,2.8,310,11,0,NA,1012.6,METAR KRNO 092155Z 31011KT 10SM SCT100 BKN200 25/03 A2990 RMK AO2 SLP076 T02500028,2025-09-09T22:00:15Z,2025-09-09T18:00:15Z
KRNO,"Reno/Tahoe Intl, NV, US",2025-09-09T22:55:00Z,2025-09-09T18:55:00Z,VFR,23.9,4.4,290,18,23,NA,1012.3,METAR KRNO 092255Z 29018G23KT 10SM SCT100 BKN180 24/04 A2989 RMK AO2 SLP072 T02390044,2025-09-09T22:58:34Z,2025-09-09T18:58:34Z
KRNO,"Reno/Tahoe Intl, NV, US",2025-09-09T23:55:00Z,2025-09-09T19:55:00Z,VFR,21.7,5.6,290,19,26,NA,1011.9,METAR KRNO 092355Z 29019G26KT 10SM BKN100 BKN180 22/06 A2988 RMK AO2 PK WND 28027/2304 SLP074 CB DSNT E T02170056 10250 20178 56014,2025-09-10T00:12:47Z,2025-09-09T20:12:47Z
KRNO,"Reno/Tahoe Intl, NV, US",2025-09-10T00:55:00Z,2025-09-09T20:55:00Z,VFR,21.1,5.6,280,15,23,NA,1011.9,METAR KRNO 100055Z 28015G23KT 10SM SCT095 SCT150 BKN200 21/06 A2988 RMK AO2 PK WND 29027/0025 SLP075 CB DSNT NE T02110056,2025-09-10T01:11:41Z,2025-09-09T21:11:41Z
KROA,"Roanoke Rgnl, VA, US",2025-09-09T23:54:00Z,2025-09-09T19:54:00Z,VFR,20,7.8,60,3,0,NA,1023.1,METAR KROA 092354Z 06003KT 10SM CLR 20/08 A3021 RMK AO2 SLP225 T02000078 10233 20200 53000,2025-09-10T00:12:47Z,2025-09-09T20:12:47Z
KROA,"Roanoke Rgnl, VA, US",2025-09-10T00:54:00Z,2025-09-09T20:54:00Z,VFR,17.8,8.9,20,5,0,NA,1023.1,METAR KROA 100054Z 02005KT 10SM CLR 18/09 A3021 RMK AO2 SLP226 T01780089,2025-09-10T01:11:41Z,2025-09-09T21:11:41Z
KROC,"Rochester Intl Arpt, NY, US",2025-09-09T14:54:00Z,2025-09-09T10:54:00Z,VFR,17.8,10,190,4,0,NA,1027.5,METAR KROC 091454Z 19004KT 10SM FEW220 18/10 A3034 RMK AO2 SLP278 T01780100 50002 $,2025-09-09T15:51:27Z,2025-09-09T11:51:27Z
KROC,"Rochester Intl Arpt, NY, US",2025-09-09T15:54:00Z,2025-09-09T11:54:00Z,VFR,20.6,8.9,240,5,0,NA,1026.8,METAR KROC 091554Z 24005KT 10SM FEW028 FEW240 21/09 A3032 RMK AO2 SLP271 T02060089 $,2025-09-09T16:06:00Z,2025-09-09T12:06:00Z
KROC,"Rochester Intl Arpt, NY, US",2025-09-09T16:54:00Z,2025-09-09T12:54:00Z,VFR,21.7,8.3,170,7,0,NA,1026.2,METAR KROC 091654Z 17007KT 10SM FEW029 22/08 A3030 RMK AO2 SLP264 T02170083 $,2025-09-09T17:12:49Z,2025-09-09T13:12:49Z
KROC,"Rochester Intl Arpt, NY, US",2025-09-09T17:54:00Z,2025-09-09T13:54:00Z,VFR,22.8,6.7,0,0,0,NA,1025.5,METAR KROC 091754Z 00000KT 10SM FEW036 23/07 A3028 RMK AO2 SLP258 T02280067 10233 20083 56019 $,2025-09-09T18:09:19Z,2025-09-09T14:09:19Z
KROC,"Rochester Intl Arpt, NY, US",2025-09-09T18:54:00Z,2025-09-09T14:54:00Z,VFR,23.3,7.2,200,4,0,NA,1024.8,METAR KROC 091854Z 20004KT 10SM FEW046 23/07 A3026 RMK AO2 SLP251 T02330072 $,2025-09-09T19:00:54Z,2025-09-09T15:00:54Z
KROC,"Rochester Intl Arpt, NY, US",2025-09-09T19:54:00Z,2025-09-09T15:54:00Z,VFR,23.3,7.2,30,3,0,NA,1024.1,METAR KROC 091954Z 03003KT 10SM FEW055 23/07 A3024 RMK AO2 SLP244 T02330072 $,2025-09-09T20:10:13Z,2025-09-09T16:10:13Z
KROC,"Rochester Intl Arpt, NY, US",2025-09-09T20:54:00Z,2025-09-09T16:54:00Z,VFR,23.3,7.2,150,6,0,NA,1023.8,METAR KROC 092054Z 15006KT 10SM SCT050 SCT300 23/07 A3023 RMK AO2 SLP241 T02330072 56016 $,2025-09-09T21:12:40Z,2025-09-09T17:12:40Z
KROC,"Rochester Intl Arpt, NY, US",2025-09-09T21:54:00Z,2025-09-09T17:54:00Z,VFR,22.2,7.8,140,8,0,NA,1023.8,METAR KROC 092154Z 14008KT 10SM FEW050 FEW300 22/08 A3023 RMK AO2 SLP240 T02220078 $,2025-09-09T22:00:06Z,2025-09-09T18:00:06Z
KROC,"Rochester Intl Arpt, NY, US",2025-09-09T22:54:00Z,2025-09-09T18:54:00Z,VFR,20.6,6.7,110,9,0,NA,1023.5,METAR KROC 092254Z 11009KT 10SM FEW300 21/07 A3022 RMK AO2 SLP238 T02060067 $,2025-09-09T22:58:29Z,2025-09-09T18:58:29Z
KROC,"Rochester Intl Arpt, NY, US",2025-09-09T23:54:00Z,2025-09-09T19:54:00Z,VFR,18.3,7.2,120,6,0,NA,1023.5,METAR KROC 092354Z 12006KT 10SM FEW150 18/07 A3022 RMK AO2 SLP238 T01830072 10239 20183 56004 $,2025-09-10T00:12:47Z,2025-09-09T20:12:47Z
KROC,"Rochester Intl Arpt, NY, US",2025-09-10T00:54:00Z,2025-09-09T20:54:00Z,VFR,17.2,7.2,80,6,0,NA,1023.8,METAR KROC 100054Z 08006KT 10SM CLR 17/07 A3023 RMK AO2 SLP242 T01720072 $,2025-09-10T01:11:41Z,2025-09-09T21:11:41Z
KROW,"Roswell/Ind Arpt, NM, US",2025-09-09T23:51:00Z,2025-09-09T19:51:00Z,VFR,33.3,11.1,210,7,0,NA,1014.3,METAR KROW 092351Z 21007KT 10SM CLR 33/11 A2995 RMK AO2 SLP072 T03330111 10350 20294 58008,2025-09-10T00:12:48Z,2025-09-09T20:12:48Z
KROW,"Roswell/Ind Arpt, NM, US",2025-09-10T00:51:00Z,2025-09-09T20:51:00Z,VFR,31.7,7.8,200,12,0,NA,1014.3,METAR KROW 100051Z 20012KT 10SM CLR 32/08 A2995 RMK AO2 SLP074 T03170078,2025-09-10T01:11:41Z,2025-09-09T21:11:41Z
KRSL,"Russell Muni, KS, US",2025-09-09T23:53:00Z,2025-09-09T19:53:00Z,VFR,26.1,18.3,150,8,0,NA,1013.3,METAR KRSL 092353Z AUTO 15008KT 10SM CLR 26/18 A2992 RMK AO2 SLP118 T02610183 10283 20250 58005,2025-09-10T00:12:47Z,2025-09-09T20:12:47Z
KRSL,"Russell Muni, KS, US",2025-09-10T00:53:00Z,2025-09-09T20:53:00Z,VFR,22.8,18.3,120,7,0,NA,1013.3,METAR KRSL 100053Z AUTO 12007KT 10SM CLR 23/18 A2992 RMK AO2 SLP123 T02280183,2025-09-10T01:11:41Z,2025-09-09T21:11:41Z
KRST,"Rochester Intl, MN, US",2025-09-09T23:54:00Z,2025-09-09T19:54:00Z,VFR,18.3,15,260,4,0,NA,1016.7,METAR KRST 092354Z 26004KT 10SM BKN047 OVC060 18/15 A3002 RMK AO2 SLP164 T01830150 10217 20178 53008,2025-09-10T00:12:47Z,2025-09-09T20:12:47Z
KRST,"Rochester Intl, MN, US",2025-09-10T00:54:00Z,2025-09-09T20:54:00Z,VFR,17.2,15.6,100,3,0,NA,1016.7,METAR KRST 100054Z 10003KT 10SM FEW033 BKN050 OVC065 17/16 A3002 RMK AO2 SLP165 T01720156,2025-09-10T01:11:41Z,2025-09-09T21:11:41Z
KRSW,"Ft Myers/SW Florida Intl, FL, US",2025-09-09T14:53:00Z,2025-09-09T10:53:00Z,VFR,27.8,25.6,100,6,0,NA,1014.6,METAR KRSW 091453Z 10006KT 10SM BKN047 BKN065 OVC075 28/26 A2996 RMK AO1 SLP143 T02780256 51014,2025-09-09T15:51:29Z,2025-09-09T11:51:29Z
KRSW,"Ft Myers/SW Florida Intl, FL, US",2025-09-09T15:53:00Z,2025-09-09T11:53:00Z,VFR,29.4,25.6,100,6,0,NA,1014.6,METAR KRSW 091553Z 10006KT 10SM FEW012 29/26 A2996 RMK AO1 SLP142 T02940256,2025-09-09T16:06:01Z,2025-09-09T12:06:01Z
KRSW,"Ft Myers/SW Florida Intl, FL, US",2025-09-09T16:34:00Z,2025-09-09T12:34:00Z,MVFR,29.4,25.6,100,5,0,NA,1014,SPECI KRSW 091634Z 10005KT 10SM SCT020 BKN025 29/26 A2994 RMK AO1 T02940256,2025-09-09T16:38:37Z,2025-09-09T12:38:37Z
KRSW,"Ft Myers/SW Florida Intl, FL, US",2025-09-09T16:53:00Z,2025-09-09T12:53:00Z,VFR,30.6,25.6,160,6,0,NA,1013.6,METAR KRSW 091653Z 16006KT 10SM SCT021 31/26 A2993 RMK AO1 LTG DSNT S SLP133 T03060256,2025-09-09T17:12:51Z,2025-09-09T13:12:51Z
KRSW,"Ft Myers/SW Florida Intl, FL, US",2025-09-09T17:53:00Z,2025-09-09T13:53:00Z,VFR,30,25,140,8,0,NA,1013.6,METAR KRSW 091753Z 14008KT 10SM SCT021 30/25 A2993 RMK AO1 SLP131 T03000250 10306 20244 56011,2025-09-09T18:09:20Z,2025-09-09T14:09:20Z
KRSW,"Ft Myers/SW Florida Intl, FL, US",2025-09-09T18:53:00Z,2025-09-09T14:53:00Z,MVFR,31.1,25,180,9,0,NA,1012.6,METAR KRSW 091853Z 18009KT 10SM BKN024 31/25 A2990 RMK AO1 LTG DSNT N AND NW SLP121 T03110250,2025-09-09T19:00:56Z,2025-09-09T15:00:56Z
KRSW,"Ft Myers/SW Florida Intl, FL, US",2025-09-09T19:06:00Z,2025-09-09T15:06:00Z,MVFR,30.6,25,140,6,0,NA,1012.6,SPECI KRSW 091906Z 14006KT 10SM BKN024 31/25 A2990 RMK AO1 LTG DSNT N AND NW T03060250,2025-09-09T19:20:54Z,2025-09-09T15:20:54Z
KRSW,"Ft Myers/SW Florida Intl, FL, US",2025-09-09T20:00:00Z,2025-09-09T16:00:00Z,MVFR,27.8,25.6,150,8,0,5,1012.6,SPECI KRSW 092000Z 15008KT 5SM +RA BR SCT024 BKN034 OVC070 28/26 A2990 RMK AO1 LTG DSNT SW-N P0003 T02780256,2025-09-09T20:10:15Z,2025-09-09T16:10:15Z
KRSW,"Ft Myers/SW Florida Intl, FL, US",2025-09-09T20:22:00Z,2025-09-09T16:22:00Z,IFR,27.2,24.4,150,8,0,2,1013,SPECI KRSW 092022Z 15008KT 2SM VCTS -RA FEW018 BKN032 OVC070 27/24 A2991 RMK AO1 LTG DSNT ALQDS P0005 T02720244,2025-09-09T20:31:18Z,2025-09-09T16:31:18Z
KRSW,"Ft Myers/SW Florida Intl, FL, US",2025-09-09T20:34:00Z,2025-09-09T16:34:00Z,MVFR,25,23.9,310,11,22,3,1013,SPECI KRSW 092034Z 31011G22KT 3SM -TSRA BR FEW006 BKN018 OVC050 25/24 A2991 RMK AO1 LTG DSNT ALQDS TSB33 P0009 T02500239,2025-09-09T20:43:24Z,2025-09-09T16:43:24Z
KRSW,"Ft Myers/SW Florida Intl, FL, US",2025-09-09T20:51:00Z,2025-09-09T16:51:00Z,MVFR,25,24,310,11,22,6,1012.6,SPECI KRSW 092051Z 31011G22KT 6SM VCTS RA BR FEW007 BKN021 OVC075 25/24 A2990 RMK AO1 WSHFT 2032 LTG DSNT ALQDS TSB33E51 P0014,2025-09-09T20:54:00Z,2025-09-09T16:54:00Z
KRSW,"Ft Myers/SW Florida Intl, FL, US",2025-09-09T21:03:00Z,2025-09-09T17:03:00Z,VFR,25,24.4,40,3,0,NA,1013.3,SPECI KRSW 092103Z 04003KT 10SM VCTS -RA FEW013 SCT035 BKN049 25/24 A2992 RMK AO1 LTG DSNT ALQDS P0000 T02500244,2025-09-09T21:12:42Z,2025-09-09T17:12:42Z
KRSW,"Ft Myers/SW Florida Intl, FL, US",2025-09-09T21:23:00Z,2025-09-09T17:23:00Z,VFR,25,24.4,0,0,0,NA,1013.3,SPECI KRSW 092123Z 00000KT 10SM VCTS -RA SCT007 BKN032 BKN080 25/24 A2992 RMK AO1 LTG DSNT ALQDS TSB04E05 P0000 T02500244,2025-09-09T21:28:21Z,2025-09-09T17:28:21Z
KRSW,"Ft Myers/SW Florida Intl, FL, US",2025-09-09T21:36:00Z,2025-09-09T17:36:00Z,IFR,25.6,24.4,0,0,0,NA,1013.6,SPECI KRSW 092136Z 00000KT 10SM VCTS BKN008 BKN032 OVC110 26/24 A2993 RMK AO1 LTG DSNT ALQDS RAE26 TSB04E05 P0000 T02560244,2025-09-09T21:39:38Z,2025-09-09T17:39:38Z
KRSW,"Ft Myers/SW Florida Intl, FL, US",2025-09-09T21:53:00Z,2025-09-09T17:53:00Z,IFR,25.6,24.4,220,4,0,NA,1014,METAR KRSW 092153Z 22004KT 10SM VCTS -RA BKN008 BKN055 26/24 A2994 RMK AO1 LTG DSNT NE-SE RAE26B49 TSB04E05 SLP134 P0000 T02560244,2025-09-09T22:00:08Z,2025-09-09T18:00:08Z
KRSW,"Ft Myers/SW Florida Intl, FL, US",2025-09-09T22:32:00Z,2025-09-09T18:32:00Z,VFR,25,25,140,7,0,6,1014,SPECI KRSW 092232Z 14007KT 6SM VCTS RA BR SCT007 SCT026 BKN110 25/25 A2994 RMK AO1 LTG DSNT NE-S P0008 T02500250,2025-09-09T22:37:47Z,2025-09-09T18:37:47Z
KRSW,"Ft Myers/SW Florida Intl, FL, US",2025-09-09T22:53:00Z,2025-09-09T18:53:00Z,VFR,25,24.4,160,6,0,NA,1013.6,METAR KRSW 092253Z 16006KT 10SM VCTS -RA BKN110 25/24 A2993 RMK AO1 SLP131 P0010 T02500244,2025-09-09T22:58:31Z,2025-09-09T18:58:31Z
KRSW,"Ft Myers/SW Florida Intl, FL, US",2025-09-09T23:48:00Z,2025-09-09T19:48:00Z,VFR,26,24,190,7,0,NA,1013.3,SPECI KRSW 092348Z 19007KT 10SM CLR 26/24 A2992 RMK AO1 RAE45 P0000,2025-09-09T23:52:53Z,2025-09-09T19:52:53Z
KRSW,"Ft Myers/SW Florida Intl, FL, US",2025-09-09T23:53:00Z,2025-09-09T19:53:00Z,VFR,25.6,24.4,190,7,0,NA,1013.3,METAR KRSW 092353Z 19007KT 10SM CLR 26/24 A2992 RMK AO1 RAE45 SLP128 P0000 60031 T02560244 10311 20250 55006,2025-09-10T00:12:47Z,2025-09-09T20:12:47Z
KRSW,"Ft Myers/SW Florida Intl, FL, US",2025-09-10T00:53:00Z,2025-09-09T20:53:00Z,VFR,25.6,25,180,5,0,NA,1014.3,METAR KRSW 100053Z 18005KT 10SM CLR 26/25 A2995 RMK AO1 RAB01E12 SLP137 P0001 T02560250,2025-09-10T01:11:41Z,2025-09-09T21:11:41Z
KRUT,"Rutland/S Vermont Rgnl, VT, US",2025-09-09T23:56:00Z,2025-09-09T19:56:00Z,VFR,16.7,8.9,140,5,0,NA,1026.5,METAR KRUT 092356Z AUTO 14005KT 10SM CLR 17/09 A3031 RMK AO2 SLP258 T01670089 10233 20167 53003 $,2025-09-10T00:12:46Z,2025-09-09T20:12:46Z
KRUT,"Rutland/S Vermont Rgnl, VT, US",2025-09-10T00:56:00Z,2025-09-09T20:56:00Z,VFR,16.1,8.3,140,5,0,NA,1026.8,METAR KRUT 100056Z AUTO 14005KT 10SM CLR 16/08 A3032 RMK AO2 SLP262 T01610083 $,2025-09-10T01:11:41Z,2025-09-09T21:11:41Z
KRVS,"Tulsa/Jones Arpt, OK, US",2025-09-09T23:53:00Z,2025-09-09T19:53:00Z,NA,28,17,VAR,NA,0,NA,1014.3,METAR KRVS 092353Z 17006KTKT 10SMSM CLR 28/17 A2995,2025-09-10T00:12:47Z,2025-09-09T20:12:47Z
KRWF,"Redwood Falls Muni, MN, US",2025-09-09T23:53:00Z,2025-09-09T19:53:00Z,VFR,21.7,17.8,90,3,0,NA,1015,METAR KRWF 092353Z AUTO 09003KT 10SM FEW018 22/18 A2997 RMK AO2 SLP146 60000 T02170178 10222 20183 53003,2025-09-10T00:12:47Z,2025-09-09T20:12:47Z
KRWF,"Redwood Falls Muni, MN, US",2025-09-10T00:53:00Z,2025-09-09T20:53:00Z,VFR,18.9,17.8,110,4,0,NA,1015.3,METAR KRWF 100053Z AUTO 11004KT 10SM CLR 19/18 A2998 RMK AO2 SLP150 T01890178,2025-09-10T01:11:41Z,2025-09-09T21:11:41Z
KRWI,"Rocky Mount/Wilson Rgnl, NC, US",2025-09-09T23:21:00Z,2025-09-09T19:21:00Z,MVFR,21.1,16.1,20,8,17,NA,1019.7,SPECI KRWI 092321Z AUTO 02008G17KT 10SM OVC023 21/16 A3011 RMK AO2 T02110161 TSNO $,2025-09-10T00:12:48Z,2025-09-09T20:12:48Z
KRWI,"Rocky Mount/Wilson Rgnl, NC, US",2025-09-10T00:53:00Z,2025-09-09T20:53:00Z,MVFR,21.1,15.6,20,11,0,NA,1020.1,METAR KRWI 100053Z AUTO 02011KT 10SM OVC023 21/16 A3012 RMK AO2 SLP199 T02110156 $,2025-09-10T01:11:41Z,2025-09-09T21:11:41Z
KRWL,"Rawlins Muni, WY, US",2025-09-09T23:53:00Z,2025-09-09T19:53:00Z,VFR,24.4,-1.1,220,7,0,NA,1019,METAR KRWL 092353Z AUTO 22007KT 10SM CLR 24/M01 A3009 RMK AO2 SLP101 T02441011 10272 20200 56010,2025-09-10T00:12:47Z,2025-09-09T20:12:47Z
KRWL,"Rawlins Muni, WY, US",2025-09-10T00:53:00Z,2025-09-09T20:53:00Z,VFR,22.8,0,220,3,0,NA,1018.7,METAR KRWL 100053Z AUTO 22003KT 10SM CLR 23/00 A3008 RMK AO2 SLP110 T02280000,2025-09-10T01:11:41Z,2025-09-09T21:11:41Z
KRYY,"Marietta/Cobb Cnty, GA, US",2025-09-09T23:50:00Z,2025-09-09T19:50:00Z,VFR,23.9,12.8,VAR,5,0,NA,1020.1,METAR KRYY 092350Z VRB05KT 10SM CLR 24/13 A3012 RMK AO2 SLP930 T02390128 10267 20239 55001 $,2025-09-10T00:12:48Z,2025-09-09T20:12:48Z
KSAC,"Sacramento Exec, CA, US",2025-09-09T23:53:00Z,2025-09-09T19:53:00Z,VFR,24.4,15,210,9,0,NA,1010.6,METAR KSAC 092353Z 21009KT 10SM CLR 24/15 A2984 RMK AO2 SLP105 T02440150 10256 20222 56016,2025-09-10T00:12:47Z,2025-09-09T20:12:47Z
KSAC,"Sacramento Exec, CA, US",2025-09-10T00:53:00Z,2025-09-09T20:53:00Z,VFR,22.8,14.4,220,10,18,NA,1010.2,METAR KSAC 100053Z 22010G18KT 10SM CLR 23/14 A2983 RMK AO2 SLP102 T02280144,2025-09-10T01:11:41Z,2025-09-09T21:11:41Z
KSAF,"Santa Fe Cnty Muni, NM, US",2025-09-09T14:53:00Z,2025-09-09T10:53:00Z,VFR,17.2,5,350,7,0,NA,1024.1,METAR KSAF 091453Z 35007KT 10SM CLR 17/05 A3024 RMK AO2 SLP147 T01720050 51008,2025-09-09T15:51:32Z,2025-09-09T11:51:32Z
KSAF,"Santa Fe Cnty Muni, NM, US",2025-09-09T15:53:00Z,2025-09-09T11:53:00Z,VFR,21.1,4.4,340,10,0,NA,1024.1,METAR KSAF 091553Z 34010KT 10SM FEW110 21/04 A3024 RMK AO2 LTG DSNT NE SLP151 T02110044,2025-09-09T16:06:05Z,2025-09-09T12:06:05Z
KSAF,"Santa Fe Cnty Muni, NM, US",2025-09-09T16:53:00Z,2025-09-09T12:53:00Z,VFR,24.4,4.4,40,5,0,NA,1024.1,METAR KSAF 091653Z 04005KT 10SM CLR 24/04 A3024 RMK AO2 SLP143 T02440044,2025-09-09T17:12:57Z,2025-09-09T13:12:57Z
KSAF,"Santa Fe Cnty Muni, NM, US",2025-09-09T17:53:00Z,2025-09-09T13:53:00Z,VFR,26.7,5,VAR,NA,0,NA,1023.5,METAR KSAF 091753Z 10SM CLR 27/05 A3022 RMK AO2 SLP138 T02670050 10267 20122 58004,2025-09-09T18:09:23Z,2025-09-09T14:09:23Z
KSAF,"Santa Fe Cnty Muni, NM, US",2025-09-09T18:53:00Z,2025-09-09T14:53:00Z,VFR,27.8,3.3,230,4,0,NA,1022.8,METAR KSAF 091853Z 23004KT 10SM CLR 28/03 A3020 RMK AO2 SLP125 T02780033,2025-09-09T19:00:59Z,2025-09-09T15:00:59Z
KSAF,"Santa Fe Cnty Muni, NM, US",2025-09-09T19:53:00Z,2025-09-09T15:53:00Z,VFR,29.4,3.9,230,11,0,NA,1022.1,METAR KSAF 091953Z 23011KT 10SM CLR 29/04 A3018 RMK AO2 SLP119 T02940039,2025-09-09T20:10:19Z,2025-09-09T16:10:19Z
KSAF,"Santa Fe Cnty Muni, NM, US",2025-09-09T20:53:00Z,2025-09-09T16:53:00Z,VFR,29.4,3.3,210,11,23,NA,1021.4,METAR KSAF 092053Z 21011G23KT 10SM CLR 29/03 A3016 RMK AO2 SLP109 T02940033 56017,2025-09-09T21:12:46Z,2025-09-09T17:12:46Z
KSAF,"Santa Fe Cnty Muni, NM, US",2025-09-09T21:53:00Z,2025-09-09T17:53:00Z,VFR,30,2.2,240,11,22,NA,1020.7,METAR KSAF 092153Z 24011G22KT 10SM CLR 30/02 A3014 RMK AO2 SLP102 T03000022,2025-09-09T22:00:15Z,2025-09-09T18:00:15Z
KSAF,"Santa Fe Cnty Muni, NM, US",2025-09-09T22:53:00Z,2025-09-09T18:53:00Z,VFR,28.9,1.7,210,9,16,NA,1020.4,METAR KSAF 092253Z 21009G16KT 10SM CLR 29/02 A3013 RMK AO2 SLP096 T02890017,2025-09-09T22:58:34Z,2025-09-09T18:58:34Z
KSAF,"Santa Fe Cnty Muni, NM, US",2025-09-09T23:53:00Z,2025-09-09T19:53:00Z,VFR,26.7,3.3,250,7,0,NA,1020.4,METAR KSAF 092353Z 25007KT 10SM CLR 27/03 A3013 RMK AO2 SLP102 T02670033 10300 20261 55009,2025-09-10T00:12:47Z,2025-09-09T20:12:47Z
KSAF,"Santa Fe Cnty Muni, NM, US",2025-09-10T00:53:00Z,2025-09-09T20:53:00Z,VFR,27.2,0,310,11,24,NA,1020.7,METAR KSAF 100053Z 31011G24KT 10SM FEW060 FEW080 BKN110 27/00 A3014 RMK AO2 LTG DSNT SW AND W SLP107 T02720000,2025-09-10T01:11:41Z,2025-09-09T21:11:41Z
KSAN,"San Diego Intl Arpt, CA, US",2025-09-09T14:51:00Z,2025-09-09T10:51:00Z,MVFR,20.6,15.6,240,3,0,NA,1015.3,METAR KSAN 091451Z 24003KT 10SM BKN019 21/16 A2998 RMK AO2 SLP152 T02060156 53009,2025-09-09T15:51:32Z,2025-09-09T11:51:32Z
KSAN,"San Diego Intl Arpt, CA, US",2025-09-09T15:51:00Z,2025-09-09T11:51:00Z,MVFR,21.1,15.6,VAR,3,0,NA,1015.3,METAR KSAN 091551Z VRB03KT 10SM BKN021 21/16 A2998 RMK AO2 SLP151 T02110156,2025-09-09T16:06:05Z,2025-09-09T12:06:05Z
KSAN,"San Diego Intl Arpt, CA, US",2025-09-09T16:51:00Z,2025-09-09T12:51:00Z,MVFR,21.7,15.6,250,7,0,NA,1015.3,METAR KSAN 091651Z 25007KT 10SM BKN021 22/16 A2998 RMK AO2 SLP151 T02170156,2025-09-09T16:54:06Z,2025-09-09T12:54:06Z
KSAN,"San Diego Intl Arpt, CA, US",2025-09-09T16:57:00Z,2025-09-09T12:57:00Z,VFR,21.7,15,VAR,4,0,NA,1015.3,SPECI KSAN 091657Z VRB04KT 10SM SCT021 22/15 A2998 RMK AO2 T02170150,2025-09-09T17:12:57Z,2025-09-09T13:12:57Z
KSAN,"San Diego Intl Arpt, CA, US",2025-09-09T17:51:00Z,2025-09-09T13:51:00Z,VFR,21.7,15,VAR,5,0,NA,1015.3,METAR KSAN 091751Z VRB05KT 10SM SCT022 22/15 A2998 RMK AO2 SLP151 T02170150 10222 20200 55000,2025-09-09T18:09:23Z,2025-09-09T14:09:23Z
KSAN,"San Diego Intl Arpt, CA, US",2025-09-09T18:51:00Z,2025-09-09T14:51:00Z,VFR,22.8,15,260,8,19,NA,1014.6,METAR KSAN 091851Z 26008G19KT 220V290 10SM FEW023 23/15 A2996 RMK AO2 SLP146 T02280150,2025-09-09T19:00:59Z,2025-09-09T15:00:59Z
KSAN,"San Diego Intl Arpt, CA, US",2025-09-09T19:51:00Z,2025-09-09T15:51:00Z,VFR,22.8,15.6,280,7,0,NA,1014,METAR KSAN 091951Z 28007KT 10SM FEW023 23/16 A2994 RMK AO2 SLP138 T02280156,2025-09-09T20:10:19Z,2025-09-09T16:10:19Z
KSAN,"San Diego Intl Arpt, CA, US",2025-09-09T20:51:00Z,2025-09-09T16:51:00Z,VFR,23.3,15.6,250,8,17,NA,1013.3,METAR KSAN 092051Z 25008G17KT 220V290 10SM FEW023 23/16 A2992 RMK AO2 SLP130 T02330156 58021,2025-09-09T20:54:03Z,2025-09-09T16:54:03Z
KSAN,"San Diego Intl Arpt, CA, US",2025-09-09T21:51:00Z,2025-09-09T17:51:00Z,VFR,23.3,16.1,270,12,0,NA,1012.6,METAR KSAN 092151Z 27012KT 10SM FEW023 23/16 A2990 RMK AO2 SLP126 T02330161,2025-09-09T22:00:15Z,2025-09-09T18:00:15Z
KSAN,"San Diego Intl Arpt, CA, US",2025-09-09T22:51:00Z,2025-09-09T18:51:00Z,VFR,23.3,16.1,270,9,0,NA,1012.3,METAR KSAN 092251Z 27009KT 10SM FEW023 23/16 A2989 RMK AO2 SLP120 T02330161,2025-09-09T22:58:34Z,2025-09-09T18:58:34Z
KSAN,"San Diego Intl Arpt, CA, US",2025-09-09T23:51:00Z,2025-09-09T19:51:00Z,VFR,22.2,16.7,270,7,0,NA,1011.9,METAR KSAN 092351Z 27007KT 10SM FEW020 22/17 A2988 RMK AO2 SLP117 T02220167 10239 20217 56013,2025-09-10T00:12:48Z,2025-09-09T20:12:48Z
KSAN,"San Diego Intl Arpt, CA, US",2025-09-10T00:51:00Z,2025-09-09T20:51:00Z,MVFR,21.7,16.7,310,6,0,NA,1011.9,METAR KSAN 100051Z 31006KT 10SM BKN018 22/17 A2988 RMK AO2 SLP116 T02170167,2025-09-10T01:11:41Z,2025-09-09T21:11:41Z
KSAT,"San Antonio Intl, TX, US",2025-09-09T14:51:00Z,2025-09-09T10:51:00Z,VFR,23.9,16.1,110,5,0,NA,1018,METAR KSAT 091451Z 11005KT 10SM FEW250 24/16 A3006 RMK AO2 SLP160 T02390161 51007,2025-09-09T15:51:30Z,2025-09-09T11:51:30Z
KSAT,"San Antonio Intl, TX, US",2025-09-09T15:51:00Z,2025-09-09T11:51:00Z,VFR,26.7,15,100,4,0,NA,1018,METAR KSAT 091551Z 10004KT 10SM CLR 27/15 A3006 RMK AO2 SLP163 T02670150,2025-09-09T16:06:03Z,2025-09-09T12:06:03Z
KSAT,"San Antonio Intl, TX, US",2025-09-09T16:51:00Z,2025-09-09T12:51:00Z,VFR,27.8,14.4,90,5,0,NA,1018,METAR KSAT 091651Z 09005KT 10SM CLR 28/14 A3006 RMK AO2 SLP160 T02780144,2025-09-09T16:54:04Z,2025-09-09T12:54:04Z
KSAT,"San Antonio Intl, TX, US",2025-09-09T17:51:00Z,2025-09-09T13:51:00Z,VFR,28.3,14.4,0,0,0,NA,1017.7,METAR KSAT 091751Z 00000KT 10SM CLR 28/14 A3005 RMK AO2 SLP156 T02830144 10289 20183 58003,2025-09-09T18:09:22Z,2025-09-09T14:09:22Z
KSAT,"San Antonio Intl, TX, US",2025-09-09T18:51:00Z,2025-09-09T14:51:00Z,VFR,29.4,15,VAR,4,0,NA,1017,METAR KSAT 091851Z VRB04KT 10SM FEW055 29/15 A3003 RMK AO2 SLP150 T02940150,2025-09-09T19:00:57Z,2025-09-09T15:00:57Z
KSAT,"San Antonio Intl, TX, US",2025-09-09T19:51:00Z,2025-09-09T15:51:00Z,VFR,30.6,15.6,VAR,5,0,NA,1016,METAR KSAT 091951Z VRB05KT 10SM FEW060 31/16 A3000 RMK AO2 SLP142 T03060156,2025-09-09T20:10:18Z,2025-09-09T16:10:18Z
KSAT,"San Antonio Intl, TX, US",2025-09-09T20:51:00Z,2025-09-09T16:51:00Z,VFR,31.1,14.4,VAR,3,0,NA,1015.3,METAR KSAT 092051Z VRB03KT 10SM FEW060 31/14 A2998 RMK AO2 SLP135 T03110144 56021,2025-09-09T20:54:01Z,2025-09-09T16:54:01Z
KSAT,"San Antonio Intl, TX, US",2025-09-09T21:51:00Z,2025-09-09T17:51:00Z,VFR,31.7,14.4,80,5,0,NA,1015,METAR KSAT 092151Z 08005KT 10SM FEW065 32/14 A2997 RMK AO2 SLP131 T03170144,2025-09-09T22:00:10Z,2025-09-09T18:00:10Z
KSAT,"San Antonio Intl, TX, US",2025-09-09T22:51:00Z,2025-09-09T18:51:00Z,VFR,31.7,13.9,0,0,0,NA,1014.6,METAR KSAT 092251Z 00000KT 10SM CLR 32/14 A2996 RMK AO2 SLP129 T03170139,2025-09-09T22:58:33Z,2025-09-09T18:58:33Z
KSAT,"San Antonio Intl, TX, US",2025-09-09T23:51:00Z,2025-09-09T19:51:00Z,VFR,31.1,13.3,10,4,0,NA,1014.6,METAR KSAT 092351Z 01004KT 10SM CLR 31/13 A2996 RMK AO2 SLP127 T03110133 10322 20283 56008,2025-09-10T00:12:48Z,2025-09-09T20:12:48Z
KSAT,"San Antonio Intl, TX, US",2025-09-10T00:51:00Z,2025-09-09T20:51:00Z,VFR,29.4,13.3,60,5,0,NA,1015,METAR KSAT 100051Z 06005KT 10SM CLR 29/13 A2997 RMK AO2 SLP129 T02940133,2025-09-10T01:11:41Z,2025-09-09T21:11:41Z
KSAV,"Savannah Intl, GA, US",2025-09-09T14:53:00Z,2025-09-09T10:53:00Z,VFR,23.9,15.6,20,13,17,NA,1019.7,METAR KSAV 091453Z 02013G17KT 10SM FEW060 FEW250 24/16 A3011 RMK AO2 SLP196 T02390156 53011,2025-09-09T15:51:29Z,2025-09-09T11:51:29Z
KSAV,"Savannah Intl, GA, US",2025-09-09T15:53:00Z,2025-09-09T11:53:00Z,VFR,25.6,15,40,11,19,NA,1019.7,METAR KSAV 091553Z 04011G19KT 10SM SCT250 26/15 A3011 RMK AO2 SLP197 T02560150,2025-09-09T16:06:01Z,2025-09-09T12:06:01Z
KSAV,"Savannah Intl, GA, US",2025-09-09T16:53:00Z,2025-09-09T12:53:00Z,VFR,27.2,15.6,30,9,0,NA,1019.4,METAR KSAV 091653Z 03009KT 10SM BKN250 27/16 A3010 RMK AO2 SLP192 T02720156,2025-09-09T17:12:51Z,2025-09-09T13:12:51Z
KSAV,"Savannah Intl, GA, US",2025-09-09T17:53:00Z,2025-09-09T13:53:00Z,VFR,27.2,15.6,30,9,18,NA,1018.7,METAR KSAV 091753Z 03009G18KT 360V060 10SM BKN250 27/16 A3008 RMK AO2 SLP184 T02720156 10278 20183 58013,2025-09-09T18:09:20Z,2025-09-09T14:09:20Z
KSAV,"Savannah Intl, GA, US",2025-09-09T18:53:00Z,2025-09-09T14:53:00Z,VFR,27.8,15.6,60,10,19,NA,1017.7,METAR KSAV 091853Z 06010G19KT 10SM BKN200 28/16 A3005 RMK AO2 SLP176 T02780156,2025-09-09T19:00:56Z,2025-09-09T15:00:56Z
KSAV,"Savannah Intl, GA, US",2025-09-09T19:53:00Z,2025-09-09T15:53:00Z,VFR,27.8,15.6,40,9,0,NA,1017.4,METAR KSAV 091953Z 04009KT 10SM BKN210 28/16 A3004 RMK AO2 SLP171 T02780156,2025-09-09T20:10:15Z,2025-09-09T16:10:15Z
KSAV,"Savannah Intl, GA, US",2025-09-09T20:53:00Z,2025-09-09T16:53:00Z,VFR,27.8,15.6,20,10,0,NA,1017,METAR KSAV 092053Z 02010KT 10SM BKN210 28/16 A3003 RMK AO2 SLP168 T02780156 56016,2025-09-09T21:12:42Z,2025-09-09T17:12:42Z
KSAV,"Savannah Intl, GA, US",2025-09-09T21:53:00Z,2025-09-09T17:53:00Z,VFR,27.2,15,50,10,0,NA,1017,METAR KSAV 092153Z 05010KT 10SM BKN210 27/15 A3003 RMK AO2 SLP167 T02720150,2025-09-09T22:00:08Z,2025-09-09T18:00:08Z
KSAV,"Savannah Intl, GA, US",2025-09-09T22:53:00Z,2025-09-09T18:53:00Z,VFR,26.1,14.4,20,9,0,NA,1017.4,METAR KSAV 092253Z 02009KT 10SM FEW200 SCT250 26/14 A3004 RMK AO2 SLP171 T02610144,2025-09-09T22:58:31Z,2025-09-09T18:58:31Z
KSAV,"Savannah Intl, GA, US",2025-09-09T23:53:00Z,2025-09-09T19:53:00Z,VFR,22.8,15,10,5,0,NA,1017.7,METAR KSAV 092353Z 01005KT 10SM FEW200 SCT250 23/15 A3005 RMK AO2 SLP174 T02280150 10283 20228 53006,2025-09-10T00:12:47Z,2025-09-09T20:12:47Z
KSAV,"Savannah Intl, GA, US",2025-09-10T00:53:00Z,2025-09-09T20:53:00Z,VFR,21.7,15,20,5,0,NA,1018,METAR KSAV 100053Z 02005KT 10SM FEW250 22/15 A3006 RMK AO2 SLP179 T02170150,2025-09-10T01:11:41Z,2025-09-09T21:11:41Z
KSAW,"Marquette/Sawyer Intl, MI, US",2025-09-09T23:45:00Z,2025-09-09T19:45:00Z,VFR,14,13,210,8,0,NA,1017.7,METAR KSAW 092345Z 21008KT 10SM -RA FEW048 FEW070 OVC110 14/13 A3005 RMK LTG DSNT SW AND W,2025-09-10T00:12:48Z,2025-09-09T20:12:48Z
KSAW,"Marquette/Sawyer Intl, MI, US",2025-09-10T00:51:00Z,2025-09-09T20:51:00Z,VFR,14,14,200,9,0,8,1018,METAR KSAW 100051Z 20009KT 8SM -RA FEW047 OVC100 14/14 A3006,2025-09-10T01:11:41Z,2025-09-09T21:11:41Z
KSBA,"Santa Barbara Muni, CA, US",2025-09-09T14:53:00Z,2025-09-09T10:53:00Z,VFR,19.4,16.7,110,4,0,NA,1013.3,METAR KSBA 091453Z 11004KT 10SM CLR 19/17 A2992 RMK AO2 SLP133 T01940167 53008 $,2025-09-09T15:51:32Z,2025-09-09T11:51:32Z
KSBA,"Santa Barbara Muni, CA, US",2025-09-09T15:53:00Z,2025-09-09T11:53:00Z,VFR,20,17.2,130,9,0,NA,1013.6,METAR KSBA 091553Z 13009KT 10SM CLR 20/17 A2993 RMK AO2 SLP133 T02000172 $,2025-09-09T16:06:05Z,2025-09-09T12:06:05Z
KSBA,"Santa Barbara Muni, CA, US",2025-09-09T16:53:00Z,2025-09-09T12:53:00Z,VFR,20.6,17.2,140,9,0,NA,1013.6,METAR KSBA 091653Z 14009KT 10SM CLR 21/17 A2993 RMK AO2 SLP136 T02060172 $,2025-09-09T17:12:57Z,2025-09-09T13:12:57Z
KSBA,"Santa Barbara Muni, CA, US",2025-09-09T17:53:00Z,2025-09-09T13:53:00Z,VFR,21.7,17.2,150,9,0,NA,1014,METAR KSBA 091753Z 15009KT 10SM CLR 22/17 A2994 RMK AO2 SLP138 T02170172 10217 20139 53005 $,2025-09-09T18:09:23Z,2025-09-09T14:09:23Z
KSBA,"Santa Barbara Muni, CA, US",2025-09-09T18:53:00Z,2025-09-09T14:53:00Z,VFR,21.7,17.2,150,9,0,NA,1013.6,METAR KSBA 091853Z 15009KT 10SM CLR 22/17 A2993 RMK AO2 SLP135 T02170172 $,2025-09-09T19:00:59Z,2025-09-09T15:00:59Z
KSBA,"Santa Barbara Muni, CA, US",2025-09-09T19:53:00Z,2025-09-09T15:53:00Z,VFR,22.2,17.2,150,8,0,NA,1013,METAR KSBA 091953Z 15008KT 10SM CLR 22/17 A2991 RMK AO2 SLP129 T02220172 $,2025-09-09T20:10:19Z,2025-09-09T16:10:19Z
KSBA,"Santa Barbara Muni, CA, US",2025-09-09T20:53:00Z,2025-09-09T16:53:00Z,VFR,22.8,17.8,140,8,0,NA,1012.6,METAR KSBA 092053Z 14008KT 10SM CLR 23/18 A2990 RMK AO2 SLP123 T02280178 58015 $,2025-09-09T21:12:46Z,2025-09-09T17:12:46Z
KSBA,"Santa Barbara Muni, CA, US",2025-09-09T21:53:00Z,2025-09-09T17:53:00Z,VFR,23.9,17.2,150,8,0,NA,1011.6,METAR KSBA 092153Z 15008KT 10SM CLR 24/17 A2987 RMK AO2 SLP114 T02390172 $,2025-09-09T22:00:15Z,2025-09-09T18:00:15Z
KSBA,"Santa Barbara Muni, CA, US",2025-09-09T22:53:00Z,2025-09-09T18:53:00Z,VFR,23.9,17.8,160,5,0,NA,1010.6,METAR KSBA 092253Z 16005KT 10SM CLR 24/18 A2984 RMK AO2 SLP104 T02390178 $,2025-09-09T22:58:34Z,2025-09-09T18:58:34Z
KSBA,"Santa Barbara Muni, CA, US",2025-09-09T23:53:00Z,2025-09-09T19:53:00Z,VFR,25,16.7,240,5,0,NA,1009.9,METAR KSBA 092353Z 24005KT 10SM CLR 25/17 A2982 RMK AO2 SLP097 T02500167 10256 20211 56026 $,2025-09-10T00:12:47Z,2025-09-09T20:12:47Z
KSBA,"Santa Barbara Muni, CA, US",2025-09-10T00:53:00Z,2025-09-09T20:53:00Z,VFR,26.1,15.6,200,3,0,NA,1009.6,METAR KSBA 100053Z 20003KT 10SM CLR 26/16 A2981 RMK AO2 SLP094 T02610156 $,2025-09-10T01:11:41Z,2025-09-09T21:11:41Z
KSBD,"San Bernardino Intl, CA, US",2025-09-09T23:55:00Z,2025-09-09T19:55:00Z,VFR,30,7,300,8,15,NA,1010.2,METAR KSBD 092355Z 30008G15KT 10SM CLR 30/07 A2983,2025-09-10T00:12:47Z,2025-09-09T20:12:47Z
KSBD,"San Bernardino Intl, CA, US",2025-09-10T00:55:00Z,2025-09-09T20:55:00Z,VFR,28,6,240,9,0,NA,1010.6,METAR KSBD 100055Z 24009KT 10SM CLR 28/06 A2984,2025-09-10T01:11:41Z,2025-09-09T21:11:41Z
KSBN,"South Bend Rgnl, IN, US",2025-09-09T14:54:00Z,2025-09-09T10:54:00Z,VFR,19.4,8.9,200,5,0,NA,1023.5,METAR KSBN 091454Z 20005KT 10SM CLR 19/09 A3022 RMK AO2 SLP235 T01940089 50001,2025-09-09T15:51:29Z,2025-09-09T11:51:29Z
KSBN,"South Bend Rgnl, IN, US",2025-09-09T15:54:00Z,2025-09-09T11:54:00Z,VFR,21.1,8.9,210,6,0,NA,1023.5,METAR KSBN 091554Z 21006KT 10SM CLR 21/09 A3022 RMK AO2 SLP232 T02110089,2025-09-09T16:06:01Z,2025-09-09T12:06:01Z
KSBN,"South Bend Rgnl, IN, US",2025-09-09T16:54:00Z,2025-09-09T12:54:00Z,VFR,21.7,7.2,210,9,0,NA,1023.1,METAR KSBN 091654Z 21009KT 10SM CLR 22/07 A3021 RMK AO2 SLP229 T02170072,2025-09-09T17:12:51Z,2025-09-09T13:12:51Z
KSBN,"South Bend Rgnl, IN, US",2025-09-09T17:54:00Z,2025-09-09T13:54:00Z,VFR,22.2,7.2,200,11,0,NA,1022.4,METAR KSBN 091754Z 20011KT 10SM CLR 22/07 A3019 RMK AO2 SLP224 T02220072 10222 20072 58010,2025-09-09T18:09:20Z,2025-09-09T14:09:20Z
KSBN,"South Bend Rgnl, IN, US",2025-09-09T18:54:00Z,2025-09-09T14:54:00Z,VFR,23.3,7.2,250,5,0,NA,1021.8,METAR KSBN 091854Z 25005KT 10SM CLR 23/07 A3017 RMK AO2 SLP215 T02330072,2025-09-09T19:00:56Z,2025-09-09T15:00:56Z
KSBN,"South Bend Rgnl, IN, US",2025-09-09T19:54:00Z,2025-09-09T15:54:00Z,VFR,22.8,6.7,190,7,0,NA,1021.4,METAR KSBN 091954Z 19007KT 10SM CLR 23/07 A3016 RMK AO2 SLP212 T02280067,2025-09-09T20:10:15Z,2025-09-09T16:10:15Z
KSBN,"South Bend Rgnl, IN, US",2025-09-09T20:54:00Z,2025-09-09T16:54:00Z,VFR,23.3,7.8,160,7,0,NA,1021.1,METAR KSBN 092054Z 16007KT 10SM CLR 23/08 A3015 RMK AO2 SLP210 T02330078 56014,2025-09-09T21:12:42Z,2025-09-09T17:12:42Z
KSBN,"South Bend Rgnl, IN, US",2025-09-09T21:54:00Z,2025-09-09T17:54:00Z,VFR,23.3,7.8,200,7,0,NA,1020.7,METAR KSBN 092154Z 20007KT 10SM CLR 23/08 A3014 RMK AO2 SLP206 T02330078,2025-09-09T22:00:08Z,2025-09-09T18:00:08Z
KSBN,"South Bend Rgnl, IN, US",2025-09-09T22:54:00Z,2025-09-09T18:54:00Z,VFR,22.2,7.8,210,4,0,NA,1020.4,METAR KSBN 092254Z 21004KT 10SM CLR 22/08 A3013 RMK AO2 SLP204 T02220078,2025-09-09T22:58:31Z,2025-09-09T18:58:31Z
KSBN,"South Bend Rgnl, IN, US",2025-09-09T23:54:00Z,2025-09-09T19:54:00Z,VFR,21.1,8.9,160,5,0,NA,1020.4,METAR KSBN 092354Z 16005KT 10SM CLR 21/09 A3013 RMK AO2 SLP202 T02110089 10239 20211 56008,2025-09-10T00:12:47Z,2025-09-09T20:12:47Z
KSBN,"South Bend Rgnl, IN, US",2025-09-10T00:54:00Z,2025-09-09T20:54:00Z,VFR,16.7,10.6,0,0,0,NA,1020.4,METAR KSBN 100054Z 00000KT 10SM CLR 17/11 A3013 RMK AO2 SLP204 T01670106,2025-09-10T01:11:41Z,2025-09-09T21:11:41Z
KSBP,"San Luis Obispo/San Luis Cnty, CA, US",2025-09-09T23:56:00Z,2025-09-09T19:56:00Z,VFR,21.1,15.6,310,14,26,NA,1011.9,METAR KSBP 092356Z 31014G26KT 10SM FEW018 21/16 A2988 RMK AO2 PK WND 31029/2311 SLP116 T02110156 10244 20211 56011,2025-09-10T00:12:46Z,2025-09-09T20:12:46Z
KSBP,"San Luis Obispo/San Luis Cnty, CA, US",2025-09-10T01:03:00Z,2025-09-09T21:03:00Z,MVFR,20.6,15.6,300,15,21,NA,1011.9,SPECI KSBP 100103Z 30015G21KT 10SM BKN017 21/16 A2988 RMK AO2 T02060156,2025-09-10T01:11:41Z,2025-09-09T21:11:41Z
KSBY,"Salisbury/Ocean City, MD, US",2025-09-09T23:54:00Z,2025-09-09T19:54:00Z,MVFR,18.9,16.1,30,10,0,NA,1022.1,METAR KSBY 092354Z 03010KT 10SM OVC020 19/16 A3018 RMK AO2 SLP222 T01890161 10217 20183 56004,2025-09-10T00:12:47Z,2025-09-09T20:12:47Z
KSBY,"Salisbury/Ocean City, MD, US",2025-09-10T01:01:00Z,2025-09-09T21:01:00Z,MVFR,18.3,16.1,30,13,23,NA,1022.1,SPECI KSBY 100101Z 03013G23KT 10SM SCT012 BKN019 OVC025 18/16 A3018 RMK AO2 T01830161,2025-09-10T01:11:41Z,2025-09-09T21:11:41Z
KSCK,"Stockton Metro, CA, US",2025-09-09T23:55:00Z,2025-09-09T19:55:00Z,VFR,25.6,13.3,340,6,0,NA,1010.2,METAR KSCK 092355Z AUTO 34006KT 10SM CLR 26/13 A2983 RMK AO2 SLP102 T02560133 10283 20244 56015,2025-09-10T00:12:46Z,2025-09-09T20:12:46Z
KSCK,"Stockton Metro, CA, US",2025-09-10T00:55:00Z,2025-09-09T20:55:00Z,VFR,25,13.9,330,10,0,NA,1010.2,METAR KSCK 100055Z AUTO 33010KT 10SM BKN070 25/14 A2983 RMK AO2 SLP100 T02500139,2025-09-10T01:11:41Z,2025-09-09T21:11:41Z
KSDF,"Louisville Intl, KY, US",2025-09-09T14:56:00Z,2025-09-09T10:56:00Z,VFR,18.9,9.4,0,0,0,NA,1022.8,METAR KSDF 091456Z 00000KT 10SM SCT350 19/09 A3020 RMK AO2 SLP225 T01890094 51001,2025-09-09T15:51:29Z,2025-09-09T11:51:29Z
KSDF,"Louisville Intl, KY, US",2025-09-09T15:56:00Z,2025-09-09T11:56:00Z,VFR,22.2,9.4,0,0,0,NA,1022.8,METAR KSDF 091556Z 00000KT 10SM FEW350 22/09 A3020 RMK AO2 SLP222 T02220094,2025-09-09T16:06:01Z,2025-09-09T12:06:01Z
KSDF,"Louisville Intl, KY, US",2025-09-09T16:56:00Z,2025-09-09T12:56:00Z,VFR,23.9,7.8,VAR,4,0,NA,1022.1,METAR KSDF 091656Z VRB04KT 10SM FEW055 FEW350 24/08 A3018 RMK AO2 SLP216 T02390078,2025-09-09T17:12:51Z,2025-09-09T13:12:51Z
KSDF,"Louisville Intl, KY, US",2025-09-09T17:56:00Z,2025-09-09T13:56:00Z,VFR,25.6,7.8,VAR,3,0,NA,1021.4,METAR KSDF 091756Z VRB03KT 10SM FEW060 FEW350 26/08 A3016 RMK AO2 SLP209 T02560078 10256 20133 58015,2025-09-09T18:09:20Z,2025-09-09T14:09:20Z
KSDF,"Louisville Intl, KY, US",2025-09-09T18:56:00Z,2025-09-09T14:56:00Z,VFR,25.6,7.8,VAR,NA,0,NA,1020.7,METAR KSDF 091856Z 10SM FEW060 FEW350 26/08 A3014 RMK AO2 SLP202 T02560078,2025-09-09T19:00:56Z,2025-09-09T15:00:56Z
KSDF,"Louisville Intl, KY, US",2025-09-09T19:00:00Z,2025-09-09T15:00:00Z,VFR,25.6,8.3,320,3,0,NA,1020.4,SPECI KSDF 091900Z 32003KT 10SM FEW060 FEW350 26/08 A3013 RMK AO2 T02560083,2025-09-09T19:20:54Z,2025-09-09T15:20:54Z
KSDF,"Louisville Intl, KY, US",2025-09-09T19:56:00Z,2025-09-09T15:56:00Z,VFR,26.7,7.8,150,4,0,NA,1020.1,METAR KSDF 091956Z 15004KT 10SM FEW060 FEW350 27/08 A3012 RMK AO2 SLP196 T02670078,2025-09-09T20:10:15Z,2025-09-09T16:10:15Z
KSDF,"Louisville Intl, KY, US",2025-09-09T20:56:00Z,2025-09-09T16:56:00Z,VFR,26.7,8.9,190,9,15,NA,1019.7,METAR KSDF 092056Z 19009G15KT 110V230 10SM FEW060 FEW350 27/09 A3011 RMK AO2 SLP193 T02670089 56016,2025-09-09T21:12:42Z,2025-09-09T17:12:42Z
KSDF,"Louisville Intl, KY, US",2025-09-09T21:56:00Z,2025-09-09T17:56:00Z,VFR,26.1,8.3,VAR,5,0,NA,1019.4,METAR KSDF 092156Z VRB05KT 10SM FEW060 FEW250 FEW350 26/08 A3010 RMK AO2 SLP188 T02610083,2025-09-09T22:00:08Z,2025-09-09T18:00:08Z
KSDF,"Louisville Intl, KY, US",2025-09-09T22:56:00Z,2025-09-09T18:56:00Z,VFR,25.6,8.3,110,4,0,NA,1019,METAR KSDF 092256Z 11004KT 10SM FEW060 FEW250 26/08 A3009 RMK AO2 SLP186 T02560083,2025-09-09T23:21:16Z,2025-09-09T19:21:16Z
KSDF,"Louisville Intl, KY, US",2025-09-09T23:56:00Z,2025-09-09T19:56:00Z,VFR,25.6,7.8,0,0,0,NA,1019,METAR KSDF 092356Z 00000KT 10SM FEW060 FEW250 26/08 A3009 RMK AO2 SLP186 T02560078 10267 20244 55007,2025-09-10T00:12:46Z,2025-09-09T20:12:46Z
KSDF,"Louisville Intl, KY, US",2025-09-10T00:56:00Z,2025-09-09T20:56:00Z,VFR,23.3,8.9,60,4,0,NA,1019,METAR KSDF 100056Z 06004KT 10SM FEW250 23/09 A3009 RMK AO2 SLP186 T02330089,2025-09-10T01:11:41Z,2025-09-09T21:11:41Z
KSDM,"San Diego/Brown Fld, CA, US",2025-09-09T23:53:00Z,2025-09-09T19:53:00Z,VFR,23.3,15.6,VAR,5,0,NA,1011.6,METAR KSDM 092353Z VRB05KT 10SM CLR 23/16 A2987 RMK AO2 SLP109 T02330156 10261 20233 56013,2025-09-10T00:12:47Z,2025-09-09T20:12:47Z
KSDM,"San Diego/Brown Fld, CA, US",2025-09-10T00:53:00Z,2025-09-09T20:53:00Z,VFR,21.7,15.6,290,5,0,NA,1011.6,METAR KSDM 100053Z 29005KT 10SM CLR 22/16 A2987 RMK AO2 SLP109 T02170156,2025-09-10T01:11:41Z,2025-09-09T21:11:41Z
KSEA,"Seattle-Tacoma Intl, WA, US",2025-09-09T14:53:00Z,2025-09-09T10:53:00Z,VFR,15.6,12.2,10,6,0,NA,1014.6,METAR KSEA 091453Z 01006KT 10SM BKN041 BKN100 BKN250 16/12 A2996 RMK AO2 SLP149 T01560122 50004 $,2025-09-09T15:51:30Z,2025-09-09T11:51:30Z
KSEA,"Seattle-Tacoma Intl, WA, US",2025-09-09T15:53:00Z,2025-09-09T11:53:00Z,VFR,16.1,12.8,20,6,0,NA,1014.6,METAR KSEA 091553Z 02006KT 10SM BKN039 BKN120 BKN250 16/13 A2996 RMK AO2 SLP151 T01610128 $,2025-09-09T16:06:03Z,2025-09-09T12:06:03Z
KSEA,"Seattle-Tacoma Intl, WA, US",2025-09-09T16:13:00Z,2025-09-09T12:13:00Z,VFR,17.2,12.8,360,5,0,NA,1015,SPECI KSEA 091613Z 36005KT 10SM FEW009 SCT040 BKN100 BKN250 17/13 A2997 RMK AO2 T01720128 $,2025-09-09T16:38:39Z,2025-09-09T12:38:39Z
KSEA,"Seattle-Tacoma Intl, WA, US",2025-09-09T16:53:00Z,2025-09-09T12:53:00Z,VFR,18.3,13.9,10,5,0,NA,1015,METAR KSEA 091653Z 01005KT 10SM SCT012 BKN038 OVC100 18/14 A2997 RMK AO2 SLP154 T01830139 $,2025-09-09T17:12:54Z,2025-09-09T13:12:54Z
KSEA,"Seattle-Tacoma Intl, WA, US",2025-09-09T17:53:00Z,2025-09-09T13:53:00Z,VFR,17.8,13.9,20,7,0,NA,1015,METAR KSEA 091753Z 02007KT 10SM FEW012 BKN038 BKN100 BKN250 18/14 A2997 RMK AO2 SLP153 T01780139 10183 20144 50003 $,2025-09-09T18:09:21Z,2025-09-09T14:09:21Z
KSEA,"Seattle-Tacoma Intl, WA, US",2025-09-09T18:53:00Z,2025-09-09T14:53:00Z,VFR,18.9,13.9,360,6,0,NA,1014.6,METAR KSEA 091853Z 36006KT 10SM FEW015 SCT050 BKN090 BKN130 19/14 A2996 RMK AO2 SLP150 T01890139 $,2025-09-09T19:00:57Z,2025-09-09T15:00:57Z
KSEA,"Seattle-Tacoma Intl, WA, US",2025-09-09T19:53:00Z,2025-09-09T15:53:00Z,VFR,19.4,13.9,VAR,6,0,NA,1014.6,METAR KSEA 091953Z VRB06KT 10SM FEW015 BKN090 BKN130 19/14 A2996 RMK AO2 SLP148 T01940139 $,2025-09-09T20:10:18Z,2025-09-09T16:10:18Z
KSEA,"Seattle-Tacoma Intl, WA, US",2025-09-09T20:53:00Z,2025-09-09T16:53:00Z,VFR,19.4,13.9,360,7,0,NA,1014.3,METAR KSEA 092053Z 36007KT 10SM FEW020 BKN090 BKN130 19/14 A2995 RMK AO2 SLP146 T01940139 56005 $,2025-09-09T21:12:45Z,2025-09-09T17:12:45Z
KSEA,"Seattle-Tacoma Intl, WA, US",2025-09-09T21:53:00Z,2025-09-09T17:53:00Z,VFR,19.4,13.9,360,6,0,NA,1014,METAR KSEA 092153Z 36006KT 10SM FEW020 SCT120 BKN200 19/14 A2994 RMK AO2 SLP142 T01940139 $,2025-09-09T22:00:10Z,2025-09-09T18:00:10Z
KSEA,"Seattle-Tacoma Intl, WA, US",2025-09-09T22:53:00Z,2025-09-09T18:53:00Z,VFR,20,13.9,10,3,0,NA,1013.3,METAR KSEA 092253Z 01003KT 10SM FEW030 SCT120 BKN160 20/14 A2992 RMK AO2 SLP137 T02000139 $,2025-09-09T22:58:33Z,2025-09-09T18:58:33Z
KSEA,"Seattle-Tacoma Intl, WA, US",2025-09-09T23:53:00Z,2025-09-09T19:53:00Z,VFR,20.6,13.9,270,6,0,NA,1013,METAR KSEA 092353Z 27006KT 10SM FEW030 FEW120 BKN160 BKN200 21/14 A2991 RMK AO2 SLP134 CB DSNT SE T02060139 10206 20178 56012 $,2025-09-10T00:12:47Z,2025-09-09T20:12:47Z
KSEA,"Seattle-Tacoma Intl, WA, US",2025-09-10T00:53:00Z,2025-09-09T20:53:00Z,VFR,21.1,13.3,280,5,0,NA,1013.3,METAR KSEA 100053Z 28005KT 10SM FEW030 SCT160 BKN200 21/13 A2992 RMK AO2 SLP135 CB DSNT SE T02110133 $,2025-09-10T01:11:41Z,2025-09-09T21:11:41Z
KSFB,"Sanford Intl, FL, US",2025-09-09T23:53:00Z,2025-09-09T19:53:00Z,IFR,24.4,23.9,340,4,0,NA,1014.3,METAR KSFB 092353Z 34004KT 10SM BKN006 BKN028 BKN090 24/24 A2995 RMK AO1 RAE45 CIG 005V013 SLP140 P0005 60130 T02440239 10300 20239 53001,2025-09-10T00:12:47Z,2025-09-09T20:12:47Z
KSFB,"Sanford Intl, FL, US",2025-09-10T00:29:00Z,2025-09-09T20:29:00Z,VFR,23.9,23.9,340,8,0,NA,1014.6,SPECI KSFB 100029Z 34008KT 10SM SCT006 SCT014 BKN065 24/24 A2996 RMK AO1 P0001 T02390239,2025-09-10T00:33:31Z,2025-09-09T20:33:31Z
KSFB,"Sanford Intl, FL, US",2025-09-10T00:53:00Z,2025-09-09T20:53:00Z,VFR,23.9,23.3,350,8,0,NA,1015,METAR KSFB 100053Z 35008KT 10SM SCT007 BKN065 OVC100 24/23 A2997 RMK AO1 SLP146 P0001 T02390233,2025-09-10T01:11:41Z,2025-09-09T21:11:41Z
KSFF,"Spokane/Felts Fld, WA, US",2025-09-09T23:53:00Z,2025-09-09T19:53:00Z,VFR,29.4,9.4,280,4,0,NA,1008.9,METAR KSFF 092353Z 28004KT 10SM CLR 29/09 A2979 RMK AO2 SLP071 T02940094 10306 20250 56020,2025-09-10T00:12:47Z,2025-09-09T20:12:47Z
KSFF,"Spokane/Felts Fld, WA, US",2025-09-10T00:53:00Z,2025-09-09T20:53:00Z,VFR,28.9,9.4,VAR,5,0,NA,1008.5,METAR KSFF 100053Z VRB05KT 10SM CLR 29/09 A2978 RMK AO2 SLP067 T02890094,2025-09-10T01:11:41Z,2025-09-09T21:11:41Z
KSFO,"San Francisco Intl, CA, US",2025-09-09T15:10:00Z,2025-09-09T11:10:00Z,VFR,18.9,17.2,150,4,0,NA,1014.3,SPECI KSFO 091510Z 15004KT 10SM FEW006 SCT013 BKN035 19/17 A2995 RMK AO2 T01890172 $,2025-09-09T15:51:32Z,2025-09-09T11:51:32Z
KSFO,"San Francisco Intl, CA, US",2025-09-09T15:56:00Z,2025-09-09T11:56:00Z,VFR,19.4,17.2,0,0,0,NA,1014,METAR KSFO 091556Z 00000KT 10SM FEW006 SCT017 BKN043 19/17 A2994 RMK AO2 SLP140 T01940172 $,2025-09-09T16:06:05Z,2025-09-09T12:06:05Z
KSFO,"San Francisco Intl, CA, US",2025-09-09T16:39:00Z,2025-09-09T12:39:00Z,MVFR,20,16.7,230,8,0,NA,1014.3,SPECI KSFO 091639Z 23008KT 10SM FEW005 BKN018 OVC040 20/17 A2995 RMK AO2 T02000167 $,2025-09-09T16:54:06Z,2025-09-09T12:54:06Z
KSFO,"San Francisco Intl, CA, US",2025-09-09T16:56:00Z,2025-09-09T12:56:00Z,MVFR,20,16.1,230,9,0,NA,1014.3,METAR KSFO 091656Z 23009KT 10SM FEW005 BKN018 OVC038 20/16 A2995 RMK AO2 SLP142 T02000161 $,2025-09-09T17:12:57Z,2025-09-09T13:12:57Z
KSFO,"San Francisco Intl, CA, US",2025-09-09T17:29:00Z,2025-09-09T13:29:00Z,VFR,20,17.2,170,4,0,NA,1014.3,SPECI KSFO 091729Z 17004KT 10SM FEW006 SCT024 BKN042 20/17 A2995 RMK AO2 RAB08E22 P0000 T02000172 $,2025-09-09T17:41:40Z,2025-09-09T13:41:40Z
KSFO,"San Francisco Intl, CA, US",2025-09-09T17:56:00Z,2025-09-09T13:56:00Z,VFR,20.6,16.7,240,6,0,NA,1014,METAR KSFO 091756Z 24006KT 10SM FEW006 SCT022 BKN037 21/17 A2994 RMK AO2 RAB08E22 SLP140 P0000 60002 T02060167 10206 20178 58001 $,2025-09-09T18:09:23Z,2025-09-09T14:09:23Z
KSFO,"San Francisco Intl, CA, US",2025-09-09T18:56:00Z,2025-09-09T14:56:00Z,VFR,21.7,15,190,7,0,NA,1014,METAR KSFO 091856Z 19007KT 10SM FEW006 SCT023 BKN037 22/15 A2994 RMK AO2 SLP139 T02170150 $,2025-09-09T19:00:59Z,2025-09-09T15:00:59Z
KSFO,"San Francisco Intl, CA, US",2025-09-09T19:56:00Z,2025-09-09T15:56:00Z,VFR,22.2,15,210,6,0,NA,1013.6,METAR KSFO 091956Z 21006KT 10SM FEW009 SCT024 BKN036 22/15 A2993 RMK AO2 SLP135 CB DSNT NE T02220150 $,2025-09-09T20:10:19Z,2025-09-09T16:10:19Z
KSFO,"San Francisco Intl, CA, US",2025-09-09T20:56:00Z,2025-09-09T16:56:00Z,VFR,22.2,15,210,12,0,NA,1013.6,METAR KSFO 092056Z 21012KT 10SM FEW009 SCT027 BKN034 22/15 A2993 RMK AO2 SLP134 CB DSNT NE T02220150 58006 $,2025-09-09T21:12:46Z,2025-09-09T17:12:46Z
KSFO,"San Francisco Intl, CA, US",2025-09-09T21:14:00Z,2025-09-09T17:14:00Z,MVFR,22.2,15,220,11,0,NA,1013.3,SPECI KSFO 092114Z 22011KT 10SM FEW009 BKN028 BKN034 22/15 A2992 RMK AO2 T02220150 $,2025-09-09T21:28:23Z,2025-09-09T17:28:23Z
KSFO,"San Francisco Intl, CA, US",2025-09-09T21:56:00Z,2025-09-09T17:56:00Z,MVFR,22.2,15.6,240,11,0,NA,1013,METAR KSFO 092156Z 24011KT 10SM FEW009 BKN029 BKN034 22/16 A2991 RMK AO2 SLP128 T02220156 $,2025-09-09T22:00:15Z,2025-09-09T18:00:15Z
KSFO,"San Francisco Intl, CA, US",2025-09-09T22:56:00Z,2025-09-09T18:56:00Z,MVFR,21.1,16.1,220,11,0,NA,1012.6,METAR KSFO 092256Z 22011KT 10SM FEW009 BKN024 21/16 A2990 RMK AO2 SLP125 T02110161 $,2025-09-09T23:21:19Z,2025-09-09T19:21:19Z
KSFO,"San Francisco Intl, CA, US",2025-09-09T23:56:00Z,2025-09-09T19:56:00Z,MVFR,21.7,15.6,260,10,16,NA,1012.3,METAR KSFO 092356Z 26010G16KT 10SM FEW009 BKN023 BKN031 22/16 A2989 RMK AO2 SLP122 T02170156 10228 20206 56012 $,2025-09-10T00:12:46Z,2025-09-09T20:12:46Z
KSFO,"San Francisco Intl, CA, US",2025-09-10T00:56:00Z,2025-09-09T20:56:00Z,MVFR,20.6,15.6,260,9,0,NA,1011.9,METAR KSFO 100056Z 26009KT 10SM FEW009 BKN029 BKN031 21/16 A2988 RMK AO2 SLP119 T02060156 $,2025-09-10T01:11:41Z,2025-09-09T21:11:41Z
KSGF,"Springfield Muni, MO, US",2025-09-09T23:52:00Z,2025-09-09T19:52:00Z,VFR,25.6,7.2,90,4,0,NA,1016.3,METAR KSGF 092352Z 09004KT 10SM CLR 26/07 A3001 RMK AO2 SLP152 T02560072 10278 20233 55003,2025-09-10T00:12:47Z,2025-09-09T20:12:47Z
KSGF,"Springfield Muni, MO, US",2025-09-10T00:52:00Z,2025-09-09T20:52:00Z,VFR,22.8,8.3,340,5,0,NA,1016.7,METAR KSGF 100052Z 34005KT 10SM CLR 23/08 A3002 RMK AO2 SLP158 T02280083,2025-09-10T01:11:41Z,2025-09-09T21:11:41Z
KSGH,"Springfield Muni, OH, US",2025-09-09T23:56:00Z,2025-09-09T19:56:00Z,VFR,18.9,10.6,100,3,0,NA,1021.1,METAR KSGH 092356Z AUTO 10003KT 10SM CLR 19/11 A3015 RMK AO2 SLP211 T01890106 10244 20189 55003,2025-09-10T00:12:46Z,2025-09-09T20:12:46Z
KSGH,"Springfield Muni, OH, US",2025-09-10T00:56:00Z,2025-09-09T20:56:00Z,VFR,15.6,10,0,0,0,NA,1021.4,METAR KSGH 100056Z AUTO 00000KT 10SM CLR 16/10 A3016 RMK AO2 SLP214 T01560100,2025-09-10T01:11:41Z,2025-09-09T21:11:41Z
KSGJ,"St Augustine Arpt, FL, US",2025-09-09T23:56:00Z,2025-09-09T19:56:00Z,MVFR,25.6,22.2,30,16,22,NA,1016,METAR KSGJ 092356Z 03016G22KT 10SM OVC019 26/22 A3000 RMK AO2 SLPNO 60000 T02560222 51008 $,2025-09-10T00:12:46Z,2025-09-09T20:12:46Z
KSGJ,"St Augustine Arpt, FL, US",2025-09-10T00:56:00Z,2025-09-09T20:56:00Z,MVFR,25.6,22.2,20,18,23,NA,1016,METAR KSGJ 100056Z AUTO 02018G23KT 10SM OVC019 26/22 A3000 RMK AO2 SLPNO T02560222 $,2025-09-10T01:11:41Z,2025-09-09T21:11:41Z
KSGR,"Houston/Sugar Land Rgnl, TX, US",2025-09-09T23:53:00Z,2025-09-09T19:53:00Z,VFR,30,11.7,110,4,0,NA,1014.3,METAR KSGR 092353Z 11004KT 10SM CLR 30/12 A2995 RMK AO2 SLP144 T03000117 10328 20300 55002,2025-09-10T00:12:47Z,2025-09-09T20:12:47Z
KSGR,"Houston/Sugar Land Rgnl, TX, US",2025-09-10T00:53:00Z,2025-09-09T20:53:00Z,VFR,23.3,17.2,0,0,0,NA,1014.6,METAR KSGR 100053Z 00000KT 10SM CLR 23/17 A2996 RMK AO2 SLP148 T02330172,2025-09-10T01:11:41Z,2025-09-09T21:11:41Z
KSGU,"Saint George Muni, UT, US",2025-09-09T23:56:00Z,2025-09-09T19:56:00Z,VFR,35,2.8,230,20,0,NA,1007.9,METAR KSGU 092356Z AUTO 23020KT 10SM CLR 35/03 A2976 RMK AO2 SLP038 T03500028 10361 20317 56018,2025-09-10T00:12:46Z,2025-09-09T20:12:46Z
KSGU,"Saint George Muni, UT, US",2025-09-10T00:56:00Z,2025-09-09T20:56:00Z,VFR,33.9,3.3,240,17,0,NA,1007.9,METAR KSGU 100056Z AUTO 24017KT 10SM CLR 34/03 A2976 RMK AO2 SLP038 T03390033,2025-09-10T01:11:41Z,2025-09-09T21:11:41Z
KSHD,"Staunton/Shenandoah Valley Rgnl, VA, US",2025-09-09T23:55:00Z,2025-09-09T19:55:00Z,VFR,17.6,8.1,0,0,0,NA,1023.8,METAR KSHD 092355Z AUTO 00000KT 10SM CLR 18/08 A3023 RMK AO2 T01760081 10238 20176,2025-09-10T00:12:46Z,2025-09-09T20:12:46Z
KSHD,"Staunton/Shenandoah Valley Rgnl, VA, US",2025-09-10T00:15:00Z,2025-09-09T20:15:00Z,VFR,16.5,8,0,0,0,NA,1023.8,METAR KSHD 100015Z AUTO 00000KT 10SM CLR 17/08 A3023 RMK AO2 T01650080,2025-09-10T00:33:31Z,2025-09-09T20:33:31Z
KSHD,"Staunton/Shenandoah Valley Rgnl, VA, US",2025-09-10T00:55:00Z,2025-09-09T20:55:00Z,VFR,14.4,8.2,0,0,0,NA,1024.1,METAR KSHD 100055Z AUTO 00000KT 10SM CLR 14/08 A3024 RMK AO2 T01440082,2025-09-10T01:11:41Z,2025-09-09T21:11:41Z
KSHR,"Sheridan Cnty Arpt, WY, US",2025-09-09T23:53:00Z,2025-09-09T19:53:00Z,VFR,26.1,5,170,6,0,NA,1013.6,METAR KSHR 092353Z AUTO 17006KT 10SM CLR 26/05 A2993 RMK AO2 RAE2256 SLP109 P0000 60000 T02610050 10294 20250 58012,2025-09-10T00:12:47Z,2025-09-09T20:12:47Z
KSHR,"Sheridan Cnty Arpt, WY, US",2025-09-10T00:53:00Z,2025-09-09T20:53:00Z,VFR,23.9,6.1,70,3,0,NA,1013.6,METAR KSHR 100053Z AUTO 07003KT 10SM CLR 24/06 A2993 RMK AO2 SLP114 T02390061,2025-09-10T01:11:41Z,2025-09-09T21:11:41Z
KSHV,"Shreveport Rgnl, LA, US",2025-09-09T23:56:00Z,2025-09-09T19:56:00Z,VFR,29,16,80,3,0,NA,1015.7,METAR KSHV 092356Z 08003KT 10SM CLR 29/16 A2999 RMK SLPNO,2025-09-10T00:12:46Z,2025-09-09T20:12:46Z
KSHV,"Shreveport Rgnl, LA, US",2025-09-10T00:56:00Z,2025-09-09T20:56:00Z,VFR,26,17,0,0,0,NA,1015.7,METAR KSHV 100056Z 00000KT 10SM CLR 26/17 A2999 RMK SLPNO,2025-09-10T01:11:41Z,2025-09-09T21:11:41Z
KSJC,"San Jose Intl Arpt, CA, US",2025-09-09T14:53:00Z,2025-09-09T10:53:00Z,VFR,19.4,15.6,130,5,0,NA,1014.3,METAR KSJC 091453Z 13005KT 10SM FEW010 SCT025 SCT035 19/16 A2995 RMK AO2 SLP141 TCU DSNT SE T01940156 55001,2025-09-09T15:51:32Z,2025-09-09T11:51:32Z
KSJC,"San Jose Intl Arpt, CA, US",2025-09-09T15:53:00Z,2025-09-09T11:53:00Z,VFR,20.6,13.9,180,3,0,NA,1014.3,METAR KSJC 091553Z 18003KT 10SM FEW010 SCT023 BKN042 21/14 A2995 RMK AO2 SLP143 TCU DSNT SE T02060139,2025-09-09T16:06:05Z,2025-09-09T12:06:05Z
KSJC,"San Jose Intl Arpt, CA, US",2025-09-09T16:53:00Z,2025-09-09T12:53:00Z,MVFR,20.6,14.4,0,0,0,NA,1014.6,METAR KSJC 091653Z 00000KT 10SM -RA FEW010 BKN030 BKN045 21/14 A2996 RMK AO2 RAB46 SLP143 TCU DSNT SE AND NW P0000 T02060144,2025-09-09T17:12:57Z,2025-09-09T13:12:57Z
KSJC,"San Jose Intl Arpt, CA, US",2025-09-09T17:53:00Z,2025-09-09T13:53:00Z,MVFR,22.8,14.4,0,0,0,NA,1014,METAR KSJC 091753Z 00000KT 10SM FEW010 BKN030 BKN045 23/14 A2994 RMK AO2 RAE1657 SLP139 P0000 60000 T02280144 10228 20183 58002,2025-09-09T18:09:23Z,2025-09-09T14:09:23Z
KSJC,"San Jose Intl Arpt, CA, US",2025-09-09T18:53:00Z,2025-09-09T14:53:00Z,VFR,22.8,13.9,230,5,0,NA,1014,METAR KSJC 091853Z 23005KT 10SM FEW010 BKN035 BKN050 23/14 A2994 RMK AO2 SLP137 T02280139,2025-09-09T19:00:59Z,2025-09-09T15:00:59Z
KSJC,"San Jose Intl Arpt, CA, US",2025-09-09T19:53:00Z,2025-09-09T15:53:00Z,MVFR,23.9,14.4,VAR,5,0,NA,1013.3,METAR KSJC 091953Z VRB05KT 10SM FEW010 BKN030 BKN060 24/14 A2992 RMK AO2 SLP132 T02390144,2025-09-09T20:10:19Z,2025-09-09T16:10:19Z
KSJC,"San Jose Intl Arpt, CA, US",2025-09-09T20:53:00Z,2025-09-09T16:53:00Z,VFR,23.9,15,260,5,0,NA,1013,METAR KSJC 092053Z 26005KT 10SM SCT034 BKN060 BKN080 24/15 A2991 RMK AO2 SLP128 T02390150 58011,2025-09-09T21:12:46Z,2025-09-09T17:12:46Z
KSJC,"San Jose Intl Arpt, CA, US",2025-09-09T21:53:00Z,2025-09-09T17:53:00Z,VFR,23.9,14.4,340,9,0,NA,1012.3,METAR KSJC 092153Z 34009KT 10SM SCT042 BKN060 BKN080 24/14 A2989 RMK AO2 SLP122 T02390144,2025-09-09T22:00:15Z,2025-09-09T18:00:15Z
KSJC,"San Jose Intl Arpt, CA, US",2025-09-09T22:53:00Z,2025-09-09T18:53:00Z,VFR,25,15,330,8,0,NA,1011.9,METAR KSJC 092253Z 33008KT 10SM FEW043 BKN060 BKN080 25/15 A2988 RMK AO2 SLP116 T02500150,2025-09-09T22:58:34Z,2025-09-09T18:58:34Z
KSJC,"San Jose Intl Arpt, CA, US",2025-09-09T23:53:00Z,2025-09-09T19:53:00Z,VFR,23.9,14.4,340,16,24,NA,1011.3,METAR KSJC 092353Z 34016G24KT 10SM FEW043 BKN065 BKN085 24/14 A2986 RMK AO2 SLP112 T02390144 10256 20222 56016,2025-09-10T00:12:47Z,2025-09-09T20:12:47Z
KSJC,"San Jose Intl Arpt, CA, US",2025-09-10T00:53:00Z,2025-09-09T20:53:00Z,VFR,23.3,13.9,330,12,0,NA,1011.3,METAR KSJC 100053Z 33012KT 10SM FEW045 BKN060 BKN085 23/14 A2986 RMK AO2 SLP111 TCU DSNT NE AND SW T02330139,2025-09-10T01:11:41Z,2025-09-09T21:11:41Z
KSJT,"San Angelo/Mathis Fld, TX, US",2025-09-09T23:51:00Z,2025-09-09T19:51:00Z,VFR,30,16.7,190,9,0,NA,1015,METAR KSJT 092351Z 19009KT 10SM CLR 30/17 A2997 RMK AO2 SLP129 T03000167 10322 20289 56005,2025-09-10T00:12:48Z,2025-09-09T20:12:48Z
KSJT,"San Angelo/Mathis Fld, TX, US",2025-09-10T00:51:00Z,2025-09-09T20:51:00Z,VFR,27.8,16.7,180,7,0,NA,1015.3,METAR KSJT 100051Z 18007KT 10SM CLR 28/17 A2998 RMK AO2 SLP132 T02780167,2025-09-10T01:11:41Z,2025-09-09T21:11:41Z
KSKA,"Spokane/Fairchild AFB, WA, US",2025-09-09T23:55:00Z,2025-09-09T19:55:00Z,VFR,27.7,7.5,100,4,0,NA,1009.6,METAR KSKA 092355Z 10004KT 10SM SCT200 28/08 A2981 RMK AO2A SLP075 T02770075 10281 20238 57018 $,2025-09-10T00:12:47Z,2025-09-09T20:12:47Z
KSKA,"Spokane/Fairchild AFB, WA, US",2025-09-10T00:55:00Z,2025-09-09T20:55:00Z,VFR,27.6,7.9,320,7,0,NA,1009.2,METAR KSKA 100055Z 32007KT 10SM SCT200 28/08 A2980 RMK AO2A SLP072 T02760079 $,2025-09-10T01:11:41Z,2025-09-09T21:11:41Z
KSKF,"Lackland AFB/Kelly Fld, TX, US",2025-09-09T23:55:00Z,2025-09-09T19:55:00Z,VFR,32.7,12.8,40,5,0,9,1013,METAR KSKF 092355Z 04005KT 9SM CLR 33/13 A2991 RMK AO2A SLP121 T03270128 10337 20302 57010,2025-09-10T00:12:46Z,2025-09-09T20:12:46Z
KSKF,"Lackland AFB/Kelly Fld, TX, US",2025-09-10T00:55:00Z,2025-09-09T20:55:00Z,VFR,31,12.8,40,6,0,NA,1013.3,METAR KSKF 100055Z 04006KT 10SM CLR 31/13 A2992 RMK AO2A SLP125 T03100128,2025-09-10T01:11:41Z,2025-09-09T21:11:41Z
KSLC,"Salt Lake City Intl, UT, US",2025-09-09T14:54:00Z,2025-09-09T10:54:00Z,VFR,25,7.2,130,9,0,NA,1014.3,METAR KSLC 091454Z 13009KT 10SM FEW120 SCT190 BKN230 25/07 A2995 RMK AO2 SLP088 ACSL DSNT SE T02500072 58001 $,2025-09-09T15:51:30Z,2025-09-09T11:51:30Z
KSLC,"Salt Lake City Intl, UT, US",2025-09-09T15:54:00Z,2025-09-09T11:54:00Z,VFR,27.2,6.7,160,19,25,NA,1014.3,METAR KSLC 091554Z 16019G25KT 10SM FEW085 FEW120 BKN190 BKN230 27/07 A2995 RMK AO2 SLP083 T02720067 $,2025-09-09T16:06:03Z,2025-09-09T12:06:03Z
KSLC,"Salt Lake City Intl, UT, US",2025-09-09T16:54:00Z,2025-09-09T12:54:00Z,VFR,27.8,6.1,170,14,24,NA,1014.6,METAR KSLC 091654Z 17014G24KT 10SM FEW095 FEW130 BKN230 28/06 A2996 RMK AO2 PK WND 16026/1610 SLP088 T02780061 $,2025-09-09T17:12:54Z,2025-09-09T13:12:54Z
KSLC,"Salt Lake City Intl, UT, US",2025-09-09T17:54:00Z,2025-09-09T13:54:00Z,VFR,27.8,3.9,170,15,25,NA,1014,METAR KSLC 091754Z 17015G25KT 10SM FEW095 FEW140 BKN230 28/04 A2994 RMK AO2 SLP081 T02780039 10278 20222 58002 $,2025-09-09T18:09:21Z,2025-09-09T14:09:21Z
KSLC,"Salt Lake City Intl, UT, US",2025-09-09T18:54:00Z,2025-09-09T14:54:00Z,VFR,29.4,4.4,160,16,26,NA,1013.6,METAR KSLC 091854Z 16016G26KT 10SM FEW095 FEW140 BKN230 29/04 A2993 RMK AO2 PK WND 17027/1829 SLP072 T02940044 $,2025-09-09T19:00:57Z,2025-09-09T15:00:57Z
KSLC,"Salt Lake City Intl, UT, US",2025-09-09T19:54:00Z,2025-09-09T15:54:00Z,VFR,28.9,4.4,160,16,0,NA,1013,METAR KSLC 091954Z 16016KT 10SM FEW095 FEW140 BKN230 29/04 A2991 RMK AO2 SLP070 ACSL DSNT E T02890044 $,2025-09-09T20:10:18Z,2025-09-09T16:10:18Z
KSLC,"Salt Lake City Intl, UT, US",2025-09-09T20:54:00Z,2025-09-09T16:54:00Z,VFR,30,4.4,160,11,0,NA,1011.9,METAR KSLC 092054Z 16011KT 10SM FEW095 FEW140 BKN220 30/04 A2988 RMK AO2 SLP057 ACSL DSNT ALQDS T03000044 58020 $,2025-09-09T21:12:45Z,2025-09-09T17:12:45Z
KSLC,"Salt Lake City Intl, UT, US",2025-09-09T21:54:00Z,2025-09-09T17:54:00Z,VFR,31.1,2.8,170,13,25,NA,1010.9,METAR KSLC 092154Z 17013G25KT 10SM FEW100 FEW140 BKN220 31/03 A2985 RMK AO2 PK WND 18028/2137 SLP047 VIRGA ACSL DSNT N AND SE AND S AND SW T03110028 $,2025-09-09T22:00:10Z,2025-09-09T18:00:10Z
KSLC,"Salt Lake City Intl, UT, US",2025-09-09T22:54:00Z,2025-09-09T18:54:00Z,VFR,31.1,2.2,160,12,19,NA,1010.2,METAR KSLC 092254Z 16012G19KT 10SM FEW100 FEW140 BKN220 31/02 A2983 RMK AO2 SLP040 ACSL DSNT S AND SW T03110022 $,2025-09-09T22:58:33Z,2025-09-09T18:58:33Z
KSLC,"Salt Lake City Intl, UT, US",2025-09-09T23:54:00Z,2025-09-09T19:54:00Z,VFR,30.6,0.6,160,11,16,NA,1009.9,METAR KSLC 092354Z 16011G16KT 10SM FEW100 SCT150 BKN220 31/01 A2982 RMK AO2 SLP035 VIRGA ACSL DSNT NE AND SW T03060006 10317 20278 56017,2025-09-10T00:12:47Z,2025-09-09T20:12:47Z
KSLC,"Salt Lake City Intl, UT, US",2025-09-10T00:54:00Z,2025-09-09T20:54:00Z,VFR,28.9,1.1,160,6,0,NA,1009.6,METAR KSLC 100054Z 16006KT 10SM FEW100 SCT150 BKN220 29/01 A2981 RMK AO2 SLP034 VIRGA TCU DSNT W ACSL DSNT N AND SW T02890011,2025-09-10T01:11:41Z,2025-09-09T21:11:41Z
KSLE,"Salem Muni, OR, US",2025-09-09T23:56:00Z,2025-09-09T19:56:00Z,VFR,24.4,13.3,350,3,0,NA,1011.3,METAR KSLE 092356Z 35003KT 10SM FEW100 24/13 A2986 RMK AO2 SLP111 T02440133 10250 20189 56015,2025-09-10T00:12:46Z,2025-09-09T20:12:46Z
KSLE,"Salem Muni, OR, US",2025-09-10T00:56:00Z,2025-09-09T20:56:00Z,VFR,21.7,16.7,160,10,0,NA,1011.3,METAR KSLE 100056Z 16010KT 10SM -RA BKN095 BKN110 22/17 A2986 RMK AO2 LTG DSNT S AND SW RAB45 SLP110 P0000 T02170167,2025-09-10T01:11:41Z,2025-09-09T21:11:41Z
KSLI,"Los Alamitos AAF, CA, US",2025-09-09T23:55:00Z,2025-09-09T19:55:00Z,VFR,24.6,16,220,11,0,NA,1009.2,METAR KSLI 092355Z 22011KT 10SM FEW010 25/16 A2980 RMK AO2A SLP094 T02460160 10263 20237 57017,2025-09-10T00:12:46Z,2025-09-09T20:12:46Z
KSLI,"Los Alamitos AAF, CA, US",2025-09-10T00:55:00Z,2025-09-09T20:55:00Z,VFR,23.8,17,210,9,0,NA,1009.2,METAR KSLI 100055Z 21009KT 10SM FEW010 24/17 A2980 RMK AO2A SLP094 T02380170,2025-09-10T01:11:41Z,2025-09-09T21:11:41Z
KSLK,"Saranac Lake/Adirondack Rgnl, NY, US",2025-09-09T23:51:00Z,2025-09-09T19:51:00Z,VFR,11.7,8.9,0,0,0,NA,1025.8,METAR KSLK 092351Z AUTO 00000KT 10SM CLR 12/09 A3029 RMK AO2 SLP267 T01170089 10211 20117 53001,2025-09-10T00:12:48Z,2025-09-09T20:12:48Z
KSLK,"Saranac Lake/Adirondack Rgnl, NY, US",2025-09-10T00:51:00Z,2025-09-09T20:51:00Z,VFR,8.9,7.8,0,0,0,NA,1025.8,METAR KSLK 100051Z AUTO 00000KT 10SM CLR 09/08 A3029 RMK AO2 SLP265 T00890078,2025-09-10T01:11:41Z,2025-09-09T21:11:41Z
KSLN,"Salina Rgnl, KS, US",2025-09-09T23:53:00Z,2025-09-09T19:53:00Z,VFR,26.1,18.9,160,6,0,NA,1014,METAR KSLN 092353Z 16006KT 10SM CLR 26/19 A2994 RMK AO2 SLP127 T02610189 10272 20239 57006,2025-09-10T00:12:47Z,2025-09-09T20:12:47Z
KSLN,"Salina Rgnl, KS, US",2025-09-10T00:53:00Z,2025-09-09T20:53:00Z,VFR,25.6,18.9,0,0,0,NA,1014,METAR KSLN 100053Z 00000KT 10SM CLR 26/19 A2994 RMK AO2 SLP130 T02560189,2025-09-10T01:11:41Z,2025-09-09T21:11:41Z
KSME,"Somerset/Lake Cumberland Rgnl, KY, US",2025-09-09T23:55:00Z,2025-09-09T19:55:00Z,VFR,23,13,0,0,0,NA,1019.4,METAR KSME 092355Z AUTO 00000KT 10SM FEW060 23/13 A3010 RMK AO2,2025-09-10T00:12:46Z,2025-09-09T20:12:46Z
KSME,"Somerset/Lake Cumberland Rgnl, KY, US",2025-09-10T00:15:00Z,2025-09-09T20:15:00Z,VFR,22,14,0,0,0,NA,1019.4,METAR KSME 100015Z AUTO 00000KT 10SM CLR 22/14 A3010 RMK AO2,2025-09-10T00:33:31Z,2025-09-09T20:33:31Z
KSME,"Somerset/Lake Cumberland Rgnl, KY, US",2025-09-10T00:55:00Z,2025-09-09T20:55:00Z,VFR,19,15,0,0,0,NA,1019.4,METAR KSME 100055Z AUTO 00000KT 10SM FEW060 19/15 A3010 RMK AO2,2025-09-10T01:11:41Z,2025-09-09T21:11:41Z
KSMF,"Sacramento Intl, CA, US",2025-09-09T23:53:00Z,2025-09-09T19:53:00Z,VFR,25,12.8,190,8,0,NA,1010.2,METAR KSMF 092353Z 19008KT 10SM BKN180 25/13 A2983 RMK AO2 SLP100 T02500128 10261 20228 56017,2025-09-10T00:12:47Z,2025-09-09T20:12:47Z
KSMF,"Sacramento Intl, CA, US",2025-09-10T00:53:00Z,2025-09-09T20:53:00Z,VFR,23.9,13.9,190,9,0,NA,1009.9,METAR KSMF 100053Z 19009KT 10SM BKN180 24/14 A2982 RMK AO2 SLP097 T02390139,2025-09-10T01:11:41Z,2025-09-09T21:11:41Z
KSMN,"Salmon/Lemhi Cnty, ID, US",2025-09-09T23:56:00Z,2025-09-09T19:56:00Z,VFR,16.7,8.3,240,11,19,NA,1017,METAR KSMN 092356Z AUTO 24011G19KT 10SM -RA OVC080 17/08 A3003 RMK AO2 PK WND 26028/2312 LTG DSNT E AND SE RAB06 PRESRR SLP154 P0000 60000 T01670083 10239 20167 53032,2025-09-10T00:12:46Z,2025-09-09T20:12:46Z
KSMN,"Salmon/Lemhi Cnty, ID, US",2025-09-10T00:56:00Z,2025-09-09T20:56:00Z,VFR,13.9,10.6,VAR,3,0,NA,1018,METAR KSMN 100056Z AUTO VRB03KT 10SM -RA OVC080 14/11 A3006 RMK AO2 LTG DSNT NE AND E SLP164 P0003 T01390106,2025-09-10T01:11:41Z,2025-09-09T21:11:41Z
KSMO,"Santa Monica Muni, CA, US",2025-09-09T14:51:00Z,2025-09-09T10:51:00Z,MVFR,20,16.7,0,0,0,NA,1014.3,METAR KSMO 091451Z 00000KT 10SM OVC014 20/17 A2995 RMK AO2 SLP139 T02000167 53008,2025-09-09T15:51:32Z,2025-09-09T11:51:32Z
KSMO,"Santa Monica Muni, CA, US",2025-09-09T15:51:00Z,2025-09-09T11:51:00Z,MVFR,20.6,17.2,190,4,0,NA,1014.6,METAR KSMO 091551Z 19004KT 10SM OVC014 21/17 A2996 RMK AO2 SLP144 T02060172,2025-09-09T16:06:05Z,2025-09-09T12:06:05Z
KSMO,"Santa Monica Muni, CA, US",2025-09-09T16:51:00Z,2025-09-09T12:51:00Z,MVFR,21.1,16.7,VAR,4,0,NA,1014.6,METAR KSMO 091651Z VRB04KT 10SM OVC020 21/17 A2996 RMK AO2 SLP143 T02110167,2025-09-09T16:54:06Z,2025-09-09T12:54:06Z
KSMO,"Santa Monica Muni, CA, US",2025-09-09T17:51:00Z,2025-09-09T13:51:00Z,VFR,22.8,16.7,210,6,0,NA,1014.3,METAR KSMO 091751Z 21006KT 10SM SCT024 23/17 A2995 RMK AO2 SLP140 T02280167 10228 20189 50001,2025-09-09T18:09:23Z,2025-09-09T14:09:23Z
KSMO,"Santa Monica Muni, CA, US",2025-09-09T18:51:00Z,2025-09-09T14:51:00Z,VFR,23.3,16.1,220,8,0,NA,1014,METAR KSMO 091851Z 22008KT 10SM CLR 23/16 A2994 RMK AO2 SLP136 T02330161,2025-09-09T19:00:59Z,2025-09-09T15:00:59Z
KSMO,"Santa Monica Muni, CA, US",2025-09-09T19:51:00Z,2025-09-09T15:51:00Z,VFR,23.3,16.1,210,8,0,NA,1013.3,METAR KSMO 091951Z 21008KT 10SM CLR 23/16 A2992 RMK AO2 SLP129 T02330161,2025-09-09T20:10:19Z,2025-09-09T16:10:19Z
KSMO,"Santa Monica Muni, CA, US",2025-09-09T20:51:00Z,2025-09-09T16:51:00Z,VFR,23.9,16.7,210,10,16,NA,1013,METAR KSMO 092051Z 21010G16KT 10SM CLR 24/17 A2991 RMK AO2 SLP125 T02390167 57015,2025-09-09T20:54:03Z,2025-09-09T16:54:03Z
KSMO,"Santa Monica Muni, CA, US",2025-09-09T21:51:00Z,2025-09-09T17:51:00Z,VFR,23.3,16.1,220,9,17,NA,1011.9,METAR KSMO 092151Z 22009G17KT 10SM CLR 23/16 A2988 RMK AO2 SLP117 T02330161,2025-09-09T22:00:15Z,2025-09-09T18:00:15Z
KSMO,"Santa Monica Muni, CA, US",2025-09-09T22:51:00Z,2025-09-09T18:51:00Z,VFR,23.3,16.7,220,10,15,NA,1011.3,METAR KSMO 092251Z 22010G15KT 10SM CLR 23/17 A2986 RMK AO2 SLP110 T02330167,2025-09-09T22:58:34Z,2025-09-09T18:58:34Z
KSMO,"Santa Monica Muni, CA, US",2025-09-09T23:51:00Z,2025-09-09T19:51:00Z,VFR,22.2,17.2,220,9,0,NA,1010.9,METAR KSMO 092351Z 22009KT 10SM SCT015 22/17 A2985 RMK AO2 SLP106 T02220172 10239 20222 56019,2025-09-10T00:12:48Z,2025-09-09T20:12:48Z
KSMO,"Santa Monica Muni, CA, US",2025-09-10T00:51:00Z,2025-09-09T20:51:00Z,VFR,21.7,17.2,220,8,0,NA,1010.6,METAR KSMO 100051Z 22008KT 10SM FEW015 22/17 A2984 RMK AO2 SLP104 T02170172,2025-09-10T01:11:41Z,2025-09-09T21:11:41Z
KSMX,"Santa Maria/Hancock Fld, CA, US",2025-09-09T23:51:00Z,2025-09-09T19:51:00Z,VFR,21.7,15.6,290,17,24,NA,1012.3,METAR KSMX 092351Z 29017G24KT 10SM FEW012 SCT050 22/16 A2989 RMK AO2 SLP122 T02170156 10244 20217 56014 $,2025-09-10T00:12:48Z,2025-09-09T20:12:48Z
KSMX,"Santa Maria/Hancock Fld, CA, US",2025-09-10T00:51:00Z,2025-09-09T20:51:00Z,VFR,20.6,16.7,290,13,0,NA,1012.3,METAR KSMX 100051Z 29013KT 10SM SCT013 21/17 A2989 RMK AO2 SLP124 T02060167 $,2025-09-10T01:11:41Z,2025-09-09T21:11:41Z
KSNA,"Santa Ana/Wayne Arpt, CA, US",2025-09-09T14:53:00Z,2025-09-09T10:53:00Z,MVFR,20.6,16.1,110,6,0,NA,1014,METAR KSNA 091453Z 11006KT 10SM OVC019 21/16 A2994 RMK AO2 SLP139 T02060161 51006,2025-09-09T15:51:32Z,2025-09-09T11:51:32Z
KSNA,"Santa Ana/Wayne Arpt, CA, US",2025-09-09T15:53:00Z,2025-09-09T11:53:00Z,MVFR,20.6,16.1,130,5,0,NA,1014.3,METAR KSNA 091553Z 13005KT 10SM BKN020 21/16 A2995 RMK AO2 SLP141 T02060161,2025-09-09T16:06:05Z,2025-09-09T12:06:05Z
KSNA,"Santa Ana/Wayne Arpt, CA, US",2025-09-09T16:53:00Z,2025-09-09T12:53:00Z,MVFR,21.1,15.6,VAR,4,0,NA,1014.6,METAR KSNA 091653Z VRB04KT 10SM BKN020 21/16 A2996 RMK AO2 SLP145 T02110156,2025-09-09T17:12:57Z,2025-09-09T13:12:57Z
KSNA,"Santa Ana/Wayne Arpt, CA, US",2025-09-09T17:42:00Z,2025-09-09T13:42:00Z,VFR,22.2,15,VAR,3,0,NA,1014.3,SPECI KSNA 091742Z VRB03KT 10SM SCT024 22/15 A2995 RMK AO2 T02220150,2025-09-09T17:52:18Z,2025-09-09T13:52:18Z
KSNA,"Santa Ana/Wayne Arpt, CA, US",2025-09-09T17:53:00Z,2025-09-09T13:53:00Z,VFR,22.2,15.6,VAR,5,0,NA,1014.3,METAR KSNA 091753Z VRB05KT 10SM SCT024 22/16 A2995 RMK AO2 SLP140 T02220156 10228 20194 50001,2025-09-09T18:09:23Z,2025-09-09T14:09:23Z
KSNA,"Santa Ana/Wayne Arpt, CA, US",2025-09-09T18:53:00Z,2025-09-09T14:53:00Z,VFR,23.3,15.6,230,8,0,NA,1013.3,METAR KSNA 091853Z 23008KT 10SM CLR 23/16 A2992 RMK AO2 SLP132 T02330156,2025-09-09T19:00:59Z,2025-09-09T15:00:59Z
KSNA,"Santa Ana/Wayne Arpt, CA, US",2025-09-09T19:53:00Z,2025-09-09T15:53:00Z,VFR,23.9,15.6,200,12,0,NA,1013,METAR KSNA 091953Z 20012KT 10SM CLR 24/16 A2991 RMK AO2 SLP127 T02390156,2025-09-09T20:10:19Z,2025-09-09T16:10:19Z
KSNA,"Santa Ana/Wayne Arpt, CA, US",2025-09-09T20:53:00Z,2025-09-09T16:53:00Z,VFR,23.9,16.1,210,10,0,NA,1012.3,METAR KSNA 092053Z 21010KT 10SM CLR 24/16 A2989 RMK AO2 SLP121 T02390161 56019,2025-09-09T21:12:46Z,2025-09-09T17:12:46Z
KSNA,"Santa Ana/Wayne Arpt, CA, US",2025-09-09T21:53:00Z,2025-09-09T17:53:00Z,VFR,23.9,16.1,190,10,0,NA,1011.6,METAR KSNA 092153Z 19010KT 10SM CLR 24/16 A2987 RMK AO2 SLP114 T02390161,2025-09-09T22:00:15Z,2025-09-09T18:00:15Z
KSNA,"Santa Ana/Wayne Arpt, CA, US",2025-09-09T22:53:00Z,2025-09-09T18:53:00Z,VFR,24.4,15.6,190,12,17,NA,1010.9,METAR KSNA 092253Z 19012G17KT 10SM CLR 24/16 A2985 RMK AO2 SLP108 T02440156,2025-09-09T22:58:34Z,2025-09-09T18:58:34Z
KSNA,"Santa Ana/Wayne Arpt, CA, US",2025-09-09T23:53:00Z,2025-09-09T19:53:00Z,VFR,23.3,15.6,230,6,0,NA,1010.6,METAR KSNA 092353Z 23006KT 10SM CLR 23/16 A2984 RMK AO2 SLP104 T02330156 10244 20222 56017,2025-09-10T00:12:47Z,2025-09-09T20:12:47Z
KSNA,"Santa Ana/Wayne Arpt, CA, US",2025-09-10T00:53:00Z,2025-09-09T20:53:00Z,VFR,22.8,16.7,220,8,0,NA,1010.6,METAR KSNA 100053Z 22008KT 10SM CLR 23/17 A2984 RMK AO2 SLP103 T02280167,2025-09-10T01:11:41Z,2025-09-09T21:11:41Z
KSNS,"Salinas Muni, CA, US",2025-09-09T23:53:00Z,2025-09-09T19:53:00Z,VFR,22.2,15,290,14,0,NA,1012.3,METAR KSNS 092353Z 29014KT 10SM CLR 22/15 A2989 RMK AO2 SLP130 T02220150 10239 20217 56014,2025-09-10T00:12:47Z,2025-09-09T20:12:47Z
KSNS,"Salinas Muni, CA, US",2025-09-10T00:53:00Z,2025-09-09T20:53:00Z,VFR,21.7,15.6,300,14,0,NA,1012.3,METAR KSNS 100053Z 30014KT 10SM CLR 22/16 A2989 RMK AO2 SLP130 T02170156,2025-09-10T01:11:41Z,2025-09-09T21:11:41Z
KSNY,"Sidney/Carr Fld, NE, US",2025-09-09T23:53:00Z,2025-09-09T19:53:00Z,VFR,22.2,12.8,80,9,0,NA,1016.7,METAR KSNY 092353Z AUTO 08009KT 10SM FEW110 22/13 A3002 RMK AO2 LTG DSNT NE AND SE SLP133 60012 T02220128 10322 20194 53010,2025-09-10T00:12:47Z,2025-09-09T20:12:47Z
KSNY,"Sidney/Carr Fld, NE, US",2025-09-10T00:53:00Z,2025-09-09T20:53:00Z,VFR,19.4,12.2,80,6,0,NA,1016.7,METAR KSNY 100053Z AUTO 08006KT 10SM FEW110 19/12 A3002 RMK AO2 LTG DSNT SE SLP140 T01940122,2025-09-10T01:11:41Z,2025-09-09T21:11:41Z
KSOA,"Sonora Muni, TX, US",2025-09-09T23:55:00Z,2025-09-09T19:55:00Z,VFR,29,17,140,8,0,NA,1017.7,METAR KSOA 092355Z AUTO 14008KT 10SM CLR 29/17 A3005 RMK AO2,2025-09-10T00:12:46Z,2025-09-09T20:12:46Z
KSOA,"Sonora Muni, TX, US",2025-09-10T00:15:00Z,2025-09-09T20:15:00Z,VFR,28,17,160,8,0,NA,1017.7,METAR KSOA 100015Z AUTO 16008KT 10SM CLR 28/17 A3005 RMK AO2,2025-09-10T00:33:31Z,2025-09-09T20:33:31Z
KSOA,"Sonora Muni, TX, US",2025-09-10T00:55:00Z,2025-09-09T20:55:00Z,VFR,27,17,140,4,0,NA,1017.7,METAR KSOA 100055Z AUTO 14004KT 10SM CLR 27/17 A3005 RMK AO2,2025-09-10T01:11:41Z,2025-09-09T21:11:41Z
KSOW,"Show Low Muni, AZ, US",2025-09-09T23:55:00Z,2025-09-09T19:55:00Z,VFR,28,3,200,11,21,NA,1020.7,METAR KSOW 092355Z AUTO 20011G21KT 10SM CLR 28/03 A3014 RMK AO2,2025-09-10T00:12:46Z,2025-09-09T20:12:46Z
KSOW,"Show Low Muni, AZ, US",2025-09-10T00:15:00Z,2025-09-09T20:15:00Z,VFR,28,4,230,14,0,NA,1020.7,METAR KSOW 100015Z AUTO 23014KT 10SM CLR 28/04 A3014 RMK AO2,2025-09-10T00:33:31Z,2025-09-09T20:33:31Z
KSOW,"Show Low Muni, AZ, US",2025-09-10T00:55:00Z,2025-09-09T20:55:00Z,VFR,27,4,230,16,0,NA,1020.7,METAR KSOW 100055Z AUTO 23016KT 10SM CLR 27/04 A3014 RMK AO2,2025-09-10T01:11:41Z,2025-09-09T21:11:41Z
KSPI,"Springfield/Lincoln Capital Arpt, IL, US",2025-09-09T23:52:00Z,2025-09-09T19:52:00Z,VFR,22.8,10,80,5,0,NA,1018,METAR KSPI 092352Z 08005KT 10SM CLR 23/10 A3006 RMK AO2 SLP177 T02280100 10267 20228 55006,2025-09-10T00:12:47Z,2025-09-09T20:12:47Z
KSPI,"Springfield/Lincoln Capital Arpt, IL, US",2025-09-10T00:52:00Z,2025-09-09T20:52:00Z,VFR,18.3,13.9,360,3,0,NA,1018,METAR KSPI 100052Z 36003KT 10SM CLR 18/14 A3006 RMK AO2 SLP179 T01830139,2025-09-10T01:11:41Z,2025-09-09T21:11:41Z
KSPS,"Wichita Falls Rgnl, TX, US",2025-09-09T23:52:00Z,2025-09-09T19:52:00Z,VFR,29.4,15.6,150,12,0,NA,1014,METAR KSPS 092352Z 15012KT 10SM CLR 29/16 A2994 RMK AO2 SLP126 T02940156 10322 20294 56009,2025-09-10T00:12:47Z,2025-09-09T20:12:47Z
KSPS,"Wichita Falls Rgnl, TX, US",2025-09-10T00:52:00Z,2025-09-09T20:52:00Z,VFR,26.7,15.6,140,11,0,NA,1014.3,METAR KSPS 100052Z 14011KT 10SM CLR 27/16 A2995 RMK AO2 SLP131 T02670156,2025-09-10T01:11:41Z,2025-09-09T21:11:41Z
KSQL,"San Carlos Arpt, CA, US",2025-09-09T23:47:00Z,2025-09-09T19:47:00Z,VFR,22,16,260,9,0,NA,1012.6,METAR KSQL 092347Z 26009KT 10SM SCT025 BKN031 22/16 A2990,2025-09-10T00:12:48Z,2025-09-09T20:12:48Z
KSRQ,"Sarasota-Bradenton Intl, FL, US",2025-09-09T23:53:00Z,2025-09-09T19:53:00Z,VFR,25,8.3,60,5,0,NA,1013.6,METAR KSRQ 092353Z 06005KT 10SM FEW009 25/08 A2993 RMK AO2 SLP134 60006 T02500083 10267 20244 53009 $,2025-09-10T00:12:47Z,2025-09-09T20:12:47Z
KSRQ,"Sarasota-Bradenton Intl, FL, US",2025-09-10T00:53:00Z,2025-09-09T20:53:00Z,VFR,25,7.2,100,5,0,NA,1014,METAR KSRQ 100053Z 10005KT 10SM FEW095 25/07 A2994 RMK AO2 SLP137 T02500072 $,2025-09-10T01:11:41Z,2025-09-09T21:11:41Z
KSRR,"Ruidoso Rgnl, NM, US",2025-09-09T23:55:00Z,2025-09-09T19:55:00Z,VFR,24,10,110,7,0,NA,1023.8,METAR KSRR 092355Z AUTO 11007KT 10SM CLR 24/10 A3023 RMK AO2,2025-09-10T00:12:47Z,2025-09-09T20:12:47Z
KSRR,"Ruidoso Rgnl, NM, US",2025-09-10T00:15:00Z,2025-09-09T20:15:00Z,VFR,24,10,120,8,0,NA,1023.8,METAR KSRR 100015Z AUTO 12008KT 10SM CLR 24/10 A3023 RMK AO2,2025-09-10T00:33:31Z,2025-09-09T20:33:31Z
KSRR,"Ruidoso Rgnl, NM, US",2025-09-10T00:55:00Z,2025-09-09T20:55:00Z,VFR,22,10,140,7,0,NA,1023.8,METAR KSRR 100055Z AUTO 14007KT 10SM CLR 22/10 A3023 RMK AO2,2025-09-10T01:11:41Z,2025-09-09T21:11:41Z
KSSC,"Shaw AFB, SC, US",2025-09-09T23:55:00Z,2025-09-09T19:55:00Z,VFR,22.5,12.1,350,6,0,NA,1018,METAR KSSC 092355Z 35006KT 10SM CLR 23/12 A3006 RMK AO2A SLP180 T02250121 10270 20223 53002 $,2025-09-10T00:12:46Z,2025-09-09T20:12:46Z
KSSC,"Shaw AFB, SC, US",2025-09-10T00:55:00Z,2025-09-09T20:55:00Z,VFR,21.9,12.2,350,6,0,NA,1018.7,METAR KSSC 100055Z 35006KT 10SM CLR 22/12 A3008 RMK AO2A SLP186 T02190122 $,2025-09-10T01:11:41Z,2025-09-09T21:11:41Z
KSSF,"San Antonio/Stinson Muni, TX, US",2025-09-09T23:53:00Z,2025-09-09T19:53:00Z,VFR,32.8,13.3,40,5,0,NA,1013.3,METAR KSSF 092353Z 04005KT 10SM CLR 33/13 A2992 RMK AO2 SLP120 T03280133 10344 20306 56009,2025-09-10T00:12:47Z,2025-09-09T20:12:47Z
KSSF,"San Antonio/Stinson Muni, TX, US",2025-09-10T00:53:00Z,2025-09-09T20:53:00Z,VFR,31.1,13.3,40,5,0,NA,1013.6,METAR KSSF 100053Z 04005KT 10SM CLR 31/13 A2993 RMK AO2 SLP124 T03110133,2025-09-10T01:11:41Z,2025-09-09T21:11:41Z
KSSI,"Brunswick/McKinnon St Simons Arpt, GA, US",2025-09-09T23:55:00Z,2025-09-09T19:55:00Z,VFR,25,17,30,8,13,NA,1016.7,METAR KSSI 092355Z AUTO 03008G13KT 10SM CLR 25/17 A3002 RMK AO2,2025-09-10T00:12:46Z,2025-09-09T20:12:46Z
KSSI,"Brunswick/McKinnon St Simons Arpt, GA, US",2025-09-10T00:15:00Z,2025-09-09T20:15:00Z,VFR,25,17,30,8,0,NA,1016.7,METAR KSSI 100015Z AUTO 03008KT 10SM CLR 25/17 A3002 RMK AO2,2025-09-10T00:33:31Z,2025-09-09T20:33:31Z
KSSI,"Brunswick/McKinnon St Simons Arpt, GA, US",2025-09-10T00:55:00Z,2025-09-09T20:55:00Z,VFR,24,18,20,4,0,NA,1017.4,METAR KSSI 100055Z AUTO 02004KT 10SM CLR 24/18 A3004 RMK AO2,2025-09-10T01:11:41Z,2025-09-09T21:11:41Z
KSTC,"St Cloud Rgnl, MN, US",2025-09-09T23:53:00Z,2025-09-09T19:53:00Z,LIFR,17.8,17.8,0,0,0,1,1015.7,METAR KSTC 092353Z 00000KT 1SM BR OVC003 18/18 A2999 RMK AO2 RAE23 CIG 002V007 SLP163 P0001 60003 T01780178 10194 20178 53008,2025-09-10T00:12:47Z,2025-09-09T20:12:47Z
KSTC,"St Cloud Rgnl, MN, US",2025-09-10T00:24:00Z,2025-09-09T20:24:00Z,IFR,17.8,17.8,0,0,0,2,1015.7,SPECI KSTC 100024Z 00000KT 2SM BR SCT004 OVC010 18/18 A2999 RMK AO2 CIG 007V013 T01780178,2025-09-10T00:33:31Z,2025-09-09T20:33:31Z
KSTC,"St Cloud Rgnl, MN, US",2025-09-10T00:53:00Z,2025-09-09T20:53:00Z,IFR,17.8,17.2,0,0,0,4,1015.7,METAR KSTC 100053Z 00000KT 4SM BR OVC006 18/17 A2999 RMK AO2 CIG 003V008 SLP162 T01780172,2025-09-10T01:11:41Z,2025-09-09T21:11:41Z
KSTJ,"St Joseph/Rosecrans Mem, MO, US",2025-09-09T23:53:00Z,2025-09-09T19:53:00Z,VFR,23.3,16.1,140,6,0,NA,1016,METAR KSTJ 092353Z AUTO 14006KT 10SM CLR 23/16 A3000 RMK AO2 SLP152 T02330161 10250 20211 53001,2025-09-10T00:12:47Z,2025-09-09T20:12:47Z
KSTJ,"St Joseph/Rosecrans Mem, MO, US",2025-09-10T00:53:00Z,2025-09-09T20:53:00Z,VFR,20,16.1,140,4,0,NA,1016,METAR KSTJ 100053Z AUTO 14004KT 10SM CLR 20/16 A3000 RMK AO2 SLP154 T02000161,2025-09-10T01:11:41Z,2025-09-09T21:11:41Z
KSTL,"St Louis/Lambert Intl, MO, US",2025-09-09T14:51:00Z,2025-09-09T10:51:00Z,VFR,21.1,8.9,160,5,0,NA,1021.1,METAR KSTL 091451Z 16005KT 10SM SCT140 BKN230 21/09 A3015 RMK AO2 SLP205 T02110089 55000,2025-09-09T15:51:29Z,2025-09-09T11:51:29Z
KSTL,"St Louis/Lambert Intl, MO, US",2025-09-09T15:51:00Z,2025-09-09T11:51:00Z,VFR,23.3,9.4,170,5,0,NA,1021.1,METAR KSTL 091551Z 17005KT 10SM FEW140 SCT200 BKN250 23/09 A3015 RMK AO2 SLP202 T02330094,2025-09-09T16:06:02Z,2025-09-09T12:06:02Z
KSTL,"St Louis/Lambert Intl, MO, US",2025-09-09T16:51:00Z,2025-09-09T12:51:00Z,VFR,25,8.3,180,4,0,NA,1020.4,METAR KSTL 091651Z 18004KT 10SM FEW150 FEW200 SCT250 25/08 A3013 RMK AO2 SLP197 T02500083,2025-09-09T16:54:03Z,2025-09-09T12:54:03Z
KSTL,"St Louis/Lambert Intl, MO, US",2025-09-09T17:51:00Z,2025-09-09T13:51:00Z,VFR,25.6,7.2,190,5,0,NA,1020.1,METAR KSTL 091751Z 19005KT 10SM SCT150 SCT200 BKN250 26/07 A3012 RMK AO2 SLP193 T02560072 10261 20128 58010,2025-09-09T18:09:20Z,2025-09-09T14:09:20Z
KSTL,"St Louis/Lambert Intl, MO, US",2025-09-09T18:51:00Z,2025-09-09T14:51:00Z,VFR,25.6,7.8,210,7,0,NA,1019.7,METAR KSTL 091851Z 21007KT 10SM BKN160 BKN250 26/08 A3011 RMK AO2 SLP189 T02560078,2025-09-09T19:00:56Z,2025-09-09T15:00:56Z
KSTL,"St Louis/Lambert Intl, MO, US",2025-09-09T19:51:00Z,2025-09-09T15:51:00Z,VFR,25.6,7.2,200,9,0,NA,1018.7,METAR KSTL 091951Z 20009KT 10SM BKN150 BKN250 26/07 A3008 RMK AO2 SLP181 T02560072,2025-09-09T20:10:15Z,2025-09-09T16:10:15Z
KSTL,"St Louis/Lambert Intl, MO, US",2025-09-09T20:51:00Z,2025-09-09T16:51:00Z,VFR,26.1,8.3,120,6,0,NA,1018,METAR KSTL 092051Z 12006KT 10SM BKN130 BKN250 26/08 A3006 RMK AO2 SLP173 T02610083 58019,2025-09-09T20:54:00Z,2025-09-09T16:54:00Z
KSTL,"St Louis/Lambert Intl, MO, US",2025-09-09T21:51:00Z,2025-09-09T17:51:00Z,VFR,25.6,7.8,160,8,0,NA,1017.7,METAR KSTL 092151Z 16008KT 10SM SCT130 BKN250 26/08 A3005 RMK AO2 SLP168 T02560078,2025-09-09T22:00:08Z,2025-09-09T18:00:08Z
KSTL,"St Louis/Lambert Intl, MO, US",2025-09-09T22:51:00Z,2025-09-09T18:51:00Z,VFR,25.6,8.3,140,8,0,NA,1017,METAR KSTL 092251Z 14008KT 10SM BKN140 BKN250 26/08 A3003 RMK AO2 SLP165 T02560083,2025-09-09T22:58:31Z,2025-09-09T18:58:31Z
KSTL,"St Louis/Lambert Intl, MO, US",2025-09-09T23:51:00Z,2025-09-09T19:51:00Z,VFR,25.6,8.3,140,7,0,NA,1017.4,METAR KSTL 092351Z 14007KT 10SM BKN130 BKN250 26/08 A3004 RMK AO2 SLP167 T02560083 10272 20250 55007,2025-09-10T00:12:48Z,2025-09-09T20:12:48Z
KSTL,"St Louis/Lambert Intl, MO, US",2025-09-10T00:51:00Z,2025-09-09T20:51:00Z,VFR,24.4,9.4,80,5,0,NA,1017.4,METAR KSTL 100051Z 08005KT 10SM FEW090 BKN120 BKN250 24/09 A3004 RMK AO2 SLP168 T02440094,2025-09-10T01:11:41Z,2025-09-09T21:11:41Z
KSTP,"Saint Paul/Downtown Arpt, MN, US",2025-09-10T00:10:00Z,2025-09-09T20:10:00Z,MVFR,17.8,16.7,140,3,0,NA,1016,SPECI KSTP 100010Z 14003KT 10SM OVC016 18/17 A3000 RMK AO2 T01780167,2025-09-10T00:12:46Z,2025-09-09T20:12:46Z
KSTP,"Saint Paul/Downtown Arpt, MN, US",2025-09-10T00:53:00Z,2025-09-09T20:53:00Z,VFR,17.2,16.7,0,0,0,7,1016.3,METAR KSTP 100053Z 00000KT 7SM FEW050 OVC100 17/17 A3001 RMK AO2 SLP157 T01720167,2025-09-10T01:11:41Z,2025-09-09T21:11:41Z
KSTS,"Santa Rosa/Schulz Arpt, CA, US",2025-09-09T15:09:00Z,2025-09-09T11:09:00Z,IFR,17.2,16.7,150,5,0,2,1014,SPECI KSTS 091509Z 15005KT 2SM -RA BR BKN008 OVC010 17/17 A2994 RMK AO2 P0003 T01720167,2025-09-09T15:51:32Z,2025-09-09T11:51:32Z
KSTS,"Santa Rosa/Schulz Arpt, CA, US",2025-09-09T15:53:00Z,2025-09-09T11:53:00Z,IFR,17.8,17.2,130,4,0,6,1014,METAR KSTS 091553Z 13004KT 6SM BR BKN005 OVC013 18/17 A2994 RMK AO2 RAE42 SLP132 P0005 T01780172,2025-09-09T16:06:05Z,2025-09-09T12:06:05Z
KSTS,"Santa Rosa/Schulz Arpt, CA, US",2025-09-09T16:53:00Z,2025-09-09T12:53:00Z,MVFR,18.9,17.2,120,3,0,NA,1013.6,METAR KSTS 091653Z 12003KT 10SM SCT010 BKN019 BKN027 19/17 A2993 RMK AO2 SLP130 T01890172,2025-09-09T17:12:57Z,2025-09-09T13:12:57Z
KSTS,"Santa Rosa/Schulz Arpt, CA, US",2025-09-09T17:27:00Z,2025-09-09T13:27:00Z,MVFR,19.4,16.7,0,0,0,NA,1014,SPECI KSTS 091727Z 00000KT 10SM BKN017 OVC050 19/17 A2994 RMK AO2 T01940167,2025-09-09T17:30:41Z,2025-09-09T13:30:41Z
KSTS,"Santa Rosa/Schulz Arpt, CA, US",2025-09-09T17:53:00Z,2025-09-09T13:53:00Z,IFR,19.4,16.7,170,4,0,2.5,1013.6,METAR KSTS 091753Z 17004KT 2 1/2SM -RA BKN014 BKN024 OVC034 19/17 A2993 RMK AO2 RAB51 SLP129 P0000 60008 T01940167 10200 20172 58002,2025-09-09T18:09:23Z,2025-09-09T14:09:23Z
KSTS,"Santa Rosa/Schulz Arpt, CA, US",2025-09-09T18:53:00Z,2025-09-09T14:53:00Z,MVFR,20,17.2,210,4,0,3,1013.6,METAR KSTS 091853Z 21004KT 3SM HZ SCT010 BKN032 OVC046 20/17 A2993 RMK AO2 RAE48 SLP129 P0002 T02000172,2025-09-09T19:00:59Z,2025-09-09T15:00:59Z
KSTS,"Santa Rosa/Schulz Arpt, CA, US",2025-09-09T19:29:00Z,2025-09-09T15:29:00Z,MVFR,20.6,16.1,230,7,0,NA,1013.3,SPECI KSTS 091929Z 23007KT 10SM SCT020 BKN027 OVC034 21/16 A2992 RMK AO2 T02060161,2025-09-09T19:41:17Z,2025-09-09T15:41:17Z
KSTS,"Santa Rosa/Schulz Arpt, CA, US",2025-09-09T19:53:00Z,2025-09-09T15:53:00Z,MVFR,21.1,16.7,230,7,0,NA,1013.3,METAR KSTS 091953Z 23007KT 10SM SCT022 BKN028 OVC043 21/17 A2992 RMK AO2 SLP124 T02110167,2025-09-09T20:10:19Z,2025-09-09T16:10:19Z
KSTS,"Santa Rosa/Schulz Arpt, CA, US",2025-09-09T20:53:00Z,2025-09-09T16:53:00Z,VFR,21.7,16.1,220,10,0,NA,1013,METAR KSTS 092053Z 22010KT 10SM SCT020 BKN037 OVC050 22/16 A2991 RMK AO2 SLP121 60002 T02170161 58008,2025-09-09T21:12:46Z,2025-09-09T17:12:46Z
KSTS,"Santa Rosa/Schulz Arpt, CA, US",2025-09-09T21:53:00Z,2025-09-09T17:53:00Z,VFR,21.7,15.6,230,9,0,NA,1012.3,METAR KSTS 092153Z 23009KT 10SM SCT020 BKN037 OVC050 22/16 A2989 RMK AO2 RAB18E27 SLP115 P0000 T02170156,2025-09-09T22:00:15Z,2025-09-09T18:00:15Z
KSTS,"Santa Rosa/Schulz Arpt, CA, US",2025-09-09T22:53:00Z,2025-09-09T18:53:00Z,VFR,21.7,16.1,210,7,0,NA,1011.9,METAR KSTS 092253Z 21007KT 10SM BKN037 BKN047 22/16 A2988 RMK AO2 SLP111 T02170161,2025-09-09T22:58:34Z,2025-09-09T18:58:34Z
KSTS,"Santa Rosa/Schulz Arpt, CA, US",2025-09-09T23:19:00Z,2025-09-09T19:19:00Z,MVFR,21.7,15.6,220,6,0,NA,1011.9,SPECI KSTS 092319Z 22006KT 10SM BKN021 BKN039 22/16 A2988 RMK AO2 T02170156,2025-09-09T23:31:58Z,2025-09-09T19:31:58Z
KSTS,"Santa Rosa/Schulz Arpt, CA, US",2025-09-09T23:53:00Z,2025-09-09T19:53:00Z,MVFR,21.1,15.6,230,7,0,NA,1011.9,METAR KSTS 092353Z 23007KT 10SM BKN021 BKN039 21/16 A2988 RMK AO2 SLP110 60002 T02110156 10222 20178 56011,2025-09-10T00:12:47Z,2025-09-09T20:12:47Z
KSTS,"Santa Rosa/Schulz Arpt, CA, US",2025-09-10T00:53:00Z,2025-09-09T20:53:00Z,VFR,20,16.1,190,5,0,NA,1011.6,METAR KSTS 100053Z 19005KT 10SM BKN037 20/16 A2987 RMK AO2 SLP107 T02000161,2025-09-10T01:11:41Z,2025-09-09T21:11:41Z
KSUN,"Hailey/Friedman Mem, ID, US",2025-09-09T23:47:00Z,2025-09-09T19:47:00Z,VFR,23,6,160,8,15,NA,1014,METAR KSUN 092347Z 16008G15KT 10SM SCT090 BKN120 23/06 A2994 RMK TCU DSNT N,2025-09-10T00:12:48Z,2025-09-09T20:12:48Z
KSUN,"Hailey/Friedman Mem, ID, US",2025-09-10T00:47:00Z,2025-09-09T20:47:00Z,VFR,23,6,130,10,0,NA,1014.3,METAR KSUN 100047Z 13010KT 10SM FEW090 SCT120 23/06 A2995 RMK TCU DSNT N,2025-09-10T01:11:41Z,2025-09-09T21:11:41Z
KSUS,"St Louis/Spirit of St Louis Arpt, MO, US",2025-09-09T23:54:00Z,2025-09-09T19:54:00Z,VFR,23.3,12.2,0,0,0,NA,1016.7,METAR KSUS 092354Z 00000KT 10SM BKN110 23/12 A3002 RMK AO2 SLP163 T02330122 10278 20233 55006,2025-09-10T00:12:47Z,2025-09-09T20:12:47Z
KSUS,"St Louis/Spirit of St Louis Arpt, MO, US",2025-09-10T00:54:00Z,2025-09-09T20:54:00Z,VFR,20.6,14.4,0,0,0,NA,1016.7,METAR KSUS 100054Z 00000KT 10SM FEW110 21/14 A3002 RMK AO2 SLP165 T02060144,2025-09-10T01:11:41Z,2025-09-09T21:11:41Z
KSUU,"Fairfield/Travis AFB, CA, US",2025-09-09T23:55:00Z,2025-09-09T19:55:00Z,VFR,23.6,14.3,240,12,0,NA,1010.6,METAR KSUU 092355Z AUTO 24012KT 10SM FEW180 24/14 A2984 RMK AO2 SLP111 T02360143 10264 20236 57014 $,2025-09-10T00:12:46Z,2025-09-09T20:12:46Z
KSUX,"Sioux City/Day Fld, IA, US",2025-09-09T23:52:00Z,2025-09-09T19:52:00Z,MVFR,21.1,17.8,170,3,0,NA,1014.6,METAR KSUX 092352Z 17003KT 10SM OVC024 21/18 A2996 RMK AO2 SLP142 T02110178 10222 20206 55001,2025-09-10T00:12:47Z,2025-09-09T20:12:47Z
KSUX,"Sioux City/Day Fld, IA, US",2025-09-10T00:52:00Z,2025-09-09T20:52:00Z,MVFR,20.6,17.2,0,0,0,NA,1015,METAR KSUX 100052Z 00000KT 10SM OVC025 21/17 A2997 RMK AO2 SLP143 T02060172,2025-09-10T01:11:41Z,2025-09-09T21:11:41Z
KSUZ,"Benton/Saline Cnty, AR, US",2025-09-09T23:55:00Z,2025-09-09T19:55:00Z,VFR,27,15,110,3,0,8,1016,METAR KSUZ 092355Z AUTO 11003KT 8SM CLR 27/15 A3000 RMK A01,2025-09-10T00:12:46Z,2025-09-09T20:12:46Z
KSUZ,"Benton/Saline Cnty, AR, US",2025-09-10T00:15:00Z,2025-09-09T20:15:00Z,VFR,26,16,0,0,0,7,1015.7,METAR KSUZ 100015Z AUTO 00000KT 7SM CLR 26/16 A2999 RMK A01,2025-09-10T00:33:31Z,2025-09-09T20:33:31Z
KSUZ,"Benton/Saline Cnty, AR, US",2025-09-10T00:55:00Z,2025-09-09T20:55:00Z,VFR,22,17,0,0,0,9,1016,METAR KSUZ 100055Z AUTO 00000KT 9SM CLR 22/17 A3000 RMK A01,2025-09-10T01:11:41Z,2025-09-09T21:11:41Z
KSVC,"Silver City/Grant Cnty, NM, US",2025-09-09T23:55:00Z,2025-09-09T19:55:00Z,VFR,31.4,4,230,6,0,NA,1018.7,METAR KSVC 092355Z AUTO 23006KT 10SM SCT100 31/04 A3008 RMK AO2 T03140040 10327 20288,2025-09-10T00:12:46Z,2025-09-09T20:12:46Z
KSVC,"Silver City/Grant Cnty, NM, US",2025-09-10T00:15:00Z,2025-09-09T20:15:00Z,VFR,31.1,4.1,230,6,0,NA,1018.7,METAR KSVC 100015Z AUTO 23006KT 10SM CLR 31/04 A3008 RMK AO2 T03110041,2025-09-10T00:33:31Z,2025-09-09T20:33:31Z
KSVC,"Silver City/Grant Cnty, NM, US",2025-09-10T00:55:00Z,2025-09-09T20:55:00Z,VFR,29.6,4.7,240,6,0,NA,1018.7,METAR KSVC 100055Z AUTO 24006KT 10SM CLR 30/05 A3008 RMK AO2 T02960047,2025-09-10T01:11:41Z,2025-09-09T21:11:41Z
KSVN,"Savannah/Hunter AAF, GA, US",2025-09-09T23:55:00Z,2025-09-09T19:55:00Z,VFR,25.4,14.5,30,3,0,NA,1016.3,METAR KSVN 092355Z 03003KT 10SM CLR 25/15 A3001 RMK AO2A SLP165 T02540145 10285 20254 53004 $,2025-09-10T00:12:46Z,2025-09-09T20:12:46Z
KSVN,"Savannah/Hunter AAF, GA, US",2025-09-10T00:55:00Z,2025-09-09T20:55:00Z,VFR,23.9,14.8,20,4,0,NA,1016.7,METAR KSVN 100055Z 02004KT 10SM FEW200 24/15 A3002 RMK AO2A SLP169 T02390148 $,2025-09-10T01:11:41Z,2025-09-09T21:11:41Z
KSWF,"Newburgh/Stewart Intl, NY, US",2025-09-09T16:45:00Z,2025-09-09T12:45:00Z,VFR,22,11,110,7,0,NA,1027.5,METAR KSWF 091645Z 11007KT 10SM FEW050 22/11 A3034,2025-09-09T16:54:01Z,2025-09-09T12:54:01Z
KSWF,"Newburgh/Stewart Intl, NY, US",2025-09-09T17:45:00Z,2025-09-09T13:45:00Z,VFR,22,9,100,10,0,NA,1026.8,METAR KSWF 091745Z 10010KT 10SM FEW050 22/09 A3032,2025-09-09T17:52:13Z,2025-09-09T13:52:13Z
KSWF,"Newburgh/Stewart Intl, NY, US",2025-09-09T18:45:00Z,2025-09-09T14:45:00Z,VFR,23,10,90,6,0,NA,1026.5,METAR KSWF 091845Z 09006KT 10SM FEW050 23/10 A3031,2025-09-09T18:50:45Z,2025-09-09T14:50:45Z
KSWF,"Newburgh/Stewart Intl, NY, US",2025-09-09T19:45:00Z,2025-09-09T15:45:00Z,VFR,23,8,90,6,0,NA,1025.8,METAR KSWF 091945Z 09006KT 10SM FEW050 23/08 A3029,2025-09-09T20:31:16Z,2025-09-09T16:31:16Z
KSWF,"Newburgh/Stewart Intl, NY, US",2025-09-09T20:45:00Z,2025-09-09T16:45:00Z,VFR,23,8,VAR,NA,0,NA,1025.5,METAR KSWF 092045Z 1207KT 10SM FEW050 23/08 A3028,2025-09-09T20:53:58Z,2025-09-09T16:53:58Z
KSWF,"Newburgh/Stewart Intl, NY, US",2025-09-09T20:45:00Z,2025-09-09T16:45:00Z,VFR,23,8,90,6,0,NA,1025.5,METAR KSWF 092045Z COR 09006KT 10SM FEW050 23/08 A3028,2025-09-09T21:12:40Z,2025-09-09T17:12:40Z
KSWF,"Newburgh/Stewart Intl, NY, US",2025-09-09T21:45:00Z,2025-09-09T17:45:00Z,VFR,22,8,120,7,0,NA,1025.1,METAR KSWF 092145Z 12007KT 10SM FEW100 22/08 A3027,2025-09-09T22:20:13Z,2025-09-09T18:20:13Z
KSWF,"Newburgh/Stewart Intl, NY, US",2025-09-10T00:45:00Z,2025-09-09T20:45:00Z,VFR,18,11,0,0,0,NA,1025.5,METAR KSWF 100045Z 00000KT 10SM SKC 18/11 A3028,2025-09-10T01:11:41Z,2025-09-09T21:11:41Z
KSWO,"Stillwater Muni, OK, US",2025-09-09T23:53:00Z,2025-09-09T19:53:00Z,VFR,28.3,16.7,180,9,0,NA,1014,METAR KSWO 092353Z 18009KT 10SM CLR 28/17 A2994 RMK AO2 SLP127 T02830167 10306 20278 56007,2025-09-10T00:12:47Z,2025-09-09T20:12:47Z
KSWO,"Stillwater Muni, OK, US",2025-09-10T00:53:00Z,2025-09-09T20:53:00Z,VFR,25,16.7,170,6,0,NA,1014,METAR KSWO 100053Z 17006KT 10SM CLR 25/17 A2994 RMK AO2 SLP130 T02500167,2025-09-10T01:11:41Z,2025-09-09T21:11:41Z
KSYR,"Syracuse/Hancock Intl, NY, US",2025-09-09T14:54:00Z,2025-09-09T10:54:00Z,VFR,17.2,10,0,0,0,NA,1028.5,METAR KSYR 091454Z 00000KT 10SM FEW020 FEW200 SCT250 17/10 A3037 RMK AO2 SLP280 T01720100,2025-09-09T15:51:27Z,2025-09-09T11:51:27Z
KSYR,"Syracuse/Hancock Intl, NY, US",2025-09-09T15:54:00Z,2025-09-09T11:54:00Z,VFR,20,10.6,0,0,0,NA,1027.9,METAR KSYR 091554Z 00000KT 10SM FEW030 SCT250 20/11 A3035 RMK AO2 SLP275 T02000106,2025-09-09T16:06:00Z,2025-09-09T12:06:00Z
KSYR,"Syracuse/Hancock Intl, NY, US",2025-09-09T16:54:00Z,2025-09-09T12:54:00Z,VFR,21.1,10,320,5,0,NA,1026.8,METAR KSYR 091654Z 32005KT 10SM FEW035 SCT250 21/10 A3032 RMK AO2 SLP265 T02110100,2025-09-09T17:12:49Z,2025-09-09T13:12:49Z
KSYR,"Syracuse/Hancock Intl, NY, US",2025-09-09T17:54:00Z,2025-09-09T13:54:00Z,VFR,22.2,8.3,VAR,3,0,NA,1026.2,METAR KSYR 091754Z VRB03KT 10SM FEW040 FEW070 SCT250 22/08 A3030 RMK AO2 SLP259 T02220083 10228 20083 58021,2025-09-09T18:09:19Z,2025-09-09T14:09:19Z
KSYR,"Syracuse/Hancock Intl, NY, US",2025-09-09T18:54:00Z,2025-09-09T14:54:00Z,VFR,22.2,11.1,30,3,0,NA,1025.8,METAR KSYR 091854Z 03003KT 10SM SCT055 SCT250 22/11 A3029 RMK AO2 SLP252 T02220111,2025-09-09T19:00:54Z,2025-09-09T15:00:54Z
KSYR,"Syracuse/Hancock Intl, NY, US",2025-09-09T19:54:00Z,2025-09-09T15:54:00Z,VFR,22.2,11.1,40,7,0,NA,1025.1,METAR KSYR 091954Z 04007KT 10SM FEW055 SCT250 22/11 A3027 RMK AO2 SLP247 T02220111,2025-09-09T20:10:12Z,2025-09-09T16:10:12Z
KSYR,"Syracuse/Hancock Intl, NY, US",2025-09-09T20:54:00Z,2025-09-09T16:54:00Z,VFR,22.2,10.6,20,7,0,NA,1024.8,METAR KSYR 092054Z 02007KT 10SM FEW055 FEW250 22/11 A3026 RMK AO2 SLP243 T02220106 $,2025-09-09T21:12:40Z,2025-09-09T17:12:40Z
KSYR,"Syracuse/Hancock Intl, NY, US",2025-09-09T21:54:00Z,2025-09-09T17:54:00Z,VFR,21.7,11.1,70,5,0,NA,1024.5,METAR KSYR 092154Z 07005KT 10SM FEW055 FEW250 22/11 A3025 RMK AO2 SLP238 T02170111 $,2025-09-09T22:00:06Z,2025-09-09T18:00:06Z
KSYR,"Syracuse/Hancock Intl, NY, US",2025-09-09T22:54:00Z,2025-09-09T18:54:00Z,VFR,19.4,11.1,0,0,0,NA,1024.1,METAR KSYR 092254Z 00000KT 10SM FEW055 FEW250 19/11 A3024 RMK AO2 SLP239 T01940111 $,2025-09-09T22:58:29Z,2025-09-09T18:58:29Z
KSYR,"Syracuse/Hancock Intl, NY, US",2025-09-09T23:54:00Z,2025-09-09T19:54:00Z,VFR,16.7,11.7,0,0,0,NA,1024.5,METAR KSYR 092354Z 00000KT 10SM FEW250 17/12 A3025 RMK AO2 SLP240 T01670117 10228 20167 55004 $,2025-09-10T00:12:47Z,2025-09-09T20:12:47Z
KSYR,"Syracuse/Hancock Intl, NY, US",2025-09-10T00:54:00Z,2025-09-09T20:54:00Z,VFR,15,11.1,0,0,0,NA,1024.1,METAR KSYR 100054Z 00000KT 10SM FEW250 15/11 A3024 RMK AO2 SLP239 T01500111 $,2025-09-10T01:11:41Z,2025-09-09T21:11:41Z
KSZL,"Whiteman AFB, MO, US",2025-09-09T23:55:00Z,2025-09-09T19:55:00Z,VFR,23.4,13,190,3,0,NA,1016.7,METAR KSZL 092355Z 19003KT 10SM BKN060 23/13 A3002 RMK AO2A VIS 2 RWY01 SLP164 T02340130 10251 20207 57005 CHINO RWY01 $,2025-09-10T00:12:46Z,2025-09-09T20:12:46Z
KSZL,"Whiteman AFB, MO, US",2025-09-10T00:55:00Z,2025-09-09T20:55:00Z,VFR,22.8,13.5,0,0,0,NA,1016.7,METAR KSZL 100055Z 00000KT 10SM OVC060 23/14 A3002 RMK AO2A LTG DSNT S SLP163 T02280135 CHINO RWY01 $,2025-09-10T01:11:41Z,2025-09-09T21:11:41Z
KTBN,"Waynesville-St Robert Rgnl, MO, US",2025-09-09T23:55:00Z,2025-09-09T19:55:00Z,VFR,23.7,8.5,0,0,0,NA,1016,METAR KTBN 092355Z AUTO 00000KT 10SM CLR 24/09 A3000 RMK AO2 SLP155 T02370085 10289 20237 50003,2025-09-10T00:12:46Z,2025-09-09T20:12:46Z
KTBN,"Waynesville-St Robert Rgnl, MO, US",2025-09-10T00:55:00Z,2025-09-09T20:55:00Z,VFR,20.7,12.1,190,3,0,NA,1016.3,METAR KTBN 100055Z AUTO 19003KT 10SM CLR 21/12 A3001 RMK AO2 SLP159 T02070121,2025-09-10T01:11:41Z,2025-09-09T21:11:41Z
KTCC,"Tucumcari Muni, NM, US",2025-09-10T00:01:00Z,2025-09-09T20:01:00Z,VFR,25,13.9,190,11,28,NA,1015.3,SPECI KTCC 100001Z AUTO 19011G28KT 10SM -RA FEW065 FEW080 OVC100 25/14 A2998 RMK AO2 PRESFR P0000 T02500139,2025-09-10T00:12:46Z,2025-09-09T20:12:46Z
KTCC,"Tucumcari Muni, NM, US",2025-09-10T00:53:00Z,2025-09-09T20:53:00Z,VFR,25,14.4,0,0,0,NA,1014.3,METAR KTCC 100053Z AUTO 00000KT 10SM TS CLR 25/14 A2995 RMK AO2 RAE11 TSB52 SLP089 P0000 T02500144,2025-09-10T01:11:41Z,2025-09-09T21:11:41Z
KTCL,"Tuscaloosa Rgnl, AL, US",2025-09-09T22:53:00Z,2025-09-09T18:53:00Z,VFR,30,13.9,70,4,0,NA,1016.7,METAR KTCL 092253Z 07004KT 10SM SCT070 30/14 A3002 RMK AO2 SLP163 T03000139 $,2025-09-10T00:12:48Z,2025-09-09T20:12:48Z
KTCL,"Tuscaloosa Rgnl, AL, US",2025-09-10T00:53:00Z,2025-09-09T20:53:00Z,VFR,24.4,16.7,110,3,0,NA,1017.4,METAR KTCL 100053Z AUTO 11003KT 10SM FEW070 24/17 A3004 RMK AO2 SLP169 T02440167 $,2025-09-10T01:11:41Z,2025-09-09T21:11:41Z
KTCM,"Tacoma/McChord AFB, WA, US",2025-09-09T23:55:00Z,2025-09-09T19:55:00Z,VFR,23.1,13.3,40,5,0,NA,1012.6,METAR KTCM 092355Z AUTO 04005KT 10SM BKN034 23/13 A2990 RMK AO2 SLP128 T02310133 10237 20196 56010 $,2025-09-10T00:12:46Z,2025-09-09T20:12:46Z
KTCM,"Tacoma/McChord AFB, WA, US",2025-09-10T00:55:00Z,2025-09-09T20:55:00Z,VFR,22.3,13.1,360,7,0,NA,1012.6,METAR KTCM 100055Z AUTO 36007KT 10SM CLR 22/13 A2990 RMK AO2 SLP128 T02230131 $,2025-09-10T01:11:41Z,2025-09-09T21:11:41Z
KTCS,"Truth or Consequence Muni, NM, US",2025-09-09T23:53:00Z,2025-09-09T19:53:00Z,VFR,33.9,7.2,210,12,0,NA,1016,METAR KTCS 092353Z AUTO 21012KT 10SM FEW110 34/07 A3000 RMK AO2 PK WND 18028/2309 SLP064 T03390072 10350 20306 56012,2025-09-10T00:12:47Z,2025-09-09T20:12:47Z
KTCS,"Truth or Consequence Muni, NM, US",2025-09-10T00:53:00Z,2025-09-09T20:53:00Z,VFR,31.7,11.7,200,7,17,NA,1016,METAR KTCS 100053Z AUTO 20007G17KT 10SM -RA BKN110 32/12 A3000 RMK AO2 LTG DSNT N RAB47 SLP067 P0000 T03170117,2025-09-10T01:11:41Z,2025-09-09T21:11:41Z
KTEB,"Teterboro Arpt, NJ, US",2025-09-09T23:51:00Z,2025-09-09T19:51:00Z,VFR,20,7.8,50,4,0,NA,1024.8,METAR KTEB 092351Z 05004KT 10SM CLR 20/08 A3026 RMK AO2 SLP246 T02000078 10228 20200 55004 $,2025-09-10T00:12:47Z,2025-09-09T20:12:47Z
KTEB,"Teterboro Arpt, NJ, US",2025-09-10T00:51:00Z,2025-09-09T20:51:00Z,VFR,18.9,10,40,4,0,NA,1025.1,METAR KTEB 100051Z 04004KT 10SM CLR 19/10 A3027 RMK AO2 SLP248 T01890100 $,2025-09-10T01:11:41Z,2025-09-09T21:11:41Z
KTEX,"Telluride Rgnl, CO, US",2025-09-09T23:55:00Z,2025-09-09T19:55:00Z,VFR,20,2,220,9,16,NA,1026.5,METAR KTEX 092355Z AUTO 22009G16KT 10SM SCT080 20/02 A3031 RMK AO2,2025-09-10T00:12:46Z,2025-09-09T20:12:46Z
KTEX,"Telluride Rgnl, CO, US",2025-09-10T00:15:00Z,2025-09-09T20:15:00Z,VFR,20,2,220,5,16,NA,1026.8,METAR KTEX 100015Z AUTO 22005G16KT 10SM CLR 20/02 A3032 RMK AO2,2025-09-10T00:33:31Z,2025-09-09T20:33:31Z
KTEX,"Telluride Rgnl, CO, US",2025-09-10T00:55:00Z,2025-09-09T20:55:00Z,VFR,18,1,180,9,16,NA,1026.8,METAR KTEX 100055Z AUTO 18009G16KT 10SM CLR 18/01 A3032 RMK AO2,2025-09-10T01:11:43Z,2025-09-09T21:11:43Z
KTIK,"Tinker AFB, OK, US",2025-09-09T23:55:00Z,2025-09-09T19:55:00Z,VFR,27.3,17.1,190,10,0,NA,1013.3,METAR KTIK 092355Z AUTO 19010KT 10SM CLR 27/17 A2992 RMK AO2 SLP123 T02730171 10295 20273 57007,2025-09-10T00:12:46Z,2025-09-09T20:12:46Z
KTIK,"Tinker AFB, OK, US",2025-09-10T00:55:00Z,2025-09-09T20:55:00Z,VFR,24.6,17.3,190,8,0,NA,1013,METAR KTIK 100055Z AUTO 19008KT 10SM CLR 25/17 A2991 RMK AO2 SLP121 T02460173,2025-09-10T01:11:43Z,2025-09-09T21:11:43Z
KTIW,"Tacoma Narrows Arpt, WA, US",2025-09-09T23:53:00Z,2025-09-09T19:53:00Z,VFR,21.1,13.3,10,7,0,NA,1013,METAR KTIW 092353Z 01007KT 10SM CLR 21/13 A2991 RMK AO2 SLP126 T02110133 10217 20172 56009,2025-09-10T00:12:47Z,2025-09-09T20:12:47Z
KTIW,"Tacoma Narrows Arpt, WA, US",2025-09-10T00:53:00Z,2025-09-09T20:53:00Z,VFR,21.1,12.2,40,4,0,NA,1013,METAR KTIW 100053Z 04004KT 10SM CLR 21/12 A2991 RMK AO2 SLP126 T02110122,2025-09-10T01:11:43Z,2025-09-09T21:11:43Z
KTIX,"Titusville/Space Coast Rgnl, FL, US",2025-09-09T23:47:00Z,2025-09-09T19:47:00Z,VFR,27,26,0,0,0,7,1014,METAR KTIX 092347Z 00000KT 7SM VCSH SCT015 27/26 A2994,2025-09-10T00:12:48Z,2025-09-09T20:12:48Z
KTIX,"Titusville/Space Coast Rgnl, FL, US",2025-09-10T00:47:00Z,2025-09-09T20:47:00Z,MVFR,27,26,0,0,0,7,1014,METAR KTIX 100047Z 00000KT 7SM VCSH BKN010 27/26 A2994 RMK LAST,2025-09-10T01:11:43Z,2025-09-09T21:11:43Z
KTLH,"Tallahassee Intl, FL, US",2025-09-09T23:53:00Z,2025-09-09T19:53:00Z,VFR,28.3,18.3,70,5,0,NA,1015.3,METAR KTLH 092353Z 07005KT 10SM FEW035 FEW050 28/18 A2998 RMK AO2 SLP151 T02830183 10311 20283 53004 $,2025-09-10T00:12:47Z,2025-09-09T20:12:47Z
KTLH,"Tallahassee Intl, FL, US",2025-09-10T00:53:00Z,2025-09-09T20:53:00Z,VFR,27.2,19.4,40,5,0,NA,1016,METAR KTLH 100053Z 04005KT 10SM CLR 27/19 A3000 RMK AO2 SLP158 T02720194 $,2025-09-10T01:11:43Z,2025-09-09T21:11:43Z
KTMB,"Miami Exec Arpt, FL, US",2025-09-09T23:53:00Z,2025-09-09T19:53:00Z,NA,NA,NA,VAR,NA,0,NA,1014.3,METAR KTMB 092353Z AUTO A2995 RMK AO2 LTG DSNT SE SLP143 53010 PWINO $,2025-09-10T00:12:47Z,2025-09-09T20:12:47Z
KTMB,"Miami Exec Arpt, FL, US",2025-09-10T00:53:00Z,2025-09-09T20:53:00Z,NA,NA,NA,VAR,NA,0,NA,1015,METAR KTMB 100053Z AUTO A2997 RMK AO2 LTG DSNT W SLP150 PWINO $,2025-09-10T01:11:43Z,2025-09-09T21:11:43Z
KTOI,"Troy Muni, AL, US",2025-09-09T23:53:00Z,2025-09-09T19:53:00Z,VFR,25,16.7,0,0,0,NA,1017.7,METAR KTOI 092353Z AUTO 00000KT 10SM CLR 25/17 A3005 RMK AO2 SLP170 T02500167 10289 20250 53002,2025-09-10T00:12:47Z,2025-09-09T20:12:47Z
KTOI,"Troy Muni, AL, US",2025-09-10T00:53:00Z,2025-09-09T20:53:00Z,VFR,21.7,17.8,0,0,0,NA,1018,METAR KTOI 100053Z AUTO 00000KT 10SM CLR 22/18 A3006 RMK AO2 SLP175 T02170178,2025-09-10T01:11:43Z,2025-09-09T21:11:43Z
KTOL,"Toledo/Express Arpt, OH, US",2025-09-09T23:52:00Z,2025-09-09T19:52:00Z,VFR,18.9,9.4,90,4,0,NA,1021.1,METAR KTOL 092352Z 09004KT 10SM CLR 19/09 A3015 RMK AO2 SLP211 T01890094 10250 20189 55002 $,2025-09-10T00:12:47Z,2025-09-09T20:12:47Z
KTOL,"Toledo/Express Arpt, OH, US",2025-09-10T00:52:00Z,2025-09-09T20:52:00Z,VFR,17.2,10.6,100,3,0,NA,1021.1,METAR KTOL 100052Z 10003KT 10SM CLR 17/11 A3015 RMK AO2 SLP211 T01720106 $,2025-09-10T01:11:43Z,2025-09-09T21:11:43Z
KTOP,"Topeka/Billard Muni, KS, US",2025-09-09T23:53:00Z,2025-09-09T19:53:00Z,VFR,24.4,16.1,190,6,0,NA,1015.3,METAR KTOP 092353Z 19006KT 10SM OVC040 24/16 A2998 RMK AO2 SLP145 T02440161 10261 20222 53003,2025-09-10T00:12:47Z,2025-09-09T20:12:47Z
KTOP,"Topeka/Billard Muni, KS, US",2025-09-10T00:53:00Z,2025-09-09T20:53:00Z,VFR,21.7,16.1,160,4,0,NA,1015.3,METAR KTOP 100053Z AUTO 16004KT 10SM FEW044 22/16 A2998 RMK AO2 SLP146 T02170161,2025-09-10T01:11:43Z,2025-09-09T21:11:43Z
KTPA,"Tampa Intl Arpt, FL, US",2025-09-09T14:53:00Z,2025-09-09T10:53:00Z,MVFR,26.7,24.4,30,4,0,NA,1015,METAR KTPA 091453Z 03004KT 10SM BKN010 27/24 A2997 RMK AO2 RAB09E27 SLP149 P0000 60000 T02670244 53013 $,2025-09-09T15:51:29Z,2025-09-09T11:51:29Z
KTPA,"Tampa Intl Arpt, FL, US",2025-09-09T15:53:00Z,2025-09-09T11:53:00Z,VFR,27.8,24.4,VAR,4,0,NA,1014.6,METAR KTPA 091553Z VRB04KT 10SM FEW010 SCT035 BKN110 28/24 A2996 RMK AO2 SLP146 OCNL LTGIC DSNT SW CB DSNT SW T02780244 $,2025-09-09T16:06:01Z,2025-09-09T12:06:01Z
KTPA,"Tampa Intl Arpt, FL, US",2025-09-09T16:53:00Z,2025-09-09T12:53:00Z,VFR,27.8,23.9,60,5,0,NA,1015,METAR KTPA 091653Z 06005KT 10SM FEW010 FEW049 SCT110 28/24 A2997 RMK AO2 SLP148 T02780239,2025-09-09T17:12:51Z,2025-09-09T13:12:51Z
KTPA,"Tampa Intl Arpt, FL, US",2025-09-09T17:53:00Z,2025-09-09T13:53:00Z,VFR,27.8,24.4,60,3,0,NA,1014.3,METAR KTPA 091753Z 06003KT 10SM FEW012 BKN050 BKN110 28/24 A2995 RMK AO2 SLP142 OCNL LTGIC DSNT S-SW CB DSNT S-SW 60000 T02780244 10283 20250 58008,2025-09-09T18:09:20Z,2025-09-09T14:09:20Z
KTPA,"Tampa Intl Arpt, FL, US",2025-09-09T18:53:00Z,2025-09-09T14:53:00Z,VFR,28.3,24.4,40,3,0,NA,1013.6,METAR KTPA 091853Z 04003KT 10SM FEW012 SCT050 BKN110 28/24 A2993 RMK AO2 SLP135 OCNL LTGIC DSNT E-S CB DSNT E-S T02830244,2025-09-09T19:00:56Z,2025-09-09T15:00:56Z
KTPA,"Tampa Intl Arpt, FL, US",2025-09-09T19:53:00Z,2025-09-09T15:53:00Z,VFR,28.3,23.9,50,6,0,NA,1012.6,METAR KTPA 091953Z 05006KT 10SM FEW019 SCT048 BKN120 OVC250 28/24 A2990 RMK AO2 SLP126 CB DSNT E-S T02830239,2025-09-09T20:10:15Z,2025-09-09T16:10:15Z
KTPA,"Tampa Intl Arpt, FL, US",2025-09-09T20:53:00Z,2025-09-09T16:53:00Z,VFR,28.9,24.4,0,0,0,NA,1013.6,METAR KTPA 092053Z 00000KT 10SM FEW022 SCT055 BKN110 OVC250 29/24 A2993 RMK AO2 SLP133 T02890244 55009,2025-09-09T21:12:42Z,2025-09-09T17:12:42Z
KTPA,"Tampa Intl Arpt, FL, US",2025-09-09T21:53:00Z,2025-09-09T17:53:00Z,VFR,28.9,23.9,80,5,0,NA,1013.3,METAR KTPA 092153Z 08005KT 10SM SCT021 BKN070 OVC160 29/24 A2992 RMK AO2 SLP131 T02890239 $,2025-09-09T22:00:08Z,2025-09-09T18:00:08Z
KTPA,"Tampa Intl Arpt, FL, US",2025-09-09T22:53:00Z,2025-09-09T18:53:00Z,VFR,28.9,23.9,60,4,0,NA,1013.3,METAR KTPA 092253Z 06004KT 10SM FEW020 BKN070 BKN140 OVC190 29/24 A2992 RMK AO2 SLP132 T02890239 $,2025-09-09T22:58:31Z,2025-09-09T18:58:31Z
KTPA,"Tampa Intl Arpt, FL, US",2025-09-09T23:43:00Z,2025-09-09T19:43:00Z,MVFR,27.2,22.8,50,9,20,NA,1014,SPECI KTPA 092343Z 05009G20KT 010V080 10SM FEW019 BKN023 BKN090 BKN170 27/23 A2994 RMK AO2 T02720228 $,2025-09-09T23:52:53Z,2025-09-09T19:52:53Z
KTPA,"Tampa Intl Arpt, FL, US",2025-09-09T23:53:00Z,2025-09-09T19:53:00Z,VFR,26.7,22.8,50,11,19,NA,1014,METAR KTPA 092353Z 05011G19KT 10SM FEW019 SCT024 BKN040 BKN130 27/23 A2994 RMK AO2 SLP139 T02670228 10294 20267 53006 $,2025-09-10T00:12:47Z,2025-09-09T20:12:47Z
KTPA,"Tampa Intl Arpt, FL, US",2025-09-10T00:53:00Z,2025-09-09T20:53:00Z,VFR,25.6,22.2,60,8,0,NA,1014.3,METAR KTPA 100053Z 06008KT 10SM FEW028 SCT140 BKN250 26/22 A2995 RMK AO2 SLP142 T02560222 $,2025-09-10T01:11:43Z,2025-09-09T21:11:43Z
KTPH,"Tonopah Arpt, NV, US",2025-09-09T23:56:00Z,2025-09-09T19:56:00Z,VFR,25.6,-5.6,180,13,0,NA,1012.3,METAR KTPH 092356Z AUTO 18013KT 10SM CLR 26/M06 A2989 RMK AO2 SLP057 T02561056 10267 20211 56020,2025-09-10T00:12:46Z,2025-09-09T20:12:46Z
KTPH,"Tonopah Arpt, NV, US",2025-09-10T00:56:00Z,2025-09-09T20:56:00Z,VFR,25.6,-6.1,160,15,0,NA,1011.9,METAR KTPH 100056Z AUTO 16015KT 10SM CLR 26/M06 A2988 RMK AO2 PK WND 16026/0013 SLP055 T02561061 $,2025-09-10T01:11:43Z,2025-09-09T21:11:43Z
KTPL,"Temple/Miller Rgnl, TX, US",2025-09-09T23:51:00Z,2025-09-09T19:51:00Z,NA,28.3,14.4,110,4,0,NA,1015.7,METAR KTPL 092351Z AUTO 11004KT CLR 28/14 A2999 RMK AO2 SLP146 T02830144 10306 20278 56006 PWINO RVRNO $,2025-09-10T00:12:47Z,2025-09-09T20:12:47Z
KTPL,"Temple/Miller Rgnl, TX, US",2025-09-10T00:51:00Z,2025-09-09T20:51:00Z,NA,25,14.4,90,5,0,NA,1015.7,METAR KTPL 100051Z AUTO 09005KT CLR 25/14 A2999 RMK AO2 SLP149 T02500144 PWINO RVRNO $,2025-09-10T01:11:43Z,2025-09-09T21:11:43Z
KTRI,"Bristol/Tri-Cities Arpt, TN, US",2025-09-09T23:53:00Z,2025-09-09T19:53:00Z,VFR,18.3,12.2,0,0,0,NA,1021.1,METAR KTRI 092353Z 00000KT 10SM SCT060 18/12 A3015 RMK AO2 SLP196 T01830122 10233 20183 56003,2025-09-10T00:12:47Z,2025-09-09T20:12:47Z
KTRI,"Bristol/Tri-Cities Arpt, TN, US",2025-09-10T00:53:00Z,2025-09-09T20:53:00Z,VFR,15,12.2,0,0,0,NA,1021.4,METAR KTRI 100053Z 00000KT 10SM FEW060 15/12 A3016 RMK AO2 SLP198 T01500122,2025-09-10T01:11:43Z,2025-09-09T21:11:43Z
KTRK,"Truckee/Tahoe Arpt, CA, US",2025-09-09T23:48:00Z,2025-09-09T19:48:00Z,VFR,17,5,220,12,0,NA,1016.3,METAR KTRK 092348Z 22012KT 10SM SCT090 BKN150 BKN180 17/05 A3001,2025-09-10T00:12:50Z,2025-09-09T20:12:50Z
KTRK,"Truckee/Tahoe Arpt, CA, US",2025-09-10T00:48:00Z,2025-09-09T20:48:00Z,VFR,16,4,210,12,0,NA,1016,METAR KTRK 100048Z 21012KT 10SM SCT090 BKN150 BKN180 16/04 A3000,2025-09-10T01:11:43Z,2025-09-09T21:11:43Z
KTRM,"Thermal Arpt, CA, US",2025-09-09T23:52:00Z,2025-09-09T19:52:00Z,VFR,39.4,3.9,140,7,0,NA,1003.1,METAR KTRM 092352Z AUTO 14007KT 10SM CLR 39/04 A2962 RMK AO2 SLP034 T03940039 10400 20344 56024 TSNO,2025-09-10T00:12:50Z,2025-09-09T20:12:50Z
KTRM,"Thermal Arpt, CA, US",2025-09-10T00:52:00Z,2025-09-09T20:52:00Z,VFR,37.8,3.9,160,6,0,NA,1003.1,METAR KTRM 100052Z AUTO 16006KT 10SM CLR 38/04 A2962 RMK AO2 SLP033 T03780039 TSNO,2025-09-10T01:11:43Z,2025-09-09T21:11:43Z
KTTD,"Portland/Troutdale Arpt, OR, US",2025-09-09T23:53:00Z,2025-09-09T19:53:00Z,VFR,25.6,12.8,230,5,0,NA,1011.3,METAR KTTD 092353Z 23005KT 10SM FEW120 26/13 A2986 RMK AO2 SLP109 T02560128 10267 20206 56016,2025-09-10T00:12:50Z,2025-09-09T20:12:50Z
KTTD,"Portland/Troutdale Arpt, OR, US",2025-09-10T00:53:00Z,2025-09-09T20:53:00Z,VFR,25.6,13.3,250,5,0,NA,1010.6,METAR KTTD 100053Z 25005KT 10SM FEW110 26/13 A2984 RMK AO2 SLP104 T02560133,2025-09-10T01:11:43Z,2025-09-09T21:11:43Z
KTTN,"Trenton/Mercer Arpt, NJ, US",2025-09-09T23:53:00Z,2025-09-09T19:53:00Z,VFR,17.8,11.1,90,8,0,NA,1024.5,METAR KTTN 092353Z 09008KT 10SM SCT060 18/11 A3025 RMK AO2 SLP239 T01780111 10228 20178 55004,2025-09-10T00:12:50Z,2025-09-09T20:12:50Z
KTTN,"Trenton/Mercer Arpt, NJ, US",2025-09-10T00:53:00Z,2025-09-09T20:53:00Z,VFR,17.2,11.1,70,6,0,NA,1024.8,METAR KTTN 100053Z 07006KT 10SM BKN055 17/11 A3026 RMK AO2 SLP240 T01720111,2025-09-10T01:11:43Z,2025-09-09T21:11:43Z
KTTS,"NASA Shuttle Landing Arpt, FL, US",2025-09-09T22:55:00Z,2025-09-09T18:55:00Z,VFR,25.5,24.1,0,0,0,9,1012.3,METAR KTTS 092255Z AUTO 00000KT 9SM SCT026 BKN150 26/24 A2989 RMK AO2 LTG DSNT SE-S SLP126 T02550241 FZRANO $,2025-09-10T00:12:50Z,2025-09-09T20:12:50Z
KTTS,"NASA Shuttle Landing Arpt, FL, US",2025-09-10T00:55:00Z,2025-09-09T20:55:00Z,VFR,25.1,24,330,3,0,NA,1013.3,METAR KTTS 100055Z AUTO 33003KT 10SM FEW009 BKN150 BKN170 25/24 A2992 RMK AO2 SLP136 T02510240 FZRANO $,2025-09-10T01:11:43Z,2025-09-09T21:11:43Z
KTUL,"Tulsa Intl Arpt, OK, US",2025-09-09T14:53:00Z,2025-09-09T10:53:00Z,VFR,22.2,11.1,180,11,0,NA,1018.7,METAR KTUL 091453Z 18011KT 10SM SCT090 SCT160 22/11 A3008 RMK AO2 SLP179 T02220111 58001,2025-09-09T15:51:30Z,2025-09-09T11:51:30Z
KTUL,"Tulsa Intl Arpt, OK, US",2025-09-09T15:53:00Z,2025-09-09T11:53:00Z,VFR,23.9,11.7,170,13,0,NA,1018.7,METAR KTUL 091553Z 17013KT 10SM SCT090 SCT160 24/12 A3008 RMK AO2 SLP180 T02390117,2025-09-09T16:06:03Z,2025-09-09T12:06:03Z
KTUL,"Tulsa Intl Arpt, OK, US",2025-09-09T16:53:00Z,2025-09-09T12:53:00Z,VFR,25.6,12.2,170,11,0,NA,1018.4,METAR KTUL 091653Z 17011KT 10SM BKN070 BKN090 26/12 A3007 RMK AO2 SLP176 T02560122,2025-09-09T17:12:54Z,2025-09-09T13:12:54Z
KTUL,"Tulsa Intl Arpt, OK, US",2025-09-09T17:53:00Z,2025-09-09T13:53:00Z,VFR,26.7,12.8,170,12,19,NA,1017.4,METAR KTUL 091753Z 17012G19KT 10SM FEW070 FEW090 SCT200 27/13 A3004 RMK AO2 SLP168 CB DSNT N MOV SE T02670128 10267 20161 58012,2025-09-09T18:09:22Z,2025-09-09T14:09:22Z
KTUL,"Tulsa Intl Arpt, OK, US",2025-09-09T18:53:00Z,2025-09-09T14:53:00Z,VFR,27.8,13.9,180,13,0,NA,1017,METAR KTUL 091853Z 18013KT 10SM SCT070 SCT090 SCT200 28/14 A3003 RMK AO2 SLP162 CB DSNT NE MOV SE T02780139,2025-09-09T19:00:57Z,2025-09-09T15:00:57Z
KTUL,"Tulsa Intl Arpt, OK, US",2025-09-09T19:53:00Z,2025-09-09T15:53:00Z,VFR,28.9,15,180,12,18,NA,1016,METAR KTUL 091953Z 18012G18KT 10SM FEW070 SCT250 29/15 A3000 RMK AO2 SLP151 T02890150,2025-09-09T20:10:18Z,2025-09-09T16:10:18Z
KTUL,"Tulsa Intl Arpt, OK, US",2025-09-09T20:53:00Z,2025-09-09T16:53:00Z,VFR,28.9,15,170,15,0,NA,1015,METAR KTUL 092053Z 17015KT 10SM FEW250 29/15 A2997 RMK AO2 SLP142 T02890150 58024,2025-09-09T21:12:45Z,2025-09-09T17:12:45Z
KTUL,"Tulsa Intl Arpt, OK, US",2025-09-09T21:53:00Z,2025-09-09T17:53:00Z,VFR,28.9,15.6,170,15,22,NA,1014.6,METAR KTUL 092153Z 17015G22KT 10SM FEW250 29/16 A2996 RMK AO2 SLP137 T02890156,2025-09-09T22:00:10Z,2025-09-09T18:00:10Z
KTUL,"Tulsa Intl Arpt, OK, US",2025-09-09T22:53:00Z,2025-09-09T18:53:00Z,VFR,28.3,15.6,190,10,0,NA,1014.6,METAR KTUL 092253Z 19010KT 10SM FEW250 28/16 A2996 RMK AO2 SLP137 T02830156,2025-09-09T22:58:33Z,2025-09-09T18:58:33Z
KTUL,"Tulsa Intl Arpt, OK, US",2025-09-09T23:53:00Z,2025-09-09T19:53:00Z,VFR,27.8,16.1,160,8,0,NA,1014.6,METAR KTUL 092353Z 16008KT 10SM FEW050 FEW250 28/16 A2996 RMK AO2 SLP138 T02780161 10289 20267 55004,2025-09-10T00:12:50Z,2025-09-09T20:12:50Z
KTUL,"Tulsa Intl Arpt, OK, US",2025-09-10T00:53:00Z,2025-09-09T20:53:00Z,VFR,25,15.6,120,7,0,NA,1015,METAR KTUL 100053Z 12007KT 10SM FEW250 25/16 A2997 RMK AO2 SLP143 T02500156,2025-09-10T01:11:43Z,2025-09-09T21:11:43Z
KTUP,"Tupelo Rgnl, MS, US",2025-09-09T23:53:00Z,2025-09-09T19:53:00Z,VFR,27.8,NA,90,5,0,NA,1017.4,METAR KTUP 092353Z 09005KT 10SM CLR 28/ A3004 RMK AO2 SLPNO T0278 10283 20267 56005,2025-09-10T00:12:50Z,2025-09-09T20:12:50Z
KTUP,"Tupelo Rgnl, MS, US",2025-09-10T00:53:00Z,2025-09-09T20:53:00Z,VFR,26.1,NA,0,0,0,NA,1017.4,METAR KTUP 100053Z 00000KT 10SM CLR 26/ A3004 RMK AO2 SLPNO T0261,2025-09-10T01:11:43Z,2025-09-09T21:11:43Z
KTUS,"Tucson Intl Arpt, AZ, US",2025-09-09T14:53:00Z,2025-09-09T10:53:00Z,VFR,27.8,16.7,160,3,0,NA,1016,METAR KTUS 091453Z 16003KT 10SM CLR 28/17 A3000 RMK AO2 SLP105 T02780167 51009,2025-09-09T15:51:32Z,2025-09-09T11:51:32Z
KTUS,"Tucson Intl Arpt, AZ, US",2025-09-09T15:53:00Z,2025-09-09T11:53:00Z,VFR,30,16.7,0,0,0,NA,1016,METAR KTUS 091553Z 00000KT 10SM CLR 30/17 A3000 RMK AO2 SLP103 T03000167,2025-09-09T16:06:05Z,2025-09-09T12:06:05Z
KTUS,"Tucson Intl Arpt, AZ, US",2025-09-09T16:53:00Z,2025-09-09T12:53:00Z,VFR,32.2,16.1,210,3,0,NA,1015.7,METAR KTUS 091653Z 21003KT 10SM CLR 32/16 A2999 RMK AO2 SLP100 T03220161,2025-09-09T17:12:57Z,2025-09-09T13:12:57Z
KTUS,"Tucson Intl Arpt, AZ, US",2025-09-09T17:53:00Z,2025-09-09T13:53:00Z,VFR,33.3,14.4,180,4,0,NA,1015.3,METAR KTUS 091753Z 18004KT 10SM CLR 33/14 A2998 RMK AO2 SLP095 T03330144 10333 20244 58007,2025-09-09T18:09:23Z,2025-09-09T14:09:23Z
KTUS,"Tucson Intl Arpt, AZ, US",2025-09-09T18:53:00Z,2025-09-09T14:53:00Z,VFR,35.6,13.9,180,7,0,NA,1014.3,METAR KTUS 091853Z 18007KT 10SM CLR 36/14 A2995 RMK AO2 SLP085 T03560139,2025-09-09T19:00:59Z,2025-09-09T15:00:59Z
KTUS,"Tucson Intl Arpt, AZ, US",2025-09-09T19:53:00Z,2025-09-09T15:53:00Z,VFR,37.2,7.8,VAR,5,0,NA,1013.3,METAR KTUS 091953Z VRB05KT 10SM CLR 37/08 A2992 RMK AO2 SLP076 T03720078,2025-09-09T20:10:19Z,2025-09-09T16:10:19Z
KTUS,"Tucson Intl Arpt, AZ, US",2025-09-09T20:53:00Z,2025-09-09T16:53:00Z,VFR,37.2,10.6,VAR,3,0,NA,1012.3,METAR KTUS 092053Z VRB03KT 10SM SCT110 37/11 A2989 RMK AO2 SLP066 T03720106 58026,2025-09-09T21:12:46Z,2025-09-09T17:12:46Z
KTUS,"Tucson Intl Arpt, AZ, US",2025-09-09T21:53:00Z,2025-09-09T17:53:00Z,VFR,37.8,7.2,VAR,4,0,NA,1011.9,METAR KTUS 092153Z VRB04KT 10SM FEW120 38/07 A2988 RMK AO2 SLP059 T03780072,2025-09-09T22:00:15Z,2025-09-09T18:00:15Z
KTUS,"Tucson Intl Arpt, AZ, US",2025-09-09T22:53:00Z,2025-09-09T18:53:00Z,VFR,38.3,8.9,210,13,21,NA,1010.9,METAR KTUS 092253Z 21013G21KT 10SM CLR 38/09 A2985 RMK AO2 SLP050 T03830089,2025-09-09T22:58:34Z,2025-09-09T18:58:34Z
KTUS,"Tucson Intl Arpt, AZ, US",2025-09-09T23:53:00Z,2025-09-09T19:53:00Z,VFR,38.3,7.2,250,11,16,NA,1010.6,METAR KTUS 092353Z 25011G16KT 10SM CLR 38/07 A2984 RMK AO2 SLP047 T03830072 10394 20333 56017,2025-09-10T00:12:50Z,2025-09-09T20:12:50Z
KTUS,"Tucson Intl Arpt, AZ, US",2025-09-10T00:53:00Z,2025-09-09T20:53:00Z,VFR,37.2,7.2,260,9,0,NA,1010.2,METAR KTUS 100053Z 26009KT 10SM CLR 37/07 A2983 RMK AO2 SLP046 T03720072,2025-09-10T01:11:43Z,2025-09-09T21:11:43Z
KTVC,"Traverse City/Cherry Capital Arpt, MI, US",2025-09-09T23:53:00Z,2025-09-09T19:53:00Z,VFR,18.9,8.9,180,3,0,NA,1019,METAR KTVC 092353Z 18003KT 10SM FEW170 BKN250 19/09 A3009 RMK AO2 SLP189 T01890089 10239 20189 55000,2025-09-10T00:12:50Z,2025-09-09T20:12:50Z
KTVC,"Traverse City/Cherry Capital Arpt, MI, US",2025-09-10T00:53:00Z,2025-09-09T20:53:00Z,VFR,16.1,10,0,0,0,NA,1019.4,METAR KTVC 100053Z 00000KT 10SM FEW170 BKN250 16/10 A3010 RMK AO2 SLP195 T01610100,2025-09-10T01:11:43Z,2025-09-09T21:11:43Z
KTVF,"Thief River Rgnl, MN, US",2025-09-09T23:56:00Z,2025-09-09T19:56:00Z,VFR,23.3,11.1,60,3,0,NA,1016,METAR KTVF 092356Z AUTO 06003KT 10SM CLR 23/11 A3000 RMK AO2 SLP160 T02330111 10256 20222 53004,2025-09-10T00:12:49Z,2025-09-09T20:12:49Z
KTVF,"Thief River Rgnl, MN, US",2025-09-10T00:56:00Z,2025-09-09T20:56:00Z,VFR,18.3,12.8,40,5,0,NA,1016.3,METAR KTVF 100056Z AUTO 04005KT 10SM CLR 18/13 A3001 RMK AO2 SLP166 T01830128,2025-09-10T01:11:43Z,2025-09-09T21:11:43Z
KTVL,"Lake Tahoe Arpt, CA, US",2025-09-09T23:53:00Z,2025-09-09T19:53:00Z,VFR,16.7,5.6,180,13,19,NA,1016,METAR KTVL 092353Z AUTO 18013G19KT 10SM CLR 17/06 A3000 RMK AO2 SLP118 T01670056 10183 20156 58003,2025-09-10T00:12:50Z,2025-09-09T20:12:50Z
KTVL,"Lake Tahoe Arpt, CA, US",2025-09-10T00:53:00Z,2025-09-09T20:53:00Z,VFR,15.6,5.6,190,9,19,NA,1016,METAR KTVL 100053Z AUTO 19009G19KT 10SM CLR 16/06 A3000 RMK AO2 SLP119 T01560056,2025-09-10T01:11:43Z,2025-09-09T21:11:43Z
KTWF,"Twin Falls/Joslin Fld, ID, US",2025-09-09T23:53:00Z,2025-09-09T19:53:00Z,VFR,23.3,5,290,8,0,NA,1011.9,METAR KTWF 092353Z 29008KT 10SM CLR 23/05 A2988 RMK AO2 SLP072 T02330050 10250 20233 56009,2025-09-10T00:12:50Z,2025-09-09T20:12:50Z
KTWF,"Twin Falls/Joslin Fld, ID, US",2025-09-10T00:53:00Z,2025-09-09T20:53:00Z,VFR,22.8,3.9,280,6,0,NA,1011.6,METAR KTWF 100053Z 28006KT 10SM CLR 23/04 A2987 RMK AO2 SLP069 T02280039,2025-09-10T01:11:43Z,2025-09-09T21:11:43Z
KTXK,"Texarkana Rgnl, AR, US",2025-09-09T23:53:00Z,2025-09-09T19:53:00Z,VFR,28.3,13.9,140,3,0,NA,1016,METAR KTXK 092353Z 14003KT 10SM CLR 28/14 A3000 RMK AO2 SLP155 T02830139 10317 20283 $,2025-09-10T00:12:50Z,2025-09-09T20:12:50Z
KTXK,"Texarkana Rgnl, AR, US",2025-09-10T00:53:00Z,2025-09-09T20:53:00Z,VFR,25,13.9,140,3,0,NA,1015.7,METAR KTXK 100053Z 14003KT 10SM CLR 25/14 A2999 RMK AO2 SLP153 T02500139 $,2025-09-10T01:11:43Z,2025-09-09T21:11:43Z
KTYR,"Tyler/Pounds Fld, TX, US",2025-09-09T23:53:00Z,2025-09-09T19:53:00Z,VFR,28.3,13.3,70,4,0,NA,1016,METAR KTYR 092353Z 07004KT 10SM CLR 28/13 A3000 RMK AO2 SLP153 T02830133 10300 20272 56008,2025-09-10T00:12:50Z,2025-09-09T20:12:50Z
KTYR,"Tyler/Pounds Fld, TX, US",2025-09-10T00:53:00Z,2025-09-09T20:53:00Z,VFR,24.4,13.9,120,4,0,NA,1016.3,METAR KTYR 100053Z 12004KT 10SM CLR 24/14 A3001 RMK AO2 SLP155 T02440139,2025-09-10T01:11:43Z,2025-09-09T21:11:43Z
KTYS,"Knoxville/Tyson Arpt, TN, US",2025-09-09T23:53:00Z,2025-09-09T19:53:00Z,VFR,22.2,12.2,0,0,0,NA,1019.7,METAR KTYS 092353Z 00000KT 10SM FEW060 22/12 A3011 RMK AO2 SLP190 T02220122 10256 20222 58002 $,2025-09-10T00:12:50Z,2025-09-09T20:12:50Z
KTYS,"Knoxville/Tyson Arpt, TN, US",2025-09-10T00:53:00Z,2025-09-09T20:53:00Z,VFR,20,13.9,40,3,0,NA,1020.1,METAR KTYS 100053Z 04003KT 10SM FEW060 20/14 A3012 RMK AO2 SLP192 T02000139 $,2025-09-10T01:11:43Z,2025-09-09T21:11:43Z
KUAO,"Aurora State Arpt, OR, US",2025-09-09T23:53:00Z,2025-09-09T19:53:00Z,VFR,25,14.4,60,3,0,NA,1011.9,METAR KUAO 092353Z 06003KT 10SM FEW110 25/14 A2988 RMK AO2 SLP116 T02500144 10250 20194 56015,2025-09-10T00:12:50Z,2025-09-09T20:12:50Z
KUAO,"Aurora State Arpt, OR, US",2025-09-10T00:53:00Z,2025-09-09T20:53:00Z,VFR,24.4,14.4,VAR,3,0,NA,1011.6,METAR KUAO 100053Z VRB03KT 10SM FEW055 FEW120 24/14 A2987 RMK AO2 SLP113 T02440144,2025-09-10T01:11:43Z,2025-09-09T21:11:43Z
KUIN,"Quincy/Baldwin Fld, IL, US",2025-09-09T23:54:00Z,2025-09-09T19:54:00Z,VFR,21.1,9.4,140,4,0,NA,1017.7,METAR KUIN 092354Z AUTO 14004KT 10SM CLR 21/09 A3005 RMK AO2 SLP173 T02110094 10250 20211 56004,2025-09-10T00:12:50Z,2025-09-09T20:12:50Z
KUIN,"Quincy/Baldwin Fld, IL, US",2025-09-10T00:54:00Z,2025-09-09T20:54:00Z,NA,18.3,10,VAR,NA,0,NA,1017.7,METAR KUIN 100054Z AUTO 10SM 18/10 A3005 RMK AO2 SLP174 T01830100 PWINO $,2025-09-10T01:11:43Z,2025-09-09T21:11:43Z
KUKI,"Ukiah Muni, CA, US",2025-09-09T23:56:00Z,2025-09-09T19:56:00Z,VFR,18.9,16.7,0,0,0,8,1011.6,METAR KUKI 092356Z AUTO 00000KT 8SM -RA OVC060 19/17 A2987 RMK AO2 SLP107 P0008 60022 T01890167 10233 20189 56005,2025-09-10T00:12:49Z,2025-09-09T20:12:49Z
KUKI,"Ukiah Muni, CA, US",2025-09-10T00:56:00Z,2025-09-09T20:56:00Z,MVFR,18.3,17.2,130,3,0,8,1011.6,METAR KUKI 100056Z AUTO 13003KT 8SM -RA BKN011 BKN018 OVC065 18/17 A2987 RMK AO2 SLP108 P0002 T01830172,2025-09-10T01:11:43Z,2025-09-09T21:11:43Z
KUNV,"State College/Univ Park Arpt, PA, US",2025-09-09T23:53:00Z,2025-09-09T19:53:00Z,VFR,19,6,0,0,0,NA,1024.1,METAR KUNV 092353Z 00000KT 10SM CLR 19/06 A3024,2025-09-10T00:12:50Z,2025-09-09T20:12:50Z
KUNV,"State College/Univ Park Arpt, PA, US",2025-09-10T00:53:00Z,2025-09-09T20:53:00Z,VFR,18,17,0,0,0,NA,1024.5,METAR KUNV 100053Z 00000KT 10SM CLR 18/17 A3025,2025-09-10T01:11:43Z,2025-09-09T21:11:43Z
KUOX,"Oxford/University Arpt, MS, US",2025-09-09T23:55:00Z,2025-09-09T19:55:00Z,NA,26,15,130,4,0,NA,1017.4,METAR KUOX 092355Z AUTO 13004KT CLR 26/15 A3004 RMK AO2 PWINO,2025-09-10T00:12:50Z,2025-09-09T20:12:50Z
KUOX,"Oxford/University Arpt, MS, US",2025-09-10T00:15:00Z,2025-09-09T20:15:00Z,NA,25,16,0,0,0,NA,1017.4,METAR KUOX 100015Z AUTO 00000KT CLR 25/16 A3004 RMK AO2 PWINO,2025-09-10T00:33:34Z,2025-09-09T20:33:34Z
KUOX,"Oxford/University Arpt, MS, US",2025-09-10T00:55:00Z,2025-09-09T20:55:00Z,NA,23,16,110,3,0,NA,1017.4,METAR KUOX 100055Z AUTO 11003KT CLR 23/16 A3004 RMK AO2 PWINO,2025-09-10T01:11:43Z,2025-09-09T21:11:43Z
KUTS,"Huntsville Muni, TX, US",2025-09-09T23:53:00Z,2025-09-09T19:53:00Z,VFR,30,13.9,70,3,0,NA,1015.3,METAR KUTS 092353Z AUTO 07003KT 10SM CLR 30/14 A2998 RMK AO2 SLP147 T03000139 10311 20289 56006,2025-09-10T00:12:50Z,2025-09-09T20:12:50Z
KUTS,"Huntsville Muni, TX, US",2025-09-10T00:53:00Z,2025-09-09T20:53:00Z,VFR,26.7,14.4,0,0,0,NA,1015.7,METAR KUTS 100053Z AUTO 00000KT 10SM CLR 27/14 A2999 RMK AO2 SLP150 T02670144,2025-09-10T01:11:43Z,2025-09-09T21:11:43Z
KVAD,"Valdosta/Moody AFB, GA, US",2025-09-09T23:55:00Z,2025-09-09T19:55:00Z,VFR,26.1,16.9,70,5,0,NA,1016,METAR KVAD 092355Z AUTO 07005KT 10SM CLR 26/17 A3000 RMK AO2 SLP159 T02610169 10315 20261 51007 $,2025-09-10T00:12:49Z,2025-09-09T20:12:49Z
KVAD,"Valdosta/Moody AFB, GA, US",2025-09-10T00:55:00Z,2025-09-09T20:55:00Z,VFR,24.5,17,60,4,0,NA,1016.7,METAR KVAD 100055Z AUTO 06004KT 10SM CLR 25/17 A3002 RMK AO2 SLP166 T02450170 $,2025-09-10T01:11:43Z,2025-09-09T21:11:43Z
KVBG,"Vandenberg AFB, CA, US",2025-09-09T23:55:00Z,2025-09-09T19:55:00Z,MVFR,19.3,15.4,320,13,20,7,1013,METAR KVBG 092355Z 32013G20KT 7SM FEW004 BKN011 BKN028 19/15 A2991 RMK AO2A TCU N-E SLP130 T01930154 10251 20189 57013 LAST,2025-09-10T00:12:49Z,2025-09-09T20:12:49Z
KVCT,"Victoria Rgnl, TX, US",2025-09-09T23:51:00Z,2025-09-09T19:51:00Z,VFR,29.4,20.6,130,12,0,NA,1014,METAR KVCT 092351Z 13012KT 10SM CLR 29/21 A2994 RMK AO2 SLP137 T02940206 10328 20294 55003,2025-09-10T00:12:50Z,2025-09-09T20:12:50Z
KVCT,"Victoria Rgnl, TX, US",2025-09-10T00:51:00Z,2025-09-09T20:51:00Z,VFR,26.7,21.1,130,8,0,NA,1014.3,METAR KVCT 100051Z 13008KT 10SM CLR 27/21 A2995 RMK AO2 SLP141 T02670211,2025-09-10T01:11:43Z,2025-09-09T21:11:43Z
KVEL,"Vernal Rgnl, UT, US",2025-09-09T23:53:00Z,2025-09-09T19:53:00Z,VFR,28.3,5,210,8,0,NA,1014.6,METAR KVEL 092353Z AUTO 21008KT 10SM CLR 28/05 A2996 RMK AO2 SLP076 T02830050 10294 20244 56016,2025-09-10T00:12:50Z,2025-09-09T20:12:50Z
KVEL,"Vernal Rgnl, UT, US",2025-09-10T00:53:00Z,2025-09-09T20:53:00Z,VFR,27.8,4.4,250,4,0,NA,1014.3,METAR KVEL 100053Z AUTO 25004KT 10SM CLR 28/04 A2995 RMK AO2 SLP075 T02780044,2025-09-10T01:11:43Z,2025-09-09T21:11:43Z
KVGT,"Las Vegas/North Arpt, NV, US",2025-09-09T23:53:00Z,2025-09-09T19:53:00Z,VFR,35,-5,210,18,26,NA,1006.5,METAR KVGT 092353Z 21018G26KT 10SM CLR 35/M05 A2972 RMK AO2 PK WND 22026/2348 SLP052 6//// T03501050 10361 20322 56017,2025-09-10T00:12:50Z,2025-09-09T20:12:50Z
KVGT,"Las Vegas/North Arpt, NV, US",2025-09-10T00:53:00Z,2025-09-09T20:53:00Z,VFR,34.4,-5,210,17,25,NA,1005.8,METAR KVGT 100053Z 21017G25KT 10SM CLR 34/M05 A2970 RMK AO2 PK WND 23026/0039 SLP047 T03441050,2025-09-10T01:11:43Z,2025-09-09T21:11:43Z
KVIS,"Visalia Muni, CA, US",2025-09-09T23:56:00Z,2025-09-09T19:56:00Z,VFR,30,14.4,310,7,15,NA,1009.6,METAR KVIS 092356Z AUTO 31007G15KT 10SM CLR 30/14 A2981 RMK AO2 SLP091 T03000144 10306 20250 56023 $,2025-09-10T00:12:49Z,2025-09-09T20:12:49Z
KVIS,"Visalia Muni, CA, US",2025-09-10T00:56:00Z,2025-09-09T20:56:00Z,VFR,29.4,14.4,330,9,0,NA,1008.9,METAR KVIS 100056Z AUTO 33009KT 10SM CLR 29/14 A2979 RMK AO2 SLP087 T02940144 $,2025-09-10T01:11:43Z,2025-09-09T21:11:43Z
KVLD,"Valdosta Rgnl, GA, US",2025-09-09T23:53:00Z,2025-09-09T19:53:00Z,VFR,26.1,17.8,50,4,0,NA,1016.3,METAR KVLD 092353Z 05004KT 10SM CLR 26/18 A3001 RMK AO2 SLP167 T02610178 10300 20261 53007,2025-09-10T00:12:50Z,2025-09-09T20:12:50Z
KVLD,"Valdosta Rgnl, GA, US",2025-09-10T00:53:00Z,2025-09-09T20:53:00Z,VFR,25,17.2,60,4,0,NA,1017,METAR KVLD 100053Z 06004KT 10SM CLR 25/17 A3003 RMK AO2 SLP174 T02500172,2025-09-10T01:11:43Z,2025-09-09T21:11:43Z
KVNY,"Van Nuys Arpt, CA, US",2025-09-09T23:51:00Z,2025-09-09T19:51:00Z,VFR,26.7,13.9,130,12,0,NA,1009.9,METAR KVNY 092351Z 13012KT 10SM CLR 27/14 A2982 RMK AO2 SLP090 T02670139 10289 20228 56020 $,2025-09-10T00:12:50Z,2025-09-09T20:12:50Z
KVNY,"Van Nuys Arpt, CA, US",2025-09-10T00:51:00Z,2025-09-09T20:51:00Z,VFR,25.6,15.6,120,10,0,NA,1009.9,METAR KVNY 100051Z 12010KT 10SM CLR 26/16 A2982 RMK AO2 SLP090 T02560156 $,2025-09-10T01:11:43Z,2025-09-09T21:11:43Z
KVOK,"Camp Douglas/Volk Fld, WI, US",2025-09-09T23:55:00Z,2025-09-09T19:55:00Z,VFR,21.4,12.5,170,5,0,NA,1016.3,METAR KVOK 092355Z 17005KT 10SM SCT090 BKN120 BKN190 21/13 A3001 RMK AO2A SLP164 T02140125 10253 20214 53003,2025-09-10T00:12:49Z,2025-09-09T20:12:49Z
KVOK,"Camp Douglas/Volk Fld, WI, US",2025-09-10T00:55:00Z,2025-09-09T20:55:00Z,VFR,20.3,12,150,4,0,NA,1016,METAR KVOK 100055Z 15004KT 10SM BKN065 OVC080 20/12 A3000 RMK AO2A SLP161 T02030120,2025-09-10T01:11:43Z,2025-09-09T21:11:43Z
KVPS,"Valparaiso/Eglin AFB, FL, US",2025-09-09T23:55:00Z,2025-09-09T19:55:00Z,VFR,29.1,18.2,30,8,0,NA,1015.3,METAR KVPS 092355Z AUTO 03008KT 10SM SCT065 BKN085 29/18 A2998 RMK AO2 SLP158 60000 T02910182 10314 20289 53005 $,2025-09-10T00:12:50Z,2025-09-09T20:12:50Z
KVPS,"Valparaiso/Eglin AFB, FL, US",2025-09-10T00:55:00Z,2025-09-09T20:55:00Z,VFR,28.5,18.3,30,3,0,NA,1016,METAR KVPS 100055Z AUTO 03003KT 10SM SCT070 BKN090 29/18 A3000 RMK AO2 SLP165 T02850183 $,2025-09-10T01:11:43Z,2025-09-09T21:11:43Z
KVPZ,"Valparaiso/Port Cnty, IN, US",2025-09-09T23:56:00Z,2025-09-09T19:56:00Z,VFR,21.1,10.6,200,3,0,NA,1020.1,METAR KVPZ 092356Z AUTO 20003KT 10SM CLR 21/11 A3012 RMK AO2 SLP199 T02110106 10250 20211 55004,2025-09-10T00:12:49Z,2025-09-09T20:12:49Z
KVPZ,"Valparaiso/Port Cnty, IN, US",2025-09-10T00:56:00Z,2025-09-09T20:56:00Z,VFR,17.8,11.1,140,3,0,NA,1020.1,METAR KVPZ 100056Z AUTO 14003KT 10SM CLR 18/11 A3012 RMK AO2 SLP198 T01780111,2025-09-10T01:11:43Z,2025-09-09T21:11:43Z
KVQQ,"Jacksonville/Cecil Arpt, FL, US",2025-09-09T23:50:00Z,2025-09-09T19:50:00Z,VFR,24,20,30,7,12,NA,1016.3,METAR KVQQ 092350Z 03007G12KT 10SM SCT033 24/20 A3001,2025-09-10T00:12:50Z,2025-09-09T20:12:50Z
KVQQ,"Jacksonville/Cecil Arpt, FL, US",2025-09-10T00:50:00Z,2025-09-09T20:50:00Z,VFR,23,20,30,7,12,NA,1016.7,METAR KVQQ 100050Z 03007G12KT 10SM SCT025 23/20 A3002,2025-09-10T01:11:43Z,2025-09-09T21:11:43Z
KVRB,"Vero Beach Muni, FL, US",2025-09-09T23:53:00Z,2025-09-09T19:53:00Z,VFR,24.4,23.3,0,0,0,NA,1013.3,METAR KVRB 092353Z 00000KT 10SM -TSRA FEW047 SCT060 BKN100 24/23 A2992 RMK AO2 RAE04B29 SLP129 P0003 60100 T02440233 10317 20239 50005,2025-09-10T00:12:50Z,2025-09-09T20:12:50Z
KVRB,"Vero Beach Muni, FL, US",2025-09-10T00:53:00Z,2025-09-09T20:53:00Z,VFR,25,24.4,330,5,0,9,1014.3,METAR KVRB 100053Z 33005KT 9SM -TSRA BKN034 OVC042 25/24 A2995 RMK AO2 SLP139 P0004 T02500244,2025-09-10T01:11:43Z,2025-09-09T21:11:43Z
KVTN,"Valentine/Miller Fld, NE, US",2025-09-09T23:52:00Z,2025-09-09T19:52:00Z,VFR,28.3,12.2,70,5,0,9,1014,METAR KVTN 092352Z AUTO 07005KT 9SM CLR 28/12 A2994 RMK AO2 SLP123 T02830122 10311 20283 53001,2025-09-10T00:12:50Z,2025-09-09T20:12:50Z
KVTN,"Valentine/Miller Fld, NE, US",2025-09-10T00:52:00Z,2025-09-09T20:52:00Z,VFR,25,13.9,130,3,0,9,1014.3,METAR KVTN 100052Z AUTO 13003KT 9SM CLR 25/14 A2995 RMK AO2 SLP129 T02500139,2025-09-10T01:11:43Z,2025-09-09T21:11:43Z
KWJF,"Lancaster/Fox Arfld, CA, US",2025-09-09T23:56:00Z,2025-09-09T19:56:00Z,VFR,27.8,8.9,220,17,29,NA,1010.9,METAR KWJF 092356Z 22017G29KT 10SM CLR 28/09 A2985 RMK AO2 PK WND 24029/2353 SLP089 T02780089 10294 20272 56016,2025-09-10T00:12:49Z,2025-09-09T20:12:49Z
KWJF,"Lancaster/Fox Arfld, CA, US",2025-09-10T00:56:00Z,2025-09-09T20:56:00Z,VFR,25.6,9.4,220,20,27,NA,1010.9,METAR KWJF 100056Z 22020G27KT 10SM CLR 26/09 A2985 RMK AO2 PK WND 21028/0039 SLP092 T02560094,2025-09-10T01:11:43Z,2025-09-09T21:11:43Z
KWMC,"Winnemucca Muni, NV, US",2025-09-09T23:56:00Z,2025-09-09T19:56:00Z,VFR,24.4,1.1,280,8,16,NA,1011.6,METAR KWMC 092356Z AUTO 28008G16KT 10SM CLR 24/01 A2987 RMK AO2 SLP073 T02440011 10256 20211 56021,2025-09-10T00:12:49Z,2025-09-09T20:12:49Z
KWMC,"Winnemucca Muni, NV, US",2025-09-10T00:56:00Z,2025-09-09T20:56:00Z,VFR,23.3,1.1,290,6,0,NA,1011.3,METAR KWMC 100056Z AUTO 29006KT 10SM CLR 23/01 A2986 RMK AO2 SLP074 T02330011,2025-09-10T01:11:43Z,2025-09-09T21:11:43Z
KWRB,"Warner Robins AFB, GA, US",2025-09-09T22:55:00Z,2025-09-09T18:55:00Z,VFR,26.2,14.9,40,3,0,NA,1018,METAR KWRB 092255Z AUTO 04003KT 10SM CLR 26/15 A3006 RMK AO2 SLP180 T02620149 $,2025-09-10T00:12:50Z,2025-09-09T20:12:50Z
KWRB,"Warner Robins AFB, GA, US",2025-09-10T00:55:00Z,2025-09-09T20:55:00Z,VFR,20.6,17,0,0,0,NA,1018.7,METAR KWRB 100055Z AUTO 00000KT 10SM CLR 21/17 A3008 RMK AO2 SLP187 T02060170 $,2025-09-10T01:11:43Z,2025-09-09T21:11:43Z
KWRI,"McGuire AFB, NJ, US",2025-09-09T23:55:00Z,2025-09-09T19:55:00Z,VFR,17.9,13,50,7,0,NA,1024.1,METAR KWRI 092355Z 05007KT 10SM SCT045 BKN060 18/13 A3024 RMK AO2A ALSTG ESTMD SLP199 T01790130 10227 20179 53003 $,2025-09-10T00:12:49Z,2025-09-09T20:12:49Z
KWRI,"McGuire AFB, NJ, US",2025-09-10T00:25:00Z,2025-09-09T20:25:00Z,VFR,17,13,50,8,0,NA,1023.8,SPECI KWRI 100025Z 05008KT 10SM SCT042 BKN085 17/13 A3023 RMK AO2A ALSTG ESTMD SLP199 $,2025-09-10T00:33:34Z,2025-09-09T20:33:34Z
KWRI,"McGuire AFB, NJ, US",2025-09-10T00:55:00Z,2025-09-09T20:55:00Z,VFR,16.7,12.8,50,6,0,NA,1024.1,METAR KWRI 100055Z 05006KT 10SM CLR 17/13 A3024 RMK AO2A ALTSG ESTMD SLP202 T01670128 $,2025-09-10T01:11:43Z,2025-09-09T21:11:43Z
KWRL,"Worland Muni, WY, US",2025-09-09T23:53:00Z,2025-09-09T19:53:00Z,VFR,27.8,6.1,310,3,0,NA,1012.3,METAR KWRL 092353Z AUTO 31003KT 10SM CLR 28/06 A2989 RMK AO2 SLP088 T02780061 10306 20211 56014,2025-09-10T00:12:50Z,2025-09-09T20:12:50Z
KWRL,"Worland Muni, WY, US",2025-09-10T00:53:00Z,2025-09-09T20:53:00Z,VFR,25,4.4,80,3,0,NA,1011.9,METAR KWRL 100053Z AUTO 08003KT 10SM FEW120 25/04 A2988 RMK AO2 SLP087 T02500044,2025-09-10T01:11:43Z,2025-09-09T21:11:43Z
KWST,"Westerly State Arpt, RI, US",2025-09-09T23:53:00Z,2025-09-09T19:53:00Z,VFR,16.7,12.8,30,4,0,NA,1025.8,METAR KWST 092353Z AUTO 03004KT 10SM CLR 17/13 A3029 RMK AO2 SLP257 T01670128 10222 20167 58006,2025-09-10T00:12:50Z,2025-09-09T20:12:50Z
KWST,"Westerly State Arpt, RI, US",2025-09-10T00:53:00Z,2025-09-09T20:53:00Z,VFR,15.6,12.8,70,3,0,NA,1026.5,METAR KWST 100053Z AUTO 07003KT 10SM CLR 16/13 A3031 RMK AO2 SLP263 T01560128,2025-09-10T01:11:43Z,2025-09-09T21:11:43Z
KWWD,"Wildwood/Cape May Cnty, NJ, US",2025-09-09T23:56:00Z,2025-09-09T19:56:00Z,MVFR,19.4,15.6,50,10,16,NA,1023.1,METAR KWWD 092356Z AUTO 05010G16KT 10SM OVC024 19/16 A3021 RMK AO2 SLP232 6//// T01940156 10211 20189 56005 PNO $,2025-09-10T00:12:49Z,2025-09-09T20:12:49Z
KWWD,"Wildwood/Cape May Cnty, NJ, US",2025-09-10T00:56:00Z,2025-09-09T20:56:00Z,MVFR,19.4,15.6,50,13,18,NA,1022.8,METAR KWWD 100056Z AUTO 05013G18KT 10SM OVC022 19/16 A3020 RMK AO2 SLP229 T01940156 PNO $,2025-09-10T01:11:43Z,2025-09-09T21:11:43Z
KWWR,"Woodward Arpt, OK, US",2025-09-09T23:55:00Z,2025-09-09T19:55:00Z,VFR,29,17,160,10,15,NA,1015,METAR KWWR 092355Z AUTO 16010G15KT 10SM CLR 29/17 A2997 RMK AO2,2025-09-10T00:12:49Z,2025-09-09T20:12:49Z
KWWR,"Woodward Arpt, OK, US",2025-09-10T00:15:00Z,2025-09-09T20:15:00Z,VFR,28,16,150,9,0,NA,1014.6,METAR KWWR 100015Z AUTO 15009KT 10SM CLR 28/16 A2996 RMK AO2,2025-09-10T00:33:34Z,2025-09-09T20:33:34Z
KWWR,"Woodward Arpt, OK, US",2025-09-10T00:55:00Z,2025-09-09T20:55:00Z,VFR,25,16,150,8,0,NA,1015,METAR KWWR 100055Z AUTO 15008KT 10SM CLR 25/16 A2997 RMK AO2,2025-09-10T01:11:43Z,2025-09-09T21:11:43Z
KWYS,"West Yellowstone Arpt, MT, US",2025-09-09T23:55:00Z,2025-09-09T19:55:00Z,VFR,15,12,0,0,0,NA,1019,METAR KWYS 092355Z AUTO 00000KT 10SM CLR 15/12 A3009 RMK AO2,2025-09-10T00:12:49Z,2025-09-09T20:12:49Z
KWYS,"West Yellowstone Arpt, MT, US",2025-09-10T00:15:00Z,2025-09-09T20:15:00Z,VFR,14,12,30,11,0,NA,1019.4,METAR KWYS 100015Z AUTO 03011KT 10SM CLR 14/12 A3010 RMK AO2,2025-09-10T00:33:34Z,2025-09-09T20:33:34Z
KWYS,"West Yellowstone Arpt, MT, US",2025-09-10T00:55:00Z,2025-09-09T20:55:00Z,VFR,14,10,120,6,0,NA,1020.1,METAR KWYS 100055Z AUTO 12006KT 10SM BKN120 14/10 A3012 RMK AO2,2025-09-10T01:11:43Z,2025-09-09T21:11:43Z
KXMR,"Cape Kennedy AF Skid, FL, US",2025-09-09T23:55:00Z,2025-09-09T19:55:00Z,VFR,25.1,23.7,0,0,0,NA,1012.3,METAR KXMR 092355Z AUTO 00000KT 10SM CLR 25/24 A2989 RMK AO2 RAB2258E15DZB15E18 SLP125 P0001 60015 T02510237 10307 20248 53004 $,2025-09-10T00:12:49Z,2025-09-09T20:12:49Z
KXMR,"Cape Kennedy AF Skid, FL, US",2025-09-10T00:55:00Z,2025-09-09T20:55:00Z,VFR,25.4,23.6,300,3,0,NA,1012.6,METAR KXMR 100055Z AUTO 30003KT 10SM CLR 25/24 A2990 RMK AO2 SLP128 T02540236 $,2025-09-10T01:11:43Z,2025-09-09T21:11:43Z
KXNA,"Fayetteville/NW Arkansas Rgnl, AR, US",2025-09-09T23:53:00Z,2025-09-09T19:53:00Z,VFR,25.6,12.8,160,5,0,NA,1016.3,METAR KXNA 092353Z 16005KT 10SM CLR 26/13 A3001 RMK AO2 SLP153 T02560128 10278 20239 55003 $,2025-09-10T00:12:50Z,2025-09-09T20:12:50Z
KXNA,"Fayetteville/NW Arkansas Rgnl, AR, US",2025-09-10T00:53:00Z,2025-09-09T20:53:00Z,VFR,22.2,13.3,210,4,0,NA,1017,METAR KXNA 100053Z 21004KT 10SM CLR 22/13 A3003 RMK AO2 SLP158 T02220133 $,2025-09-10T01:11:43Z,2025-09-09T21:11:43Z
KXWA,"Williston/Basin Intl, ND, US",2025-09-09T23:51:00Z,2025-09-09T19:51:00Z,VFR,26.1,5,60,5,0,NA,1015,METAR KXWA 092351Z AUTO 06005KT 10SM CLR 26/05 A2997 RMK AO2 SLP147 T02610050 10272 20239 56005,2025-09-10T00:12:50Z,2025-09-09T20:12:50Z
KXWA,"Williston/Basin Intl, ND, US",2025-09-10T00:51:00Z,2025-09-09T20:51:00Z,VFR,23.9,5.6,50,6,0,NA,1015,METAR KXWA 100051Z AUTO 05006KT 10SM CLR 24/06 A2997 RMK AO2 SLP148 T02390056,2025-09-10T01:11:43Z,2025-09-09T21:11:43Z
KYIP,"Detroit/Willow Run Arpt, MI, US",2025-09-09T23:53:00Z,2025-09-09T19:53:00Z,VFR,18.3,7.2,140,3,0,NA,1021.4,METAR KYIP 092353Z 14003KT 10SM CLR 18/07 A3016 RMK AO2 SLP212 T01830072 10239 20183 56005,2025-09-10T00:12:50Z,2025-09-09T20:12:50Z
KYIP,"Detroit/Willow Run Arpt, MI, US",2025-09-10T00:53:00Z,2025-09-09T20:53:00Z,VFR,15,8.9,0,0,0,NA,1021.8,METAR KYIP 100053Z 00000KT 10SM CLR 15/09 A3017 RMK AO2 SLP215 T01500089,2025-09-10T01:11:43Z,2025-09-09T21:11:43Z
KYKM,"Yakima/McAllister Fld, WA, US",2025-09-09T23:53:00Z,2025-09-09T19:53:00Z,VFR,25,13.3,300,6,0,NA,1009.6,METAR KYKM 092353Z 30006KT 10SM CLR 25/13 A2981 RMK AO2 SLP088 T02500133 10278 20233 58014,2025-09-10T00:12:50Z,2025-09-09T20:12:50Z
KYKM,"Yakima/McAllister Fld, WA, US",2025-09-10T00:53:00Z,2025-09-09T20:53:00Z,VFR,24.4,13.9,280,4,0,NA,1009.6,METAR KYKM 100053Z 28004KT 10SM CLR 24/14 A2981 RMK AO2 LTG DSNT S SLP089 T02440139,2025-09-10T01:11:43Z,2025-09-09T21:11:43Z
KYKN,"Yankton/Gurney Muni, SD, US",2025-09-09T23:56:00Z,2025-09-09T19:56:00Z,VFR,22.8,19.4,90,5,0,NA,1014.3,METAR KYKN 092356Z AUTO 09005KT 10SM CLR 23/19 A2995 RMK AO2 SLP148 T02280194 10239 20206 55000,2025-09-10T00:12:49Z,2025-09-09T20:12:49Z
KYKN,"Yankton/Gurney Muni, SD, US",2025-09-10T00:56:00Z,2025-09-09T20:56:00Z,VFR,20.6,18.9,90,6,0,NA,1014.3,METAR KYKN 100056Z AUTO 09006KT 10SM CLR 21/19 A2995 RMK AO2 SLP151 T02060189,2025-09-10T01:11:43Z,2025-09-09T21:11:43Z
KYNG,"Youngstown-Warren Rgnl, OH, US",2025-09-09T23:51:00Z,2025-09-09T19:51:00Z,VFR,16.7,7.8,90,5,0,NA,1022.4,METAR KYNG 092351Z 09005KT 10SM SCT250 17/08 A3019 RMK AO2 SLP226 T01670078 10239 20167 56004 $,2025-09-10T00:12:50Z,2025-09-09T20:12:50Z
KYNG,"Youngstown-Warren Rgnl, OH, US",2025-09-10T00:51:00Z,2025-09-09T20:51:00Z,VFR,13.3,8.3,110,4,0,NA,1022.4,METAR KYNG 100051Z 11004KT 10SM SCT250 13/08 A3019 RMK AO2 SLP225 T01330083 $,2025-09-10T01:11:43Z,2025-09-09T21:11:43Z
KZZV,"Zanesville Muni, OH, US",2025-09-09T23:53:00Z,2025-09-09T19:53:00Z,VFR,17.8,8.9,0,0,0,NA,1021.4,METAR KZZV 092353Z AUTO 00000KT 10SM CLR 18/09 A3016 RMK AO2 SLP213 T01780089 10250 20178 56004,2025-09-10T00:12:50Z,2025-09-09T20:12:50Z
KZZV,"Zanesville Muni, OH, US",2025-09-10T00:53:00Z,2025-09-09T20:53:00Z,VFR,16.1,9.4,0,0,0,NA,1021.4,METAR KZZV 100053Z AUTO 00000KT 10SM CLR 16/09 A3016 RMK AO2 SLP213 T01610094,2025-09-10T01:11:43Z,2025-09-09T21:11:43Z
PAAQ,"Palmer Muni, AK, US",2025-09-09T23:53:00Z,2025-09-09T19:53:00Z,VFR,12.8,9.4,310,4,0,NA,1001.1,METAR PAAQ 092353Z 31004KT 10SM -RA OVC075 13/09 A2956 RMK AO2 SLP013 P0001 60001 T01280094 10150 20106 58024,2025-09-10T00:12:50Z,2025-09-09T20:12:50Z
PAAQ,"Palmer Muni, AK, US",2025-09-10T00:53:00Z,2025-09-09T20:53:00Z,VFR,13.9,7.8,VAR,NA,0,NA,1000.1,METAR PAAQ 100053Z 10SM BKN080 OVC090 14/08 A2953 RMK AO2 RAE2356 SLP001 P0000 T01390078,2025-09-10T01:11:45Z,2025-09-09T21:11:45Z
PABA,"Barter Island Arpt, AK, US",2025-09-09T23:56:00Z,2025-09-09T19:56:00Z,IFR,2.8,1.7,280,9,0,NA,1009.6,METAR PABA 092356Z AUTO 28009KT 10SM OVC007 03/02 A2981 RMK AO2 CIG 005V011 SLP115 60002 T00280017 10033 20022 51004 TSNO,2025-09-10T00:12:49Z,2025-09-09T20:12:49Z
PABA,"Barter Island Arpt, AK, US",2025-09-10T00:30:00Z,2025-09-09T20:30:00Z,LIFR,3,2,300,9,0,9,1009.6,SPECI PABA 100030Z AUTO 30009KT 9SM OVC004 03/02 A2981 RMK AO2 CIG 003V007 TSNO,2025-09-10T00:33:34Z,2025-09-09T20:33:34Z
PABA,"Barter Island Arpt, AK, US",2025-09-10T00:56:00Z,2025-09-09T20:56:00Z,LIFR,2.2,1.7,300,8,0,NA,1009.9,METAR PABA 100056Z AUTO 30008KT 10SM OVC004 02/02 A2982 RMK AO2 CIG 004V009 SLP115 T00220017 FZRANO TSNO,2025-09-10T01:11:45Z,2025-09-09T21:11:45Z
PABE,"Bethel Arpt, AK, US",2025-09-09T23:53:00Z,2025-09-09T19:53:00Z,VFR,11.1,10,20,19,31,NA,998.1,METAR PABE 092353Z 02019G31KT 10SM -RA FEW013 FEW025 OVC070 11/10 A2947 RMK AO2 PK WND 01031/2350 SLP979 P0002 60016 T01110100 10111 20100 56006,2025-09-10T00:12:50Z,2025-09-09T20:12:50Z
PABE,"Bethel Arpt, AK, US",2025-09-10T00:53:00Z,2025-09-09T20:53:00Z,MVFR,10.6,10,20,22,31,NA,997.7,METAR PABE 100053Z 02022G31KT 10SM -RA OVC010 11/10 A2946 RMK AO2 PK WND 03031/0046 CIG 007V013 SLP978 P0003 T01060100,2025-09-10T01:11:45Z,2025-09-09T21:11:45Z
PABI,"Ft Greely/Allen Fld, AK, US",2025-09-09T23:53:00Z,2025-09-09T19:53:00Z,VFR,17.2,3.3,180,16,26,NA,1003.5,METAR PABI 092353Z 18016G26KT 10SM FEW070 SCT085 SCT130 BKN200 17/03 A2963 RMK AO2 PK WND 19032/2300 SLP040 ACSL DSNT S-W CIG THN T01720033 10178 20089 58019 $,2025-09-10T00:12:50Z,2025-09-09T20:12:50Z
PABI,"Ft Greely/Allen Fld, AK, US",2025-09-10T00:53:00Z,2025-09-09T20:53:00Z,VFR,17.2,2.8,170,15,24,NA,1002.8,METAR PABI 100053Z 17015G24KT 10SM FEW070 SCT085 SCT130 BKN200 17/03 A2961 RMK AO2 PK WND 16027/0014 SLP033 ACSL DSNT S-W CIG THN T01720028 $,2025-09-10T01:11:45Z,2025-09-09T21:11:45Z
PABR,"Utqiavik/Wiley Post-Will Rogers Mem, AK, US",2025-09-09T23:53:00Z,2025-09-09T19:53:00Z,VFR,2.2,0,100,8,0,NA,1011.9,METAR PABR 092353Z 10008KT 10SM FEW011 OVC032 02/00 A2988 RMK AO2 RAE01 SLP120 P0000 60008 T00220000 10022 20006 50000 $,2025-09-10T00:12:50Z,2025-09-09T20:12:50Z
PABR,"Utqiavik/Wiley Post-Will Rogers Mem, AK, US",2025-09-10T00:53:00Z,2025-09-09T20:53:00Z,VFR,2.2,0,100,8,0,NA,1012.3,METAR PABR 100053Z 10008KT 10SM SCT015 BKN034 OVC045 02/00 A2989 RMK AO2 RAB01E02B20E52UPB02E32 CIG 014 NE SLP121 P0000 T00220000 $,2025-09-10T01:11:45Z,2025-09-09T21:11:45Z
PABV,"Birchwood Arpt, AK, US",2025-09-09T23:56:00Z,2025-09-09T19:56:00Z,VFR,11.7,10,0,0,0,NA,1002.1,METAR PABV 092356Z AUTO 00000KT 10SM -RA OVC085 12/10 A2959 RMK AO2 SLP020 P0000 60004 T01170100 10133 20106 58025,2025-09-10T00:12:49Z,2025-09-09T20:12:49Z
PABV,"Birchwood Arpt, AK, US",2025-09-10T00:56:00Z,2025-09-09T20:56:00Z,VFR,11.7,10,0,0,0,NA,1001.1,METAR PABV 100056Z AUTO 00000KT 10SM -RA BKN070 OVC080 12/10 A2956 RMK AO2 SLP009 P0001 T01170100,2025-09-10T01:11:45Z,2025-09-09T21:11:45Z
PACD,"Cold Bay Arpt, AK, US",2025-09-09T23:53:00Z,2025-09-09T19:53:00Z,IFR,10.6,10,320,24,39,2.5,989.2,METAR PACD 092353Z 32024G39KT 2 1/2SM -RA BR OVC005 11/10 A2921 RMK AO2 PK WND 34041/2304 RAB15 CIG 004V010 SLP890 P0000 60003 T01060100 10117 20106 53034 $,2025-09-10T00:12:50Z,2025-09-09T20:12:50Z
PACD,"Cold Bay Arpt, AK, US",2025-09-10T00:26:00Z,2025-09-09T20:26:00Z,LIFR,10.6,10,320,25,39,2,989.9,SPECI PACD 100026Z 32025G39KT 2SM R15/6000VP6000FT -RA BR BKN004 OVC009 11/10 A2923 RMK AO2 PK WND 32039/0022 P0001 T01060100 $,2025-09-10T00:33:34Z,2025-09-09T20:33:34Z
PACD,"Cold Bay Arpt, AK, US",2025-09-10T00:53:00Z,2025-09-09T20:53:00Z,LIFR,10.6,10,310,25,33,1.75,990.3,METAR PACD 100053Z 31025G33KT 1 3/4SM R15/5500VP6000FT -RA BR BKN004 OVC008 11/10 A2924 RMK AO2 PK WND 32039/0022 SLP902 P0002 T01060100 $,2025-09-10T01:11:45Z,2025-09-09T21:11:45Z
PACV,"Cordova/Smith Arpt, AK, US",2025-09-09T23:53:00Z,2025-09-09T19:53:00Z,MVFR,13.3,11.7,80,6,0,9,1007.2,METAR PACV 092353Z 08006KT 9SM BKN022 OVC031 13/12 A2974 RMK AO2 RAB33E51 SLP072 60010 T01330117 10133 20117 56025,2025-09-10T00:12:50Z,2025-09-09T20:12:50Z
PACV,"Cordova/Smith Arpt, AK, US",2025-09-10T00:53:00Z,2025-09-09T20:53:00Z,MVFR,12.8,11.1,80,6,0,9,1006.2,METAR PACV 100053Z 08006KT 9SM -RA BKN025 OVC036 13/11 A2971 RMK AO2 RAB17 SLP061 T01280111,2025-09-10T01:11:45Z,2025-09-09T21:11:45Z
PADK,"Adak (NAS), AK, US",2025-09-09T23:56:00Z,2025-09-09T19:56:00Z,VFR,12.2,5,290,7,15,NA,1020.4,METAR PADK 092356Z AUTO 29007G15KT 10SM CLR 12/05 A3013 RMK AO2 SLP204 T01220050 10133 20061 50004,2025-09-10T00:12:49Z,2025-09-09T20:12:49Z
PADK,"Adak (NAS), AK, US",2025-09-10T00:56:00Z,2025-09-09T20:56:00Z,VFR,13.3,5,280,7,0,NA,1020.4,METAR PADK 100056Z AUTO 28007KT 10SM FEW037 13/05 A3013 RMK AO2 SLP204 T01330050,2025-09-10T01:11:45Z,2025-09-09T21:11:45Z
PADL,"Dillingham Arpt, AK, US",2025-09-09T23:56:00Z,2025-09-09T19:56:00Z,VFR,13.3,11.1,60,14,21,8,988.6,METAR PADL 092356Z 06014G21KT 8SM -RA OVC037 13/11 A2919 RMK AO2 RAE15B46 SLP888 P0000 60005 T01330111 10139 20117 56005,2025-09-10T00:12:49Z,2025-09-09T20:12:49Z
PADL,"Dillingham Arpt, AK, US",2025-09-10T00:56:00Z,2025-09-09T20:56:00Z,VFR,12.8,11.1,50,15,23,8,988.6,METAR PADL 100056Z 05015G23KT 8SM -RA SCT019 OVC037 13/11 A2919 RMK AO2 SLP887 P0001 T01280111,2025-09-10T01:11:45Z,2025-09-09T21:11:45Z
PADQ,"Kodiak Arpt, AK, US",2025-09-09T23:53:00Z,2025-09-09T19:53:00Z,MVFR,13.9,11.7,100,10,0,NA,989.6,METAR PADQ 092353Z 10010KT 10SM BKN023 OVC028 14/12 A2922 RMK AO2 SLP894 60026 T01390117 10150 20117 56009,2025-09-10T00:12:50Z,2025-09-09T20:12:50Z
PADQ,"Kodiak Arpt, AK, US",2025-09-10T00:23:00Z,2025-09-09T20:23:00Z,IFR,12.2,11.7,120,8,0,1.75,989.6,SPECI PADQ 100023Z 12008KT 1 3/4SM -RA BR SCT006 BKN014 OVC020 12/12 A2922 RMK AO2 RAB06 P0001 T01220117,2025-09-10T00:33:34Z,2025-09-09T20:33:34Z
PADQ,"Kodiak Arpt, AK, US",2025-09-10T00:53:00Z,2025-09-09T20:53:00Z,VFR,12.2,11.7,80,8,0,9,989.2,METAR PADQ 100053Z 08008KT 9SM FEW006 SCT040 OVC075 12/12 A2921 RMK AO2 RAB06E44 SLP890 P0005 T01220117,2025-09-10T01:11:45Z,2025-09-09T21:11:45Z
PADU,"Dutch Harbor/Unalaska Arpt, AK, US",2025-09-10T00:02:00Z,2025-09-09T20:02:00Z,IFR,9,8,310,26,35,1.75,1003.5,SPECI PADU 100002Z 31026G35KT 1 3/4SM -RA BR BKN009 OVC014 09/08 A2963 RMK AO2 PK WND 31035/2357 CIG 007V011 P0000,2025-09-10T00:12:49Z,2025-09-09T20:12:49Z
PADU,"Dutch Harbor/Unalaska Arpt, AK, US",2025-09-10T00:17:00Z,2025-09-09T20:17:00Z,IFR,9,8,310,27,36,4,1003.8,SPECI PADU 100017Z 31027G36KT 4SM -RA BR BKN008 BKN012 OVC014 09/08 A2964 RMK AO2 PK WND 30036/0013 OBS PKWND 29042/0013 BLK WTR NE-E NW P0001,2025-09-10T00:33:34Z,2025-09-09T20:33:34Z
PADU,"Dutch Harbor/Unalaska Arpt, AK, US",2025-09-10T01:03:00Z,2025-09-09T21:03:00Z,IFR,9,8,300,27,36,1.25,1004.5,SPECI PADU 100103Z 30027G36KT 1 1/4SM -RA BR OVC008 09/08 A2966 RMK AO2 PK WND 30036/0057 CIG 008V013 P0000,2025-09-10T01:11:45Z,2025-09-09T21:11:45Z
PAED,"Anchorage/Elmendorf AFB, AK, US",2025-09-09T23:55:00Z,2025-09-09T19:55:00Z,VFR,15.2,9.5,260,5,0,NA,1009.9,METAR PAED 092355Z COR 26005KT 10SM VCSH FEW005 FEW030 BKN060 15/10 A2982 RMK AO2A SLP094 T01520095 10169 20127 53003 $ COR 0006,2025-09-10T00:12:49Z,2025-09-09T20:12:49Z
PAED,"Anchorage/Elmendorf AFB, AK, US",2025-09-10T00:55:00Z,2025-09-09T20:55:00Z,VFR,11.6,10.2,10,5,0,NA,999.7,METAR PAED 100055Z 01005KT 10SM -RA FEW005 SCT020 BKN060 12/10 A2952 RMK AO2A RAE2356RAB34 SLP993 P0000 T01160102 $,2025-09-10T01:11:45Z,2025-09-09T21:11:45Z
PAEH,"Cape Newenham Arpt, AK, US",2025-09-09T23:55:00Z,2025-09-09T19:55:00Z,MVFR,10,9.8,360,22,29,5,991.3,METAR PAEH 092355Z AUTO 36022G29KT 290V070 5SM -RA FEW006 OVC020 10/10 A2927 RMK AO2 SHRAB2256E2318 SLP912 P0006 60039 T01000098 10100 20089 57010 $,2025-09-10T00:12:49Z,2025-09-09T20:12:49Z
PAEH,"Cape Newenham Arpt, AK, US",2025-09-10T00:55:00Z,2025-09-09T20:55:00Z,MVFR,10.1,9.9,10,20,0,9,991.3,METAR PAEH 100055Z AUTO 01020KT 320V020 9SM -SHRA FEW009 OVC019 10/10 A2927 RMK AO2 PK WND 01027/0025 RAB2318E0034SHRAB0052 SLP913 P0002 T01010099 $,2025-09-10T01:11:45Z,2025-09-09T21:11:45Z
PAEI,"Fairbanks/Eielson AFB, AK, US",2025-09-09T23:55:00Z,2025-09-09T19:55:00Z,VFR,19.7,3.4,120,8,0,NA,1001.1,METAR PAEI 092355Z 12008KT 10SM CLR 20/03 A2956 RMK AO2A SLP014 T01970034 10201 20087 57024 $,2025-09-10T00:12:49Z,2025-09-09T20:12:49Z
PAEI,"Fairbanks/Eielson AFB, AK, US",2025-09-10T00:55:00Z,2025-09-09T20:55:00Z,VFR,19.1,3.7,130,7,0,NA,1000.4,METAR PAEI 100055Z 13007KT 10SM FEW190 19/04 A2954 RMK AO2A SLP007 T01910037 $,2025-09-10T01:11:45Z,2025-09-09T21:11:45Z
PAEL,"Elfin Cove, AK, US",2025-09-10T00:56:00Z,2025-09-09T20:56:00Z,MVFR,13,12,0,0,0,6,1013.3,METAR PAEL 100056Z 00000KT 6SM VCFG OVC013 13/12 A2992 RMK NOSPECI,2025-09-10T01:11:45Z,2025-09-09T21:11:45Z
PAEM,"Emmonak Arpt, AK, US",2025-09-09T23:56:00Z,2025-09-09T19:56:00Z,MVFR,8.9,6.1,30,18,23,NA,1006.5,METAR PAEM 092356Z AUTO 03018G23KT 10SM OVC016 09/06 A2972 RMK AO2 PK WND 03027/2315 SLP063 6//// T00890061 10089 20083 58003 PNO $,2025-09-10T00:12:49Z,2025-09-09T20:12:49Z
PAEM,"Emmonak Arpt, AK, US",2025-09-10T00:56:00Z,2025-09-09T20:56:00Z,MVFR,10,5.6,20,16,20,NA,1006.5,METAR PAEM 100056Z AUTO 02016G20KT 10SM BKN018 10/06 A2972 RMK AO2 SLP062 T01000056 PNO $,2025-09-10T01:11:45Z,2025-09-09T21:11:45Z
PAEN,"Kenai Muni, AK, US",2025-09-09T23:53:00Z,2025-09-09T19:53:00Z,VFR,11.7,10,20,19,30,NA,999.4,METAR PAEN 092353Z 02019G30KT 10SM FEW037 BKN070 OVC110 12/10 A2951 RMK AO2 PK WND 02030/2353 RAE47 SLP995 P0000 60009 T01170100 10122 20111 56029,2025-09-10T00:12:50Z,2025-09-09T20:12:50Z
PAEN,"Kenai Muni, AK, US",2025-09-10T01:04:00Z,2025-09-09T21:04:00Z,MVFR,11.7,10,20,21,30,NA,998.7,SPECI PAEN 100104Z 02021G30KT 10SM BKN010 BKN020 OVC075 12/10 A2949 RMK AO2 PK WND 02030/0104 T01170100,2025-09-10T01:11:45Z,2025-09-09T21:11:45Z
PAFA,"Fairbanks Intl, AK, US",2025-09-09T23:53:00Z,2025-09-09T19:53:00Z,VFR,18.3,6.1,60,6,0,NA,1002.1,METAR PAFA 092353Z 06006KT 10SM FEW080 SCT100 SCT200 18/06 A2959 RMK AO2 SLP023 T01830061 10189 20083 58024 $,2025-09-10T00:12:50Z,2025-09-09T20:12:50Z
PAFA,"Fairbanks Intl, AK, US",2025-09-10T00:53:00Z,2025-09-09T20:53:00Z,VFR,17.8,5.6,0,0,0,NA,1001.4,METAR PAFA 100053Z 00000KT 10SM FEW060 SCT100 BKN150 BKN200 18/06 A2957 RMK AO2 SLP016 T01780056 $,2025-09-10T01:11:45Z,2025-09-09T21:11:45Z
PAFB,"Fairbanks/Ladd AAF, AK, US",2025-09-09T23:55:00Z,2025-09-09T19:55:00Z,VFR,19.8,5.4,90,8,0,NA,1001.4,METAR PAFB 092355Z 09008KT 10SM FEW060 SCT120 BKN150 20/05 A2957 RMK AO2A SLP019 T01980054 10200 20088 57025 $,2025-09-10T00:12:49Z,2025-09-09T20:12:49Z
PAFB,"Fairbanks/Ladd AAF, AK, US",2025-09-10T00:55:00Z,2025-09-09T20:55:00Z,VFR,19,5.4,100,5,0,9,1000.8,METAR PAFB 100055Z 10005KT 9SM FEW060 SCT090 BKN150 19/05 A2955 RMK AO2A SLP013 T01900054 $,2025-09-10T01:11:45Z,2025-09-09T21:11:45Z
PAFE,"Kake Arpt, AK, US",2025-09-09T23:56:00Z,2025-09-09T19:56:00Z,MVFR,15.6,12.8,120,8,0,NA,1017,METAR PAFE 092356Z AUTO 12008KT 10SM SCT015 OVC024 16/13 A3003 RMK AO2 SLP177 T01560128 10161 20128 56010 $,2025-09-10T00:12:49Z,2025-09-09T20:12:49Z
PAFE,"Kake Arpt, AK, US",2025-09-10T00:56:00Z,2025-09-09T20:56:00Z,MVFR,15,13.3,120,8,0,NA,1017,METAR PAFE 100056Z AUTO 12008KT 10SM OVC015 15/13 A3003 RMK AO2 RAB41E52 SLP174 P0000 T01500133 $,2025-09-10T01:11:45Z,2025-09-09T21:11:45Z
PAGA,"Galena Arpt, AK, US",2025-09-10T00:07:00Z,2025-09-09T20:07:00Z,MVFR,11,5,360,5,14,NA,1004.8,SPECI PAGA 100007Z AUTO 36005G14KT 10SM BKN028 OVC049 11/05 A2967 RMK AO2 TSNO $,2025-09-10T00:12:49Z,2025-09-09T20:12:49Z
PAGA,"Galena Arpt, AK, US",2025-09-10T00:17:00Z,2025-09-09T20:17:00Z,MVFR,11,4,360,8,16,NA,1004.8,SPECI PAGA 100017Z AUTO 36008G16KT 10SM BKN030 BKN049 OVC075 11/04 A2967 RMK AO2 TSNO $,2025-09-10T00:33:34Z,2025-09-09T20:33:34Z
PAGA,"Galena Arpt, AK, US",2025-09-10T00:56:00Z,2025-09-09T20:56:00Z,VFR,10.6,4.4,10,8,14,NA,1004.8,METAR PAGA 100056Z AUTO 01008G14KT 340V060 10SM SCT030 BKN055 OVC070 11/04 A2967 RMK AO2 SLP047 T01060044 TSNO $,2025-09-10T01:11:45Z,2025-09-09T21:11:45Z
PAGK,"Gulkana Arpt, AK, US",2025-09-09T23:53:00Z,2025-09-09T19:53:00Z,VFR,15,4.4,160,11,22,NA,1005.2,METAR PAGK 092353Z AUTO 16011G22KT 10SM CLR 15/04 A2968 RMK AO2 PK WND 16026/2255 SLP055 T01500044 10161 20100 58025 TSNO,2025-09-10T00:12:50Z,2025-09-09T20:12:50Z
PAGK,"Gulkana Arpt, AK, US",2025-09-10T00:53:00Z,2025-09-09T20:53:00Z,VFR,15.6,3.9,150,16,26,NA,1004.8,METAR PAGK 100053Z AUTO 15016G26KT 10SM BKN100 16/04 A2967 RMK AO2 PK WND 16031/0026 SLP051 T01560039 TSNO,2025-09-10T01:11:45Z,2025-09-09T21:11:45Z
PAGM,"Gambell Arpt, AK, US",2025-09-09T23:56:00Z,2025-09-09T19:56:00Z,VFR,6.1,2.2,30,14,0,NA,1014.6,METAR PAGM 092356Z AUTO 03014KT 10SM CLR 06/02 A2996 RMK AO2 SLP150 T00610022 10067 20061 58001,2025-09-10T00:12:49Z,2025-09-09T20:12:49Z
PAGM,"Gambell Arpt, AK, US",2025-09-10T00:56:00Z,2025-09-09T20:56:00Z,VFR,6.1,2.2,30,15,0,NA,1014.6,METAR PAGM 100056Z AUTO 03015KT 10SM SCT030 06/02 A2996 RMK AO2 SLP150 T00610022,2025-09-10T01:11:45Z,2025-09-09T21:11:45Z
PAGN,"Angoon, AK, US",2025-09-10T01:04:00Z,2025-09-09T21:04:00Z,IFR,13,13,0,0,0,NA,1015.7,SPECI PAGN 100104Z AUTO 00000KT 10SM BKN006 BKN025 OVC033 13/13 A2999 RMK AO2 $,2025-09-10T01:11:45Z,2025-09-09T21:11:45Z
PAGS,"Gustavus Arpt, AK, US",2025-09-10T00:56:00Z,2025-09-09T20:56:00Z,VFR,14.4,13.3,320,3,0,NA,1014.3,METAR PAGS 100056Z AUTO 32003KT 10SM -RA FEW032 OVC045 14/13 A2995 RMK AO2 RAB27 SLP142 P0000 T01440133,2025-09-10T01:11:45Z,2025-09-09T21:11:45Z
PAHC,"Holy Cross Arpt, AK, US",2025-09-09T23:56:00Z,2025-09-09T19:56:00Z,IFR,9.4,8.3,340,12,0,NA,1000.4,METAR PAHC 092356Z AUTO 34012KT 10SM OVC006 09/08 A2954 RMK AO2 RAE35 SLP004 P0000 60002 T00940083 10111 20089 58013,2025-09-10T00:12:49Z,2025-09-09T20:12:49Z
PAHC,"Holy Cross Arpt, AK, US",2025-09-10T00:56:00Z,2025-09-09T20:56:00Z,IFR,9.4,8.3,340,12,19,NA,1000.1,METAR PAHC 100056Z AUTO 34012G19KT 10SM OVC006 09/08 A2953 RMK AO2 SLP002 T00940083,2025-09-10T01:11:45Z,2025-09-09T21:11:45Z
PAHL,"Huslia Arpt, AK, US",2025-09-09T23:56:00Z,2025-09-09T19:56:00Z,VFR,11.1,4.4,VAR,5,0,9,1005.5,METAR PAHL 092356Z AUTO VRB05KT 9SM CLR 11/04 A2969 RMK AO2 SLP056 T01110044 10117 20072 58013 TSNO,2025-09-10T00:12:49Z,2025-09-09T20:12:49Z
PAHL,"Huslia Arpt, AK, US",2025-09-10T00:56:00Z,2025-09-09T20:56:00Z,VFR,11.7,5,20,4,0,NA,1005.2,METAR PAHL 100056Z AUTO 02004KT 10SM CLR 12/05 A2968 RMK AO2 SLP052 T01170050 TSNO,2025-09-10T01:11:45Z,2025-09-09T21:11:45Z
PAHN,"Haines Arpt, AK, US",2025-09-09T23:54:00Z,2025-09-09T19:54:00Z,VFR,15.6,11.1,VAR,NA,0,NA,1014.3,METAR PAHN 092354Z AUTO 10SM -RA SCT024 OVC070 16/11 A2995 RMK AO2 RAB30 SLP143 P0000 60000 T01560111 10172 20139 58009 TSNO,2025-09-10T00:12:50Z,2025-09-09T20:12:50Z
PAHN,"Haines Arpt, AK, US",2025-09-10T00:23:00Z,2025-09-09T20:23:00Z,VFR,15.6,11.1,130,10,17,NA,1014,SPECI PAHN 100023Z AUTO 13010G17KT 10SM -RA SCT020 OVC070 16/11 A2994 RMK AO2 P0000 T01560111 TSNO,2025-09-10T00:33:34Z,2025-09-09T20:33:34Z
PAHN,"Haines Arpt, AK, US",2025-09-10T00:54:00Z,2025-09-09T20:54:00Z,VFR,15,11.1,110,7,17,NA,1014,METAR PAHN 100054Z AUTO 11007G17KT 10SM -RA FEW020 OVC065 15/11 A2994 RMK AO2 SLP140 P0000 T01500111 TSNO,2025-09-10T01:11:45Z,2025-09-09T21:11:45Z
PAHO,"Homer Arpt, AK, US",2025-09-09T23:53:00Z,2025-09-09T19:53:00Z,VFR,14.4,8.3,80,14,21,NA,996.4,METAR PAHO 092353Z 08014G21KT 10SM BKN060 OVC075 14/08 A2942 RMK AO2 PK WND 10026/2317 RAB07E43 SLP962 P0000 60001 T01440083 10144 20122 58029 $,2025-09-10T00:12:50Z,2025-09-09T20:12:50Z
PAHO,"Homer Arpt, AK, US",2025-09-10T00:53:00Z,2025-09-09T20:53:00Z,VFR,15.6,7.8,60,18,27,NA,994.7,METAR PAHO 100053Z 06018G27KT 10SM BKN060 16/08 A2937 RMK AO2 PK WND 08027/0052 SLP945 T01560078 $,2025-09-10T01:11:45Z,2025-09-09T21:11:45Z
PAII,"Egegik Arpt, AK, US",2025-09-09T23:56:00Z,2025-09-09T19:56:00Z,VFR,12.2,11.7,110,11,16,NA,987.2,METAR PAII 092356Z AUTO 11011G16KT 10SM -RA OVC075 12/12 A2915 RMK AO2 SLP867 P0000 60007 T01220117 10128 20122 58013,2025-09-10T00:12:49Z,2025-09-09T20:12:49Z
PAII,"Egegik Arpt, AK, US",2025-09-10T00:56:00Z,2025-09-09T20:56:00Z,VFR,12.2,11.1,100,9,0,NA,986.9,METAR PAII 100056Z AUTO 10009KT 10SM -RA OVC060 12/11 A2914 RMK AO2 SLP866 P0000 T01220111,2025-09-10T01:11:45Z,2025-09-09T21:11:45Z
PAIL,"Iliamna Arpt, AK, US",2025-09-09T23:52:00Z,2025-09-09T19:52:00Z,VFR,24,8,90,14,30,NA,993.6,METAR PAIL 092352Z 09014G30KT 10SM BKN055 OVC070 24/08 A2934 RMK PK WND 07034/2300,2025-09-10T00:12:50Z,2025-09-09T20:12:50Z
PAIL,"Iliamna Arpt, AK, US",2025-09-10T00:52:00Z,2025-09-09T20:52:00Z,VFR,14,8,80,17,28,NA,992.6,METAR PAIL 100052Z 08017G28KT 10SM OVC050 14/08 A2931 RMK PK WND 080/2356,2025-09-10T01:11:45Z,2025-09-09T21:11:45Z
PAIM,"Indian Mtn Arpt, AK, US",2025-09-09T23:55:00Z,2025-09-09T19:55:00Z,MVFR,8.1,7.4,110,7,0,NA,1004.5,METAR PAIM 092355Z AUTO 11007KT 10SM OVC011 08/07 A2966 RMK AO2 SLP049 60003 T00810074 10084 20067 58011,2025-09-10T00:12:49Z,2025-09-09T20:12:49Z
PAIM,"Indian Mtn Arpt, AK, US",2025-09-10T00:55:00Z,2025-09-09T20:55:00Z,MVFR,9,8,120,4,0,NA,1004.1,SPECI PAIM 100055Z AUTO 12004KT 10SM OVC011 09/08 A2965 RMK AO2 SLP046,2025-09-10T01:11:45Z,2025-09-09T21:11:45Z
PAJN,"Juneau Intl, AK, US",2025-09-09T23:53:00Z,2025-09-09T19:53:00Z,VFR,14.4,11.7,90,11,0,NA,1015.3,METAR PAJN 092353Z 09011KT 10SM SCT017 BKN031 BKN049 OVC140 14/12 A2998 RMK AO2 RAE49 SLP152 P0000 60000 T01440117 10150 20133 58009 $,2025-09-10T00:12:50Z,2025-09-09T20:12:50Z
PAJN,"Juneau Intl, AK, US",2025-09-10T00:53:00Z,2025-09-09T20:53:00Z,VFR,14.4,11.1,120,13,0,NA,1015,METAR PAJN 100053Z 12013KT 10SM FEW017 BKN040 OVC140 14/11 A2997 RMK AO2 SLP147 T01440111 $,2025-09-10T01:11:45Z,2025-09-09T21:11:45Z
PAKN,"King Salmon Arpt, AK, US",2025-09-09T23:54:00Z,2025-09-09T19:54:00Z,VFR,14.4,10,100,10,23,NA,986.2,METAR PAKN 092354Z 10010G23KT 070V130 10SM OVC050 14/10 A2912 RMK AO2 PK WND 11030/2256 RAE47 SLP860 P0001 60004 T01440100 10156 20133 58014,2025-09-10T00:12:50Z,2025-09-09T20:12:50Z
PAKN,"King Salmon Arpt, AK, US",2025-09-10T00:54:00Z,2025-09-09T20:54:00Z,VFR,13.3,11.1,140,11,15,7,986.2,METAR PAKN 100054Z 14011G15KT 7SM -RA BKN039 OVC050 13/11 A2912 RMK AO2 RAB2358E47B53 SLP860 P0000 T01330111,2025-09-10T01:11:45Z,2025-09-09T21:11:45Z
PAKP,"Anaktuvuk Pass Arpt, AK, US",2025-09-09T23:56:00Z,2025-09-09T19:56:00Z,MVFR,3.9,0.6,50,9,0,NA,1004.5,METAR PAKP 092356Z AUTO 05009KT 10SM OVC026 04/01 A2966 RMK AO2 SLP080 6//// T00390006 10044 20011 55006 PNO $,2025-09-10T00:12:49Z,2025-09-09T20:12:49Z
PAKP,"Anaktuvuk Pass Arpt, AK, US",2025-09-10T00:56:00Z,2025-09-09T20:56:00Z,MVFR,3.9,0.6,50,12,0,NA,1003.1,METAR PAKP 100056Z AUTO 05012KT 10SM OVC024 04/01 A2962 RMK AO2 SLP065 T00390006 PNO $,2025-09-10T01:11:45Z,2025-09-09T21:11:45Z
PAKT,"Ketchikan Intl, AK, US",2025-09-09T23:53:00Z,2025-09-09T19:53:00Z,VFR,18.9,11.1,330,10,0,NA,1016.7,METAR PAKT 092353Z 33010KT 10SM CLR 19/11 A3002 RMK AO2 SLP165 HARBOR WIND 28010KT T01890111 10189 20150 56008,2025-09-10T00:12:50Z,2025-09-09T20:12:50Z
PAKW,"Klawock Arpt, AK, US",2025-09-09T23:53:00Z,2025-09-09T19:53:00Z,MVFR,17.2,12.2,210,4,0,NA,1017,METAR PAKW 092353Z AUTO 21004KT 10SM OVC028 17/12 A3003 RMK AO2 SLP168 T01720122 10194 20167 58001 TSNO,2025-09-10T00:12:50Z,2025-09-09T20:12:50Z
PAKW,"Klawock Arpt, AK, US",2025-09-10T00:53:00Z,2025-09-09T20:53:00Z,MVFR,17.8,12.2,0,0,0,9,1016.3,METAR PAKW 100053Z AUTO 00000KT 9SM OVC027 18/12 A3001 RMK AO2 SLP161 T01780122 TSNO,2025-09-10T01:11:45Z,2025-09-09T21:11:45Z
PALH,"Lake Hood, AK, US",2025-09-10T00:53:00Z,2025-09-09T20:53:00Z,MVFR,11.7,10.6,360,5,0,4,1000.8,METAR PALH 100053Z 36005KT 4SM -RA BR OVC060 12/11 A2955 RMK AO2 SLP006 P0009 T01170106,2025-09-10T01:11:45Z,2025-09-09T21:11:45Z
PALU,"Cape Lisburne Arpt, AK, US",2025-09-09T23:55:00Z,2025-09-09T19:55:00Z,MVFR,6,2,10,11,0,NA,1013.6,METAR PALU 092355Z 01011KT 10SM BKN030 BKN140 06/02 A2993 RMK AO2A SLP136 60001 54002 BWC MOD,2025-09-10T00:12:49Z,2025-09-09T20:12:49Z
PALU,"Cape Lisburne Arpt, AK, US",2025-09-10T00:55:00Z,2025-09-09T20:55:00Z,MVFR,6.2,2.4,350,10,0,NA,1013.6,METAR PALU 100055Z AUTO 35010KT 290V020 10SM FEW021 BKN023 BKN140 06/02 A2993 RMK AO2 RAB2102E2123B2233E2243SHRAB2123E2135B2243E2255DZB2227E2233 SLP135 T00620024,2025-09-10T01:11:45Z,2025-09-09T21:11:45Z
PAMC,"McGrath Arpt, AK, US",2025-09-09T23:53:00Z,2025-09-09T19:53:00Z,VFR,12.2,9.4,50,8,0,NA,1000.1,METAR PAMC 092353Z 05008KT 10SM -RA SCT010 OVC065 12/09 A2953 RMK AO2 RAB49 SLP003 P0000 60002 T01220094 10122 20094 58019 $,2025-09-10T00:12:50Z,2025-09-09T20:12:50Z
PAMC,"McGrath Arpt, AK, US",2025-09-10T00:53:00Z,2025-09-09T20:53:00Z,VFR,12.8,10,30,10,0,NA,999.4,METAR PAMC 100053Z 03010KT 10SM SCT015 BKN065 13/10 A2951 RMK AO2 RAE2356 SLP995 P0000 T01280100 $,2025-09-10T01:11:45Z,2025-09-09T21:11:45Z
PAMR,"Anchorage/Merrill Fld, AK, US",2025-09-10T00:06:00Z,2025-09-09T20:06:00Z,VFR,11.7,10.6,340,6,0,NA,1000.8,SPECI PAMR 100006Z 34006KT 10SM -RA FEW007 OVC065 12/11 A2955 RMK AO2 P0001 T01170106,2025-09-10T00:12:49Z,2025-09-09T20:12:49Z
PAMR,"Anchorage/Merrill Fld, AK, US",2025-09-10T00:53:00Z,2025-09-09T20:53:00Z,VFR,11.7,10.6,0,0,0,NA,1000.4,METAR PAMR 100053Z 00000KT 10SM -RA FEW009 OVC065 12/11 A2954 RMK AO2 SLP004 P0004 T01170106,2025-09-10T01:11:45Z,2025-09-09T21:11:45Z
PAMY,"Mekoryuk Arpt, AK, US",2025-09-09T23:56:00Z,2025-09-09T19:56:00Z,MVFR,11.1,8.3,360,25,32,NA,1002.5,METAR PAMY 092356Z AUTO 36025G32KT 10SM BKN017 OVC027 11/08 A2960 RMK AO2 PK WND 01034/2331 SLP023 T01110083 10117 20100 55000,2025-09-10T00:12:49Z,2025-09-09T20:12:49Z
PAMY,"Mekoryuk Arpt, AK, US",2025-09-10T00:56:00Z,2025-09-09T20:56:00Z,VFR,12.2,8.9,360,23,32,NA,1002.8,METAR PAMY 100056Z AUTO 36023G32KT 10SM SCT027 12/09 A2961 RMK AO2 PK WND 36032/0050 SLP026 T01220089,2025-09-10T01:11:45Z,2025-09-09T21:11:45Z
PANC,"Anchorage Intl, AK, US",2025-09-09T23:53:00Z,2025-09-09T19:53:00Z,MVFR,11.1,10.6,330,4,0,5,1001.1,METAR PANC 092353Z 33004KT 5SM -RA BR FEW050 OVC060 11/11 A2956 RMK AO2 SLP011 P0010 60027 T01110106 10117 20111 58027,2025-09-10T00:12:50Z,2025-09-09T20:12:50Z
PANC,"Anchorage Intl, AK, US",2025-09-10T00:53:00Z,2025-09-09T20:53:00Z,MVFR,11.1,11.1,330,5,0,4,1000.4,METAR PANC 100053Z 33005KT 4SM -RA BR FEW006 OVC060 11/11 A2954 RMK AO2 SLP003 P0011 T01110111,2025-09-10T01:11:45Z,2025-09-09T21:11:45Z
PANI,"Aniak Arpt, AK, US",2025-09-10T00:10:00Z,2025-09-09T20:10:00Z,MVFR,12,10,VAR,5,0,NA,998.1,SPECI PANI 100010Z AUTO VRB05KT 10SM -RA BKN014 OVC065 12/10 A2947 RMK AO2 P0000 $,2025-09-10T00:12:49Z,2025-09-09T20:12:49Z
PANI,"Aniak Arpt, AK, US",2025-09-10T00:56:00Z,2025-09-09T20:56:00Z,MVFR,11.1,10,VAR,6,0,NA,997.7,METAR PANI 100056Z AUTO VRB06KT 10SM -RA BKN020 OVC065 11/10 A2946 RMK AO2 SLP978 P0000 T01110100 $,2025-09-10T01:11:45Z,2025-09-09T21:11:45Z
PANN,"Nenana Muni, AK, US",2025-09-09T23:53:00Z,2025-09-09T19:53:00Z,VFR,16.1,8.9,60,4,0,NA,1001.1,METAR PANN 092353Z AUTO 06004KT 10SM SCT080 16/09 A2956 RMK AO2 SLP015 T01610089 10167 20100 58019 TSNO,2025-09-10T00:12:50Z,2025-09-09T20:12:50Z
PANN,"Nenana Muni, AK, US",2025-09-10T00:53:00Z,2025-09-09T20:53:00Z,VFR,16.1,8.3,60,5,0,NA,1000.8,METAR PANN 100053Z AUTO 06005KT 10SM OVC080 16/08 A2955 RMK AO2 SLP010 T01610083 TSNO,2025-09-10T01:11:45Z,2025-09-09T21:11:45Z
PANV,"Anvik Arpt, AK, US",2025-09-09T23:56:00Z,2025-09-09T19:56:00Z,MVFR,8.3,6.7,30,10,16,NA,1001.4,METAR PANV 092356Z AUTO 03010G16KT 10SM OVC014 08/07 A2957 RMK AO2 SLP074 60003 T00830067 10083 20072 58007 TSNO,2025-09-10T00:12:49Z,2025-09-09T20:12:49Z
PANV,"Anvik Arpt, AK, US",2025-09-10T00:13:00Z,2025-09-09T20:13:00Z,MVFR,8,6,30,14,20,NA,1001.1,SPECI PANV 100013Z AUTO 03014G20KT 10SM OVC016 08/06 A2956 RMK AO2 TSNO,2025-09-10T00:33:34Z,2025-09-09T20:33:34Z
PANV,"Anvik Arpt, AK, US",2025-09-10T00:56:00Z,2025-09-09T20:56:00Z,MVFR,8.9,6.1,20,11,19,NA,1001.1,METAR PANV 100056Z AUTO 02011G19KT 10SM OVC016 09/06 A2956 RMK AO2 RAB21E49 SLP068 P0000 T00890061 TSNO,2025-09-10T01:11:45Z,2025-09-09T21:11:45Z
PAOM,"Nome Arpt, AK, US",2025-09-09T23:53:00Z,2025-09-09T19:53:00Z,VFR,11.7,3.3,20,10,18,NA,1008.2,METAR PAOM 092353Z 02010G18KT 10SM CLR 12/03 A2977 RMK AO2 SLP080 T01170033 10117 20067 56008,2025-09-10T00:12:50Z,2025-09-09T20:12:50Z
PAOM,"Nome Arpt, AK, US",2025-09-10T00:53:00Z,2025-09-09T20:53:00Z,VFR,11.1,3.3,360,13,0,NA,1007.9,METAR PAOM 100053Z 36013KT 10SM CLR 11/03 A2976 RMK AO2 SLP079 T01110033,2025-09-10T01:11:45Z,2025-09-09T21:11:45Z
PAOR,"Northway Arpt, AK, US",2025-09-09T23:53:00Z,2025-09-09T19:53:00Z,VFR,18.3,2.2,150,8,0,NA,1005.2,METAR PAOR 092353Z 15008KT 10SM FEW055 18/02 A2968 RMK AO2 SLP053 T01830022 10194 20106 56027 $,2025-09-10T00:12:50Z,2025-09-09T20:12:50Z
PAOR,"Northway Arpt, AK, US",2025-09-10T00:53:00Z,2025-09-09T20:53:00Z,VFR,17.2,1.7,130,6,0,NA,1004.5,METAR PAOR 100053Z 13006KT 10SM CLR 17/02 A2966 RMK AO2 SLP048 T01720017 $,2025-09-10T01:11:45Z,2025-09-09T21:11:45Z
PAOT,"Kotzebue/Wien Mem, AK, US",2025-09-09T23:53:00Z,2025-09-09T19:53:00Z,VFR,9.4,5,290,9,0,9,1008.2,METAR PAOT 092353Z 29009KT 9SM CLR 09/05 A2977 RMK AO2 SLP081 T00940050 10094 20061 58006,2025-09-10T00:12:50Z,2025-09-09T20:12:50Z
PAOT,"Kotzebue/Wien Mem, AK, US",2025-09-10T00:53:00Z,2025-09-09T20:53:00Z,VFR,9.4,5.6,290,11,0,NA,1007.9,METAR PAOT 100053Z 29011KT 10SM CLR 09/06 A2976 RMK AO2 SLP077 T00940056,2025-09-10T01:11:45Z,2025-09-09T21:11:45Z
PAPB,"St George Arpt, AK, US",2025-09-09T23:53:00Z,2025-09-09T19:53:00Z,MVFR,9.4,6.1,340,27,41,NA,1006.5,METAR PAPB 092353Z AUTO 34027G41KT 10SM SCT019 OVC024 09/06 A2972 RMK AO2 PK WND 32041/2350 SLP050 T00940061 10106 20083 52010 TSNO,2025-09-10T00:12:50Z,2025-09-09T20:12:50Z
PAPB,"St George Arpt, AK, US",2025-09-10T00:53:00Z,2025-09-09T20:53:00Z,MVFR,9.4,6.1,350,25,38,NA,1006.9,METAR PAPB 100053Z AUTO 35025G38KT 10SM BKN018 OVC023 09/06 A2973 RMK AO2 PK WND 33042/2356 SLP054 T00940061 TSNO,2025-09-10T01:11:45Z,2025-09-09T21:11:45Z
PAPG,"Petersburg Arpt, AK, US",2025-09-09T23:56:00Z,2025-09-09T19:56:00Z,MVFR,14.4,12.8,0,0,0,NA,1017,METAR PAPG 092356Z 00000KT 10SM SCT017 BKN027 OVC060 14/13 A3003 RMK AO2 SLP174 60007 T01440128 10150 20122 58007,2025-09-10T00:12:49Z,2025-09-09T20:12:49Z
PAPG,"Petersburg Arpt, AK, US",2025-09-10T00:56:00Z,2025-09-09T20:56:00Z,VFR,15.6,13.3,70,3,0,NA,1016.7,METAR PAPG 100056Z 07003KT 10SM SCT017 BKN032 OVC060 16/13 A3002 RMK AO2 SLP168 T01560133,2025-09-10T01:11:45Z,2025-09-09T21:11:45Z
PAPH,"Port Heiden Arpt, AK, US",2025-09-09T23:56:00Z,2025-09-09T19:56:00Z,VFR,12.8,NA,30,13,0,NA,984.2,METAR PAPH 092356Z AUTO 03013KT 10SM -RA BKN039 BKN047 OVC055 13/ A2906 RMK AO2 SLP840 P0000 60004 T0128 10128 20111 58008 $,2025-09-10T00:12:49Z,2025-09-09T20:12:49Z
PAPH,"Port Heiden Arpt, AK, US",2025-09-10T00:56:00Z,2025-09-09T20:56:00Z,VFR,12.8,NA,30,12,0,NA,984.2,METAR PAPH 100056Z AUTO 03012KT 10SM BKN070 OVC080 13/ A2906 RMK AO2 RAE08B28E50 SLP840 P0000 T0128 $,2025-09-10T01:11:45Z,2025-09-09T21:11:45Z
PAPM,"Platinum Arpt, AK, US",2025-09-09T23:56:00Z,2025-09-09T19:56:00Z,MVFR,11.7,NA,350,17,0,NA,990.9,METAR PAPM 092356Z AUTO 35017KT 10SM -RA OVC030 12/ A2926 RMK AO2 RAB29 SLP911 6//// T0117 10122 20100 56003 TSNO PNO $,2025-09-10T00:12:49Z,2025-09-09T20:12:49Z
PAPM,"Platinum Arpt, AK, US",2025-09-10T00:56:00Z,2025-09-09T20:56:00Z,NA,12.2,NA,360,21,24,NA,990.9,METAR PAPM 100056Z AUTO 36021G24KT 10SM 12/ A2926 RMK AO2 RAEMM SLP908 T0122 TSNO PNO $,2025-09-10T01:11:45Z,2025-09-09T21:11:45Z
PAQT,"Nuiqsut Arpt, AK, US",2025-09-09T23:53:00Z,2025-09-09T19:53:00Z,IFR,5.6,2.8,40,6,0,NA,1012.3,METAR PAQT 092353Z AUTO 04006KT 10SM OVC008 06/03 A2989 RMK AO2 CIG 007V011 SLP121 60000 T00560028 10061 20044 58002 TSNO $,2025-09-10T00:12:50Z,2025-09-09T20:12:50Z
PAQT,"Nuiqsut Arpt, AK, US",2025-09-10T00:13:00Z,2025-09-09T20:13:00Z,MVFR,6.1,2.8,VAR,5,0,NA,1012.3,SPECI PAQT 100013Z AUTO VRB05KT 10SM OVC010 06/03 A2989 RMK AO2 T00610028 TSNO $,2025-09-10T00:33:34Z,2025-09-09T20:33:34Z
PAQT,"Nuiqsut Arpt, AK, US",2025-09-10T00:53:00Z,2025-09-09T20:53:00Z,IFR,5.6,2.8,30,7,0,NA,1012.3,METAR PAQT 100053Z AUTO 03007KT 10SM OVC008 06/03 A2989 RMK AO2 SLP122 T00560028 TSNO $,2025-09-10T01:11:45Z,2025-09-09T21:11:45Z
PARC,"Arctic Village Arpt, AK, US",2025-09-09T23:56:00Z,2025-09-09T19:56:00Z,VFR,12.8,5,180,7,0,NA,1003.8,METAR PARC 092356Z AUTO 18007KT 10SM OVC050 13/05 A2964 RMK AO2 SLP066 T01280050 10128 20078 58006 TSNO,2025-09-10T00:12:49Z,2025-09-09T20:12:49Z
PARC,"Arctic Village Arpt, AK, US",2025-09-10T00:56:00Z,2025-09-09T20:56:00Z,VFR,10.6,5.6,180,5,0,NA,1003.8,METAR PARC 100056Z AUTO 18005KT 10SM SCT070 11/06 A2964 RMK AO2 SLP068 T01060056 TSNO,2025-09-10T01:11:45Z,2025-09-09T21:11:45Z
PARY,"Ruby Arpt, AK, US",2025-09-09T23:56:00Z,2025-09-09T19:56:00Z,MVFR,9.4,7.2,VAR,3,0,NA,1003.8,METAR PARY 092356Z AUTO VRB03KT 10SM OVC015 09/07 A2964 RMK AO2 SLP043 60000 T00940072 10094 20078 56013 TSNO,2025-09-10T00:12:49Z,2025-09-09T20:12:49Z
PARY,"Ruby Arpt, AK, US",2025-09-10T00:56:00Z,2025-09-09T20:56:00Z,MVFR,8.9,7.8,VAR,3,0,NA,1003.5,METAR PARY 100056Z AUTO VRB03KT 10SM RA OVC015 09/08 A2963 RMK AO2 RAB05 SLP041 P0003 T00890078 TSNO,2025-09-10T01:11:45Z,2025-09-09T21:11:45Z
PASC,"Deadhorse Arpt, AK, US",2025-09-09T23:57:00Z,2025-09-09T19:57:00Z,MVFR,3.3,1.7,10,9,0,NA,1010.9,SPECI PASC 092357Z 01009KT 10SM SCT008 BKN010 OVC018 03/02 A2985 RMK AO2 CIG 008V012 CIG LWR NW-E T00330017 $,2025-09-10T00:12:49Z,2025-09-09T20:12:49Z
PASC,"Deadhorse Arpt, AK, US",2025-09-10T01:04:00Z,2025-09-09T21:04:00Z,IFR,2.8,1.7,10,9,0,NA,1011.3,SPECI PASC 100104Z 01009KT 10SM BKN007 BKN010 OVC014 03/02 A2986 RMK AO2 CIG LWR NW-E T00280017 $,2025-09-10T01:11:45Z,2025-09-09T21:11:45Z
PASD,"Sand Point Arpt, AK, US",2025-09-10T00:11:00Z,2025-09-09T20:11:00Z,VFR,12,11,340,11,0,NA,NA,SPECI PASD 100011Z 34011KT 10SM SCT019 BKN035 BKN070 12/11 RMK AO2 $,2025-09-10T00:12:49Z,2025-09-09T20:12:49Z
PASD,"Sand Point Arpt, AK, US",2025-09-10T00:32:00Z,2025-09-09T20:32:00Z,VFR,13,12,340,10,0,NA,NA,SPECI PASD 100032Z 34010KT 10SM SCT020 BKN038 BKN070 13/12 RMK AO2 $,2025-09-10T00:33:34Z,2025-09-09T20:33:34Z
PASD,"Sand Point Arpt, AK, US",2025-09-10T01:01:00Z,2025-09-09T21:01:00Z,VFR,13,12,330,10,0,NA,NA,SPECI PASD 100101Z 33010KT 10SM FEW021 BKN035 BKN070 13/12 RMK AO2 $,2025-09-10T01:11:45Z,2025-09-09T21:11:45Z
PASI,"Sitka/Gutierrez Arpt, AK, US",2025-09-09T23:13:00Z,2025-09-09T19:13:00Z,LIFR,16,14,180,5,0,2.5,1015.7,METAR PASI 092313Z 18005KT 2 1/2SM -RA BR OVC004 16/14 A2999 RMK CIG 004V007,2025-09-10T00:12:50Z,2025-09-09T20:12:50Z
PASI,"Sitka/Gutierrez Arpt, AK, US",2025-09-10T00:28:00Z,2025-09-09T20:28:00Z,MVFR,15,15,190,6,0,7,1015.3,METAR PASI 100028Z 19006KT 7SM SCT007 BKN012 OVC024 15/15 A2998,2025-09-10T00:33:34Z,2025-09-09T20:33:34Z
PASN,"St Paul Island Arpt, AK, US",2025-09-09T23:53:00Z,2025-09-09T19:53:00Z,MVFR,10,5,350,27,38,NA,1007.2,METAR PASN 092353Z AUTO 35027G38KT 10SM OVC025 10/05 A2974 RMK AO2 PK WND 36038/2345 SLP071 T01000050 10106 20089 51008 TSNO $,2025-09-10T00:12:50Z,2025-09-09T20:12:50Z
PASN,"St Paul Island Arpt, AK, US",2025-09-10T00:53:00Z,2025-09-09T20:53:00Z,MVFR,9.4,5.6,360,24,33,NA,1007.5,METAR PASN 100053Z AUTO 36024G33KT 10SM OVC018 09/06 A2975 RMK AO2 PK WND 35035/2355 SLP074 T00940056 TSNO $,2025-09-10T01:11:45Z,2025-09-09T21:11:45Z
PASV,"Sparrevohn Arpt, AK, US",2025-09-09T23:55:00Z,2025-09-09T19:55:00Z,VFR,11,4.8,20,9,0,NA,995.7,METAR PASV 092355Z AUTO 02009KT 330V160 10SM OVC080 11/05 A2940 RMK AO2 SLP955 60019 T01100048 10112 20075 57024,2025-09-10T00:12:49Z,2025-09-09T20:12:49Z
PASV,"Sparrevohn Arpt, AK, US",2025-09-10T00:55:00Z,2025-09-09T20:55:00Z,VFR,11.4,5.6,20,10,0,NA,995,METAR PASV 100055Z AUTO 02010KT 310V100 10SM BKN080 BKN120 BKN230 11/06 A2938 RMK AO2 SLP949 T01140056,2025-09-10T01:11:45Z,2025-09-09T21:11:45Z
PASX,"Soldotna Arpt, AK, US",2025-09-09T23:56:00Z,2025-09-09T19:56:00Z,VFR,12.2,10.6,50,11,17,NA,999.4,METAR PASX 092356Z AUTO 05011G17KT 10SM FEW070 BKN120 12/11 A2951 RMK AO2 RAE42 SLP998 P0001 60012 T01220106 10122 20106 56026 TSNO,2025-09-10T00:12:49Z,2025-09-09T20:12:49Z
PASX,"Soldotna Arpt, AK, US",2025-09-10T00:56:00Z,2025-09-09T20:56:00Z,VFR,11.7,10,20,13,18,NA,998.7,METAR PASX 100056Z AUTO 02013G18KT 10SM BKN070 BKN085 OVC110 12/10 A2949 RMK AO2 SLP992 T01170100 TSNO,2025-09-10T01:11:45Z,2025-09-09T21:11:45Z
PASY,"Shemya/Eareckson Arpt, AK, US",2025-09-09T22:55:00Z,2025-09-09T18:55:00Z,MVFR,12.1,10.8,150,8,0,NA,1018.7,METAR PASY 092255Z AUTO 15008KT 10SM OVC021 12/11 A3008 RMK AO2 SLP189 T01210108 FZRANO $,2025-09-10T00:12:50Z,2025-09-09T20:12:50Z
PASY,"Shemya/Eareckson Arpt, AK, US",2025-09-09T23:56:00Z,2025-09-09T19:56:00Z,MVFR,12.7,10.9,150,8,0,NA,1018.4,METAR PASY 092356Z 15008KT 10SM BKN026 13/11 A3007 RMK AO2A SLP186 70009 T01270109 10129 20111 58002 PNO FZRANO $,2025-09-10T00:33:34Z,2025-09-09T20:33:34Z
PASY,"Shemya/Eareckson Arpt, AK, US",2025-09-10T00:55:00Z,2025-09-09T20:55:00Z,VFR,13.4,11.3,150,10,0,NA,1018.4,METAR PASY 100055Z AUTO 15010KT 10SM BKN032 OVC065 13/11 A3007 RMK AO2 SLP186 T01340113 FZRANO $,2025-09-10T01:11:45Z,2025-09-09T21:11:45Z
PATK,"Talkeetna Arpt, AK, US",2025-09-09T23:53:00Z,2025-09-09T19:53:00Z,VFR,12.8,10.6,0,0,0,NA,1002.8,METAR PATK 092353Z 00000KT 10SM -RA OVC070 13/11 A2961 RMK AO2 SLP030 P0000 60000 T01280106 10128 20100 56019 $,2025-09-10T00:12:50Z,2025-09-09T20:12:50Z
PATK,"Talkeetna Arpt, AK, US",2025-09-10T00:53:00Z,2025-09-09T20:53:00Z,VFR,12.2,10,330,4,0,NA,1002.5,METAR PATK 100053Z 33004KT 10SM -RA OVC070 12/10 A2960 RMK AO2 SLP025 P0001 T01220100 $,2025-09-10T01:11:45Z,2025-09-09T21:11:45Z
PATL,"Tatalina Arpt, AK, US",2025-09-09T23:55:00Z,2025-09-09T19:55:00Z,IFR,11,9.3,70,10,0,NA,1000.8,METAR PATL 092355Z AUTO 07010KT 010V100 10SM BKN008 BKN048 11/09 A2955 RMK AO2 SLP008 60002 T01100093 10098 20079 57019,2025-09-10T00:12:49Z,2025-09-09T20:12:49Z
PATL,"Tatalina Arpt, AK, US",2025-09-10T00:55:00Z,2025-09-09T20:55:00Z,VFR,11.3,9.3,70,11,0,NA,1000.1,METAR PATL 100055Z AUTO 07011KT 10SM SCT009 BKN048 BKN130 11/09 A2953 RMK AO2 SLP001 T01130093,2025-09-10T01:11:45Z,2025-09-09T21:11:45Z
PATQ,"Atqasuk/Burnell Mem, AK, US",2025-09-09T23:56:00Z,2025-09-09T19:56:00Z,IFR,3.9,2.2,90,5,0,NA,1011.3,METAR PATQ 092356Z AUTO 09005KT 10SM OVC009 04/02 A2986 RMK AO2 SLP117 60000 T00390022 10039 20022 58001 TSNO,2025-09-10T00:12:49Z,2025-09-09T20:12:49Z
PATQ,"Atqasuk/Burnell Mem, AK, US",2025-09-10T00:56:00Z,2025-09-09T20:56:00Z,IFR,3.3,1.7,90,7,0,NA,1011.3,METAR PATQ 100056Z AUTO 09007KT 10SM BKN007 OVC023 03/02 A2986 RMK AO2 SLP115 T00330017 TSNO,2025-09-10T01:11:45Z,2025-09-09T21:11:45Z
PAUN,"Unalakleet Arpt, AK, US",2025-09-09T23:56:00Z,2025-09-09T19:56:00Z,VFR,11.7,4.4,20,11,0,NA,1004.8,METAR PAUN 092356Z AUTO 02011KT 10SM FEW036 12/04 A2967 RMK AO2 SLP049 T01170044 10117 20067 58017,2025-09-10T00:12:49Z,2025-09-09T20:12:49Z
PAUN,"Unalakleet Arpt, AK, US",2025-09-10T00:56:00Z,2025-09-09T20:56:00Z,VFR,12.2,3.9,30,14,0,NA,1004.5,METAR PAUN 100056Z AUTO 03014KT 10SM FEW040 12/04 A2966 RMK AO2 SLP049 T01220039,2025-09-10T01:11:45Z,2025-09-09T21:11:45Z
PAVD,"Valdez Arpt, AK, US",2025-09-09T23:56:00Z,2025-09-09T19:56:00Z,MVFR,11,11,80,4,0,NA,1009.9,METAR PAVD 092356Z 08004KT 10SM -RA SCT003 BKN010 OVC055 11/11 A2982 RMK RAB30,2025-09-10T00:12:49Z,2025-09-09T20:12:49Z
PAVD,"Valdez Arpt, AK, US",2025-09-10T00:56:00Z,2025-09-09T20:56:00Z,MVFR,11,11,0,0,0,NA,1008.9,METAR PAVD 100056Z 00000KT 10SM -RA SCT003 BKN010 OVC055 11/11 A2979,2025-09-10T01:11:45Z,2025-09-09T21:11:45Z
PAWD,"Seward Arpt, AK, US",2025-09-09T23:53:00Z,2025-09-09T19:53:00Z,VFR,13.3,9.4,170,5,0,NA,1000.8,METAR PAWD 092353Z AUTO 17005KT 10SM -RA FEW046 BKN060 OVC070 13/09 A2955 RMK AO2 SLP006 P0010 60046 T01330094 10133 20111 58027 TSNO,2025-09-10T00:12:50Z,2025-09-09T20:12:50Z
PAWD,"Seward Arpt, AK, US",2025-09-10T00:53:00Z,2025-09-09T20:53:00Z,MVFR,12.2,9.4,210,14,23,5,1000.1,METAR PAWD 100053Z AUTO 21014G23KT 5SM RA OVC055 12/09 A2953 RMK AO2 SLP999 P0011 T01220094 TSNO,2025-09-10T01:11:45Z,2025-09-09T21:11:45Z
PAWG,"Wrangell Arpt, AK, US",2025-09-09T23:56:00Z,2025-09-09T19:56:00Z,VFR,15.6,11.7,280,5,0,NA,1017.4,METAR PAWG 092356Z 28005KT 10SM SCT035 BKN060 16/12 A3004 RMK AO2 SLP172 T01560117 10161 20128 56007 $,2025-09-10T00:12:49Z,2025-09-09T20:12:49Z
PAWG,"Wrangell Arpt, AK, US",2025-09-10T00:56:00Z,2025-09-09T20:56:00Z,VFR,15,11.7,340,5,0,NA,1016.7,METAR PAWG 100056Z 34005KT 10SM SCT034 BKN050 15/12 A3002 RMK AO2 SLP166 T01500117 $,2025-09-10T01:11:45Z,2025-09-09T21:11:45Z
PAWS,"Wasilla Arpt, AK, US",2025-09-09T23:56:00Z,2025-09-09T19:56:00Z,VFR,12.2,9.4,60,5,0,NA,1002.1,METAR PAWS 092356Z AUTO 06005KT 10SM -RA OVC070 12/09 A2959 RMK AO2 SLP022 P0001 60004 T01220094 10144 20122 58025,2025-09-10T00:12:49Z,2025-09-09T20:12:49Z
PAWS,"Wasilla Arpt, AK, US",2025-09-10T00:56:00Z,2025-09-09T20:56:00Z,VFR,11.7,10.6,0,0,0,NA,1001.1,METAR PAWS 100056Z AUTO 00000KT 10SM -RA OVC065 12/11 A2956 RMK AO2 SLP012 P0002 T01170106,2025-09-10T01:11:46Z,2025-09-09T21:11:46Z
PAYA,"Yakutat Arpt, AK, US",2025-09-09T23:53:00Z,2025-09-09T19:53:00Z,VFR,15.6,10.6,130,12,20,NA,1011.9,METAR PAYA 092353Z AUTO 13012G20KT 10SM FEW023 SCT090 BKN120 16/11 A2988 RMK AO2 SLP119 T01560106 10167 20117 58016 TSNO $,2025-09-10T00:12:50Z,2025-09-09T20:12:50Z
PAYA,"Yakutat Arpt, AK, US",2025-09-10T00:53:00Z,2025-09-09T20:53:00Z,VFR,14.4,10,120,9,0,NA,1011.6,METAR PAYA 100053Z AUTO 12009KT 10SM BKN070 OVC085 14/10 A2987 RMK AO2 SLP114 T01440100 TSNO $,2025-09-10T01:11:46Z,2025-09-09T21:11:46Z
PFYU,"Fort Yukon Arpt, AK, US",2025-09-09T23:56:00Z,2025-09-09T19:56:00Z,VFR,18.3,6.1,0,0,0,NA,1004.5,METAR PFYU 092356Z 00000KT 10SM FEW070 SCT080 18/06 A2966 RMK AO2 SLP051 T01830061 10183 20100 58015,2025-09-10T00:12:49Z,2025-09-09T20:12:49Z
PFYU,"Fort Yukon Arpt, AK, US",2025-09-10T00:56:00Z,2025-09-09T20:56:00Z,VFR,16.1,7.8,20,4,0,NA,1003.8,METAR PFYU 100056Z 02004KT 10SM BKN075 16/08 A2964 RMK AO2 SLP045 T01610078,2025-09-10T01:11:46Z,2025-09-09T21:11:46Z
PHBK,"Kekaha/Barking Sands Arpt, HI, US",2025-09-09T23:51:00Z,2025-09-09T19:51:00Z,VFR,28.3,22.8,280,7,0,NA,1014.6,METAR PHBK 092351Z AUTO 28007KT 10SM CLR 28/23 A2996 RMK AO2 SLP148 60000 T02830228 10283 20244 58018 $,2025-09-10T00:12:50Z,2025-09-09T20:12:50Z
PHBK,"Kekaha/Barking Sands Arpt, HI, US",2025-09-10T00:51:00Z,2025-09-09T20:51:00Z,VFR,28.9,22.2,280,7,0,NA,1014,METAR PHBK 100051Z AUTO 28007KT 10SM CLR 29/22 A2994 RMK AO2 SLP141 T02890222 $,2025-09-10T01:11:46Z,2025-09-09T21:11:46Z
PHJR,"Kalaeloa Arpt, HI, US",2025-09-09T23:53:00Z,2025-09-09T19:53:00Z,VFR,29.4,21.1,230,5,0,NA,1014.3,METAR PHJR 092353Z 23005KT 10SM OVC045 29/21 A2995 RMK AO2 SLP149 T02940211 10322 20272 58020,2025-09-10T00:12:50Z,2025-09-09T20:12:50Z
PHJR,"Kalaeloa Arpt, HI, US",2025-09-10T00:53:00Z,2025-09-09T20:53:00Z,VFR,30,20,VAR,NA,0,NA,1013.6,METAR PHJR 100053Z 10SM SCT043 BKN050 OVC060 30/20 A2993 RMK AO2 SLP142 T03000200,2025-09-10T01:11:46Z,2025-09-09T21:11:46Z
PHKO,"Keahole Point/Kona Intl, HI, US",2025-09-09T23:53:00Z,2025-09-09T19:53:00Z,VFR,30,22.2,260,8,0,NA,1014.3,METAR PHKO 092353Z 26008KT 10SM SCT030 30/22 A2995 RMK AO2 SLP140 T03000222 10306 20272 58012,2025-09-10T00:12:50Z,2025-09-09T20:12:50Z
PHKO,"Keahole Point/Kona Intl, HI, US",2025-09-10T00:53:00Z,2025-09-09T20:53:00Z,VFR,30,22.2,260,8,0,NA,1013.6,METAR PHKO 100053Z 26008KT 10SM SCT030 30/22 A2993 RMK AO2 SLP134 T03000222,2025-09-10T01:11:46Z,2025-09-09T21:11:46Z
PHLI,"Lihue Arpt, HI, US",2025-09-09T23:53:00Z,2025-09-09T19:53:00Z,VFR,28.9,21.7,50,10,0,NA,1016,METAR PHLI 092353Z 05010KT 10SM FEW025 BKN031 29/22 A3000 RMK AO2 SLP154 60006 T02890217 10294 20239 58018,2025-09-10T00:12:50Z,2025-09-09T20:12:50Z
PHLI,"Lihue Arpt, HI, US",2025-09-10T00:53:00Z,2025-09-09T20:53:00Z,VFR,28.9,21.7,40,12,0,NA,1015,METAR PHLI 100053Z 04012KT 10SM FEW025 SCT031 29/22 A2997 RMK AO2 SLP147 T02890217,2025-09-10T01:11:46Z,2025-09-09T21:11:46Z
PHMK,"Molokai Arpt, HI, US",2025-09-09T23:54:00Z,2025-09-09T19:54:00Z,VFR,28.9,20,20,13,20,NA,1015,METAR PHMK 092354Z 02013G20KT 10SM CLR 29/20 A2997 RMK AO2 SLP147 60000 T02890200 10294 20261 58019,2025-09-10T00:12:50Z,2025-09-09T20:12:50Z
PHMK,"Molokai Arpt, HI, US",2025-09-10T00:54:00Z,2025-09-09T20:54:00Z,VFR,28.3,21.1,30,12,20,NA,1014.3,METAR PHMK 100054Z 03012G20KT 10SM CLR 28/21 A2995 RMK AO2 SLP141 T02830211,2025-09-10T01:11:46Z,2025-09-09T21:11:46Z
PHNG,"Kaneohe Bay (MCAS), HI, US",2025-09-09T22:57:00Z,2025-09-09T18:57:00Z,VFR,29.4,21.1,30,12,0,7,1015,METAR PHNG 092257Z 03012KT 7SM FEW028 BKN060 29/21 A2997 RMK AO2 SLP143 T02940211 $,2025-09-10T00:12:50Z,2025-09-09T20:12:50Z
PHNL,"Honolulu Intl, HI, US",2025-09-09T14:53:00Z,2025-09-09T10:53:00Z,VFR,25.6,22.2,60,6,0,NA,1014.6,METAR PHNL 091453Z 06006KT 10SM FEW025 FEW040 SCT065 26/22 A2996 RMK AO2 SLP146 60001 T02560222 55006,2025-09-09T15:51:32Z,2025-09-09T11:51:32Z
PHNL,"Honolulu Intl, HI, US",2025-09-09T15:53:00Z,2025-09-09T11:53:00Z,VFR,25.6,22.2,340,3,0,NA,1015.3,METAR PHNL 091553Z 34003KT 10SM FEW020 FEW035 FEW080 26/22 A2998 RMK AO2 SLP150 T02560222,2025-09-09T16:06:05Z,2025-09-09T12:06:05Z
PHNL,"Honolulu Intl, HI, US",2025-09-09T16:53:00Z,2025-09-09T12:53:00Z,VFR,26.1,22.2,60,5,0,NA,1015.3,METAR PHNL 091653Z 06005KT 10SM FEW022 SCT035 26/22 A2998 RMK AO2 SLP152 VCSH N T02610222,2025-09-09T17:12:57Z,2025-09-09T13:12:57Z
PHNL,"Honolulu Intl, HI, US",2025-09-09T17:53:00Z,2025-09-09T13:53:00Z,VFR,27.2,20.6,60,12,17,NA,1015.7,METAR PHNL 091753Z 06012G17KT 10SM FEW024 SCT040 27/21 A2999 RMK AO2 SLP156 60001 T02720206 10272 20250 52010,2025-09-09T18:09:23Z,2025-09-09T14:09:23Z
PHNL,"Honolulu Intl, HI, US",2025-09-09T18:53:00Z,2025-09-09T14:53:00Z,VFR,28.3,20.6,40,8,0,NA,1016.3,METAR PHNL 091853Z 04008KT 10SM FEW025 SCT045 28/21 A3001 RMK AO2 SLP162 T02830206,2025-09-09T19:00:59Z,2025-09-09T15:00:59Z
PHNL,"Honolulu Intl, HI, US",2025-09-09T19:53:00Z,2025-09-09T15:53:00Z,VFR,28.3,19.4,40,10,18,NA,1016.7,METAR PHNL 091953Z 04010G18KT 10SM FEW024 SCT045 28/19 A3002 RMK AO2 SLP164 T02830194,2025-09-09T20:10:19Z,2025-09-09T16:10:19Z
PHNL,"Honolulu Intl, HI, US",2025-09-09T20:53:00Z,2025-09-09T16:53:00Z,VFR,30,19.4,80,9,18,NA,1016.3,METAR PHNL 092053Z 08009G18KT 10SM FEW025 SCT045 30/19 A3001 RMK AO2 SLP162 T03000194 50006,2025-09-09T21:12:46Z,2025-09-09T17:12:46Z
PHNL,"Honolulu Intl, HI, US",2025-09-09T21:53:00Z,2025-09-09T17:53:00Z,VFR,29.4,20.6,80,9,0,NA,1016,METAR PHNL 092153Z 08009KT 10SM FEW025 SCT035 BKN060 29/21 A3000 RMK AO2 SLP160 T02940206,2025-09-09T22:00:15Z,2025-09-09T18:00:15Z
PHNL,"Honolulu Intl, HI, US",2025-09-09T22:53:00Z,2025-09-09T18:53:00Z,VFR,31.1,19.4,50,11,18,NA,1015.3,METAR PHNL 092253Z 05011G18KT 10SM FEW025 SCT035 SCT060 31/19 A2998 RMK AO2 SLP151 T03110194,2025-09-09T22:58:34Z,2025-09-09T18:58:34Z
PHNL,"Honolulu Intl, HI, US",2025-09-09T23:53:00Z,2025-09-09T19:53:00Z,VFR,31.7,19.4,20,14,20,NA,1014.3,METAR PHNL 092353Z 02014G20KT 10SM FEW025 SCT045 32/19 A2995 RMK AO2 SLP142 T03170194 10317 20272 58020,2025-09-10T00:12:50Z,2025-09-09T20:12:50Z
PHNL,"Honolulu Intl, HI, US",2025-09-10T00:53:00Z,2025-09-09T20:53:00Z,VFR,31.1,18.9,60,14,0,NA,1013.6,METAR PHNL 100053Z 06014KT 10SM FEW030 FEW040 FEW060 31/19 A2993 RMK AO2 SLP135 T03110189,2025-09-10T01:11:46Z,2025-09-09T21:11:46Z
PHNY,"Lanai Arpt, HI, US",2025-09-09T23:56:00Z,2025-09-09T19:56:00Z,VFR,27.8,20,230,10,0,NA,1016.3,METAR PHNY 092356Z AUTO 23010KT 10SM OVC038 28/20 A3001 RMK AO2 SLP138 T02780200 10289 20239 58019 $,2025-09-10T00:12:49Z,2025-09-09T20:12:49Z
PHNY,"Lanai Arpt, HI, US",2025-09-10T00:23:00Z,2025-09-09T20:23:00Z,MVFR,28,21,240,10,0,NA,1016,SPECI PHNY 100023Z AUTO 24010KT 10SM BKN029 OVC041 28/21 A3000 RMK AO2 $,2025-09-10T00:33:34Z,2025-09-09T20:33:34Z
PHNY,"Lanai Arpt, HI, US",2025-09-10T00:56:00Z,2025-09-09T20:56:00Z,VFR,27.2,21.1,230,10,0,NA,1015.7,METAR PHNY 100056Z AUTO 23010KT 10SM FEW018 OVC039 27/21 A2999 RMK AO2 SLP134 T02720211 $,2025-09-10T01:11:46Z,2025-09-09T21:11:46Z
PHOG,"Kahului Arpt, HI, US",2025-09-09T14:54:00Z,2025-09-09T10:54:00Z,VFR,24.4,21.7,40,5,0,NA,1014.6,METAR PHOG 091454Z AUTO 04005KT 10SM CLR 24/22 A2996 RMK AO2 SLP150 T02440217 55001 TSNO,2025-09-09T15:51:32Z,2025-09-09T11:51:32Z
PHOG,"Kahului Arpt, HI, US",2025-09-09T15:54:00Z,2025-09-09T11:54:00Z,VFR,23.9,21.1,30,4,0,NA,1015,METAR PHOG 091554Z 03004KT 10SM FEW030 SCT045 24/21 A2997 RMK AO2 SLP153 T02390211,2025-09-09T16:06:05Z,2025-09-09T12:06:05Z
PHOG,"Kahului Arpt, HI, US",2025-09-09T16:54:00Z,2025-09-09T12:54:00Z,VFR,24.4,20.6,30,3,0,NA,1015.3,METAR PHOG 091654Z 03003KT 10SM FEW030 SCT045 24/21 A2998 RMK AO2 SLP155 T02440206,2025-09-09T17:12:57Z,2025-09-09T13:12:57Z
PHOG,"Kahului Arpt, HI, US",2025-09-09T17:54:00Z,2025-09-09T13:54:00Z,VFR,27.2,21.1,20,9,0,NA,1015.7,METAR PHOG 091754Z 02009KT 10SM FEW030 SCT045 27/21 A2999 RMK AO2 SLP159 T02720211 10272 20239 53009,2025-09-09T18:09:23Z,2025-09-09T14:09:23Z
PHOG,"Kahului Arpt, HI, US",2025-09-09T18:54:00Z,2025-09-09T14:54:00Z,VFR,26.7,21.7,40,12,0,NA,1016,METAR PHOG 091854Z 04012KT 10SM FEW030 SCT045 27/22 A3000 RMK AO2 SLP163 T02670217,2025-09-09T19:00:59Z,2025-09-09T15:00:59Z
PHOG,"Kahului Arpt, HI, US",2025-09-09T19:54:00Z,2025-09-09T15:54:00Z,VFR,28.3,20,30,10,0,NA,1016.3,METAR PHOG 091954Z 03010KT 10SM FEW030 SCT045 28/20 A3001 RMK AO2 SLP166 T02830200,2025-09-09T20:10:19Z,2025-09-09T16:10:19Z
PHOG,"Kahului Arpt, HI, US",2025-09-09T20:54:00Z,2025-09-09T16:54:00Z,VFR,28.9,21.1,350,8,0,NA,1016,METAR PHOG 092054Z 35008KT 10SM FEW030 SCT045 29/21 A3000 RMK AO2 SLP165 T02890211 50006,2025-09-09T21:12:46Z,2025-09-09T17:12:46Z
PHOG,"Kahului Arpt, HI, US",2025-09-09T21:54:00Z,2025-09-09T17:54:00Z,VFR,29.4,21.1,10,14,0,NA,1015.7,METAR PHOG 092154Z 01014KT 10SM SCT045 29/21 A2999 RMK AO2 SLP161 T02940211,2025-09-09T22:00:15Z,2025-09-09T18:00:15Z
PHOG,"Kahului Arpt, HI, US",2025-09-09T22:54:00Z,2025-09-09T18:54:00Z,VFR,29.4,20.6,10,10,0,NA,1015.3,METAR PHOG 092254Z 01010KT 10SM FEW035 SCT050 29/21 A2998 RMK AO2 SLP156 T02940206,2025-09-09T22:58:34Z,2025-09-09T18:58:34Z
PHOG,"Kahului Arpt, HI, US",2025-09-09T23:54:00Z,2025-09-09T19:54:00Z,VFR,28.9,21.1,10,10,0,NA,1014.3,METAR PHOG 092354Z 01010KT 10SM FEW045 SCT060 29/21 A2995 RMK AO2 SLP148 T02890211 10294 20261 58017,2025-09-10T00:12:50Z,2025-09-09T20:12:50Z
PHOG,"Kahului Arpt, HI, US",2025-09-10T00:54:00Z,2025-09-09T20:54:00Z,VFR,28.9,21.1,350,11,19,NA,1014,METAR PHOG 100054Z 35011G19KT 10SM FEW030 SCT050 29/21 A2994 RMK AO2 SLP143 T02890211,2025-09-10T01:11:46Z,2025-09-09T21:11:46Z
PHTO,"Hilo Intl, HI, US",2025-09-09T23:53:00Z,2025-09-09T19:53:00Z,VFR,27.8,21.7,100,8,0,NA,1014.3,METAR PHTO 092353Z 10008KT 10SM FEW025 OVC035 28/22 A2995 RMK AO2 SLP140 60000 T02780217 10294 20228 58014,2025-09-10T00:12:50Z,2025-09-09T20:12:50Z
PHTO,"Hilo Intl, HI, US",2025-09-10T00:53:00Z,2025-09-09T20:53:00Z,VFR,26.7,22.8,330,6,0,NA,1014,METAR PHTO 100053Z 33006KT 10SM SCT026 BKN033 OVC040 27/23 A2994 RMK AO2 SLP136 T02670228,2025-09-10T01:11:46Z,2025-09-09T21:11:46Z
PPIZ,"Point Lay Arpt, AK, US",2025-09-09T23:56:00Z,2025-09-09T19:56:00Z,VFR,2.8,0,330,11,0,NA,1013,METAR PPIZ 092356Z AUTO 33011KT 10SM FEW017 BKN033 OVC070 03/00 A2991 RMK AO2 SLP132 60000 T00280000 10033 20017 58001,2025-09-10T00:12:49Z,2025-09-09T20:12:49Z
PPIZ,"Point Lay Arpt, AK, US",2025-09-10T00:32:00Z,2025-09-09T20:32:00Z,MVFR,3,0,330,11,0,NA,1013,SPECI PPIZ 100032Z AUTO 33011KT 10SM SCT015 BKN019 OVC075 03/00 A2991 RMK AO2 RAB07E24 P0000,2025-09-10T00:33:34Z,2025-09-09T20:33:34Z
PPIZ,"Point Lay Arpt, AK, US",2025-09-10T00:56:00Z,2025-09-09T20:56:00Z,MVFR,1.7,0.6,320,11,0,4,1013,METAR PPIZ 100056Z AUTO 32011KT 4SM -RA BR BKN013 BKN020 OVC025 02/01 A2991 RMK AO2 RAB07 SLP131 P0001 T00170006 FZRANO,2025-09-10T01:11:46Z,2025-09-09T21:11:46Z
