icao,site,observed_utc,observed_local,flight_category,temp_c,dewpoint_c,wind_dir_deg,wind_kts,gust_kts,vis_sm,altimeter_hpa,raw_text,fetched_at_utc,fetched_at_local
CYAM,"Sault Ste Marie Arpt, ON, CA",2025-09-09T15:00:00Z,2025-09-09T11:00:00Z,VFR,17,12,210,5,0,20,1019.4,METAR CYAM 091500Z 21005KT 150V240 20SM FEW018 SCT110 BKN150 OVC250 17/12 A3010 RMK CU1AC2AS3CS2 SLP198 DENSITY ALT 900FT,2025-09-09T15:51:24Z,2025-09-09T11:51:24Z
CYAM,"Sault Ste Marie Arpt, ON, CA",2025-09-09T16:00:00Z,2025-09-09T12:00:00Z,VFR,18,12,190,11,17,20,1019,METAR CYAM 091600Z 19011G17KT 20SM FEW018 SCT082 BKN099 BKN150 OVC250 18/12 A3009 RMK CU1AC2AC2AS2CI1 SLP193 DENSITY ALT 1000FT,2025-09-09T16:11:11Z,2025-09-09T12:11:11Z
CYAM,"Sault Ste Marie Arpt, ON, CA",2025-09-09T17:00:00Z,2025-09-09T13:00:00Z,VFR,19,13,230,6,0,20,1019.4,METAR CYAM 091700Z 23006KT 170V260 20SM FEW024 SCT066 BKN100 OVC250 19/13 A3010 RMK CU1AC4AS3CS1 CU TR SLP199 DENSITY ALT 1100FT,2025-09-09T17:12:44Z,2025-09-09T13:12:44Z
CYAM,"Sault Ste Marie Arpt, ON, CA",2025-09-09T18:00:00Z,2025-09-09T14:00:00Z,VFR,19,12,210,7,0,20,1019.7,METAR CYAM 091800Z 21007KT 20SM FEW024 FEW069 BKN098 BKN110 OVC250 19/12 A3011 RMK CU1AC2ACC3AS2CS1 CU TR ACC N MOV E SLP201 DENSITY ALT 1100FT,2025-09-09T18:09:16Z,2025-09-09T14:09:16Z
CYAM,"Sault Ste Marie Arpt, ON, CA",2025-09-09T19:00:00Z,2025-09-09T15:00:00Z,VFR,19,12,210,8,0,20,1019.4,METAR CYAM 091900Z 21008KT 20SM FEW024 SCT068 BKN099 BKN120 OVC250 19/12 A3010 RMK CU1AC2ACC2AS2CS1 ACC N MOV E SLP199 DENSITY ALT 1000FT,2025-09-09T19:20:44Z,2025-09-09T15:20:44Z
CYAM,"Sault Ste Marie Arpt, ON, CA",2025-09-09T20:00:00Z,2025-09-09T16:00:00Z,VFR,20,13,190,8,0,15,1019,METAR CYAM 092000Z 19008KT 15SM FEW024 SCT070 BKN081 BKN140 OVC250 20/13 A3009 RMK CU1AC2AC2AS2CI1 SLP195 DENSITY ALT 1200FT,2025-09-09T20:10:07Z,2025-09-09T16:10:07Z
CYAT,"Attawapisket Arpt, ON, CA",2025-09-09T15:37:00Z,2025-09-09T11:37:00Z,VFR,14,11,VAR,5,0,9,1011.6,SPECI CYAT 091537Z AUTO VRB05KT 9SM FEW050 OVC081 14/11 A2987 RMK SLP118,2025-09-09T15:51:24Z,2025-09-09T11:51:24Z
CYAT,"Attawapisket Arpt, ON, CA",2025-09-09T16:00:00Z,2025-09-09T12:00:00Z,VFR,12,11,230,5,0,9,1011.6,METAR CYAT 091600Z AUTO 23005KT 190V260 9SM FEW006 BKN050 OVC086 12/11 A2987 RMK SLP117,2025-09-09T16:11:11Z,2025-09-09T12:11:11Z
CYAT,"Attawapisket Arpt, ON, CA",2025-09-09T16:29:00Z,2025-09-09T12:29:00Z,IFR,13,11,250,6,0,9,1011.6,SPECI CYAT 091629Z AUTO 25006KT 9SM BKN008 OVC055 13/11 A2987 RMK SLP117,2025-09-09T16:36:21Z,2025-09-09T12:36:21Z
CYAT,"Attawapisket Arpt, ON, CA",2025-09-09T17:09:00Z,2025-09-09T13:09:00Z,MVFR,13,12,250,8,0,9,1011.6,SPECI CYAT 091709Z AUTO 25008KT 9SM BKN010 OVC050 13/12 A2987 RMK SLP117,2025-09-09T17:12:43Z,2025-09-09T13:12:43Z
CYAT,"Attawapisket Arpt, ON, CA",2025-09-09T18:00:00Z,2025-09-09T14:00:00Z,MVFR,14,12,260,8,0,9,1011.9,METAR CYAT 091800Z AUTO 26008KT 9SM OVC012 14/12 A2988 RMK SLP119,2025-09-09T18:09:15Z,2025-09-09T14:09:15Z
CYAT,"Attawapisket Arpt, ON, CA",2025-09-09T19:00:00Z,2025-09-09T15:00:00Z,MVFR,14,12,260,8,0,9,1012.3,METAR CYAT 091900Z AUTO 26008KT 9SM BKN015 OVC020 14/12 A2989 RMK SLP123,2025-09-09T19:20:43Z,2025-09-09T15:20:43Z
CYAT,"Attawapisket Arpt, ON, CA",2025-09-09T20:00:00Z,2025-09-09T16:00:00Z,MVFR,14,12,310,9,0,9,1013,METAR CYAT 092000Z AUTO 31009KT 280V340 9SM SCT012 BKN023 OVC030 14/12 A2991 RMK SLP129,2025-09-09T20:10:07Z,2025-09-09T16:10:07Z
CYAT,"Attawapisket Arpt, ON, CA",2025-09-09T20:13:00Z,2025-09-09T16:13:00Z,VFR,15,12,320,9,0,9,1013,SPECI CYAT 092013Z AUTO 32009KT 9SM FEW012 SCT023 BKN033 15/12 A2991 RMK SLP129,2025-09-09T20:31:12Z,2025-09-09T16:31:12Z
CYAZ,"Tofino Arpt, BC, CA",2025-09-09T15:00:00Z,2025-09-09T11:00:00Z,LIFR,13,13,310,3,0,0.25,1015,METAR CYAZ 091500Z 31003KT 1/4SM FG VV002 13/13 A2997 RMK FG8 SLP151,2025-09-09T15:51:26Z,2025-09-09T11:51:26Z
CYAZ,"Tofino Arpt, BC, CA",2025-09-09T16:00:00Z,2025-09-09T12:00:00Z,LIFR,14,14,VAR,2,0,0.25,1015,METAR CYAZ 091600Z VRB02KT 1/4SM FG VV002 14/14 A2997 RMK FG8 SLP150,2025-09-09T16:11:12Z,2025-09-09T12:11:12Z
CYAZ,"Tofino Arpt, BC, CA",2025-09-09T17:00:00Z,2025-09-09T13:00:00Z,LIFR,15,15,0,0,0,0.25,1015,METAR CYAZ 091700Z 00000KT 1/4SM FG OVC002 15/15 A2997 RMK SF8 SLP150,2025-09-09T17:12:45Z,2025-09-09T13:12:45Z
CYAZ,"Tofino Arpt, BC, CA",2025-09-09T18:00:00Z,2025-09-09T14:00:00Z,VFR,15,15,190,3,0,15,1014.6,METAR CYAZ 091800Z 19003KT 140V210 15SM BCFG FEW001 15/15 A2996 RMK SF1 VIS LWR ALG SHR SLP148,2025-09-09T18:09:17Z,2025-09-09T14:09:17Z
CYAZ,"Tofino Arpt, BC, CA",2025-09-09T19:00:00Z,2025-09-09T15:00:00Z,VFR,16,16,190,6,0,15,1014.6,METAR CYAZ 091900Z 19006KT 15SM BCFG FEW001 16/16 A2996 RMK SF1 SF TR VIS LWR ALG SHR SLP147,2025-09-09T19:20:46Z,2025-09-09T15:20:46Z
CYAZ,"Tofino Arpt, BC, CA",2025-09-09T20:00:00Z,2025-09-09T16:00:00Z,VFR,17,15,190,6,0,15,1014.6,METAR CYAZ 092000Z 19006KT 15SM BCFG SKC 17/15 A2996 RMK FG BANK ALG SHR SLP148 DENSITY ALT 300FT,2025-09-09T20:10:10Z,2025-09-09T16:10:10Z
CYBC,"Baie Comeau Arpt, QC, CA",2025-09-09T15:00:00Z,2025-09-09T11:00:00Z,VFR,13,7,220,8,0,9,1028.2,METAR CYBC 091500Z AUTO 22008KT 9SM CLR 13/07 A3036 RMK SLP283,2025-09-09T15:51:24Z,2025-09-09T11:51:24Z
CYBC,"Baie Comeau Arpt, QC, CA",2025-09-09T16:00:00Z,2025-09-09T12:00:00Z,VFR,13,7,210,10,0,9,1028.2,METAR CYBC 091600Z AUTO 21010KT 9SM FEW150 13/07 A3036 RMK SLP282,2025-09-09T16:11:11Z,2025-09-09T12:11:11Z
CYBC,"Baie Comeau Arpt, QC, CA",2025-09-09T17:00:00Z,2025-09-09T13:00:00Z,VFR,14,8,220,11,0,9,1027.5,METAR CYBC 091700Z AUTO 22011KT 9SM CLR 14/08 A3034 RMK SLP278,2025-09-09T17:12:44Z,2025-09-09T13:12:44Z
CYBC,"Baie Comeau Arpt, QC, CA",2025-09-09T18:00:00Z,2025-09-09T14:00:00Z,VFR,15,7,220,11,0,9,1027.2,METAR CYBC 091800Z AUTO 22011KT 9SM CLR 15/07 A3033 RMK SLP275,2025-09-09T18:09:16Z,2025-09-09T14:09:16Z
CYBC,"Baie Comeau Arpt, QC, CA",2025-09-09T19:00:00Z,2025-09-09T15:00:00Z,VFR,15,6,230,10,0,9,1026.8,METAR CYBC 091900Z AUTO 23010KT 9SM CLR 15/06 A3032 RMK SLP270,2025-09-09T19:20:44Z,2025-09-09T15:20:44Z
CYBC,"Baie Comeau Arpt, QC, CA",2025-09-09T20:00:00Z,2025-09-09T16:00:00Z,VFR,15,5,230,9,0,9,1026.5,METAR CYBC 092000Z AUTO 23009KT 9SM CLR 15/05 A3031 RMK SLP267,2025-09-09T20:10:07Z,2025-09-09T16:10:07Z
CYBG,"Bagotville(MIL), QC, CA",2025-09-09T15:00:00Z,2025-09-09T11:00:00Z,VFR,14,9,90,6,0,25,1027.9,METAR CYBG 091500Z 09006KT 25SM FEW021 BKN240 14/09 A3035 RMK CU1CI6 DENSITY ALT 130FT CIG PDMTLY TRANSPARENT SLP283,2025-09-09T15:51:26Z,2025-09-09T11:51:26Z
CYBG,"Bagotville(MIL), QC, CA",2025-09-09T16:00:00Z,2025-09-09T12:00:00Z,VFR,15,9,90,6,0,25,1027.5,METAR CYBG 091600Z 09006KT 25SM FEW025 BKN180 15/09 A3034 RMK CU2AC5 DENSITY ALT 348FT SLP280,2025-09-09T16:11:12Z,2025-09-09T12:11:12Z
CYBG,"Bagotville(MIL), QC, CA",2025-09-09T17:00:00Z,2025-09-09T13:00:00Z,VFR,16,9,100,5,0,25,1027.2,METAR CYBG 091700Z 10005KT 25SM FEW055 BKN180 16/09 A3033 RMK CU2AC5 DENSITY ALT 483FT SLP275,2025-09-09T17:12:45Z,2025-09-09T13:12:45Z
CYBG,"Bagotville(MIL), QC, CA",2025-09-09T18:00:00Z,2025-09-09T14:00:00Z,VFR,17,8,80,2,0,25,1026.5,METAR CYBG 091800Z 08002KT 25SM SCT055 BKN160 17/08 A3031 RMK SC4AC3 DENSITY ALT 564FT SLP270,2025-09-09T18:09:17Z,2025-09-09T14:09:17Z
CYBG,"Bagotville(MIL), QC, CA",2025-09-09T19:00:00Z,2025-09-09T15:00:00Z,VFR,18,9,130,4,0,25,1025.8,METAR CYBG 091900Z 13004KT 25SM SCT055 BKN180 18/09 A3029 RMK SC3AC4 DENSITY ALT 679FT SLP263,2025-09-09T19:20:46Z,2025-09-09T15:20:46Z
CYBG,"Bagotville(MIL), QC, CA",2025-09-09T20:00:00Z,2025-09-09T16:00:00Z,VFR,18,8,60,4,0,25,1025.1,METAR CYBG 092000Z 06004KT 25SM FEW060 BKN180 18/08 A3027 RMK SC2AC3 DENSITY ALT 759FT SLP255,2025-09-09T20:10:11Z,2025-09-09T16:10:11Z
CYBK,"Baker Lake Arpt, NU, CA",2025-09-09T15:00:00Z,2025-09-09T11:00:00Z,MVFR,5,1,350,3,0,20,1016.7,METAR CYBK 091500Z 35003KT 300V010 20SM BKN018 05/01 A3002 RMK SC6 SLP169,2025-09-09T15:51:26Z,2025-09-09T11:51:26Z
CYBK,"Baker Lake Arpt, NU, CA",2025-09-09T16:00:00Z,2025-09-09T12:00:00Z,MVFR,6,1,230,3,0,20,1016.7,METAR CYBK 091600Z 23003KT 200V320 20SM BKN019 06/01 A3002 RMK SC6 SLP169,2025-09-09T16:11:12Z,2025-09-09T12:11:12Z
CYBK,"Baker Lake Arpt, NU, CA",2025-09-09T17:00:00Z,2025-09-09T13:00:00Z,MVFR,7,1,180,6,0,20,1016.7,METAR CYBK 091700Z 18006KT 170V260 20SM BKN020 BKN075 07/01 A3002 RMK SC5AC1 AC TR SLP169,2025-09-09T17:12:45Z,2025-09-09T13:12:45Z
CYBK,"Baker Lake Arpt, NU, CA",2025-09-09T18:00:00Z,2025-09-09T14:00:00Z,VFR,7,1,220,5,0,20,1016.3,METAR CYBK 091800Z 22005KT 150V240 20SM SCT021 BKN075 07/01 A3001 RMK SC4AC2 SLP166,2025-09-09T18:09:17Z,2025-09-09T14:09:17Z
CYBK,"Baker Lake Arpt, NU, CA",2025-09-09T19:00:00Z,2025-09-09T15:00:00Z,VFR,8,2,210,5,0,20,1016.3,METAR CYBK 091900Z 21005KT 160V220 20SM FEW021 BKN075 08/02 A3001 RMK SC2AC4 SLP167,2025-09-09T19:20:46Z,2025-09-09T15:20:46Z
CYBK,"Baker Lake Arpt, NU, CA",2025-09-09T20:00:00Z,2025-09-09T16:00:00Z,VFR,8,2,150,8,0,20,1016.3,METAR CYBK 092000Z 15008KT 20SM FEW024 BKN080 08/02 A3001 RMK SC1AC5 SLP167,2025-09-09T20:10:11Z,2025-09-09T16:10:11Z
CYBL,"Campbell River Arpt, BC, CA",2025-09-09T15:00:00Z,2025-09-09T11:00:00Z,MVFR,12,12,280,2,0,15,1015.7,METAR CYBL 091500Z 28002KT 15SM FEW004 BKN018 12/12 A2999 RMK SF1SC7 SF TR SLP157,2025-09-09T15:51:26Z,2025-09-09T11:51:26Z
CYBL,"Campbell River Arpt, BC, CA",2025-09-09T16:00:00Z,2025-09-09T12:00:00Z,MVFR,15,14,310,7,0,20,1015.3,METAR CYBL 091600Z 31007KT 20SM FEW007 BKN017 15/14 A2998 RMK SF1SC7 SF TR VIS LWR S-SW DUE LO CLD SLP156,2025-09-09T16:11:12Z,2025-09-09T12:11:12Z
CYBL,"Campbell River Arpt, BC, CA",2025-09-09T17:00:00Z,2025-09-09T13:00:00Z,MVFR,16,14,320,7,0,20,1015.3,METAR CYBL 091700Z 32007KT 20SM FEW007 BKN015 16/14 A2998 RMK SF1SC7 SF TR SLP156 DENSITY ALT 600FT,2025-09-09T17:12:45Z,2025-09-09T13:12:45Z
CYBL,"Campbell River Arpt, BC, CA",2025-09-09T18:00:00Z,2025-09-09T14:00:00Z,MVFR,17,14,350,6,0,20,1015.3,METAR CYBL 091800Z 35006KT 300V010 20SM OVC016 17/14 A2998 RMK SC8 SLP154 DENSITY ALT 600FT,2025-09-09T18:09:17Z,2025-09-09T14:09:17Z
CYBL,"Campbell River Arpt, BC, CA",2025-09-09T19:00:00Z,2025-09-09T15:00:00Z,MVFR,17,14,VAR,2,0,20,1015,METAR CYBL 091900Z VRB02KT 20SM BKN015 17/14 A2997 RMK SC7 SLP152 DENSITY ALT 700FT,2025-09-09T19:20:46Z,2025-09-09T15:20:46Z
CYBL,"Campbell River Arpt, BC, CA",2025-09-09T20:00:00Z,2025-09-09T16:00:00Z,MVFR,18,14,340,6,0,20,1015,METAR CYBL 092000Z 34006KT 310V040 20SM BKN017 18/14 A2997 RMK SC7 SLP151 DENSITY ALT 800FT,2025-09-09T20:10:11Z,2025-09-09T16:10:11Z
CYBR,"Brandon Arpt, MB, CA",2025-09-09T15:00:00Z,2025-09-09T11:00:00Z,VFR,17,14,70,7,0,15,1015.3,METAR CYBR 091500Z 07007KT 15SM FEW250 17/14 A2998 RMK CI2 SLP159 DENSITY ALT 1900FT,2025-09-09T15:51:24Z,2025-09-09T11:51:24Z
CYBR,"Brandon Arpt, MB, CA",2025-09-09T16:00:00Z,2025-09-09T12:00:00Z,VFR,19,13,70,8,0,15,1015.7,METAR CYBR 091600Z 07008KT 15SM FEW250 19/13 A2999 RMK CI2 SLP162 DENSITY ALT 2100FT,2025-09-09T16:11:11Z,2025-09-09T12:11:11Z
CYBR,"Brandon Arpt, MB, CA",2025-09-09T17:00:00Z,2025-09-09T13:00:00Z,VFR,21,13,70,7,0,15,1015.7,METAR CYBR 091700Z 07007KT 040V110 15SM FEW250 21/13 A2999 RMK CI2 SLP162 DENSITY ALT 2300FT,2025-09-09T17:12:44Z,2025-09-09T13:12:44Z
CYBR,"Brandon Arpt, MB, CA",2025-09-09T18:00:00Z,2025-09-09T14:00:00Z,VFR,23,11,90,3,0,15,1015.7,METAR CYBR 091800Z 09003KT 040V120 15SM FEW250 23/11 A2999 RMK CI2 SLP161 DENSITY ALT 2500FT,2025-09-09T18:09:16Z,2025-09-09T14:09:16Z
CYBR,"Brandon Arpt, MB, CA",2025-09-09T19:00:00Z,2025-09-09T15:00:00Z,VFR,24,11,140,4,0,15,1015.3,METAR CYBR 091900Z 14004KT 070V160 15SM FEW250 24/11 A2998 RMK CI2 SLP158 DENSITY ALT 2700FT,2025-09-09T19:20:44Z,2025-09-09T15:20:44Z
CYBR,"Brandon Arpt, MB, CA",2025-09-09T20:00:00Z,2025-09-09T16:00:00Z,VFR,25,10,30,6,0,15,1015,METAR CYBR 092000Z 03006KT 350V090 15SM FEW060 FEW250 25/10 A2997 RMK CU1CI2 CU TR SLP156 DENSITY ALT 2800FT,2025-09-09T20:10:07Z,2025-09-09T16:10:07Z
CYCD,"Nanaimo Arpt, BC, CA",2025-09-09T15:00:00Z,2025-09-09T11:00:00Z,VFR,16,13,VAR,2,0,20,1014.6,METAR CYCD 091500Z VRB02KT 20SM BKN045 16/13 A2996 RMK SC7 SLP149,2025-09-09T15:51:26Z,2025-09-09T11:51:26Z
CYCD,"Nanaimo Arpt, BC, CA",2025-09-09T16:00:00Z,2025-09-09T12:00:00Z,VFR,17,14,20,6,0,20,1015,METAR CYCD 091600Z 02006KT 20SM FEW006 BKN046 17/14 A2997 RMK SF1SC7 SF TR SLP150 DENSITY ALT 300FT,2025-09-09T16:11:12Z,2025-09-09T12:11:12Z
CYCD,"Nanaimo Arpt, BC, CA",2025-09-09T17:00:00Z,2025-09-09T13:00:00Z,VFR,18,14,340,5,0,20,1015,METAR CYCD 091700Z 34005KT 330V040 20SM OVC047 18/14 A2997 RMK SC8 SLP150 DENSITY ALT 500FT,2025-09-09T17:12:45Z,2025-09-09T13:12:45Z
CYCD,"Nanaimo Arpt, BC, CA",2025-09-09T18:00:00Z,2025-09-09T14:00:00Z,VFR,21,14,360,8,0,20,1014.6,METAR CYCD 091800Z 36008KT 340V070 20SM FEW035 FEW046 SCT150 21/14 A2996 RMK SC1SC1AC1 SLP147 DENSITY ALT 800FT,2025-09-09T18:09:17Z,2025-09-09T14:09:17Z
CYCD,"Nanaimo Arpt, BC, CA",2025-09-09T19:00:00Z,2025-09-09T15:00:00Z,VFR,22,14,10,9,0,20,1014,METAR CYCD 091900Z 01009KT 20SM FEW040 FEW250 22/14 A2994 RMK CF1CI1 SLP142 DENSITY ALT 900FT,2025-09-09T19:20:46Z,2025-09-09T15:20:46Z
CYCD,"Nanaimo Arpt, BC, CA",2025-09-09T20:00:00Z,2025-09-09T16:00:00Z,VFR,21,14,30,8,0,20,1014,METAR CYCD 092000Z 03008KT 20SM FEW040 21/14 A2994 RMK SC2 SLP140 DENSITY ALT 900FT,2025-09-09T20:10:10Z,2025-09-09T16:10:10Z
CYCK,"Chatham/Kent Arpt, ON, CA",2025-09-09T15:00:00Z,2025-09-09T11:00:00Z,VFR,21,11,180,11,0,9,1024.8,METAR CYCK 091500Z AUTO 18011KT 9SM CLR 21/11 A3026 RMK SLP249 DENSITY ALT 1100FT,2025-09-09T15:51:27Z,2025-09-09T11:51:27Z
CYCK,"Chatham/Kent Arpt, ON, CA",2025-09-09T16:00:00Z,2025-09-09T12:00:00Z,VFR,21,9,220,8,0,9,1024.8,METAR CYCK 091600Z AUTO 22008KT 180V240 9SM CLR 21/09 A3026 RMK SLP249 DENSITY ALT 1200FT,2025-09-09T16:11:14Z,2025-09-09T12:11:14Z
CYCK,"Chatham/Kent Arpt, ON, CA",2025-09-09T17:00:00Z,2025-09-09T13:00:00Z,VFR,23,7,180,10,15,9,1024.1,METAR CYCK 091700Z AUTO 18010G15KT 150V230 9SM CLR 23/07 A3024 RMK SLP243 DENSITY ALT 1300FT,2025-09-09T17:12:49Z,2025-09-09T13:12:49Z
CYCK,"Chatham/Kent Arpt, ON, CA",2025-09-09T18:00:00Z,2025-09-09T14:00:00Z,VFR,22,6,180,8,0,9,1023.8,METAR CYCK 091800Z AUTO 18008KT 9SM CLR 22/06 A3023 RMK SLP239 DENSITY ALT 1300FT,2025-09-09T18:09:19Z,2025-09-09T14:09:19Z
CYCK,"Chatham/Kent Arpt, ON, CA",2025-09-09T19:00:00Z,2025-09-09T15:00:00Z,VFR,23,6,170,10,0,9,1023.1,METAR CYCK 091900Z AUTO 17010KT 130V210 9SM CLR 23/06 A3021 RMK SLP234 DENSITY ALT 1400FT,2025-09-09T19:20:52Z,2025-09-09T15:20:52Z
CYCK,"Chatham/Kent Arpt, ON, CA",2025-09-09T20:00:00Z,2025-09-09T16:00:00Z,VFR,22,7,160,5,0,9,1022.8,METAR CYCK 092000Z AUTO 16005KT 130V210 9SM CLR 22/07 A3020 RMK SLP227 DENSITY ALT 1400FT,2025-09-09T20:10:12Z,2025-09-09T16:10:12Z
CYCO,"Coppermine/Kugluktuk Arpt, NU, CA",2025-09-09T15:00:00Z,2025-09-09T11:00:00Z,MVFR,6,5,230,2,0,5,1008.5,METAR CYCO 091500Z 23002KT 5SM FU BKN035 06/05 A2978 RMK FU5 SLP087,2025-09-09T15:51:26Z,2025-09-09T11:51:26Z
CYCO,"Coppermine/Kugluktuk Arpt, NU, CA",2025-09-09T16:07:00Z,2025-09-09T12:07:00Z,VFR,9,7,320,3,0,6,1008.2,SPECI CYCO 091607Z 32003KT 200V350 6SM FU BKN210 09/07 A2977 RMK CS7 SLP084,2025-09-09T16:11:12Z,2025-09-09T12:11:12Z
CYCO,"Coppermine/Kugluktuk Arpt, NU, CA",2025-09-09T17:00:00Z,2025-09-09T13:00:00Z,MVFR,10,7,350,4,0,5,1007.9,METAR CYCO 091700Z 35004KT 5SM FU FEW160 BKN210 10/07 A2976 RMK AS1CS5 SLP082,2025-09-09T17:12:45Z,2025-09-09T13:12:45Z
CYCO,"Coppermine/Kugluktuk Arpt, NU, CA",2025-09-09T18:00:00Z,2025-09-09T14:00:00Z,MVFR,11,7,20,4,0,5,1007.9,METAR CYCO 091800Z 02004KT 5SM FU FEW160 SCT210 11/07 A2976 RMK AS1CS2 SLP080,2025-09-09T18:09:17Z,2025-09-09T14:09:17Z
CYCO,"Coppermine/Kugluktuk Arpt, NU, CA",2025-09-09T19:00:00Z,2025-09-09T15:00:00Z,VFR,12,8,50,5,0,6,1007.5,METAR CYCO 091900Z 05005KT 6SM FU FEW160 BKN210 12/08 A2975 RMK AC1CS4 SLP078,2025-09-09T19:20:46Z,2025-09-09T15:20:46Z
CYCO,"Coppermine/Kugluktuk Arpt, NU, CA",2025-09-09T20:00:00Z,2025-09-09T16:00:00Z,MVFR,12,8,70,9,0,5,1007.2,METAR CYCO 092000Z 07009KT 5SM FU FEW160 BKN210 12/08 A2974 RMK AC1CS6 SLP073,2025-09-09T20:10:11Z,2025-09-09T16:10:11Z
CYDF,"Deer Lake Arpt, NL, CA",2025-09-09T15:00:00Z,2025-09-09T11:00:00Z,VFR,18,5,240,14,19,15,1025.1,METAR CYDF 091500Z 24014G19KT 220V280 15SM FEW050 SCT250 18/05 A3027 RMK CU2CI1 SLP254,2025-09-09T15:51:26Z,2025-09-09T11:51:26Z
CYDF,"Deer Lake Arpt, NL, CA",2025-09-09T16:00:00Z,2025-09-09T12:00:00Z,VFR,18,5,240,15,22,15,1025.1,METAR CYDF 091600Z 24015G22KT 220V290 15SM SCT056 SCT250 18/05 A3027 RMK CU3CI1 SLP254,2025-09-09T16:11:12Z,2025-09-09T12:11:12Z
CYDF,"Deer Lake Arpt, NL, CA",2025-09-09T17:00:00Z,2025-09-09T13:00:00Z,VFR,18,4,250,13,20,15,1025.8,METAR CYDF 091700Z 25013G20KT 15SM BKN052 18/04 A3029 RMK CU5 SLP258,2025-09-09T17:12:45Z,2025-09-09T13:12:45Z
CYDF,"Deer Lake Arpt, NL, CA",2025-09-09T18:00:00Z,2025-09-09T14:00:00Z,VFR,18,4,260,15,21,15,1025.8,METAR CYDF 091800Z 26015G21KT 15SM SCT056 SCT250 18/04 A3029 RMK CU3CI1 SLP260,2025-09-09T18:09:17Z,2025-09-09T14:09:17Z
CYDF,"Deer Lake Arpt, NL, CA",2025-09-09T19:00:00Z,2025-09-09T15:00:00Z,VFR,17,6,260,11,22,15,1026.5,METAR CYDF 091900Z 26011G22KT 15SM SCT056 SCT250 17/06 A3031 RMK CU3CI1 CI TR SLP265,2025-09-09T19:20:46Z,2025-09-09T15:20:46Z
CYDF,"Deer Lake Arpt, NL, CA",2025-09-09T20:00:00Z,2025-09-09T16:00:00Z,VFR,16,4,270,12,21,15,1026.5,METAR CYDF 092000Z 27012G21KT 15SM FEW056 SCT250 16/04 A3031 RMK CU2CI1 SLP267,2025-09-09T20:10:11Z,2025-09-09T16:10:11Z
CYDP,"Nain Arpt, NL, CA",2025-09-09T15:00:00Z,2025-09-09T11:00:00Z,VFR,12,3,290,13,18,15,1016.3,METAR CYDP 091500Z 29013G18KT 15SM SCT048 SCT060 12/03 A3001 RMK SC3CF1 CF TR SLP164,2025-09-09T15:51:26Z,2025-09-09T11:51:26Z
CYDP,"Nain Arpt, NL, CA",2025-09-09T16:00:00Z,2025-09-09T12:00:00Z,VFR,12,2,300,17,25,15,1016.7,METAR CYDP 091600Z 30017G25KT 15SM BKN051 12/02 A3002 RMK SC5 SLP167,2025-09-09T16:11:12Z,2025-09-09T12:11:12Z
CYDP,"Nain Arpt, NL, CA",2025-09-09T17:00:00Z,2025-09-09T13:00:00Z,VFR,13,2,290,19,25,15,1016.7,METAR CYDP 091700Z 29019G25KT 15SM SCT051 13/02 A3002 RMK SC4 SLP169,2025-09-09T17:12:45Z,2025-09-09T13:12:45Z
CYDP,"Nain Arpt, NL, CA",2025-09-09T18:00:00Z,2025-09-09T14:00:00Z,VFR,13,2,300,18,26,15,1016.7,METAR CYDP 091800Z 30018G26KT 15SM FEW054 13/02 A3002 RMK SC3 SLP169,2025-09-09T18:09:17Z,2025-09-09T14:09:17Z
CYDP,"Nain Arpt, NL, CA",2025-09-09T18:00:00Z,2025-09-09T14:00:00Z,VFR,13,2,300,18,26,15,1016.7,METAR CYDP 091800Z CCA 30018G26KT 15SM SCT054 13/02 A3002 RMK SC3 SLP169,2025-09-09T19:00:51Z,2025-09-09T15:00:51Z
CYDP,"Nain Arpt, NL, CA",2025-09-09T19:00:00Z,2025-09-09T15:00:00Z,VFR,12,3,310,15,20,15,1017,METAR CYDP 091900Z 31015G20KT 15SM SCT054 12/03 A3003 RMK SC3 SLP173,2025-09-09T19:20:46Z,2025-09-09T15:20:46Z
CYDP,"Nain Arpt, NL, CA",2025-09-09T20:00:00Z,2025-09-09T16:00:00Z,VFR,13,2,290,14,0,15,1017,METAR CYDP 092000Z 29014KT 15SM BKN054 13/02 A3003 RMK SC6 SLP173,2025-09-09T20:10:11Z,2025-09-09T16:10:11Z
CYDQ,"Dawson Creek Arpt, BC, CA",2025-09-09T15:00:00Z,2025-09-09T11:00:00Z,VFR,18,6,120,5,0,9,1008.9,METAR CYDQ 091500Z AUTO 12005KT 100V170 9SM CLR 18/06 A2979 RMK SLP091 DENSITY ALT 3100FT,2025-09-09T15:51:27Z,2025-09-09T11:51:27Z
CYDQ,"Dawson Creek Arpt, BC, CA",2025-09-09T16:00:00Z,2025-09-09T12:00:00Z,VFR,21,6,240,6,0,9,1008.5,METAR CYDQ 091600Z AUTO 24006KT 190V320 9SM CLR 21/06 A2978 RMK SLP089 DENSITY ALT 3500FT,2025-09-09T16:11:14Z,2025-09-09T12:11:14Z
CYDQ,"Dawson Creek Arpt, BC, CA",2025-09-09T17:00:00Z,2025-09-09T13:00:00Z,VFR,22,6,260,11,0,9,1008.9,METAR CYDQ 091700Z AUTO 26011KT 9SM CLR 22/06 A2979 RMK SLP091 DENSITY ALT 3700FT,2025-09-09T17:12:49Z,2025-09-09T13:12:49Z
CYDQ,"Dawson Creek Arpt, BC, CA",2025-09-09T18:00:00Z,2025-09-09T14:00:00Z,VFR,24,4,270,16,21,9,1008.9,METAR CYDQ 091800Z AUTO 27016G21KT 9SM CLR 24/04 A2979 RMK SLP092 DENSITY ALT 3800FT,2025-09-09T18:09:19Z,2025-09-09T14:09:19Z
CYDQ,"Dawson Creek Arpt, BC, CA",2025-09-09T19:00:00Z,2025-09-09T15:00:00Z,VFR,23,5,270,17,0,9,1009.2,METAR CYDQ 091900Z AUTO 27017KT 9SM CLR 23/05 A2980 RMK SLP095 DENSITY ALT 3800FT,2025-09-09T19:20:52Z,2025-09-09T15:20:52Z
CYDQ,"Dawson Creek Arpt, BC, CA",2025-09-09T20:00:00Z,2025-09-09T16:00:00Z,VFR,24,6,260,13,0,9,1008.9,METAR CYDQ 092000Z AUTO 26013KT 9SM CLR 24/06 A2979 RMK SLP095 DENSITY ALT 3900FT,2025-09-09T20:10:12Z,2025-09-09T16:10:12Z
CYEG,"Edmonton Intl Arpt, AB, CA",2025-09-09T15:32:00Z,2025-09-09T11:32:00Z,VFR,16,11,160,4,0,8,1011.9,SPECI CYEG 091532Z 16004KT 8SM SKC 16/11 A2988 RMK FU SLP125 DENSITY ALT 3100FT,2025-09-09T15:51:24Z,2025-09-09T11:51:24Z
CYEG,"Edmonton Intl Arpt, AB, CA",2025-09-09T16:00:00Z,2025-09-09T12:00:00Z,VFR,17,11,180,6,0,8,1011.9,METAR CYEG 091600Z 18006KT 8SM SKC 17/11 A2988 RMK FU SLP124 DENSITY ALT 3200FT,2025-09-09T16:11:11Z,2025-09-09T12:11:11Z
CYEG,"Edmonton Intl Arpt, AB, CA",2025-09-09T17:00:00Z,2025-09-09T13:00:00Z,VFR,20,11,170,7,0,8,1011.9,METAR CYEG 091700Z 17007KT 8SM SKC 20/11 A2988 RMK FU SLP122 DENSITY ALT 3600FT,2025-09-09T17:12:43Z,2025-09-09T13:12:43Z
CYEG,"Edmonton Intl Arpt, AB, CA",2025-09-09T18:00:00Z,2025-09-09T14:00:00Z,VFR,22,11,150,8,0,8,1011.3,METAR CYEG 091800Z 15008KT 8SM SKC 22/11 A2986 RMK FU SLP115 DENSITY ALT 3900FT,2025-09-09T18:09:15Z,2025-09-09T14:09:15Z
CYEG,"Edmonton Intl Arpt, AB, CA",2025-09-09T19:00:00Z,2025-09-09T15:00:00Z,VFR,24,11,180,10,0,8,1010.9,METAR CYEG 091900Z 18010KT 140V210 8SM SKC 24/11 A2985 RMK FU SLP112 DENSITY ALT 4100FT,2025-09-09T19:20:43Z,2025-09-09T15:20:43Z
CYEG,"Edmonton Intl Arpt, AB, CA",2025-09-09T19:22:00Z,2025-09-09T15:22:00Z,VFR,30,11,150,8,0,8,1010.9,SPECI CYEG 091922Z 15008KT 130V210 8SM SKC 30/11 A2985 RMK FU SLP106 DENSITY ALT 4700FT,2025-09-09T19:30:34Z,2025-09-09T15:30:34Z
CYEG,"Edmonton Intl Arpt, AB, CA",2025-09-09T20:00:00Z,2025-09-09T16:00:00Z,VFR,26,11,170,10,0,NA,1010.6,METAR CYEG 092000Z 17010KT 10SM SKC 26/11 A2984 RMK FU SLP106 DENSITY ALT 4300FT,2025-09-09T20:10:07Z,2025-09-09T16:10:07Z
CYER,"Ft Severn Arpt, ON, CA",2025-09-09T15:00:00Z,2025-09-09T11:00:00Z,MVFR,7,7,30,8,0,9,1015.3,METAR CYER 091500Z AUTO 03008KT 9SM BKN013 OVC022 07/07 A2998 RMK SLP156,2025-09-09T15:51:24Z,2025-09-09T11:51:24Z
CYER,"Ft Severn Arpt, ON, CA",2025-09-09T16:00:00Z,2025-09-09T12:00:00Z,MVFR,9,6,40,7,0,9,1015.7,METAR CYER 091600Z AUTO 04007KT 360V060 9SM BKN015 OVC024 09/06 A2999 RMK SLP159,2025-09-09T16:11:11Z,2025-09-09T12:11:11Z
CYER,"Ft Severn Arpt, ON, CA",2025-09-09T16:25:00Z,2025-09-09T12:25:00Z,MVFR,9,5,20,8,0,9,1016,SPECI CYER 091625Z AUTO 02008KT 9SM SCT017 BKN028 BKN250 09/05 A3000 RMK SLP161,2025-09-09T16:36:21Z,2025-09-09T12:36:21Z
CYER,"Ft Severn Arpt, ON, CA",2025-09-09T16:37:00Z,2025-09-09T12:37:00Z,MVFR,9,5,40,6,0,9,1016,SPECI CYER 091637Z AUTO 04006KT 9SM FEW016 BKN021 BKN028 BKN240 09/05 A3000 RMK SLP162,2025-09-09T16:53:58Z,2025-09-09T12:53:58Z
CYER,"Ft Severn Arpt, ON, CA",2025-09-09T17:00:00Z,2025-09-09T13:00:00Z,MVFR,9,5,10,6,0,9,1016,METAR CYER 091700Z AUTO 01006KT 350V070 9SM OVC019 09/05 A3000 RMK SLP163,2025-09-09T17:12:43Z,2025-09-09T13:12:43Z
CYER,"Ft Severn Arpt, ON, CA",2025-09-09T18:00:00Z,2025-09-09T14:00:00Z,MVFR,9,5,20,6,0,9,1016.7,METAR CYER 091800Z AUTO 02006KT 360V070 9SM OVC025 09/05 A3002 RMK SLP168,2025-09-09T18:09:15Z,2025-09-09T14:09:15Z
CYER,"Ft Severn Arpt, ON, CA",2025-09-09T19:00:00Z,2025-09-09T15:00:00Z,VFR,9,5,30,8,0,9,1017,METAR CYER 091900Z AUTO 03008KT 9SM FEW022 SCT028 OVC037 09/05 A3003 RMK SLP173,2025-09-09T19:20:43Z,2025-09-09T15:20:43Z
CYER,"Ft Severn Arpt, ON, CA",2025-09-09T20:00:00Z,2025-09-09T16:00:00Z,VFR,9,3,40,7,0,9,1017.4,METAR CYER 092000Z AUTO 04007KT 9SM OVC060 09/03 A3004 RMK SLP176,2025-09-09T20:10:07Z,2025-09-09T16:10:07Z
CYFB,"Iqaluit Arpt, NU, CA",2025-09-09T15:00:00Z,2025-09-09T11:00:00Z,MVFR,7,3,320,16,21,30,1009.9,METAR CYFB 091500Z 32016G21KT 30SM OVC015 07/03 A2982 RMK SC8 SLP103,2025-09-09T15:51:26Z,2025-09-09T11:51:26Z
CYFB,"Iqaluit Arpt, NU, CA",2025-09-09T16:00:00Z,2025-09-09T12:00:00Z,MVFR,7,4,320,11,18,30,1009.9,METAR CYFB 091600Z 32011G18KT 30SM BKN018 07/04 A2982 RMK SC7 SLP102,2025-09-09T16:11:12Z,2025-09-09T12:11:12Z
CYFB,"Iqaluit Arpt, NU, CA",2025-09-09T17:00:00Z,2025-09-09T13:00:00Z,MVFR,8,3,320,15,21,30,1009.9,METAR CYFB 091700Z 32015G21KT 30SM BKN024 08/03 A2982 RMK SC7 CVCTV CLD EMBD SLP103,2025-09-09T17:12:45Z,2025-09-09T13:12:45Z
CYFB,"Iqaluit Arpt, NU, CA",2025-09-09T18:00:00Z,2025-09-09T14:00:00Z,MVFR,8,3,320,15,0,30,1010.2,METAR CYFB 091800Z 32015KT 30SM BKN022 08/03 A2983 RMK SC7 SLP105,2025-09-09T18:09:17Z,2025-09-09T14:09:17Z
CYFB,"Iqaluit Arpt, NU, CA",2025-09-09T19:00:00Z,2025-09-09T15:00:00Z,MVFR,8,3,330,18,0,30,1010.6,METAR CYFB 091900Z 33018KT 30SM OVC024 08/03 A2984 RMK SC8 SLP107,2025-09-09T19:20:46Z,2025-09-09T15:20:46Z
CYFB,"Iqaluit Arpt, NU, CA",2025-09-09T20:00:00Z,2025-09-09T16:00:00Z,MVFR,8,3,330,15,20,30,1010.6,METAR CYFB 092000Z 33015G20KT 30SM OVC024 08/03 A2984 RMK SC8 SLP110,2025-09-09T20:10:10Z,2025-09-09T16:10:10Z
CYFC,"Fredericton Intl, NB, CA",2025-09-09T15:00:00Z,2025-09-09T11:00:00Z,VFR,17,9,210,3,0,9,1029.5,METAR CYFC 091500Z AUTO 21003KT 130V230 9SM CLR 17/09 A3040 RMK SLP299,2025-09-09T15:51:26Z,2025-09-09T11:51:26Z
CYFC,"Fredericton Intl, NB, CA",2025-09-09T16:00:00Z,2025-09-09T12:00:00Z,VFR,19,8,VAR,5,0,9,1028.9,METAR CYFC 091600Z AUTO VRB05KT 9SM CLR 19/08 A3038 RMK SLP290,2025-09-09T16:11:12Z,2025-09-09T12:11:12Z
CYFC,"Fredericton Intl, NB, CA",2025-09-09T17:00:00Z,2025-09-09T13:00:00Z,VFR,19,8,VAR,4,0,9,1028.5,METAR CYFC 091700Z AUTO VRB04KT 9SM CLR 19/08 A3037 RMK SLP286,2025-09-09T17:12:45Z,2025-09-09T13:12:45Z
CYFC,"Fredericton Intl, NB, CA",2025-09-09T18:00:00Z,2025-09-09T14:00:00Z,VFR,20,6,VAR,2,0,9,1027.9,METAR CYFC 091800Z AUTO VRB02KT 9SM CLR 20/06 A3035 RMK SLP282 DENSITY ALT 300FT,2025-09-09T18:09:17Z,2025-09-09T14:09:17Z
CYFC,"Fredericton Intl, NB, CA",2025-09-09T19:00:00Z,2025-09-09T15:00:00Z,VFR,21,6,70,6,0,9,1027.9,METAR CYFC 091900Z AUTO 07006KT 060V150 9SM CLR 21/06 A3035 RMK SLP280 DENSITY ALT 300FT,2025-09-09T19:20:46Z,2025-09-09T15:20:46Z
CYFC,"Fredericton Intl, NB, CA",2025-09-09T20:00:00Z,2025-09-09T16:00:00Z,VFR,21,7,VAR,2,0,9,1027.5,METAR CYFC 092000Z AUTO VRB02KT 9SM CLR 21/07 A3034 RMK SLP277 DENSITY ALT 300FT,2025-09-09T20:10:11Z,2025-09-09T16:10:11Z
CYGK,"Kingston Arpt, ON, CA",2025-09-09T15:00:00Z,2025-09-09T11:00:00Z,VFR,18,11,170,11,0,15,1028.2,METAR CYGK 091500Z 17011KT 15SM FEW018 BKN240 18/11 A3036 RMK CU2CS4 SLP285,2025-09-09T15:51:24Z,2025-09-09T11:51:24Z
CYGK,"Kingston Arpt, ON, CA",2025-09-09T16:00:00Z,2025-09-09T12:00:00Z,VFR,18,12,170,10,0,15,1028.2,METAR CYGK 091600Z 17010KT 15SM FEW024 OVC240 18/12 A3036 RMK CU2CS6 SLP284,2025-09-09T16:11:11Z,2025-09-09T12:11:11Z
CYGK,"Kingston Arpt, ON, CA",2025-09-09T17:00:00Z,2025-09-09T13:00:00Z,VFR,18,12,160,8,0,15,1027.5,METAR CYGK 091700Z 16008KT 15SM FEW020 FEW250 18/12 A3034 RMK SC1CI1 SLP277,2025-09-09T17:12:44Z,2025-09-09T13:12:44Z
CYGK,"Kingston Arpt, ON, CA",2025-09-09T18:00:00Z,2025-09-09T14:00:00Z,VFR,19,12,170,7,0,15,1026.8,METAR CYGK 091800Z 17007KT 15SM FEW020 FEW250 19/12 A3032 RMK SC1CI1 SLP271,2025-09-09T18:09:16Z,2025-09-09T14:09:16Z
CYGK,"Kingston Arpt, ON, CA",2025-09-09T19:00:00Z,2025-09-09T15:00:00Z,VFR,19,11,160,6,0,15,1026.2,METAR CYGK 091900Z 16006KT 15SM FEW020 FEW250 19/11 A3030 RMK SC1CI1 SC TR SLP266,2025-09-09T19:20:44Z,2025-09-09T15:20:44Z
CYGK,"Kingston Arpt, ON, CA",2025-09-09T20:00:00Z,2025-09-09T16:00:00Z,VFR,19,11,160,6,0,15,1025.5,METAR CYGK 092000Z 16006KT 140V200 15SM FEW020 FEW240 19/11 A3028 RMK SC1CI2 SC TR SLP258,2025-09-09T20:10:07Z,2025-09-09T16:10:07Z
CYGL,"La Grande Riviere Arpt, QC, CA",2025-09-09T15:31:00Z,2025-09-09T11:31:00Z,VFR,11,11,200,7,0,15,1014,SPECI CYGL 091531Z 20007KT 15SM -DZ SCT012 OVC051 11/11 A2994 RMK SC4SC4 SLP151,2025-09-09T15:51:27Z,2025-09-09T11:51:27Z
CYGL,"La Grande Riviere Arpt, QC, CA",2025-09-09T16:00:00Z,2025-09-09T12:00:00Z,VFR,12,10,200,8,0,15,1014,METAR CYGL 091600Z 20008KT 15SM -DZ SCT015 OVC053 12/10 A2994 RMK SC4SC4 SLP148,2025-09-09T16:11:14Z,2025-09-09T12:11:14Z
CYGL,"La Grande Riviere Arpt, QC, CA",2025-09-09T16:27:00Z,2025-09-09T12:27:00Z,VFR,12,10,210,7,0,15,1014,SPECI CYGL 091627Z 21007KT 15SM SCT022 BKN051 OVC090 12/10 A2994 RMK SC3SC3AC2 SLP148,2025-09-09T16:36:25Z,2025-09-09T12:36:25Z
CYGL,"La Grande Riviere Arpt, QC, CA",2025-09-09T17:00:00Z,2025-09-09T13:00:00Z,VFR,13,10,200,12,0,15,1013.6,METAR CYGL 091700Z 20012KT 15SM SCT018 BKN052 OVC082 13/10 A2993 RMK SC3SC3AC2 SLP145,2025-09-09T17:12:49Z,2025-09-09T13:12:49Z
CYGL,"La Grande Riviere Arpt, QC, CA",2025-09-09T17:26:00Z,2025-09-09T13:26:00Z,VFR,12,10,210,8,0,NA,1013.6,SPECI CYGL 091726Z 21008KT 10SM -RA FEW020 BKN055 OVC080 12/10 A2993 RMK SC1SC4AC3 SLP145,2025-09-09T17:30:32Z,2025-09-09T13:30:32Z
CYGL,"La Grande Riviere Arpt, QC, CA",2025-09-09T18:00:00Z,2025-09-09T14:00:00Z,VFR,12,10,220,7,0,8,1013.6,METAR CYGL 091800Z 22007KT 8SM -RA FEW020 OVC057 12/10 A2993 RMK SC1SC7 SLP145,2025-09-09T18:09:19Z,2025-09-09T14:09:19Z
CYGL,"La Grande Riviere Arpt, QC, CA",2025-09-09T19:00:00Z,2025-09-09T15:00:00Z,VFR,12,11,190,3,0,NA,1013.3,METAR CYGL 091900Z 19003KT 150V220 10SM -RA FEW020 OVC060 12/11 A2992 RMK SC1SC7 SLP141,2025-09-09T19:20:52Z,2025-09-09T15:20:52Z
CYGL,"La Grande Riviere Arpt, QC, CA",2025-09-09T20:00:00Z,2025-09-09T16:00:00Z,MVFR,12,11,230,3,0,15,1013,METAR CYGL 092000Z 23003KT 15SM -RA BKN022 OVC059 12/11 A2991 RMK SC5SC3 SLP139,2025-09-09T20:10:12Z,2025-09-09T16:10:12Z
CYGV,"Havre St Pierre Arpt, QC, CA",2025-09-09T15:00:00Z,2025-09-09T11:00:00Z,VFR,13,3,260,14,20,9,1026.8,METAR CYGV 091500Z AUTO 26014G20KT 9SM CLR 13/03 A3032 RMK SLP271,2025-09-09T15:51:27Z,2025-09-09T11:51:27Z
CYGV,"Havre St Pierre Arpt, QC, CA",2025-09-09T16:00:00Z,2025-09-09T12:00:00Z,VFR,14,4,250,13,21,9,1026.8,METAR CYGV 091600Z AUTO 25013G21KT 9SM SCT160 14/04 A3032 RMK SLP271,2025-09-09T16:11:14Z,2025-09-09T12:11:14Z
CYGV,"Havre St Pierre Arpt, QC, CA",2025-09-09T17:00:00Z,2025-09-09T13:00:00Z,VFR,14,3,250,17,22,9,1026.8,METAR CYGV 091700Z AUTO 25017G22KT 9SM CLR 14/03 A3032 RMK SLP271,2025-09-09T17:12:49Z,2025-09-09T13:12:49Z
CYGV,"Havre St Pierre Arpt, QC, CA",2025-09-09T18:00:00Z,2025-09-09T14:00:00Z,VFR,14,4,250,17,22,9,1026.5,METAR CYGV 091800Z AUTO 25017G22KT 9SM CLR 14/04 A3031 RMK SLP268,2025-09-09T18:09:19Z,2025-09-09T14:09:19Z
CYGV,"Havre St Pierre Arpt, QC, CA",2025-09-09T19:00:00Z,2025-09-09T15:00:00Z,VFR,14,5,260,16,22,9,1026.5,METAR CYGV 091900Z AUTO 26016G22KT 9SM CLR 14/05 A3031 RMK SLP268,2025-09-09T19:20:52Z,2025-09-09T15:20:52Z
CYGV,"Havre St Pierre Arpt, QC, CA",2025-09-09T20:00:00Z,2025-09-09T16:00:00Z,VFR,13,6,250,14,20,9,1026.2,METAR CYGV 092000Z AUTO 25014G20KT 9SM CLR 13/06 A3030 RMK SLP265,2025-09-09T20:10:12Z,2025-09-09T16:10:12Z
CYHA,"Quaqtaq Arpt, QC, CA",2025-09-09T15:00:00Z,2025-09-09T11:00:00Z,VFR,7,3,290,6,0,15,1013.3,METAR CYHA 091500Z 29006KT 15SM FEW038 FEW070 07/03 A2992 RMK SC1AC1 SC TR SLP135,2025-09-09T15:51:27Z,2025-09-09T11:51:27Z
CYHA,"Quaqtaq Arpt, QC, CA",2025-09-09T16:00:00Z,2025-09-09T12:00:00Z,VFR,8,3,300,6,0,15,1013.3,METAR CYHA 091600Z 30006KT 15SM FEW035 FEW070 08/03 A2992 RMK SC1AC1 AC TR SLP135,2025-09-09T16:11:14Z,2025-09-09T12:11:14Z
CYHA,"Quaqtaq Arpt, QC, CA",2025-09-09T17:00:00Z,2025-09-09T13:00:00Z,VFR,8,3,270,5,0,15,1013.3,METAR CYHA 091700Z 27005KT 240V310 15SM FEW025 BKN033 08/03 A2992 RMK SC1SC6 SC TR CONTRAILS SLP137,2025-09-09T17:12:49Z,2025-09-09T13:12:49Z
CYHA,"Quaqtaq Arpt, QC, CA",2025-09-09T18:00:00Z,2025-09-09T14:00:00Z,VFR,8,2,330,10,0,15,1013.6,METAR CYHA 091800Z 33010KT 15SM BKN035 08/02 A2993 RMK SC6 SLP139,2025-09-09T18:09:18Z,2025-09-09T14:09:18Z
CYHA,"Quaqtaq Arpt, QC, CA",2025-09-09T19:00:00Z,2025-09-09T15:00:00Z,VFR,7,3,340,6,0,15,1013.6,METAR CYHA 091900Z 34006KT 15SM FEW035 FEW250 07/03 A2993 RMK SC1CI1 SC TR CI TR LAST OBS/NEXT 101200 UTC SLP139,2025-09-09T19:20:52Z,2025-09-09T15:20:52Z
CYHD,"Dryden Rgnl, ON, CA",2025-09-09T15:00:00Z,2025-09-09T11:00:00Z,VFR,14,11,VAR,2,0,9,1015.3,METAR CYHD 091500Z AUTO VRB02KT 9SM CLR 14/11 A2998 RMK SLP163,2025-09-09T15:51:26Z,2025-09-09T11:51:26Z
CYHD,"Dryden Rgnl, ON, CA",2025-09-09T16:00:00Z,2025-09-09T12:00:00Z,VFR,17,11,50,5,0,9,1015.7,METAR CYHD 091600Z AUTO 05005KT 020V140 9SM CLR 17/11 A2999 RMK SLP164 DENSITY ALT 1800FT,2025-09-09T16:11:12Z,2025-09-09T12:11:12Z
CYHD,"Dryden Rgnl, ON, CA",2025-09-09T17:00:00Z,2025-09-09T13:00:00Z,VFR,19,12,VAR,2,0,9,1015.7,METAR CYHD 091700Z AUTO VRB02KT 9SM CLR 19/12 A2999 RMK SLP166 DENSITY ALT 2100FT,2025-09-09T17:12:45Z,2025-09-09T13:12:45Z
CYHD,"Dryden Rgnl, ON, CA",2025-09-09T18:00:00Z,2025-09-09T14:00:00Z,VFR,20,11,VAR,7,0,9,1015.7,METAR CYHD 091800Z AUTO VRB07KT 9SM CLR 20/11 A2999 RMK SLP164 DENSITY ALT 2200FT,2025-09-09T18:09:17Z,2025-09-09T14:09:17Z
CYHD,"Dryden Rgnl, ON, CA",2025-09-09T19:00:00Z,2025-09-09T15:00:00Z,VFR,21,10,190,4,0,9,1015.7,METAR CYHD 091900Z AUTO 19004KT 180V310 9SM CLR 21/10 A2999 RMK SLP165 DENSITY ALT 2300FT,2025-09-09T19:20:46Z,2025-09-09T15:20:46Z
CYHD,"Dryden Rgnl, ON, CA",2025-09-09T20:00:00Z,2025-09-09T16:00:00Z,VFR,21,11,260,3,0,9,1015.7,METAR CYHD 092000Z AUTO 26003KT 230V040 9SM CLR 21/11 A2999 RMK SLP164 DENSITY ALT 2400FT,2025-09-09T20:10:11Z,2025-09-09T16:10:11Z
CYHM,"Hamilton/Munro Intl, ON, CA",2025-09-09T15:00:00Z,2025-09-09T11:00:00Z,VFR,19,12,130,3,0,15,1026.2,METAR CYHM 091500Z 13003KT 100V180 15SM SKC 19/12 A3030 RMK SLP265 DENSITY ALT 1000FT,2025-09-09T15:51:26Z,2025-09-09T11:51:26Z
CYHM,"Hamilton/Munro Intl, ON, CA",2025-09-09T16:00:00Z,2025-09-09T12:00:00Z,VFR,21,10,140,10,0,15,1025.8,METAR CYHM 091600Z 14010KT 130V200 15SM FEW050 21/10 A3029 RMK CU1 SLP262 DENSITY ALT 1300FT,2025-09-09T16:11:12Z,2025-09-09T12:11:12Z
CYHM,"Hamilton/Munro Intl, ON, CA",2025-09-09T17:00:00Z,2025-09-09T13:00:00Z,VFR,22,9,230,5,0,15,1025.1,METAR CYHM 091700Z 23005KT 100V250 15SM SCT050 22/09 A3027 RMK CU4 SLP255 DENSITY ALT 1400FT,2025-09-09T17:12:45Z,2025-09-09T13:12:45Z
CYHM,"Hamilton/Munro Intl, ON, CA",2025-09-09T18:00:00Z,2025-09-09T14:00:00Z,VFR,21,8,230,6,0,15,1024.8,METAR CYHM 091800Z 23006KT 150V250 15SM SCT055 SCT220 21/08 A3026 RMK CU3CI1 CI TR SLP250 DENSITY ALT 1400FT,2025-09-09T18:09:17Z,2025-09-09T14:09:17Z
CYHM,"Hamilton/Munro Intl, ON, CA",2025-09-09T19:00:00Z,2025-09-09T15:00:00Z,VFR,23,7,150,7,16,15,1024.1,METAR CYHM 091900Z 15007G16KT 140V230 15SM FEW060 SCT240 23/07 A3024 RMK CF1CI2 SLP243 DENSITY ALT 1500FT,2025-09-09T19:20:46Z,2025-09-09T15:20:46Z
CYHM,"Hamilton/Munro Intl, ON, CA",2025-09-09T20:00:00Z,2025-09-09T16:00:00Z,VFR,23,7,170,7,0,15,1023.8,METAR CYHM 092000Z 17007KT 15SM FEW065 FEW260 23/07 A3023 RMK CF1CI1 CF TR SLP241 DENSITY ALT 1500FT,2025-09-09T20:10:11Z,2025-09-09T16:10:11Z
CYHU,"Montreal/St Hubert, QC, CA",2025-09-09T15:00:00Z,2025-09-09T11:00:00Z,VFR,17,10,180,5,0,9,1028.5,METAR CYHU 091500Z AUTO 18005KT 120V240 9SM CLR 17/10 A3037 RMK SLP286,2025-09-09T15:51:24Z,2025-09-09T11:51:24Z
CYHU,"Montreal/St Hubert, QC, CA",2025-09-09T16:00:00Z,2025-09-09T12:00:00Z,VFR,19,11,VAR,4,0,9,1028.2,METAR CYHU 091600Z AUTO VRB04KT 9SM CLR 19/11 A3036 RMK SLP283,2025-09-09T16:11:11Z,2025-09-09T12:11:11Z
CYHU,"Montreal/St Hubert, QC, CA",2025-09-09T17:00:00Z,2025-09-09T13:00:00Z,VFR,20,10,220,6,0,9,1027.5,METAR CYHU 091700Z AUTO 22006KT 130V240 9SM CLR 20/10 A3034 RMK SLP277,2025-09-09T17:12:44Z,2025-09-09T13:12:44Z
CYHU,"Montreal/St Hubert, QC, CA",2025-09-09T18:00:00Z,2025-09-09T14:00:00Z,VFR,20,10,VAR,6,0,9,1026.8,METAR CYHU 091800Z AUTO VRB06KT 9SM CLR 20/10 A3032 RMK SLP270 DENSITY ALT 300FT,2025-09-09T18:09:16Z,2025-09-09T14:09:16Z
CYHU,"Montreal/St Hubert, QC, CA",2025-09-09T19:00:00Z,2025-09-09T15:00:00Z,VFR,21,7,210,8,0,9,1026.5,METAR CYHU 091900Z AUTO 21008KT 180V260 9SM CLR 21/07 A3031 RMK SLP265 DENSITY ALT 400FT,2025-09-09T19:20:44Z,2025-09-09T15:20:44Z
CYHU,"Montreal/St Hubert, QC, CA",2025-09-09T20:00:00Z,2025-09-09T16:00:00Z,VFR,21,6,280,7,0,9,1025.5,METAR CYHU 092000Z AUTO 28007KT 9SM CLR 21/06 A3028 RMK SLP257 DENSITY ALT 400FT,2025-09-09T20:10:07Z,2025-09-09T16:10:07Z
CYHZ,"Halifax/Stanfield Intl, NS, CA",2025-09-09T15:00:00Z,2025-09-09T11:00:00Z,VFR,19,8,60,6,0,15,1028.9,METAR CYHZ 091500Z 06006KT 010V110 15SM FEW040 BKN250 19/08 A3038 RMK CU2CS4 CI ASOCTD SLP292,2025-09-09T15:51:24Z,2025-09-09T11:51:24Z
CYHZ,"Halifax/Stanfield Intl, NS, CA",2025-09-09T16:00:00Z,2025-09-09T12:00:00Z,VFR,19,8,310,4,0,15,1028.9,METAR CYHZ 091600Z 31004KT 280V010 15SM FEW045 BKN250 19/08 A3038 RMK CU2CS5 CI ASOCTD SLP292,2025-09-09T16:11:11Z,2025-09-09T12:11:11Z
CYHZ,"Halifax/Stanfield Intl, NS, CA",2025-09-09T17:00:00Z,2025-09-09T13:00:00Z,VFR,19,7,330,4,0,15,1028.5,METAR CYHZ 091700Z 33004KT 15SM FEW040 BKN250 19/07 A3037 RMK CU2CS5 SLP288,2025-09-09T17:12:43Z,2025-09-09T13:12:43Z
CYHZ,"Halifax/Stanfield Intl, NS, CA",2025-09-09T18:00:00Z,2025-09-09T14:00:00Z,VFR,20,7,VAR,4,0,15,1028.5,METAR CYHZ 091800Z VRB04KT 15SM FEW040 BKN250 20/07 A3037 RMK CU1CS6 SLP286 DENSITY ALT 700FT,2025-09-09T18:09:15Z,2025-09-09T14:09:15Z
CYHZ,"Halifax/Stanfield Intl, NS, CA",2025-09-09T19:00:00Z,2025-09-09T15:00:00Z,VFR,19,7,VAR,4,0,15,1028.2,METAR CYHZ 091900Z VRB04KT 15SM FEW045 FEW190 BKN250 19/07 A3036 RMK CU1AC1CS6 CU TR SLP283,2025-09-09T19:20:43Z,2025-09-09T15:20:43Z
CYHZ,"Halifax/Stanfield Intl, NS, CA",2025-09-09T20:00:00Z,2025-09-09T16:00:00Z,VFR,19,8,250,4,0,15,1027.9,METAR CYHZ 092000Z 25004KT 15SM FEW045 FEW190 BKN250 19/08 A3035 RMK CU1AC1CS6 CU TR CI ASOCTD SLP282,2025-09-09T20:10:07Z,2025-09-09T16:10:07Z
CYKF,"Waterloo Intl, ON, CA",2025-09-09T15:00:00Z,2025-09-09T11:00:00Z,VFR,19,10,150,7,0,9,1025.8,METAR CYKF 091500Z AUTO 15007KT 110V180 9SM CLR 19/10 A3029 RMK SLP263 DENSITY ALT 1300FT,2025-09-09T15:51:26Z,2025-09-09T11:51:26Z
CYKF,"Waterloo Intl, ON, CA",2025-09-09T16:00:00Z,2025-09-09T12:00:00Z,VFR,20,8,180,7,0,9,1025.8,METAR CYKF 091600Z AUTO 18007KT 150V220 9SM CLR 20/08 A3029 RMK SLP260 DENSITY ALT 1600FT,2025-09-09T16:11:12Z,2025-09-09T12:11:12Z
CYKF,"Waterloo Intl, ON, CA",2025-09-09T17:00:00Z,2025-09-09T13:00:00Z,VFR,21,8,170,8,0,9,1025.1,METAR CYKF 091700Z AUTO 17008KT 150V230 9SM FEW055 21/08 A3027 RMK SLP255 DENSITY ALT 1700FT,2025-09-09T17:12:45Z,2025-09-09T13:12:45Z
CYKF,"Waterloo Intl, ON, CA",2025-09-09T18:00:00Z,2025-09-09T14:00:00Z,VFR,21,7,250,5,0,9,1024.5,METAR CYKF 091800Z AUTO 25005KT 170V260 9SM SCT060 21/07 A3025 RMK SLP249 DENSITY ALT 1700FT,2025-09-09T18:09:17Z,2025-09-09T14:09:17Z
CYKF,"Waterloo Intl, ON, CA",2025-09-09T19:00:00Z,2025-09-09T15:00:00Z,VFR,22,7,160,10,0,9,1023.8,METAR CYKF 091900Z AUTO 16010KT 9SM FEW060 22/07 A3023 RMK SLP242 DENSITY ALT 1800FT,2025-09-09T19:20:46Z,2025-09-09T15:20:46Z
CYKF,"Waterloo Intl, ON, CA",2025-09-09T20:00:00Z,2025-09-09T16:00:00Z,VFR,21,7,160,8,0,9,1023.5,METAR CYKF 092000Z AUTO 16008KT 130V220 9SM SCT060 21/07 A3022 RMK SLP238 DENSITY ALT 1700FT,2025-09-09T20:10:11Z,2025-09-09T16:10:11Z
CYKJ,"Key Lake Arpt, SK, CA",2025-09-09T15:00:00Z,2025-09-09T11:00:00Z,VFR,10,8,140,5,0,9,1016,METAR CYKJ 091500Z AUTO 14005KT 9SM CLR 10/08 A3000 RMK SLP180,2025-09-09T15:51:27Z,2025-09-09T11:51:27Z
CYKJ,"Key Lake Arpt, SK, CA",2025-09-09T16:00:00Z,2025-09-09T12:00:00Z,VFR,13,8,170,7,0,9,1015.7,METAR CYKJ 091600Z AUTO 17007KT 9SM CLR 13/08 A2999 RMK SLP175,2025-09-09T16:11:14Z,2025-09-09T12:11:14Z
CYKJ,"Key Lake Arpt, SK, CA",2025-09-09T17:00:00Z,2025-09-09T13:00:00Z,VFR,15,7,190,10,0,9,1015.7,METAR CYKJ 091700Z AUTO 19010KT 9SM CLR 15/07 A2999 RMK SLP175 DENSITY ALT 2000FT,2025-09-09T17:12:49Z,2025-09-09T13:12:49Z
CYKJ,"Key Lake Arpt, SK, CA",2025-09-09T18:00:00Z,2025-09-09T14:00:00Z,VFR,16,8,180,6,17,9,1015.7,METAR CYKJ 091800Z AUTO 18006G17KT 110V200 9SM CLR 16/08 A2999 RMK SLP173 DENSITY ALT 2200FT,2025-09-09T18:09:18Z,2025-09-09T14:09:18Z
CYKJ,"Key Lake Arpt, SK, CA",2025-09-09T19:00:00Z,2025-09-09T15:00:00Z,VFR,17,8,190,6,0,9,1015.3,METAR CYKJ 091900Z AUTO 19006KT 140V210 9SM CLR 17/08 A2998 RMK SLP169 DENSITY ALT 2300FT,2025-09-09T19:20:52Z,2025-09-09T15:20:52Z
CYKJ,"Key Lake Arpt, SK, CA",2025-09-09T20:00:00Z,2025-09-09T16:00:00Z,VFR,18,7,170,10,0,9,1014.6,METAR CYKJ 092000Z AUTO 17010KT 120V190 9SM CLR 18/07 A2996 RMK SLP164 DENSITY ALT 2500FT,2025-09-09T20:10:12Z,2025-09-09T16:10:12Z
CYLK,"Lutselke Arpt, NT, CA",2025-09-09T15:00:00Z,2025-09-09T11:00:00Z,VFR,11,7,90,5,0,25,1010.2,METAR CYLK 091500Z 09005KT 050V140 25SM SCT120 BKN140 BKN240 11/07 A2983 RMK AC3AC2CI1 FU SLP112,2025-09-09T15:51:27Z,2025-09-09T11:51:27Z
CYLK,"Lutselke Arpt, NT, CA",2025-09-09T16:00:00Z,2025-09-09T12:00:00Z,VFR,14,8,90,4,0,25,1009.9,METAR CYLK 091600Z 09004KT 060V150 25SM FEW065 SCT120 BKN210 14/08 A2982 RMK SC2AC1CI3 FU SLP106,2025-09-09T16:11:14Z,2025-09-09T12:11:14Z
CYLK,"Lutselke Arpt, NT, CA",2025-09-09T17:00:00Z,2025-09-09T13:00:00Z,VFR,15,8,100,3,0,25,1009.2,METAR CYLK 091700Z 10003KT 050V150 25SM SCT062 BKN110 BKN210 15/08 A2980 RMK SC3AC2CI1 FU SLP101 DENSITY ALT 900FT,2025-09-09T17:12:49Z,2025-09-09T13:12:49Z
CYLK,"Lutselke Arpt, NT, CA",2025-09-09T18:00:00Z,2025-09-09T14:00:00Z,VFR,17,6,110,6,0,25,1008.5,METAR CYLK 091800Z 11006KT 060V150 25SM SCT063 SCT110 BKN210 17/06 A2978 RMK SC3AC1CS2 FU SLP092 DENSITY ALT 1100FT,2025-09-09T18:09:18Z,2025-09-09T14:09:18Z
CYLK,"Lutselke Arpt, NT, CA",2025-09-09T19:00:00Z,2025-09-09T15:00:00Z,VFR,17,6,110,6,0,25,1007.5,METAR CYLK 091900Z 11006KT 060V160 25SM BKN070 BKN100 BKN180 OVC210 17/06 A2975 RMK AC5AC1AC1CI1 FU SLP084 DENSITY ALT 1200FT,2025-09-09T19:20:52Z,2025-09-09T15:20:52Z
CYLK,"Lutselke Arpt, NT, CA",2025-09-09T20:00:00Z,2025-09-09T16:00:00Z,VFR,16,5,120,6,0,25,1007.2,METAR CYLK 092000Z 12006KT 060V140 25SM FEW053 SCT066 BKN120 OVC140 16/05 A2974 RMK SC1AC3AC2AC2 FU SLP079 DENSITY ALT 1100FT,2025-09-09T20:10:12Z,2025-09-09T16:10:12Z
CYLK,"Lutselke Arpt, NT, CA",2025-09-09T20:25:00Z,2025-09-09T16:25:00Z,VFR,15,8,140,7,0,15,1007.5,SPECI CYLK 092025Z 14007KT 080V180 15SM -RA BKN056 OVC090 15/08 A2975 RMK SC6AC2 FU SLP083 DENSITY ALT 900FT,2025-09-09T20:31:16Z,2025-09-09T16:31:16Z
CYLW,"Kelowna Arpt, BC, CA",2025-09-09T15:00:00Z,2025-09-09T11:00:00Z,VFR,14,11,60,2,0,9,1013.3,METAR CYLW 091500Z AUTO 06002KT 9SM CLR 14/11 A2992 RMK SLP133 DENSITY ALT 1700FT,2025-09-09T15:51:24Z,2025-09-09T11:51:24Z
CYLW,"Kelowna Arpt, BC, CA",2025-09-09T16:00:00Z,2025-09-09T12:00:00Z,VFR,18,12,0,0,0,9,1013.3,METAR CYLW 091600Z AUTO 00000KT 9SM CLR 18/12 A2992 RMK SLP132 DENSITY ALT 2100FT,2025-09-09T16:11:11Z,2025-09-09T12:11:11Z
CYLW,"Kelowna Arpt, BC, CA",2025-09-09T17:00:00Z,2025-09-09T13:00:00Z,VFR,20,12,VAR,3,0,9,1013.3,METAR CYLW 091700Z AUTO VRB03KT 9SM CLR 20/12 A2992 RMK SLP130 DENSITY ALT 2400FT,2025-09-09T17:12:44Z,2025-09-09T13:12:44Z
CYLW,"Kelowna Arpt, BC, CA",2025-09-09T18:00:00Z,2025-09-09T14:00:00Z,VFR,22,12,VAR,2,0,9,1012.6,METAR CYLW 091800Z AUTO VRB02KT 9SM CLR 22/12 A2990 RMK SLP123 DENSITY ALT 2700FT,2025-09-09T18:09:16Z,2025-09-09T14:09:16Z
CYLW,"Kelowna Arpt, BC, CA",2025-09-09T19:00:00Z,2025-09-09T15:00:00Z,VFR,24,12,330,7,15,9,1011.6,METAR CYLW 091900Z AUTO 33007G15KT 300V360 9SM CLR 24/12 A2987 RMK SLP114 DENSITY ALT 2900FT,2025-09-09T19:20:43Z,2025-09-09T15:20:43Z
CYLW,"Kelowna Arpt, BC, CA",2025-09-09T20:00:00Z,2025-09-09T16:00:00Z,VFR,26,11,VAR,3,0,9,1010.9,METAR CYLW 092000Z AUTO VRB03KT 9SM CLR 26/11 A2985 RMK LTNG DIST E SE SLP107 DENSITY ALT 3100FT,2025-09-09T20:10:07Z,2025-09-09T16:10:07Z
CYLW,"Kelowna Arpt, BC, CA",2025-09-09T20:43:00Z,2025-09-09T16:43:00Z,VFR,26,11,0,0,0,9,1010.6,SPECI CYLW 092043Z AUTO 00000KT 9SM VCTS CLR 26/11 A2984 RMK LTNG DIST NE E SLP104 DENSITY ALT 3100FT,2025-09-09T20:53:55Z,2025-09-09T16:53:55Z
CYMH,"Mary's Harbor Arpt, NL, CA",2025-09-09T15:00:00Z,2025-09-09T11:00:00Z,VFR,14,5,330,9,18,9,1020.4,METAR CYMH 091500Z AUTO 33009G18KT 280V340 9SM CLR 14/05 A3013 RMK SLP205,2025-09-09T15:51:26Z,2025-09-09T11:51:26Z
CYMH,"Mary's Harbor Arpt, NL, CA",2025-09-09T16:00:00Z,2025-09-09T12:00:00Z,VFR,13,5,300,8,16,9,1020.7,METAR CYMH 091600Z AUTO 30008G16KT 280V360 9SM SCT044 13/05 A3014 RMK SLP209,2025-09-09T16:11:12Z,2025-09-09T12:11:12Z
CYMH,"Mary's Harbor Arpt, NL, CA",2025-09-09T17:00:00Z,2025-09-09T13:00:00Z,VFR,16,6,340,4,0,9,1020.7,METAR CYMH 091700Z AUTO 34004KT 270V010 9SM SCT055 16/06 A3014 RMK SLP210,2025-09-09T17:12:45Z,2025-09-09T13:12:45Z
CYMH,"Mary's Harbor Arpt, NL, CA",2025-09-09T18:00:00Z,2025-09-09T14:00:00Z,VFR,17,5,330,8,18,9,1021.1,METAR CYMH 091800Z AUTO 33008G18KT 9SM SCT060 17/05 A3015 RMK SLP211,2025-09-09T18:09:17Z,2025-09-09T14:09:17Z
CYMH,"Mary's Harbor Arpt, NL, CA",2025-09-09T19:00:00Z,2025-09-09T15:00:00Z,VFR,17,4,310,8,15,9,1021.4,METAR CYMH 091900Z AUTO 31008G15KT 280V340 9SM BKN066 17/04 A3016 RMK SLP214,2025-09-09T19:20:46Z,2025-09-09T15:20:46Z
CYMH,"Mary's Harbor Arpt, NL, CA",2025-09-09T20:00:00Z,2025-09-09T16:00:00Z,VFR,16,3,310,12,17,9,1021.4,METAR CYMH 092000Z AUTO 31012G17KT 270V350 9SM CLR 16/03 A3016 RMK SLP216,2025-09-09T20:10:11Z,2025-09-09T16:10:11Z
CYMM,"Fort McMurray Arpt, AB, CA",2025-09-09T15:00:00Z,2025-09-09T11:00:00Z,MVFR,12,9,100,7,0,5,1011.3,METAR CYMM 091500Z AUTO 10007KT 5SM HZ CLR 12/09 A2986 RMK SLP125,2025-09-09T15:51:24Z,2025-09-09T11:51:24Z
CYMM,"Fort McMurray Arpt, AB, CA",2025-09-09T16:00:00Z,2025-09-09T12:00:00Z,MVFR,15,10,90,6,0,5,1010.9,METAR CYMM 091600Z AUTO 09006KT 5SM HZ CLR 15/10 A2985 RMK SLP121 DENSITY ALT 1600FT,2025-09-09T16:11:11Z,2025-09-09T12:11:11Z
CYMM,"Fort McMurray Arpt, AB, CA",2025-09-09T16:51:00Z,2025-09-09T12:51:00Z,VFR,18,12,90,4,0,6,1010.6,SPECI CYMM 091651Z AUTO 09004KT 060V140 6SM HZ BKN100 18/12 A2984 RMK SLP114 DENSITY ALT 2000FT,2025-09-09T16:53:58Z,2025-09-09T12:53:58Z
CYMM,"Fort McMurray Arpt, AB, CA",2025-09-09T17:00:00Z,2025-09-09T13:00:00Z,VFR,18,12,80,6,0,6,1010.6,METAR CYMM 091700Z AUTO 08006KT 6SM HZ BKN100 18/12 A2984 RMK SLP114 DENSITY ALT 2000FT,2025-09-09T17:12:44Z,2025-09-09T13:12:44Z
CYMM,"Fort McMurray Arpt, AB, CA",2025-09-09T18:00:00Z,2025-09-09T14:00:00Z,VFR,23,13,110,8,0,9,1009.9,METAR CYMM 091800Z AUTO 11008KT 9SM CLR 23/13 A2982 RMK SLP105 DENSITY ALT 2600FT,2025-09-09T18:09:15Z,2025-09-09T14:09:15Z
CYMM,"Fort McMurray Arpt, AB, CA",2025-09-09T19:00:00Z,2025-09-09T15:00:00Z,VFR,26,13,120,12,0,9,1008.9,METAR CYMM 091900Z AUTO 12012KT 9SM CLR 26/13 A2979 RMK SLP096 DENSITY ALT 3000FT,2025-09-09T19:20:44Z,2025-09-09T15:20:44Z
CYMM,"Fort McMurray Arpt, AB, CA",2025-09-09T20:00:00Z,2025-09-09T16:00:00Z,VFR,27,13,120,15,0,9,1008.2,METAR CYMM 092000Z AUTO 12015KT 9SM CLR 27/13 A2977 RMK SLP088 DENSITY ALT 3100FT,2025-09-09T20:10:07Z,2025-09-09T16:10:07Z
CYMO,"Moosonee Arpt, ON, CA",2025-09-09T15:00:00Z,2025-09-09T11:00:00Z,MVFR,13,11,200,11,0,9,1014.6,METAR CYMO 091500Z AUTO 20011KT 9SM BKN013 OVC037 13/11 A2996 RMK SLP146,2025-09-09T15:51:24Z,2025-09-09T11:51:24Z
CYMO,"Moosonee Arpt, ON, CA",2025-09-09T15:53:00Z,2025-09-09T11:53:00Z,IFR,13,12,190,8,0,9,1014.3,SPECI CYMO 091553Z AUTO 19008KT 9SM OVC009 13/12 A2995 RMK SLP145,2025-09-09T16:05:56Z,2025-09-09T12:05:56Z
CYMO,"Moosonee Arpt, ON, CA",2025-09-09T16:00:00Z,2025-09-09T12:00:00Z,IFR,13,12,190,9,0,9,1014.3,METAR CYMO 091600Z AUTO 19009KT 9SM OVC009 13/12 A2995 RMK SLP145,2025-09-09T16:11:11Z,2025-09-09T12:11:11Z
CYMO,"Moosonee Arpt, ON, CA",2025-09-09T16:33:00Z,2025-09-09T12:33:00Z,MVFR,14,13,190,6,0,9,1014.3,SPECI CYMO 091633Z AUTO 19006KT 9SM SCT007 OVC019 14/13 A2995 RMK SLP143,2025-09-09T16:36:21Z,2025-09-09T12:36:21Z
CYMO,"Moosonee Arpt, ON, CA",2025-09-09T17:00:00Z,2025-09-09T13:00:00Z,MVFR,14,13,190,7,0,9,1014,METAR CYMO 091700Z AUTO 19007KT 9SM FEW012 OVC021 14/13 A2994 RMK SLP142,2025-09-09T17:12:44Z,2025-09-09T13:12:44Z
CYMO,"Moosonee Arpt, ON, CA",2025-09-09T18:00:00Z,2025-09-09T14:00:00Z,MVFR,16,13,210,10,0,9,1013.6,METAR CYMO 091800Z AUTO 21010KT 9SM OVC016 16/13 A2993 RMK SLP137,2025-09-09T18:09:16Z,2025-09-09T14:09:16Z
CYMO,"Moosonee Arpt, ON, CA",2025-09-09T19:00:00Z,2025-09-09T15:00:00Z,MVFR,16,13,210,9,0,9,1013.6,METAR CYMO 091900Z AUTO 21009KT 9SM OVC018 16/13 A2993 RMK SLP138,2025-09-09T19:20:44Z,2025-09-09T15:20:44Z
CYMO,"Moosonee Arpt, ON, CA",2025-09-09T20:00:00Z,2025-09-09T16:00:00Z,MVFR,16,13,210,9,15,9,1013.6,METAR CYMO 092000Z AUTO 21009G15KT 9SM OVC020 16/13 A2993 RMK SLP137,2025-09-09T20:10:07Z,2025-09-09T16:10:07Z
CYMT,"Chibougamau Arpt, QC, CA",2025-09-09T15:45:00Z,2025-09-09T11:45:00Z,VFR,13,9,180,14,0,9,1023.1,SPECI CYMT 091545Z AUTO 18014KT 9SM SCT047 BKN066 OVC084 13/09 A3021 RMK SLP243,2025-09-09T15:51:27Z,2025-09-09T11:51:27Z
CYMT,"Chibougamau Arpt, QC, CA",2025-09-09T16:00:00Z,2025-09-09T12:00:00Z,VFR,13,9,200,11,19,9,1023.5,METAR CYMT 091600Z AUTO 20011G19KT 9SM BKN045 BKN071 OVC083 13/09 A3022 RMK SLP246,2025-09-09T16:11:14Z,2025-09-09T12:11:14Z
CYMT,"Chibougamau Arpt, QC, CA",2025-09-09T16:15:00Z,2025-09-09T12:15:00Z,VFR,13,9,190,14,23,9,1023.1,SPECI CYMT 091615Z AUTO 19014G23KT 9SM -RA BKN045 OVC050 13/09 A3021 RMK SLP244,2025-09-09T16:36:25Z,2025-09-09T12:36:25Z
CYMT,"Chibougamau Arpt, QC, CA",2025-09-09T16:44:00Z,2025-09-09T12:44:00Z,VFR,13,8,190,13,19,9,1022.8,SPECI CYMT 091644Z AUTO 19013G19KT 9SM -RA BKN048 OVC060 13/08 A3020 RMK SLP239,2025-09-09T16:54:01Z,2025-09-09T12:54:01Z
CYMT,"Chibougamau Arpt, QC, CA",2025-09-09T17:10:00Z,2025-09-09T13:10:00Z,VFR,13,7,190,17,22,9,1022.8,SPECI CYMT 091710Z AUTO 19017G22KT 9SM OVC049 13/07 A3020 RMK SLP238,2025-09-09T17:12:49Z,2025-09-09T13:12:49Z
CYMT,"Chibougamau Arpt, QC, CA",2025-09-09T18:00:00Z,2025-09-09T14:00:00Z,VFR,13,7,190,14,25,9,1022.4,METAR CYMT 091800Z AUTO 19014G25KT 9SM OVC046 13/07 A3019 RMK SLP236,2025-09-09T18:09:19Z,2025-09-09T14:09:19Z
CYMT,"Chibougamau Arpt, QC, CA",2025-09-09T18:25:00Z,2025-09-09T14:25:00Z,VFR,13,7,200,18,26,9,1022.4,SPECI CYMT 091825Z AUTO 20018G26KT 9SM -RA BKN046 OVC060 13/07 A3019 RMK SLP236,2025-09-09T18:38:55Z,2025-09-09T14:38:55Z
CYMT,"Chibougamau Arpt, QC, CA",2025-09-09T19:00:00Z,2025-09-09T15:00:00Z,VFR,12,9,190,11,16,9,1022.8,METAR CYMT 091900Z AUTO 19011G16KT 9SM -RA BKN055 OVC072 12/09 A3020 RMK SLP238,2025-09-09T19:20:52Z,2025-09-09T15:20:52Z
CYMT,"Chibougamau Arpt, QC, CA",2025-09-09T20:00:00Z,2025-09-09T16:00:00Z,VFR,11,10,170,8,0,9,1022.1,METAR CYMT 092000Z AUTO 17008KT 9SM -RA OVC076 11/10 A3018 RMK PCPN 1.0MM PAST HR SLP233,2025-09-09T20:10:12Z,2025-09-09T16:10:12Z
CYOD,"Cold Lake (Mil), AB, CA",2025-09-09T15:00:00Z,2025-09-09T11:00:00Z,VFR,14,11,120,7,0,8,1013.6,METAR CYOD 091500Z 12007KT 8SM FEW080 FEW250 14/11 A2993 RMK AC1CI1 DENSITY ALT 2258FT FU SLP143,2025-09-09T15:51:26Z,2025-09-09T11:51:26Z
CYOD,"Cold Lake (Mil), AB, CA",2025-09-09T16:00:00Z,2025-09-09T12:00:00Z,VFR,17,11,120,6,0,8,1013.6,METAR CYOD 091600Z 12006KT 8SM FEW250 17/11 A2993 RMK CI1 DENSITY ALT 2593FT FU SLP144,2025-09-09T16:11:12Z,2025-09-09T12:11:12Z
CYOD,"Cold Lake (Mil), AB, CA",2025-09-09T17:00:00Z,2025-09-09T13:00:00Z,VFR,20,12,90,5,0,NA,1013.6,METAR CYOD 091700Z 09005KT 10SM FEW080 FEW250 20/12 A2993 RMK AC1CI1 DENSITY ALT 2995FT SLP140,2025-09-09T17:12:45Z,2025-09-09T13:12:45Z
CYOD,"Cold Lake (Mil), AB, CA",2025-09-09T18:00:00Z,2025-09-09T14:00:00Z,VFR,23,13,120,6,0,8,1013.3,METAR CYOD 091800Z 12006KT 8SM FEW250 23/13 A2992 RMK CI1 DENSITY ALT 3367FT FU SLP135,2025-09-09T18:09:17Z,2025-09-09T14:09:17Z
CYOD,"Cold Lake (Mil), AB, CA",2025-09-09T19:00:00Z,2025-09-09T15:00:00Z,VFR,26,13,120,9,0,8,1012.6,METAR CYOD 091900Z 12009KT 8SM FEW250 26/13 A2990 RMK CI2 DENSITY ALT 3724FT FU SLP127,2025-09-09T19:20:46Z,2025-09-09T15:20:46Z
CYOD,"Cold Lake (Mil), AB, CA",2025-09-09T20:00:00Z,2025-09-09T16:00:00Z,VFR,28,10,170,11,0,8,1011.9,METAR CYOD 092000Z 17011KT 8SM FEW250 28/10 A2988 RMK CI1 DENSITY ALT 3978FT FU SLP120,2025-09-09T20:10:11Z,2025-09-09T16:10:11Z
CYOW,"Ottawa/Cartier Intl, ON, CA",2025-09-09T15:00:00Z,2025-09-09T11:00:00Z,VFR,15,9,170,3,0,15,1028.2,METAR CYOW 091500Z 17003KT 130V270 15SM FEW250 15/09 A3036 RMK CI1 CI TR SLP285,2025-09-09T15:51:24Z,2025-09-09T11:51:24Z
CYOW,"Ottawa/Cartier Intl, ON, CA",2025-09-09T16:00:00Z,2025-09-09T12:00:00Z,VFR,18,9,270,3,0,15,1027.9,METAR CYOW 091600Z 27003KT 180V330 15SM FEW250 18/09 A3035 RMK CI1 CI TR SLP282,2025-09-09T16:11:11Z,2025-09-09T12:11:11Z
CYOW,"Ottawa/Cartier Intl, ON, CA",2025-09-09T17:00:00Z,2025-09-09T13:00:00Z,VFR,19,9,220,5,0,15,1027.2,METAR CYOW 091700Z 22005KT 130V250 15SM FEW040 FEW250 19/09 A3033 RMK CU1CI1 CU TR SLP275 DENSITY ALT 600FT,2025-09-09T17:12:43Z,2025-09-09T13:12:43Z
CYOW,"Ottawa/Cartier Intl, ON, CA",2025-09-09T18:00:00Z,2025-09-09T14:00:00Z,VFR,21,8,170,6,0,15,1026.5,METAR CYOW 091800Z 17006KT 15SM FEW050 FEW250 21/08 A3031 RMK CU1CI1 SLP266 DENSITY ALT 700FT,2025-09-09T18:09:15Z,2025-09-09T14:09:15Z
CYOW,"Ottawa/Cartier Intl, ON, CA",2025-09-09T19:00:00Z,2025-09-09T15:00:00Z,VFR,21,8,180,9,0,15,1025.5,METAR CYOW 091900Z 18009KT 130V230 15SM FEW050 BKN250 21/08 A3028 RMK CU1CI5 CU TR SLP257 DENSITY ALT 800FT,2025-09-09T19:20:44Z,2025-09-09T15:20:44Z
CYOW,"Ottawa/Cartier Intl, ON, CA",2025-09-09T20:00:00Z,2025-09-09T16:00:00Z,VFR,22,9,180,8,0,15,1024.8,METAR CYOW 092000Z 18008KT 140V230 15SM FEW050 BKN250 22/09 A3026 RMK CU1CI6 CU TR SLP251 DENSITY ALT 900FT,2025-09-09T20:10:07Z,2025-09-09T16:10:07Z
CYPC,"Paulatuk Arpt, NT, CA",2025-09-09T15:00:00Z,2025-09-09T11:00:00Z,VFR,5,4,0,0,0,15,1005.8,METAR CYPC 091500Z 00000KT 15SM SCT180 BKN210 05/04 A2970 RMK AC3CS3 SLP061,2025-09-09T15:51:27Z,2025-09-09T11:51:27Z
CYPC,"Paulatuk Arpt, NT, CA",2025-09-09T16:00:00Z,2025-09-09T12:00:00Z,VFR,6,6,60,2,0,15,1005.8,METAR CYPC 091600Z 06002KT 15SM SCT190 BKN250 06/06 A2970 RMK AC4CS2 SLP058,2025-09-09T16:11:14Z,2025-09-09T12:11:14Z
CYPC,"Paulatuk Arpt, NT, CA",2025-09-09T17:00:00Z,2025-09-09T13:00:00Z,VFR,5,5,360,3,0,15,1005.8,METAR CYPC 091700Z 36003KT 15SM FEW190 SCT250 05/05 A2970 RMK AC2CS1 DIST TCU TOP SW SLP058,2025-09-09T17:12:49Z,2025-09-09T13:12:49Z
CYPC,"Paulatuk Arpt, NT, CA",2025-09-09T18:00:00Z,2025-09-09T14:00:00Z,VFR,7,6,340,2,0,15,1005.5,METAR CYPC 091800Z 34002KT 15SM FEW190 FEW250 07/06 A2969 RMK AC1CS1 DIST TCU TOP SW SLP057,2025-09-09T18:09:19Z,2025-09-09T14:09:19Z
CYPC,"Paulatuk Arpt, NT, CA",2025-09-09T19:00:00Z,2025-09-09T15:00:00Z,VFR,6,5,340,3,0,15,1005.8,METAR CYPC 091900Z 34003KT 15SM FEW080 FEW190 06/05 A2970 RMK ACC1AC1 ACC TR SLP058,2025-09-09T19:20:52Z,2025-09-09T15:20:52Z
CYPC,"Paulatuk Arpt, NT, CA",2025-09-09T20:00:00Z,2025-09-09T16:00:00Z,VFR,10,7,50,4,0,15,1005.8,METAR CYPC 092000Z 05004KT 330V070 15SM FEW190 10/07 A2970 RMK AC2 SLP058,2025-09-09T20:10:12Z,2025-09-09T16:10:12Z
CYPL,"Pickle Lake Arpt, ON, CA",2025-09-09T15:00:00Z,2025-09-09T11:00:00Z,VFR,15,11,10,3,0,9,1014.6,METAR CYPL 091500Z AUTO 01003KT 330V070 9SM CLR 15/11 A2996 RMK SLP155 DENSITY ALT 1600FT,2025-09-09T15:51:24Z,2025-09-09T11:51:24Z
CYPL,"Pickle Lake Arpt, ON, CA",2025-09-09T16:00:00Z,2025-09-09T12:00:00Z,VFR,17,11,360,3,0,9,1015,METAR CYPL 091600Z AUTO 36003KT 310V060 9SM CLR 17/11 A2997 RMK SLP158 DENSITY ALT 1800FT,2025-09-09T16:11:11Z,2025-09-09T12:11:11Z
CYPL,"Pickle Lake Arpt, ON, CA",2025-09-09T17:00:00Z,2025-09-09T13:00:00Z,VFR,19,10,330,3,0,9,1015,METAR CYPL 091700Z AUTO 33003KT 310V040 9SM CLR 19/10 A2997 RMK SLP157 DENSITY ALT 2000FT,2025-09-09T17:12:43Z,2025-09-09T13:12:43Z
CYPL,"Pickle Lake Arpt, ON, CA",2025-09-09T18:00:00Z,2025-09-09T14:00:00Z,VFR,20,9,10,4,0,9,1015,METAR CYPL 091800Z AUTO 01004KT 300V090 9SM CLR 20/09 A2997 RMK SLP157 DENSITY ALT 2100FT,2025-09-09T18:09:15Z,2025-09-09T14:09:15Z
CYPL,"Pickle Lake Arpt, ON, CA",2025-09-09T19:00:00Z,2025-09-09T15:00:00Z,VFR,21,8,VAR,3,0,9,1015,METAR CYPL 091900Z AUTO VRB03KT 9SM CLR 21/08 A2997 RMK SLP159 DENSITY ALT 2200FT,2025-09-09T19:20:44Z,2025-09-09T15:20:44Z
CYPL,"Pickle Lake Arpt, ON, CA",2025-09-09T20:00:00Z,2025-09-09T16:00:00Z,VFR,20,9,0,0,0,9,1015,METAR CYPL 092000Z AUTO 00000KT 9SM FEW066 SCT084 20/09 A2997 RMK SLP158 DENSITY ALT 2100FT,2025-09-09T20:10:07Z,2025-09-09T16:10:07Z
CYPR,"Prince Rupert Arpt, BC, CA",2025-09-09T15:00:00Z,2025-09-09T11:00:00Z,NA,12,12,VAR,2,0,NA,1017.7,METAR CYPR 091500Z AUTO VRB02KT OVC002 12/12 A3005 RMK WX MISG VIS MISG SLP178,2025-09-09T15:51:26Z,2025-09-09T11:51:26Z
CYPR,"Prince Rupert Arpt, BC, CA",2025-09-09T16:00:00Z,2025-09-09T12:00:00Z,NA,13,12,360,3,0,NA,1017.7,METAR CYPR 091600Z AUTO 36003KT 310V020 OVC002 13/12 A3005 RMK WX MISG VIS MISG SLP178,2025-09-09T16:11:12Z,2025-09-09T12:11:12Z
CYPR,"Prince Rupert Arpt, BC, CA",2025-09-09T16:31:00Z,2025-09-09T12:31:00Z,NA,13,13,VAR,2,0,NA,1017.4,SPECI CYPR 091631Z AUTO VRB02KT BKN006 OVC009 13/13 A3004 RMK WX MISG VIS MISG SLP176,2025-09-09T16:36:22Z,2025-09-09T12:36:22Z
CYPR,"Prince Rupert Arpt, BC, CA",2025-09-09T17:00:00Z,2025-09-09T13:00:00Z,NA,14,12,330,4,0,NA,1017.4,METAR CYPR 091700Z AUTO 33004KT 290V030 OVC008 14/12 A3004 RMK WX MISG VIS MISG SLP176,2025-09-09T17:12:45Z,2025-09-09T13:12:45Z
CYPR,"Prince Rupert Arpt, BC, CA",2025-09-09T18:00:00Z,2025-09-09T14:00:00Z,NA,14,12,300,4,0,NA,1017.4,METAR CYPR 091800Z AUTO 30004KT 250V320 OVC008 14/12 A3004 RMK WX MISG VIS MISG SLP175,2025-09-09T18:09:17Z,2025-09-09T14:09:17Z
CYPR,"Prince Rupert Arpt, BC, CA",2025-09-09T18:38:00Z,2025-09-09T14:38:00Z,NA,15,13,340,5,0,NA,1017.4,SPECI CYPR 091838Z AUTO 34005KT 250V360 SCT008 BKN013 15/13 A3004 RMK WX MISG VIS MISG SLP174,2025-09-09T18:38:53Z,2025-09-09T14:38:53Z
CYPR,"Prince Rupert Arpt, BC, CA",2025-09-09T18:47:00Z,2025-09-09T14:47:00Z,NA,16,13,340,6,0,NA,1017,SPECI CYPR 091847Z AUTO 34006KT 280V010 FEW008 SCT013 16/13 A3003 RMK WX MISG VIS MISG SLP173,2025-09-09T18:50:43Z,2025-09-09T14:50:43Z
CYPR,"Prince Rupert Arpt, BC, CA",2025-09-09T18:50:00Z,2025-09-09T14:50:00Z,NA,16,12,360,7,0,NA,1017,SPECI CYPR 091850Z AUTO 36007KT 280V020 BKN013 16/12 A3003 RMK WX MISG VIS MISG SLP172,2025-09-09T19:00:51Z,2025-09-09T15:00:51Z
CYPR,"Prince Rupert Arpt, BC, CA",2025-09-09T19:00:00Z,2025-09-09T15:00:00Z,NA,15,12,320,6,0,NA,1017,METAR CYPR 091900Z AUTO 32006KT 310V030 SCT013 15/12 A3003 RMK WX MISG VIS MISG SLP172,2025-09-09T19:20:46Z,2025-09-09T15:20:46Z
CYPR,"Prince Rupert Arpt, BC, CA",2025-09-09T19:28:00Z,2025-09-09T15:28:00Z,NA,15,12,230,6,0,NA,1017,SPECI CYPR 091928Z AUTO 23006KT 200V330 BKN013 15/12 A3003 RMK WX MISG VIS MISG SLP171,2025-09-09T19:30:36Z,2025-09-09T15:30:36Z
CYPR,"Prince Rupert Arpt, BC, CA",2025-09-09T19:39:00Z,2025-09-09T15:39:00Z,NA,15,13,290,4,0,NA,1017,SPECI CYPR 091939Z AUTO 29004KT 230V340 SCT013 15/13 A3003 RMK WX MISG VIS MISG SLP172,2025-09-09T19:41:11Z,2025-09-09T15:41:11Z
CYPR,"Prince Rupert Arpt, BC, CA",2025-09-09T20:00:00Z,2025-09-09T16:00:00Z,NA,15,13,240,4,0,NA,1017,METAR CYPR 092000Z AUTO 24004KT 200V300 FEW015 15/13 A3003 RMK WX MISG VIS MISG SLP173,2025-09-09T20:10:11Z,2025-09-09T16:10:11Z
CYQA,"Muskoka Arpt, ON, CA",2025-09-09T15:00:00Z,2025-09-09T11:00:00Z,VFR,17,9,170,10,15,9,1026.2,METAR CYQA 091500Z AUTO 17010G15KT 150V210 9SM CLR 17/09 A3030 RMK SLP268,2025-09-09T15:51:24Z,2025-09-09T11:51:24Z
CYQA,"Muskoka Arpt, ON, CA",2025-09-09T16:00:00Z,2025-09-09T12:00:00Z,VFR,19,7,160,11,0,9,1025.8,METAR CYQA 091600Z AUTO 16011KT 150V210 9SM CLR 19/07 A3029 RMK SLP265 DENSITY ALT 1200FT,2025-09-09T16:11:11Z,2025-09-09T12:11:11Z
CYQA,"Muskoka Arpt, ON, CA",2025-09-09T17:00:00Z,2025-09-09T13:00:00Z,VFR,20,7,190,8,16,9,1025.5,METAR CYQA 091700Z AUTO 19008G16KT 180V240 9SM CLR 20/07 A3028 RMK SLP260 DENSITY ALT 1400FT,2025-09-09T17:12:44Z,2025-09-09T13:12:44Z
CYQA,"Muskoka Arpt, ON, CA",2025-09-09T18:00:00Z,2025-09-09T14:00:00Z,VFR,20,7,190,8,16,9,1024.5,METAR CYQA 091800Z AUTO 19008G16KT 130V220 9SM CLR 20/07 A3025 RMK SLP252 DENSITY ALT 1400FT,2025-09-09T18:09:15Z,2025-09-09T14:09:15Z
CYQA,"Muskoka Arpt, ON, CA",2025-09-09T19:00:00Z,2025-09-09T15:00:00Z,VFR,21,8,230,3,15,9,1023.8,METAR CYQA 091900Z AUTO 23003G15KT 180V250 9SM CLR 21/08 A3023 RMK SLP245 DENSITY ALT 1500FT,2025-09-09T19:20:44Z,2025-09-09T15:20:44Z
CYQA,"Muskoka Arpt, ON, CA",2025-09-09T20:00:00Z,2025-09-09T16:00:00Z,VFR,21,9,220,9,0,9,1023.5,METAR CYQA 092000Z AUTO 22009KT 140V240 9SM SCT050 21/09 A3022 RMK SLP241 DENSITY ALT 1600FT,2025-09-09T20:10:07Z,2025-09-09T16:10:07Z
CYQB,"Quebec/Lesage Intl, QC, CA",2025-09-09T15:00:00Z,2025-09-09T11:00:00Z,VFR,16,7,130,3,0,30,1029.2,METAR CYQB 091500Z 13003KT 30SM FEW050 FEW100 FEW250 16/07 A3039 RMK SC1AC1CI2 SC TR AC TR SLP297,2025-09-09T15:51:24Z,2025-09-09T11:51:24Z
CYQB,"Quebec/Lesage Intl, QC, CA",2025-09-09T16:00:00Z,2025-09-09T12:00:00Z,VFR,17,6,VAR,2,0,30,1028.9,METAR CYQB 091600Z VRB02KT 30SM FEW050 FEW100 FEW250 17/06 A3038 RMK SC1AC1CI1 SC TR AC TR SLP292,2025-09-09T16:11:11Z,2025-09-09T12:11:11Z
CYQB,"Quebec/Lesage Intl, QC, CA",2025-09-09T17:00:00Z,2025-09-09T13:00:00Z,VFR,18,5,230,4,0,30,1028.5,METAR CYQB 091700Z 23004KT 180V280 30SM FEW051 FEW100 SCT250 18/05 A3037 RMK SC1AC1CI1 SLP289,2025-09-09T17:12:43Z,2025-09-09T13:12:43Z
CYQB,"Quebec/Lesage Intl, QC, CA",2025-09-09T18:00:00Z,2025-09-09T14:00:00Z,VFR,19,8,260,6,0,30,1027.9,METAR CYQB 091800Z 26006KT 170V280 30SM FEW052 FEW100 SCT250 19/08 A3035 RMK SC2AC1CI1 AC TR SLP280,2025-09-09T18:09:15Z,2025-09-09T14:09:15Z
CYQB,"Quebec/Lesage Intl, QC, CA",2025-09-09T19:00:00Z,2025-09-09T15:00:00Z,VFR,19,8,270,8,0,30,1026.8,METAR CYQB 091900Z 27008KT 230V300 30SM FEW052 FEW100 FEW250 19/08 A3032 RMK SC1AC1CI1 AC TR SLP270,2025-09-09T19:20:44Z,2025-09-09T15:20:44Z
CYQB,"Quebec/Lesage Intl, QC, CA",2025-09-09T20:00:00Z,2025-09-09T16:00:00Z,VFR,20,9,VAR,5,0,30,1026.2,METAR CYQB 092000Z VRB05KT 30SM FEW050 FEW180 SCT260 20/09 A3030 RMK CU1AC1CI2 AC TR SLP265 DENSITY ALT 500FT,2025-09-09T20:10:07Z,2025-09-09T16:10:07Z
CYQF,"Red Deer Rgnl, AB, CA",2025-09-09T15:00:00Z,2025-09-09T11:00:00Z,MVFR,11,8,180,4,0,4,1013.6,METAR CYQF 091500Z AUTO 18004KT 4SM BR CLR 11/08 A2993 RMK SLP147 DENSITY ALT 3200FT,2025-09-09T15:51:24Z,2025-09-09T11:51:24Z
CYQF,"Red Deer Rgnl, AB, CA",2025-09-09T16:02:00Z,2025-09-09T12:02:00Z,VFR,15,9,220,4,0,6,1013.6,SPECI CYQF 091602Z AUTO 22004KT 6SM HZ CLR 15/09 A2993 RMK SLP143 DENSITY ALT 3700FT,2025-09-09T16:05:56Z,2025-09-09T12:05:56Z
CYQF,"Red Deer Rgnl, AB, CA",2025-09-09T17:00:00Z,2025-09-09T13:00:00Z,VFR,18,9,230,3,0,9,1013.6,METAR CYQF 091700Z AUTO 23003KT 180V260 9SM CLR 18/09 A2993 RMK SLP143 DENSITY ALT 4100FT,2025-09-09T17:12:44Z,2025-09-09T13:12:44Z
CYQF,"Red Deer Rgnl, AB, CA",2025-09-09T18:00:00Z,2025-09-09T14:00:00Z,VFR,22,9,VAR,3,0,9,1013.3,METAR CYQF 091800Z AUTO VRB03KT 9SM CLR 22/09 A2992 RMK SLP137 DENSITY ALT 4500FT,2025-09-09T18:09:16Z,2025-09-09T14:09:16Z
CYQF,"Red Deer Rgnl, AB, CA",2025-09-09T19:00:00Z,2025-09-09T15:00:00Z,VFR,24,8,VAR,4,0,9,1012.6,METAR CYQF 091900Z AUTO VRB04KT 9SM CLR 24/08 A2990 RMK SLP130 DENSITY ALT 4700FT,2025-09-09T19:20:44Z,2025-09-09T15:20:44Z
CYQF,"Red Deer Rgnl, AB, CA",2025-09-09T20:00:00Z,2025-09-09T16:00:00Z,VFR,25,7,VAR,6,0,9,1012.3,METAR CYQF 092000Z AUTO VRB06KT 9SM CLR 25/07 A2989 RMK SLP124 DENSITY ALT 4900FT,2025-09-09T20:10:07Z,2025-09-09T16:10:07Z
CYQG,"Windsor Intl, ON, CA",2025-09-09T15:00:00Z,2025-09-09T11:00:00Z,VFR,21,11,230,8,0,9,1024.5,METAR CYQG 091500Z AUTO 23008KT 180V250 9SM CLR 21/11 A3025 RMK SLP247 DENSITY ALT 1100FT,2025-09-09T15:51:24Z,2025-09-09T11:51:24Z
CYQG,"Windsor Intl, ON, CA",2025-09-09T16:00:00Z,2025-09-09T12:00:00Z,VFR,22,7,210,11,0,9,1024.5,METAR CYQG 091600Z AUTO 21011KT 9SM CLR 22/07 A3025 RMK SLP246 DENSITY ALT 1300FT,2025-09-09T16:11:11Z,2025-09-09T12:11:11Z
CYQG,"Windsor Intl, ON, CA",2025-09-09T17:00:00Z,2025-09-09T13:00:00Z,VFR,23,6,200,8,0,9,1024.1,METAR CYQG 091700Z AUTO 20008KT 190V250 9SM CLR 23/06 A3024 RMK SLP242 DENSITY ALT 1300FT,2025-09-09T17:12:43Z,2025-09-09T13:12:43Z
CYQG,"Windsor Intl, ON, CA",2025-09-09T18:00:00Z,2025-09-09T14:00:00Z,VFR,23,7,190,9,15,9,1023.5,METAR CYQG 091800Z AUTO 19009G15KT 150V270 9SM CLR 23/07 A3022 RMK SLP237 DENSITY ALT 1400FT,2025-09-09T18:09:15Z,2025-09-09T14:09:15Z
CYQG,"Windsor Intl, ON, CA",2025-09-09T19:00:00Z,2025-09-09T15:00:00Z,VFR,23,6,VAR,2,0,9,1022.8,METAR CYQG 091900Z AUTO VRB02KT 9SM CLR 23/06 A3020 RMK SLP230 DENSITY ALT 1500FT,2025-09-09T19:20:44Z,2025-09-09T15:20:44Z
CYQG,"Windsor Intl, ON, CA",2025-09-09T20:00:00Z,2025-09-09T16:00:00Z,VFR,23,6,VAR,3,0,7,1022.1,METAR CYQG 092000Z AUTO VRB03KT 7SM CLR 23/06 A3018 RMK SLP223 DENSITY ALT 1500FT,2025-09-09T20:10:07Z,2025-09-09T16:10:07Z
CYQH,"Watson Lake Arpt, YT, CA",2025-09-09T15:00:00Z,2025-09-09T11:00:00Z,VFR,7,3,30,2,0,30,1011.9,METAR CYQH 091500Z 03002KT 30SM BKN060 BKN120 07/03 A2988 RMK CU5AC2 SLP135,2025-09-09T15:51:26Z,2025-09-09T11:51:26Z
CYQH,"Watson Lake Arpt, YT, CA",2025-09-09T16:00:00Z,2025-09-09T12:00:00Z,VFR,10,5,0,0,0,30,1011.9,METAR CYQH 091600Z 00000KT 30SM BKN060 BKN110 10/05 A2988 RMK CU5AC1 SLP134,2025-09-09T16:11:12Z,2025-09-09T12:11:12Z
CYQH,"Watson Lake Arpt, YT, CA",2025-09-09T17:00:00Z,2025-09-09T13:00:00Z,VFR,12,5,VAR,2,0,25,1011.9,METAR CYQH 091700Z VRB02KT 25SM BKN062 12/05 A2988 RMK CU6 SLP132 DENSITY ALT 2600FT,2025-09-09T17:12:45Z,2025-09-09T13:12:45Z
CYQH,"Watson Lake Arpt, YT, CA",2025-09-09T18:00:00Z,2025-09-09T14:00:00Z,VFR,14,5,310,6,0,30,1011.9,METAR CYQH 091800Z 31006KT 260V330 30SM BKN055 14/05 A2988 RMK CU7 CLIMAT 14.5/3.4/0.0 SLP134 DENSITY ALT 2800FT,2025-09-09T18:09:17Z,2025-09-09T14:09:17Z
CYQH,"Watson Lake Arpt, YT, CA",2025-09-09T19:00:00Z,2025-09-09T15:00:00Z,VFR,16,5,280,9,0,30,1011.6,METAR CYQH 091900Z 28009KT 30SM SCT060 BKN075 16/05 A2987 RMK CU4AC3 SLP129 DENSITY ALT 3000FT,2025-09-09T19:20:46Z,2025-09-09T15:20:46Z
CYQH,"Watson Lake Arpt, YT, CA",2025-09-09T20:00:00Z,2025-09-09T16:00:00Z,VFR,16,4,260,10,0,30,1011.3,METAR CYQH 092000Z 26010KT 220V290 30SM BKN070 16/04 A2986 RMK AC7 SLP126 DENSITY ALT 3000FT,2025-09-09T20:10:11Z,2025-09-09T16:10:11Z
CYQK,"Kenora Arpt, ON, CA",2025-09-09T15:00:00Z,2025-09-09T11:00:00Z,VFR,17,12,0,0,0,20,1015.7,METAR CYQK 091500Z 00000KT 20SM FEW240 17/12 A2999 RMK CI1 SLP161 DENSITY ALT 1900FT,2025-09-09T15:51:26Z,2025-09-09T11:51:26Z
CYQK,"Kenora Arpt, ON, CA",2025-09-09T16:00:00Z,2025-09-09T12:00:00Z,VFR,19,9,VAR,2,0,20,1015.7,METAR CYQK 091600Z VRB02KT 20SM FEW250 19/09 A2999 RMK CI1 CI TR SLP162 DENSITY ALT 2100FT,2025-09-09T16:11:12Z,2025-09-09T12:11:12Z
CYQK,"Kenora Arpt, ON, CA",2025-09-09T17:00:00Z,2025-09-09T13:00:00Z,VFR,20,9,0,0,0,20,1016,METAR CYQK 091700Z 00000KT 20SM FEW240 20/09 A3000 RMK CI1 CI TR SLP164 DENSITY ALT 2200FT,2025-09-09T17:12:45Z,2025-09-09T13:12:45Z
CYQK,"Kenora Arpt, ON, CA",2025-09-09T18:00:00Z,2025-09-09T14:00:00Z,VFR,22,12,290,2,0,20,1015.7,METAR CYQK 091800Z 29002KT 20SM FEW040 FEW140 FEW240 22/12 A2999 RMK CU1AC1CI1 CU TR SLP162 DENSITY ALT 2400FT,2025-09-09T18:13:41Z,2025-09-09T14:13:41Z
CYQK,"Kenora Arpt, ON, CA",2025-09-09T19:00:00Z,2025-09-09T15:00:00Z,VFR,22,11,270,4,0,20,1015.7,METAR CYQK 091900Z 27004KT 140V310 20SM FEW040 FEW140 FEW240 22/11 A2999 RMK CU1AC1CI1 CU TR AC TR SLP162 DENSITY ALT 2400FT,2025-09-09T19:20:46Z,2025-09-09T15:20:46Z
CYQK,"Kenora Arpt, ON, CA",2025-09-09T20:00:00Z,2025-09-09T16:00:00Z,VFR,23,11,200,7,0,20,1015.7,METAR CYQK 092000Z 20007KT 150V290 20SM FEW048 FEW240 23/11 A2999 RMK CU1CI1 SLP162 DENSITY ALT 2500FT,2025-09-09T20:10:11Z,2025-09-09T16:10:11Z
CYQM,"Moncton Intl, NB, CA",2025-09-09T15:00:00Z,2025-09-09T11:00:00Z,VFR,18,6,VAR,2,0,15,1028.9,METAR CYQM 091500Z VRB02KT 15SM FEW045 FEW240 18/06 A3038 RMK CU1CI1 CU TR SLP292,2025-09-09T15:51:24Z,2025-09-09T11:51:24Z
CYQM,"Moncton Intl, NB, CA",2025-09-09T16:00:00Z,2025-09-09T12:00:00Z,VFR,20,5,250,7,0,15,1028.5,METAR CYQM 091600Z 25007KT 220V290 15SM FEW056 FEW240 20/05 A3037 RMK CU1CI1 CU TR SLP288,2025-09-09T16:11:11Z,2025-09-09T12:11:11Z
CYQM,"Moncton Intl, NB, CA",2025-09-09T17:00:00Z,2025-09-09T13:00:00Z,VFR,20,3,VAR,2,0,15,1028.2,METAR CYQM 091700Z VRB02KT 15SM FEW062 FEW240 20/03 A3036 RMK CU1CI1 CU TR SLP284,2025-09-09T17:12:43Z,2025-09-09T13:12:43Z
CYQM,"Moncton Intl, NB, CA",2025-09-09T18:00:00Z,2025-09-09T14:00:00Z,VFR,21,5,VAR,4,0,15,1027.5,METAR CYQM 091800Z VRB04KT 15SM FEW062 FEW240 21/05 A3034 RMK CU1CI1 SLP279 DENSITY ALT 500FT,2025-09-09T18:09:15Z,2025-09-09T14:09:15Z
CYQM,"Moncton Intl, NB, CA",2025-09-09T19:00:00Z,2025-09-09T15:00:00Z,VFR,20,5,0,0,0,15,1027.5,METAR CYQM 091900Z 00000KT 15SM FEW058 FEW240 20/05 A3034 RMK CU1CI1 CU TR SLP276 DENSITY ALT 500FT,2025-09-09T19:20:44Z,2025-09-09T15:20:44Z
CYQM,"Moncton Intl, NB, CA",2025-09-09T20:00:00Z,2025-09-09T16:00:00Z,VFR,21,5,190,6,0,15,1027.5,METAR CYQM 092000Z 19006KT 120V220 15SM FEW058 FEW240 21/05 A3034 RMK SC1CI2 SC TR SLP277 DENSITY ALT 500FT,2025-09-09T20:10:07Z,2025-09-09T16:10:07Z
CYQQ,"Comox(MIL), BC, CA",2025-09-09T15:00:00Z,2025-09-09T11:00:00Z,VFR,15,12,300,6,0,20,1015.3,METAR CYQQ 091500Z 30006KT 20SM FEW020 FEW240 15/12 A2998 RMK SC1CI1 DENSITY ALT 221FT SLP153,2025-09-09T15:51:24Z,2025-09-09T11:51:24Z
CYQQ,"Comox(MIL), BC, CA",2025-09-09T16:00:00Z,2025-09-09T12:00:00Z,MVFR,17,13,310,7,0,20,1015.3,METAR CYQQ 091600Z 31007KT 20SM BKN019 17/13 A2998 RMK SC5 DENSITY ALT 404FT SLP152,2025-09-09T16:11:11Z,2025-09-09T12:11:11Z
CYQQ,"Comox(MIL), BC, CA",2025-09-09T17:00:00Z,2025-09-09T13:00:00Z,MVFR,18,13,340,6,0,20,1015.3,METAR CYQQ 091700Z 34006KT 20SM BKN019 18/13 A2998 RMK SC7 DENSITY ALT 543FT SLP153,2025-09-09T17:12:44Z,2025-09-09T13:12:44Z
CYQQ,"Comox(MIL), BC, CA",2025-09-09T18:00:00Z,2025-09-09T14:00:00Z,MVFR,18,12,340,10,0,20,1015.3,METAR CYQQ 091800Z 34010KT 20SM BKN019 18/12 A2998 RMK SC7 DENSITY ALT 622FT SLP152,2025-09-09T18:09:15Z,2025-09-09T14:09:15Z
CYQQ,"Comox(MIL), BC, CA",2025-09-09T19:00:00Z,2025-09-09T15:00:00Z,MVFR,19,13,340,8,0,20,1015,METAR CYQQ 091900Z 34008KT 20SM BKN019 19/13 A2997 RMK SC6 DENSITY ALT 731FT SLP150,2025-09-09T19:20:44Z,2025-09-09T15:20:44Z
CYQQ,"Comox(MIL), BC, CA",2025-09-09T20:00:00Z,2025-09-09T16:00:00Z,VFR,19,13,360,10,0,20,1015,METAR CYQQ 092000Z 36010KT 20SM SCT019 19/13 A2997 RMK SC3 DENSITY ALT 757FT SLP148,2025-09-09T20:10:07Z,2025-09-09T16:10:07Z
CYQR,"Regina Intl Arpt, SK, CA",2025-09-09T15:00:00Z,2025-09-09T11:00:00Z,VFR,18,9,10,4,0,12,1016.3,METAR CYQR 091500Z 01004KT 320V030 12SM SKC 18/09 A3001 RMK HZ SLP167 DENSITY ALT 2700FT,2025-09-09T15:51:24Z,2025-09-09T11:51:24Z
CYQR,"Regina Intl Arpt, SK, CA",2025-09-09T16:00:00Z,2025-09-09T12:00:00Z,VFR,22,9,20,3,0,15,1016,METAR CYQR 091600Z 02003KT 300V050 15SM SKC 22/09 A3000 RMK SLP163 DENSITY ALT 3100FT,2025-09-09T16:11:11Z,2025-09-09T12:11:11Z
CYQR,"Regina Intl Arpt, SK, CA",2025-09-09T17:00:00Z,2025-09-09T13:00:00Z,VFR,24,10,VAR,2,0,15,1016,METAR CYQR 091700Z VRB02KT 15SM SKC 24/10 A3000 RMK SLP162 DENSITY ALT 3300FT,2025-09-09T17:12:43Z,2025-09-09T13:12:43Z
CYQR,"Regina Intl Arpt, SK, CA",2025-09-09T18:00:00Z,2025-09-09T14:00:00Z,VFR,25,10,VAR,2,0,15,1015.7,METAR CYQR 091800Z VRB02KT 15SM FEW040 25/10 A2999 RMK CU1 CU TR SLP162 DENSITY ALT 3400FT,2025-09-09T18:09:16Z,2025-09-09T14:09:16Z
CYQR,"Regina Intl Arpt, SK, CA",2025-09-09T19:00:00Z,2025-09-09T15:00:00Z,VFR,25,9,0,0,0,12,1015.7,METAR CYQR 091900Z 00000KT 12SM FEW060 25/09 A2999 RMK CU1 CU TR HZ SLP162 DENSITY ALT 3500FT,2025-09-09T19:20:44Z,2025-09-09T15:20:44Z
CYQR,"Regina Intl Arpt, SK, CA",2025-09-09T20:00:00Z,2025-09-09T16:00:00Z,VFR,26,7,10,4,0,12,1015,METAR CYQR 092000Z 01004KT 280V080 12SM FEW060 26/07 A2997 RMK CU1 CU TR HZ SLP157 DENSITY ALT 3600FT,2025-09-09T20:10:07Z,2025-09-09T16:10:07Z
CYQT,"Thunder Bay Intl, ON, CA",2025-09-09T15:00:00Z,2025-09-09T11:00:00Z,MVFR,15,14,VAR,2,0,8,1014,METAR CYQT 091500Z VRB02KT 8SM SCT005 BKN013 OVC023 15/14 A2994 RMK SF3SC2SC3 BR SLP145,2025-09-09T15:51:24Z,2025-09-09T11:51:24Z
CYQT,"Thunder Bay Intl, ON, CA",2025-09-09T16:00:00Z,2025-09-09T12:00:00Z,IFR,16,15,30,4,0,NA,1014.3,METAR CYQT 091600Z 03004KT 300V040 10SM BKN008 OVC023 16/15 A2995 RMK SC6SC2 SLP148 DENSITY ALT 1000FT,2025-09-09T16:11:11Z,2025-09-09T12:11:11Z
CYQT,"Thunder Bay Intl, ON, CA",2025-09-09T17:00:00Z,2025-09-09T13:00:00Z,MVFR,17,15,100,4,0,15,1014.6,METAR CYQT 091700Z 10004KT 15SM SCT013 OVC019 17/15 A2996 RMK SC4SC4 SLP152 DENSITY ALT 1000FT,2025-09-09T17:12:44Z,2025-09-09T13:12:44Z
CYQT,"Thunder Bay Intl, ON, CA",2025-09-09T18:00:00Z,2025-09-09T14:00:00Z,MVFR,17,15,120,3,0,15,1015,METAR CYQT 091800Z 12003KT 070V150 15SM SCT013 OVC019 17/15 A2997 RMK SC4SC4 SLP154 DENSITY ALT 1100FT,2025-09-09T18:09:16Z,2025-09-09T14:09:16Z
CYQT,"Thunder Bay Intl, ON, CA",2025-09-09T18:43:00Z,2025-09-09T14:43:00Z,MVFR,18,15,100,4,0,20,1015,SPECI CYQT 091843Z 10004KT 050V140 20SM FEW013 BKN027 BKN260 18/15 A2997 RMK SC2SC3CI2 FG DIST E OVR LKSUPR SLP155 DENSITY ALT 1200FT,2025-09-09T18:50:42Z,2025-09-09T14:50:42Z
CYQT,"Thunder Bay Intl, ON, CA",2025-09-09T19:00:00Z,2025-09-09T15:00:00Z,VFR,19,14,VAR,2,0,15,1015,METAR CYQT 091900Z VRB02KT 15SM FEW013 SCT027 BKN150 19/14 A2997 RMK SC1SC4AC1 SC TR SLP152 DENSITY ALT 1300FT,2025-09-09T19:20:44Z,2025-09-09T15:20:44Z
CYQT,"Thunder Bay Intl, ON, CA",2025-09-09T20:00:00Z,2025-09-09T16:00:00Z,VFR,20,15,VAR,4,0,20,1014.6,METAR CYQT 092000Z VRB04KT 20SM FEW015 SCT027 SCT150 BKN260 20/15 A2996 RMK SC1SC3AC1CI1 SC TR SLP149 DENSITY ALT 1400FT,2025-09-09T20:10:07Z,2025-09-09T16:10:07Z
CYQU,"Grande Prairie Arpt, AB, CA",2025-09-09T15:00:00Z,2025-09-09T11:00:00Z,MVFR,14,9,240,9,0,4,1010.2,METAR CYQU 091500Z 24009KT 4SM FU FEW150 14/09 A2983 RMK AC1 AC TR SLP109 DENSITY ALT 2800FT,2025-09-09T15:51:26Z,2025-09-09T11:51:26Z
CYQU,"Grande Prairie Arpt, AB, CA",2025-09-09T16:00:00Z,2025-09-09T12:00:00Z,MVFR,16,9,240,5,0,4,1010.6,METAR CYQU 091600Z 24005KT 4SM FU FEW150 16/09 A2984 RMK AC1 SLP109 DENSITY ALT 3000FT,2025-09-09T16:11:12Z,2025-09-09T12:11:12Z
CYQU,"Grande Prairie Arpt, AB, CA",2025-09-09T17:00:00Z,2025-09-09T13:00:00Z,MVFR,19,9,220,5,0,5,1010.6,METAR CYQU 091700Z 22005KT 5SM FU SKC 19/09 A2984 RMK SLP108 DENSITY ALT 3300FT,2025-09-09T17:12:45Z,2025-09-09T13:12:45Z
CYQU,"Grande Prairie Arpt, AB, CA",2025-09-09T18:00:00Z,2025-09-09T14:00:00Z,MVFR,21,8,230,8,0,5,1010.2,METAR CYQU 091800Z 23008KT 5SM FU SKC 21/08 A2983 RMK SLP106 DENSITY ALT 3600FT,2025-09-09T18:09:17Z,2025-09-09T14:09:17Z
CYQU,"Grande Prairie Arpt, AB, CA",2025-09-09T19:00:00Z,2025-09-09T15:00:00Z,VFR,23,7,230,12,0,6,1009.6,METAR CYQU 091900Z 23012KT 6SM FU SKC 23/07 A2981 RMK SLP101 DENSITY ALT 3800FT,2025-09-09T19:20:46Z,2025-09-09T15:20:46Z
CYQU,"Grande Prairie Arpt, AB, CA",2025-09-09T20:00:00Z,2025-09-09T16:00:00Z,VFR,25,7,230,10,0,6,1009.2,METAR CYQU 092000Z 23010KT 210V280 6SM FU SKC 25/07 A2980 RMK SLP097 DENSITY ALT 4000FT,2025-09-09T20:10:11Z,2025-09-09T16:10:11Z
CYQX,"Gander Intl Arpt, NL, CA",2025-09-09T15:00:00Z,2025-09-09T11:00:00Z,VFR,16,6,240,13,18,20,1024.5,METAR CYQX 091500Z 24013G18KT 20SM FEW040 OVC210 16/06 A3025 RMK CF1CC7 SLP249,2025-09-09T15:51:26Z,2025-09-09T11:51:26Z
CYQX,"Gander Intl Arpt, NL, CA",2025-09-09T16:00:00Z,2025-09-09T12:00:00Z,VFR,18,6,270,14,19,20,1024.5,METAR CYQX 091600Z 27014G19KT 20SM FEW051 BKN230 18/06 A3025 RMK CU1CC6 SLP247,2025-09-09T16:11:12Z,2025-09-09T12:11:12Z
CYQX,"Gander Intl Arpt, NL, CA",2025-09-09T17:00:00Z,2025-09-09T13:00:00Z,VFR,18,5,270,12,18,20,1024.5,METAR CYQX 091700Z 27012G18KT 250V330 20SM FEW040 BKN230 18/05 A3025 RMK CU1CC5 CU TR SLP249,2025-09-09T17:12:45Z,2025-09-09T13:12:45Z
CYQX,"Gander Intl Arpt, NL, CA",2025-09-09T18:00:00Z,2025-09-09T14:00:00Z,VFR,18,6,250,11,20,20,1024.5,METAR CYQX 091800Z 25011G20KT 20SM FEW040 SCT210 18/06 A3025 RMK CU1CC2 SLP249 DENSITY ALT 700FT,2025-09-09T18:09:17Z,2025-09-09T14:09:17Z
CYQX,"Gander Intl Arpt, NL, CA",2025-09-09T19:00:00Z,2025-09-09T15:00:00Z,VFR,19,4,280,12,0,20,1024.8,METAR CYQX 091900Z 28012KT 250V310 20SM FEW063 SCT230 19/04 A3026 RMK CU1CC2 SLP251 DENSITY ALT 700FT,2025-09-09T19:20:46Z,2025-09-09T15:20:46Z
CYQX,"Gander Intl Arpt, NL, CA",2025-09-09T20:00:00Z,2025-09-09T16:00:00Z,VFR,18,4,320,12,18,20,1025.1,METAR CYQX 092000Z 32012G18KT 20SM FEW023 BKN230 18/04 A3027 RMK CU1CC6 CU TR SLP254,2025-09-09T20:10:11Z,2025-09-09T16:10:11Z
CYQY,"Sydney Arpt, NS, CA",2025-09-09T15:00:00Z,2025-09-09T11:00:00Z,VFR,20,10,30,6,0,15,1028.2,METAR CYQY 091500Z 03006KT 340V070 15SM FEW040 BKN240 20/10 A3036 RMK CU2CI3 SLP283,2025-09-09T15:51:26Z,2025-09-09T11:51:26Z
CYQY,"Sydney Arpt, NS, CA",2025-09-09T16:00:00Z,2025-09-09T12:00:00Z,VFR,20,7,340,6,0,15,1028.2,METAR CYQY 091600Z 34006KT 190V360 15SM SCT051 BKN240 20/07 A3036 RMK CU3CI2 SLP283,2025-09-09T16:11:12Z,2025-09-09T12:11:12Z
CYQY,"Sydney Arpt, NS, CA",2025-09-09T17:00:00Z,2025-09-09T13:00:00Z,VFR,20,9,40,6,0,15,1027.9,METAR CYQY 091700Z 04006KT 340V060 15SM SCT057 BKN220 20/09 A3035 RMK CU3CI3 SLP280,2025-09-09T17:12:45Z,2025-09-09T13:12:45Z
CYQY,"Sydney Arpt, NS, CA",2025-09-09T18:00:00Z,2025-09-09T14:00:00Z,VFR,20,9,60,4,0,15,1027.5,METAR CYQY 091800Z 06004KT 030V100 15SM SCT054 BKN230 20/09 A3034 RMK CU3CS3 SLP277,2025-09-09T18:09:17Z,2025-09-09T14:09:17Z
CYQY,"Sydney Arpt, NS, CA",2025-09-09T19:00:00Z,2025-09-09T15:00:00Z,VFR,19,9,80,6,0,15,1027.9,METAR CYQY 091900Z 08006KT 020V100 15SM SCT060 BKN230 19/09 A3035 RMK SC3CS4 SLP280,2025-09-09T19:20:46Z,2025-09-09T15:20:46Z
CYQY,"Sydney Arpt, NS, CA",2025-09-09T20:00:00Z,2025-09-09T16:00:00Z,VFR,18,9,60,7,0,15,1028.2,METAR CYQY 092000Z 06007KT 15SM SCT048 BKN230 18/09 A3036 RMK SC4CI3 SLP284,2025-09-09T20:10:10Z,2025-09-09T16:10:10Z
CYRB,"Resolute Bay Arpt, NU, CA",2025-09-09T15:00:00Z,2025-09-09T11:00:00Z,LIFR,-2,-2,290,4,0,0.63,1012.3,METAR CYRB 091500Z 29004KT 5/8SM R35/3000VP6000FT/U BR OVC002 M02/M02 A2989 RMK FG2ST6 SLP132,2025-09-09T15:51:26Z,2025-09-09T11:51:26Z
CYRB,"Resolute Bay Arpt, NU, CA",2025-09-09T15:51:00Z,2025-09-09T11:51:00Z,LIFR,-2,-2,300,4,0,0.5,1012.3,SPECI CYRB 091551Z 30004KT 1/2SM R35/2200V3000FT/N FZFG OVC002 M02/M02 A2989 RMK FG6ST2 SLP131,2025-09-09T16:05:57Z,2025-09-09T12:05:57Z
CYRB,"Resolute Bay Arpt, NU, CA",2025-09-09T16:00:00Z,2025-09-09T12:00:00Z,LIFR,-2,-2,300,4,0,0.5,1012.3,METAR CYRB 091600Z 30004KT 1/2SM R35/2200V2600FT/N FZFG OVC002 M02/M02 A2989 RMK FG6ST2 SLP131,2025-09-09T16:11:12Z,2025-09-09T12:11:12Z
CYRB,"Resolute Bay Arpt, NU, CA",2025-09-09T17:00:00Z,2025-09-09T13:00:00Z,LIFR,-1,-1,270,7,0,0.5,1012.6,METAR CYRB 091700Z 27007KT 1/2SM R35/4000VP6000FT/D FZFG OVC002 M01/M01 A2990 RMK FG6ST2 SLP132,2025-09-09T17:12:45Z,2025-09-09T13:12:45Z
CYRB,"Resolute Bay Arpt, NU, CA",2025-09-09T18:00:00Z,2025-09-09T14:00:00Z,LIFR,-1,-1,280,7,0,0.5,1012.3,METAR CYRB 091800Z 28007KT 1/2SM R35/3000V5500FT/D FZFG OVC002 M01/M01 A2989 RMK FG6ST2 SLP131,2025-09-09T18:09:17Z,2025-09-09T14:09:17Z
CYRB,"Resolute Bay Arpt, NU, CA",2025-09-09T18:52:00Z,2025-09-09T14:52:00Z,LIFR,-1,-1,280,8,0,0.38,1012.6,SPECI CYRB 091852Z 28008KT 3/8SM R35/3000VP6000FT/D -FZDZ FZFG OVC002 M01/M01 A2990 RMK FG6ST2 SLP134,2025-09-09T19:00:51Z,2025-09-09T15:00:51Z
CYRB,"Resolute Bay Arpt, NU, CA",2025-09-09T19:00:00Z,2025-09-09T15:00:00Z,LIFR,-1,-1,270,8,0,0.38,1012.6,METAR CYRB 091900Z 27008KT 3/8SM R35/1800V2200FT/N -FZDZ FZFG OVC002 M01/M01 A2990 RMK FG7ST1 SLP135,2025-09-09T19:20:46Z,2025-09-09T15:20:46Z
CYRB,"Resolute Bay Arpt, NU, CA",2025-09-09T20:00:00Z,2025-09-09T16:00:00Z,LIFR,-1,-1,280,9,0,0.38,1012.6,METAR CYRB 092000Z 28009KT 3/8SM R35/P6000FT/N -FZDZ FZFG OVC002 M01/M01 A2990 RMK FG7ST1 SLP135,2025-09-09T20:10:11Z,2025-09-09T16:10:11Z
CYRB,"Resolute Bay Arpt, NU, CA",2025-09-09T20:18:00Z,2025-09-09T16:18:00Z,LIFR,-1,-1,290,8,0,4,1012.6,SPECI CYRB 092018Z 29008KT 4SM -SN BR OVC003 M01/M01 A2990 RMK ST8 SLP135,2025-09-09T20:31:14Z,2025-09-09T16:31:14Z
CYRJ,"Roberval Arpt, QC, CA",2025-09-09T15:00:00Z,2025-09-09T11:00:00Z,VFR,16,8,240,11,0,40,1026.2,METAR CYRJ 091500Z 24011KT 180V270 40SM FEW060 SCT090 BKN240 16/08 A3030 RMK SC1AC2CI2 SLP269,2025-09-09T15:51:24Z,2025-09-09T11:51:24Z
CYRJ,"Roberval Arpt, QC, CA",2025-09-09T16:00:00Z,2025-09-09T12:00:00Z,VFR,17,6,220,10,16,40,1026.2,METAR CYRJ 091600Z 22010G16KT 40SM FEW060 BKN120 BKN240 17/06 A3030 RMK SC2AC4CI1 CI TR SLP269,2025-09-09T16:11:11Z,2025-09-09T12:11:11Z
CYRJ,"Roberval Arpt, QC, CA",2025-09-09T17:00:00Z,2025-09-09T13:00:00Z,VFR,16,5,200,13,0,40,1026.5,METAR CYRJ 091700Z 20013KT 170V240 40SM SCT170 BKN200 16/05 A3031 RMK AC4CI3 SLP271,2025-09-09T17:12:44Z,2025-09-09T13:12:44Z
CYRJ,"Roberval Arpt, QC, CA",2025-09-09T18:00:00Z,2025-09-09T14:00:00Z,VFR,16,6,210,9,16,40,1026.2,METAR CYRJ 091800Z 21009G16KT 180V250 40SM BKN150 BKN240 16/06 A3030 RMK AC5CI1 SLP268,2025-09-09T18:09:16Z,2025-09-09T14:09:16Z
CYRJ,"Roberval Arpt, QC, CA",2025-09-09T19:00:00Z,2025-09-09T15:00:00Z,VFR,16,5,200,9,15,25,1025.5,METAR CYRJ 091900Z 20009G15KT 25SM FEW040 BKN140 16/05 A3028 RMK SC1AC6 SLP260,2025-09-09T19:20:44Z,2025-09-09T15:20:44Z
CYRJ,"Roberval Arpt, QC, CA",2025-09-09T20:00:00Z,2025-09-09T16:00:00Z,VFR,17,7,200,7,0,40,1024.8,METAR CYRJ 092000Z 20007KT 40SM FEW050 BKN140 17/07 A3026 RMK SC1AC6 SLP254,2025-09-09T20:10:07Z,2025-09-09T16:10:07Z
CYRT,"Rankin Inlet Arpt, NU, CA",2025-09-09T15:00:00Z,2025-09-09T11:00:00Z,MVFR,6,4,50,9,0,15,1015,METAR CYRT 091500Z 05009KT 15SM FEW004 BKN015 BKN030 06/04 A2997 RMK SC2CU3SC1 SH DST SW-W SLP153,2025-09-09T15:51:26Z,2025-09-09T11:51:26Z
CYRT,"Rankin Inlet Arpt, NU, CA",2025-09-09T16:00:00Z,2025-09-09T12:00:00Z,MVFR,7,2,40,10,0,15,1015.3,METAR CYRT 091600Z 04010KT 15SM FEW013 BKN024 BKN040 07/02 A2998 RMK SC2CU4SC1 SH DST SE-W SLP155,2025-09-09T16:11:12Z,2025-09-09T12:11:12Z
CYRT,"Rankin Inlet Arpt, NU, CA",2025-09-09T17:00:00Z,2025-09-09T13:00:00Z,MVFR,7,3,20,9,0,15,1015.7,METAR CYRT 091700Z 02009KT 15SM BKN023 07/03 A2999 RMK SC7 CIG RAG SLP158,2025-09-09T17:12:45Z,2025-09-09T13:12:45Z
CYRT,"Rankin Inlet Arpt, NU, CA",2025-09-09T18:00:00Z,2025-09-09T14:00:00Z,MVFR,8,4,360,7,0,15,1015.7,METAR CYRT 091800Z 36007KT 15SM OVC023 08/04 A2999 RMK SC8 SLP160,2025-09-09T18:09:17Z,2025-09-09T14:09:17Z
CYRT,"Rankin Inlet Arpt, NU, CA",2025-09-09T19:00:00Z,2025-09-09T15:00:00Z,MVFR,7,3,120,5,0,15,1016.3,METAR CYRT 091900Z 12005KT 340V150 15SM OVC025 07/03 A3001 RMK SC8 SLP165,2025-09-09T19:20:46Z,2025-09-09T15:20:46Z
CYRT,"Rankin Inlet Arpt, NU, CA",2025-09-09T20:00:00Z,2025-09-09T16:00:00Z,MVFR,7,5,130,5,0,15,1016.3,METAR CYRT 092000Z 13005KT 110V180 15SM FEW015 BKN028 BKN040 07/05 A3001 RMK SF1SC6SC1 SF TR SLP167,2025-09-09T20:10:10Z,2025-09-09T16:10:10Z
CYRT,"Rankin Inlet Arpt, NU, CA",2025-09-09T20:52:00Z,2025-09-09T16:52:00Z,VFR,7,4,140,4,0,15,1016.7,SPECI CYRT 092052Z 14004KT 110V180 15SM -SHRA SCT021 BKN034 07/04 A3002 RMK SC4SC3 CVCTV CLD EMBD SLP169,2025-09-09T20:53:56Z,2025-09-09T16:53:56Z
CYSB,"Sudbury Arpt, ON, CA",2025-09-09T15:00:00Z,2025-09-09T11:00:00Z,VFR,16,11,200,15,22,20,1023.5,METAR CYSB 091500Z 20015G22KT 20SM FEW050 BKN079 BKN180 16/11 A3022 RMK CF2AC4CI1 SLP240,2025-09-09T15:51:24Z,2025-09-09T11:51:24Z
CYSB,"Sudbury Arpt, ON, CA",2025-09-09T16:00:00Z,2025-09-09T12:00:00Z,VFR,18,10,220,14,22,20,1023.1,METAR CYSB 091600Z 22014G22KT 20SM FEW022 BKN050 BKN190 18/10 A3021 RMK CF1CU4CI1 SLP237 DENSITY ALT 1500FT,2025-09-09T16:11:11Z,2025-09-09T12:11:11Z
CYSB,"Sudbury Arpt, ON, CA",2025-09-09T17:00:00Z,2025-09-09T13:00:00Z,VFR,19,10,190,19,25,20,1022.8,METAR CYSB 091700Z 19019G25KT 20SM BKN033 BKN200 19/10 A3020 RMK CU5CI1 SLP233 DENSITY ALT 1600FT,2025-09-09T17:12:44Z,2025-09-09T13:12:44Z
CYSB,"Sudbury Arpt, ON, CA",2025-09-09T18:00:00Z,2025-09-09T14:00:00Z,VFR,19,9,210,19,25,20,1022.4,METAR CYSB 091800Z 21019G25KT 20SM SCT035 BKN200 19/09 A3019 RMK SC3CS3 SLP230 DENSITY ALT 1600FT,2025-09-09T18:09:16Z,2025-09-09T14:09:16Z
CYSB,"Sudbury Arpt, ON, CA",2025-09-09T19:00:00Z,2025-09-09T15:00:00Z,VFR,19,10,210,17,22,20,1022.4,METAR CYSB 091900Z 21017G22KT 20SM SCT040 BKN200 19/10 A3019 RMK SC3CS3 SLP230 DENSITY ALT 1600FT,2025-09-09T19:20:44Z,2025-09-09T15:20:44Z
CYSB,"Sudbury Arpt, ON, CA",2025-09-09T20:00:00Z,2025-09-09T16:00:00Z,VFR,19,9,210,19,0,20,1022.1,METAR CYSB 092000Z 21019KT 20SM SCT040 BKN240 19/09 A3018 RMK SC3CS3 SLP227 DENSITY ALT 1600FT,2025-09-09T20:10:07Z,2025-09-09T16:10:07Z
CYTE,"Cape Dorset Arpt, NU, CA",2025-09-09T15:00:00Z,2025-09-09T11:00:00Z,VFR,6,3,270,3,0,15,1011.9,METAR CYTE 091500Z 27003KT 15SM FEW024 SCT043 06/03 A2988 RMK CU1SC3 SLP124,2025-09-09T15:51:27Z,2025-09-09T11:51:27Z
CYTE,"Cape Dorset Arpt, NU, CA",2025-09-09T16:00:00Z,2025-09-09T12:00:00Z,VFR,7,2,240,7,0,15,1011.9,METAR CYTE 091600Z 24007KT 15SM FEW024 BKN044 07/02 A2988 RMK CU1SC4 SLP125,2025-09-09T16:11:14Z,2025-09-09T12:11:14Z
CYTE,"Cape Dorset Arpt, NU, CA",2025-09-09T17:00:00Z,2025-09-09T13:00:00Z,VFR,7,3,260,6,0,15,1012.3,METAR CYTE 091700Z 26006KT 220V290 15SM BKN044 07/03 A2989 RMK SC5 SLP127,2025-09-09T17:12:49Z,2025-09-09T13:12:49Z
CYTE,"Cape Dorset Arpt, NU, CA",2025-09-09T18:00:00Z,2025-09-09T14:00:00Z,VFR,7,3,320,6,0,15,1012.6,METAR CYTE 091800Z 32006KT 15SM SCT025 BKN044 07/03 A2990 RMK SC3SC4 SLP131,2025-09-09T18:09:18Z,2025-09-09T14:09:18Z
CYTE,"Cape Dorset Arpt, NU, CA",2025-09-09T19:00:00Z,2025-09-09T15:00:00Z,VFR,7,2,VAR,2,0,15,1013,METAR CYTE 091900Z VRB02KT 15SM BKN036 BKN260 07/02 A2991 RMK SC6CI1 SLP134,2025-09-09T19:20:52Z,2025-09-09T15:20:52Z
CYTE,"Cape Dorset Arpt, NU, CA",2025-09-09T20:00:00Z,2025-09-09T16:00:00Z,VFR,7,3,230,8,0,15,1013,METAR CYTE 092000Z CCA 23008KT 15SM SCT034 BKN044 07/03 A2991 RMK SC4SC2 LAST STFD OBS/NXT 101200Z SLP135,2025-09-09T20:10:12Z,2025-09-09T16:10:12Z
CYTR,"Trenton(MIL), ON, CA",2025-09-09T15:00:00Z,2025-09-09T11:00:00Z,VFR,19,13,140,3,0,15,1027.5,METAR CYTR 091500Z 14003KT 15SM FEW024 SCT250 19/13 A3034 RMK CF1CI3 DENSITY ALT 487FT SLP276,2025-09-09T15:51:26Z,2025-09-09T11:51:26Z
CYTR,"Trenton(MIL), ON, CA",2025-09-09T16:00:00Z,2025-09-09T12:00:00Z,VFR,20,10,170,6,0,15,1027.2,METAR CYTR 091600Z 17006KT 120V230 15SM FEW036 20/10 A3033 RMK CU1 DENSITY ALT 660FT CONTRAILS SLP271,2025-09-09T16:11:12Z,2025-09-09T12:11:12Z
CYTR,"Trenton(MIL), ON, CA",2025-09-09T17:00:00Z,2025-09-09T13:00:00Z,VFR,21,9,190,6,0,15,1026.5,METAR CYTR 091700Z 19006KT 120V230 15SM FEW047 SCT220 21/09 A3031 RMK CU1CS4 DENSITY ALT 787FT CONTRAILS SLP264,2025-09-09T17:12:45Z,2025-09-09T13:12:45Z
CYTR,"Trenton(MIL), ON, CA",2025-09-09T18:00:00Z,2025-09-09T14:00:00Z,VFR,22,8,160,7,0,15,1025.8,METAR CYTR 091800Z 16007KT 120V230 15SM FEW052 FEW250 22/08 A3029 RMK CU1CI2 DENSITY ALT 870FT SLP258,2025-09-09T18:09:17Z,2025-09-09T14:09:17Z
CYTR,"Trenton(MIL), ON, CA",2025-09-09T19:00:00Z,2025-09-09T15:00:00Z,VFR,22,8,170,7,0,15,1025.1,METAR CYTR 091900Z 17007KT 120V220 15SM FEW057 BKN250 22/08 A3027 RMK CU1CI6 DENSITY ALT 917FT CI VRY THN SLP252,2025-09-09T19:20:46Z,2025-09-09T15:20:46Z
CYTR,"Trenton(MIL), ON, CA",2025-09-09T20:00:00Z,2025-09-09T16:00:00Z,VFR,22,8,190,4,0,15,1024.8,METAR CYTR 092000Z 19004KT 110V220 15SM FEW054 SCT250 22/08 A3026 RMK CU1CI3 DENSITY ALT 902FT SLP247,2025-09-09T20:10:11Z,2025-09-09T16:10:11Z
CYTS,"Timmins/Power Arpt, ON, CA",2025-09-09T15:00:00Z,2025-09-09T11:00:00Z,MVFR,12,11,200,10,16,3,1018,METAR CYTS 091500Z 20010G16KT 3SM -RA BR SCT010 OVC018 12/11 A3006 RMK SF3NS5 SLP190,2025-09-09T15:51:24Z,2025-09-09T11:51:24Z
CYTS,"Timmins/Power Arpt, ON, CA",2025-09-09T16:00:00Z,2025-09-09T12:00:00Z,MVFR,12,12,200,11,0,3,1018,METAR CYTS 091600Z 20011KT 3SM -RA BR SCT010 OVC015 12/12 A3006 RMK SC4SC4 SLP190,2025-09-09T16:11:11Z,2025-09-09T12:11:11Z
CYTS,"Timmins/Power Arpt, ON, CA",2025-09-09T17:00:00Z,2025-09-09T13:00:00Z,MVFR,13,12,190,8,0,5,1017.7,METAR CYTS 091700Z 19008KT 5SM -RA BR SCT009 OVC037 13/12 A3005 RMK SC4SC4 SLP187,2025-09-09T17:12:44Z,2025-09-09T13:12:44Z
CYTS,"Timmins/Power Arpt, ON, CA",2025-09-09T18:00:00Z,2025-09-09T14:00:00Z,MVFR,13,12,200,10,15,5,1017.7,METAR CYTS 091800Z 20010G15KT 5SM -RA SCT012 OVC030 13/12 A3005 RMK SC4SC4 SLP186,2025-09-09T18:13:39Z,2025-09-09T14:13:39Z
CYTS,"Timmins/Power Arpt, ON, CA",2025-09-09T19:00:00Z,2025-09-09T15:00:00Z,MVFR,13,13,200,9,15,8,1018,METAR CYTS 091900Z 20009G15KT 8SM -RA SCT011 OVC027 13/13 A3006 RMK SF3SC5 SLP188,2025-09-09T19:20:44Z,2025-09-09T15:20:44Z
CYTS,"Timmins/Power Arpt, ON, CA",2025-09-09T20:00:00Z,2025-09-09T16:00:00Z,MVFR,14,13,200,5,0,8,1017.7,METAR CYTS 092000Z 20005KT 8SM -RA FEW008 OVC027 14/13 A3005 RMK CF1SC7 SLP183,2025-09-09T20:10:07Z,2025-09-09T16:10:07Z
CYTZ,"Toronto/Bishop Arpt, ON, CA",2025-09-09T15:00:00Z,2025-09-09T11:00:00Z,VFR,17,13,80,6,0,9,1026.5,METAR CYTZ 091500Z AUTO 08006KT 9SM CLR 17/13 A3031 RMK SLP266,2025-09-09T15:51:26Z,2025-09-09T11:51:26Z
CYTZ,"Toronto/Bishop Arpt, ON, CA",2025-09-09T16:00:00Z,2025-09-09T12:00:00Z,VFR,17,13,70,6,0,9,1026.2,METAR CYTZ 091600Z AUTO 07006KT 9SM CLR 17/13 A3030 RMK SLP263,2025-09-09T16:11:12Z,2025-09-09T12:11:12Z
CYTZ,"Toronto/Bishop Arpt, ON, CA",2025-09-09T17:00:00Z,2025-09-09T13:00:00Z,VFR,18,13,70,6,0,9,1025.5,METAR CYTZ 091700Z AUTO 07006KT 9SM CLR 18/13 A3028 RMK SLP258,2025-09-09T17:12:45Z,2025-09-09T13:12:45Z
CYTZ,"Toronto/Bishop Arpt, ON, CA",2025-09-09T18:00:00Z,2025-09-09T14:00:00Z,VFR,18,13,70,8,0,9,1025.1,METAR CYTZ 091800Z AUTO 07008KT 9SM CLR 18/13 A3027 RMK SLP254,2025-09-09T18:09:17Z,2025-09-09T14:09:17Z
CYTZ,"Toronto/Bishop Arpt, ON, CA",2025-09-09T19:00:00Z,2025-09-09T15:00:00Z,VFR,18,13,80,9,0,9,1024.1,METAR CYTZ 091900Z AUTO 08009KT 9SM CLR 18/13 A3024 RMK SLP244,2025-09-09T19:20:46Z,2025-09-09T15:20:46Z
CYTZ,"Toronto/Bishop Arpt, ON, CA",2025-09-09T20:00:00Z,2025-09-09T16:00:00Z,VFR,18,13,80,10,0,9,1023.8,METAR CYTZ 092000Z AUTO 08010KT 9SM CLR 18/13 A3023 RMK SLP241,2025-09-09T20:10:11Z,2025-09-09T16:10:11Z
CYUL,"Montreal/Trudeau Intl, QC, CA",2025-09-09T15:00:00Z,2025-09-09T11:00:00Z,VFR,17,9,200,4,0,30,1028.5,METAR CYUL 091500Z 20004KT 150V230 30SM FEW250 17/09 A3037 RMK CI2 SLP287,2025-09-09T15:51:24Z,2025-09-09T11:51:24Z
CYUL,"Montreal/Trudeau Intl, QC, CA",2025-09-09T16:00:00Z,2025-09-09T12:00:00Z,VFR,18,10,240,5,0,30,1028.2,METAR CYUL 091600Z 24005KT 180V310 30SM FEW028 FEW250 18/10 A3036 RMK CF1CI2 CF TR SLP284,2025-09-09T16:11:11Z,2025-09-09T12:11:11Z
CYUL,"Montreal/Trudeau Intl, QC, CA",2025-09-09T17:00:00Z,2025-09-09T13:00:00Z,VFR,19,9,240,7,0,30,1027.9,METAR CYUL 091700Z 24007KT 180V280 30SM FEW035 SCT250 19/09 A3035 RMK CF1CI4 CF TR SLP279,2025-09-09T17:12:43Z,2025-09-09T13:12:43Z
CYUL,"Montreal/Trudeau Intl, QC, CA",2025-09-09T18:00:00Z,2025-09-09T14:00:00Z,VFR,19,9,210,3,0,30,1027.2,METAR CYUL 091800Z 21003KT 190V320 30SM FEW035 BKN250 19/09 A3033 RMK CF1CI6 CF TR SLP273,2025-09-09T18:09:15Z,2025-09-09T14:09:15Z
CYUL,"Montreal/Trudeau Intl, QC, CA",2025-09-09T19:00:00Z,2025-09-09T15:00:00Z,VFR,20,6,VAR,4,0,30,1026.5,METAR CYUL 091900Z VRB04KT 30SM FEW045 BKN250 20/06 A3031 RMK CF1CI5 CF TR SLP266,2025-09-09T19:20:44Z,2025-09-09T15:20:44Z
CYUL,"Montreal/Trudeau Intl, QC, CA",2025-09-09T20:00:00Z,2025-09-09T16:00:00Z,VFR,20,8,260,5,0,30,1025.5,METAR CYUL 092000Z 26005KT 30SM FEW045 SCT250 20/08 A3028 RMK CF1CI4 CF TR SLP257 DENSITY ALT 400FT,2025-09-09T20:10:07Z,2025-09-09T16:10:07Z
CYUY,"Rouyn/Noranda Arpt, QC, CA",2025-09-09T15:00:00Z,2025-09-09T11:00:00Z,VFR,11,9,190,10,0,15,1022.4,METAR CYUY 091500Z 19010KT 15SM -RA BKN052 11/09 A3019 RMK SC7 SLP232,2025-09-09T15:51:24Z,2025-09-09T11:51:24Z
CYUY,"Rouyn/Noranda Arpt, QC, CA",2025-09-09T16:00:00Z,2025-09-09T12:00:00Z,VFR,12,9,190,9,0,15,1021.8,METAR CYUY 091600Z 19009KT 15SM -RA OVC051 12/09 A3017 RMK SC8 SLP225,2025-09-09T16:11:11Z,2025-09-09T12:11:11Z
CYUY,"Rouyn/Noranda Arpt, QC, CA",2025-09-09T17:00:00Z,2025-09-09T13:00:00Z,VFR,12,11,180,9,0,15,1020.7,METAR CYUY 091700Z 18009KT 15SM -RA BKN069 12/11 A3014 RMK AC8 SLP217,2025-09-09T17:12:43Z,2025-09-09T13:12:43Z
CYUY,"Rouyn/Noranda Arpt, QC, CA",2025-09-09T18:00:00Z,2025-09-09T14:00:00Z,VFR,14,10,190,10,19,15,1020.1,METAR CYUY 091800Z 19010G19KT 15SM -RA FEW034 BKN098 14/10 A3012 RMK SC2AC5 SLP210,2025-09-09T18:09:15Z,2025-09-09T14:09:15Z
CYUY,"Rouyn/Noranda Arpt, QC, CA",2025-09-09T19:00:00Z,2025-09-09T15:00:00Z,VFR,14,12,180,5,0,15,1019.7,METAR CYUY 091900Z 18005KT 15SM -RA FEW036 OVC100 14/12 A3011 RMK SC1AS7 SLP206,2025-09-09T19:20:44Z,2025-09-09T15:20:44Z
CYUY,"Rouyn/Noranda Arpt, QC, CA",2025-09-09T20:00:00Z,2025-09-09T16:00:00Z,VFR,15,11,200,9,0,15,1019.7,METAR CYUY 092000Z 20009KT 15SM FEW055 OVC069 15/11 A3011 RMK SC1AC7 SLP204,2025-09-09T20:10:07Z,2025-09-09T16:10:07Z
CYUY,"Rouyn/Noranda Arpt, QC, CA",2025-09-09T20:00:00Z,2025-09-09T16:00:00Z,VFR,15,11,200,9,0,15,1019.7,METAR CYUY 092000Z CCA 20009KT 15SM -RA FEW055 OVC069 15/11 A3011 RMK SC1AC7 SLP204,2025-09-09T20:53:55Z,2025-09-09T16:53:55Z
CYVC,"La Ronge Arpt, SK, CA",2025-09-09T15:00:00Z,2025-09-09T11:00:00Z,VFR,14,11,100,5,0,15,1016.7,METAR CYVC 091500Z 10005KT 060V150 15SM FEW200 14/11 A3002 RMK CI1 SLP175,2025-09-09T15:51:27Z,2025-09-09T11:51:27Z
CYVC,"La Ronge Arpt, SK, CA",2025-09-09T16:00:00Z,2025-09-09T12:00:00Z,VFR,15,11,100,5,0,15,1017,METAR CYVC 091600Z 10005KT 15SM FEW200 15/11 A3003 RMK CI2 SLP180,2025-09-09T16:11:14Z,2025-09-09T12:11:14Z
CYVC,"La Ronge Arpt, SK, CA",2025-09-09T17:00:00Z,2025-09-09T13:00:00Z,VFR,16,10,120,5,0,15,1016.7,METAR CYVC 091700Z 12005KT 070V140 15SM SKC 16/10 A3002 RMK SLP176 DENSITY ALT 1500FT,2025-09-09T17:12:49Z,2025-09-09T13:12:49Z
CYVC,"La Ronge Arpt, SK, CA",2025-09-09T18:00:00Z,2025-09-09T14:00:00Z,VFR,17,10,100,7,0,15,1016.7,METAR CYVC 091800Z 10007KT 070V130 15SM SKC 17/10 A3002 RMK SLP176 DENSITY ALT 1700FT,2025-09-09T18:09:18Z,2025-09-09T14:09:18Z
CYVC,"La Ronge Arpt, SK, CA",2025-09-09T19:00:00Z,2025-09-09T15:00:00Z,VFR,18,10,110,7,0,15,1016,METAR CYVC 091900Z 11007KT 060V130 15SM SKC 18/10 A3000 RMK SLP171 DENSITY ALT 1800FT,2025-09-09T19:20:52Z,2025-09-09T15:20:52Z
CYVC,"La Ronge Arpt, SK, CA",2025-09-09T20:00:00Z,2025-09-09T16:00:00Z,VFR,19,8,100,8,0,15,1016,METAR CYVC 092000Z 10008KT 060V130 15SM SKC 19/08 A3000 RMK SLP169 DENSITY ALT 1900FT,2025-09-09T20:10:12Z,2025-09-09T16:10:12Z
CYVO,"Val D'Or Arpt, QC, CA",2025-09-09T15:00:00Z,2025-09-09T11:00:00Z,VFR,13,6,180,10,20,15,1023.5,METAR CYVO 091500Z 18010G20KT 15SM BKN085 BKN130 BKN160 13/06 A3022 RMK AC5AC1AC2 SLP247,2025-09-09T15:51:24Z,2025-09-09T11:51:24Z
CYVO,"Val D'Or Arpt, QC, CA",2025-09-09T16:00:00Z,2025-09-09T12:00:00Z,VFR,14,7,180,9,15,15,1023.1,METAR CYVO 091600Z 18009G15KT 15SM BKN070 OVC100 14/07 A3021 RMK AC5AC3 SLP243,2025-09-09T16:11:11Z,2025-09-09T12:11:11Z
CYVO,"Val D'Or Arpt, QC, CA",2025-09-09T17:00:00Z,2025-09-09T13:00:00Z,VFR,14,7,180,11,20,15,1022.4,METAR CYVO 091700Z 18011G20KT 15SM SCT055 OVC070 14/07 A3019 RMK SC3AC5 SLP235,2025-09-09T17:12:43Z,2025-09-09T13:12:43Z
CYVO,"Val D'Or Arpt, QC, CA",2025-09-09T18:00:00Z,2025-09-09T14:00:00Z,VFR,15,8,180,10,15,15,1021.4,METAR CYVO 091800Z 18010G15KT 15SM OVC074 15/08 A3016 RMK AC8 SLP226,2025-09-09T18:09:16Z,2025-09-09T14:09:16Z
CYVO,"Val D'Or Arpt, QC, CA",2025-09-09T19:00:00Z,2025-09-09T15:00:00Z,VFR,16,7,180,11,18,15,1020.7,METAR CYVO 091900Z 18011G18KT 15SM BKN071 OVC110 16/07 A3014 RMK AC5AS3 SLP217,2025-09-09T19:20:44Z,2025-09-09T15:20:44Z
CYVO,"Val D'Or Arpt, QC, CA",2025-09-09T20:00:00Z,2025-09-09T16:00:00Z,VFR,17,8,190,11,0,15,1020.4,METAR CYVO 092000Z 19011KT 15SM OVC060 17/08 A3013 RMK SC8 SLP214 DENSITY ALT 1400FT,2025-09-09T20:10:07Z,2025-09-09T16:10:07Z
CYVQ,"Norman Wells Arpt, NT, CA",2025-09-09T15:00:00Z,2025-09-09T11:00:00Z,MVFR,13,13,300,4,0,6,1004.1,METAR CYVQ 091500Z 30004KT 270V020 6SM -SHRA FEW004 BKN024 BKN037 OVC050 13/13 A2965 RMK ST1SC4SC2SC1 /R10/ VIS NE 2 CVCTV CLD EMBD SLP045,2025-09-09T15:51:27Z,2025-09-09T11:51:27Z
CYVQ,"Norman Wells Arpt, NT, CA",2025-09-09T16:00:00Z,2025-09-09T12:00:00Z,MVFR,13,12,260,5,0,6,1004.5,METAR CYVQ 091600Z 26005KT 6SM -SHRA FEW007 BKN024 BKN050 OVC068 13/12 A2966 RMK ST1SC5SC1AC1 CVCTV CLD EMBD SLP048,2025-09-09T16:11:14Z,2025-09-09T12:11:14Z
CYVQ,"Norman Wells Arpt, NT, CA",2025-09-09T17:00:00Z,2025-09-09T13:00:00Z,MVFR,13,13,280,5,0,NA,1005.2,METAR CYVQ 091700Z 28005KT 10SM -RA FEW009 BKN021 BKN046 OVC070 13/13 A2968 RMK ST1SC5SC1AC2 ST TR FU SLP054,2025-09-09T17:12:49Z,2025-09-09T13:12:49Z
CYVQ,"Norman Wells Arpt, NT, CA",2025-09-09T18:00:00Z,2025-09-09T14:00:00Z,VFR,13,12,300,7,0,NA,1005.8,METAR CYVQ 091800Z 30007KT 10SM -RA FEW005 SCT021 BKN051 OVC070 13/12 A2970 RMK ST1SC4SC2AC2 ST TR FU SLP061,2025-09-09T18:09:18Z,2025-09-09T14:09:18Z
CYVQ,"Norman Wells Arpt, NT, CA",2025-09-09T19:00:00Z,2025-09-09T15:00:00Z,VFR,13,12,280,12,18,NA,1006.5,METAR CYVQ 091900Z 28012G18KT 10SM -RA FEW006 SCT026 BKN045 BKN075 OVC230 13/12 A2972 RMK ST1SC3SC1AC2CI1 VIS W 20 SLP068,2025-09-09T19:20:52Z,2025-09-09T15:20:52Z
CYVQ,"Norman Wells Arpt, NT, CA",2025-09-09T20:00:00Z,2025-09-09T16:00:00Z,VFR,13,13,280,10,0,20,1006.9,METAR CYVQ 092000Z 28010KT 20SM -RA FEW007 SCT025 SCT040 BKN064 BKN080 13/13 A2973 RMK ST1SC2SC1SC3AC1 SLP071,2025-09-09T20:10:12Z,2025-09-09T16:10:12Z
CYVQ,"Norman Wells Arpt, NT, CA",2025-09-09T20:16:00Z,2025-09-09T16:16:00Z,VFR,14,13,280,11,16,15,1006.9,SPECI CYVQ 092016Z 28011G16KT 15SM FEW005 FEW025 SCT042 BKN064 BKN100 14/13 A2973 RMK ST1SC2SC2SC2AC1 ST TR SLP073,2025-09-09T20:31:16Z,2025-09-09T16:31:16Z
CYVR,"Vancouver Intl, BC, CA",2025-09-09T15:00:00Z,2025-09-09T11:00:00Z,VFR,17,16,VAR,2,0,NA,1014.3,METAR CYVR 091500Z VRB02KT 10SM FEW010 FEW015 BKN045 BKN110 17/16 A2995 RMK SC1SC1SC5AC1 AC TR HZ SLP145 DENSITY ALT 300FT,2025-09-09T15:51:24Z,2025-09-09T11:51:24Z
CYVR,"Vancouver Intl, BC, CA",2025-09-09T16:00:00Z,2025-09-09T12:00:00Z,VFR,18,17,320,3,0,15,1014.3,METAR CYVR 091600Z 32003KT 280V360 15SM FEW010 FEW015 BKN048 18/17 A2995 RMK SC1SC1SC7 SC TR SC TR SLP145 DENSITY ALT 400FT,2025-09-09T16:11:11Z,2025-09-09T12:11:11Z
CYVR,"Vancouver Intl, BC, CA",2025-09-09T17:00:00Z,2025-09-09T13:00:00Z,MVFR,18,17,300,6,0,20,1014.3,METAR CYVR 091700Z 30006KT 270V330 20SM FEW010 FEW018 SCT023 BKN030 BKN042 18/17 A2995 RMK SC1SC2SC1SC1SC3 SC TR CU EMBD SLP146 DENSITY ALT 400FT,2025-09-09T17:12:43Z,2025-09-09T13:12:43Z
CYVR,"Vancouver Intl, BC, CA",2025-09-09T18:00:00Z,2025-09-09T14:00:00Z,VFR,19,17,300,13,0,20,1014.3,METAR CYVR 091800Z 30013KT 20SM FEW013 SCT020 BKN042 19/17 A2995 RMK SC1SC3SC3 SLP146 DENSITY ALT 500FT,2025-09-09T18:09:15Z,2025-09-09T14:09:15Z
CYVR,"Vancouver Intl, BC, CA",2025-09-09T19:00:00Z,2025-09-09T15:00:00Z,MVFR,19,17,280,11,0,20,1014.3,METAR CYVR 091900Z 28011KT 20SM BKN010 BKN017 19/17 A2995 RMK SC5SC2 SLP143 DENSITY ALT 500FT,2025-09-09T19:20:44Z,2025-09-09T15:20:44Z
CYVR,"Vancouver Intl, BC, CA",2025-09-09T20:00:00Z,2025-09-09T16:00:00Z,MVFR,19,16,290,9,0,20,1014,METAR CYVR 092000Z 29009KT 20SM BKN013 BKN022 19/16 A2994 RMK SC7SC1 SC TR SLP141 DENSITY ALT 500FT,2025-09-09T20:10:07Z,2025-09-09T16:10:07Z
CYVV,"Wiarton Arpt, ON, CA",2025-09-09T15:00:00Z,2025-09-09T11:00:00Z,VFR,17,11,180,11,0,15,1025.1,METAR CYVV 091500Z 18011KT 15SM OVC250 17/11 A3027 RMK CI8 SLP256,2025-09-09T15:51:24Z,2025-09-09T11:51:24Z
CYVV,"Wiarton Arpt, ON, CA",2025-09-09T16:00:00Z,2025-09-09T12:00:00Z,VFR,18,11,230,9,0,15,1025.1,METAR CYVV 091600Z 23009KT 180V250 15SM FEW030 OVC250 18/11 A3027 RMK CF1CI8 CF TR SLP256,2025-09-09T16:11:11Z,2025-09-09T12:11:11Z
CYVV,"Wiarton Arpt, ON, CA",2025-09-09T17:00:00Z,2025-09-09T13:00:00Z,VFR,20,10,200,8,0,15,1024.5,METAR CYVV 091700Z 20008KT 180V250 15SM FEW042 OVC250 20/10 A3025 RMK CU2CI6 SLP248 DENSITY ALT 1100FT,2025-09-09T17:12:44Z,2025-09-09T13:12:44Z
CYVV,"Wiarton Arpt, ON, CA",2025-09-09T18:00:00Z,2025-09-09T14:00:00Z,VFR,20,12,240,6,0,15,1023.8,METAR CYVV 091800Z 24006KT 170V270 15SM FEW042 OVC250 20/12 A3023 RMK CU2CI6 SLP243 DENSITY ALT 1200FT,2025-09-09T18:09:15Z,2025-09-09T14:09:15Z
CYVV,"Wiarton Arpt, ON, CA",2025-09-09T19:00:00Z,2025-09-09T15:00:00Z,VFR,20,10,240,8,0,15,1023.5,METAR CYVV 091900Z 24008KT 210V280 15SM FEW047 BKN250 20/10 A3022 RMK CU1CI6 SLP238 DENSITY ALT 1200FT,2025-09-09T19:20:44Z,2025-09-09T15:20:44Z
CYVV,"Wiarton Arpt, ON, CA",2025-09-09T20:00:00Z,2025-09-09T16:00:00Z,VFR,21,10,250,6,0,15,1023.1,METAR CYVV 092000Z 25006KT 200V300 15SM FEW045 SCT250 21/10 A3021 RMK CU1CI3 SLP235 DENSITY ALT 1300FT,2025-09-09T20:10:07Z,2025-09-09T16:10:07Z
CYWG,"Winnipeg Intl Arpt, MB, CA",2025-09-09T15:00:00Z,2025-09-09T11:00:00Z,VFR,18,15,VAR,2,0,12,1014.6,METAR CYWG 091500Z VRB02KT 12SM SKC 18/15 A2996 RMK SLP151 DENSITY ALT 1300FT,2025-09-09T15:51:24Z,2025-09-09T11:51:24Z
CYWG,"Winnipeg Intl Arpt, MB, CA",2025-09-09T16:00:00Z,2025-09-09T12:00:00Z,VFR,21,15,VAR,3,0,15,1015,METAR CYWG 091600Z VRB03KT 15SM SKC 21/15 A2997 RMK SLP154 DENSITY ALT 1600FT,2025-09-09T16:11:11Z,2025-09-09T12:11:11Z
CYWG,"Winnipeg Intl Arpt, MB, CA",2025-09-09T17:00:00Z,2025-09-09T13:00:00Z,VFR,22,15,0,0,0,15,1015,METAR CYWG 091700Z 00000KT 15SM SKC 22/15 A2997 RMK SLP154 DENSITY ALT 1800FT,2025-09-09T17:12:43Z,2025-09-09T13:12:43Z
CYWG,"Winnipeg Intl Arpt, MB, CA",2025-09-09T18:00:00Z,2025-09-09T14:00:00Z,VFR,24,15,VAR,4,0,15,1015,METAR CYWG 091800Z VRB04KT 15SM FEW035 24/15 A2997 RMK CU1 SLP153 DENSITY ALT 1900FT,2025-09-09T18:09:15Z,2025-09-09T14:09:15Z
CYWG,"Winnipeg Intl Arpt, MB, CA",2025-09-09T19:00:00Z,2025-09-09T15:00:00Z,VFR,24,15,VAR,2,0,15,1015,METAR CYWG 091900Z VRB02KT 15SM FEW040 24/15 A2997 RMK CU1 SLP153 DENSITY ALT 2000FT,2025-09-09T19:20:44Z,2025-09-09T15:20:44Z
CYWG,"Winnipeg Intl Arpt, MB, CA",2025-09-09T20:00:00Z,2025-09-09T16:00:00Z,VFR,25,14,260,3,0,15,1014.6,METAR CYWG 092000Z 26003KT 15SM FEW048 25/14 A2996 RMK CU1 SLP151 DENSITY ALT 2100FT,2025-09-09T20:10:07Z,2025-09-09T16:10:07Z
CYWL,"Williams Lake Rgnl, BC, CA",2025-09-09T15:00:00Z,2025-09-09T11:00:00Z,IFR,11,11,VAR,2,0,1,1015.3,METAR CYWL 091500Z VRB02KT 1SM FU SCT059 SCT100 11/11 A2998 RMK FU3SC1AC1 AC TR SLP156 DENSITY ALT 3300FT,2025-09-09T15:51:26Z,2025-09-09T11:51:26Z
CYWL,"Williams Lake Rgnl, BC, CA",2025-09-09T16:00:00Z,2025-09-09T12:00:00Z,IFR,13,12,110,5,0,2.5,1015.3,METAR CYWL 091600Z 11005KT 2 1/2SM FU SCT059 BKN100 13/12 A2998 RMK FU3SC1AC1 VIS 3/4 E-S SLP156 DENSITY ALT 3500FT,2025-09-09T16:11:12Z,2025-09-09T12:11:12Z
CYWL,"Williams Lake Rgnl, BC, CA",2025-09-09T16:41:00Z,2025-09-09T12:41:00Z,MVFR,14,12,VAR,3,0,3,1015.3,SPECI CYWL 091641Z VRB03KT 3SM FU SKC 14/12 A2998 RMK SLP157 DENSITY ALT 3700FT,2025-09-09T16:53:59Z,2025-09-09T12:53:59Z
CYWL,"Williams Lake Rgnl, BC, CA",2025-09-09T17:00:00Z,2025-09-09T13:00:00Z,MVFR,15,11,150,4,0,3,1015.3,METAR CYWL 091700Z 15004KT 130V210 3SM FU SKC 15/11 A2998 RMK SLP155 DENSITY ALT 3800FT,2025-09-09T17:12:45Z,2025-09-09T13:12:45Z
CYWL,"Williams Lake Rgnl, BC, CA",2025-09-09T18:00:00Z,2025-09-09T14:00:00Z,MVFR,17,10,180,3,0,5,1015,METAR CYWL 091800Z 18003KT 100V260 5SM FU SKC 17/10 A2997 RMK SLP152 DENSITY ALT 4100FT,2025-09-09T18:09:17Z,2025-09-09T14:09:17Z
CYWL,"Williams Lake Rgnl, BC, CA",2025-09-09T19:00:00Z,2025-09-09T15:00:00Z,VFR,19,9,110,4,0,6,1014.6,METAR CYWL 091900Z 11004KT 020V160 6SM FU SKC 19/09 A2996 RMK SLP145 DENSITY ALT 4300FT,2025-09-09T19:20:46Z,2025-09-09T15:20:46Z
CYWL,"Williams Lake Rgnl, BC, CA",2025-09-09T20:00:00Z,2025-09-09T16:00:00Z,VFR,21,10,210,3,0,6,1014,METAR CYWL 092000Z 21003KT 160V290 6SM FU FEW100 21/10 A2994 RMK AC1 AC TR SLP140 DENSITY ALT 4500FT,2025-09-09T20:10:11Z,2025-09-09T16:10:11Z
CYXE,"Saskatoon/Diefenbaker Intl, SK, CA",2025-09-09T15:00:00Z,2025-09-09T11:00:00Z,VFR,14,11,60,4,0,12,1015.3,METAR CYXE 091500Z 06004KT 12SM FEW120 14/11 A2998 RMK AC1 AC TR FU SLP162 DENSITY ALT 1900FT,2025-09-09T15:51:24Z,2025-09-09T11:51:24Z
CYXE,"Saskatoon/Diefenbaker Intl, SK, CA",2025-09-09T16:00:00Z,2025-09-09T12:00:00Z,VFR,18,12,80,5,0,12,1015.3,METAR CYXE 091600Z 08005KT 12SM FEW028 FEW300 18/12 A2998 RMK CU1CI1 CU TR CI TR FU SLP161 DENSITY ALT 2400FT,2025-09-09T16:11:11Z,2025-09-09T12:11:11Z
CYXE,"Saskatoon/Diefenbaker Intl, SK, CA",2025-09-09T17:00:00Z,2025-09-09T13:00:00Z,VFR,22,12,130,5,0,12,1015.3,METAR CYXE 091700Z 13005KT 050V150 12SM FEW300 22/12 A2998 RMK CI1 CI TR FU SLP160 DENSITY ALT 2800FT,2025-09-09T17:12:44Z,2025-09-09T13:12:44Z
CYXE,"Saskatoon/Diefenbaker Intl, SK, CA",2025-09-09T18:00:00Z,2025-09-09T14:00:00Z,VFR,24,12,150,4,0,12,1015.3,METAR CYXE 091800Z 15004KT 020V170 12SM FEW300 24/12 A2998 RMK CI1 CI TR FU SLP159 DENSITY ALT 3000FT,2025-09-09T18:09:16Z,2025-09-09T14:09:16Z
CYXE,"Saskatoon/Diefenbaker Intl, SK, CA",2025-09-09T19:00:00Z,2025-09-09T15:00:00Z,VFR,25,11,110,6,0,12,1014.6,METAR CYXE 091900Z 11006KT 040V170 12SM FEW052 FEW300 25/11 A2996 RMK CU1CI1 CU TR CI TR FU SLP154 DENSITY ALT 3200FT,2025-09-09T19:20:43Z,2025-09-09T15:20:43Z
CYXE,"Saskatoon/Diefenbaker Intl, SK, CA",2025-09-09T20:00:00Z,2025-09-09T16:00:00Z,VFR,26,11,130,8,0,12,1014.3,METAR CYXE 092000Z 13008KT 110V200 12SM FEW060 FEW300 26/11 A2995 RMK CU1CI1 FU SLP150 DENSITY ALT 3300FT,2025-09-09T20:10:07Z,2025-09-09T16:10:07Z
CYXP,"Pangnirtung Arpt, NU, CA",2025-09-09T15:00:00Z,2025-09-09T11:00:00Z,VFR,7,1,240,13,0,15,1003.8,METAR CYXP 091500Z 24013KT 15SM FEW030 07/01 A2964 RMK CF2 SLP040,2025-09-09T15:51:27Z,2025-09-09T11:51:27Z
CYXP,"Pangnirtung Arpt, NU, CA",2025-09-09T16:00:00Z,2025-09-09T12:00:00Z,VFR,7,1,240,16,0,15,1003.8,METAR CYXP 091600Z 24016KT 15SM FEW032 07/01 A2964 RMK CF1 SLP040,2025-09-09T16:11:14Z,2025-09-09T12:11:14Z
CYXP,"Pangnirtung Arpt, NU, CA",2025-09-09T17:00:00Z,2025-09-09T13:00:00Z,VFR,7,1,240,16,22,15,1004.1,METAR CYXP 091700Z 24016G22KT 15SM FEW044 07/01 A2965 RMK CF2 SLP044,2025-09-09T17:12:49Z,2025-09-09T13:12:49Z
CYXP,"Pangnirtung Arpt, NU, CA",2025-09-09T18:00:00Z,2025-09-09T14:00:00Z,VFR,7,0,240,18,29,15,1004.1,METAR CYXP 091800Z 24018G29KT 15SM SCT043 07/00 A2965 RMK SC4 SLP045,2025-09-09T18:09:18Z,2025-09-09T14:09:18Z
CYXP,"Pangnirtung Arpt, NU, CA",2025-09-09T19:00:00Z,2025-09-09T15:00:00Z,VFR,7,0,240,17,23,15,1004.5,METAR CYXP 091900Z 24017G23KT 15SM SCT042 07/00 A2966 RMK SC3 SLP046,2025-09-09T19:20:52Z,2025-09-09T15:20:52Z
CYXP,"Pangnirtung Arpt, NU, CA",2025-09-09T20:00:00Z,2025-09-09T16:00:00Z,VFR,6,0,230,16,22,15,1004.5,METAR CYXP 092000Z 23016G22KT 15SM FEW041 06/M00 A2966 RMK SC2 SLP048,2025-09-09T20:10:12Z,2025-09-09T16:10:12Z
CYXS,"Prince George Arpt, BC, CA",2025-09-09T15:00:00Z,2025-09-09T11:00:00Z,MVFR,8,8,200,2,0,5,1013.6,METAR CYXS 091500Z AUTO 20002KT 5SM BR CLR 08/08 A2993 RMK SLP148,2025-09-09T15:51:24Z,2025-09-09T11:51:24Z
CYXS,"Prince George Arpt, BC, CA",2025-09-09T16:00:00Z,2025-09-09T12:00:00Z,MVFR,12,11,190,3,0,5,1014,METAR CYXS 091600Z AUTO 19003KT 5SM BR CLR 12/11 A2994 RMK SLP150,2025-09-09T16:11:11Z,2025-09-09T12:11:11Z
CYXS,"Prince George Arpt, BC, CA",2025-09-09T17:00:00Z,2025-09-09T13:00:00Z,MVFR,14,12,180,3,0,5,1014,METAR CYXS 091700Z AUTO 18003KT 150V220 5SM BR CLR 14/12 A2994 RMK SLP151 DENSITY ALT 2700FT,2025-09-09T17:12:44Z,2025-09-09T13:12:44Z
CYXS,"Prince George Arpt, BC, CA",2025-09-09T17:38:00Z,2025-09-09T13:38:00Z,VFR,16,11,200,5,0,6,1014,SPECI CYXS 091738Z AUTO 20005KT 6SM HZ CLR 16/11 A2994 RMK SLP149 DENSITY ALT 2900FT,2025-09-09T17:41:32Z,2025-09-09T13:41:32Z
CYXS,"Prince George Arpt, BC, CA",2025-09-09T18:00:00Z,2025-09-09T14:00:00Z,VFR,18,8,220,4,0,6,1014,METAR CYXS 091800Z AUTO 22004KT 180V250 6SM HZ CLR 18/08 A2994 RMK SLP147 DENSITY ALT 3100FT,2025-09-09T18:09:16Z,2025-09-09T14:09:16Z
CYXS,"Prince George Arpt, BC, CA",2025-09-09T19:00:00Z,2025-09-09T15:00:00Z,VFR,19,8,VAR,3,0,9,1013.6,METAR CYXS 091900Z AUTO VRB03KT 9SM CLR 19/08 A2993 RMK SLP142 DENSITY ALT 3300FT,2025-09-09T19:20:44Z,2025-09-09T15:20:44Z
CYXS,"Prince George Arpt, BC, CA",2025-09-09T20:00:00Z,2025-09-09T16:00:00Z,VFR,21,8,200,6,0,9,1013.3,METAR CYXS 092000Z AUTO 20006KT 170V330 9SM CLR 21/08 A2992 RMK SLP139 DENSITY ALT 3500FT,2025-09-09T20:10:07Z,2025-09-09T16:10:07Z
CYXT,"Terrace Arpt, BC, CA",2025-09-09T15:00:00Z,2025-09-09T11:00:00Z,VFR,13,11,290,3,0,20,1016.3,METAR CYXT 091500Z 29003KT 20SM FEW020 BKN040 BKN210 13/11 A3001 RMK SC1SC6CI1 CI TR SLP169,2025-09-09T15:51:24Z,2025-09-09T11:51:24Z
CYXT,"Terrace Arpt, BC, CA",2025-09-09T16:00:00Z,2025-09-09T12:00:00Z,VFR,14,11,290,4,0,20,1016.7,METAR CYXT 091600Z 29004KT 20SM FEW017 FEW024 BKN045 BKN210 14/11 A3002 RMK CF1CF1SC7CI1 CF TR CF TR CI TR SLP172,2025-09-09T16:11:11Z,2025-09-09T12:11:11Z
CYXT,"Terrace Arpt, BC, CA",2025-09-09T17:00:00Z,2025-09-09T13:00:00Z,VFR,16,12,VAR,2,0,20,1016.7,METAR CYXT 091700Z VRB02KT 20SM FEW020 FEW045 BKN210 16/12 A3002 RMK CF1SC2CI5 CF TR SLP172,2025-09-09T17:12:44Z,2025-09-09T13:12:44Z
CYXT,"Terrace Arpt, BC, CA",2025-09-09T18:00:00Z,2025-09-09T14:00:00Z,VFR,17,12,VAR,3,0,20,1016.7,METAR CYXT 091800Z VRB03KT 20SM FEW025 BKN045 BKN210 17/12 A3002 RMK CU1SC5CI2 CU TR SLP170 DENSITY ALT 1100FT,2025-09-09T18:09:16Z,2025-09-09T14:09:16Z
CYXT,"Terrace Arpt, BC, CA",2025-09-09T19:00:00Z,2025-09-09T15:00:00Z,VFR,18,12,VAR,2,0,20,1016.3,METAR CYXT 091900Z VRB02KT 20SM FEW023 FEW044 SCT210 18/12 A3001 RMK CU1SC1CI1 SLP165 DENSITY ALT 1100FT,2025-09-09T19:20:43Z,2025-09-09T15:20:43Z
CYXT,"Terrace Arpt, BC, CA",2025-09-09T20:00:00Z,2025-09-09T16:00:00Z,VFR,20,12,0,0,0,20,1015.3,METAR CYXT 092000Z 00000KT 20SM FEW033 BKN120 BKN210 20/12 A2998 RMK CU1AC4CI1 SLP157 DENSITY ALT 1400FT,2025-09-09T20:10:07Z,2025-09-09T16:10:07Z
CYXU,"London Intl, ON, CA",2025-09-09T15:00:00Z,2025-09-09T11:00:00Z,VFR,20,11,170,6,0,15,1025.5,METAR CYXU 091500Z 17006KT 15SM FEW240 20/11 A3028 RMK CI2 SLP258 DENSITY ALT 1300FT,2025-09-09T15:51:26Z,2025-09-09T11:51:26Z
CYXU,"London Intl, ON, CA",2025-09-09T16:00:00Z,2025-09-09T12:00:00Z,VFR,21,11,180,6,0,15,1025.5,METAR CYXU 091600Z 18006KT 140V220 15SM FEW050 FEW210 21/11 A3028 RMK SC1CI1 SC TR SLP257 DENSITY ALT 1400FT,2025-09-09T16:11:12Z,2025-09-09T12:11:12Z
CYXU,"London Intl, ON, CA",2025-09-09T17:00:00Z,2025-09-09T13:00:00Z,VFR,21,7,160,8,15,15,1025.1,METAR CYXU 091700Z 16008G15KT 15SM SCT060 21/07 A3027 RMK SC3 SLP253 DENSITY ALT 1500FT,2025-09-09T17:12:45Z,2025-09-09T13:12:45Z
CYXU,"London Intl, ON, CA",2025-09-09T18:00:00Z,2025-09-09T14:00:00Z,VFR,22,8,170,9,15,15,1024.1,METAR CYXU 091800Z 17009G15KT 100V190 15SM FEW060 22/08 A3024 RMK SC2 SLP244 DENSITY ALT 1600FT,2025-09-09T18:09:17Z,2025-09-09T14:09:17Z
CYXU,"London Intl, ON, CA",2025-09-09T19:00:00Z,2025-09-09T15:00:00Z,VFR,22,7,190,7,0,15,1023.8,METAR CYXU 091900Z 19007KT 120V210 15SM FEW060 FEW240 22/07 A3023 RMK SC1CI1 SLP239 DENSITY ALT 1700FT,2025-09-09T19:20:46Z,2025-09-09T15:20:46Z
CYXU,"London Intl, ON, CA",2025-09-09T20:00:00Z,2025-09-09T16:00:00Z,VFR,22,7,160,9,0,15,1023.1,METAR CYXU 092000Z 16009KT 120V200 15SM FEW060 FEW240 22/07 A3021 RMK SC1CI1 SLP234 DENSITY ALT 1700FT,2025-09-09T20:10:11Z,2025-09-09T16:10:11Z
CYXX,"Abbotsford Intl, BC, CA",2025-09-09T15:00:00Z,2025-09-09T11:00:00Z,LIFR,15,15,110,3,0,4,1014.6,METAR CYXX 091500Z 11003KT 4SM BR BKN004 OVC014 15/15 A2996 RMK ST7SC1 VIS SW 2 VIS HYR E SLP146,2025-09-09T15:51:26Z,2025-09-09T11:51:26Z
CYXX,"Abbotsford Intl, BC, CA",2025-09-09T15:51:00Z,2025-09-09T11:51:00Z,LIFR,16,16,VAR,2,0,2.5,1014.3,SPECI CYXX 091551Z VRB02KT 2 1/2SM BR OVC004 16/16 A2995 RMK ST8 SLP145 DENSITY ALT 400FT,2025-09-09T16:05:57Z,2025-09-09T12:05:57Z
CYXX,"Abbotsford Intl, BC, CA",2025-09-09T16:00:00Z,2025-09-09T12:00:00Z,LIFR,16,16,0,0,0,2.5,1014.3,METAR CYXX 091600Z 00000KT 2 1/2SM BR OVC004 16/16 A2995 RMK ST8 VIS SW 1 SLP145 DENSITY ALT 400FT,2025-09-09T16:11:12Z,2025-09-09T12:11:12Z
CYXX,"Abbotsford Intl, BC, CA",2025-09-09T16:33:00Z,2025-09-09T12:33:00Z,IFR,16,16,0,0,0,4,1014.6,SPECI CYXX 091633Z 00000KT 4SM BR BKN005 OVC008 16/16 A2996 RMK SF6SC2 VIS SW 2 SLP146 DENSITY ALT 400FT,2025-09-09T16:36:22Z,2025-09-09T12:36:22Z
CYXX,"Abbotsford Intl, BC, CA",2025-09-09T17:00:00Z,2025-09-09T13:00:00Z,IFR,17,16,0,0,0,6,1014.6,METAR CYXX 091700Z 00000KT 6SM BR OVC007 17/16 A2996 RMK SF8 SLP146 DENSITY ALT 400FT,2025-09-09T17:12:45Z,2025-09-09T13:12:45Z
CYXX,"Abbotsford Intl, BC, CA",2025-09-09T17:39:00Z,2025-09-09T13:39:00Z,IFR,18,15,180,3,0,NA,1014.3,SPECI CYXX 091739Z 18003KT 160V280 10SM BKN009 OVC037 18/15 A2995 RMK SF6SC2 SLP144 DENSITY ALT 500FT,2025-09-09T17:41:34Z,2025-09-09T13:41:34Z
CYXX,"Abbotsford Intl, BC, CA",2025-09-09T18:00:00Z,2025-09-09T14:00:00Z,MVFR,18,16,270,3,0,NA,1014.3,METAR CYXX 091800Z 27003KT 230V290 10SM BKN010 OVC037 18/16 A2995 RMK CF5SC3 SLP144 DENSITY ALT 600FT,2025-09-09T18:09:17Z,2025-09-09T14:09:17Z
CYXX,"Abbotsford Intl, BC, CA",2025-09-09T19:00:00Z,2025-09-09T15:00:00Z,MVFR,19,15,VAR,2,0,NA,1014,METAR CYXX 091900Z VRB02KT 10SM BKN015 OVC038 19/15 A2994 RMK CF5SC3 SLP141 DENSITY ALT 700FT,2025-09-09T19:20:46Z,2025-09-09T15:20:46Z
CYXX,"Abbotsford Intl, BC, CA",2025-09-09T20:00:00Z,2025-09-09T16:00:00Z,VFR,20,15,VAR,2,0,13,1013.6,METAR CYXX 092000Z VRB02KT 13SM FEW019 BKN040 20/15 A2993 RMK CF2SC5 HZ SLP139 DENSITY ALT 900FT,2025-09-09T20:10:11Z,2025-09-09T16:10:11Z
CYXY,"Whitehorse Arpt, YT, CA",2025-09-09T15:00:00Z,2025-09-09T11:00:00Z,VFR,4,2,0,0,0,40,1012.3,METAR CYXY 091500Z 00000KT 40SM FEW060 FEW140 04/02 A2989 RMK SC1AC1 AC TR SLP146,2025-09-09T15:51:26Z,2025-09-09T11:51:26Z
CYXY,"Whitehorse Arpt, YT, CA",2025-09-09T16:00:00Z,2025-09-09T12:00:00Z,VFR,7,5,VAR,2,0,40,1012.3,METAR CYXY 091600Z VRB02KT 40SM FEW060 FEW140 07/05 A2989 RMK SC1AC1 SLP147,2025-09-09T16:11:12Z,2025-09-09T12:11:12Z
CYXY,"Whitehorse Arpt, YT, CA",2025-09-09T17:00:00Z,2025-09-09T13:00:00Z,VFR,9,6,190,2,0,40,1012.3,METAR CYXY 091700Z 19002KT 40SM FEW073 FEW140 09/06 A2989 RMK AC1AC1 AC TR SLP145,2025-09-09T17:12:45Z,2025-09-09T13:12:45Z
CYXY,"Whitehorse Arpt, YT, CA",2025-09-09T18:00:00Z,2025-09-09T14:00:00Z,VFR,11,6,170,6,0,40,1012.3,METAR CYXY 091800Z 17006KT 120V210 40SM FEW060 FEW140 11/06 A2989 RMK SC1AC1 SC TR AC TR SLP141,2025-09-09T18:09:17Z,2025-09-09T14:09:17Z
CYXY,"Whitehorse Arpt, YT, CA",2025-09-09T19:00:00Z,2025-09-09T15:00:00Z,VFR,14,4,VAR,4,0,40,1011.9,METAR CYXY 091900Z VRB04KT 40SM FEW050 FEW140 SCT240 14/04 A2988 RMK CU2AC1CI1 AC TR SLP137 DENSITY ALT 2900FT,2025-09-09T19:20:46Z,2025-09-09T15:20:46Z
CYXY,"Whitehorse Arpt, YT, CA",2025-09-09T20:00:00Z,2025-09-09T16:00:00Z,VFR,15,5,0,0,0,40,1011.6,METAR CYXY 092000Z 00000KT 40SM FEW068 FEW140 15/05 A2987 RMK AC1AC1 AC TR CVCTV CLD ASOCTD SLP132 DENSITY ALT 3000FT,2025-09-09T20:10:11Z,2025-09-09T16:10:11Z
CYYB,"North Bay/Garland Arpt, ON, CA",2025-09-09T15:00:00Z,2025-09-09T11:00:00Z,VFR,15,9,200,7,0,30,1025.1,METAR CYYB 091500Z 20007KT 30SM FEW025 FEW100 BKN280 15/09 A3027 RMK CF1AC1CI5 CF TR SLP259,2025-09-09T15:51:24Z,2025-09-09T11:51:24Z
CYYB,"North Bay/Garland Arpt, ON, CA",2025-09-09T16:00:00Z,2025-09-09T12:00:00Z,VFR,17,10,200,12,18,30,1024.8,METAR CYYB 091600Z 20012G18KT 30SM FEW030 FEW120 BKN280 17/10 A3026 RMK CU1AC1CI4 SLP255,2025-09-09T16:11:11Z,2025-09-09T12:11:11Z
CYYB,"North Bay/Garland Arpt, ON, CA",2025-09-09T17:00:00Z,2025-09-09T13:00:00Z,VFR,18,11,190,13,20,30,1024.5,METAR CYYB 091700Z 19013G20KT 30SM FEW030 BKN280 18/11 A3025 RMK CU3CI3 SLP251 DENSITY ALT 1600FT,2025-09-09T17:12:44Z,2025-09-09T13:12:44Z
CYYB,"North Bay/Garland Arpt, ON, CA",2025-09-09T18:00:00Z,2025-09-09T14:00:00Z,VFR,19,10,220,13,20,30,1023.8,METAR CYYB 091800Z 22013G20KT 30SM SCT040 BKN280 19/10 A3023 RMK CU3CI3 SLP244 DENSITY ALT 1600FT,2025-09-09T18:09:16Z,2025-09-09T14:09:16Z
CYYB,"North Bay/Garland Arpt, ON, CA",2025-09-09T19:00:00Z,2025-09-09T15:00:00Z,VFR,19,10,200,14,19,30,1023.5,METAR CYYB 091900Z 20014G19KT 30SM FEW040 BKN300 19/10 A3022 RMK CU2CI4 SLP241 DENSITY ALT 1700FT,2025-09-09T19:20:44Z,2025-09-09T15:20:44Z
CYYB,"North Bay/Garland Arpt, ON, CA",2025-09-09T20:00:00Z,2025-09-09T16:00:00Z,VFR,19,9,220,13,20,30,1023.1,METAR CYYB 092000Z 22013G20KT 30SM FEW040 BKN300 19/09 A3021 RMK CF1CI7 CF TR SLP236 DENSITY ALT 1700FT,2025-09-09T20:10:07Z,2025-09-09T16:10:07Z
CYYC,"Calgary Intl, AB, CA",2025-09-09T15:00:00Z,2025-09-09T11:00:00Z,VFR,14,9,VAR,2,0,15,1014.6,METAR CYYC 091500Z VRB02KT 15SM SKC 14/09 A2996 RMK SLP145 DENSITY ALT 4300FT,2025-09-09T15:51:24Z,2025-09-09T11:51:24Z
CYYC,"Calgary Intl, AB, CA",2025-09-09T16:00:00Z,2025-09-09T12:00:00Z,VFR,17,9,VAR,2,0,15,1014.6,METAR CYYC 091600Z VRB02KT 15SM SKC 17/09 A2996 RMK SLP144 DENSITY ALT 4600FT,2025-09-09T16:11:11Z,2025-09-09T12:11:11Z
CYYC,"Calgary Intl, AB, CA",2025-09-09T17:00:00Z,2025-09-09T13:00:00Z,VFR,20,9,210,3,0,15,1014.6,METAR CYYC 091700Z 21003KT 130V240 15SM SKC 20/09 A2996 RMK SLP141 DENSITY ALT 5000FT,2025-09-09T17:12:44Z,2025-09-09T13:12:44Z
CYYC,"Calgary Intl, AB, CA",2025-09-09T18:00:00Z,2025-09-09T14:00:00Z,VFR,22,8,150,3,0,15,1014,METAR CYYC 091800Z 15003KT 120V290 15SM FEW050 FEW250 22/08 A2994 RMK CU1CI1 CU TR SLP137 DENSITY ALT 5300FT,2025-09-09T18:09:16Z,2025-09-09T14:09:16Z
CYYC,"Calgary Intl, AB, CA",2025-09-09T19:00:00Z,2025-09-09T15:00:00Z,VFR,24,8,210,3,0,15,1013.6,METAR CYYC 091900Z 21003KT 150V270 15SM FEW060TCU FEW250 24/08 A2993 RMK TCU1CI2 TCU TR DIST TCU TOPS W SLP131 DENSITY ALT 5500FT,2025-09-09T19:20:44Z,2025-09-09T15:20:44Z
CYYC,"Calgary Intl, AB, CA",2025-09-09T20:00:00Z,2025-09-09T16:00:00Z,VFR,25,7,140,2,0,15,1013,METAR CYYC 092000Z 14002KT 15SM FEW060CB FEW120 FEW250 25/07 A2991 RMK CB1AC1CI2 CB TR AC TR DIST CB TOP W SLP124 DENSITY ALT 5600FT,2025-09-09T20:10:07Z,2025-09-09T16:10:07Z
CYYG,"Charlottetown Arpt, PE, CA",2025-09-09T15:00:00Z,2025-09-09T11:00:00Z,VFR,20,6,VAR,4,0,15,1028.9,METAR CYYG 091500Z VRB04KT 15SM SCT062 BKN260 20/06 A3038 RMK SC3CI2 SLP289,2025-09-09T15:51:24Z,2025-09-09T11:51:24Z
CYYG,"Charlottetown Arpt, PE, CA",2025-09-09T16:00:00Z,2025-09-09T12:00:00Z,VFR,19,8,170,10,16,15,1028.5,METAR CYYG 091600Z 17010G16KT 120V200 15SM BKN057 BKN250 19/08 A3037 RMK SC5CI1 SLP287,2025-09-09T16:11:11Z,2025-09-09T12:11:11Z
CYYG,"Charlottetown Arpt, PE, CA",2025-09-09T17:00:00Z,2025-09-09T13:00:00Z,VFR,19,7,180,8,0,15,1028.5,METAR CYYG 091700Z 18008KT 15SM BKN055 BKN260 19/07 A3037 RMK SC6CI1 SLP288,2025-09-09T17:12:43Z,2025-09-09T13:12:43Z
CYYG,"Charlottetown Arpt, PE, CA",2025-09-09T18:00:00Z,2025-09-09T14:00:00Z,VFR,21,6,230,8,0,15,1028.2,METAR CYYG 091800Z 23008KT 180V280 15SM SCT057 BKN260 21/06 A3036 RMK SC3CI4 SLP284 DENSITY ALT 400FT,2025-09-09T18:09:16Z,2025-09-09T14:09:16Z
CYYG,"Charlottetown Arpt, PE, CA",2025-09-09T19:00:00Z,2025-09-09T15:00:00Z,VFR,20,6,190,5,0,15,1027.9,METAR CYYG 091900Z 19005KT 120V250 15SM SCT055 BKN260 20/06 A3035 RMK CU3CS2 SLP282 DENSITY ALT 400FT,2025-09-09T19:20:43Z,2025-09-09T15:20:43Z
CYYG,"Charlottetown Arpt, PE, CA",2025-09-09T20:00:00Z,2025-09-09T16:00:00Z,VFR,20,8,VAR,3,0,15,1028.2,METAR CYYG 092000Z VRB03KT 15SM FEW059 BKN260 20/08 A3036 RMK SC1CI6 SLP283 DENSITY ALT 400FT,2025-09-09T20:10:07Z,2025-09-09T16:10:07Z
CYYJ,"Victoria Intl, BC, CA",2025-09-09T15:00:00Z,2025-09-09T11:00:00Z,VFR,16,14,0,0,0,30,1014.6,METAR CYYJ 091500Z 00000KT 30SM FEW020 BKN044 16/14 A2996 RMK SC1SC7 SC TR SLP147,2025-09-09T15:51:24Z,2025-09-09T11:51:24Z
CYYJ,"Victoria Intl, BC, CA",2025-09-09T16:00:00Z,2025-09-09T12:00:00Z,VFR,17,14,VAR,2,0,30,1014.6,METAR CYYJ 091600Z VRB02KT 30SM FEW020 BKN044 BKN065 17/14 A2996 RMK SC1SC7SC1 SC TR SC TR SLP146 DENSITY ALT 300FT,2025-09-09T16:11:11Z,2025-09-09T12:11:11Z
CYYJ,"Victoria Intl, BC, CA",2025-09-09T17:00:00Z,2025-09-09T13:00:00Z,VFR,18,14,VAR,2,0,30,1014.6,METAR CYYJ 091700Z VRB02KT 30SM FEW025 BKN044 18/14 A2996 RMK CU1SC7 CU TR SLP146 DENSITY ALT 400FT,2025-09-09T17:12:44Z,2025-09-09T13:12:44Z
CYYJ,"Victoria Intl, BC, CA",2025-09-09T18:00:00Z,2025-09-09T14:00:00Z,VFR,18,14,90,6,0,30,1014.6,METAR CYYJ 091800Z 09006KT 070V150 30SM FEW025 BKN042 BKN250 18/14 A2996 RMK CU1SC7CI1 CU TR CI TR SLP147 DENSITY ALT 500FT,2025-09-09T18:09:16Z,2025-09-09T14:09:16Z
CYYJ,"Victoria Intl, BC, CA",2025-09-09T19:00:00Z,2025-09-09T15:00:00Z,VFR,19,14,80,4,0,30,1014.3,METAR CYYJ 091900Z 08004KT 060V130 30SM FEW030 BKN042 BKN250 19/14 A2995 RMK CU1SC7CI1 CU TR CI TR SLP145 DENSITY ALT 600FT,2025-09-09T19:20:44Z,2025-09-09T15:20:44Z
CYYJ,"Victoria Intl, BC, CA",2025-09-09T20:00:00Z,2025-09-09T16:00:00Z,VFR,21,14,80,8,0,30,1014,METAR CYYJ 092000Z 08008KT 060V120 30SM FEW030 SCT042 SCT250 21/14 A2994 RMK CU1SC3CI1 CU TR CI TR SLP141 DENSITY ALT 800FT,2025-09-09T20:10:07Z,2025-09-09T16:10:07Z
CYYT,"St Johns Intl, NL, CA",2025-09-09T15:00:00Z,2025-09-09T11:00:00Z,VFR,16,9,270,12,0,15,1025.5,METAR CYYT 091500Z CCA 27012KT 15SM SCT100 BKN130 OVC220 16/09 A3028 RMK AC3AC3CI2 SLP258,2025-09-09T15:51:26Z,2025-09-09T11:51:26Z
CYYT,"St Johns Intl, NL, CA",2025-09-09T16:00:00Z,2025-09-09T12:00:00Z,VFR,17,9,280,11,0,15,1025.5,METAR CYYT 091600Z 28011KT 15SM FEW032 BKN120 BKN160 OVC220 17/09 A3028 RMK CU1AC5AC1CI1 SLP258,2025-09-09T16:11:12Z,2025-09-09T12:11:12Z
CYYT,"St Johns Intl, NL, CA",2025-09-09T17:00:00Z,2025-09-09T13:00:00Z,VFR,17,8,290,10,17,15,1025.5,METAR CYYT 091700Z 29010G17KT 15SM FEW036 SCT150 SCT220 BKN240 17/08 A3028 RMK CU1AC2CI1CI3 SLP259,2025-09-09T17:12:45Z,2025-09-09T13:12:45Z
CYYT,"St Johns Intl, NL, CA",2025-09-09T18:00:00Z,2025-09-09T14:00:00Z,VFR,18,8,310,12,17,15,1025.8,METAR CYYT 091800Z 31012G17KT 260V320 15SM FEW040 SCT220 BKN240 18/08 A3029 RMK CU1CI3CI7 SLP262,2025-09-09T18:09:17Z,2025-09-09T14:09:17Z
CYYT,"St Johns Intl, NL, CA",2025-09-09T19:00:00Z,2025-09-09T15:00:00Z,VFR,17,8,290,10,0,15,1026.2,METAR CYYT 091900Z 29010KT 15SM SCT180 BKN220 BKN240 17/08 A3030 RMK AC3CI2CI2 SLP264,2025-09-09T19:20:46Z,2025-09-09T15:20:46Z
CYYT,"St Johns Intl, NL, CA",2025-09-09T20:00:00Z,2025-09-09T16:00:00Z,VFR,17,8,290,7,0,15,1026.2,METAR CYYT 092000Z 29007KT 15SM FEW030 SCT170 BKN220 OVC240 17/08 A3030 RMK SC1AC3CI2CI3 SC TR SLP266,2025-09-09T20:10:11Z,2025-09-09T16:10:11Z
CYYZ,"Toronto/Pearson Intl, ON, CA",2025-09-09T15:00:00Z,2025-09-09T11:00:00Z,VFR,18,11,140,5,0,15,1026.2,METAR CYYZ 091500Z 14005KT 090V170 15SM SKC 18/11 A3030 RMK SLP265,2025-09-09T15:51:24Z,2025-09-09T11:51:24Z
CYYZ,"Toronto/Pearson Intl, ON, CA",2025-09-09T16:00:00Z,2025-09-09T12:00:00Z,VFR,19,11,170,5,0,15,1025.8,METAR CYYZ 091600Z 17005KT 15SM FEW030 FEW250 19/11 A3029 RMK CU1CI1 CU TR SLP260 DENSITY ALT 800FT,2025-09-09T16:11:11Z,2025-09-09T12:11:11Z
CYYZ,"Toronto/Pearson Intl, ON, CA",2025-09-09T17:00:00Z,2025-09-09T13:00:00Z,VFR,20,10,130,7,0,15,1025.5,METAR CYYZ 091700Z 13007KT 100V190 15SM FEW040 SCT250 20/10 A3028 RMK CU1CI3 SLP256 DENSITY ALT 900FT,2025-09-09T17:12:44Z,2025-09-09T13:12:44Z
CYYZ,"Toronto/Pearson Intl, ON, CA",2025-09-09T18:00:00Z,2025-09-09T14:00:00Z,VFR,21,9,140,8,15,15,1024.8,METAR CYYZ 091800Z 14008G15KT 100V190 15SM FEW040 SCT250 21/09 A3026 RMK CU2CI2 SLP250 DENSITY ALT 1100FT,2025-09-09T18:09:16Z,2025-09-09T14:09:16Z
CYYZ,"Toronto/Pearson Intl, ON, CA",2025-09-09T19:00:00Z,2025-09-09T15:00:00Z,VFR,22,10,130,7,0,15,1023.8,METAR CYYZ 091900Z 13007KT 100V170 15SM FEW040 BKN250 22/10 A3023 RMK CU2CI3 SLP241 DENSITY ALT 1200FT,2025-09-09T19:20:43Z,2025-09-09T15:20:43Z
CYYZ,"Toronto/Pearson Intl, ON, CA",2025-09-09T20:00:00Z,2025-09-09T16:00:00Z,VFR,21,10,130,7,0,15,1023.8,METAR CYYZ 092000Z 13007KT 15SM FEW060 SCT250 21/10 A3023 RMK CU1CI2 SLP239 DENSITY ALT 1100FT,2025-09-09T20:10:07Z,2025-09-09T16:10:07Z
CYZF,"Yellowknife Arpt, NT, CA",2025-09-09T15:00:00Z,2025-09-09T11:00:00Z,VFR,11,8,120,11,0,15,1006.9,METAR CYZF 091500Z 12011KT 15SM FEW020 FEW110 SCT180 11/08 A2973 RMK SC1AC2AC1 SC TR SLP078,2025-09-09T15:51:26Z,2025-09-09T11:51:26Z
CYZF,"Yellowknife Arpt, NT, CA",2025-09-09T16:00:00Z,2025-09-09T12:00:00Z,VFR,12,9,130,12,0,15,1006.5,METAR CYZF 091600Z 13012KT 15SM FEW020 BKN140 12/09 A2972 RMK SC1AC5 SC TR SLP074,2025-09-09T16:11:12Z,2025-09-09T12:11:12Z
CYZF,"Yellowknife Arpt, NT, CA",2025-09-09T17:00:00Z,2025-09-09T13:00:00Z,VFR,13,9,140,9,16,15,1006.2,METAR CYZF 091700Z 14009G16KT 15SM FEW020 BKN140 13/09 A2971 RMK SC1AC7 SC TR SLP071,2025-09-09T17:12:45Z,2025-09-09T13:12:45Z
CYZF,"Yellowknife Arpt, NT, CA",2025-09-09T18:00:00Z,2025-09-09T14:00:00Z,VFR,13,9,140,9,17,15,1006.2,METAR CYZF 091800Z 14009G17KT 15SM BKN130 13/09 A2971 RMK AC7 SLP070 DENSITY ALT 900FT,2025-09-09T18:09:17Z,2025-09-09T14:09:17Z
CYZF,"Yellowknife Arpt, NT, CA",2025-09-09T19:00:00Z,2025-09-09T15:00:00Z,VFR,14,9,130,10,0,15,1005.2,METAR CYZF 091900Z 13010KT 15SM BKN130 14/09 A2968 RMK AC7 PRESFR SLP060 DENSITY ALT 1000FT,2025-09-09T19:20:46Z,2025-09-09T15:20:46Z
CYZF,"Yellowknife Arpt, NT, CA",2025-09-09T20:00:00Z,2025-09-09T16:00:00Z,VFR,15,10,150,9,0,15,1004.8,METAR CYZF 092000Z 15009KT 15SM BKN100 15/10 A2967 RMK AC7 SLP057 DENSITY ALT 1100FT,2025-09-09T20:10:11Z,2025-09-09T16:10:11Z
CYZF,"Yellowknife Arpt, NT, CA",2025-09-09T20:30:00Z,2025-09-09T16:30:00Z,VFR,14,10,140,12,0,15,1004.8,SPECI CYZF 092030Z 14012KT 15SM -RA FEW052 OVC096 14/10 A2967 RMK SC2AC6 SLP058 DENSITY ALT 1100FT,2025-09-09T20:43:19Z,2025-09-09T16:43:19Z
CYZP,"Sandspit Arpt, BC, CA",2025-09-09T15:00:00Z,2025-09-09T11:00:00Z,MVFR,15,10,300,11,16,9,1018.7,METAR CYZP 091500Z AUTO 30011G16KT 9SM BKN026 15/10 A3008 RMK SLP188,2025-09-09T15:51:26Z,2025-09-09T11:51:26Z
CYZP,"Sandspit Arpt, BC, CA",2025-09-09T16:00:00Z,2025-09-09T12:00:00Z,MVFR,15,10,300,7,0,9,1018.7,METAR CYZP 091600Z AUTO 30007KT 9SM OVC026 15/10 A3008 RMK SLP188,2025-09-09T16:11:12Z,2025-09-09T12:11:12Z
CYZP,"Sandspit Arpt, BC, CA",2025-09-09T17:00:00Z,2025-09-09T13:00:00Z,MVFR,15,10,290,9,0,9,1018.7,METAR CYZP 091700Z AUTO 29009KT 9SM OVC026 15/10 A3008 RMK SLP187,2025-09-09T17:12:45Z,2025-09-09T13:12:45Z
CYZP,"Sandspit Arpt, BC, CA",2025-09-09T17:40:00Z,2025-09-09T13:40:00Z,MVFR,16,11,350,10,0,9,1018.7,SPECI CYZP 091740Z AUTO 35010KT 9SM OVC024 16/11 A3008 RMK SLP187,2025-09-09T17:41:34Z,2025-09-09T13:41:34Z
CYZP,"Sandspit Arpt, BC, CA",2025-09-09T18:00:00Z,2025-09-09T14:00:00Z,MVFR,16,11,320,9,0,9,1018.7,METAR CYZP 091800Z AUTO 32009KT 9SM OVC024 16/11 A3008 RMK SLP188,2025-09-09T18:09:17Z,2025-09-09T14:09:17Z
CYZP,"Sandspit Arpt, BC, CA",2025-09-09T18:47:00Z,2025-09-09T14:47:00Z,MVFR,17,12,350,8,0,9,1018.4,SPECI CYZP 091847Z AUTO 35008KT 9SM OVC026 17/12 A3007 RMK SLP184,2025-09-09T18:50:43Z,2025-09-09T14:50:43Z
CYZP,"Sandspit Arpt, BC, CA",2025-09-09T19:00:00Z,2025-09-09T15:00:00Z,MVFR,16,12,350,8,0,9,1018,METAR CYZP 091900Z AUTO 35008KT 9SM BKN026 16/12 A3006 RMK SLP183,2025-09-09T19:20:46Z,2025-09-09T15:20:46Z
CYZP,"Sandspit Arpt, BC, CA",2025-09-09T20:00:00Z,2025-09-09T16:00:00Z,MVFR,16,12,280,5,0,9,1018,METAR CYZP 092000Z AUTO 28005KT 250V360 9SM OVC026 16/12 A3006 RMK SLP181,2025-09-09T20:10:10Z,2025-09-09T16:10:10Z
CYZP,"Sandspit Arpt, BC, CA",2025-09-09T20:14:00Z,2025-09-09T16:14:00Z,MVFR,16,12,270,3,0,9,1018,SPECI CYZP 092014Z AUTO 27003KT 9SM OVC024 16/12 A3006 RMK SLP182,2025-09-09T20:31:14Z,2025-09-09T16:31:14Z
CYZP,"Sandspit Arpt, BC, CA",2025-09-09T20:47:00Z,2025-09-09T16:47:00Z,VFR,17,12,250,4,0,9,1017.7,SPECI CYZP 092047Z AUTO 25004KT 230V290 9SM SCT026 BKN180 17/12 A3005 RMK SLP179,2025-09-09T20:53:56Z,2025-09-09T16:53:56Z
CYZV,"Sept-les Arpt, QC, CA",2025-09-09T15:00:00Z,2025-09-09T11:00:00Z,VFR,12,4,180,5,0,30,1027.9,METAR CYZV 091500Z 18005KT 30SM FEW045 FEW180 BKN260 12/04 A3035 RMK CU1AC1CI4 WIND EST SLP281,2025-09-09T15:51:24Z,2025-09-09T11:51:24Z
CYZV,"Sept-les Arpt, QC, CA",2025-09-09T16:00:00Z,2025-09-09T12:00:00Z,VFR,13,6,160,8,0,30,1027.9,METAR CYZV 091600Z 16008KT 30SM FEW050 FEW120 FEW180 BKN260 13/06 A3035 RMK CU1AC1AC1CI4 AC TR SLP280,2025-09-09T16:11:11Z,2025-09-09T12:11:11Z
CYZV,"Sept-les Arpt, QC, CA",2025-09-09T17:00:00Z,2025-09-09T13:00:00Z,VFR,13,5,170,10,0,30,1027.5,METAR CYZV 091700Z 17010KT 30SM FEW060 FEW080 FEW180 BKN260 13/05 A3034 RMK CU1AC1AC1CI4 AC TR AC TR CONTRAILS SLP279,2025-09-09T17:12:44Z,2025-09-09T13:12:44Z
CYZV,"Sept-les Arpt, QC, CA",2025-09-09T18:00:00Z,2025-09-09T14:00:00Z,VFR,13,7,210,8,0,30,1027.2,METAR CYZV 091800Z 21008KT 160V220 30SM FEW060 FEW080 FEW120 BKN260 13/07 A3033 RMK CU1AC1AC1CI5 CU TR AC TR AC TR SLP276,2025-09-09T18:09:15Z,2025-09-09T14:09:15Z
CYZV,"Sept-les Arpt, QC, CA",2025-09-09T19:00:00Z,2025-09-09T15:00:00Z,VFR,14,6,190,7,0,30,1026.8,METAR CYZV 091900Z 19007KT 160V220 30SM FEW060 FEW090 FEW230 BKN260 14/06 A3032 RMK CU1AC1CI2CI5 CU TR AC TR SLP273,2025-09-09T19:20:43Z,2025-09-09T15:20:43Z
CYZV,"Sept-les Arpt, QC, CA",2025-09-09T20:00:00Z,2025-09-09T16:00:00Z,VFR,13,7,180,6,0,30,1026.2,METAR CYZV 092000Z 18006KT 160V220 30SM FEW065 FEW080 FEW220 BKN260 13/07 A3030 RMK CU1AC1CI1CI5 CU TR AC TR SLP266,2025-09-09T20:10:07Z,2025-09-09T16:10:07Z
KABI,"Abilene Rgnl, TX, US",2025-09-09T14:52:00Z,2025-09-09T10:52:00Z,VFR,24.4,14.4,200,10,0,NA,1018.4,METAR KABI 091452Z 20010KT 10SM CLR 24/14 A3007 RMK AO2 SLP160 T02440144 50006,2025-09-09T15:51:30Z,2025-09-09T11:51:30Z
KABI,"Abilene Rgnl, TX, US",2025-09-09T15:52:00Z,2025-09-09T11:52:00Z,VFR,26.7,15,210,10,0,NA,1018.7,METAR KABI 091552Z 21010KT 10SM CLR 27/15 A3008 RMK AO2 SLP161 T02670150,2025-09-09T16:06:03Z,2025-09-09T12:06:03Z
KABI,"Abilene Rgnl, TX, US",2025-09-09T16:52:00Z,2025-09-09T12:52:00Z,VFR,28.3,16.1,210,9,0,NA,1018.7,METAR KABI 091652Z 21009KT 10SM CLR 28/16 A3008 RMK AO2 SLP159 T02830161,2025-09-09T17:12:54Z,2025-09-09T13:12:54Z
KABI,"Abilene Rgnl, TX, US",2025-09-09T17:52:00Z,2025-09-09T13:52:00Z,VFR,29.4,16.7,180,6,15,NA,1018,METAR KABI 091752Z 18006G15KT 10SM CLR 29/17 A3006 RMK AO2 SLP153 T02940167 10300 20172 58005 $,2025-09-09T18:09:22Z,2025-09-09T14:09:22Z
KABI,"Abilene Rgnl, TX, US",2025-09-09T18:52:00Z,2025-09-09T14:52:00Z,VFR,31.1,16.1,160,6,0,NA,1017,METAR KABI 091852Z 16006KT 10SM CLR 31/16 A3003 RMK AO2 SLP143 T03110161,2025-09-09T19:00:57Z,2025-09-09T15:00:57Z
KABI,"Abilene Rgnl, TX, US",2025-09-09T19:52:00Z,2025-09-09T15:52:00Z,VFR,32.8,16.1,160,7,17,NA,1016.3,METAR KABI 091952Z 16007G17KT 10SM CLR 33/16 A3001 RMK AO2 SLP137 T03280161,2025-09-09T20:10:18Z,2025-09-09T16:10:18Z
KABQ,"Albuquerque Intl, NM, US",2025-09-09T14:52:00Z,2025-09-09T10:52:00Z,VFR,20.6,7.8,VAR,3,0,NA,1022.4,METAR KABQ 091452Z VRB03KT 10SM BKN120 21/08 A3019 RMK AO2 SLP143 T02060078 51013 $,2025-09-09T15:51:32Z,2025-09-09T11:51:32Z
KABQ,"Albuquerque Intl, NM, US",2025-09-09T15:52:00Z,2025-09-09T11:52:00Z,VFR,23.3,6.7,220,4,0,NA,1022.8,METAR KABQ 091552Z 22004KT 10SM FEW060 SCT120 23/07 A3020 RMK AO2 SLP139 T02330067 $,2025-09-09T16:06:05Z,2025-09-09T12:06:05Z
KABQ,"Albuquerque Intl, NM, US",2025-09-09T16:52:00Z,2025-09-09T12:52:00Z,VFR,24.4,6.7,210,3,0,NA,1022.8,METAR KABQ 091652Z COR 21003KT 10SM FEW070 BKN120 24/07 A3020 RMK AO2 SLP136 T02440067 $,2025-09-09T17:12:57Z,2025-09-09T13:12:57Z
KABQ,"Albuquerque Intl, NM, US",2025-09-09T17:52:00Z,2025-09-09T13:52:00Z,VFR,27.8,8.9,230,5,0,NA,1022.1,METAR KABQ 091752Z 23005KT 10SM FEW070 BKN120 28/09 A3018 RMK AO2 SLP132 T02780089 10278 20172 58004 $,2025-09-09T18:09:23Z,2025-09-09T14:09:23Z
KABQ,"Albuquerque Intl, NM, US",2025-09-09T18:52:00Z,2025-09-09T14:52:00Z,VFR,30,8.9,120,4,0,NA,1021.4,METAR KABQ 091852Z 12004KT 10SM FEW080 FEW120 SCT200 30/09 A3016 RMK AO2 SLP118 T03000089 $,2025-09-09T19:00:59Z,2025-09-09T15:00:59Z
KABQ,"Albuquerque Intl, NM, US",2025-09-09T19:52:00Z,2025-09-09T15:52:00Z,VFR,31.1,8.9,100,3,0,NA,1020.1,METAR KABQ 091952Z 10003KT 10SM FEW090 FEW120 SCT200 31/09 A3012 RMK AO2 SLP105 T03110089 $,2025-09-09T20:10:19Z,2025-09-09T16:10:19Z
KACT,"Waco Rgnl, TX, US",2025-09-09T14:51:00Z,2025-09-09T10:51:00Z,VFR,22.2,15,0,0,0,NA,1018.7,METAR KACT 091451Z 00000KT 10SM CLR 22/15 A3008 RMK AO2 SLP181 T02220150 51018,2025-09-09T15:51:30Z,2025-09-09T11:51:30Z
KACT,"Waco Rgnl, TX, US",2025-09-09T15:51:00Z,2025-09-09T11:51:00Z,VFR,25.6,15,110,4,0,NA,1018.7,METAR KACT 091551Z 11004KT 10SM CLR 26/15 A3008 RMK AO2 SLP181 T02560150,2025-09-09T16:06:03Z,2025-09-09T12:06:03Z
KACT,"Waco Rgnl, TX, US",2025-09-09T16:51:00Z,2025-09-09T12:51:00Z,VFR,26.7,15.6,VAR,NA,0,NA,1018.7,METAR KACT 091651Z 10SM CLR 27/16 A3008 RMK AO2 SLP179 T02670156,2025-09-09T16:54:04Z,2025-09-09T12:54:04Z
KACT,"Waco Rgnl, TX, US",2025-09-09T17:51:00Z,2025-09-09T13:51:00Z,VFR,27.8,15,VAR,3,0,NA,1018,METAR KACT 091751Z VRB03KT 10SM CLR 28/15 A3006 RMK AO2 SLP173 T02780150 10283 20156 58007,2025-09-09T18:09:22Z,2025-09-09T14:09:22Z
KACT,"Waco Rgnl, TX, US",2025-09-09T18:51:00Z,2025-09-09T14:51:00Z,VFR,28.9,15,VAR,5,0,NA,1017,METAR KACT 091851Z VRB05KT 10SM CLR 29/15 A3003 RMK AO2 SLP164 T02890150,2025-09-09T19:00:57Z,2025-09-09T15:00:57Z
KACT,"Waco Rgnl, TX, US",2025-09-09T19:51:00Z,2025-09-09T15:51:00Z,VFR,30,15,70,6,0,NA,1016.3,METAR KACT 091951Z 07006KT 10SM CLR 30/15 A3001 RMK AO2 SLP156 T03000150,2025-09-09T20:10:18Z,2025-09-09T16:10:18Z
KACT,"Waco Rgnl, TX, US",2025-09-09T20:51:00Z,2025-09-09T16:51:00Z,VFR,30.6,13.9,70,5,0,NA,1016,METAR KACT 092051Z 07005KT 10SM CLR 31/14 A3000 RMK AO2 SLP152 T03060139 56020,2025-09-09T20:54:01Z,2025-09-09T16:54:01Z
KAFW,"Fort Worth/Alliance Arpt, TX, US",2025-09-09T14:53:00Z,2025-09-09T10:53:00Z,VFR,23.3,12.2,150,9,0,NA,1018.7,METAR KAFW 091453Z 15009KT 10SM CLR 23/12 A3008 RMK AO2 SLP175 T02330122 51010 $,2025-09-09T15:51:30Z,2025-09-09T11:51:30Z
KAFW,"Fort Worth/Alliance Arpt, TX, US",2025-09-09T15:53:00Z,2025-09-09T11:53:00Z,VFR,25,13.3,150,10,0,NA,1018.7,METAR KAFW 091553Z 15010KT 10SM CLR 25/13 A3008 RMK AO2 SLP174 T02500133,2025-09-09T16:06:03Z,2025-09-09T12:06:03Z
KAFW,"Fort Worth/Alliance Arpt, TX, US",2025-09-09T16:53:00Z,2025-09-09T12:53:00Z,VFR,26.7,13.9,140,8,0,NA,1018.4,METAR KAFW 091653Z 14008KT 10SM CLR 27/14 A3007 RMK AO2 SLP170 T02670139,2025-09-09T17:12:54Z,2025-09-09T13:12:54Z
KAFW,"Fort Worth/Alliance Arpt, TX, US",2025-09-09T17:53:00Z,2025-09-09T13:53:00Z,VFR,27.8,14.4,190,4,0,NA,1018,METAR KAFW 091753Z 19004KT 10SM CLR 28/14 A3006 RMK AO2 SLP166 T02780144 10283 20183 58008,2025-09-09T18:09:22Z,2025-09-09T14:09:22Z
KAFW,"Fort Worth/Alliance Arpt, TX, US",2025-09-09T18:53:00Z,2025-09-09T14:53:00Z,VFR,28.9,14.4,VAR,4,0,NA,1017,METAR KAFW 091853Z VRB04KT 10SM CLR 29/14 A3003 RMK AO2 SLP156 T02890144,2025-09-09T19:00:57Z,2025-09-09T15:00:57Z
KAFW,"Fort Worth/Alliance Arpt, TX, US",2025-09-09T19:53:00Z,2025-09-09T15:53:00Z,VFR,29.4,15,130,4,0,NA,1016.3,METAR KAFW 091953Z COR 13004KT 10SM CLR 29/15 A3001 RMK AO2 SLP150 T02940150,2025-09-09T20:10:18Z,2025-09-09T16:10:18Z
KALB,"Albany Intl, NY, US",2025-09-09T14:51:00Z,2025-09-09T10:51:00Z,VFR,16.7,10,350,3,0,NA,1028.9,METAR KALB 091451Z 35003KT 10SM FEW029 SCT250 17/10 A3038 RMK AO2 SLP289 T01670100 50002,2025-09-09T15:51:27Z,2025-09-09T11:51:27Z
KALB,"Albany Intl, NY, US",2025-09-09T15:51:00Z,2025-09-09T11:51:00Z,VFR,18.9,9.4,0,0,0,NA,1028.5,METAR KALB 091551Z 00000KT 10SM FEW037 SCT250 19/09 A3037 RMK AO2 SLP284 T01890094,2025-09-09T16:06:00Z,2025-09-09T12:06:00Z
KALB,"Albany Intl, NY, US",2025-09-09T16:51:00Z,2025-09-09T12:51:00Z,VFR,21.1,8.9,0,0,0,NA,1027.9,METAR KALB 091651Z 00000KT 10SM FEW046 FEW250 21/09 A3035 RMK AO2 SLP275 T02110089,2025-09-09T16:54:01Z,2025-09-09T12:54:01Z
KALB,"Albany Intl, NY, US",2025-09-09T17:51:00Z,2025-09-09T13:51:00Z,VFR,22.2,8.9,190,4,0,NA,1026.8,METAR KALB 091751Z 19004KT 10SM FEW055 FEW250 22/09 A3032 RMK AO2 SLP267 T02220089 10228 20094 58021,2025-09-09T18:09:19Z,2025-09-09T14:09:19Z
KALB,"Albany Intl, NY, US",2025-09-09T18:51:00Z,2025-09-09T14:51:00Z,VFR,23.3,9.4,170,7,0,NA,1026.5,METAR KALB 091851Z COR 17007KT 10SM FEW055 FEW250 23/09 A3031 RMK AO2 SLP262 T02330094,2025-09-09T19:41:13Z,2025-09-09T15:41:13Z
KALB,"Albany Intl, NY, US",2025-09-09T19:51:00Z,2025-09-09T15:51:00Z,VFR,23.3,9.4,VAR,3,0,NA,1025.8,METAR KALB 091951Z VRB03KT 10SM FEW055 FEW250 23/09 A3029 RMK AO2 SLP258 T02330094,2025-09-09T20:10:13Z,2025-09-09T16:10:13Z
KALB,"Albany Intl, NY, US",2025-09-09T20:51:00Z,2025-09-09T16:51:00Z,VFR,23.9,10,260,3,0,NA,1025.5,METAR KALB 092051Z 26003KT 10SM FEW055 FEW250 24/10 A3028 RMK AO2 SLP254 T02390100 56014,2025-09-09T20:53:58Z,2025-09-09T16:53:58Z
KAMA,"Amarillo Intl Arpt, TX, US",2025-09-09T14:53:00Z,2025-09-09T10:53:00Z,VFR,22.8,16.1,240,11,0,NA,1019.4,METAR KAMA 091453Z 24011KT 10SM CLR 23/16 A3010 RMK AO2 SLP140 60000 T02280161 50009,2025-09-09T15:51:30Z,2025-09-09T11:51:30Z
KAMA,"Amarillo Intl Arpt, TX, US",2025-09-09T15:53:00Z,2025-09-09T11:53:00Z,VFR,25.6,15.6,210,14,0,NA,1019,METAR KAMA 091553Z 21014KT 10SM CLR 26/16 A3009 RMK AO2 SLP136 T02560156,2025-09-09T16:06:03Z,2025-09-09T12:06:03Z
KAMA,"Amarillo Intl Arpt, TX, US",2025-09-09T16:53:00Z,2025-09-09T12:53:00Z,VFR,27.8,16.1,220,12,0,NA,1018.7,METAR KAMA 091653Z 22012KT 10SM CLR 28/16 A3008 RMK AO2 SLP131 T02780161,2025-09-09T17:12:54Z,2025-09-09T13:12:54Z
KAMA,"Amarillo Intl Arpt, TX, US",2025-09-09T17:53:00Z,2025-09-09T13:53:00Z,VFR,30,16.1,210,13,23,NA,1017.7,METAR KAMA 091753Z 21013G23KT 10SM CLR 30/16 A3005 RMK AO2 SLP121 60000 T03000161 10300 20183 58014,2025-09-09T18:09:21Z,2025-09-09T14:09:21Z
KAMA,"Amarillo Intl Arpt, TX, US",2025-09-09T18:53:00Z,2025-09-09T14:53:00Z,VFR,32.2,15.6,200,16,23,NA,1017,METAR KAMA 091853Z 20016G23KT 10SM CLR 32/16 A3003 RMK AO2 SLP112 T03220156,2025-09-09T19:00:57Z,2025-09-09T15:00:57Z
KAMA,"Amarillo Intl Arpt, TX, US",2025-09-09T19:53:00Z,2025-09-09T15:53:00Z,VFR,33.3,15,190,11,21,NA,1016.3,METAR KAMA 091953Z AUTO 19011G21KT 10SM CLR 33/15 A3001 RMK AO2 SLP103 T03330150,2025-09-09T20:10:18Z,2025-09-09T16:10:18Z
KASE,"Aspen/Pitkin Cnty, CO, US",2025-09-09T14:53:00Z,2025-09-09T10:53:00Z,VFR,15,2.8,360,6,0,NA,1026.2,METAR KASE 091453Z 36006KT 10SM SCT085 15/03 A3030 RMK AO2 SLP147 T01500028 50001,2025-09-09T15:51:30Z,2025-09-09T11:51:30Z
KASE,"Aspen/Pitkin Cnty, CO, US",2025-09-09T15:53:00Z,2025-09-09T11:53:00Z,VFR,18.3,1.7,0,0,0,NA,1025.5,METAR KASE 091553Z 00000KT 10SM FEW110 18/02 A3028 RMK AO2 LTG DSNT S AND SW SLP143 T01830017,2025-09-09T16:06:03Z,2025-09-09T12:06:03Z
KASE,"Aspen/Pitkin Cnty, CO, US",2025-09-09T16:24:00Z,2025-09-09T12:24:00Z,VFR,19.4,3.3,350,8,0,NA,1025.5,SPECI KASE 091624Z 35008KT 10SM SCT085 BKN110 19/03 A3028 RMK AO2 RAB10E24 P0000 T01940033,2025-09-09T16:38:39Z,2025-09-09T12:38:39Z
KASE,"Aspen/Pitkin Cnty, CO, US",2025-09-09T16:53:00Z,2025-09-09T12:53:00Z,VFR,19.4,2.8,360,4,0,NA,1025.8,METAR KASE 091653Z 36004KT 10SM FEW090 19/03 A3029 RMK AO2 RAB10E24 SLP141 P0000 T01940028,2025-09-09T17:12:54Z,2025-09-09T13:12:54Z
KASE,"Aspen/Pitkin Cnty, CO, US",2025-09-09T17:53:00Z,2025-09-09T13:53:00Z,VFR,22.8,2.2,130,7,0,NA,1024.8,METAR KASE 091753Z 13007KT 100V170 10SM FEW090 23/02 A3026 RMK AO2 LTG DSNT E SLP125 60000 T02280022 10228 20083 58012,2025-09-09T18:09:22Z,2025-09-09T14:09:22Z
KASE,"Aspen/Pitkin Cnty, CO, US",2025-09-09T18:53:00Z,2025-09-09T14:53:00Z,VFR,23.9,1.1,VAR,6,0,NA,1023.8,METAR KASE 091853Z VRB06KT 10SM FEW090 SCT110 24/01 A3023 RMK AO2 LTG DSNT S-W SLP112 T02390011,2025-09-09T19:00:57Z,2025-09-09T15:00:57Z
KASE,"Aspen/Pitkin Cnty, CO, US",2025-09-09T19:14:00Z,2025-09-09T15:14:00Z,VFR,22.8,0.6,340,8,15,NA,1023.5,SPECI KASE 091914Z 34008G15KT 10SM CLR 23/01 A3022 RMK AO2 LTG DSNT ALQDS T02280006,2025-09-09T19:30:41Z,2025-09-09T15:30:41Z
KASE,"Aspen/Pitkin Cnty, CO, US",2025-09-09T19:45:00Z,2025-09-09T15:45:00Z,VFR,20.6,2.2,320,5,23,NA,1024.5,SPECI KASE 091945Z 32005G23KT 10SM VCTS SCT090 21/02 A3025 RMK AO2 T02060022,2025-09-09T19:51:21Z,2025-09-09T15:51:21Z
KASE,"Aspen/Pitkin Cnty, CO, US",2025-09-09T20:04:00Z,2025-09-09T16:04:00Z,VFR,15,2.8,360,7,19,NA,1024.8,SPECI KASE 092004Z 36007G19KT 310V020 10SM +TSRA FEW044 SCT070 15/03 A3026 RMK AO2 LTG DSNT E TSB1958 P0022 T01500028,2025-09-09T20:10:18Z,2025-09-09T16:10:18Z
KASE,"Aspen/Pitkin Cnty, CO, US",2025-09-09T20:27:00Z,2025-09-09T16:27:00Z,VFR,16.1,7.8,0,0,0,NA,1024.5,SPECI KASE 092027Z 00000KT 10SM -RA FEW044 SCT070 16/08 A3025 RMK AO2 LTG DSNT E TSB1958E26 P0024 T01610078,2025-09-09T20:31:19Z,2025-09-09T16:31:19Z
KATL,"Atlanta/Hartsfield-Jackson Intl, GA, US",2025-09-09T14:52:00Z,2025-09-09T10:52:00Z,VFR,22.2,10,90,15,0,NA,1023.1,METAR KATL 091452Z 09015KT 10SM FEW060 FEW200 FEW250 22/10 A3021 RMK SLP223 T02220100 51005,2025-09-09T15:51:29Z,2025-09-09T11:51:29Z
KATL,"Atlanta/Hartsfield-Jackson Intl, GA, US",2025-09-09T15:52:00Z,2025-09-09T11:52:00Z,VFR,23.3,11.1,70,14,0,NA,1023.1,METAR KATL 091552Z 07014KT 10SM FEW065 FEW200 FEW250 23/11 A3021 RMK SLP222 T02330111,2025-09-09T16:06:02Z,2025-09-09T12:06:02Z
KATL,"Atlanta/Hartsfield-Jackson Intl, GA, US",2025-09-09T16:52:00Z,2025-09-09T12:52:00Z,VFR,24.4,12.2,60,7,18,NA,1022.1,METAR KATL 091652Z 06007G18KT 10SM FEW070 FEW200 FEW250 24/12 A3018 RMK SLP212 T02440122,2025-09-09T16:54:02Z,2025-09-09T12:54:02Z
KATL,"Atlanta/Hartsfield-Jackson Intl, GA, US",2025-09-09T17:52:00Z,2025-09-09T13:52:00Z,VFR,25.6,12.8,50,9,15,NA,1021.4,METAR KATL 091752Z 05009G15KT 10SM FEW200 FEW250 26/13 A3016 RMK SLP206 T02560128 10256 20167 58017,2025-09-09T18:09:20Z,2025-09-09T14:09:20Z
KATL,"Atlanta/Hartsfield-Jackson Intl, GA, US",2025-09-09T18:52:00Z,2025-09-09T14:52:00Z,VFR,26.7,12.8,60,9,0,NA,1020.4,METAR KATL 091852Z 06009KT 10SM FEW060 FEW200 FEW250 27/13 A3013 RMK SLP196 T02670128,2025-09-09T19:00:56Z,2025-09-09T15:00:56Z
KATL,"Atlanta/Hartsfield-Jackson Intl, GA, US",2025-09-09T19:52:00Z,2025-09-09T15:52:00Z,VFR,26.7,13.3,40,7,15,NA,1019.7,METAR KATL 091952Z 04007G15KT 10SM FEW055 FEW200 FEW250 27/13 A3011 RMK SLP189 T02670133,2025-09-09T20:10:15Z,2025-09-09T16:10:15Z
KATL,"Atlanta/Hartsfield-Jackson Intl, GA, US",2025-09-09T20:52:00Z,2025-09-09T16:52:00Z,VFR,27.2,12.8,70,9,0,NA,1019.4,METAR KATL 092052Z 07009KT 10SM FEW055 FEW200 27/13 A3010 RMK SLP184 T02720128 56020,2025-09-09T20:54:00Z,2025-09-09T16:54:00Z
KAUS,"Austin/Bergstrom Intl, TX, US",2025-09-09T14:53:00Z,2025-09-09T10:53:00Z,VFR,23.9,13.9,VAR,3,0,NA,1017.7,METAR KAUS 091453Z VRB03KT 10SM CLR 24/14 A3005 RMK AO2 SLP169 T02390139 51007,2025-09-09T15:51:30Z,2025-09-09T11:51:30Z
KAUS,"Austin/Bergstrom Intl, TX, US",2025-09-09T15:53:00Z,2025-09-09T11:53:00Z,VFR,26.7,13.9,70,4,0,NA,1018,METAR KAUS 091553Z 07004KT 10SM CLR 27/14 A3006 RMK AO2 SLP170 T02670139,2025-09-09T16:06:03Z,2025-09-09T12:06:03Z
KAUS,"Austin/Bergstrom Intl, TX, US",2025-09-09T16:53:00Z,2025-09-09T12:53:00Z,VFR,28.3,13.3,150,4,0,NA,1017.7,METAR KAUS 091653Z 15004KT 10SM CLR 28/13 A3005 RMK AO2 SLP168 T02830133,2025-09-09T17:12:54Z,2025-09-09T13:12:54Z
KAUS,"Austin/Bergstrom Intl, TX, US",2025-09-09T17:53:00Z,2025-09-09T13:53:00Z,VFR,30,13.9,40,6,0,NA,1017,METAR KAUS 091753Z 04006KT 10SM CLR 30/14 A3003 RMK AO2 SLP161 T03000139 10300 20150 58008,2025-09-09T18:09:21Z,2025-09-09T14:09:21Z
KAUS,"Austin/Bergstrom Intl, TX, US",2025-09-09T18:53:00Z,2025-09-09T14:53:00Z,VFR,30.6,13.3,VAR,NA,0,NA,1016.3,METAR KAUS 091853Z 10SM CLR 31/13 A3001 RMK AO2 SLP153 T03060133,2025-09-09T19:00:57Z,2025-09-09T15:00:57Z
KAUS,"Austin/Bergstrom Intl, TX, US",2025-09-09T18:53:00Z,2025-09-09T14:53:00Z,VFR,30.6,13.3,80,4,0,NA,1016.3,METAR KAUS 091853Z COR 08004KT 10SM CLR 31/13 A3001 RMK AO2 SLP153 T03060133,2025-09-09T19:51:21Z,2025-09-09T15:51:21Z
KAUS,"Austin/Bergstrom Intl, TX, US",2025-09-09T19:53:00Z,2025-09-09T15:53:00Z,VFR,31.7,12.2,0,0,0,NA,1015.7,METAR KAUS 091953Z 00000KT 10SM CLR 32/12 A2999 RMK AO2 SLP145 T03170122,2025-09-09T20:10:18Z,2025-09-09T16:10:18Z
KBDL,"Hartford/Bradley Intl, CT, US",2025-09-09T14:51:00Z,2025-09-09T10:51:00Z,VFR,18.3,11.1,30,6,0,NA,1028.5,METAR KBDL 091451Z 03006KT 10SM FEW030 FEW250 18/11 A3037 RMK AO2 SLP285 T01830111 50000,2025-09-09T15:51:27Z,2025-09-09T11:51:27Z
KBDL,"Hartford/Bradley Intl, CT, US",2025-09-09T15:51:00Z,2025-09-09T11:51:00Z,VFR,20.6,10.6,0,0,0,NA,1028.5,METAR KBDL 091551Z 00000KT 10SM FEW037 FEW250 21/11 A3037 RMK AO2 SLP284 T02060106,2025-09-09T16:06:00Z,2025-09-09T12:06:00Z
KBDL,"Hartford/Bradley Intl, CT, US",2025-09-09T16:51:00Z,2025-09-09T12:51:00Z,VFR,21.7,7.8,120,7,0,NA,1027.9,METAR KBDL 091651Z 12007KT 10SM FEW050 FEW250 22/08 A3035 RMK AO2 SLP277 T02170078 $,2025-09-09T16:54:01Z,2025-09-09T12:54:01Z
KBDL,"Hartford/Bradley Intl, CT, US",2025-09-09T17:51:00Z,2025-09-09T13:51:00Z,VFR,22.8,7.8,100,4,0,NA,1027.2,METAR KBDL 091751Z 10004KT 10SM FEW050 FEW250 23/08 A3033 RMK AO2 SLP270 T02280078 10228 20106 58015,2025-09-09T18:09:19Z,2025-09-09T14:09:19Z
KBDL,"Hartford/Bradley Intl, CT, US",2025-09-09T18:51:00Z,2025-09-09T14:51:00Z,VFR,23.3,7.8,80,7,0,NA,1026.8,METAR KBDL 091851Z 08007KT 10SM FEW055 FEW250 23/08 A3032 RMK AO2 SLP267 T02330078,2025-09-09T19:00:54Z,2025-09-09T15:00:54Z
KBDL,"Hartford/Bradley Intl, CT, US",2025-09-09T19:51:00Z,2025-09-09T15:51:00Z,VFR,22.8,8.3,90,7,0,NA,1026.5,METAR KBDL 091951Z 09007KT 10SM SCT055 SCT200 SCT250 23/08 A3031 RMK AO2 SLP265 T02280083,2025-09-09T20:10:13Z,2025-09-09T16:10:13Z
KBDL,"Hartford/Bradley Intl, CT, US",2025-09-09T20:51:00Z,2025-09-09T16:51:00Z,VFR,22.8,9.4,140,4,0,NA,1026.2,METAR KBDL 092051Z 14004KT 10SM OVC055 23/09 A3030 RMK AO2 SLP262 T02280094 57008,2025-09-09T20:53:58Z,2025-09-09T16:53:58Z
KBED,"Bedford/Hanscom Fld, MA, US",2025-09-09T14:51:00Z,2025-09-09T10:51:00Z,VFR,19.4,10.6,110,4,0,NA,1028.9,METAR KBED 091451Z COR 11004KT 10SM SCT030 19/11 A3038 RMK AO2 SLP299 T01940106 58001,2025-09-09T15:51:27Z,2025-09-09T11:51:27Z
KBED,"Bedford/Hanscom Fld, MA, US",2025-09-09T15:51:00Z,2025-09-09T11:51:00Z,VFR,21.7,7.8,130,11,17,NA,1028.5,METAR KBED 091551Z 13011G17KT 10SM SCT040 22/08 A3037 RMK AO2 SLP298 T02170078 $,2025-09-09T16:06:00Z,2025-09-09T12:06:00Z
KBED,"Bedford/Hanscom Fld, MA, US",2025-09-09T16:51:00Z,2025-09-09T12:51:00Z,VFR,22.2,8.3,110,8,0,NA,1028.2,METAR KBED 091651Z 11008KT 090V170 10SM CLR 22/08 A3036 RMK AO2 SLP293 T02220083 $,2025-09-09T16:54:01Z,2025-09-09T12:54:01Z
KBED,"Bedford/Hanscom Fld, MA, US",2025-09-09T17:51:00Z,2025-09-09T13:51:00Z,VFR,21.7,8.3,120,10,16,NA,1027.5,METAR KBED 091751Z 12010G16KT 10SM CLR 22/08 A3034 RMK AO2 SLP288 T02170083 10222 20100 58011 $,2025-09-09T18:09:19Z,2025-09-09T14:09:19Z
KBED,"Bedford/Hanscom Fld, MA, US",2025-09-09T18:51:00Z,2025-09-09T14:51:00Z,VFR,21.7,7.8,110,10,18,NA,1027.5,METAR KBED 091851Z 11010G18KT 10SM CLR 22/08 A3034 RMK AO2 SLP285 T02170078 $,2025-09-09T19:00:54Z,2025-09-09T15:00:54Z
KBED,"Bedford/Hanscom Fld, MA, US",2025-09-09T19:51:00Z,2025-09-09T15:51:00Z,VFR,21.7,7.2,140,11,0,NA,1027.5,METAR KBED 091951Z 14011KT 10SM CLR 22/07 A3034 RMK AO2 SLP285 T02170072 $,2025-09-09T20:10:13Z,2025-09-09T16:10:13Z
KBED,"Bedford/Hanscom Fld, MA, US",2025-09-09T20:51:00Z,2025-09-09T16:51:00Z,VFR,20.6,7.8,120,9,0,NA,1027.2,METAR KBED 092051Z 12009KT 10SM CLR 21/08 A3033 RMK AO2 SLP283 T02060078 56004 $,2025-09-09T20:53:58Z,2025-09-09T16:53:58Z
KBFI,"Seattle/Boeing Fld, WA, US",2025-09-09T14:53:00Z,2025-09-09T10:53:00Z,VFR,16.1,12.8,300,3,0,NA,1014.3,METAR KBFI 091453Z 30003KT 10SM BKN046 16/13 A2995 RMK AO2 SLP141 T01610128 50003,2025-09-09T15:51:30Z,2025-09-09T11:51:30Z
KBFI,"Seattle/Boeing Fld, WA, US",2025-09-09T15:53:00Z,2025-09-09T11:53:00Z,VFR,17.2,13.3,VAR,4,0,NA,1014.3,METAR KBFI 091553Z VRB04KT 10SM OVC045 17/13 A2995 RMK AO2 SLP142 T01720133,2025-09-09T16:06:03Z,2025-09-09T12:06:03Z
KBFI,"Seattle/Boeing Fld, WA, US",2025-09-09T16:53:00Z,2025-09-09T12:53:00Z,VFR,17.2,13.9,VAR,3,0,NA,1014.6,METAR KBFI 091653Z VRB03KT 10SM SCT015 OVC043 17/14 A2996 RMK AO2 SLP146 T01720139,2025-09-09T17:12:54Z,2025-09-09T13:12:54Z
KBFI,"Seattle/Boeing Fld, WA, US",2025-09-09T17:53:00Z,2025-09-09T13:53:00Z,VFR,17.8,13.9,60,4,0,NA,1014.6,METAR KBFI 091753Z 06004KT 10SM FEW016 SCT044 18/14 A2996 RMK AO2 SLP144 T01780139 10178 20150 50003,2025-09-09T18:09:21Z,2025-09-09T14:09:21Z
KBFI,"Seattle/Boeing Fld, WA, US",2025-09-09T18:53:00Z,2025-09-09T14:53:00Z,VFR,18.3,13.9,0,0,0,NA,1014.3,METAR KBFI 091853Z 00000KT 10SM FEW016 BKN038 18/14 A2995 RMK AO2 SLP141 T01830139,2025-09-09T19:00:57Z,2025-09-09T15:00:57Z
KBFI,"Seattle/Boeing Fld, WA, US",2025-09-09T19:53:00Z,2025-09-09T15:53:00Z,VFR,18.9,14.4,VAR,3,0,NA,1014,METAR KBFI 091953Z VRB03KT 10SM SCT018 BKN120 19/14 A2994 RMK AO2 SLP139 T01890144,2025-09-09T20:10:18Z,2025-09-09T16:10:18Z
KBHM,"Birmingham Intl, AL, US",2025-09-09T14:53:00Z,2025-09-09T10:53:00Z,VFR,23.3,11.1,110,9,18,NA,1022.1,METAR KBHM 091453Z 11009G18KT 10SM FEW050 23/11 A3018 RMK AO2 SLP213 T02330111 51006,2025-09-09T15:51:29Z,2025-09-09T11:51:29Z
KBHM,"Birmingham Intl, AL, US",2025-09-09T15:53:00Z,2025-09-09T11:53:00Z,VFR,25,11.1,140,9,17,NA,1022.1,METAR KBHM 091553Z 14009G17KT 10SM FEW055 FEW110 25/11 A3018 RMK AO2 SLP213 T02500111,2025-09-09T16:06:02Z,2025-09-09T12:06:02Z
KBHM,"Birmingham Intl, AL, US",2025-09-09T16:53:00Z,2025-09-09T12:53:00Z,VFR,26.7,12.2,100,6,16,NA,1021.8,METAR KBHM 091653Z 10006G16KT 10SM FEW055 FEW110 FEW250 27/12 A3017 RMK AO2 SLP208 T02670122,2025-09-09T17:12:51Z,2025-09-09T13:12:51Z
KBHM,"Birmingham Intl, AL, US",2025-09-09T17:53:00Z,2025-09-09T13:53:00Z,VFR,27.8,12.8,110,7,0,NA,1020.7,METAR KBHM 091753Z 11007KT 10SM FEW250 28/13 A3014 RMK AO2 SLP199 T02780128 10278 20189 58013,2025-09-09T18:09:20Z,2025-09-09T14:09:20Z
KBHM,"Birmingham Intl, AL, US",2025-09-09T18:53:00Z,2025-09-09T14:53:00Z,VFR,28.9,13.9,30,9,0,NA,1020.1,METAR KBHM 091853Z 03009KT 10SM FEW060 29/14 A3012 RMK AO2 SLP192 T02890139,2025-09-09T19:00:56Z,2025-09-09T15:00:56Z
KBHM,"Birmingham Intl, AL, US",2025-09-09T19:53:00Z,2025-09-09T15:53:00Z,VFR,29.4,13.3,VAR,5,0,NA,1019.4,METAR KBHM 091953Z VRB05KT 10SM FEW060 29/13 A3010 RMK AO2 SLP186 T02940133,2025-09-09T20:10:15Z,2025-09-09T16:10:15Z
KBIL,"Billings/Logan Intl, MT, US",2025-09-09T14:53:00Z,2025-09-09T10:53:00Z,VFR,13.9,6.1,210,6,0,NA,1017,METAR KBIL 091453Z 21006KT 10SM SCT240 14/06 A3003 RMK AO2 SLP147 T01390061 50003,2025-09-09T15:51:30Z,2025-09-09T11:51:30Z
KBIL,"Billings/Logan Intl, MT, US",2025-09-09T15:53:00Z,2025-09-09T11:53:00Z,VFR,17.2,6.7,200,3,0,NA,1017,METAR KBIL 091553Z 20003KT 10SM FEW240 17/07 A3003 RMK AO2 SLP145 T01720067,2025-09-09T16:06:03Z,2025-09-09T12:06:03Z
KBIL,"Billings/Logan Intl, MT, US",2025-09-09T16:53:00Z,2025-09-09T12:53:00Z,VFR,20.6,7.2,0,0,0,NA,1017,METAR KBIL 091653Z 00000KT 10SM FEW240 21/07 A3003 RMK AO2 SLP141 T02060072,2025-09-09T17:12:54Z,2025-09-09T13:12:54Z
KBIL,"Billings/Logan Intl, MT, US",2025-09-09T17:53:00Z,2025-09-09T13:53:00Z,VFR,23.9,7.2,0,0,0,NA,1016.7,METAR KBIL 091753Z 00000KT 10SM FEW100 SCT220 24/07 A3002 RMK AO2 SLP132 T02390072 10239 20122 58005,2025-09-09T18:09:22Z,2025-09-09T14:09:22Z
KBIL,"Billings/Logan Intl, MT, US",2025-09-09T18:53:00Z,2025-09-09T14:53:00Z,VFR,25,7.8,60,8,0,NA,1016,METAR KBIL 091853Z 06008KT 10SM FEW100 BKN220 25/08 A3000 RMK AO2 SLP126 T02500078,2025-09-09T19:00:57Z,2025-09-09T15:00:57Z
KBIL,"Billings/Logan Intl, MT, US",2025-09-09T19:53:00Z,2025-09-09T15:53:00Z,VFR,27.8,6.7,80,7,0,NA,1015.3,METAR KBIL 091953Z 08007KT 10SM FEW100 SCT220 28/07 A2998 RMK AO2 SLP116 T02780067,2025-09-09T20:10:18Z,2025-09-09T16:10:18Z
KBNA,"Nashville Intl, TN, US",2025-09-09T14:53:00Z,2025-09-09T10:53:00Z,VFR,21.1,12.8,190,6,0,NA,1022.4,METAR KBNA 091453Z 19006KT 10SM SCT060 BKN070 BKN250 21/13 A3019 RMK AO2 SLP218 T02110128 52005 $,2025-09-09T15:51:29Z,2025-09-09T11:51:29Z
KBNA,"Nashville Intl, TN, US",2025-09-09T15:53:00Z,2025-09-09T11:53:00Z,VFR,25,12.8,170,8,0,NA,1022.1,METAR KBNA 091553Z 17008KT 10SM SCT070 SCT250 25/13 A3018 RMK AO2 SLP215 T02500128 $,2025-09-09T16:06:02Z,2025-09-09T12:06:02Z
KBNA,"Nashville Intl, TN, US",2025-09-09T16:53:00Z,2025-09-09T12:53:00Z,VFR,26.7,13.9,VAR,6,0,NA,1021.8,METAR KBNA 091653Z VRB06KT 10SM FEW040 SCT070 SCT250 27/14 A3017 RMK AO2 SLP210 T02670139 $,2025-09-09T17:12:51Z,2025-09-09T13:12:51Z
KBNA,"Nashville Intl, TN, US",2025-09-09T17:53:00Z,2025-09-09T13:53:00Z,VFR,27.2,12.2,350,3,0,NA,1021.1,METAR KBNA 091753Z 35003KT 10SM SCT055 27/12 A3015 RMK AO2 SLP203 T02720122 10278 20139 58014 $,2025-09-09T18:09:20Z,2025-09-09T14:09:20Z
KBNA,"Nashville Intl, TN, US",2025-09-09T18:53:00Z,2025-09-09T14:53:00Z,VFR,26.7,11.7,60,5,0,NA,1020.4,METAR KBNA 091853Z 06005KT 10SM FEW055 SCT065 27/12 A3013 RMK AO2 SLP196 T02670117 $,2025-09-09T19:00:56Z,2025-09-09T15:00:56Z
KBNA,"Nashville Intl, TN, US",2025-09-09T19:53:00Z,2025-09-09T15:53:00Z,VFR,27.2,11.1,90,4,0,NA,1019.7,METAR KBNA 091953Z 09004KT 10SM SCT065 27/11 A3011 RMK AO2 SLP192 T02720111 $,2025-09-09T20:10:15Z,2025-09-09T16:10:15Z
KBOI,"Boise Arpt, ID, US",2025-09-09T14:53:00Z,2025-09-09T10:53:00Z,VFR,17.8,3.9,0,0,0,NA,1012.6,METAR KBOI 091453Z AUTO 00000KT 10SM CLR 18/04 A2990 RMK AO2 SLP100 T01780039 51019,2025-09-09T15:51:30Z,2025-09-09T11:51:30Z
KBOI,"Boise Arpt, ID, US",2025-09-09T15:53:00Z,2025-09-09T11:53:00Z,VFR,19.4,6.7,50,4,0,NA,1012.6,METAR KBOI 091553Z 05004KT 10SM CLR 19/07 A2990 RMK AO2 SLP101 T01940067,2025-09-09T16:06:03Z,2025-09-09T12:06:03Z
KBOI,"Boise Arpt, ID, US",2025-09-09T16:53:00Z,2025-09-09T12:53:00Z,VFR,22.8,4.4,330,9,0,NA,1012.6,METAR KBOI 091653Z 33009KT 10SM CLR 23/04 A2990 RMK AO2 SLP100 T02280044,2025-09-09T17:12:54Z,2025-09-09T13:12:54Z
KBOI,"Boise Arpt, ID, US",2025-09-09T17:53:00Z,2025-09-09T13:53:00Z,VFR,23.3,5,300,7,0,NA,1012.6,METAR KBOI 091753Z 30007KT 10SM CLR 23/05 A2990 RMK AO2 SLP098 T02330050 10239 20156 50000,2025-09-09T18:09:21Z,2025-09-09T14:09:21Z
KBOI,"Boise Arpt, ID, US",2025-09-09T18:53:00Z,2025-09-09T14:53:00Z,VFR,24.4,5.6,310,7,0,NA,1011.9,METAR KBOI 091853Z 31007KT 270V350 10SM CLR 24/06 A2988 RMK AO2 SLP092 T02440056,2025-09-09T19:00:57Z,2025-09-09T15:00:57Z
KBOI,"Boise Arpt, ID, US",2025-09-09T19:53:00Z,2025-09-09T15:53:00Z,VFR,25,5.6,320,7,0,NA,1011.3,METAR KBOI 091953Z 32007KT 10SM CLR 25/06 A2986 RMK AO2 SLP087 T02500056,2025-09-09T20:10:18Z,2025-09-09T16:10:18Z
KBOS,"Boston/Logan Intl, MA, US",2025-09-09T14:54:00Z,2025-09-09T10:54:00Z,VFR,19.4,13.3,60,9,0,NA,1029.2,METAR KBOS 091454Z 06009KT 10SM FEW030 FEW250 19/13 A3039 RMK AO2 SLP290 T01940133 53002,2025-09-09T15:51:27Z,2025-09-09T11:51:27Z
KBOS,"Boston/Logan Intl, MA, US",2025-09-09T15:54:00Z,2025-09-09T11:54:00Z,VFR,20,11.7,70,8,0,NA,1029.2,METAR KBOS 091554Z 07008KT 10SM FEW030 FEW250 20/12 A3039 RMK AO2 SLP291 T02000117,2025-09-09T16:06:00Z,2025-09-09T12:06:00Z
KBOS,"Boston/Logan Intl, MA, US",2025-09-09T16:54:00Z,2025-09-09T12:54:00Z,VFR,20,12.8,70,9,0,NA,1028.9,METAR KBOS 091654Z 07009KT 10SM FEW030 FEW250 20/13 A3038 RMK AO2 SLP287 T02000128,2025-09-09T17:12:49Z,2025-09-09T13:12:49Z
KBOS,"Boston/Logan Intl, MA, US",2025-09-09T17:54:00Z,2025-09-09T13:54:00Z,VFR,20,13.3,70,9,0,NA,1028.5,METAR KBOS 091754Z 07009KT 10SM FEW040 FEW250 20/13 A3037 RMK AO2 SLP283 T02000133 10206 20144 58007,2025-09-09T18:09:19Z,2025-09-09T14:09:19Z
KBOS,"Boston/Logan Intl, MA, US",2025-09-09T18:54:00Z,2025-09-09T14:54:00Z,VFR,20,13.3,70,9,0,NA,1028.2,METAR KBOS 091854Z 07009KT 10SM FEW040 FEW250 20/13 A3036 RMK AO2 SLP280 T02000133,2025-09-09T19:00:54Z,2025-09-09T15:00:54Z
KBOS,"Boston/Logan Intl, MA, US",2025-09-09T19:54:00Z,2025-09-09T15:54:00Z,VFR,19.4,11.7,70,8,0,NA,1028.2,METAR KBOS 091954Z 07008KT 10SM FEW040 SCT250 19/12 A3036 RMK AO2 SLP278 T01940117,2025-09-09T20:10:13Z,2025-09-09T16:10:13Z
KBRO,"Brownsville Intl, TX, US",2025-09-09T15:23:00Z,2025-09-09T11:23:00Z,VFR,30,25,320,7,0,NA,1014.3,SPECI KBRO 091523Z 32007KT 10SM FEW016 SCT026 SCT038 30/25 A2995 RMK AO2 T03000250,2025-09-09T15:51:30Z,2025-09-09T11:51:30Z
KBRO,"Brownsville Intl, TX, US",2025-09-09T15:53:00Z,2025-09-09T11:53:00Z,VFR,30.6,25.6,VAR,5,0,NA,1014.3,METAR KBRO 091553Z VRB05KT 10SM FEW050 FEW080 31/26 A2995 RMK AO2 SLP142 T03060256,2025-09-09T16:06:03Z,2025-09-09T12:06:03Z
KBRO,"Brownsville Intl, TX, US",2025-09-09T16:53:00Z,2025-09-09T12:53:00Z,VFR,31.7,25,40,11,18,NA,1014.3,METAR KBRO 091653Z 04011G18KT 10SM FEW025 SCT070 32/25 A2995 RMK AO2 SLP142 T03170250,2025-09-09T17:12:54Z,2025-09-09T13:12:54Z
KBRO,"Brownsville Intl, TX, US",2025-09-09T17:53:00Z,2025-09-09T13:53:00Z,VFR,31.7,25.6,30,11,0,NA,1014,METAR KBRO 091753Z 03011KT 10SM FEW027 BKN035 OVC095 32/26 A2994 RMK AO2 RAB1656E31 SLP138 P0000 60004 T03170256 10328 20256 58003,2025-09-09T18:09:21Z,2025-09-09T14:09:21Z
KBRO,"Brownsville Intl, TX, US",2025-09-09T18:53:00Z,2025-09-09T14:53:00Z,VFR,31.1,25,10,7,0,NA,1013.3,METAR KBRO 091853Z 01007KT 10SM BKN034 BKN045 OVC070 31/25 A2992 RMK AO2 LTG DSNT SW RAB16E25 SLP130 P0000 T03110250,2025-09-09T19:00:57Z,2025-09-09T15:00:57Z
KBRO,"Brownsville Intl, TX, US",2025-09-09T20:07:00Z,2025-09-09T16:07:00Z,VFR,31.7,23.3,50,11,0,NA,1012.6,SPECI KBRO 092007Z 05011KT 10SM FEW080 32/23 A2990 RMK AO2 LTG DSNT SW T03170233,2025-09-09T20:10:18Z,2025-09-09T16:10:18Z
KBRO,"Brownsville Intl, TX, US",2025-09-09T20:27:00Z,2025-09-09T16:27:00Z,VFR,33.3,23.9,50,12,0,NA,1012.3,SPECI KBRO 092027Z 05012KT 10SM VCTS CLR 33/24 A2989 RMK AO2 T03330239,2025-09-09T20:31:19Z,2025-09-09T16:31:19Z
KBUF,"Buffalo-Niagara Intl, NY, US",2025-09-09T14:54:00Z,2025-09-09T10:54:00Z,VFR,19.4,8.3,200,7,0,NA,1026.8,METAR KBUF 091454Z 20007KT 10SM CLR 19/08 A3032 RMK AO2 SLP267 FU ALF T01940083 53003 $,2025-09-09T15:51:27Z,2025-09-09T11:51:27Z
KBUF,"Buffalo-Niagara Intl, NY, US",2025-09-09T15:54:00Z,2025-09-09T11:54:00Z,VFR,21.1,7.2,170,4,0,NA,1026.2,METAR KBUF 091554Z 17004KT 10SM FEW055 21/07 A3030 RMK AO2 SLP262 FU ALF T02110072 $,2025-09-09T16:06:00Z,2025-09-09T12:06:00Z
KBUF,"Buffalo-Niagara Intl, NY, US",2025-09-09T16:54:00Z,2025-09-09T12:54:00Z,VFR,22.2,6.7,250,9,0,NA,1025.8,METAR KBUF 091654Z 25009KT 10SM FEW060 22/07 A3029 RMK AO2 SLP256 FU ALF T02220067 $,2025-09-09T17:12:49Z,2025-09-09T13:12:49Z
KBUF,"Buffalo-Niagara Intl, NY, US",2025-09-09T17:54:00Z,2025-09-09T13:54:00Z,VFR,22.2,6.7,VAR,4,0,NA,1025.1,METAR KBUF 091754Z VRB04KT 10SM FEW065 FEW260 22/07 A3027 RMK AO2 SLP251 FU ALF T02220067 10228 20111 57016 $,2025-09-09T18:09:19Z,2025-09-09T14:09:19Z
KBUF,"Buffalo-Niagara Intl, NY, US",2025-09-09T18:54:00Z,2025-09-09T14:54:00Z,VFR,22.8,6.1,0,0,0,NA,1024.5,METAR KBUF 091854Z 00000KT 10SM FEW065 FEW260 23/06 A3025 RMK AO2 SLP243 T02280061 $,2025-09-09T19:00:54Z,2025-09-09T15:00:54Z
KBUF,"Buffalo-Niagara Intl, NY, US",2025-09-09T19:54:00Z,2025-09-09T15:54:00Z,VFR,23.9,6.7,70,7,0,NA,1023.8,METAR KBUF 091954Z 07007KT 10SM FEW060 FEW280 24/07 A3023 RMK AO2 SLP237 T02390067 $,2025-09-09T20:10:12Z,2025-09-09T16:10:12Z
KBUR,"Burbank/Bob Hope Arpt, CA, US",2025-09-09T15:28:00Z,2025-09-09T11:28:00Z,MVFR,18.9,15.6,180,5,0,NA,1015,SPECI KBUR 091528Z 18005KT 10SM OVC011 19/16 A2997 RMK AO2 T01890156,2025-09-09T15:51:32Z,2025-09-09T11:51:32Z
KBUR,"Burbank/Bob Hope Arpt, CA, US",2025-09-09T15:53:00Z,2025-09-09T11:53:00Z,MVFR,18.9,15,200,4,0,NA,1015,METAR KBUR 091553Z 20004KT 10SM OVC014 19/15 A2997 RMK AO2 SLP139 T01890150,2025-09-09T16:06:05Z,2025-09-09T12:06:05Z
KBUR,"Burbank/Bob Hope Arpt, CA, US",2025-09-09T16:22:00Z,2025-09-09T12:22:00Z,MVFR,19.4,15,160,5,0,NA,1015.3,SPECI KBUR 091622Z 16005KT 10SM BKN015 19/15 A2998 RMK AO2 T01940150,2025-09-09T16:36:33Z,2025-09-09T12:36:33Z
KBUR,"Burbank/Bob Hope Arpt, CA, US",2025-09-09T16:36:00Z,2025-09-09T12:36:00Z,VFR,20,15,140,4,0,NA,1015,SPECI KBUR 091636Z 14004KT 10SM FEW015 20/15 A2997 RMK AO2 T02000150,2025-09-09T16:38:42Z,2025-09-09T12:38:42Z
KBUR,"Burbank/Bob Hope Arpt, CA, US",2025-09-09T16:53:00Z,2025-09-09T12:53:00Z,VFR,20.6,15,VAR,5,0,NA,1015,METAR KBUR 091653Z VRB05KT 10SM FEW017 21/15 A2997 RMK AO2 SLP137 T02060150,2025-09-09T17:12:57Z,2025-09-09T13:12:57Z
KBUR,"Burbank/Bob Hope Arpt, CA, US",2025-09-09T17:53:00Z,2025-09-09T13:53:00Z,VFR,22.8,15,VAR,6,0,NA,1014.6,METAR KBUR 091753Z VRB06KT 10SM CLR 23/15 A2996 RMK AO2 SLP133 T02280150 10228 20172 50001,2025-09-09T18:09:23Z,2025-09-09T14:09:23Z
KBUR,"Burbank/Bob Hope Arpt, CA, US",2025-09-09T18:53:00Z,2025-09-09T14:53:00Z,VFR,24.4,14.4,180,8,0,NA,1014,METAR KBUR 091853Z 18008KT 10SM CLR 24/14 A2994 RMK AO2 SLP125 T02440144,2025-09-09T19:00:59Z,2025-09-09T15:00:59Z
KBUR,"Burbank/Bob Hope Arpt, CA, US",2025-09-09T19:53:00Z,2025-09-09T15:53:00Z,VFR,26.1,13.9,170,5,0,NA,1013,METAR KBUR 091953Z 17005KT 10SM CLR 26/14 A2991 RMK AO2 SLP116 T02610139,2025-09-09T20:10:19Z,2025-09-09T16:10:19Z
KBWI,"Baltimore-Washington Intl, MD, US",2025-09-09T14:54:00Z,2025-09-09T10:54:00Z,VFR,21.1,11.1,70,12,21,NA,1025.8,METAR KBWI 091454Z 07012G21KT 10SM FEW036 SCT250 21/11 A3029 RMK AO2 SLP257 T02110111 53002,2025-09-09T15:51:27Z,2025-09-09T11:51:27Z
KBWI,"Baltimore-Washington Intl, MD, US",2025-09-09T15:54:00Z,2025-09-09T11:54:00Z,VFR,22.2,10.6,80,15,0,NA,1025.8,METAR KBWI 091554Z 08015KT 10SM SCT041 SCT250 22/11 A3029 RMK AO2 SLP256 T02220106,2025-09-09T16:06:00Z,2025-09-09T12:06:00Z
KBWI,"Baltimore-Washington Intl, MD, US",2025-09-09T16:54:00Z,2025-09-09T12:54:00Z,VFR,22.2,11.1,80,9,20,NA,1025.5,METAR KBWI 091654Z 08009G20KT 10SM SCT041 SCT250 22/11 A3028 RMK AO2 SLP252 T02220111,2025-09-09T17:12:49Z,2025-09-09T13:12:49Z
KBWI,"Baltimore-Washington Intl, MD, US",2025-09-09T17:54:00Z,2025-09-09T13:54:00Z,VFR,23.3,10.6,60,9,0,NA,1024.8,METAR KBWI 091754Z 06009KT 10SM FEW046 SCT250 23/11 A3026 RMK AO2 SLP246 T02330106 10239 20133 58011,2025-09-09T18:09:19Z,2025-09-09T14:09:19Z
KBWI,"Baltimore-Washington Intl, MD, US",2025-09-09T18:54:00Z,2025-09-09T14:54:00Z,VFR,22.8,11.1,30,9,0,NA,1024.1,METAR KBWI 091854Z 03009KT 10SM SCT047 SCT250 23/11 A3024 RMK AO2 SLP240 T02280111,2025-09-09T19:00:54Z,2025-09-09T15:00:54Z
KBWI,"Baltimore-Washington Intl, MD, US",2025-09-09T19:54:00Z,2025-09-09T15:54:00Z,VFR,23.3,11.1,30,6,0,NA,1023.5,METAR KBWI 091954Z 03006KT 10SM FEW048 SCT250 23/11 A3022 RMK AO2 SLP234 T02330111,2025-09-09T20:10:13Z,2025-09-09T16:10:13Z
KBZN,"Bozeman/Gallatin Fld, MT, US",2025-09-09T14:56:00Z,2025-09-09T10:56:00Z,VFR,11.1,5.6,0,0,0,NA,1018,METAR KBZN 091456Z 00000KT 10SM CLR 11/06 A3006 RMK AO2 SLP154 T01110056 53004,2025-09-09T15:51:30Z,2025-09-09T11:51:30Z
KBZN,"Bozeman/Gallatin Fld, MT, US",2025-09-09T15:56:00Z,2025-09-09T11:56:00Z,VFR,16.1,5,20,3,0,NA,1018,METAR KBZN 091556Z 02003KT 10SM CLR 16/05 A3006 RMK AO2 SLP152 T01610050,2025-09-09T16:06:03Z,2025-09-09T12:06:03Z
KBZN,"Bozeman/Gallatin Fld, MT, US",2025-09-09T16:56:00Z,2025-09-09T12:56:00Z,VFR,18.3,5.6,310,4,0,NA,1017.7,METAR KBZN 091656Z 31004KT 10SM CLR 18/06 A3005 RMK AO2 SLP144 T01830056,2025-09-09T17:12:54Z,2025-09-09T13:12:54Z
KBZN,"Bozeman/Gallatin Fld, MT, US",2025-09-09T17:56:00Z,2025-09-09T13:56:00Z,VFR,21.1,5.6,270,6,0,NA,1018,METAR KBZN 091756Z 27006KT 10SM CLR 21/06 A3006 RMK AO2 SLP153 T02110056 10211 20072 53001,2025-09-09T18:09:21Z,2025-09-09T14:09:21Z
KBZN,"Bozeman/Gallatin Fld, MT, US",2025-09-09T18:56:00Z,2025-09-09T14:56:00Z,VFR,22.2,5,20,7,0,NA,1017.4,METAR KBZN 091856Z 02007KT 10SM CLR 22/05 A3004 RMK AO2 SLP144 T02220050 $,2025-09-09T19:00:57Z,2025-09-09T15:00:57Z
KBZN,"Bozeman/Gallatin Fld, MT, US",2025-09-09T19:56:00Z,2025-09-09T15:56:00Z,VFR,24.4,3.3,VAR,4,0,NA,1016.7,METAR KBZN 091956Z VRB04KT 10SM CLR 24/03 A3002 RMK AO2 SLP132 T02440033 $,2025-09-09T20:10:18Z,2025-09-09T16:10:18Z
KCHS,"Charleston Intl, SC, US",2025-09-09T14:56:00Z,2025-09-09T10:56:00Z,VFR,23.3,14.4,10,15,22,NA,1020.1,METAR KCHS 091456Z 01015G22KT 10SM FEW150 SCT200 23/14 A3012 RMK AO2 SLP197 T02330144 51006,2025-09-09T15:51:29Z,2025-09-09T11:51:29Z
KCHS,"Charleston Intl, SC, US",2025-09-09T15:56:00Z,2025-09-09T11:56:00Z,VFR,23.9,13.3,30,13,0,NA,1020.1,METAR KCHS 091556Z 03013KT 10SM SCT180 BKN250 24/13 A3012 RMK AO2 SLP200 T02390133,2025-09-09T16:06:01Z,2025-09-09T12:06:01Z
KCHS,"Charleston Intl, SC, US",2025-09-09T16:56:00Z,2025-09-09T12:56:00Z,VFR,25,13.3,30,12,21,NA,1019.7,METAR KCHS 091656Z 03012G21KT 10SM SCT180 BKN250 25/13 A3011 RMK AO2 SLP195 T02500133,2025-09-09T17:12:51Z,2025-09-09T13:12:51Z
KCHS,"Charleston Intl, SC, US",2025-09-09T17:56:00Z,2025-09-09T13:56:00Z,VFR,26.1,13.9,360,9,16,NA,1019,METAR KCHS 091756Z 36009G16KT 10SM BKN200 26/14 A3009 RMK AO2 SLP189 T02610139 10261 20178 58007,2025-09-09T18:09:20Z,2025-09-09T14:09:20Z
KCHS,"Charleston Intl, SC, US",2025-09-09T18:56:00Z,2025-09-09T14:56:00Z,VFR,25.6,13.3,20,9,0,NA,1018.4,METAR KCHS 091856Z 02009KT 10SM SCT150 BKN200 26/13 A3007 RMK AO2 SLP182 T02560133,2025-09-09T19:00:56Z,2025-09-09T15:00:56Z
KCHS,"Charleston Intl, SC, US",2025-09-09T19:56:00Z,2025-09-09T15:56:00Z,VFR,24.4,13.3,10,10,0,NA,1017.7,METAR KCHS 091956Z 01010KT 10SM BKN150 BKN200 24/13 A3005 RMK AO2 SLP176 T02440133,2025-09-09T20:10:15Z,2025-09-09T16:10:15Z
KCLE,"Cleveland/Hopkins Intl, OH, US",2025-09-09T14:51:00Z,2025-09-09T10:51:00Z,VFR,20,7.8,170,7,0,NA,1024.8,METAR KCLE 091451Z 17007KT 10SM FEW250 20/08 A3026 RMK AO2 SLP259 T02000078 56002,2025-09-09T15:51:29Z,2025-09-09T11:51:29Z
KCLE,"Cleveland/Hopkins Intl, OH, US",2025-09-09T15:51:00Z,2025-09-09T11:51:00Z,VFR,22.2,6.1,130,6,0,NA,1024.1,METAR KCLE 091551Z 13006KT 10SM FEW250 22/06 A3024 RMK AO2 SLP254 T02220061,2025-09-09T16:06:02Z,2025-09-09T12:06:02Z
KCLE,"Cleveland/Hopkins Intl, OH, US",2025-09-09T16:51:00Z,2025-09-09T12:51:00Z,VFR,22.8,5.6,150,7,0,NA,1023.8,METAR KCLE 091651Z 15007KT 120V180 10SM CLR 23/06 A3023 RMK AO2 SLP249 T02280056,2025-09-09T16:54:02Z,2025-09-09T12:54:02Z
KCLE,"Cleveland/Hopkins Intl, OH, US",2025-09-09T17:51:00Z,2025-09-09T13:51:00Z,VFR,23.3,6.7,VAR,6,0,NA,1023.1,METAR KCLE 091751Z VRB06KT 10SM CLR 23/07 A3021 RMK AO2 SLP244 T02330067 10239 20089 58015,2025-09-09T18:09:20Z,2025-09-09T14:09:20Z
KCLE,"Cleveland/Hopkins Intl, OH, US",2025-09-09T18:51:00Z,2025-09-09T14:51:00Z,VFR,24.4,7.2,VAR,3,0,NA,1022.4,METAR KCLE 091851Z VRB03KT 10SM CLR 24/07 A3019 RMK AO2 SLP237 T02440072,2025-09-09T19:00:56Z,2025-09-09T15:00:56Z
KCLE,"Cleveland/Hopkins Intl, OH, US",2025-09-09T19:51:00Z,2025-09-09T15:51:00Z,VFR,23.9,6.7,190,8,0,NA,1022.1,METAR KCLE 091951Z 19008KT 10SM FEW250 24/07 A3018 RMK AO2 SLP232 T02390067 $,2025-09-09T20:10:15Z,2025-09-09T16:10:15Z
KCLE,"Cleveland/Hopkins Intl, OH, US",2025-09-09T20:51:00Z,2025-09-09T16:51:00Z,VFR,22.8,10.6,360,10,0,NA,1021.8,METAR KCLE 092051Z 36010KT 10SM FEW250 23/11 A3017 RMK AO2 SLP229 T02280106 56015 $,2025-09-09T20:54:00Z,2025-09-09T16:54:00Z
KCLT,"Charlotte/Douglas Intl, NC, US",2025-09-09T14:52:00Z,2025-09-09T10:52:00Z,VFR,20.6,11.1,50,11,0,NA,1024.5,METAR KCLT 091452Z 05011KT 10SM FEW040 FEW250 21/11 A3025 RMK SLP255 T02060111 $,2025-09-09T15:51:29Z,2025-09-09T11:51:29Z
KCLT,"Charlotte/Douglas Intl, NC, US",2025-09-09T15:52:00Z,2025-09-09T11:52:00Z,VFR,21.7,8.3,50,14,20,NA,1024.1,METAR KCLT 091552Z 05014G20KT 10SM FEW045 FEW250 22/08 A3024 RMK SLP248 T02170083 $,2025-09-09T16:06:02Z,2025-09-09T12:06:02Z
KCLT,"Charlotte/Douglas Intl, NC, US",2025-09-09T16:52:00Z,2025-09-09T12:52:00Z,VFR,22.8,8.3,30,10,18,NA,1023.1,METAR KCLT 091652Z 03010G18KT 10SM FEW045 FEW250 23/08 A3021 RMK SLP240 T02280083 $,2025-09-09T17:12:51Z,2025-09-09T13:12:51Z
KCLT,"Charlotte/Douglas Intl, NC, US",2025-09-09T17:55:00Z,2025-09-09T13:55:00Z,VFR,23,8,20,12,19,NA,1022.4,METAR KCLT 091755Z 02012G19KT 10SM FEW050 FEW250 23/08 A3019,2025-09-09T18:09:20Z,2025-09-09T14:09:20Z
KCLT,"Charlotte/Douglas Intl, NC, US",2025-09-09T18:52:00Z,2025-09-09T14:52:00Z,VFR,23.3,8.9,30,10,0,NA,1021.8,METAR KCLT 091852Z 03010KT 10SM FEW060 FEW250 23/09 A3017 RMK SLP224 T02330089 $,2025-09-09T19:00:56Z,2025-09-09T15:00:56Z
KCLT,"Charlotte/Douglas Intl, NC, US",2025-09-09T19:52:00Z,2025-09-09T15:52:00Z,VFR,23.9,8.9,10,10,0,NA,1021.1,METAR KCLT 091952Z 01010KT 10SM FEW060 FEW250 24/09 A3015 RMK AO2 SLP219 T02390089 $,2025-09-09T20:10:15Z,2025-09-09T16:10:15Z
KCMH,"Columbus/Glenn Intl, OH, US",2025-09-09T14:51:00Z,2025-09-09T10:51:00Z,VFR,18.9,7.2,160,4,0,NA,1024.5,METAR KCMH 091451Z 16004KT 10SM FEW250 19/07 A3025 RMK AO2 SLP241 T01890072 55001,2025-09-09T15:51:29Z,2025-09-09T11:51:29Z
KCMH,"Columbus/Glenn Intl, OH, US",2025-09-09T15:51:00Z,2025-09-09T11:51:00Z,VFR,21.1,6.7,VAR,4,0,NA,1024.1,METAR KCMH 091551Z VRB04KT 10SM FEW250 21/07 A3024 RMK AO2 SLP239 T02110067,2025-09-09T16:06:02Z,2025-09-09T12:06:02Z
KCMH,"Columbus/Glenn Intl, OH, US",2025-09-09T16:51:00Z,2025-09-09T12:51:00Z,VFR,22.2,7.2,VAR,6,0,NA,1023.8,METAR KCMH 091651Z VRB06KT 10SM FEW036 SCT250 22/07 A3023 RMK AO2 SLP235 T02220072,2025-09-09T16:54:02Z,2025-09-09T12:54:02Z
KCMH,"Columbus/Glenn Intl, OH, US",2025-09-09T17:51:00Z,2025-09-09T13:51:00Z,VFR,23.9,7.8,VAR,4,0,NA,1023.1,METAR KCMH 091751Z VRB04KT 10SM FEW250 24/08 A3021 RMK AO2 SLP226 T02390078 10239 20094 58014,2025-09-09T18:09:20Z,2025-09-09T14:09:20Z
KCMH,"Columbus/Glenn Intl, OH, US",2025-09-09T18:51:00Z,2025-09-09T14:51:00Z,VFR,25.6,5.6,240,8,0,9,1022.4,METAR KCMH 091851Z 24008KT 9SM FEW250 26/06 A3019 RMK AO2 SLP219 T02560056,2025-09-09T19:00:56Z,2025-09-09T15:00:56Z
KCMH,"Columbus/Glenn Intl, OH, US",2025-09-09T19:51:00Z,2025-09-09T15:51:00Z,VFR,25,5.6,130,3,0,NA,1021.8,METAR KCMH 091951Z 13003KT 10SM FEW250 25/06 A3017 RMK AO2 SLP212 T02500056,2025-09-09T20:10:15Z,2025-09-09T16:10:15Z
KCMH,"Columbus/Glenn Intl, OH, US",2025-09-09T20:51:00Z,2025-09-09T16:51:00Z,VFR,25.6,6.1,VAR,4,0,NA,1021.4,METAR KCMH 092051Z VRB04KT 10SM SCT250 26/06 A3016 RMK AO2 SLP209 T02560061 56017,2025-09-09T20:54:00Z,2025-09-09T16:54:00Z
KCOS,"Colorado Spring Arpt, CO, US",2025-09-09T14:54:00Z,2025-09-09T10:54:00Z,VFR,21.7,4.4,0,0,0,NA,1022.8,METAR KCOS 091454Z 00000KT 10SM SCT100 SCT250 22/04 A3020 RMK AO2 SLP140 T02170044 50002 $,2025-09-09T15:51:30Z,2025-09-09T11:51:30Z
KCOS,"Colorado Spring Arpt, CO, US",2025-09-09T15:54:00Z,2025-09-09T11:54:00Z,VFR,22.8,5,VAR,3,0,NA,1022.4,METAR KCOS 091554Z VRB03KT 10SM SCT110 BKN250 23/05 A3019 RMK AO2 SLP133 T02280050 $,2025-09-09T16:06:03Z,2025-09-09T12:06:03Z
KCOS,"Colorado Spring Arpt, CO, US",2025-09-09T16:54:00Z,2025-09-09T12:54:00Z,VFR,24.4,4.4,220,6,0,NA,1022.1,METAR KCOS 091654Z 22006KT 10SM SCT110 SCT250 24/04 A3018 RMK AO2 SLP132 T02440044 $,2025-09-09T17:12:54Z,2025-09-09T13:12:54Z
KCOS,"Colorado Spring Arpt, CO, US",2025-09-09T17:54:00Z,2025-09-09T13:54:00Z,VFR,26.1,5,210,5,0,NA,1021.8,METAR KCOS 091754Z 21005KT 10SM SCT110 SCT250 26/05 A3017 RMK AO2 SLP127 T02610050 10261 20106 57008 $,2025-09-09T18:09:21Z,2025-09-09T14:09:21Z
KCOS,"Colorado Spring Arpt, CO, US",2025-09-09T18:54:00Z,2025-09-09T14:54:00Z,VFR,25.6,2.2,210,6,0,NA,1021.1,METAR KCOS 091854Z 21006KT 10SM SCT110 BKN250 26/02 A3015 RMK AO2 SLP126 T02560022 $,2025-09-09T19:00:57Z,2025-09-09T15:00:57Z
KCOS,"Colorado Spring Arpt, CO, US",2025-09-09T19:54:00Z,2025-09-09T15:54:00Z,VFR,27.2,3.9,200,8,0,NA,1020.4,METAR KCOS 091954Z 20008KT 10SM SCT110 BKN230 27/04 A3013 RMK AO2 SLP116 T02720039 $,2025-09-09T20:10:18Z,2025-09-09T16:10:18Z
KCOS,"Colorado Spring Arpt, CO, US",2025-09-09T20:40:00Z,2025-09-09T16:40:00Z,VFR,26.1,3.3,170,10,19,NA,1020.1,SPECI KCOS 092040Z 17010G19KT 10SM TS SCT110CB SCT160 BKN230 26/03 A3012 RMK AO2 TSB40 OCNL LTGICCG VC W TS VC W MOV E T02610033 $,2025-09-09T20:43:26Z,2025-09-09T16:43:26Z
KCVG,"Cincinnati Intl, KY, US",2025-09-09T14:52:00Z,2025-09-09T10:52:00Z,VFR,19.4,8.3,130,4,0,NA,1023.5,METAR KCVG 091452Z 13004KT 10SM FEW250 19/08 A3022 RMK AO2 SLP228 T01940083 53002,2025-09-09T15:51:29Z,2025-09-09T11:51:29Z
KCVG,"Cincinnati Intl, KY, US",2025-09-09T15:52:00Z,2025-09-09T11:52:00Z,VFR,21.7,8.3,130,5,0,NA,1023.5,METAR KCVG 091552Z 13005KT 10SM FEW250 22/08 A3022 RMK AO2 SLP226 T02170083,2025-09-09T16:06:02Z,2025-09-09T12:06:02Z
KCVG,"Cincinnati Intl, KY, US",2025-09-09T16:52:00Z,2025-09-09T12:52:00Z,VFR,23.3,8.3,160,5,0,NA,1023.1,METAR KCVG 091652Z 16005KT 10SM FEW060 FEW250 23/08 A3021 RMK AO2 SLP221 T02330083,2025-09-09T17:12:51Z,2025-09-09T13:12:51Z
KCVG,"Cincinnati Intl, KY, US",2025-09-09T17:52:00Z,2025-09-09T13:52:00Z,VFR,23.3,7.8,140,4,0,NA,1022.4,METAR KCVG 091752Z 14004KT 10SM FEW065 SCT250 23/08 A3019 RMK AO2 SLP216 T02330078 10239 20133 58011,2025-09-09T18:09:20Z,2025-09-09T14:09:20Z
KCVG,"Cincinnati Intl, KY, US",2025-09-09T18:52:00Z,2025-09-09T14:52:00Z,VFR,24.4,7.8,140,10,15,NA,1021.8,METAR KCVG 091852Z 14010G15KT 10SM FEW250 24/08 A3017 RMK AO2 SLP208 T02440078,2025-09-09T19:00:56Z,2025-09-09T15:00:56Z
KCVG,"Cincinnati Intl, KY, US",2025-09-09T19:52:00Z,2025-09-09T15:52:00Z,VFR,25,7.2,110,7,0,NA,1020.7,METAR KCVG 091952Z 11007KT 10SM SCT250 25/07 A3014 RMK AO2 SLP200 T02500072,2025-09-09T20:10:15Z,2025-09-09T16:10:15Z
KDAL,"Dallas/Love Fld, TX, US",2025-09-09T14:53:00Z,2025-09-09T10:53:00Z,VFR,22.8,12.2,140,6,0,NA,1019,METAR KDAL 091453Z 14006KT 10SM FEW170 FEW250 23/12 A3009 RMK AO2 SLP183 T02280122 51012,2025-09-09T15:51:30Z,2025-09-09T11:51:30Z
KDAL,"Dallas/Love Fld, TX, US",2025-09-09T15:53:00Z,2025-09-09T11:53:00Z,VFR,23.9,12.2,150,9,0,NA,1019,METAR KDAL 091553Z 15009KT 120V190 10SM FEW180 24/12 A3009 RMK AO2 SLP183 T02390122,2025-09-09T16:06:03Z,2025-09-09T12:06:03Z
KDAL,"Dallas/Love Fld, TX, US",2025-09-09T16:53:00Z,2025-09-09T12:53:00Z,VFR,25.6,13.3,180,5,0,NA,1018.7,METAR KDAL 091653Z COR 18005KT 10SM CLR 26/13 A3008 RMK AO2 SLP178 T02560133,2025-09-09T17:12:54Z,2025-09-09T13:12:54Z
KDAL,"Dallas/Love Fld, TX, US",2025-09-09T17:53:00Z,2025-09-09T13:53:00Z,VFR,27.8,13.9,100,4,0,NA,1018,METAR KDAL 091753Z 10004KT 10SM CLR 28/14 A3006 RMK AO2 SLP172 T02780139 10278 20178 58010,2025-09-09T18:09:22Z,2025-09-09T14:09:22Z
KDAL,"Dallas/Love Fld, TX, US",2025-09-09T18:53:00Z,2025-09-09T14:53:00Z,VFR,28.9,13.9,80,6,0,NA,1017,METAR KDAL 091853Z 08006KT 10SM CLR 29/14 A3003 RMK AO2 SLP163 T02890139,2025-09-09T19:00:57Z,2025-09-09T15:00:57Z
KDAL,"Dallas/Love Fld, TX, US",2025-09-09T19:53:00Z,2025-09-09T15:53:00Z,VFR,28.9,13.3,VAR,5,0,NA,1016.3,METAR KDAL 091953Z VRB05KT 10SM CLR 29/13 A3001 RMK AO2 SLP156 T02890133,2025-09-09T20:10:18Z,2025-09-09T16:10:18Z
KDAY,"Dayton/Cox Intl, OH, US",2025-09-09T14:56:00Z,2025-09-09T10:56:00Z,VFR,20,6.1,130,4,0,NA,1024.5,METAR KDAY 091456Z 13004KT 10SM FEW250 20/06 A3025 RMK AO2 SLP239 T02000061 53001,2025-09-09T15:51:29Z,2025-09-09T11:51:29Z
KDAY,"Dayton/Cox Intl, OH, US",2025-09-09T15:56:00Z,2025-09-09T11:56:00Z,VFR,21.7,5,100,3,0,NA,1024.1,METAR KDAY 091556Z 10003KT 10SM FEW250 22/05 A3024 RMK AO2 SLP236 T02170050,2025-09-09T16:06:01Z,2025-09-09T12:06:01Z
KDAY,"Dayton/Cox Intl, OH, US",2025-09-09T16:56:00Z,2025-09-09T12:56:00Z,VFR,22.2,5,100,4,0,NA,1023.8,METAR KDAY 091656Z 10004KT 10SM FEW250 22/05 A3023 RMK AO2 SLP233 T02220050,2025-09-09T17:12:51Z,2025-09-09T13:12:51Z
KDAY,"Dayton/Cox Intl, OH, US",2025-09-09T17:56:00Z,2025-09-09T13:56:00Z,VFR,23.3,5.6,150,4,0,NA,1023.1,METAR KDAY 091756Z 15004KT 10SM FEW250 23/06 A3021 RMK AO2 SLP226 T02330056 10233 20100 58012,2025-09-09T18:09:20Z,2025-09-09T14:09:20Z
KDAY,"Dayton/Cox Intl, OH, US",2025-09-09T18:56:00Z,2025-09-09T14:56:00Z,VFR,24.4,5.6,190,6,0,NA,1022.1,METAR KDAY 091856Z 19006KT 10SM FEW250 24/06 A3018 RMK AO2 SLP217 T02440056,2025-09-09T19:00:56Z,2025-09-09T15:00:56Z
KDAY,"Dayton/Cox Intl, OH, US",2025-09-09T19:56:00Z,2025-09-09T15:56:00Z,VFR,25,6.1,140,9,0,NA,1021.4,METAR KDAY 091956Z 14009KT 10SM SCT250 25/06 A3016 RMK AO2 SLP211 T02500061,2025-09-09T20:10:15Z,2025-09-09T16:10:15Z
KDCA,"Washington/Reagan-National Arpt, VA, US",2025-09-09T14:52:00Z,2025-09-09T10:52:00Z,VFR,21.7,12.2,70,13,19,NA,1025.8,METAR KDCA 091452Z 07013G19KT 10SM SCT035 SCT250 22/12 A3029 RMK AO2 SLP256 T02170122 53001,2025-09-09T15:51:27Z,2025-09-09T11:51:27Z
KDCA,"Washington/Reagan-National Arpt, VA, US",2025-09-09T15:52:00Z,2025-09-09T11:52:00Z,VFR,22.2,11.1,60,13,0,NA,1025.5,METAR KDCA 091552Z 06013KT 10SM FEW040 SCT250 22/11 A3028 RMK AO2 SLP251 T02220111,2025-09-09T16:06:00Z,2025-09-09T12:06:00Z
KDCA,"Washington/Reagan-National Arpt, VA, US",2025-09-09T16:52:00Z,2025-09-09T12:52:00Z,VFR,23.9,11.1,30,8,18,NA,1025.1,METAR KDCA 091652Z 03008G18KT 10SM FEW050 SCT250 24/11 A3027 RMK AO2 SLP249 T02390111,2025-09-09T17:12:49Z,2025-09-09T13:12:49Z
KDCA,"Washington/Reagan-National Arpt, VA, US",2025-09-09T17:52:00Z,2025-09-09T13:52:00Z,VFR,24.4,10,100,10,0,NA,1024.5,METAR KDCA 091752Z 10010KT 10SM FEW050 SCT250 24/10 A3025 RMK AO2 SLP242 T02440100 10244 20156 58014,2025-09-09T18:09:19Z,2025-09-09T14:09:19Z
KDCA,"Washington/Reagan-National Arpt, VA, US",2025-09-09T18:52:00Z,2025-09-09T14:52:00Z,VFR,23.9,10.6,50,6,0,NA,1023.8,METAR KDCA 091852Z 05006KT 10SM FEW050 SCT250 24/11 A3023 RMK AO2 SLP236 T02390106,2025-09-09T19:00:54Z,2025-09-09T15:00:54Z
KDCA,"Washington/Reagan-National Arpt, VA, US",2025-09-09T19:52:00Z,2025-09-09T15:52:00Z,VFR,24.4,11.7,80,7,0,NA,1023.1,METAR KDCA 091952Z 08007KT 10SM SCT055 BKN250 24/12 A3021 RMK AO2 SLP228 T02440117,2025-09-09T20:10:13Z,2025-09-09T16:10:13Z
KDEN,"Denver Intl, CO, US",2025-09-09T14:53:00Z,2025-09-09T10:53:00Z,VFR,21.1,5,240,8,0,NA,1019.7,METAR KDEN 091453Z 24008KT 10SM FEW100 FEW150 SCT220 21/05 A3011 RMK AO2 SLP124 T02110050 51006,2025-09-09T15:51:30Z,2025-09-09T11:51:30Z
KDEN,"Denver Intl, CO, US",2025-09-09T15:53:00Z,2025-09-09T11:53:00Z,VFR,23.3,4.4,240,5,0,NA,1020.1,METAR KDEN 091553Z 24005KT 10SM FEW100 FEW140 FEW180 SCT220 23/04 A3012 RMK AO2 SLP122 T02330044,2025-09-09T16:06:03Z,2025-09-09T12:06:03Z
KDEN,"Denver Intl, CO, US",2025-09-09T16:53:00Z,2025-09-09T12:53:00Z,VFR,25,4.4,260,3,0,NA,1019.7,METAR KDEN 091653Z 26003KT 10SM FEW080 FEW100 SCT140 BKN220 25/04 A3011 RMK AO2 SLP117 T02500044,2025-09-09T17:12:54Z,2025-09-09T13:12:54Z
KDEN,"Denver Intl, CO, US",2025-09-09T17:53:00Z,2025-09-09T13:53:00Z,VFR,26.7,3.9,0,0,0,NA,1019.4,METAR KDEN 091753Z 00000KT 10SM FEW100 SCT140 BKN220 27/04 A3010 RMK AO2 SLP109 T02670039 10267 20156 58005,2025-09-09T18:09:22Z,2025-09-09T14:09:22Z
KDEN,"Denver Intl, CO, US",2025-09-09T18:53:00Z,2025-09-09T14:53:00Z,VFR,28.3,3.3,0,0,0,NA,1018.7,METAR KDEN 091853Z 00000KT 10SM FEW100 SCT140 BKN220 28/03 A3008 RMK AO2 SLP099 VIRGA SW T02830033,2025-09-09T19:00:57Z,2025-09-09T15:00:57Z
KDEN,"Denver Intl, CO, US",2025-09-09T19:53:00Z,2025-09-09T15:53:00Z,VFR,28.9,2.2,VAR,4,0,NA,1017.7,METAR KDEN 091953Z VRB04KT 10SM SCT100 SCT140 BKN220 29/02 A3005 RMK AO2 SLP093 VIRGA SW T02890022,2025-09-09T20:10:18Z,2025-09-09T16:10:18Z
KDFW,"Dallas-Ft Worth Intl, TX, US",2025-09-09T14:53:00Z,2025-09-09T10:53:00Z,VFR,22.8,11.7,160,7,0,NA,1018.7,METAR KDFW 091453Z 16007KT 10SM CLR 23/12 A3008 RMK AO2 SLP178 T02280117 51013 $,2025-09-09T15:51:30Z,2025-09-09T11:51:30Z
KDFW,"Dallas-Ft Worth Intl, TX, US",2025-09-09T15:53:00Z,2025-09-09T11:53:00Z,VFR,24.4,12.2,170,8,0,NA,1018.7,METAR KDFW 091553Z 17008KT 10SM CLR 24/12 A3008 RMK AO2 SLP177 T02440122 $,2025-09-09T16:06:03Z,2025-09-09T12:06:03Z
KDFW,"Dallas-Ft Worth Intl, TX, US",2025-09-09T16:53:00Z,2025-09-09T12:53:00Z,VFR,26.1,13.3,170,7,0,NA,1018,METAR KDFW 091653Z 17007KT 10SM CLR 26/13 A3006 RMK AO2 SLP173 T02610133 $,2025-09-09T17:12:54Z,2025-09-09T13:12:54Z
KDFW,"Dallas-Ft Worth Intl, TX, US",2025-09-09T17:53:00Z,2025-09-09T13:53:00Z,VFR,27.2,13.3,VAR,3,0,NA,1017.7,METAR KDFW 091753Z VRB03KT 10SM CLR 27/13 A3005 RMK AO2 SLP167 T02720133 10278 20178 58011 $,2025-09-09T18:09:21Z,2025-09-09T14:09:21Z
KDFW,"Dallas-Ft Worth Intl, TX, US",2025-09-09T18:53:00Z,2025-09-09T14:53:00Z,VFR,28.9,13.9,VAR,5,0,NA,1016.7,METAR KDFW 091853Z VRB05KT 10SM CLR 29/14 A3002 RMK AO2 SLP159 T02890139 $,2025-09-09T19:00:57Z,2025-09-09T15:00:57Z
KDFW,"Dallas-Ft Worth Intl, TX, US",2025-09-09T19:53:00Z,2025-09-09T15:53:00Z,VFR,29.4,13.3,VAR,3,0,NA,1016,METAR KDFW 091953Z VRB03KT 10SM FEW250 29/13 A3000 RMK AO2 SLP152 T02940133 $,2025-09-09T20:10:18Z,2025-09-09T16:10:18Z
KDSM,"Des Moines Intl, IA, US",2025-09-09T14:54:00Z,2025-09-09T10:54:00Z,VFR,16.1,8.9,180,8,0,NA,1017.4,METAR KDSM 091454Z 18008KT 10SM FEW070 SCT100 BKN190 OVC250 16/09 A3004 RMK AO2 SLP170 T01610089 56005,2025-09-09T15:51:29Z,2025-09-09T11:51:29Z
KDSM,"Des Moines Intl, IA, US",2025-09-09T15:54:00Z,2025-09-09T11:54:00Z,VFR,17.2,9.4,190,6,0,NA,1018,METAR KDSM 091554Z 19006KT 10SM FEW070 FEW110 SCT190 OVC210 17/09 A3006 RMK AO2 SLP175 T01720094,2025-09-09T16:06:01Z,2025-09-09T12:06:01Z
KDSM,"Des Moines Intl, IA, US",2025-09-09T16:54:00Z,2025-09-09T12:54:00Z,VFR,18.3,10.6,VAR,6,0,NA,1018.7,METAR KDSM 091654Z VRB06KT 10SM FEW080 FEW110 SCT150 BKN210 OVC250 18/11 A3008 RMK AO2 SLP181 PRESENT WX VCSH T01830106,2025-09-09T17:12:51Z,2025-09-09T13:12:51Z
KDSM,"Des Moines Intl, IA, US",2025-09-09T17:54:00Z,2025-09-09T13:54:00Z,VFR,19.4,12.2,VAR,5,0,NA,1018,METAR KDSM 091754Z VRB05KT 10SM FEW075 SCT100 BKN150 BKN200 19/12 A3006 RMK AO2 SLP175 T01940122 10194 20144 50005,2025-09-09T18:09:20Z,2025-09-09T14:09:20Z
KDSM,"Des Moines Intl, IA, US",2025-09-09T18:54:00Z,2025-09-09T14:54:00Z,VFR,20.6,12.2,160,7,15,NA,1017.4,METAR KDSM 091854Z 16007G15KT 10SM FEW110 BKN150 BKN200 21/12 A3004 RMK AO2 SLP168 T02060122,2025-09-09T19:00:56Z,2025-09-09T15:00:56Z
KDSM,"Des Moines Intl, IA, US",2025-09-09T19:54:00Z,2025-09-09T15:54:00Z,VFR,22.8,13.3,150,6,0,NA,1016.7,METAR KDSM 091954Z 15006KT 10SM FEW035 BKN130 BKN200 23/13 A3002 RMK AO2 SLP161 T02280133,2025-09-09T20:10:15Z,2025-09-09T16:10:15Z
KDTW,"Detroit/Metro Wayne Cnty, MI, US",2025-09-09T14:53:00Z,2025-09-09T10:53:00Z,VFR,20,9.4,190,7,0,NA,1024.8,METAR KDTW 091453Z 19007KT 10SM SCT250 20/09 A3026 RMK AO2 SLP245 T02000094 50000 $,2025-09-09T15:51:29Z,2025-09-09T11:51:29Z
KDTW,"Detroit/Metro Wayne Cnty, MI, US",2025-09-09T15:53:00Z,2025-09-09T11:53:00Z,VFR,21.7,7.2,190,7,0,NA,1024.5,METAR KDTW 091553Z 19007KT 10SM SCT250 22/07 A3025 RMK AO2 SLP243 T02170072 $,2025-09-09T16:06:01Z,2025-09-09T12:06:01Z
KDTW,"Detroit/Metro Wayne Cnty, MI, US",2025-09-09T16:53:00Z,2025-09-09T12:53:00Z,VFR,22.2,7.2,210,8,0,NA,1024.1,METAR KDTW 091653Z 21008KT 10SM FEW060 FEW250 22/07 A3024 RMK AO2 SLP239 T02220072 $,2025-09-09T17:12:51Z,2025-09-09T13:12:51Z
KDTW,"Detroit/Metro Wayne Cnty, MI, US",2025-09-09T17:53:00Z,2025-09-09T13:53:00Z,VFR,22.8,6.1,0,0,0,NA,1023.5,METAR KDTW 091753Z 00000KT 10SM FEW065 FEW250 23/06 A3022 RMK AO2 SLP233 T02280061 10233 20106 58012 $,2025-09-09T18:09:20Z,2025-09-09T14:09:20Z
KDTW,"Detroit/Metro Wayne Cnty, MI, US",2025-09-09T18:53:00Z,2025-09-09T14:53:00Z,VFR,23.3,6.1,VAR,4,0,NA,1022.8,METAR KDTW 091853Z VRB04KT 10SM SCT250 23/06 A3020 RMK AO2 SLP227 T02330061 $,2025-09-09T19:00:56Z,2025-09-09T15:00:56Z
KDTW,"Detroit/Metro Wayne Cnty, MI, US",2025-09-09T19:53:00Z,2025-09-09T15:53:00Z,VFR,23.3,6.1,130,7,0,NA,1022.1,METAR KDTW 091953Z 13007KT 10SM BKN250 23/06 A3018 RMK AO2 SLP219 T02330061 $,2025-09-09T20:10:15Z,2025-09-09T16:10:15Z
KEGE,"Eagle Cnty Rgnl, CO, US",2025-09-09T14:56:00Z,2025-09-09T10:56:00Z,VFR,11.1,2.8,0,0,0,NA,1025.8,METAR KEGE 091456Z 00000KT 10SM CLR 11/03 A3029 RMK AO2 SLP196 60000 T01110028 51003 $,2025-09-09T15:51:30Z,2025-09-09T11:51:30Z
KEGE,"Eagle Cnty Rgnl, CO, US",2025-09-09T15:56:00Z,2025-09-09T11:56:00Z,VFR,13.9,2.2,VAR,3,0,NA,1025.5,METAR KEGE 091556Z VRB03KT 10SM SCT100 14/02 A3028 RMK AO2 LTG DSNT W SLP188 T01390022 $,2025-09-09T16:06:03Z,2025-09-09T12:06:03Z
KEGE,"Eagle Cnty Rgnl, CO, US",2025-09-09T16:56:00Z,2025-09-09T12:56:00Z,VFR,17.2,2.2,200,4,0,NA,1025.1,METAR KEGE 091656Z 20004KT 10SM CLR 17/02 A3027 RMK AO2 SLP180 T01720022 $,2025-09-09T17:12:54Z,2025-09-09T13:12:54Z
KEGE,"Eagle Cnty Rgnl, CO, US",2025-09-09T17:56:00Z,2025-09-09T13:56:00Z,VFR,21.1,2.8,230,4,0,NA,1023.5,METAR KEGE 091756Z 23004KT 10SM CLR 21/03 A3022 RMK AO2 LTG DSNT N SLP161 60000 T02110028 10211 20083 58020 $,2025-09-09T18:09:21Z,2025-09-09T14:09:21Z
KEGE,"Eagle Cnty Rgnl, CO, US",2025-09-09T18:56:00Z,2025-09-09T14:56:00Z,VFR,23.3,3.3,320,3,0,NA,1022.1,METAR KEGE 091856Z 32003KT 10SM CLR 23/03 A3018 RMK AO2 LTG DSNT SW SLP144 T02330033 $,2025-09-09T19:00:57Z,2025-09-09T15:00:57Z
KEGE,"Eagle Cnty Rgnl, CO, US",2025-09-09T19:56:00Z,2025-09-09T15:56:00Z,VFR,24.4,6.1,290,12,16,NA,1021.4,METAR KEGE 091956Z 29012G16KT 10SM VCTS -RA CLR 24/06 A3016 RMK AO2 LTG DSNT SE AND S TSB55RAB45 SLP137 P0000 T02440061 $,2025-09-09T20:10:18Z,2025-09-09T16:10:18Z
KEGE,"Eagle Cnty Rgnl, CO, US",2025-09-09T20:21:00Z,2025-09-09T16:21:00Z,VFR,25,2,290,4,0,NA,1021.1,SPECI KEGE 092021Z 29004KT 10SM CLR 25/02 A3015 RMK AO2 LTG DSNT N AND SE AND S TSE10RAE03 P0000 $,2025-09-09T20:31:19Z,2025-09-09T16:31:19Z
KELP,"El Paso Intl, TX, US",2025-09-09T14:51:00Z,2025-09-09T10:51:00Z,VFR,25.6,13.3,150,8,0,NA,1018.7,METAR KELP 091451Z 15008KT 10SM SCT110 26/13 A3008 RMK AO2 SLP108 T02560133 51007,2025-09-09T15:51:30Z,2025-09-09T11:51:30Z
KELP,"El Paso Intl, TX, US",2025-09-09T15:51:00Z,2025-09-09T11:51:00Z,VFR,28.3,12.8,170,8,0,NA,1019,METAR KELP 091551Z 17008KT 10SM FEW110 FEW160 28/13 A3009 RMK AO2 SLP109 T02830128,2025-09-09T16:06:03Z,2025-09-09T12:06:03Z
KELP,"El Paso Intl, TX, US",2025-09-09T16:51:00Z,2025-09-09T12:51:00Z,VFR,30,12.8,180,6,0,NA,1019,METAR KELP 091651Z 18006KT 10SM FEW065 FEW110 30/13 A3009 RMK AO2 SLP107 T03000128,2025-09-09T16:54:04Z,2025-09-09T12:54:04Z
KELP,"El Paso Intl, TX, US",2025-09-09T17:51:00Z,2025-09-09T13:51:00Z,VFR,32.8,12.2,210,6,0,NA,1018.4,METAR KELP 091751Z 21006KT 10SM FEW075 33/12 A3007 RMK AO2 SLP102 CB DSNT NE T03280122 10328 20228 58004,2025-09-09T18:09:22Z,2025-09-09T14:09:22Z
KELP,"El Paso Intl, TX, US",2025-09-09T18:51:00Z,2025-09-09T14:51:00Z,VFR,33.9,11.7,VAR,4,0,NA,1017.7,METAR KELP 091851Z VRB04KT 10SM FEW085 34/12 A3005 RMK AO2 SLP090 CB DSNT NE T03390117,2025-09-09T19:00:57Z,2025-09-09T15:00:57Z
KELP,"El Paso Intl, TX, US",2025-09-09T19:51:00Z,2025-09-09T15:51:00Z,VFR,36.1,8.3,0,0,0,NA,1016.7,METAR KELP 091951Z 00000KT 10SM SCT100 36/08 A3002 RMK AO2 SLP080 CB DSNT NE E AND NW T03610083,2025-09-09T20:10:18Z,2025-09-09T16:10:18Z
KELP,"El Paso Intl, TX, US",2025-09-09T20:51:00Z,2025-09-09T16:51:00Z,VFR,36.1,6.7,VAR,6,0,NA,1016,METAR KELP 092051Z VRB06KT 10SM SCT110 36/07 A3000 RMK AO2 SLP074 CB DSNT NE AND E T03610067 56022,2025-09-09T20:54:01Z,2025-09-09T16:54:01Z
KEUG,"Eugene/Mahlon Sweet Fld, OR, US",2025-09-09T14:54:00Z,2025-09-09T10:54:00Z,VFR,16.7,13.9,190,6,0,NA,1014.3,METAR KEUG 091454Z 19006KT 10SM BKN047 BKN065 OVC100 17/14 A2995 RMK AO2 SLP139 T01670139 53001,2025-09-09T15:51:30Z,2025-09-09T11:51:30Z
KEUG,"Eugene/Mahlon Sweet Fld, OR, US",2025-09-09T15:54:00Z,2025-09-09T11:54:00Z,VFR,17.8,14.4,170,3,0,NA,1014.3,METAR KEUG 091554Z 17003KT 10SM BKN031 BKN045 OVC080 18/14 A2995 RMK AO2 SLP140 T01780144,2025-09-09T16:06:03Z,2025-09-09T12:06:03Z
KEUG,"Eugene/Mahlon Sweet Fld, OR, US",2025-09-09T16:54:00Z,2025-09-09T12:54:00Z,VFR,18.3,14.4,160,4,0,NA,1014.3,METAR KEUG 091654Z 16004KT 10SM BKN033 BKN042 OVC080 18/14 A2995 RMK AO2 SLP140 T01830144,2025-09-09T17:12:54Z,2025-09-09T13:12:54Z
KEUG,"Eugene/Mahlon Sweet Fld, OR, US",2025-09-09T17:54:00Z,2025-09-09T13:54:00Z,VFR,18.3,15,160,4,0,NA,1014.6,METAR KEUG 091754Z 16004KT 10SM FEW014 BKN034 OVC045 18/15 A2996 RMK AO2 SLP143 T01830150 10189 20161 53004,2025-09-09T18:09:21Z,2025-09-09T14:09:21Z
KEUG,"Eugene/Mahlon Sweet Fld, OR, US",2025-09-09T18:54:00Z,2025-09-09T14:54:00Z,VFR,18.9,14.4,VAR,3,0,NA,1014.3,METAR KEUG 091854Z VRB03KT 10SM FEW014 SCT035 OVC047 19/14 A2995 RMK AO2 SLP142 T01890144,2025-09-09T19:00:57Z,2025-09-09T15:00:57Z
KEUG,"Eugene/Mahlon Sweet Fld, OR, US",2025-09-09T19:54:00Z,2025-09-09T15:54:00Z,MVFR,20.6,15,VAR,4,0,NA,1014.3,METAR KEUG 091954Z VRB04KT 10SM BKN018 BKN036 BKN070 21/15 A2995 RMK AO2 SLP139 T02060150,2025-09-09T20:10:18Z,2025-09-09T16:10:18Z
KEWR,"Newark Intl, NJ, US",2025-09-09T14:51:00Z,2025-09-09T10:51:00Z,VFR,21.1,7.8,70,10,18,NA,1027.2,METAR KEWR 091451Z 07010G18KT 10SM SCT038 SCT250 21/08 A3033 RMK AO2 SLP271 T02110078 53002 $,2025-09-09T15:51:27Z,2025-09-09T11:51:27Z
KEWR,"Newark Intl, NJ, US",2025-09-09T15:51:00Z,2025-09-09T11:51:00Z,VFR,21.7,10,80,5,15,NA,1027.2,METAR KEWR 091551Z 08005G15KT 10SM SCT040 SCT250 22/10 A3033 RMK AO2 SLP269 T02170100 $,2025-09-09T16:06:00Z,2025-09-09T12:06:00Z
KEWR,"Newark Intl, NJ, US",2025-09-09T16:51:00Z,2025-09-09T12:51:00Z,VFR,22.8,10,VAR,5,0,NA,1026.8,METAR KEWR 091651Z VRB05KT 10SM FEW040 SCT250 23/10 A3032 RMK AO2 SLP265 T02280100 $,2025-09-09T16:54:01Z,2025-09-09T12:54:01Z
KEWR,"Newark Intl, NJ, US",2025-09-09T17:51:00Z,2025-09-09T13:51:00Z,VFR,23.3,10,50,5,0,NA,1026.2,METAR KEWR 091751Z 05005KT 10SM FEW045 BKN250 23/10 A3030 RMK AO2 SLP261 T02330100 10233 20156 58010 $,2025-09-09T18:09:19Z,2025-09-09T14:09:19Z
KEWR,"Newark Intl, NJ, US",2025-09-09T18:51:00Z,2025-09-09T14:51:00Z,VFR,23.3,10.6,100,7,0,NA,1025.8,METAR KEWR 091851Z 10007KT 10SM SCT048 BKN250 23/11 A3029 RMK AO2 SLP255 T02330106 $,2025-09-09T19:00:54Z,2025-09-09T15:00:54Z
KEWR,"Newark Intl, NJ, US",2025-09-09T19:51:00Z,2025-09-09T15:51:00Z,VFR,22.8,11.7,120,8,16,NA,1025.8,METAR KEWR 091951Z 12008G16KT 090V160 10SM SCT043 SCT050 BKN250 23/12 A3029 RMK AO2 SLP255 T02280117 $,2025-09-09T20:10:13Z,2025-09-09T16:10:13Z
KEWR,"Newark Intl, NJ, US",2025-09-09T20:51:00Z,2025-09-09T16:51:00Z,VFR,22.8,11.7,120,7,15,NA,1025.5,METAR KEWR 092051Z 12007G15KT 10SM FEW042 SCT050 BKN250 23/12 A3028 RMK AO2 SLP251 T02280117 56009 $,2025-09-09T20:53:58Z,2025-09-09T16:53:58Z
KEYW,"Key West Intl, FL, US",2025-09-09T15:42:00Z,2025-09-09T11:42:00Z,VFR,30.6,26.1,210,9,0,NA,1014.6,SPECI KEYW 091542Z 21009KT 10SM FEW002 SCT027 31/26 A2996 RMK AO2 T03060261,2025-09-09T15:51:29Z,2025-09-09T11:51:29Z
KEYW,"Key West Intl, FL, US",2025-09-09T15:53:00Z,2025-09-09T11:53:00Z,VFR,30.6,25.6,210,9,0,NA,1014.6,METAR KEYW 091553Z 21009KT 10SM FEW002 FEW026 31/26 A2996 RMK AO2 SLP151 T03060256,2025-09-09T16:06:02Z,2025-09-09T12:06:02Z
KEYW,"Key West Intl, FL, US",2025-09-09T16:53:00Z,2025-09-09T12:53:00Z,VFR,31.1,26.1,200,9,0,NA,1014.6,METAR KEYW 091653Z 20009KT 10SM SCT025 31/26 A2996 RMK AO2 SLP151 T03110261,2025-09-09T17:12:51Z,2025-09-09T13:12:51Z
KEYW,"Key West Intl, FL, US",2025-09-09T17:53:00Z,2025-09-09T13:53:00Z,VFR,31.1,26.7,190,10,0,NA,1013.6,METAR KEYW 091753Z 19010KT 10SM SCT024 31/27 A2993 RMK AO2 SLP140 T03110267 10311 20289 58011,2025-09-09T18:09:20Z,2025-09-09T14:09:20Z
KEYW,"Key West Intl, FL, US",2025-09-09T18:53:00Z,2025-09-09T14:53:00Z,VFR,30.6,26.1,210,10,0,NA,1013.3,METAR KEYW 091853Z 21010KT 10SM SCT023 31/26 A2992 RMK AO2 SLP138 T03060261,2025-09-09T19:00:56Z,2025-09-09T15:00:56Z
KEYW,"Key West Intl, FL, US",2025-09-09T19:53:00Z,2025-09-09T15:53:00Z,VFR,31.1,26.1,220,8,0,NA,1013,METAR KEYW 091953Z 22008KT 10SM SCT024 31/26 A2991 RMK AO2 SLP132 T03110261,2025-09-09T20:10:15Z,2025-09-09T16:10:15Z
KFLL,"Ft Lauderdale-Hollywood Intl, FL, US",2025-09-09T15:47:00Z,2025-09-09T11:47:00Z,VFR,30,24,0,0,0,NA,1014.6,SPECI KFLL 091547Z 00000KT 10SM TS SCT025CB BKN080 BKN250 30/24 A2996 RMK AO2 TSB47 OCNL LTGICCG SW-NW TS SW-NW MOV NE TCU NE-E,2025-09-09T15:51:29Z,2025-09-09T11:51:29Z
KFLL,"Ft Lauderdale-Hollywood Intl, FL, US",2025-09-09T15:53:00Z,2025-09-09T11:53:00Z,VFR,29.4,23.9,280,13,18,NA,1014.6,METAR KFLL 091553Z 28013G18KT 10SM TS SCT025CB BKN080 BKN250 29/24 A2996 RMK AO2 TSB47 SLP143 OCNL LTGICCG SW-NW TS SW-NW MOV NE TCU NE-E T02940239,2025-09-09T16:06:02Z,2025-09-09T12:06:02Z
KFLL,"Ft Lauderdale-Hollywood Intl, FL, US",2025-09-09T16:53:00Z,2025-09-09T12:53:00Z,VFR,26.7,23.9,60,7,0,NA,1014.6,METAR KFLL 091653Z 06007KT 10SM -TSRA SCT025CB BKN045 BKN065 BKN250 27/24 A2996 RMK AO2 RAB37 SLP144 OCNL LTGICCG N-E AND SW-W MOV NE P0001 T02670239,2025-09-09T17:12:51Z,2025-09-09T13:12:51Z
KFLL,"Ft Lauderdale-Hollywood Intl, FL, US",2025-09-09T17:53:00Z,2025-09-09T13:53:00Z,VFR,26.1,23.9,150,8,0,NA,1014.3,METAR KFLL 091753Z 15008KT 10SM -TSRA FEW025CB SCT050 OVC080 26/24 A2995 RMK AO2 RAE1659B42 SLP142 OCNL LTGICCG OHD-S-W TS OHD-S-W MOV NE P0000 60001 T02610239 10306 20256 58002,2025-09-09T18:09:20Z,2025-09-09T14:09:20Z
KFLL,"Ft Lauderdale-Hollywood Intl, FL, US",2025-09-09T18:53:00Z,2025-09-09T14:53:00Z,VFR,25.6,23.9,VAR,5,0,NA,1014,METAR KFLL 091853Z VRB05KT 10SM TS FEW025CB SCT055 BKN075 26/24 A2994 RMK AO2 RAE49 SLP137 OCNL LTGICCG W-N TS W-N MOV NE CB E-SE MOV NE P0003 T02560239,2025-09-09T19:00:56Z,2025-09-09T15:00:56Z
KFLL,"Ft Lauderdale-Hollywood Intl, FL, US",2025-09-09T19:20:00Z,2025-09-09T15:20:00Z,VFR,25.6,23.9,220,3,0,NA,1013.6,SPECI KFLL 091920Z 22003KT 10SM -RA FEW025 SCT075 BKN110 BKN220 26/24 A2993 RMK AO2 RAB1859 TSE19 OCNL LTGICCG DSNT E-SE CB DSNT E-SE MOV NE P0002 T02560239,2025-09-09T19:30:40Z,2025-09-09T15:30:40Z
KFLL,"Ft Lauderdale-Hollywood Intl, FL, US",2025-09-09T19:53:00Z,2025-09-09T15:53:00Z,VFR,25.6,23.9,70,4,0,NA,1013.3,METAR KFLL 091953Z 07004KT 10SM -RA FEW025 FEW065 BKN110 BKN220 26/24 A2992 RMK AO2 RAB1859 TSE19 SLP129 CB DSNT E AND SE MOV NE P0004 T02560239,2025-09-09T20:10:15Z,2025-09-09T16:10:15Z
KFSD,"Sioux Falls/Foss Fld, SD, US",2025-09-09T15:41:00Z,2025-09-09T11:41:00Z,IFR,17.2,16.1,180,4,0,NA,1015.3,SPECI KFSD 091541Z 18004KT 10SM OVC007 17/16 A2998 RMK AO2 RAB18E36 TSE40 P0003 T01720161,2025-09-09T15:51:29Z,2025-09-09T11:51:29Z
KFSD,"Sioux Falls/Foss Fld, SD, US",2025-09-09T15:56:00Z,2025-09-09T11:56:00Z,IFR,17.2,15.6,170,3,0,NA,1016,METAR KFSD 091556Z 17003KT 10SM OVC009 17/16 A3000 RMK AO2 RAB18E36 TSE40 SLP154 P0003 T01720156,2025-09-09T16:06:01Z,2025-09-09T12:06:01Z
KFSD,"Sioux Falls/Foss Fld, SD, US",2025-09-09T16:29:00Z,2025-09-09T12:29:00Z,MVFR,17.8,16.7,200,4,0,NA,1015.7,SPECI KFSD 091629Z 20004KT 10SM -RA SCT009 BKN030 BKN110 18/17 A2999 RMK AO2 RAB14 P0001 T01780167,2025-09-09T16:36:27Z,2025-09-09T12:36:27Z
KFSD,"Sioux Falls/Foss Fld, SD, US",2025-09-09T16:56:00Z,2025-09-09T12:56:00Z,IFR,18.3,16.7,160,6,0,NA,1015.3,METAR KFSD 091656Z 16006KT 10SM BKN009 BKN110 BKN250 18/17 A2998 RMK AO2 RAB14E54 SLP150 ACC OHD P0002 T01830167,2025-09-09T17:12:51Z,2025-09-09T13:12:51Z
KFSD,"Sioux Falls/Foss Fld, SD, US",2025-09-09T17:15:00Z,2025-09-09T13:15:00Z,MVFR,18.9,16.7,190,11,0,NA,1015.3,SPECI KFSD 091715Z 19011KT 10SM BKN011 19/17 A2998 RMK AO2 T01890167,2025-09-09T17:30:35Z,2025-09-09T13:30:35Z
KFSD,"Sioux Falls/Foss Fld, SD, US",2025-09-09T17:56:00Z,2025-09-09T13:56:00Z,MVFR,18.9,16.7,210,5,0,NA,1015.3,METAR KFSD 091756Z 21005KT 10SM BKN012 BKN150 19/17 A2998 RMK AO2 SLP150 60005 T01890167 10194 20161 58001,2025-09-09T18:09:20Z,2025-09-09T14:09:20Z
KFSD,"Sioux Falls/Foss Fld, SD, US",2025-09-09T18:56:00Z,2025-09-09T14:56:00Z,MVFR,21.1,16.7,VAR,NA,0,NA,1015,METAR KFSD 091856Z 10SM BKN017 BKN090 21/17 A2997 RMK AO2 SLP145 T02110167,2025-09-09T19:00:56Z,2025-09-09T15:00:56Z
KFSD,"Sioux Falls/Foss Fld, SD, US",2025-09-09T18:56:00Z,2025-09-09T14:56:00Z,MVFR,21.1,16.7,160,8,0,NA,1015,METAR KFSD 091856Z COR 16008KT 10SM BKN017 BKN090 21/17 A2997 RMK AO2 SLP145 T02110167,2025-09-09T19:20:54Z,2025-09-09T15:20:54Z
KFSD,"Sioux Falls/Foss Fld, SD, US",2025-09-09T19:56:00Z,2025-09-09T15:56:00Z,MVFR,22.2,17.2,VAR,6,0,NA,1014.6,METAR KFSD 091956Z VRB06KT 10SM BKN019 BKN090 22/17 A2996 RMK AO2 SLP141 T02220172,2025-09-09T20:10:15Z,2025-09-09T16:10:15Z
KFSD,"Sioux Falls/Foss Fld, SD, US",2025-09-09T20:11:00Z,2025-09-09T16:11:00Z,VFR,23.3,17.2,VAR,5,0,NA,1014.6,SPECI KFSD 092011Z VRB05KT 10SM SCT019 BKN090 23/17 A2996 RMK AO2 T02330172,2025-09-09T20:31:18Z,2025-09-09T16:31:18Z
KFWA,"Fort Wayne Intl, IN, US",2025-09-09T14:54:00Z,2025-09-09T10:54:00Z,VFR,19.4,9.4,160,7,0,NA,1024.1,METAR KFWA 091454Z 16007KT 10SM SCT250 19/09 A3024 RMK AO2 SLP240 T01940094 52002,2025-09-09T15:51:29Z,2025-09-09T11:51:29Z
KFWA,"Fort Wayne Intl, IN, US",2025-09-09T15:54:00Z,2025-09-09T11:54:00Z,VFR,22.2,8.3,200,9,0,NA,1023.8,METAR KFWA 091554Z 20009KT 10SM SCT250 22/08 A3023 RMK AO2 SLP237 T02220083,2025-09-09T16:06:01Z,2025-09-09T12:06:01Z
KFWA,"Fort Wayne Intl, IN, US",2025-09-09T16:54:00Z,2025-09-09T12:54:00Z,VFR,23.3,7.2,220,7,0,NA,1023.5,METAR KFWA 091654Z 22007KT 10SM BKN250 23/07 A3022 RMK AO2 SLP232 T02330072,2025-09-09T17:12:51Z,2025-09-09T13:12:51Z
KFWA,"Fort Wayne Intl, IN, US",2025-09-09T17:54:00Z,2025-09-09T13:54:00Z,VFR,23.9,7.2,150,8,0,NA,1022.8,METAR KFWA 091754Z 15008KT 10SM BKN250 24/07 A3020 RMK AO2 SLP226 T02390072 10239 20072 58013,2025-09-09T18:09:20Z,2025-09-09T14:09:20Z
KFWA,"Fort Wayne Intl, IN, US",2025-09-09T18:54:00Z,2025-09-09T14:54:00Z,VFR,23.9,6.7,0,0,0,NA,1021.8,METAR KFWA 091854Z 00000KT 10SM BKN250 24/07 A3017 RMK AO2 SLP215 T02390067,2025-09-09T19:00:56Z,2025-09-09T15:00:56Z
KFWA,"Fort Wayne Intl, IN, US",2025-09-09T19:54:00Z,2025-09-09T15:54:00Z,VFR,23.9,7.2,230,4,0,NA,1021.1,METAR KFWA 091954Z 23004KT 10SM BKN250 24/07 A3015 RMK AO2 SLP209 T02390072,2025-09-09T20:10:15Z,2025-09-09T16:10:15Z
KGEG,"Spokane Intl, WA, US",2025-09-09T14:53:00Z,2025-09-09T10:53:00Z,VFR,17.2,11.1,300,8,0,NA,1013.6,METAR KGEG 091453Z 30008KT 10SM FEW085 FEW120 FEW300 17/11 A2993 RMK AO2 SLP119 OCNL LTGCGICCC DSNT N-NE CB DSNT N-NE MOV N SHRA DSNT N-NE 60002 T01720111 53005 $,2025-09-09T15:51:30Z,2025-09-09T11:51:30Z
KGEG,"Spokane Intl, WA, US",2025-09-09T15:53:00Z,2025-09-09T11:53:00Z,VFR,20,10.6,10,4,0,NA,1013.6,METAR KGEG 091553Z 01004KT 10SM FEW120 FEW150 FEW300 20/11 A2993 RMK AO2 SLP121 OCNL LTGCGICCC DSNT N-NE CB DSNT N-NE AND NW MOV N SHRA DSNT N-NE T02000106 $,2025-09-09T16:06:03Z,2025-09-09T12:06:03Z
KGEG,"Spokane Intl, WA, US",2025-09-09T16:53:00Z,2025-09-09T12:53:00Z,VFR,21.7,10,40,6,0,NA,1013.6,METAR KGEG 091653Z 04006KT 10SM FEW120 FEW150 FEW300 22/10 A2993 RMK AO2 SLP118 CB DSNT N-NE AND NW MOV N T02170100 $,2025-09-09T17:12:54Z,2025-09-09T13:12:54Z
KGEG,"Spokane Intl, WA, US",2025-09-09T17:53:00Z,2025-09-09T13:53:00Z,VFR,23.9,8.9,310,5,0,NA,1013.3,METAR KGEG 091753Z 31005KT 10SM FEW110 FEW160 FEW200 24/09 A2992 RMK AO2 SLP115 60002 T02390089 10244 20167 58002 $,2025-09-09T18:09:22Z,2025-09-09T14:09:22Z
KGEG,"Spokane Intl, WA, US",2025-09-09T18:53:00Z,2025-09-09T14:53:00Z,VFR,25.6,7.2,340,8,0,NA,1012.6,METAR KGEG 091853Z 34008KT 10SM FEW110 FEW150 FEW250 26/07 A2990 RMK AO2 SLP107 T02560072 $,2025-09-09T19:00:57Z,2025-09-09T15:00:57Z
KGEG,"Spokane Intl, WA, US",2025-09-09T19:53:00Z,2025-09-09T15:53:00Z,VFR,26.7,7.2,0,0,0,9,1012.3,METAR KGEG 091953Z 00000KT 9SM FEW090 SCT140 SCT200 27/07 A2989 RMK AO2 SLP102 T02670072 $,2025-09-09T20:10:18Z,2025-09-09T16:10:18Z
KGJT,"Grand Junction Rgnl, CO, US",2025-09-09T14:53:00Z,2025-09-09T10:53:00Z,VFR,22.2,5.6,100,10,0,NA,1019,METAR KGJT 091453Z 10010KT 10SM FEW110 22/06 A3009 RMK AO2 SLP119 T02220056 51004,2025-09-09T15:51:30Z,2025-09-09T11:51:30Z
KGJT,"Grand Junction Rgnl, CO, US",2025-09-09T15:53:00Z,2025-09-09T11:53:00Z,VFR,23.9,3.9,120,11,0,NA,1018.7,METAR KGJT 091553Z 12011KT 10SM CLR 24/04 A3008 RMK AO2 SLP115 T02390039,2025-09-09T16:06:03Z,2025-09-09T12:06:03Z
KGJT,"Grand Junction Rgnl, CO, US",2025-09-09T16:53:00Z,2025-09-09T12:53:00Z,VFR,25.6,3.9,130,9,0,NA,1017.7,METAR KGJT 091653Z 13009KT 10SM CLR 26/04 A3005 RMK AO2 SLP107 T02560039,2025-09-09T17:12:54Z,2025-09-09T13:12:54Z
KGJT,"Grand Junction Rgnl, CO, US",2025-09-09T17:27:00Z,2025-09-09T13:27:00Z,VFR,23.9,7.2,250,11,0,9,1018,SPECI KGJT 091727Z 25011KT 9SM -TSRA FEW070 SCT100 BKN120 24/07 A3006 RMK AO2 RAB22 TSB21 P0000 T02390072,2025-09-09T17:30:38Z,2025-09-09T13:30:38Z
KGJT,"Grand Junction Rgnl, CO, US",2025-09-09T17:45:00Z,2025-09-09T13:45:00Z,MVFR,17.8,10,90,15,0,3,1018,SPECI KGJT 091745Z 09015KT 3SM GR FEW046 SCT065 OVC110 18/10 A3006 RMK AO2 RAB22E42GRB42 TSB21E44 P0012 T01780100,2025-09-09T17:52:16Z,2025-09-09T13:52:16Z
KGJT,"Grand Junction Rgnl, CO, US",2025-09-09T17:53:00Z,2025-09-09T13:53:00Z,VFR,21.7,10.6,50,8,0,6,1018,METAR KGJT 091753Z 05008KT 6SM TSGR FEW038 SCT049 BKN100 22/11 A3006 RMK AO2 RAB22E42GRB42 TSB21E44B51 SLP114 P0016 60016 T02170106 10261 20150 55008,2025-09-09T18:09:22Z,2025-09-09T14:09:22Z
KGJT,"Grand Junction Rgnl, CO, US",2025-09-09T18:12:00Z,2025-09-09T14:12:00Z,VFR,22.2,13.3,40,9,0,NA,1017.7,SPECI KGJT 091812Z 04009KT 10SM GR FEW033 FEW060 SCT110 22/13 A3005 RMK AO2 TSE06 P0000 T02220133,2025-09-09T18:38:59Z,2025-09-09T14:38:59Z
KGJT,"Grand Junction Rgnl, CO, US",2025-09-09T18:53:00Z,2025-09-09T14:53:00Z,VFR,26.7,7.8,0,0,0,NA,1017,METAR KGJT 091853Z 00000KT 10SM GR SCT110 27/08 A3003 RMK AO2 TSE06 SLP095 P0000 T02670078,2025-09-09T19:00:57Z,2025-09-09T15:00:57Z
KGJT,"Grand Junction Rgnl, CO, US",2025-09-09T19:30:00Z,2025-09-09T15:30:00Z,VFR,26.7,13.3,VAR,3,0,9,1016.7,SPECI KGJT 091930Z VRB03KT 9SM GR FEW002 FEW110 27/13 A3002 RMK AO2 P0000 T02670133,2025-09-09T19:41:16Z,2025-09-09T15:41:16Z
KGJT,"Grand Junction Rgnl, CO, US",2025-09-09T19:53:00Z,2025-09-09T15:53:00Z,VFR,27.8,11.7,0,0,0,NA,1016.3,METAR KGJT 091953Z 00000KT 10SM FEW100 28/12 A3001 RMK AO2 GRE50 SLP091 P0000 T02780117,2025-09-09T20:10:18Z,2025-09-09T16:10:18Z
KGRR,"Grand Rapids Intl, MI, US",2025-09-09T14:53:00Z,2025-09-09T10:53:00Z,VFR,17.8,9.4,200,5,0,NA,1023.5,METAR KGRR 091453Z 20005KT 10SM SCT250 18/09 A3022 RMK AO2 SLP235 T01780094 53001 $,2025-09-09T15:51:29Z,2025-09-09T11:51:29Z
KGRR,"Grand Rapids Intl, MI, US",2025-09-09T15:53:00Z,2025-09-09T11:53:00Z,VFR,19.4,7.8,VAR,5,0,NA,1023.5,METAR KGRR 091553Z VRB05KT 10SM SCT250 19/08 A3022 RMK AO2 SLP233 T01940078,2025-09-09T16:06:02Z,2025-09-09T12:06:02Z
KGRR,"Grand Rapids Intl, MI, US",2025-09-09T16:53:00Z,2025-09-09T12:53:00Z,VFR,21.1,6.1,230,6,15,NA,1023.1,METAR KGRR 091653Z 23006G15KT 10SM FEW055 BKN250 21/06 A3021 RMK AO2 SLP230 T02110061 $,2025-09-09T17:12:51Z,2025-09-09T13:12:51Z
KGRR,"Grand Rapids Intl, MI, US",2025-09-09T17:53:00Z,2025-09-09T13:53:00Z,VFR,22.2,6.1,200,8,0,NA,1022.4,METAR KGRR 091753Z 20008KT 10SM BKN250 22/06 A3019 RMK AO2 SLP225 T02220061 10222 20078 58010,2025-09-09T18:09:20Z,2025-09-09T14:09:20Z
KGRR,"Grand Rapids Intl, MI, US",2025-09-09T18:53:00Z,2025-09-09T14:53:00Z,VFR,21.7,6.7,180,6,0,NA,1021.8,METAR KGRR 091853Z 18006KT 10SM BKN250 22/07 A3017 RMK AO2 SLP218 T02170067,2025-09-09T19:00:56Z,2025-09-09T15:00:56Z
KGRR,"Grand Rapids Intl, MI, US",2025-09-09T19:53:00Z,2025-09-09T15:53:00Z,VFR,22.8,7.2,190,8,0,NA,1021.1,METAR KGRR 091953Z 19008KT 10SM BKN250 23/07 A3015 RMK AO2 SLP211 T02280072,2025-09-09T20:10:15Z,2025-09-09T16:10:15Z
KGSO,"Greensboro Intl, NC, US",2025-09-09T14:54:00Z,2025-09-09T10:54:00Z,VFR,19.4,8.9,20,7,20,NA,1024.5,METAR KGSO 091454Z 02007G20KT 360V060 10SM FEW040 FEW250 19/09 A3025 RMK AO2 SLP239 T01940089 50001,2025-09-09T15:51:29Z,2025-09-09T11:51:29Z
KGSO,"Greensboro Intl, NC, US",2025-09-09T15:54:00Z,2025-09-09T11:54:00Z,VFR,20.6,7.2,60,14,20,NA,1024.1,METAR KGSO 091554Z 06014G20KT 10SM FEW060 FEW250 21/07 A3024 RMK AO2 SLP235 T02060072,2025-09-09T16:06:01Z,2025-09-09T12:06:01Z
KGSO,"Greensboro Intl, NC, US",2025-09-09T16:54:00Z,2025-09-09T12:54:00Z,VFR,21.1,8.3,60,14,19,NA,1023.5,METAR KGSO 091654Z 06014G19KT 10SM FEW060 FEW250 21/08 A3022 RMK AO2 SLP228 T02110083,2025-09-09T17:12:51Z,2025-09-09T13:12:51Z
KGSO,"Greensboro Intl, NC, US",2025-09-09T17:54:00Z,2025-09-09T13:54:00Z,VFR,22.8,7.2,50,12,0,NA,1022.8,METAR KGSO 091754Z 05012KT 10SM FEW250 23/07 A3020 RMK AO2 SLP220 T02280072 10228 20122 58017,2025-09-09T18:09:20Z,2025-09-09T14:09:20Z
KGSO,"Greensboro Intl, NC, US",2025-09-09T18:54:00Z,2025-09-09T14:54:00Z,VFR,22.8,7.2,50,14,19,NA,1022.1,METAR KGSO 091854Z 05014G19KT 10SM FEW250 23/07 A3018 RMK AO2 SLP212 T02280072,2025-09-09T19:00:56Z,2025-09-09T15:00:56Z
KGSO,"Greensboro Intl, NC, US",2025-09-09T19:54:00Z,2025-09-09T15:54:00Z,VFR,22.8,7.8,40,12,17,NA,1021.4,METAR KGSO 091954Z 04012G17KT 10SM FEW060 FEW250 23/08 A3016 RMK AO2 SLP207 T02280078,2025-09-09T20:10:15Z,2025-09-09T16:10:15Z
KGTF,"Great Falls Intl, MT, US",2025-09-09T14:53:00Z,2025-09-09T10:53:00Z,VFR,15.6,5.6,220,4,0,NA,1016,METAR KGTF 091453Z 22004KT 10SM CLR 16/06 A3000 RMK AO2 SLP144 T01560056 53002 $,2025-09-09T15:51:30Z,2025-09-09T11:51:30Z
KGTF,"Great Falls Intl, MT, US",2025-09-09T15:53:00Z,2025-09-09T11:53:00Z,VFR,19.4,5.6,0,0,0,NA,1016,METAR KGTF 091553Z 00000KT 10SM CLR 19/06 A3000 RMK AO2 SLP136 T01940056 $,2025-09-09T16:06:03Z,2025-09-09T12:06:03Z
KGTF,"Great Falls Intl, MT, US",2025-09-09T16:53:00Z,2025-09-09T12:53:00Z,VFR,21.7,6.7,80,4,0,NA,1016,METAR KGTF 091653Z 08004KT 10SM CLR 22/07 A3000 RMK AO2 SLP127 T02170067 $,2025-09-09T17:12:54Z,2025-09-09T13:12:54Z
KGTF,"Great Falls Intl, MT, US",2025-09-09T17:53:00Z,2025-09-09T13:53:00Z,VFR,23.3,6.1,60,5,0,NA,1015.7,METAR KGTF 091753Z 06005KT 10SM SCT110 23/06 A2999 RMK AO2 SLP127 T02330061 10233 20072 58006 $,2025-09-09T18:09:22Z,2025-09-09T14:09:22Z
KGTF,"Great Falls Intl, MT, US",2025-09-09T18:53:00Z,2025-09-09T14:53:00Z,VFR,25,5.6,VAR,4,0,NA,1015,METAR KGTF 091853Z VRB04KT 10SM CLR 25/06 A2997 RMK AO2 SLP123 T02500056 $,2025-09-09T19:00:57Z,2025-09-09T15:00:57Z
KGTF,"Great Falls Intl, MT, US",2025-09-09T19:53:00Z,2025-09-09T15:53:00Z,VFR,26.7,5.6,90,6,0,NA,1014,METAR KGTF 091953Z 09006KT 10SM CLR 27/06 A2994 RMK AO2 LTG DSNT SE AND SW SLP112 T02670056 $,2025-09-09T20:10:18Z,2025-09-09T16:10:18Z
KHLN,"Helena Rgnl, MT, US",2025-09-09T14:53:00Z,2025-09-09T10:53:00Z,VFR,11.7,6.7,10,3,0,NA,1017,METAR KHLN 091453Z 01003KT 10SM CLR 12/07 A3003 RMK AO2 SLP165 T01170067 53003,2025-09-09T15:51:30Z,2025-09-09T11:51:30Z
KHLN,"Helena Rgnl, MT, US",2025-09-09T15:53:00Z,2025-09-09T11:53:00Z,VFR,14.4,6.1,0,0,0,NA,1016.7,METAR KHLN 091553Z 00000KT 10SM CLR 14/06 A3002 RMK AO2 SLP159 T01440061,2025-09-09T16:06:03Z,2025-09-09T12:06:03Z
KHLN,"Helena Rgnl, MT, US",2025-09-09T16:53:00Z,2025-09-09T12:53:00Z,VFR,17.2,6.7,VAR,4,0,NA,1016.3,METAR KHLN 091653Z VRB04KT 10SM CLR 17/07 A3001 RMK AO2 SLP156 T01720067,2025-09-09T17:12:54Z,2025-09-09T13:12:54Z
KHLN,"Helena Rgnl, MT, US",2025-09-09T17:53:00Z,2025-09-09T13:53:00Z,VFR,19.4,6.1,70,3,0,NA,1016,METAR KHLN 091753Z 07003KT 10SM CLR 19/06 A3000 RMK AO2 SLP152 T01940061 10200 20100 56010,2025-09-09T18:09:21Z,2025-09-09T14:09:21Z
KHLN,"Helena Rgnl, MT, US",2025-09-09T18:53:00Z,2025-09-09T14:53:00Z,VFR,22.2,7.2,50,6,0,NA,1015.3,METAR KHLN 091853Z 05006KT 10SM CLR 22/07 A2998 RMK AO2 SLP138 T02220072,2025-09-09T19:00:57Z,2025-09-09T15:00:57Z
KHLN,"Helena Rgnl, MT, US",2025-09-09T19:53:00Z,2025-09-09T15:53:00Z,VFR,24.4,7.8,VAR,3,0,NA,1014.6,METAR KHLN 091953Z VRB03KT 10SM CLR 24/08 A2996 RMK AO2 SLP134 T02440078,2025-09-09T20:10:18Z,2025-09-09T16:10:18Z
KHOU,"Houston/Hobby Arpt, TX, US",2025-09-09T14:53:00Z,2025-09-09T10:53:00Z,VFR,26.1,15,80,8,0,NA,1016.7,METAR KHOU 091453Z 08008KT 10SM CLR 26/15 A3002 RMK AO2 SLP171 T02610150 51008,2025-09-09T15:51:30Z,2025-09-09T11:51:30Z
KHOU,"Houston/Hobby Arpt, TX, US",2025-09-09T15:53:00Z,2025-09-09T11:53:00Z,VFR,27.2,13.9,VAR,5,0,NA,1017,METAR KHOU 091553Z VRB05KT 10SM CLR 27/14 A3003 RMK AO2 SLP173 T02720139,2025-09-09T16:06:03Z,2025-09-09T12:06:03Z
KHOU,"Houston/Hobby Arpt, TX, US",2025-09-09T16:53:00Z,2025-09-09T12:53:00Z,VFR,28.3,13.9,50,6,0,NA,1017,METAR KHOU 091653Z 05006KT 10SM CLR 28/14 A3003 RMK AO2 SLP174 T02830139,2025-09-09T17:12:54Z,2025-09-09T13:12:54Z
KHOU,"Houston/Hobby Arpt, TX, US",2025-09-09T17:53:00Z,2025-09-09T13:53:00Z,VFR,29.4,14.4,50,8,0,NA,1016.7,METAR KHOU 091753Z 05008KT 10SM CLR 29/14 A3002 RMK AO2 SLP169 T02940144 10294 20206 58002,2025-09-09T18:09:21Z,2025-09-09T14:09:21Z
KHOU,"Houston/Hobby Arpt, TX, US",2025-09-09T18:53:00Z,2025-09-09T14:53:00Z,VFR,30,12.8,70,8,0,NA,1015.7,METAR KHOU 091853Z COR 07008KT 10SM CLR 30/13 A2999 RMK AO2 SLP161 T03000128,2025-09-09T19:00:57Z,2025-09-09T15:00:57Z
KHOU,"Houston/Hobby Arpt, TX, US",2025-09-09T19:53:00Z,2025-09-09T15:53:00Z,VFR,30.6,13.9,40,8,0,NA,1015.3,METAR KHOU 091953Z 04008KT 10SM CLR 31/14 A2998 RMK AO2 SLP155 T03060139,2025-09-09T20:10:18Z,2025-09-09T16:10:18Z
KHPN,"White Plains/Westchester Cnty, NY, US",2025-09-09T14:56:00Z,2025-09-09T10:56:00Z,VFR,20,9.4,70,5,0,NA,1027.9,METAR KHPN 091456Z 07005KT 10SM CLR 20/09 A3035 RMK AO2 SLP274 T02000094 53005,2025-09-09T15:51:27Z,2025-09-09T11:51:27Z
KHPN,"White Plains/Westchester Cnty, NY, US",2025-09-09T15:56:00Z,2025-09-09T11:56:00Z,VFR,21.1,4.4,80,12,17,NA,1027.5,METAR KHPN 091556Z 08012G17KT 10SM FEW040 21/04 A3034 RMK AO2 SLP272 T02110044,2025-09-09T16:06:00Z,2025-09-09T12:06:00Z
KHPN,"White Plains/Westchester Cnty, NY, US",2025-09-09T16:56:00Z,2025-09-09T12:56:00Z,VFR,21.1,7.8,90,13,20,NA,1027.2,METAR KHPN 091656Z 09013G20KT 10SM CLR 21/08 A3033 RMK AO2 SLP269 T02110078,2025-09-09T17:12:49Z,2025-09-09T13:12:49Z
KHPN,"White Plains/Westchester Cnty, NY, US",2025-09-09T17:56:00Z,2025-09-09T13:56:00Z,VFR,21.7,8.3,100,9,0,NA,1026.8,METAR KHPN 091756Z 10009KT 10SM FEW040 22/08 A3032 RMK AO2 SLP266 T02170083 10217 20150 58008,2025-09-09T18:09:19Z,2025-09-09T14:09:19Z
KHPN,"White Plains/Westchester Cnty, NY, US",2025-09-09T18:56:00Z,2025-09-09T14:56:00Z,VFR,21.1,5,110,11,19,NA,1026.8,METAR KHPN 091856Z 11011G19KT 10SM FEW040 21/05 A3032 RMK AO2 SLP263 T02110050,2025-09-09T19:00:54Z,2025-09-09T15:00:54Z
KHPN,"White Plains/Westchester Cnty, NY, US",2025-09-09T19:56:00Z,2025-09-09T15:56:00Z,VFR,21.7,7.8,110,8,17,NA,1026.2,METAR KHPN 091956Z 11008G17KT 10SM FEW040 FEW060 22/08 A3030 RMK AO2 SLP258 T02170078,2025-09-09T20:10:12Z,2025-09-09T16:10:12Z
KHRL,"Harlingen/Valley Intl, TX, US",2025-09-09T14:52:00Z,2025-09-09T10:52:00Z,VFR,29.4,24.4,20,8,0,NA,1014.3,METAR KHRL 091452Z 02008KT 10SM FEW026 SCT065 BKN080 29/24 A2995 RMK AO2 SLP142 T02940244 53009 $,2025-09-09T15:51:30Z,2025-09-09T11:51:30Z
KHRL,"Harlingen/Valley Intl, TX, US",2025-09-09T15:52:00Z,2025-09-09T11:52:00Z,VFR,30,23.9,20,10,0,NA,1014.6,METAR KHRL 091552Z 02010KT 10SM FEW022 SCT070 OVC090 30/24 A2996 RMK AO2 SLP144 T03000239,2025-09-09T16:06:03Z,2025-09-09T12:06:03Z
KHRL,"Harlingen/Valley Intl, TX, US",2025-09-09T16:52:00Z,2025-09-09T12:52:00Z,VFR,31.1,24.4,60,9,0,NA,1014.6,METAR KHRL 091652Z 06009KT 10SM SCT060 SCT070 31/24 A2996 RMK AO2 SLP143 T03110244,2025-09-09T17:12:54Z,2025-09-09T13:12:54Z
KHRL,"Harlingen/Valley Intl, TX, US",2025-09-09T17:52:00Z,2025-09-09T13:52:00Z,VFR,30,24.4,60,13,0,NA,1014.3,METAR KHRL 091752Z 06013KT 10SM SCT065 SCT075 BKN090 30/24 A2995 RMK AO2 RAB05E29 SLP141 P0009 60009 T03000244 10317 20233 58001,2025-09-09T18:09:22Z,2025-09-09T14:09:22Z
KHRL,"Harlingen/Valley Intl, TX, US",2025-09-09T18:52:00Z,2025-09-09T14:52:00Z,VFR,28.3,25,10,8,0,NA,1014,METAR KHRL 091852Z 01008KT 10SM -RA SCT035 SCT080 BKN100 28/25 A2994 RMK AO2 RAB46 SLP136 P0000 T02830250,2025-09-09T19:00:57Z,2025-09-09T15:00:57Z
KHRL,"Harlingen/Valley Intl, TX, US",2025-09-09T19:52:00Z,2025-09-09T15:52:00Z,VFR,32.2,23.9,30,9,0,NA,1013,METAR KHRL 091952Z 03009KT 10SM FEW034 SCT041 SCT060 32/24 A2991 RMK AO2 LTG DSNT S RAE1855 SLP127 P0000 T03220239,2025-09-09T20:10:18Z,2025-09-09T16:10:18Z
KHSV,"Huntsville Intl, AL, US",2025-09-09T14:53:00Z,2025-09-09T10:53:00Z,VFR,22.8,12.8,130,10,0,NA,1022.1,METAR KHSV 091453Z 13010KT 10SM FEW043 FEW060 23/13 A3018 RMK AO2 SLP212 T02280128 53005 $,2025-09-09T15:51:29Z,2025-09-09T11:51:29Z
KHSV,"Huntsville Intl, AL, US",2025-09-09T15:53:00Z,2025-09-09T11:53:00Z,VFR,23.9,12.8,150,8,0,NA,1022.1,METAR KHSV 091553Z 15008KT 10SM FEW045 FEW060 24/13 A3018 RMK AO2 SLP213 T02390128 $,2025-09-09T16:06:02Z,2025-09-09T12:06:02Z
KHSV,"Huntsville Intl, AL, US",2025-09-09T16:53:00Z,2025-09-09T12:53:00Z,VFR,25,13.3,110,7,0,NA,1021.4,METAR KHSV 091653Z 11007KT 10SM FEW049 25/13 A3016 RMK AO2 SLP207 T02500133 $,2025-09-09T17:12:51Z,2025-09-09T13:12:51Z
KHSV,"Huntsville Intl, AL, US",2025-09-09T17:53:00Z,2025-09-09T13:53:00Z,VFR,26.1,13.9,VAR,4,0,NA,1020.7,METAR KHSV 091753Z VRB04KT 10SM FEW047 26/14 A3014 RMK AO2 SLP200 T02610139 10261 20178 58012 $,2025-09-09T18:09:20Z,2025-09-09T14:09:20Z
KHSV,"Huntsville Intl, AL, US",2025-09-09T18:53:00Z,2025-09-09T14:53:00Z,VFR,26.7,15,140,4,0,NA,1019.7,METAR KHSV 091853Z 14004KT 10SM FEW050 27/15 A3011 RMK AO2 SLP192 T02670150 $,2025-09-09T19:00:56Z,2025-09-09T15:00:56Z
KHSV,"Huntsville Intl, AL, US",2025-09-09T19:53:00Z,2025-09-09T15:53:00Z,VFR,28.3,13.9,0,0,0,NA,1019,METAR KHSV 091953Z 00000KT 10SM FEW055 28/14 A3009 RMK AO2 SLP184 T02830139 $,2025-09-09T20:10:15Z,2025-09-09T16:10:15Z
KIAD,"Washington/Dulles Intl, VA, US",2025-09-09T14:52:00Z,2025-09-09T10:52:00Z,VFR,21.7,10.6,10,7,0,NA,1026.2,METAR KIAD 091452Z 01007KT 10SM FEW200 22/11 A3030 RMK AO2 SLP257 T02170106 58001,2025-09-09T15:51:27Z,2025-09-09T11:51:27Z
KIAD,"Washington/Dulles Intl, VA, US",2025-09-09T15:52:00Z,2025-09-09T11:52:00Z,VFR,22.8,10,110,8,0,NA,1025.8,METAR KIAD 091552Z 11008KT 10SM FEW035 SCT250 23/10 A3029 RMK AO2 SLP255 T02280100,2025-09-09T16:06:00Z,2025-09-09T12:06:00Z
KIAD,"Washington/Dulles Intl, VA, US",2025-09-09T16:52:00Z,2025-09-09T12:52:00Z,VFR,23.3,8.3,60,7,0,NA,1025.1,METAR KIAD 091652Z 06007KT 10SM FEW045 SCT250 23/08 A3027 RMK AO2 SLP250 T02330083,2025-09-09T17:12:49Z,2025-09-09T13:12:49Z
KIAD,"Washington/Dulles Intl, VA, US",2025-09-09T17:52:00Z,2025-09-09T13:52:00Z,VFR,23.9,8.3,100,7,19,NA,1024.5,METAR KIAD 091752Z 10007G19KT 10SM FEW045 FEW250 24/08 A3025 RMK AO2 SLP243 T02390083 10244 20128 58014,2025-09-09T18:09:19Z,2025-09-09T14:09:19Z
KIAD,"Washington/Dulles Intl, VA, US",2025-09-09T18:52:00Z,2025-09-09T14:52:00Z,VFR,25,7.8,100,8,17,NA,1023.8,METAR KIAD 091852Z COR 10008G17KT 10SM FEW055 FEW250 25/08 A3023 RMK AO2 SLP235 T02500078,2025-09-09T19:00:54Z,2025-09-09T15:00:54Z
KIAD,"Washington/Dulles Intl, VA, US",2025-09-09T19:14:00Z,2025-09-09T15:14:00Z,VFR,24.4,7.2,VAR,6,0,NA,1023.8,SPECI KIAD 091914Z VRB06KT 10SM FEW055 FEW250 24/07 A3023 RMK AO2 T02440072,2025-09-09T19:30:37Z,2025-09-09T15:30:37Z
KIAD,"Washington/Dulles Intl, VA, US",2025-09-09T19:52:00Z,2025-09-09T15:52:00Z,VFR,24.4,7.2,90,10,14,NA,1023.5,METAR KIAD 091952Z 09010G14KT 10SM FEW055 FEW250 24/07 A3022 RMK AO2 SLP231 T02440072,2025-09-09T20:10:13Z,2025-09-09T16:10:13Z
KIAH,"Houston/Bush Intl, TX, US",2025-09-09T14:53:00Z,2025-09-09T10:53:00Z,VFR,24.4,14.4,70,6,0,NA,1017.4,METAR KIAH 091453Z 07006KT 10SM CLR 24/14 A3004 RMK AO2 SLP172 T02440144 51008,2025-09-09T15:51:30Z,2025-09-09T11:51:30Z
KIAH,"Houston/Bush Intl, TX, US",2025-09-09T15:53:00Z,2025-09-09T11:53:00Z,VFR,26.7,13.3,60,5,0,NA,1017.4,METAR KIAH 091553Z 06005KT 10SM CLR 27/13 A3004 RMK AO2 SLP173 T02670133,2025-09-09T16:06:03Z,2025-09-09T12:06:03Z
KIAH,"Houston/Bush Intl, TX, US",2025-09-09T16:53:00Z,2025-09-09T12:53:00Z,VFR,27.8,13.3,30,7,0,NA,1017.7,METAR KIAH 091653Z 03007KT 10SM CLR 28/13 A3005 RMK AO2 SLP174 T02780133,2025-09-09T17:12:54Z,2025-09-09T13:12:54Z
KIAH,"Houston/Bush Intl, TX, US",2025-09-09T17:53:00Z,2025-09-09T13:53:00Z,VFR,30,12.8,360,6,0,NA,1017,METAR KIAH 091753Z 36006KT 10SM CLR 30/13 A3003 RMK AO2 SLP167 T03000128 10300 20178 58005,2025-09-09T18:09:22Z,2025-09-09T14:09:22Z
KIAH,"Houston/Bush Intl, TX, US",2025-09-09T18:53:00Z,2025-09-09T14:53:00Z,VFR,30.6,13.9,30,7,0,NA,1016,METAR KIAH 091853Z 03007KT 10SM CLR 31/14 A3000 RMK AO2 SLP159 T03060139,2025-09-09T19:00:57Z,2025-09-09T15:00:57Z
KIAH,"Houston/Bush Intl, TX, US",2025-09-09T19:53:00Z,2025-09-09T15:53:00Z,VFR,31.1,13.3,40,6,0,NA,1015.3,METAR KIAH 091953Z 04006KT 10SM CLR 31/13 A2998 RMK AO2 SLP152 T03110133,2025-09-09T20:10:18Z,2025-09-09T16:10:18Z
KICT,"Wichita/Eisenhower Arpt, KS, US",2025-09-09T14:53:00Z,2025-09-09T10:53:00Z,VFR,20.6,12.8,200,16,23,NA,1016,METAR KICT 091453Z 20016G23KT 10SM SCT190 SCT250 21/13 A3000 RMK AO2 SLP149 T02060128 55007 $,2025-09-09T15:51:30Z,2025-09-09T11:51:30Z
KICT,"Wichita/Eisenhower Arpt, KS, US",2025-09-09T15:53:00Z,2025-09-09T11:53:00Z,VFR,22.2,13.9,200,19,24,NA,1016,METAR KICT 091553Z 20019G24KT 10SM SCT120 SCT150 BKN190 BKN250 22/14 A3000 RMK AO2 SLP148 ACC NW-NE T02220139 $,2025-09-09T16:06:03Z,2025-09-09T12:06:03Z
KICT,"Wichita/Eisenhower Arpt, KS, US",2025-09-09T16:53:00Z,2025-09-09T12:53:00Z,VFR,23.3,15,190,11,16,NA,1016.3,METAR KICT 091653Z 19011G16KT 10SM SCT120 SCT150 BKN190 BKN250 23/15 A3001 RMK AO2 SLP153 ACC OHD T02330150 $,2025-09-09T17:12:54Z,2025-09-09T13:12:54Z
KICT,"Wichita/Eisenhower Arpt, KS, US",2025-09-09T17:53:00Z,2025-09-09T13:53:00Z,VFR,25.6,15.6,160,11,0,NA,1016,METAR KICT 091753Z 16011KT 10SM FEW190 SCT250 26/16 A3000 RMK AO2 SLP148 T02560156 10256 20150 50001 $,2025-09-09T18:09:22Z,2025-09-09T14:09:22Z
KICT,"Wichita/Eisenhower Arpt, KS, US",2025-09-09T18:53:00Z,2025-09-09T14:53:00Z,VFR,26.7,16.7,170,11,0,NA,1015,METAR KICT 091853Z 17011KT 10SM FEW190 FEW250 27/17 A2997 RMK AO2 SLP138 T02670167 $,2025-09-09T19:00:57Z,2025-09-09T15:00:57Z
KICT,"Wichita/Eisenhower Arpt, KS, US",2025-09-09T19:53:00Z,2025-09-09T15:53:00Z,VFR,27.8,17.2,180,16,20,NA,1014,METAR KICT 091953Z 18016G20KT 10SM FEW190 FEW250 28/17 A2994 RMK AO2 SLP127 T02780172 $,2025-09-09T20:10:18Z,2025-09-09T16:10:18Z
KIDA,"Idaho Falls Rgnl, ID, US",2025-09-09T14:53:00Z,2025-09-09T10:53:00Z,VFR,15,7.2,40,6,0,NA,1016.7,METAR KIDA 091453Z 04006KT 10SM CLR 15/07 A3002 RMK AO2 SLP138 T01500072 50002,2025-09-09T15:51:30Z,2025-09-09T11:51:30Z
KIDA,"Idaho Falls Rgnl, ID, US",2025-09-09T15:53:00Z,2025-09-09T11:53:00Z,VFR,17.2,8.3,350,6,0,NA,1016.7,METAR KIDA 091553Z 35006KT 10SM CLR 17/08 A3002 RMK AO2 SLP133 T01720083,2025-09-09T16:06:03Z,2025-09-09T12:06:03Z
KIDA,"Idaho Falls Rgnl, ID, US",2025-09-09T16:53:00Z,2025-09-09T12:53:00Z,VFR,22.2,6.7,190,3,0,NA,1016.7,METAR KIDA 091653Z 19003KT 10SM CLR 22/07 A3002 RMK AO2 SLP130 T02220067,2025-09-09T17:12:54Z,2025-09-09T13:12:54Z
KIDA,"Idaho Falls Rgnl, ID, US",2025-09-09T17:53:00Z,2025-09-09T13:53:00Z,VFR,23.3,7.8,290,4,0,NA,1016.3,METAR KIDA 091753Z 29004KT 10SM CLR 23/08 A3001 RMK AO2 SLP129 T02330078 10233 20089 58004,2025-09-09T18:09:21Z,2025-09-09T14:09:21Z
KIDA,"Idaho Falls Rgnl, ID, US",2025-09-09T18:53:00Z,2025-09-09T14:53:00Z,VFR,23.3,7.2,290,3,0,NA,1016,METAR KIDA 091853Z 29003KT 10SM FEW120 23/07 A3000 RMK AO2 SLP125 T02330072,2025-09-09T19:00:57Z,2025-09-09T15:00:57Z
KIDA,"Idaho Falls Rgnl, ID, US",2025-09-09T19:53:00Z,2025-09-09T15:53:00Z,VFR,21.7,9.4,300,3,0,NA,1016,METAR KIDA 091953Z 30003KT 10SM OVC110 22/09 A3000 RMK AO2 SLP126 T02170094,2025-09-09T20:10:18Z,2025-09-09T16:10:18Z
KIND,"Indianapolis Intl, IN, US",2025-09-09T14:54:00Z,2025-09-09T10:54:00Z,VFR,20,8.9,170,5,0,NA,1023.1,METAR KIND 091454Z 17005KT 10SM BKN250 20/09 A3021 RMK AO2 SLP228 T02000089 53001,2025-09-09T15:51:29Z,2025-09-09T11:51:29Z
KIND,"Indianapolis Intl, IN, US",2025-09-09T15:54:00Z,2025-09-09T11:54:00Z,VFR,22.2,7.8,170,7,0,NA,1023.1,METAR KIND 091554Z 17007KT 10SM BKN250 22/08 A3021 RMK AO2 SLP226 T02220078,2025-09-09T16:06:01Z,2025-09-09T12:06:01Z
KIND,"Indianapolis Intl, IN, US",2025-09-09T16:54:00Z,2025-09-09T12:54:00Z,VFR,22.8,7.2,190,8,0,NA,1022.8,METAR KIND 091654Z 19008KT 10SM BKN250 23/07 A3020 RMK AO2 SLP222 T02280072,2025-09-09T17:12:51Z,2025-09-09T13:12:51Z
KIND,"Indianapolis Intl, IN, US",2025-09-09T17:54:00Z,2025-09-09T13:54:00Z,VFR,24.4,7.2,140,8,0,NA,1022.1,METAR KIND 091754Z 14008KT 10SM BKN250 24/07 A3018 RMK AO2 SLP216 T02440072 10244 20117 58011,2025-09-09T18:09:20Z,2025-09-09T14:09:20Z
KIND,"Indianapolis Intl, IN, US",2025-09-09T18:54:00Z,2025-09-09T14:54:00Z,VFR,24.4,6.7,150,9,0,NA,1021.1,METAR KIND 091854Z 15009KT 10SM BKN250 24/07 A3015 RMK AO2 SLP208 T02440067,2025-09-09T19:00:56Z,2025-09-09T15:00:56Z
KIND,"Indianapolis Intl, IN, US",2025-09-09T19:54:00Z,2025-09-09T15:54:00Z,VFR,24.4,7.2,120,8,15,NA,1020.4,METAR KIND 091954Z 12008G15KT 100V160 10SM BKN250 24/07 A3013 RMK AO2 SLP201 T02440072,2025-09-09T20:10:15Z,2025-09-09T16:10:15Z
KJAX,"Jacksonville Intl, FL, US",2025-09-09T15:40:00Z,2025-09-09T11:40:00Z,MVFR,25,22.2,20,12,0,NA,1017.4,SPECI KJAX 091540Z 02012KT 10SM -RA FEW008 BKN014 OVC110 25/22 A3004 RMK AO2 RAB40 P0000 T02500222 $,2025-09-09T15:51:29Z,2025-09-09T11:51:29Z
KJAX,"Jacksonville Intl, FL, US",2025-09-09T15:56:00Z,2025-09-09T11:56:00Z,MVFR,25,23,10,13,19,NA,1017.4,METAR KJAX 091556Z 01013G19KT 10SM -RA FEW008 BKN014 OVC110 25/23 A3004,2025-09-09T16:11:16Z,2025-09-09T12:11:16Z
KJAX,"Jacksonville Intl, FL, US",2025-09-09T16:56:00Z,2025-09-09T12:56:00Z,MVFR,26.1,22.8,40,17,24,NA,1017,METAR KJAX 091656Z 04017G24KT 10SM FEW008 BKN014 BKN110 26/23 A3003 RMK AO2 RAE34 SLP169 P0001 T02610228 $,2025-09-09T17:12:51Z,2025-09-09T13:12:51Z
KJAX,"Jacksonville Intl, FL, US",2025-09-09T17:56:00Z,2025-09-09T13:56:00Z,MVFR,26.7,22.2,30,16,24,NA,1017,METAR KJAX 091756Z 03016G24KT 10SM BKN014 BKN110 OVC250 27/22 A3003 RMK AO2 PK WND 04026/1724 SLP168 60001 T02670222 10272 20222 58002 $,2025-09-09T18:09:20Z,2025-09-09T14:09:20Z
KJAX,"Jacksonville Intl, FL, US",2025-09-09T18:24:00Z,2025-09-09T14:24:00Z,MVFR,26.7,21.7,30,18,26,NA,1016.3,SPECI KJAX 091824Z 03018G26KT 10SM BKN017 OVC250 27/22 A3001 RMK AO2 PK WND 05030/1814 T02670217 $,2025-09-09T18:38:56Z,2025-09-09T14:38:56Z
KJAX,"Jacksonville Intl, FL, US",2025-09-09T18:56:00Z,2025-09-09T14:56:00Z,MVFR,27.2,21.7,40,15,21,NA,1016,METAR KJAX 091856Z 04015G21KT 10SM BKN018 BKN026 BKN250 27/22 A3000 RMK AO2 PK WND 05030/1814 SLP157 T02720217 $,2025-09-09T19:00:56Z,2025-09-09T15:00:56Z
KJAX,"Jacksonville Intl, FL, US",2025-09-09T19:56:00Z,2025-09-09T15:56:00Z,MVFR,26.1,21.1,30,12,0,NA,1015.7,METAR KJAX 091956Z 03012KT 10SM BKN019 BKN029 BKN250 26/21 A2999 RMK AO2 SLP157 T02610211 $,2025-09-09T20:10:15Z,2025-09-09T16:10:15Z
KJFK,"New York/JF Kennedy Intl, NY, US",2025-09-09T14:51:00Z,2025-09-09T10:51:00Z,VFR,21.1,8.3,70,13,0,NA,1027.5,METAR KJFK 091451Z 07013KT 10SM SCT027 BKN250 21/08 A3034 RMK AO2 SLP272 T02110083 53004,2025-09-09T15:51:27Z,2025-09-09T11:51:27Z
KJFK,"New York/JF Kennedy Intl, NY, US",2025-09-09T15:51:00Z,2025-09-09T11:51:00Z,VFR,21.7,8.3,60,11,0,NA,1027.2,METAR KJFK 091551Z 06011KT 10SM FEW028 FEW032 BKN250 22/08 A3033 RMK AO2 SLP270 T02170083,2025-09-09T16:06:00Z,2025-09-09T12:06:00Z
KJFK,"New York/JF Kennedy Intl, NY, US",2025-09-09T16:51:00Z,2025-09-09T12:51:00Z,VFR,22.2,11.1,130,10,16,NA,1026.8,METAR KJFK 091651Z 13010G16KT 10SM FEW028 SCT050 BKN250 22/11 A3032 RMK AO2 SLP265 T02220111 $,2025-09-09T16:54:01Z,2025-09-09T12:54:01Z
KJFK,"New York/JF Kennedy Intl, NY, US",2025-09-09T17:51:00Z,2025-09-09T13:51:00Z,VFR,22.8,11.7,120,12,20,NA,1026.5,METAR KJFK 091751Z 12012G20KT 10SM FEW030 SCT050 BKN250 23/12 A3031 RMK AO2 SLP262 T02280117 10228 20161 58010 $,2025-09-09T18:09:19Z,2025-09-09T14:09:19Z
KJFK,"New York/JF Kennedy Intl, NY, US",2025-09-09T18:51:00Z,2025-09-09T14:51:00Z,VFR,21.7,11.7,120,16,22,NA,1026.2,METAR KJFK 091851Z 12016G22KT 10SM SCT040 SCT060 BKN250 22/12 A3030 RMK AO2 SLP259 T02170117,2025-09-09T19:00:54Z,2025-09-09T15:00:54Z
KJFK,"New York/JF Kennedy Intl, NY, US",2025-09-09T19:51:00Z,2025-09-09T15:51:00Z,VFR,21.7,11.7,110,14,23,NA,1025.8,METAR KJFK 091951Z 11014G23KT 10SM FEW040 FEW060 BKN250 22/12 A3029 RMK AO2 SLP258 T02170117,2025-09-09T20:10:13Z,2025-09-09T16:10:13Z
KJFK,"New York/JF Kennedy Intl, NY, US",2025-09-09T20:51:00Z,2025-09-09T16:51:00Z,VFR,21.1,11.7,100,12,20,NA,1025.8,METAR KJFK 092051Z 10012G20KT 10SM FEW040 SCT060 BKN250 21/12 A3029 RMK AO2 SLP255 T02110117 58007,2025-09-09T20:53:58Z,2025-09-09T16:53:58Z
KLAW,"Lawton-Fort Sill Rgnl, OK, US",2025-09-09T14:53:00Z,2025-09-09T10:53:00Z,VFR,22.8,11.7,170,8,0,NA,1018,METAR KLAW 091453Z 17008KT 10SM CLR 23/12 A3006 RMK AO2 SLP170 T02280117 50004,2025-09-09T15:51:30Z,2025-09-09T11:51:30Z
KLAW,"Lawton-Fort Sill Rgnl, OK, US",2025-09-09T15:53:00Z,2025-09-09T11:53:00Z,VFR,25,11.7,200,9,16,NA,1018,METAR KLAW 091553Z 20009G16KT 10SM CLR 25/12 A3006 RMK AO2 SLP170 T02500117,2025-09-09T16:06:03Z,2025-09-09T12:06:03Z
KLAW,"Lawton-Fort Sill Rgnl, OK, US",2025-09-09T16:53:00Z,2025-09-09T12:53:00Z,VFR,27.2,12.8,190,10,17,NA,1017.7,METAR KLAW 091653Z 19010G17KT 10SM CLR 27/13 A3005 RMK AO2 SLP165 T02720128,2025-09-09T17:12:54Z,2025-09-09T13:12:54Z
KLAW,"Lawton-Fort Sill Rgnl, OK, US",2025-09-09T17:53:00Z,2025-09-09T13:53:00Z,VFR,29.4,14.4,180,12,19,NA,1016.7,METAR KLAW 091753Z 18012G19KT 10SM CLR 29/14 A3002 RMK AO2 SLP155 T02940144 10294 20161 58013,2025-09-09T18:09:21Z,2025-09-09T14:09:21Z
KLAW,"Lawton-Fort Sill Rgnl, OK, US",2025-09-09T18:53:00Z,2025-09-09T14:53:00Z,VFR,31.1,15,200,11,16,NA,1016.3,METAR KLAW 091853Z 20011G16KT 10SM CLR 31/15 A3001 RMK AO2 SLP150 T03110150,2025-09-09T19:00:57Z,2025-09-09T15:00:57Z
KLAW,"Lawton-Fort Sill Rgnl, OK, US",2025-09-09T19:53:00Z,2025-09-09T15:53:00Z,VFR,31.7,14.4,150,11,0,NA,1015.3,METAR KLAW 091953Z 15011KT 10SM CLR 32/14 A2998 RMK AO2 SLP140 T03170144,2025-09-09T20:10:18Z,2025-09-09T16:10:18Z
KLAX,"Los Angeles Intl, CA, US",2025-09-09T14:53:00Z,2025-09-09T10:53:00Z,MVFR,20,17.2,110,3,0,NA,1014,METAR KLAX 091453Z 11003KT 10SM SCT009 BKN016 20/17 A2994 RMK AO2 SLP137 T02000172 53008 $,2025-09-09T15:51:32Z,2025-09-09T11:51:32Z
KLAX,"Los Angeles Intl, CA, US",2025-09-09T15:53:00Z,2025-09-09T11:53:00Z,MVFR,20.6,16.7,160,4,0,5,1014.6,METAR KLAX 091553Z 16004KT 5SM HZ FEW009 SCT016 OVC019 21/17 A2996 RMK AO2 SLP142 T02060167 $,2025-09-09T16:06:05Z,2025-09-09T12:06:05Z
KLAX,"Los Angeles Intl, CA, US",2025-09-09T16:53:00Z,2025-09-09T12:53:00Z,MVFR,21.7,16.7,130,5,0,7,1014.6,METAR KLAX 091653Z 13005KT 7SM FEW009 SCT017 BKN023 22/17 A2996 RMK AO2 SLP142 T02170167 $,2025-09-09T17:12:57Z,2025-09-09T13:12:57Z
KLAX,"Los Angeles Intl, CA, US",2025-09-09T17:36:00Z,2025-09-09T13:36:00Z,VFR,22.8,15.6,150,5,0,NA,1014.3,SPECI KLAX 091736Z 15005KT 10SM FEW009 FEW018 SCT023 23/16 A2995 RMK AO2 T02280156 $,2025-09-09T17:41:40Z,2025-09-09T13:41:40Z
KLAX,"Los Angeles Intl, CA, US",2025-09-09T17:53:00Z,2025-09-09T13:53:00Z,VFR,23.3,15.6,150,5,0,NA,1014.3,METAR KLAX 091753Z 15005KT 10SM FEW009 FEW025 23/16 A2995 RMK AO2 SLP140 T02330156 10233 20189 50002 $,2025-09-09T18:09:23Z,2025-09-09T14:09:23Z
KLAX,"Los Angeles Intl, CA, US",2025-09-09T18:53:00Z,2025-09-09T14:53:00Z,VFR,23.9,17.2,270,11,0,NA,1014,METAR KLAX 091853Z 27011KT 10SM SCT019 24/17 A2994 RMK AO2 SLP137 T02390172 $,2025-09-09T19:00:59Z,2025-09-09T15:00:59Z
KLAX,"Los Angeles Intl, CA, US",2025-09-09T19:53:00Z,2025-09-09T15:53:00Z,VFR,23.3,16.1,230,9,0,NA,1013.3,METAR KLAX 091953Z 23009KT 10SM FEW010 23/16 A2992 RMK AO2 SLP128 T02330161 $,2025-09-09T20:10:19Z,2025-09-09T16:10:19Z
KLBB,"Lubbock Intl Arpt, TX, US",2025-09-09T14:53:00Z,2025-09-09T10:53:00Z,VFR,23.3,18.3,210,12,0,NA,1019,METAR KLBB 091453Z 21012KT 10SM SCT012 SCT090 23/18 A3009 RMK AO2 SLP138 T02330183 51004,2025-09-09T15:51:30Z,2025-09-09T11:51:30Z
KLBB,"Lubbock Intl Arpt, TX, US",2025-09-09T15:53:00Z,2025-09-09T11:53:00Z,VFR,24.4,17.8,180,8,0,NA,1019,METAR KLBB 091553Z 18008KT 10SM FEW100 24/18 A3009 RMK AO2 SLP139 T02440178,2025-09-09T16:06:03Z,2025-09-09T12:06:03Z
KLBB,"Lubbock Intl Arpt, TX, US",2025-09-09T16:53:00Z,2025-09-09T12:53:00Z,VFR,27.8,18.3,170,7,0,NA,1019,METAR KLBB 091653Z 17007KT 10SM FEW075 FEW100 28/18 A3009 RMK AO2 SLP136 ACC DSNT E-SE T02780183,2025-09-09T17:12:54Z,2025-09-09T13:12:54Z
KLBB,"Lubbock Intl Arpt, TX, US",2025-09-09T17:53:00Z,2025-09-09T13:53:00Z,VFR,29.4,17.2,160,8,0,NA,1018.7,METAR KLBB 091753Z 16008KT 10SM FEW075 FEW110 29/17 A3008 RMK AO2 SLP131 ACC DSNT E-SE T02940172 10294 20194 58002,2025-09-09T18:09:21Z,2025-09-09T14:09:21Z
KLBB,"Lubbock Intl Arpt, TX, US",2025-09-09T18:53:00Z,2025-09-09T14:53:00Z,VFR,31.1,17.8,180,8,0,NA,1018,METAR KLBB 091853Z 18008KT 10SM FEW100 31/18 A3006 RMK AO2 SLP124 T03110178,2025-09-09T19:00:57Z,2025-09-09T15:00:57Z
KLBB,"Lubbock Intl Arpt, TX, US",2025-09-09T19:53:00Z,2025-09-09T15:53:00Z,VFR,32.2,17.8,160,13,0,NA,1017.4,METAR KLBB 091953Z 16013KT 10SM FEW075 32/18 A3004 RMK AO2 SLP115 CB DSNT W T03220178,2025-09-09T20:10:18Z,2025-09-09T16:10:18Z
KLGA,"New York/La Guardia Arpt, NY, US",2025-09-09T14:51:00Z,2025-09-09T10:51:00Z,VFR,19.4,10,40,15,0,NA,1027.2,METAR KLGA 091451Z 04015KT 10SM FEW030 SCT250 19/10 A3033 RMK AO2 SLP272 T01940100 53004,2025-09-09T15:51:27Z,2025-09-09T11:51:27Z
KLGA,"New York/La Guardia Arpt, NY, US",2025-09-09T15:51:00Z,2025-09-09T11:51:00Z,VFR,20.6,10,50,13,0,NA,1027.2,METAR KLGA 091551Z 05013KT 10SM FEW028 SCT250 21/10 A3033 RMK AO2 SLP269 T02060100,2025-09-09T16:06:00Z,2025-09-09T12:06:00Z
KLGA,"New York/La Guardia Arpt, NY, US",2025-09-09T16:51:00Z,2025-09-09T12:51:00Z,VFR,21.1,10.6,40,15,0,NA,1026.8,METAR KLGA 091651Z 04015KT 10SM FEW028 SCT250 21/11 A3032 RMK AO2 SLP266 T02110106,2025-09-09T16:54:01Z,2025-09-09T12:54:01Z
KLGA,"New York/La Guardia Arpt, NY, US",2025-09-09T17:51:00Z,2025-09-09T13:51:00Z,VFR,21.1,10.6,40,14,0,NA,1026.5,METAR KLGA 091751Z 04014KT 10SM FEW035 BKN250 21/11 A3031 RMK AO2 SLP263 T02110106 10217 20161 58009,2025-09-09T18:09:19Z,2025-09-09T14:09:19Z
KLGA,"New York/La Guardia Arpt, NY, US",2025-09-09T18:51:00Z,2025-09-09T14:51:00Z,VFR,21.7,11.7,40,14,0,NA,1026.2,METAR KLGA 091851Z 04014KT 10SM SCT050 BKN250 22/12 A3030 RMK AO2 SLP259 T02170117,2025-09-09T19:00:54Z,2025-09-09T15:00:54Z
KLGA,"New York/La Guardia Arpt, NY, US",2025-09-09T19:51:00Z,2025-09-09T15:51:00Z,VFR,22.2,12.8,50,14,0,NA,1025.8,METAR KLGA 091951Z 05014KT 10SM SCT050 BKN250 22/13 A3029 RMK AO2 SLP256 T02220128,2025-09-09T20:10:13Z,2025-09-09T16:10:13Z
KLGA,"New York/La Guardia Arpt, NY, US",2025-09-09T20:51:00Z,2025-09-09T16:51:00Z,VFR,22.2,12.2,40,12,0,NA,1025.1,METAR KLGA 092051Z 04012KT 10SM FEW037 FEW047 SCT055 BKN250 22/12 A3027 RMK AO2 SLP251 T02220122 58012,2025-09-09T20:53:58Z,2025-09-09T16:53:58Z
KLGB,"Long Beach Arpt, CA, US",2025-09-09T15:01:00Z,2025-09-09T11:01:00Z,MVFR,20,17.2,160,4,0,NA,1014,SPECI KLGB 091501Z 16004KT 10SM BKN018 20/17 A2994 RMK AO2 T02000172,2025-09-09T15:51:32Z,2025-09-09T11:51:32Z
KLGB,"Long Beach Arpt, CA, US",2025-09-09T15:53:00Z,2025-09-09T11:53:00Z,MVFR,20.6,16.1,190,4,0,NA,1014.3,METAR KLGB 091553Z 19004KT 10SM OVC018 21/16 A2995 RMK AO2 SLP142 T02060161,2025-09-09T16:06:05Z,2025-09-09T12:06:05Z
KLGB,"Long Beach Arpt, CA, US",2025-09-09T16:53:00Z,2025-09-09T12:53:00Z,MVFR,21.7,16.1,200,5,0,NA,1014.6,METAR KLGB 091653Z 20005KT 10SM OVC021 22/16 A2996 RMK AO2 SLP144 T02170161,2025-09-09T17:12:57Z,2025-09-09T13:12:57Z
KLGB,"Long Beach Arpt, CA, US",2025-09-09T17:53:00Z,2025-09-09T13:53:00Z,VFR,22.2,15.6,200,4,0,NA,1014,METAR KLGB 091753Z COR 10SM 20004KT FEW022 22/16 A2994 RMK AO2 SLP139 T02220156 10222 20189 50002,2025-09-09T18:09:23Z,2025-09-09T14:09:23Z
KLGB,"Long Beach Arpt, CA, US",2025-09-09T18:53:00Z,2025-09-09T14:53:00Z,VFR,23.3,15,VAR,6,0,NA,1013.6,METAR KLGB 091853Z VRB06KT 10SM CLR 23/15 A2993 RMK AO2 SLP134 T02330150,2025-09-09T19:00:59Z,2025-09-09T15:00:59Z
KLGB,"Long Beach Arpt, CA, US",2025-09-09T19:53:00Z,2025-09-09T15:53:00Z,VFR,23.9,15,210,6,0,NA,1013,METAR KLGB 091953Z 21006KT 10SM CLR 24/15 A2991 RMK AO2 SLP128 T02390150,2025-09-09T20:10:19Z,2025-09-09T16:10:19Z
KLIT,"Little Rock/Clinton Natl, AR, US",2025-09-09T14:53:00Z,2025-09-09T10:53:00Z,VFR,20,11.7,0,0,0,NA,1019.7,METAR KLIT 091453Z 00000KT 10SM SCT160 20/12 A3011 RMK AO2 SLP196 T02000117 51006,2025-09-09T15:51:29Z,2025-09-09T11:51:29Z
KLIT,"Little Rock/Clinton Natl, AR, US",2025-09-09T15:53:00Z,2025-09-09T11:53:00Z,VFR,22.2,12.8,0,0,0,NA,1019.7,METAR KLIT 091553Z 00000KT 10SM FEW160 22/13 A3011 RMK AO2 SLP197 T02220128,2025-09-09T16:06:02Z,2025-09-09T12:06:02Z
KLIT,"Little Rock/Clinton Natl, AR, US",2025-09-09T16:53:00Z,2025-09-09T12:53:00Z,VFR,25,13.9,330,3,0,NA,1019.4,METAR KLIT 091653Z 33003KT 10SM CLR 25/14 A3010 RMK AO2 SLP194 T02500139,2025-09-09T17:12:51Z,2025-09-09T13:12:51Z
KLIT,"Little Rock/Clinton Natl, AR, US",2025-09-09T17:53:00Z,2025-09-09T13:53:00Z,VFR,26.7,14.4,150,5,0,NA,1019,METAR KLIT 091753Z 15005KT 10SM FEW250 27/14 A3009 RMK AO2 SLP188 T02670144 10267 20139 58008,2025-09-09T18:09:20Z,2025-09-09T14:09:20Z
KLIT,"Little Rock/Clinton Natl, AR, US",2025-09-09T18:53:00Z,2025-09-09T14:53:00Z,VFR,27.2,13.3,110,6,0,NA,1018,METAR KLIT 091853Z 11006KT 10SM FEW250 27/13 A3006 RMK AO2 SLP180 T02720133,2025-09-09T19:00:56Z,2025-09-09T15:00:56Z
KLIT,"Little Rock/Clinton Natl, AR, US",2025-09-09T19:53:00Z,2025-09-09T15:53:00Z,VFR,27.8,12.8,0,0,0,NA,1017.7,METAR KLIT 091953Z 00000KT 10SM FEW250 28/13 A3005 RMK AO2 SLP175 T02780128 $,2025-09-09T20:10:15Z,2025-09-09T16:10:15Z
KLNK,"Lincoln Arpt, NE, US",2025-09-09T14:54:00Z,2025-09-09T10:54:00Z,VFR,20.6,16.1,190,7,0,NA,1016,METAR KLNK 091454Z 19007KT 10SM FEW020 21/16 A3000 RMK AO2 SLP151 T02060161 53003,2025-09-09T15:51:29Z,2025-09-09T11:51:29Z
KLNK,"Lincoln Arpt, NE, US",2025-09-09T15:54:00Z,2025-09-09T11:54:00Z,VFR,21.7,15.6,210,10,0,NA,1016.3,METAR KLNK 091554Z 21010KT 10SM BKN034 OVC050 22/16 A3001 RMK AO2 SLP156 T02170156,2025-09-09T16:06:01Z,2025-09-09T12:06:01Z
KLNK,"Lincoln Arpt, NE, US",2025-09-09T16:32:00Z,2025-09-09T12:32:00Z,MVFR,21.1,15,200,10,0,NA,1016.3,SPECI KLNK 091632Z 20010KT 10SM OVC029 21/15 A3001 RMK AO2 T02110150,2025-09-09T16:36:27Z,2025-09-09T12:36:27Z
KLNK,"Lincoln Arpt, NE, US",2025-09-09T16:47:00Z,2025-09-09T12:47:00Z,VFR,22.2,15.6,190,7,0,NA,1016,SPECI KLNK 091647Z 19007KT 10SM SCT029 BKN034 OVC041 22/16 A3000 RMK AO2 T02220156,2025-09-09T16:54:03Z,2025-09-09T12:54:03Z
KLNK,"Lincoln Arpt, NE, US",2025-09-09T17:10:00Z,2025-09-09T13:10:00Z,MVFR,22.8,16.1,210,10,0,NA,1016,SPECI KLNK 091710Z 21010KT 10SM BKN029 OVC041 23/16 A3000 RMK AO2 T02280161,2025-09-09T17:12:51Z,2025-09-09T13:12:51Z
KLNK,"Lincoln Arpt, NE, US",2025-09-09T17:36:00Z,2025-09-09T13:36:00Z,VFR,22.8,16.1,190,9,0,NA,1015.7,SPECI KLNK 091736Z 19009KT 10SM SCT029 BKN040 23/16 A2999 RMK AO2 T02280161,2025-09-09T17:41:37Z,2025-09-09T13:41:37Z
KLNK,"Lincoln Arpt, NE, US",2025-09-09T17:54:00Z,2025-09-09T13:54:00Z,MVFR,22.8,15.6,220,9,0,NA,1015.7,METAR KLNK 091754Z 22009KT 10SM BKN028 OVC040 23/16 A2999 RMK AO2 SLP148 T02280156 10233 20172 56007,2025-09-09T18:09:20Z,2025-09-09T14:09:20Z
KLNK,"Lincoln Arpt, NE, US",2025-09-09T18:28:00Z,2025-09-09T14:28:00Z,MVFR,23.9,16.7,190,8,0,NA,1015.7,SPECI KLNK 091828Z 19008KT 10SM OVC029 24/17 A2999 RMK AO2 T02390167,2025-09-09T18:38:56Z,2025-09-09T14:38:56Z
KLNK,"Lincoln Arpt, NE, US",2025-09-09T18:41:00Z,2025-09-09T14:41:00Z,MVFR,23.3,16.1,VAR,6,0,NA,1015.3,SPECI KLNK 091841Z VRB06KT 10SM BKN030 BKN038 23/16 A2998 RMK AO2 T02330161,2025-09-09T18:50:46Z,2025-09-09T14:50:46Z
KLNK,"Lincoln Arpt, NE, US",2025-09-09T18:54:00Z,2025-09-09T14:54:00Z,VFR,24.4,17.2,190,8,0,NA,1015.3,METAR KLNK 091854Z 19008KT 10SM SCT030 SCT037 24/17 A2998 RMK AO2 SLP143 T02440172,2025-09-09T19:00:56Z,2025-09-09T15:00:56Z
KLNK,"Lincoln Arpt, NE, US",2025-09-09T19:54:00Z,2025-09-09T15:54:00Z,VFR,25,17.2,VAR,6,0,NA,1015,METAR KLNK 091954Z AUTO VRB06KT 10SM SCT032 25/17 A2997 RMK AO2 SLP139 T02500172,2025-09-09T20:10:15Z,2025-09-09T16:10:15Z
KLRD,"Laredo Intl, TX, US",2025-09-09T14:56:00Z,2025-09-09T10:56:00Z,VFR,27.2,21.7,100,6,0,NA,1016.7,METAR KLRD 091456Z 10006KT 10SM CLR 27/22 A3002 RMK AO2 SLP161 T02720217 51010 $,2025-09-09T15:51:30Z,2025-09-09T11:51:30Z
KLRD,"Laredo Intl, TX, US",2025-09-09T15:56:00Z,2025-09-09T11:56:00Z,VFR,30,20.6,90,7,0,NA,1016.7,METAR KLRD 091556Z 09007KT 10SM CLR 30/21 A3002 RMK AO2 SLP162 T03000206 $,2025-09-09T16:06:03Z,2025-09-09T12:06:03Z
KLRD,"Laredo Intl, TX, US",2025-09-09T16:56:00Z,2025-09-09T12:56:00Z,VFR,30.6,20,VAR,3,0,NA,1016.7,METAR KLRD 091656Z VRB03KT 10SM FEW043 SCT050 31/20 A3002 RMK AO2 SLP161 T03060200 $,2025-09-09T17:12:54Z,2025-09-09T13:12:54Z
KLRD,"Laredo Intl, TX, US",2025-09-09T17:56:00Z,2025-09-09T13:56:00Z,VFR,31.7,18.9,VAR,4,0,NA,1016,METAR KLRD 091756Z VRB04KT 10SM CLR 32/19 A3000 RMK AO2 SLP155 T03170189 10322 20233 58005 $,2025-09-09T18:09:21Z,2025-09-09T14:09:21Z
KLRD,"Laredo Intl, TX, US",2025-09-09T18:56:00Z,2025-09-09T14:56:00Z,VFR,33.3,18.9,0,0,0,NA,1015.3,METAR KLRD 091856Z 00000KT 10SM BKN065 33/19 A2998 RMK AO2 SLP148 T03330189 $,2025-09-09T19:00:57Z,2025-09-09T15:00:57Z
KLRD,"Laredo Intl, TX, US",2025-09-09T19:56:00Z,2025-09-09T15:56:00Z,VFR,35,18.3,140,9,0,NA,1014.6,METAR KLRD 091956Z 14009KT 10SM OVC060 35/18 A2996 RMK AO2 SLP139 T03500183 $,2025-09-09T20:10:18Z,2025-09-09T16:10:18Z
KMCI,"Kansas City Intl, MO, US",2025-09-09T14:53:00Z,2025-09-09T10:53:00Z,VFR,15.6,13.9,180,9,0,6,1018.4,METAR KMCI 091453Z 18009KT 6SM -RA BR BKN110 16/14 A3007 RMK AO2 RAB1357 SLP176 P0006 60008 T01560139 51007 $,2025-09-09T15:51:29Z,2025-09-09T11:51:29Z
KMCI,"Kansas City Intl, MO, US",2025-09-09T15:53:00Z,2025-09-09T11:53:00Z,VFR,15.6,14.4,190,13,0,NA,1017.4,METAR KMCI 091553Z 19013KT 10SM -RA FEW036 BKN047 OVC090 16/14 A3004 RMK AO2 SLP169 P0005 T01560144 $,2025-09-09T16:06:02Z,2025-09-09T12:06:02Z
KMCI,"Kansas City Intl, MO, US",2025-09-09T16:53:00Z,2025-09-09T12:53:00Z,VFR,17.2,14.4,180,13,0,NA,1017.4,METAR KMCI 091653Z 18013KT 10SM FEW010 BKN120 BKN250 17/14 A3004 RMK AO2 RAE03 SLP168 P0001 T01720144 $,2025-09-09T17:12:51Z,2025-09-09T13:12:51Z
KMCI,"Kansas City Intl, MO, US",2025-09-09T17:53:00Z,2025-09-09T13:53:00Z,VFR,19.4,15,200,6,0,NA,1017.4,METAR KMCI 091753Z 20006KT 10SM SCT016 BKN110 19/15 A3004 RMK AO2 LTG DSNT S AND SW SLP166 60014 T01940150 10194 20144 56009 $,2025-09-09T18:09:20Z,2025-09-09T14:09:20Z
KMCI,"Kansas City Intl, MO, US",2025-09-09T18:53:00Z,2025-09-09T14:53:00Z,VFR,21.1,15.6,140,4,0,NA,1017,METAR KMCI 091853Z 14004KT 10SM FEW020 SCT250 21/16 A3003 RMK AO2 SLP161 CB DSNT SE-S MOV SE T02110156 $,2025-09-09T19:00:56Z,2025-09-09T15:00:56Z
KMCI,"Kansas City Intl, MO, US",2025-09-09T19:19:00Z,2025-09-09T15:19:00Z,MVFR,22.2,15,180,8,0,NA,1017,SPECI KMCI 091919Z 18008KT 10SM BKN022 22/15 A3003 RMK AO2 CB DSNT SE-S MOV SE T02220150 $,2025-09-09T19:20:54Z,2025-09-09T15:20:54Z
KMCI,"Kansas City Intl, MO, US",2025-09-09T19:53:00Z,2025-09-09T15:53:00Z,MVFR,21.7,15.6,200,7,14,NA,1016.7,METAR KMCI 091953Z 20007G14KT 10SM BKN023 22/16 A3002 RMK AO2 SLP161 T02170156 $,2025-09-09T20:10:15Z,2025-09-09T16:10:15Z
KMCI,"Kansas City Intl, MO, US",2025-09-09T20:21:00Z,2025-09-09T16:21:00Z,VFR,22.2,15.6,160,6,0,NA,1016.7,SPECI KMCI 092021Z 16006KT 10SM FEW023 FEW250 22/16 A3002 RMK AO2 T02220156 $,2025-09-09T20:31:18Z,2025-09-09T16:31:18Z
KMCO,"Orlando Intl, FL, US",2025-09-09T14:53:00Z,2025-09-09T10:53:00Z,VFR,27.8,22.8,70,5,0,NA,1015,METAR KMCO 091453Z 07005KT 10SM FEW030 FEW070 BKN160 BKN250 28/23 A2997 RMK AO2 SLP148 TCU DSNT NE T02780228 51010 $,2025-09-09T15:51:29Z,2025-09-09T11:51:29Z
KMCO,"Orlando Intl, FL, US",2025-09-09T15:53:00Z,2025-09-09T11:53:00Z,VFR,28.9,23.3,VAR,3,0,NA,1015,METAR KMCO 091553Z VRB03KT 10SM FEW020 BKN160 BKN250 29/23 A2997 RMK AO2 SLP149 T02890233 $,2025-09-09T16:06:02Z,2025-09-09T12:06:02Z
KMCO,"Orlando Intl, FL, US",2025-09-09T16:53:00Z,2025-09-09T12:53:00Z,VFR,29.4,23.3,70,5,0,NA,1014.6,METAR KMCO 091653Z 07005KT 10SM SCT025 BKN160 29/23 A2996 RMK AO2 SLP144 T02940233 $,2025-09-09T17:12:51Z,2025-09-09T13:12:51Z
KMCO,"Orlando Intl, FL, US",2025-09-09T17:53:00Z,2025-09-09T13:53:00Z,VFR,30,23.3,0,0,0,NA,1014,METAR KMCO 091753Z 00000KT 10SM BKN032 BKN055 BKN160 30/23 A2994 RMK AO2 SLP136 T03000233 10300 20244 58012 $,2025-09-09T18:09:20Z,2025-09-09T14:09:20Z
KMCO,"Orlando Intl, FL, US",2025-09-09T18:46:00Z,2025-09-09T14:46:00Z,MVFR,25.6,23.9,70,13,18,6,1013.6,SPECI KMCO 091846Z 07013G18KT 6SM R35L/5000VP6000FT +RA BR BKN029 BKN045 BKN160 26/24 A2993 RMK AO2 RAB30 VIS NE-E W 2 1/2 P0001 T02560239 $,2025-09-09T18:50:46Z,2025-09-09T14:50:46Z
KMCO,"Orlando Intl, FL, US",2025-09-09T18:57:00Z,2025-09-09T14:57:00Z,IFR,25,23.3,50,9,0,1.25,1014,SPECI KMCO 091857Z 05009KT 1 1/4SM R35L/5500VP6000FT +RA BR SCT029 BKN044 OVC060 25/23 A2994 RMK AO2 P0010 T02500233 $,2025-09-09T19:00:56Z,2025-09-09T15:00:56Z
KMCO,"Orlando Intl, FL, US",2025-09-09T19:13:00Z,2025-09-09T15:13:00Z,IFR,24.4,23.9,50,10,0,1.5,1014,SPECI KMCO 091913Z 05010KT 1 1/2SM R35L/4000VP6000FT +TSRA BR BKN025CB OVC055 24/24 A2994 RMK AO2 TSB13 OCNL LTGICCG OHD SW-NW-NE-E TS OHD SW-NW-NE-E STNRY P0050 T02440239 $,2025-09-09T19:20:54Z,2025-09-09T15:20:54Z
KMCO,"Orlando Intl, FL, US",2025-09-09T19:58:00Z,2025-09-09T15:58:00Z,IFR,23.9,23.3,40,9,0,1.5,1014.3,SPECI KMCO 091958Z 04009KT 1 1/2SM R35L/1400V3500FT +TSRA BR BKN026CB OVC047 24/23 A2995 RMK AO2 OCNL LTGICCG OHD SW-NW-NE TS OHD SW-NW-NE STNRY P0011 T02390233 $,2025-09-09T20:10:15Z,2025-09-09T16:10:15Z
KMCO,"Orlando Intl, FL, US",2025-09-09T20:28:00Z,2025-09-09T16:28:00Z,MVFR,23.9,22.8,30,9,0,3,1013.6,SPECI KMCO 092028Z 03009KT 3SM R35L/5500VP6000FT +TSRA BR SCT026CB BKN042 OVC070 24/23 A2993 RMK AO2 OCNL LTGIC N-NE TS N-NE STNRY P0059 T02390228 $,2025-09-09T20:31:18Z,2025-09-09T16:31:18Z
KMCO,"Orlando Intl, FL, US",2025-09-09T20:47:00Z,2025-09-09T16:47:00Z,VFR,24,23,50,10,0,7,1013.3,SPECI KMCO 092047Z 05010KT 7SM -RA FEW026 SCT045 OVC075 24/23 A2992 RMK AO2 TSE47 TS DSIPTD P0072 $,2025-09-09T20:54:00Z,2025-09-09T16:54:00Z
KMDW,"Chicago/Midway Intl, IL, US",2025-09-09T14:53:00Z,2025-09-09T10:53:00Z,VFR,19.4,5.6,210,8,0,NA,1022.1,METAR KMDW 091453Z 21008KT 10SM BKN250 19/06 A3018 RMK AO2 SLP216 T01940056 50000 $,2025-09-09T15:51:29Z,2025-09-09T11:51:29Z
KMDW,"Chicago/Midway Intl, IL, US",2025-09-09T15:53:00Z,2025-09-09T11:53:00Z,VFR,21.1,5.6,210,7,0,NA,1022.4,METAR KMDW 091553Z 21007KT 10SM BKN250 21/06 A3019 RMK AO2 SLP216 T02110056 $,2025-09-09T16:06:01Z,2025-09-09T12:06:01Z
KMDW,"Chicago/Midway Intl, IL, US",2025-09-09T16:53:00Z,2025-09-09T12:53:00Z,VFR,23.3,6.1,210,9,0,NA,1021.8,METAR KMDW 091653Z 21009KT 10SM BKN250 23/06 A3017 RMK AO2 SLP212 T02330061 $,2025-09-09T17:12:51Z,2025-09-09T13:12:51Z
KMDW,"Chicago/Midway Intl, IL, US",2025-09-09T17:53:00Z,2025-09-09T13:53:00Z,VFR,22.8,5,190,8,15,NA,1021.1,METAR KMDW 091753Z 19008G15KT 10SM BKN250 23/05 A3015 RMK AO2 SLP205 T02280050 10233 20128 58011 $,2025-09-09T18:09:20Z,2025-09-09T14:09:20Z
KMDW,"Chicago/Midway Intl, IL, US",2025-09-09T18:53:00Z,2025-09-09T14:53:00Z,VFR,23.9,5.6,200,7,15,NA,1020.7,METAR KMDW 091853Z 20007G15KT 10SM FEW200 BKN250 24/06 A3014 RMK AO2 SLP201 T02390056 $,2025-09-09T19:00:56Z,2025-09-09T15:00:56Z
KMDW,"Chicago/Midway Intl, IL, US",2025-09-09T19:53:00Z,2025-09-09T15:53:00Z,VFR,25,6.7,190,9,0,NA,1020.1,METAR KMDW 091953Z 19009KT 10SM SCT200 BKN250 25/07 A3012 RMK AO2 SLP195 T02500067 $,2025-09-09T20:10:15Z,2025-09-09T16:10:15Z
KMEM,"Memphis Intl, TN, US",2025-09-09T15:28:00Z,2025-09-09T11:28:00Z,MVFR,26.1,17.8,210,11,0,NA,1019.7,SPECI KMEM 091528Z 21011KT 10SM BKN026 BKN033 26/18 A3011 RMK AO2 T02610178 $,2025-09-09T15:51:29Z,2025-09-09T11:51:29Z
KMEM,"Memphis Intl, TN, US",2025-09-09T15:54:00Z,2025-09-09T11:54:00Z,VFR,26.7,17.8,170,10,0,NA,1019.7,METAR KMEM 091554Z 17010KT 10SM SCT028 27/18 A3011 RMK AO2 SLP190 T02670178 $,2025-09-09T16:06:01Z,2025-09-09T12:06:01Z
KMEM,"Memphis Intl, TN, US",2025-09-09T16:54:00Z,2025-09-09T12:54:00Z,VFR,27.8,17.8,210,8,0,NA,1019.4,METAR KMEM 091654Z 21008KT 10SM SCT033 28/18 A3010 RMK AO2 SLP188 T02780178 $,2025-09-09T17:12:51Z,2025-09-09T13:12:51Z
KMEM,"Memphis Intl, TN, US",2025-09-09T17:54:00Z,2025-09-09T13:54:00Z,VFR,27.8,16.7,VAR,4,0,NA,1018.7,METAR KMEM 091754Z VRB04KT 10SM FEW038 SCT044 SCT065 28/17 A3008 RMK AO2 SLP184 T02780167 10294 20167 58009 $,2025-09-09T18:09:20Z,2025-09-09T14:09:20Z
KMEM,"Memphis Intl, TN, US",2025-09-09T18:54:00Z,2025-09-09T14:54:00Z,VFR,30.6,16.1,0,0,0,NA,1018.4,METAR KMEM 091854Z 00000KT 10SM FEW050 SCT060 31/16 A3007 RMK AO2 SLP177 T03060161 $,2025-09-09T19:00:56Z,2025-09-09T15:00:56Z
KMEM,"Memphis Intl, TN, US",2025-09-09T19:54:00Z,2025-09-09T15:54:00Z,VFR,31.1,14.4,310,3,0,NA,1017.7,METAR KMEM 091954Z 31003KT 10SM SCT055 SCT070 SCT200 31/14 A3005 RMK AO2 SLP170 T03110144 $,2025-09-09T20:10:15Z,2025-09-09T16:10:15Z
KMFE,"McAllen/Miller Intl, TX, US",2025-09-09T14:53:00Z,2025-09-09T10:53:00Z,VFR,28.9,23.3,30,6,0,NA,1015.3,METAR KMFE 091453Z 03006KT 10SM SCT024 SCT031 BKN042 29/23 A2998 RMK AO2 SLP150 T02890233 53010 $,2025-09-09T15:51:30Z,2025-09-09T11:51:30Z
KMFE,"McAllen/Miller Intl, TX, US",2025-09-09T15:53:00Z,2025-09-09T11:53:00Z,VFR,31.7,23.9,10,8,0,NA,1015.3,METAR KMFE 091553Z 01008KT 10SM FEW025 SCT050 32/24 A2998 RMK AO2 SLP150 T03170239 $,2025-09-09T16:06:03Z,2025-09-09T12:06:03Z
KMFE,"McAllen/Miller Intl, TX, US",2025-09-09T16:53:00Z,2025-09-09T12:53:00Z,VFR,31.7,22.8,40,8,0,NA,1015.3,METAR KMFE 091653Z 04008KT 10SM FEW032 SCT050 BKN060 32/23 A2998 RMK AO2 SLP149 T03170228 $,2025-09-09T17:12:54Z,2025-09-09T13:12:54Z
KMFE,"McAllen/Miller Intl, TX, US",2025-09-09T17:58:00Z,2025-09-09T13:58:00Z,VFR,31.1,22.8,10,16,22,NA,1015,SPECI KMFE 091758Z 01016G22KT 10SM BKN035 31/23 A2997 RMK AO2 T03110228 $,2025-09-09T18:09:21Z,2025-09-09T14:09:21Z
KMFE,"McAllen/Miller Intl, TX, US",2025-09-09T18:08:00Z,2025-09-09T14:08:00Z,IFR,27.2,23.3,10,16,22,1.75,1015,SPECI KMFE 091808Z 01016G22KT 1 3/4SM HZ BKN037 BKN050 27/23 A2997 RMK AO2 LTG DSNT NE T02720233 $,2025-09-09T18:13:46Z,2025-09-09T14:13:46Z
KMFE,"McAllen/Miller Intl, TX, US",2025-09-09T18:15:00Z,2025-09-09T14:15:00Z,MVFR,27.2,23.3,10,16,22,5,1015,SPECI KMFE 091815Z 01016G22KT 5SM HZ BKN039 OVC060 27/23 A2997 RMK AO2 LTG DSNT NE T02720233 $,2025-09-09T18:38:59Z,2025-09-09T14:38:59Z
KMFE,"McAllen/Miller Intl, TX, US",2025-09-09T18:53:00Z,2025-09-09T14:53:00Z,VFR,30.6,24.4,10,16,22,NA,1014.6,METAR KMFE 091853Z 01016G22KT 10SM FEW027 BKN080 OVC090 31/24 A2996 RMK AO2 SLP142 T03060244 $,2025-09-09T19:00:57Z,2025-09-09T15:00:57Z
KMFE,"McAllen/Miller Intl, TX, US",2025-09-09T19:53:00Z,2025-09-09T15:53:00Z,VFR,29.4,23.9,150,4,0,NA,1014,METAR KMFE 091953Z 15004KT 10SM SCT060 BKN075 29/24 A2994 RMK AO2 SLP137 T02940239 $,2025-09-09T20:10:18Z,2025-09-09T16:10:18Z
KMFR,"Medford/Rogue Valley Intl, OR, US",2025-09-09T14:53:00Z,2025-09-09T10:53:00Z,MVFR,16.1,14.4,0,0,0,NA,1014.3,METAR KMFR 091453Z 00000KT 10SM BKN011 BKN019 OVC080 16/14 A2995 RMK AO2 RAE1359 SLP136 P0000 60000 T01610144 58001 $,2025-09-09T15:51:30Z,2025-09-09T11:51:30Z
KMFR,"Medford/Rogue Valley Intl, OR, US",2025-09-09T15:53:00Z,2025-09-09T11:53:00Z,MVFR,16.1,13.9,0,0,0,NA,1014.3,METAR KMFR 091553Z 00000KT 10SM FEW011 BKN023 BKN090 16/14 A2995 RMK AO2 SLP137 T01610139 $,2025-09-09T16:06:03Z,2025-09-09T12:06:03Z
KMFR,"Medford/Rogue Valley Intl, OR, US",2025-09-09T16:53:00Z,2025-09-09T12:53:00Z,MVFR,17.2,13.9,0,0,0,NA,1014.6,METAR KMFR 091653Z 00000KT 10SM FEW011 BKN023 BKN090 17/14 A2996 RMK AO2 SLP138 T01720139 $,2025-09-09T17:12:54Z,2025-09-09T13:12:54Z
KMFR,"Medford/Rogue Valley Intl, OR, US",2025-09-09T17:41:00Z,2025-09-09T13:41:00Z,MVFR,17.8,14.4,0,0,0,NA,1014.3,SPECI KMFR 091741Z 00000KT 10SM BKN013 BKN026 OVC085 18/14 A2995 RMK AO2 T01780144 $,2025-09-09T17:52:16Z,2025-09-09T13:52:16Z
KMFR,"Medford/Rogue Valley Intl, OR, US",2025-09-09T17:53:00Z,2025-09-09T13:53:00Z,VFR,18.3,14.4,350,3,0,NA,1014.3,METAR KMFR 091753Z 35003KT 10SM SCT014 OVC085 18/14 A2995 RMK AO2 SLP135 60000 T01830144 10183 20156 58000 $,2025-09-09T18:09:21Z,2025-09-09T14:09:21Z
KMFR,"Medford/Rogue Valley Intl, OR, US",2025-09-09T18:53:00Z,2025-09-09T14:53:00Z,VFR,18.9,13.3,0,0,0,NA,1014,METAR KMFR 091853Z 00000KT 10SM FEW023 OVC080 19/13 A2994 RMK AO2 SLP134 T01890133 $,2025-09-09T19:00:57Z,2025-09-09T15:00:57Z
KMFR,"Medford/Rogue Valley Intl, OR, US",2025-09-09T19:53:00Z,2025-09-09T15:53:00Z,VFR,20,12.2,0,0,0,NA,1013.6,METAR KMFR 091953Z 00000KT 10SM OVC090 20/12 A2993 RMK AO2 SLP129 T02000122 $,2025-09-09T20:10:18Z,2025-09-09T16:10:18Z
KMIA,"Miami Intl, FL, US",2025-09-09T15:41:00Z,2025-09-09T11:41:00Z,VFR,30.6,25,VAR,4,0,NA,1014.6,SPECI KMIA 091541Z VRB04KT 10SM SCT024CB BKN250 31/25 A2996 RMK AO2 CB VC E-SE AND DSNT ALQDS MOV NE T03060250 $,2025-09-09T15:51:29Z,2025-09-09T11:51:29Z
KMIA,"Miami Intl, FL, US",2025-09-09T15:53:00Z,2025-09-09T11:53:00Z,VFR,31.1,24.4,150,4,0,NA,1014.3,METAR KMIA 091553Z 15004KT 10SM SCT025CB BKN250 31/24 A2995 RMK AO2 LTG DSNT N SLP143 CB VC NE AND DSNT ALQDS MOV NE T03110244 $,2025-09-09T16:06:02Z,2025-09-09T12:06:02Z
KMIA,"Miami Intl, FL, US",2025-09-09T16:27:00Z,2025-09-09T12:27:00Z,MVFR,31.1,24.4,130,6,0,NA,1014.3,SPECI KMIA 091627Z 13006KT 10SM TS BKN026CB BKN250 31/24 A2995 RMK AO2 TSB26 OCNL LTGICCG VC W-NW TS VC W-NW MOV NE CB DSNT ALQDS MOV NE T03110244 $,2025-09-09T16:36:27Z,2025-09-09T12:36:27Z
KMIA,"Miami Intl, FL, US",2025-09-09T16:55:00Z,2025-09-09T12:55:00Z,MVFR,28.9,24.4,330,9,14,NA,1014.3,SPECI KMIA 091655Z 33009G14KT 10SM TS BKN025CB BKN045 BKN250 29/24 A2995 RMK AO2 LTG DSNT NE AND SW AND W OCNL LTGICCG VC W-NW TS VC W-NW MOV NE CB DSNT ALQDS MOV NE T02890244 $,2025-09-09T17:12:51Z,2025-09-09T13:12:51Z
KMIA,"Miami Intl, FL, US",2025-09-09T17:24:00Z,2025-09-09T13:24:00Z,LIFR,25.6,23.9,20,4,0,0.5,1015,SPECI KMIA 091724Z 02004KT 1/2SM +TSRA FG BKN006 OVC015CB 26/24 A2997 RMK AO2 RAB05 PRESRR OCNL LTGICCG OHD TS OHD MOV NE P0024 T02560239 RVRNO $,2025-09-09T17:30:35Z,2025-09-09T13:30:35Z
KMIA,"Miami Intl, FL, US",2025-09-09T17:34:00Z,2025-09-09T13:34:00Z,LIFR,24.4,23.9,290,9,0,0.25,1015.7,SPECI KMIA 091734Z 29009KT 1/4SM +TSRA FG VV006 24/24 A2999 RMK AO2 RAB05 FRQ LTGICCG OHD TS OHD MOV NE P0096 T02440239 RVRNO $,2025-09-09T17:41:37Z,2025-09-09T13:41:37Z
KMIA,"Miami Intl, FL, US",2025-09-09T17:43:00Z,2025-09-09T13:43:00Z,LIFR,24.4,24.4,340,3,0,0.25,1015.7,SPECI KMIA 091743Z 34003KT 1/4SM +TSRA FG VV005 24/24 A2999 RMK AO2 RAB05 CONS LTGICCCCG OHD TS OHD MOV NE P0171 T02440244 RVRNO $,2025-09-09T17:52:14Z,2025-09-09T13:52:14Z
KMIA,"Miami Intl, FL, US",2025-09-09T18:03:00Z,2025-09-09T14:03:00Z,LIFR,23.9,23.9,350,3,0,0.75,1015,SPECI KMIA 091803Z 35003KT 3/4SM +TSRA BR SCT005 OVC014CB 24/24 A2997 RMK AO2 OCNL LTGICCG OHD TS OHD MOV NE P0023 T02390239 RVRNO $,2025-09-09T18:09:20Z,2025-09-09T14:09:20Z
KMIA,"Miami Intl, FL, US",2025-09-09T18:24:00Z,2025-09-09T14:24:00Z,MVFR,24.4,23.9,340,5,0,5,1014.3,SPECI KMIA 091824Z 34005KT 5SM -TSRA BR SCT015CB SCT035 OVC250 24/24 A2995 RMK AO2 PRESFR OCNL LTGICCG NE-E TS NE-E MOV NE P0050 T02440239 $,2025-09-09T18:38:56Z,2025-09-09T14:38:56Z
KMIA,"Miami Intl, FL, US",2025-09-09T18:47:00Z,2025-09-09T14:47:00Z,VFR,25,24,0,0,0,NA,1014.3,SPECI KMIA 091847Z 00000KT 10SM FEW015 SCT035 SCT070 BKN250 25/24 A2995 RMK AO2 RAE28 TSE46 TS DSIPTD CB DSNT ALQDS MOV NE P0050 $,2025-09-09T18:50:46Z,2025-09-09T14:50:46Z
KMIA,"Miami Intl, FL, US",2025-09-09T18:53:00Z,2025-09-09T14:53:00Z,VFR,25,23.9,40,3,0,NA,1014.3,METAR KMIA 091853Z 04003KT 10SM FEW015 SCT035 SCT070 BKN250 25/24 A2995 RMK AO2 RAE28 TSE46 SLP140 TS DSIPTD CB DSNT ALQDS MOV NE P0050 T02500239 $,2025-09-09T19:00:56Z,2025-09-09T15:00:56Z
KMIA,"Miami Intl, FL, US",2025-09-09T19:53:00Z,2025-09-09T15:53:00Z,VFR,26.7,23.3,0,0,0,NA,1013.3,METAR KMIA 091953Z 00000KT 10SM FEW015 FEW035 SCT070 BKN250 27/23 A2992 RMK AO2 SLP132 CB DSNT E-S-W MOV NE T02670233 $,2025-09-09T20:10:15Z,2025-09-09T16:10:15Z
KMLI,"Moline/Quad City Intl, IL, US",2025-09-09T14:52:00Z,2025-09-09T10:52:00Z,VFR,18.3,9.4,VAR,4,0,NA,1020.4,METAR KMLI 091452Z VRB04KT 10SM CLR 18/09 A3013 RMK AO2 SLP204 T01830094 53002,2025-09-09T15:51:29Z,2025-09-09T11:51:29Z
KMLI,"Moline/Quad City Intl, IL, US",2025-09-09T15:52:00Z,2025-09-09T11:52:00Z,VFR,21.1,9.4,180,9,0,NA,1020.1,METAR KMLI 091552Z 18009KT 10SM CLR 21/09 A3012 RMK AO2 SLP198 T02110094,2025-09-09T16:06:02Z,2025-09-09T12:06:02Z
KMLI,"Moline/Quad City Intl, IL, US",2025-09-09T16:52:00Z,2025-09-09T12:52:00Z,VFR,23.3,9.4,180,10,0,NA,1019.7,METAR KMLI 091652Z 18010KT 10SM CLR 23/09 A3011 RMK AO2 SLP195 T02330094,2025-09-09T17:12:51Z,2025-09-09T13:12:51Z
KMLI,"Moline/Quad City Intl, IL, US",2025-09-09T17:52:00Z,2025-09-09T13:52:00Z,VFR,23.3,8.9,160,8,0,NA,1019.4,METAR KMLI 091752Z 16008KT 10SM CLR 23/09 A3010 RMK AO2 SLP191 T02330089 10244 20100 56012,2025-09-09T18:09:20Z,2025-09-09T14:09:20Z
KMLI,"Moline/Quad City Intl, IL, US",2025-09-09T18:52:00Z,2025-09-09T14:52:00Z,VFR,23.3,8.9,190,8,0,NA,1019,METAR KMLI 091852Z 19008KT 10SM CLR 23/09 A3009 RMK AO2 SLP187 T02330089,2025-09-09T19:00:56Z,2025-09-09T15:00:56Z
KMLI,"Moline/Quad City Intl, IL, US",2025-09-09T19:52:00Z,2025-09-09T15:52:00Z,VFR,23.3,9.4,200,6,0,NA,1018.4,METAR KMLI 091952Z 20006KT 10SM SCT120 23/09 A3007 RMK AO2 SLP182 T02330094,2025-09-09T20:10:15Z,2025-09-09T16:10:15Z
KMSO,"Missoula Intl, MT, US",2025-09-09T14:53:00Z,2025-09-09T10:53:00Z,VFR,11.7,7.8,0,0,0,NA,1015.7,METAR KMSO 091453Z 00000KT 10SM CLR 12/08 A2999 RMK AO2 SLP145 T01170078 50007,2025-09-09T15:51:30Z,2025-09-09T11:51:30Z
KMSO,"Missoula Intl, MT, US",2025-09-09T15:53:00Z,2025-09-09T11:53:00Z,VFR,13.3,7.8,160,3,0,NA,1015.7,METAR KMSO 091553Z 16003KT 10SM CLR 13/08 A2999 RMK AO2 SLP146 T01330078,2025-09-09T16:06:03Z,2025-09-09T12:06:03Z
KMSO,"Missoula Intl, MT, US",2025-09-09T16:53:00Z,2025-09-09T12:53:00Z,VFR,15,7.8,160,3,0,NA,1016,METAR KMSO 091653Z 16003KT 10SM CLR 15/08 A3000 RMK AO2 SLP149 T01500078,2025-09-09T17:12:54Z,2025-09-09T13:12:54Z
KMSO,"Missoula Intl, MT, US",2025-09-09T17:53:00Z,2025-09-09T13:53:00Z,VFR,16.7,7.2,140,3,0,NA,1015.7,METAR KMSO 091753Z 14003KT 10SM CLR 17/07 A2999 RMK AO2 SLP144 T01670072 10167 20083 58000,2025-09-09T18:09:21Z,2025-09-09T14:09:21Z
KMSO,"Missoula Intl, MT, US",2025-09-09T18:53:00Z,2025-09-09T14:53:00Z,VFR,18.3,7.8,0,0,0,NA,1015.3,METAR KMSO 091853Z 00000KT 10SM CLR 18/08 A2998 RMK AO2 SLP139 T01830078,2025-09-09T19:00:57Z,2025-09-09T15:00:57Z
KMSO,"Missoula Intl, MT, US",2025-09-09T19:53:00Z,2025-09-09T15:53:00Z,VFR,18.9,8.9,260,8,0,NA,1014.3,METAR KMSO 091953Z 26008KT 10SM CLR 19/09 A2995 RMK AO2 SLP133 T01890089,2025-09-09T20:10:18Z,2025-09-09T16:10:18Z
KMSP,"Minneapolis-St Paul Intl, MN, US",2025-09-09T14:53:00Z,2025-09-09T10:53:00Z,MVFR,18.9,12.8,200,7,0,NA,1014.6,METAR KMSP 091453Z 20007KT 10SM OVC029 19/13 A2996 RMK AO2 SLP144 T01890128 53003,2025-09-09T15:51:29Z,2025-09-09T11:51:29Z
KMSP,"Minneapolis-St Paul Intl, MN, US",2025-09-09T15:53:00Z,2025-09-09T11:53:00Z,MVFR,19.4,13.3,230,11,17,NA,1015.3,METAR KMSP 091553Z 23011G17KT 10SM OVC029 19/13 A2998 RMK AO2 SLP148 T01940133,2025-09-09T16:06:02Z,2025-09-09T12:06:02Z
KMSP,"Minneapolis-St Paul Intl, MN, US",2025-09-09T16:53:00Z,2025-09-09T12:53:00Z,MVFR,20,13.9,210,7,0,NA,1015.3,METAR KMSP 091653Z 21007KT 10SM OVC025 20/14 A2998 RMK AO2 SLP150 T02000139,2025-09-09T17:12:51Z,2025-09-09T13:12:51Z
KMSP,"Minneapolis-St Paul Intl, MN, US",2025-09-09T17:53:00Z,2025-09-09T13:53:00Z,MVFR,20,13.9,200,7,0,NA,1015,METAR KMSP 091753Z 20007KT 10SM OVC023 20/14 A2997 RMK AO2 SLP146 T02000139 10200 20183 50002,2025-09-09T18:09:20Z,2025-09-09T14:09:20Z
KMSP,"Minneapolis-St Paul Intl, MN, US",2025-09-09T18:53:00Z,2025-09-09T14:53:00Z,MVFR,20,14.4,210,8,0,NA,1014.6,METAR KMSP 091853Z 21008KT 10SM BKN023 BKN120 BKN160 OVC250 20/14 A2996 RMK AO2 LTG DSNT E-SW SLP144 T02000144,2025-09-09T19:00:56Z,2025-09-09T15:00:56Z
KMSP,"Minneapolis-St Paul Intl, MN, US",2025-09-09T19:39:00Z,2025-09-09T15:39:00Z,MVFR,18.9,15.6,210,7,0,9,1015.3,SPECI KMSP 091939Z 21007KT 9SM VCTS -RA BKN022CB BKN075 OVC095 19/16 A2998 RMK AO2 LTG DSNT E AND S RAB20 VCTS E MOV NE P0001 T01890156,2025-09-09T19:51:19Z,2025-09-09T15:51:19Z
KMSP,"Minneapolis-St Paul Intl, MN, US",2025-09-09T19:53:00Z,2025-09-09T15:53:00Z,VFR,18.3,16.1,210,7,0,9,1015.7,METAR KMSP 091953Z 21007KT 9SM RA SCT020 BKN070 OVC095 18/16 A2999 RMK AO2 LTG DSNT E AND SE RAB20 SLP152 P0003 T01830161,2025-09-09T20:10:15Z,2025-09-09T16:10:15Z
KMYR,"Myrtle Beach Intl, SC, US",2025-09-09T14:53:00Z,2025-09-09T10:53:00Z,VFR,21.1,14.4,10,9,14,NA,1020.7,METAR KMYR 091453Z 01009G14KT 10SM CLR 21/14 A3014 RMK AO2 SLP204 T02110144 53004 $,2025-09-09T15:51:29Z,2025-09-09T11:51:29Z
KMYR,"Myrtle Beach Intl, SC, US",2025-09-09T15:53:00Z,2025-09-09T11:53:00Z,VFR,22.2,15.6,360,13,0,NA,1020.7,METAR KMYR 091553Z 36013KT 10SM CLR 22/16 A3014 RMK AO2 SLP204 T02220156 $,2025-09-09T16:06:01Z,2025-09-09T12:06:01Z
KMYR,"Myrtle Beach Intl, SC, US",2025-09-09T16:53:00Z,2025-09-09T12:53:00Z,VFR,23.9,16.7,360,12,0,NA,1020.1,METAR KMYR 091653Z 36012KT 10SM CLR 24/17 A3012 RMK AO2 SLP199 T02390167 $,2025-09-09T17:12:51Z,2025-09-09T13:12:51Z
KMYR,"Myrtle Beach Intl, SC, US",2025-09-09T17:53:00Z,2025-09-09T13:53:00Z,VFR,25,17.2,360,15,0,NA,1019.4,METAR KMYR 091753Z 36015KT 10SM CLR 25/17 A3010 RMK AO2 SLP194 T02500172 10250 20183 58010 $,2025-09-09T18:09:20Z,2025-09-09T14:09:20Z
KMYR,"Myrtle Beach Intl, SC, US",2025-09-09T18:53:00Z,2025-09-09T14:53:00Z,VFR,25,17.2,10,11,0,NA,1018.7,METAR KMYR 091853Z 01011KT 10SM SCT033 25/17 A3008 RMK AO2 SLP185 T02500172 $,2025-09-09T19:00:56Z,2025-09-09T15:00:56Z
KMYR,"Myrtle Beach Intl, SC, US",2025-09-09T19:53:00Z,2025-09-09T15:53:00Z,VFR,25,17.2,10,12,0,NA,1018,METAR KMYR 091953Z 01012KT 10SM CLR 25/17 A3006 RMK AO2 SLP178 T02500172 $,2025-09-09T20:10:15Z,2025-09-09T16:10:15Z
KOAK,"Oakland Intl, CA, US",2025-09-09T15:21:00Z,2025-09-09T11:21:00Z,VFR,18.9,16.7,200,6,0,NA,1014.6,SPECI KOAK 091521Z 20006KT 10SM FEW020 SCT038 BKN250 19/17 A2996 RMK AO2 RAE02 P0000 T01890167,2025-09-09T15:51:32Z,2025-09-09T11:51:32Z
KOAK,"Oakland Intl, CA, US",2025-09-09T15:53:00Z,2025-09-09T11:53:00Z,VFR,18.9,17.2,190,7,0,NA,1014.6,METAR KOAK 091553Z 19007KT 10SM SCT019 BKN038 BKN050 BKN250 19/17 A2996 RMK AO2 RAE02 SLP144 P0000 T01890172,2025-09-09T16:06:05Z,2025-09-09T12:06:05Z
KOAK,"Oakland Intl, CA, US",2025-09-09T17:10:00Z,2025-09-09T13:10:00Z,MVFR,19.4,16.7,160,7,0,NA,1014.6,SPECI KOAK 091710Z 16007KT 10SM FEW019 BKN027 BKN037 BKN250 19/17 A2996 RMK AO2 T01940167,2025-09-09T17:12:57Z,2025-09-09T13:12:57Z
KOAK,"Oakland Intl, CA, US",2025-09-09T17:53:00Z,2025-09-09T13:53:00Z,VFR,20.6,16.7,190,8,0,NA,1014.3,METAR KOAK 091753Z 19008KT 10SM FEW014 SCT020 BKN038 BKN250 21/17 A2995 RMK AO2 RAB14E23 SLP142 P0000 60002 T02060167 10206 20183 58001,2025-09-09T18:09:23Z,2025-09-09T14:09:23Z
KOAK,"Oakland Intl, CA, US",2025-09-09T18:53:00Z,2025-09-09T14:53:00Z,VFR,20.6,16.1,180,5,0,NA,1014.3,METAR KOAK 091853Z 18005KT 10SM FEW020 BKN040 BKN250 21/16 A2995 RMK AO2 SLP141 T02060161,2025-09-09T19:00:59Z,2025-09-09T15:00:59Z
KOAK,"Oakland Intl, CA, US",2025-09-09T19:53:00Z,2025-09-09T15:53:00Z,VFR,22.2,16.1,VAR,6,0,NA,1013.6,METAR KOAK 091953Z VRB06KT 10SM SCT050 BKN160 BKN250 22/16 A2993 RMK AO2 SLP136 T02220161,2025-09-09T20:10:19Z,2025-09-09T16:10:19Z
KOKC,"Oklahoma City/Will Rogers Intl, OK, US",2025-09-09T14:52:00Z,2025-09-09T10:52:00Z,VFR,21.7,11.1,180,14,0,NA,1018.4,METAR KOKC 091452Z 18014KT 10SM BKN090 22/11 A3007 RMK AO2 SLP172 T02170111 53004,2025-09-09T15:51:30Z,2025-09-09T11:51:30Z
KOKC,"Oklahoma City/Will Rogers Intl, OK, US",2025-09-09T15:52:00Z,2025-09-09T11:52:00Z,VFR,23.9,12.2,190,11,0,NA,1018.4,METAR KOKC 091552Z 19011KT 10SM SCT095 SCT250 24/12 A3007 RMK AO2 SLP169 T02390122,2025-09-09T16:06:03Z,2025-09-09T12:06:03Z
KOKC,"Oklahoma City/Will Rogers Intl, OK, US",2025-09-09T16:52:00Z,2025-09-09T12:52:00Z,VFR,25.6,12.8,180,15,0,NA,1017.7,METAR KOKC 091652Z 18015KT 10SM FEW100 SCT250 26/13 A3005 RMK AO2 SLP163 T02560128,2025-09-09T17:12:54Z,2025-09-09T13:12:54Z
KOKC,"Oklahoma City/Will Rogers Intl, OK, US",2025-09-09T17:52:00Z,2025-09-09T13:52:00Z,VFR,27.2,14.4,180,13,23,NA,1017,METAR KOKC 091752Z 18013G23KT 10SM SCT250 27/14 A3003 RMK AO2 SLP156 T02720144 10272 20156 58014,2025-09-09T18:09:22Z,2025-09-09T14:09:22Z
KOKC,"Oklahoma City/Will Rogers Intl, OK, US",2025-09-09T18:52:00Z,2025-09-09T14:52:00Z,VFR,28.3,15,170,12,0,NA,1016.7,METAR KOKC 091852Z 17012KT 10SM SCT250 28/15 A3002 RMK AO2 SLP151 T02830150,2025-09-09T19:00:57Z,2025-09-09T15:00:57Z
KOKC,"Oklahoma City/Will Rogers Intl, OK, US",2025-09-09T19:52:00Z,2025-09-09T15:52:00Z,VFR,28.9,15.6,190,13,0,NA,1016,METAR KOKC 091952Z 19013KT 10SM FEW250 29/16 A3000 RMK AO2 SLP143 T02890156,2025-09-09T20:10:18Z,2025-09-09T16:10:18Z
KOMA,"Omaha/Eppley Fld, NE, US",2025-09-09T14:52:00Z,2025-09-09T10:52:00Z,VFR,20,15,180,12,0,NA,1016,METAR KOMA 091452Z 18012KT 10SM SCT042 SCT085 20/15 A3000 RMK AO2 SLP154 T02000150 50004,2025-09-09T15:51:29Z,2025-09-09T11:51:29Z
KOMA,"Omaha/Eppley Fld, NE, US",2025-09-09T15:52:00Z,2025-09-09T11:52:00Z,VFR,21.1,15.6,170,10,0,NA,1016,METAR KOMA 091552Z COR 17010KT 10SM SCT040 SCT080 21/16 A3000 RMK AO2 SLP155 T02110156,2025-09-09T16:06:02Z,2025-09-09T12:06:02Z
KOMA,"Omaha/Eppley Fld, NE, US",2025-09-09T16:52:00Z,2025-09-09T12:52:00Z,VFR,22.2,16.1,210,10,0,NA,1016.3,METAR KOMA 091652Z 21010KT 10SM SCT024 SCT050 BKN080 22/16 A3001 RMK AO2 SLP157 T02220161,2025-09-09T17:12:51Z,2025-09-09T13:12:51Z
KOMA,"Omaha/Eppley Fld, NE, US",2025-09-09T17:52:00Z,2025-09-09T13:52:00Z,VFR,23.9,16.1,190,8,0,NA,1015.7,METAR KOMA 091752Z 19008KT 10SM SCT024 24/16 A2999 RMK AO2 SLP148 T02390161 10239 20161 58004,2025-09-09T18:09:20Z,2025-09-09T14:09:20Z
KOMA,"Omaha/Eppley Fld, NE, US",2025-09-09T18:52:00Z,2025-09-09T14:52:00Z,VFR,23.9,16.7,210,9,0,NA,1015,METAR KOMA 091852Z 21009KT 10SM SCT027 24/17 A2997 RMK AO2 SLP143 T02390167,2025-09-09T19:00:56Z,2025-09-09T15:00:56Z
KOMA,"Omaha/Eppley Fld, NE, US",2025-09-09T19:21:00Z,2025-09-09T15:21:00Z,MVFR,23.9,16.7,160,5,0,NA,1015,SPECI KOMA 091921Z 16005KT 10SM BKN029 24/17 A2997 RMK AO2 T02390167,2025-09-09T19:30:40Z,2025-09-09T15:30:40Z
KOMA,"Omaha/Eppley Fld, NE, US",2025-09-09T19:52:00Z,2025-09-09T15:52:00Z,MVFR,25,17.2,170,6,0,NA,1015,METAR KOMA 091952Z 17006KT 10SM BKN030 25/17 A2997 RMK AO2 SLP141 T02500172,2025-09-09T20:10:15Z,2025-09-09T16:10:15Z
KONT,"Ontario Intl, CA, US",2025-09-09T14:53:00Z,2025-09-09T10:53:00Z,VFR,17.2,14.4,260,5,0,NA,1014.6,METAR KONT 091453Z 26005KT 10SM FEW010 17/14 A2996 RMK AO2 SLP134 T01720144 53008 $,2025-09-09T15:51:32Z,2025-09-09T11:51:32Z
KONT,"Ontario Intl, CA, US",2025-09-09T15:53:00Z,2025-09-09T11:53:00Z,VFR,19.4,14.4,220,4,0,NA,1015,METAR KONT 091553Z 22004KT 10SM FEW010 19/14 A2997 RMK AO2 SLP134 T01940144 $,2025-09-09T16:06:05Z,2025-09-09T12:06:05Z
KONT,"Ontario Intl, CA, US",2025-09-09T16:53:00Z,2025-09-09T12:53:00Z,VFR,21.1,14.4,VAR,4,0,NA,1015,METAR KONT 091653Z VRB04KT 10SM FEW010 21/14 A2997 RMK AO2 SLP135 T02110144 $,2025-09-09T17:12:57Z,2025-09-09T13:12:57Z
KONT,"Ontario Intl, CA, US",2025-09-09T17:53:00Z,2025-09-09T13:53:00Z,VFR,23.3,12.8,0,0,0,NA,1014.6,METAR KONT 091753Z 00000KT 10SM CLR 23/13 A2996 RMK AO2 SLP130 T02330128 10239 20172 58002 $,2025-09-09T18:09:23Z,2025-09-09T14:09:23Z
KONT,"Ontario Intl, CA, US",2025-09-09T18:53:00Z,2025-09-09T14:53:00Z,VFR,25.6,11.1,VAR,3,0,NA,1013.6,METAR KONT 091853Z VRB03KT 10SM CLR 26/11 A2993 RMK AO2 SLP121 T02560111 $,2025-09-09T19:00:59Z,2025-09-09T15:00:59Z
KONT,"Ontario Intl, CA, US",2025-09-09T19:53:00Z,2025-09-09T15:53:00Z,VFR,27.2,10.6,190,5,0,NA,1013,METAR KONT 091953Z 19005KT 10SM CLR 27/11 A2991 RMK AO2 SLP112 T02720106 $,2025-09-09T20:10:19Z,2025-09-09T16:10:19Z
KORD,"Chicago/O'Hare Intl, IL, US",2025-09-09T14:51:00Z,2025-09-09T10:51:00Z,VFR,18.9,5,200,8,0,NA,1022.1,METAR KORD 091451Z 20008KT 10SM BKN250 19/05 A3018 RMK AO2 SLP217 T01890050 55000,2025-09-09T15:51:29Z,2025-09-09T11:51:29Z
KORD,"Chicago/O'Hare Intl, IL, US",2025-09-09T15:51:00Z,2025-09-09T11:51:00Z,VFR,20.6,6.1,180,7,0,NA,1022.1,METAR KORD 091551Z 18007KT 10SM BKN250 21/06 A3018 RMK AO2 SLP216 T02060061,2025-09-09T16:06:02Z,2025-09-09T12:06:02Z
KORD,"Chicago/O'Hare Intl, IL, US",2025-09-09T16:51:00Z,2025-09-09T12:51:00Z,VFR,20.6,6.1,240,7,0,NA,1021.8,METAR KORD 091651Z 24007KT 10SM BKN250 21/06 A3017 RMK AO2 SLP214 T02060061,2025-09-09T16:54:02Z,2025-09-09T12:54:02Z
KORD,"Chicago/O'Hare Intl, IL, US",2025-09-09T17:51:00Z,2025-09-09T13:51:00Z,VFR,22.2,6.1,0,0,0,NA,1020.7,METAR KORD 091751Z 00000KT 10SM BKN250 22/06 A3014 RMK AO2 SLP204 T02220061 10222 20117 58012,2025-09-09T18:09:20Z,2025-09-09T14:09:20Z
KORD,"Chicago/O'Hare Intl, IL, US",2025-09-09T18:51:00Z,2025-09-09T14:51:00Z,VFR,23.3,5,210,6,0,NA,1020.4,METAR KORD 091851Z 21006KT 10SM BKN250 23/05 A3013 RMK AO2 SLP200 T02330050,2025-09-09T19:00:56Z,2025-09-09T15:00:56Z
KORD,"Chicago/O'Hare Intl, IL, US",2025-09-09T19:51:00Z,2025-09-09T15:51:00Z,VFR,23.3,6.1,200,7,0,NA,1020.1,METAR KORD 091951Z 20007KT 10SM SCT250 BKN300 23/06 A3012 RMK AO2 SLP196 T02330061,2025-09-09T20:10:15Z,2025-09-09T16:10:15Z
KORD,"Chicago/O'Hare Intl, IL, US",2025-09-09T20:51:00Z,2025-09-09T16:51:00Z,VFR,23.3,6.1,160,5,0,NA,1019.4,METAR KORD 092051Z 16005KT 10SM SCT250 BKN300 23/06 A3010 RMK AO2 SLP189 T02330061 58014,2025-09-09T20:54:00Z,2025-09-09T16:54:00Z
KORF,"Norfolk Intl, VA, US",2025-09-09T14:51:00Z,2025-09-09T10:51:00Z,MVFR,22.2,17.8,40,19,25,NA,1021.8,METAR KORF 091451Z 04019G25KT 10SM BKN019 OVC027 22/18 A3017 RMK AO2 PK WND 04026/1435 SLP215 T02220178 53002,2025-09-09T15:51:27Z,2025-09-09T11:51:27Z
KORF,"Norfolk Intl, VA, US",2025-09-09T15:51:00Z,2025-09-09T11:51:00Z,MVFR,22.8,18.3,40,18,0,NA,1021.8,METAR KORF 091551Z 04018KT 10SM FEW017 BKN024 OVC031 23/18 A3017 RMK AO2 PK WND 04028/1519 SLP214 T02280183,2025-09-09T16:06:00Z,2025-09-09T12:06:00Z
KORF,"Norfolk Intl, VA, US",2025-09-09T16:51:00Z,2025-09-09T12:51:00Z,MVFR,23.3,18.3,40,15,23,NA,1021.4,METAR KORF 091651Z 04015G23KT 10SM BKN018 OVC026 23/18 A3016 RMK AO2 PK WND 03027/1626 SLP212 T02330183,2025-09-09T16:54:01Z,2025-09-09T12:54:01Z
KORF,"Norfolk Intl, VA, US",2025-09-09T17:51:00Z,2025-09-09T13:51:00Z,MVFR,22.8,17.8,40,17,26,NA,1021.1,METAR KORF 091751Z 04017G26KT 10SM SCT021 OVC027 23/18 A3015 RMK AO2 PK WND 03029/1659 SLP207 T02280178 10233 20200 58007,2025-09-09T18:09:19Z,2025-09-09T14:09:19Z
KORF,"Norfolk Intl, VA, US",2025-09-09T18:51:00Z,2025-09-09T14:51:00Z,MVFR,22.2,18.3,40,18,25,NA,1020.4,METAR KORF 091851Z 04018G25KT 10SM OVC020 22/18 A3013 RMK AO2 PK WND 03027/1802 SLP201 T02220183,2025-09-09T19:00:54Z,2025-09-09T15:00:54Z
KORF,"Norfolk Intl, VA, US",2025-09-09T19:51:00Z,2025-09-09T15:51:00Z,MVFR,21.1,18.9,30,19,26,9,1020.1,METAR KORF 091951Z 03019G26KT 9SM BKN017 OVC022 21/19 A3012 RMK AO2 PK WND 03029/1936 SLP200 T02110189,2025-09-09T20:10:13Z,2025-09-09T16:10:13Z
KORF,"Norfolk Intl, VA, US",2025-09-09T20:36:00Z,2025-09-09T16:36:00Z,MVFR,20.6,18.9,30,18,30,7,1020.4,SPECI KORF 092036Z 03018G30KT 7SM FEW007 BKN012 OVC019 21/19 A3013 RMK AO2 PK WND 02030/2031 T02060189,2025-09-09T20:43:21Z,2025-09-09T16:43:21Z
KORF,"Norfolk Intl, VA, US",2025-09-09T20:51:00Z,2025-09-09T16:51:00Z,MVFR,20.6,18.9,20,17,25,6,1020.1,METAR KORF 092051Z 02017G25KT 6SM BR SCT007 OVC012 21/19 A3012 RMK AO2 PK WND 02030/2031 SLP200 T02060189 56008,2025-09-09T20:53:58Z,2025-09-09T16:53:58Z
KPBI,"Palm Beach Intl, FL, US",2025-09-09T14:53:00Z,2025-09-09T10:53:00Z,VFR,29.4,23.9,300,3,0,NA,1015,METAR KPBI 091453Z 30003KT 10SM SCT034 SCT150 BKN250 29/24 A2997 RMK AO2 SLP149 CB DSNT SE-S T02940239 52013 $,2025-09-09T15:51:29Z,2025-09-09T11:51:29Z
KPBI,"Palm Beach Intl, FL, US",2025-09-09T15:53:00Z,2025-09-09T11:53:00Z,VFR,30.6,23.9,VAR,3,0,NA,1015,METAR KPBI 091553Z VRB03KT 10SM SCT030 BKN250 31/24 A2997 RMK AO2 SLP147 CB DSNT E-SE S SW T03060239 $,2025-09-09T16:06:01Z,2025-09-09T12:06:01Z
KPBI,"Palm Beach Intl, FL, US",2025-09-09T16:53:00Z,2025-09-09T12:53:00Z,VFR,31.1,23.9,340,3,0,NA,1014.6,METAR KPBI 091653Z COR 34003KT 10SM SCT031 BKN055 BKN250 31/24 A2996 RMK AO2 SLP144 OCNL LTGICCG DSNT E S CB DSNT E S T03110239 $,2025-09-09T17:12:51Z,2025-09-09T13:12:51Z
KPBI,"Palm Beach Intl, FL, US",2025-09-09T18:05:00Z,2025-09-09T14:05:00Z,MVFR,26.7,23.9,120,17,0,6,1014.3,SPECI KPBI 091805Z 12017KT 6SM TSRA BR SCT020 BKN030CB BKN250 27/24 A2995 RMK AO2 WSHFT 1745 RAB00 OCNL LTGICCG E-SE TS E-SE MOV NE P0003 T02670239 $,2025-09-09T18:09:20Z,2025-09-09T14:09:20Z
KPBI,"Palm Beach Intl, FL, US",2025-09-09T18:39:00Z,2025-09-09T14:39:00Z,VFR,27.8,23.3,90,9,0,NA,1014.3,SPECI KPBI 091839Z 09009KT 10SM SCT020 BKN040 BKN100 28/23 A2995 RMK AO2 WSHFT 1745 RAB00E21 TSE38 CB DSNT SE-SW AND DSNT NW-NE P0004 T02780233 $,2025-09-09T18:50:46Z,2025-09-09T14:50:46Z
KPBI,"Palm Beach Intl, FL, US",2025-09-09T18:53:00Z,2025-09-09T14:53:00Z,VFR,28.3,23.9,110,11,0,NA,1014,METAR KPBI 091853Z 11011KT 10SM FEW020 BKN040 BKN100 28/24 A2994 RMK AO2 WSHFT 1745 RAB00E21 TSE38 SLP138 CB DSNT NE AND DSNT SE-SW P0004 T02830239 $,2025-09-09T19:00:56Z,2025-09-09T15:00:56Z
KPBI,"Palm Beach Intl, FL, US",2025-09-09T19:53:00Z,2025-09-09T15:53:00Z,VFR,28.3,22.8,140,6,0,NA,1013.3,METAR KPBI 091953Z 14006KT 10SM FEW020 SCT050 BKN100 28/23 A2992 RMK AO2 SLP130 FRQ LTGIC DSNT NE CB DSNT NE AND DSNT SE T02830228 $,2025-09-09T20:10:15Z,2025-09-09T16:10:15Z
KPDX,"Portland Intl, OR, US",2025-09-09T14:53:00Z,2025-09-09T10:53:00Z,VFR,17.8,12.8,320,5,0,NA,1014,METAR KPDX 091453Z 32005KT 10SM BKN110 BKN250 18/13 A2994 RMK AO2 SLP136 T01780128 51004,2025-09-09T15:51:30Z,2025-09-09T11:51:30Z
KPDX,"Portland Intl, OR, US",2025-09-09T15:53:00Z,2025-09-09T11:53:00Z,VFR,18.3,12.8,350,4,0,NA,1014,METAR KPDX 091553Z 35004KT 10SM FEW025 SCT110 BKN250 18/13 A2994 RMK AO2 SLP137 T01830128,2025-09-09T16:06:03Z,2025-09-09T12:06:03Z
KPDX,"Portland Intl, OR, US",2025-09-09T16:53:00Z,2025-09-09T12:53:00Z,VFR,18.9,13.3,350,3,0,NA,1014.3,METAR KPDX 091653Z 35003KT 10SM FEW025 BKN110 BKN250 19/13 A2995 RMK AO2 SLP139 T01890133,2025-09-09T17:12:54Z,2025-09-09T13:12:54Z
KPDX,"Portland Intl, OR, US",2025-09-09T17:53:00Z,2025-09-09T13:53:00Z,VFR,20,13.3,310,4,0,9,1014,METAR KPDX 091753Z 31004KT 9SM FEW025 SCT110 BKN250 20/13 A2994 RMK AO2 SLP137 T02000133 10200 20178 50001,2025-09-09T18:09:21Z,2025-09-09T14:09:21Z
KPDX,"Portland Intl, OR, US",2025-09-09T18:53:00Z,2025-09-09T14:53:00Z,VFR,21.1,13.3,VAR,5,0,NA,1014,METAR KPDX 091853Z VRB05KT 10SM FEW030 SCT100 BKN250 21/13 A2994 RMK AO2 SLP135 ACC OHD T02110133,2025-09-09T19:00:57Z,2025-09-09T15:00:57Z
KPDX,"Portland Intl, OR, US",2025-09-09T19:53:00Z,2025-09-09T15:53:00Z,VFR,22.8,13.9,300,6,0,NA,1013.3,METAR KPDX 091953Z 30006KT 10SM FEW035 BKN100 BKN250 23/14 A2992 RMK AO2 SLP130 CB DSNT E T02280139,2025-09-09T20:10:18Z,2025-09-09T16:10:18Z
KPHL,"Philadelphia Intl, PA, US",2025-09-09T14:54:00Z,2025-09-09T10:54:00Z,VFR,22.2,12.8,70,13,20,NA,1026.5,METAR KPHL 091454Z 07013G20KT 10SM BKN037 BKN270 BKN350 22/13 A3031 RMK AO2 SLP262 T02220128 53004 $,2025-09-09T15:51:27Z,2025-09-09T11:51:27Z
KPHL,"Philadelphia Intl, PA, US",2025-09-09T15:54:00Z,2025-09-09T11:54:00Z,VFR,22.8,12.8,70,9,19,NA,1026.2,METAR KPHL 091554Z 07009G19KT 10SM BKN038 BKN250 BKN330 23/13 A3030 RMK AO2 SLP261 T02280128 $,2025-09-09T16:06:00Z,2025-09-09T12:06:00Z
KPHL,"Philadelphia Intl, PA, US",2025-09-09T16:54:00Z,2025-09-09T12:54:00Z,VFR,23.9,12.2,60,8,17,NA,1025.8,METAR KPHL 091654Z 06008G17KT 10SM BKN045 BKN230 BKN330 24/12 A3029 RMK AO2 SLP256 T02390122 $,2025-09-09T17:12:49Z,2025-09-09T13:12:49Z
KPHL,"Philadelphia Intl, PA, US",2025-09-09T17:54:00Z,2025-09-09T13:54:00Z,VFR,24.4,11.7,70,9,0,NA,1025.5,METAR KPHL 091754Z 07009KT 10SM SCT050 BKN330 24/12 A3028 RMK AO2 SLP252 T02440117 10250 20172 58010 $,2025-09-09T18:09:19Z,2025-09-09T14:09:19Z
KPHL,"Philadelphia Intl, PA, US",2025-09-09T18:54:00Z,2025-09-09T14:54:00Z,VFR,25,12.2,100,8,0,NA,1024.8,METAR KPHL 091854Z 10008KT 10SM SCT055 BKN330 25/12 A3026 RMK AO2 SLP247 T02500122 $,2025-09-09T19:00:54Z,2025-09-09T15:00:54Z
KPHL,"Philadelphia Intl, PA, US",2025-09-09T19:54:00Z,2025-09-09T15:54:00Z,VFR,22.8,12.2,90,13,0,NA,1024.5,METAR KPHL 091954Z 09013KT 10SM SCT050 BKN330 23/12 A3025 RMK AO2 SLP241 T02280122 $,2025-09-09T20:10:12Z,2025-09-09T16:10:12Z
KPHX,"Phoenix/Sky Harbor Intl, AZ, US",2025-09-09T14:51:00Z,2025-09-09T10:51:00Z,VFR,31.7,15,100,4,0,NA,1010.6,METAR KPHX 091451Z 10004KT 10SM FEW100 32/15 A2984 RMK AO2 SLP082 T03170150 53010,2025-09-09T15:51:32Z,2025-09-09T11:51:32Z
KPHX,"Phoenix/Sky Harbor Intl, AZ, US",2025-09-09T15:51:00Z,2025-09-09T11:51:00Z,VFR,33.9,15.6,110,4,0,NA,1010.6,METAR KPHX 091551Z 11004KT 10SM FEW100 34/16 A2984 RMK AO2 SLP083 T03390156,2025-09-09T16:06:05Z,2025-09-09T12:06:05Z
KPHX,"Phoenix/Sky Harbor Intl, AZ, US",2025-09-09T16:51:00Z,2025-09-09T12:51:00Z,VFR,36.1,13.9,VAR,4,0,NA,1010.6,METAR KPHX 091651Z VRB04KT 10SM FEW100 36/14 A2984 RMK AO2 SLP082 T03610139,2025-09-09T16:54:06Z,2025-09-09T12:54:06Z
KPHX,"Phoenix/Sky Harbor Intl, AZ, US",2025-09-09T17:51:00Z,2025-09-09T13:51:00Z,VFR,36.7,13.9,VAR,4,0,NA,1010.2,METAR KPHX 091751Z VRB04KT 10SM FEW100 37/14 A2983 RMK AO2 SLP078 T03670139 10372 20300 58004,2025-09-09T18:09:23Z,2025-09-09T14:09:23Z
KPHX,"Phoenix/Sky Harbor Intl, AZ, US",2025-09-09T18:51:00Z,2025-09-09T14:51:00Z,VFR,37.2,14.4,310,4,0,NA,1009.2,METAR KPHX 091851Z 31004KT 10SM FEW100 37/14 A2980 RMK AO2 SLP069 T03720144,2025-09-09T19:00:59Z,2025-09-09T15:00:59Z
KPHX,"Phoenix/Sky Harbor Intl, AZ, US",2025-09-09T19:51:00Z,2025-09-09T15:51:00Z,VFR,40,14.4,150,12,16,NA,1008.5,METAR KPHX 091951Z 15012G16KT 10SM FEW100 40/14 A2978 RMK AO2 SLP060 T04000144,2025-09-09T20:10:19Z,2025-09-09T16:10:19Z
KPHX,"Phoenix/Sky Harbor Intl, AZ, US",2025-09-09T20:51:00Z,2025-09-09T16:51:00Z,VFR,40,14.4,180,6,0,NA,1007.5,METAR KPHX 092051Z 18006KT 10SM FEW100 40/14 A2975 RMK AO2 SLP049 T04000144 58026,2025-09-09T20:54:03Z,2025-09-09T16:54:03Z
KPIT,"Pittsburgh Intl, PA, US",2025-09-09T14:51:00Z,2025-09-09T10:51:00Z,VFR,18.9,7.2,120,5,0,NA,1026.2,METAR KPIT 091451Z 12005KT 10SM FEW250 19/07 A3030 RMK AO2 SLP267 T01890072 52003 $,2025-09-09T15:51:27Z,2025-09-09T11:51:27Z
KPIT,"Pittsburgh Intl, PA, US",2025-09-09T15:51:00Z,2025-09-09T11:51:00Z,VFR,20.6,6.1,VAR,5,0,NA,1025.8,METAR KPIT 091551Z VRB05KT 10SM FEW040 FEW250 21/06 A3029 RMK AO2 SLP262 T02060061 $,2025-09-09T16:06:00Z,2025-09-09T12:06:00Z
KPIT,"Pittsburgh Intl, PA, US",2025-09-09T16:51:00Z,2025-09-09T12:51:00Z,VFR,21.1,5.6,VAR,NA,0,NA,1025.1,METAR KPIT 091651Z 10SM FEW250 21/06 A3027 RMK AO2 SLP254 T02110056 $,2025-09-09T16:54:01Z,2025-09-09T12:54:01Z
KPIT,"Pittsburgh Intl, PA, US",2025-09-09T16:51:00Z,2025-09-09T12:51:00Z,VFR,21.1,5.6,VAR,6,0,NA,1025.1,METAR KPIT 091651Z COR VRB06KT 10SM FEW250 21/06 A3027 RMK AO2 SLP254 T02110056 $,2025-09-09T17:12:49Z,2025-09-09T13:12:49Z
KPIT,"Pittsburgh Intl, PA, US",2025-09-09T17:51:00Z,2025-09-09T13:51:00Z,VFR,22.2,5,VAR,4,0,NA,1024.1,METAR KPIT 091751Z VRB04KT 10SM FEW250 22/05 A3024 RMK AO2 SLP246 T02220050 10222 20083 58020 $,2025-09-09T18:09:19Z,2025-09-09T14:09:19Z
KPIT,"Pittsburgh Intl, PA, US",2025-09-09T18:51:00Z,2025-09-09T14:51:00Z,VFR,22.8,4.4,140,5,0,NA,1023.5,METAR KPIT 091851Z 14005KT 10SM FEW250 23/04 A3022 RMK AO2 SLP239 T02280044,2025-09-09T19:00:54Z,2025-09-09T15:00:54Z
KPIT,"Pittsburgh Intl, PA, US",2025-09-09T19:51:00Z,2025-09-09T15:51:00Z,VFR,23.3,4.4,150,6,16,NA,1023.1,METAR KPIT 091951Z 15006G16KT 10SM SCT250 23/04 A3021 RMK AO2 SLP234 T02330044,2025-09-09T20:10:13Z,2025-09-09T16:10:13Z
KPIT,"Pittsburgh Intl, PA, US",2025-09-09T20:51:00Z,2025-09-09T16:51:00Z,VFR,23.3,5,VAR,5,0,NA,1022.4,METAR KPIT 092051Z VRB05KT 10SM SCT250 23/05 A3019 RMK AO2 SLP230 T02330050 56016,2025-09-09T20:53:58Z,2025-09-09T16:53:58Z
KPSP,"Palm Springs Intl, CA, US",2025-09-09T14:53:00Z,2025-09-09T10:53:00Z,VFR,26.1,8.3,0,0,0,NA,1010.2,METAR KPSP 091453Z 00000KT 10SM CLR 26/08 A2983 RMK AO2 SLP098 T02610083 53008,2025-09-09T15:51:32Z,2025-09-09T11:51:32Z
KPSP,"Palm Springs Intl, CA, US",2025-09-09T15:53:00Z,2025-09-09T11:53:00Z,VFR,30,6.1,VAR,3,0,NA,1010.6,METAR KPSP 091553Z VRB03KT 10SM CLR 30/06 A2984 RMK AO2 SLP098 T03000061,2025-09-09T16:06:05Z,2025-09-09T12:06:05Z
KPSP,"Palm Springs Intl, CA, US",2025-09-09T16:53:00Z,2025-09-09T12:53:00Z,VFR,32.8,3.9,0,0,0,NA,1010.6,METAR KPSP 091653Z 00000KT 10SM CLR 33/04 A2984 RMK AO2 SLP098 T03280039,2025-09-09T17:12:57Z,2025-09-09T13:12:57Z
KPSP,"Palm Springs Intl, CA, US",2025-09-09T17:53:00Z,2025-09-09T13:53:00Z,VFR,35,0.6,150,5,0,NA,1010.2,METAR KPSP 091753Z 15005KT 10SM CLR 35/01 A2983 RMK AO2 SLP095 T03500006 10350 20228 58001,2025-09-09T18:09:23Z,2025-09-09T14:09:23Z
KPSP,"Palm Springs Intl, CA, US",2025-09-09T18:53:00Z,2025-09-09T14:53:00Z,VFR,36.1,-0.6,0,0,0,NA,1009.6,METAR KPSP 091853Z 00000KT 10SM CLR 36/M01 A2981 RMK AO2 SLP089 T03611006,2025-09-09T19:00:59Z,2025-09-09T15:00:59Z
KPSP,"Palm Springs Intl, CA, US",2025-09-09T20:04:00Z,2025-09-09T16:04:00Z,VFR,37.2,-1.1,360,9,0,NA,1008.5,SPECI KPSP 092004Z 36009KT 10SM CLR 37/M01 A2978 RMK AO2 T03721011,2025-09-09T20:10:19Z,2025-09-09T16:10:19Z
KPUB,"Pueblo Mem Arpt, CO, US",2025-09-09T14:53:00Z,2025-09-09T10:53:00Z,NA,19.4,6.7,270,8,0,NA,1019.4,METAR KPUB 091453Z 27008KT CLR 19/07 A3010 RMK AO2 SLP135 T01940067 50005 RVRNO $,2025-09-09T15:51:30Z,2025-09-09T11:51:30Z
KPUB,"Pueblo Mem Arpt, CO, US",2025-09-09T15:53:00Z,2025-09-09T11:53:00Z,VFR,23.3,7.2,290,5,0,NA,1019.4,METAR KPUB 091553Z 29005KT 10SM CLR 23/07 A3010 RMK AO2 SLP127 T02330072 $,2025-09-09T16:06:03Z,2025-09-09T12:06:03Z
KPUB,"Pueblo Mem Arpt, CO, US",2025-09-09T16:53:00Z,2025-09-09T12:53:00Z,VFR,27.2,6.7,VAR,6,0,NA,1018.7,METAR KPUB 091653Z VRB06KT 10SM CLR 27/07 A3008 RMK AO2 SLP119 T02720067,2025-09-09T17:12:54Z,2025-09-09T13:12:54Z
KPUB,"Pueblo Mem Arpt, CO, US",2025-09-09T17:53:00Z,2025-09-09T13:53:00Z,VFR,28.9,6.1,200,6,0,NA,1018.4,METAR KPUB 091753Z 20006KT 10SM CLR 29/06 A3007 RMK AO2 SLP112 T02890061 10289 20122 58011 $,2025-09-09T18:09:21Z,2025-09-09T14:09:21Z
KPUB,"Pueblo Mem Arpt, CO, US",2025-09-09T18:53:00Z,2025-09-09T14:53:00Z,VFR,30,5.6,VAR,5,0,NA,1017.4,METAR KPUB 091853Z VRB05KT 10SM CLR 30/06 A3004 RMK AO2 SLP106 T03000056 $,2025-09-09T19:00:57Z,2025-09-09T15:00:57Z
KPUB,"Pueblo Mem Arpt, CO, US",2025-09-09T19:53:00Z,2025-09-09T15:53:00Z,VFR,31.1,5,150,7,0,NA,1016.7,METAR KPUB 091953Z 15007KT 10SM CLR 31/05 A3002 RMK AO2 SLP099 T03110050 $,2025-09-09T20:10:18Z,2025-09-09T16:10:18Z
KPVD,"Providence/Green Mem, RI, US",2025-09-09T14:51:00Z,2025-09-09T10:51:00Z,VFR,19.4,12.2,70,11,0,NA,1028.5,METAR KPVD 091451Z 07011KT 10SM FEW030 FEW250 19/12 A3037 RMK AO2 SLP284 T01940122 58002,2025-09-09T15:51:27Z,2025-09-09T11:51:27Z
KPVD,"Providence/Green Mem, RI, US",2025-09-09T15:51:00Z,2025-09-09T11:51:00Z,VFR,21.1,10.6,50,11,17,NA,1028.5,METAR KPVD 091551Z 05011G17KT 10SM FEW033 FEW250 21/11 A3037 RMK AO2 SLP285 T02110106,2025-09-09T16:06:00Z,2025-09-09T12:06:00Z
KPVD,"Providence/Green Mem, RI, US",2025-09-09T16:51:00Z,2025-09-09T12:51:00Z,VFR,22.2,9.4,60,11,18,NA,1027.9,METAR KPVD 091651Z 06011G18KT 10SM FEW038 FEW250 22/09 A3035 RMK AO2 SLP278 T02220094,2025-09-09T16:54:01Z,2025-09-09T12:54:01Z
KPVD,"Providence/Green Mem, RI, US",2025-09-09T17:51:00Z,2025-09-09T13:51:00Z,VFR,22.2,8.9,50,10,0,NA,1027.5,METAR KPVD 091751Z 05010KT 10SM FEW040 FEW250 22/09 A3034 RMK AO2 SLP276 T02220089 10228 20111 58008,2025-09-09T18:09:19Z,2025-09-09T14:09:19Z
KPVD,"Providence/Green Mem, RI, US",2025-09-09T18:51:00Z,2025-09-09T14:51:00Z,VFR,22.8,8.9,60,9,0,NA,1027.2,METAR KPVD 091851Z 06009KT 10SM FEW050 BKN250 23/09 A3033 RMK AO2 SLP270 T02280089,2025-09-09T19:00:54Z,2025-09-09T15:00:54Z
KPVD,"Providence/Green Mem, RI, US",2025-09-09T19:51:00Z,2025-09-09T15:51:00Z,VFR,21.7,9.4,70,10,0,NA,1027.2,METAR KPVD 091951Z 07010KT 10SM FEW050 BKN250 22/09 A3033 RMK AO2 SLP270 T02170094,2025-09-09T20:10:13Z,2025-09-09T16:10:13Z
KPVD,"Providence/Green Mem, RI, US",2025-09-09T20:51:00Z,2025-09-09T16:51:00Z,VFR,21.1,10.6,90,6,0,NA,1027.2,METAR KPVD 092051Z 09006KT 10SM FEW050 BKN250 21/11 A3033 RMK AO2 SLP269 T02110106 56006,2025-09-09T20:53:58Z,2025-09-09T16:53:58Z
KRDU,"Raleigh-Durham Intl, NC, US",2025-09-09T14:51:00Z,2025-09-09T10:51:00Z,VFR,20,10.6,20,13,21,NA,1023.5,METAR KRDU 091451Z 02013G21KT 10SM FEW040 SCT250 20/11 A3022 RMK AO2 SLP231 T02000106 51001,2025-09-09T15:51:29Z,2025-09-09T11:51:29Z
KRDU,"Raleigh-Durham Intl, NC, US",2025-09-09T15:51:00Z,2025-09-09T11:51:00Z,VFR,21.7,12.2,20,8,16,NA,1023.5,METAR KRDU 091551Z 02008G16KT 10SM SCT030 SCT250 22/12 A3022 RMK AO2 SLP230 T02170122,2025-09-09T16:06:02Z,2025-09-09T12:06:02Z
KRDU,"Raleigh-Durham Intl, NC, US",2025-09-09T16:51:00Z,2025-09-09T12:51:00Z,VFR,22.2,12.8,50,10,20,NA,1022.8,METAR KRDU 091651Z 05010G20KT 10SM SCT035 SCT250 22/13 A3020 RMK AO2 SLP223 T02220128,2025-09-09T16:54:03Z,2025-09-09T12:54:03Z
KRDU,"Raleigh-Durham Intl, NC, US",2025-09-09T17:51:00Z,2025-09-09T13:51:00Z,VFR,23.3,13.3,40,8,17,NA,1022.1,METAR KRDU 091751Z 04008G17KT 10SM SCT036 SCT250 23/13 A3018 RMK AO2 SLP218 T02330133 10233 20133 58013,2025-09-09T18:09:20Z,2025-09-09T14:09:20Z
KRDU,"Raleigh-Durham Intl, NC, US",2025-09-09T18:51:00Z,2025-09-09T14:51:00Z,VFR,23.9,14.4,30,9,15,NA,1021.4,METAR KRDU 091851Z 03009G15KT 10SM BKN037 BKN250 24/14 A3016 RMK AO2 SLP211 T02390144,2025-09-09T19:00:56Z,2025-09-09T15:00:56Z
KRDU,"Raleigh-Durham Intl, NC, US",2025-09-09T19:51:00Z,2025-09-09T15:51:00Z,VFR,23.9,14.4,20,7,15,NA,1020.7,METAR KRDU 091951Z 02007G15KT 330V070 10SM BKN035 BKN250 24/14 A3014 RMK AO2 SLP205 T02390144,2025-09-09T20:10:15Z,2025-09-09T16:10:15Z
KRDU,"Raleigh-Durham Intl, NC, US",2025-09-09T20:51:00Z,2025-09-09T16:51:00Z,VFR,23.3,14.4,50,11,17,NA,1020.7,METAR KRDU 092051Z 05011G17KT 10SM BKN035 BKN055 OVC250 23/14 A3014 RMK AO2 SLP203 T02330144 56014,2025-09-09T20:54:00Z,2025-09-09T16:54:00Z
KRIC,"Richmond Intl, VA, US",2025-09-09T15:44:00Z,2025-09-09T11:44:00Z,VFR,21.7,13.9,30,11,20,NA,1024.1,SPECI KRIC 091544Z 03011G20KT 10SM BKN031 BKN250 22/14 A3024 RMK AO2 T02170139,2025-09-09T15:51:27Z,2025-09-09T11:51:27Z
KRIC,"Richmond Intl, VA, US",2025-09-09T15:54:00Z,2025-09-09T11:54:00Z,VFR,21.7,13.9,50,11,19,NA,1024.1,METAR KRIC 091554Z 05011G19KT 10SM OVC033 22/14 A3024 RMK AO2 SLP242 T02170139,2025-09-09T16:06:00Z,2025-09-09T12:06:00Z
KRIC,"Richmond Intl, VA, US",2025-09-09T16:54:00Z,2025-09-09T12:54:00Z,VFR,23.3,14.4,40,8,18,NA,1023.5,METAR KRIC 091654Z 04008G18KT 360V060 10SM BKN033 BKN044 23/14 A3022 RMK AO2 SLP238 T02330144,2025-09-09T17:12:49Z,2025-09-09T13:12:49Z
KRIC,"Richmond Intl, VA, US",2025-09-09T17:54:00Z,2025-09-09T13:54:00Z,VFR,22.8,14.4,40,11,18,NA,1023.1,METAR KRIC 091754Z 04011G18KT 10SM SCT032 BKN044 23/14 A3021 RMK AO2 SLP236 T02280144 10233 20128 58008,2025-09-09T18:09:19Z,2025-09-09T14:09:19Z
KRIC,"Richmond Intl, VA, US",2025-09-09T18:54:00Z,2025-09-09T14:54:00Z,VFR,23.9,15,10,11,17,NA,1022.4,METAR KRIC 091854Z 01011G17KT 10SM SCT033 OVC045 24/15 A3019 RMK AO2 SLP228 T02390150,2025-09-09T19:00:54Z,2025-09-09T15:00:54Z
KRIC,"Richmond Intl, VA, US",2025-09-09T19:54:00Z,2025-09-09T15:54:00Z,VFR,23.9,14.4,50,10,0,NA,1021.8,METAR KRIC 091954Z 05010KT 10SM BKN040 24/14 A3017 RMK AO2 SLP220 T02390144,2025-09-09T20:10:13Z,2025-09-09T16:10:13Z
KRNO,"Reno/Tahoe Intl, NV, US",2025-09-09T14:55:00Z,2025-09-09T10:55:00Z,VFR,14.4,4.4,170,3,0,NA,1017,METAR KRNO 091455Z 17003KT 10SM FEW075 BKN130 BKN200 14/04 A3003 RMK AO2 SLP126 T01440044 58003,2025-09-09T15:51:32Z,2025-09-09T11:51:32Z
KRNO,"Reno/Tahoe Intl, NV, US",2025-09-09T15:55:00Z,2025-09-09T11:55:00Z,VFR,15.6,4.4,0,0,0,NA,1017.4,METAR KRNO 091555Z 00000KT 10SM FEW070 SCT130 BKN200 16/04 A3004 RMK AO2 SLP129 T01560044,2025-09-09T16:06:05Z,2025-09-09T12:06:05Z
KRNO,"Reno/Tahoe Intl, NV, US",2025-09-09T16:55:00Z,2025-09-09T12:55:00Z,VFR,16.1,4.4,0,0,0,NA,1017,METAR KRNO 091655Z 00000KT 10SM FEW070 BKN200 16/04 A3003 RMK AO2 SLP127 T01610044,2025-09-09T17:12:57Z,2025-09-09T13:12:57Z
KRNO,"Reno/Tahoe Intl, NV, US",2025-09-09T17:55:00Z,2025-09-09T13:55:00Z,VFR,17.8,4.4,VAR,3,0,NA,1016.3,METAR KRNO 091755Z VRB03KT 10SM FEW070 BKN200 18/04 A3001 RMK AO2 SLP119 T01780044 10178 20144 58006,2025-09-09T18:09:23Z,2025-09-09T14:09:23Z
KRNO,"Reno/Tahoe Intl, NV, US",2025-09-09T18:55:00Z,2025-09-09T14:55:00Z,VFR,19.4,4.4,20,3,0,NA,1015.7,METAR KRNO 091855Z 02003KT 10SM SCT080 BKN200 19/04 A2999 RMK AO2 SLP109 T01940044,2025-09-09T19:00:59Z,2025-09-09T15:00:59Z
KRNO,"Reno/Tahoe Intl, NV, US",2025-09-09T19:55:00Z,2025-09-09T15:55:00Z,VFR,21.1,3.9,360,3,0,NA,1014.6,METAR KRNO 091955Z 36003KT 10SM SCT080 BKN200 21/04 A2996 RMK AO2 SLP099 T02110039,2025-09-09T20:10:19Z,2025-09-09T16:10:19Z
KROC,"Rochester Intl Arpt, NY, US",2025-09-09T14:54:00Z,2025-09-09T10:54:00Z,VFR,17.8,10,190,4,0,NA,1027.5,METAR KROC 091454Z 19004KT 10SM FEW220 18/10 A3034 RMK AO2 SLP278 T01780100 50002 $,2025-09-09T15:51:27Z,2025-09-09T11:51:27Z
KROC,"Rochester Intl Arpt, NY, US",2025-09-09T15:54:00Z,2025-09-09T11:54:00Z,VFR,20.6,8.9,240,5,0,NA,1026.8,METAR KROC 091554Z 24005KT 10SM FEW028 FEW240 21/09 A3032 RMK AO2 SLP271 T02060089 $,2025-09-09T16:06:00Z,2025-09-09T12:06:00Z
KROC,"Rochester Intl Arpt, NY, US",2025-09-09T16:54:00Z,2025-09-09T12:54:00Z,VFR,21.7,8.3,170,7,0,NA,1026.2,METAR KROC 091654Z 17007KT 10SM FEW029 22/08 A3030 RMK AO2 SLP264 T02170083 $,2025-09-09T17:12:49Z,2025-09-09T13:12:49Z
KROC,"Rochester Intl Arpt, NY, US",2025-09-09T17:54:00Z,2025-09-09T13:54:00Z,VFR,22.8,6.7,0,0,0,NA,1025.5,METAR KROC 091754Z 00000KT 10SM FEW036 23/07 A3028 RMK AO2 SLP258 T02280067 10233 20083 56019 $,2025-09-09T18:09:19Z,2025-09-09T14:09:19Z
KROC,"Rochester Intl Arpt, NY, US",2025-09-09T18:54:00Z,2025-09-09T14:54:00Z,VFR,23.3,7.2,200,4,0,NA,1024.8,METAR KROC 091854Z 20004KT 10SM FEW046 23/07 A3026 RMK AO2 SLP251 T02330072 $,2025-09-09T19:00:54Z,2025-09-09T15:00:54Z
KROC,"Rochester Intl Arpt, NY, US",2025-09-09T19:54:00Z,2025-09-09T15:54:00Z,VFR,23.3,7.2,30,3,0,NA,1024.1,METAR KROC 091954Z 03003KT 10SM FEW055 23/07 A3024 RMK AO2 SLP244 T02330072 $,2025-09-09T20:10:13Z,2025-09-09T16:10:13Z
KRSW,"Ft Myers/SW Florida Intl, FL, US",2025-09-09T14:53:00Z,2025-09-09T10:53:00Z,VFR,27.8,25.6,100,6,0,NA,1014.6,METAR KRSW 091453Z 10006KT 10SM BKN047 BKN065 OVC075 28/26 A2996 RMK AO1 SLP143 T02780256 51014,2025-09-09T15:51:29Z,2025-09-09T11:51:29Z
KRSW,"Ft Myers/SW Florida Intl, FL, US",2025-09-09T15:53:00Z,2025-09-09T11:53:00Z,VFR,29.4,25.6,100,6,0,NA,1014.6,METAR KRSW 091553Z 10006KT 10SM FEW012 29/26 A2996 RMK AO1 SLP142 T02940256,2025-09-09T16:06:01Z,2025-09-09T12:06:01Z
KRSW,"Ft Myers/SW Florida Intl, FL, US",2025-09-09T16:34:00Z,2025-09-09T12:34:00Z,MVFR,29.4,25.6,100,5,0,NA,1014,SPECI KRSW 091634Z 10005KT 10SM SCT020 BKN025 29/26 A2994 RMK AO1 T02940256,2025-09-09T16:38:37Z,2025-09-09T12:38:37Z
KRSW,"Ft Myers/SW Florida Intl, FL, US",2025-09-09T16:53:00Z,2025-09-09T12:53:00Z,VFR,30.6,25.6,160,6,0,NA,1013.6,METAR KRSW 091653Z 16006KT 10SM SCT021 31/26 A2993 RMK AO1 LTG DSNT S SLP133 T03060256,2025-09-09T17:12:51Z,2025-09-09T13:12:51Z
KRSW,"Ft Myers/SW Florida Intl, FL, US",2025-09-09T17:53:00Z,2025-09-09T13:53:00Z,VFR,30,25,140,8,0,NA,1013.6,METAR KRSW 091753Z 14008KT 10SM SCT021 30/25 A2993 RMK AO1 SLP131 T03000250 10306 20244 56011,2025-09-09T18:09:20Z,2025-09-09T14:09:20Z
KRSW,"Ft Myers/SW Florida Intl, FL, US",2025-09-09T18:53:00Z,2025-09-09T14:53:00Z,MVFR,31.1,25,180,9,0,NA,1012.6,METAR KRSW 091853Z 18009KT 10SM BKN024 31/25 A2990 RMK AO1 LTG DSNT N AND NW SLP121 T03110250,2025-09-09T19:00:56Z,2025-09-09T15:00:56Z
KRSW,"Ft Myers/SW Florida Intl, FL, US",2025-09-09T19:06:00Z,2025-09-09T15:06:00Z,MVFR,30.6,25,140,6,0,NA,1012.6,SPECI KRSW 091906Z 14006KT 10SM BKN024 31/25 A2990 RMK AO1 LTG DSNT N AND NW T03060250,2025-09-09T19:20:54Z,2025-09-09T15:20:54Z
KRSW,"Ft Myers/SW Florida Intl, FL, US",2025-09-09T20:00:00Z,2025-09-09T16:00:00Z,MVFR,27.8,25.6,150,8,0,5,1012.6,SPECI KRSW 092000Z 15008KT 5SM +RA BR SCT024 BKN034 OVC070 28/26 A2990 RMK AO1 LTG DSNT SW-N P0003 T02780256,2025-09-09T20:10:15Z,2025-09-09T16:10:15Z
KRSW,"Ft Myers/SW Florida Intl, FL, US",2025-09-09T20:22:00Z,2025-09-09T16:22:00Z,IFR,27.2,24.4,150,8,0,2,1013,SPECI KRSW 092022Z 15008KT 2SM VCTS -RA FEW018 BKN032 OVC070 27/24 A2991 RMK AO1 LTG DSNT ALQDS P0005 T02720244,2025-09-09T20:31:18Z,2025-09-09T16:31:18Z
KRSW,"Ft Myers/SW Florida Intl, FL, US",2025-09-09T20:34:00Z,2025-09-09T16:34:00Z,MVFR,25,23.9,310,11,22,3,1013,SPECI KRSW 092034Z 31011G22KT 3SM -TSRA BR FEW006 BKN018 OVC050 25/24 A2991 RMK AO1 LTG DSNT ALQDS TSB33 P0009 T02500239,2025-09-09T20:43:24Z,2025-09-09T16:43:24Z
KRSW,"Ft Myers/SW Florida Intl, FL, US",2025-09-09T20:51:00Z,2025-09-09T16:51:00Z,MVFR,25,24,310,11,22,6,1012.6,SPECI KRSW 092051Z 31011G22KT 6SM VCTS RA BR FEW007 BKN021 OVC075 25/24 A2990 RMK AO1 WSHFT 2032 LTG DSNT ALQDS TSB33E51 P0014,2025-09-09T20:54:00Z,2025-09-09T16:54:00Z
KSAF,"Santa Fe Cnty Muni, NM, US",2025-09-09T14:53:00Z,2025-09-09T10:53:00Z,VFR,17.2,5,350,7,0,NA,1024.1,METAR KSAF 091453Z 35007KT 10SM CLR 17/05 A3024 RMK AO2 SLP147 T01720050 51008,2025-09-09T15:51:32Z,2025-09-09T11:51:32Z
KSAF,"Santa Fe Cnty Muni, NM, US",2025-09-09T15:53:00Z,2025-09-09T11:53:00Z,VFR,21.1,4.4,340,10,0,NA,1024.1,METAR KSAF 091553Z 34010KT 10SM FEW110 21/04 A3024 RMK AO2 LTG DSNT NE SLP151 T02110044,2025-09-09T16:06:05Z,2025-09-09T12:06:05Z
KSAF,"Santa Fe Cnty Muni, NM, US",2025-09-09T16:53:00Z,2025-09-09T12:53:00Z,VFR,24.4,4.4,40,5,0,NA,1024.1,METAR KSAF 091653Z 04005KT 10SM CLR 24/04 A3024 RMK AO2 SLP143 T02440044,2025-09-09T17:12:57Z,2025-09-09T13:12:57Z
KSAF,"Santa Fe Cnty Muni, NM, US",2025-09-09T17:53:00Z,2025-09-09T13:53:00Z,VFR,26.7,5,VAR,NA,0,NA,1023.5,METAR KSAF 091753Z 10SM CLR 27/05 A3022 RMK AO2 SLP138 T02670050 10267 20122 58004,2025-09-09T18:09:23Z,2025-09-09T14:09:23Z
KSAF,"Santa Fe Cnty Muni, NM, US",2025-09-09T18:53:00Z,2025-09-09T14:53:00Z,VFR,27.8,3.3,230,4,0,NA,1022.8,METAR KSAF 091853Z 23004KT 10SM CLR 28/03 A3020 RMK AO2 SLP125 T02780033,2025-09-09T19:00:59Z,2025-09-09T15:00:59Z
KSAF,"Santa Fe Cnty Muni, NM, US",2025-09-09T19:53:00Z,2025-09-09T15:53:00Z,VFR,29.4,3.9,230,11,0,NA,1022.1,METAR KSAF 091953Z 23011KT 10SM CLR 29/04 A3018 RMK AO2 SLP119 T02940039,2025-09-09T20:10:19Z,2025-09-09T16:10:19Z
KSAN,"San Diego Intl Arpt, CA, US",2025-09-09T14:51:00Z,2025-09-09T10:51:00Z,MVFR,20.6,15.6,240,3,0,NA,1015.3,METAR KSAN 091451Z 24003KT 10SM BKN019 21/16 A2998 RMK AO2 SLP152 T02060156 53009,2025-09-09T15:51:32Z,2025-09-09T11:51:32Z
KSAN,"San Diego Intl Arpt, CA, US",2025-09-09T15:51:00Z,2025-09-09T11:51:00Z,MVFR,21.1,15.6,VAR,3,0,NA,1015.3,METAR KSAN 091551Z VRB03KT 10SM BKN021 21/16 A2998 RMK AO2 SLP151 T02110156,2025-09-09T16:06:05Z,2025-09-09T12:06:05Z
KSAN,"San Diego Intl Arpt, CA, US",2025-09-09T16:51:00Z,2025-09-09T12:51:00Z,MVFR,21.7,15.6,250,7,0,NA,1015.3,METAR KSAN 091651Z 25007KT 10SM BKN021 22/16 A2998 RMK AO2 SLP151 T02170156,2025-09-09T16:54:06Z,2025-09-09T12:54:06Z
KSAN,"San Diego Intl Arpt, CA, US",2025-09-09T16:57:00Z,2025-09-09T12:57:00Z,VFR,21.7,15,VAR,4,0,NA,1015.3,SPECI KSAN 091657Z VRB04KT 10SM SCT021 22/15 A2998 RMK AO2 T02170150,2025-09-09T17:12:57Z,2025-09-09T13:12:57Z
KSAN,"San Diego Intl Arpt, CA, US",2025-09-09T17:51:00Z,2025-09-09T13:51:00Z,VFR,21.7,15,VAR,5,0,NA,1015.3,METAR KSAN 091751Z VRB05KT 10SM SCT022 22/15 A2998 RMK AO2 SLP151 T02170150 10222 20200 55000,2025-09-09T18:09:23Z,2025-09-09T14:09:23Z
KSAN,"San Diego Intl Arpt, CA, US",2025-09-09T18:51:00Z,2025-09-09T14:51:00Z,VFR,22.8,15,260,8,19,NA,1014.6,METAR KSAN 091851Z 26008G19KT 220V290 10SM FEW023 23/15 A2996 RMK AO2 SLP146 T02280150,2025-09-09T19:00:59Z,2025-09-09T15:00:59Z
KSAN,"San Diego Intl Arpt, CA, US",2025-09-09T19:51:00Z,2025-09-09T15:51:00Z,VFR,22.8,15.6,280,7,0,NA,1014,METAR KSAN 091951Z 28007KT 10SM FEW023 23/16 A2994 RMK AO2 SLP138 T02280156,2025-09-09T20:10:19Z,2025-09-09T16:10:19Z
KSAN,"San Diego Intl Arpt, CA, US",2025-09-09T20:51:00Z,2025-09-09T16:51:00Z,VFR,23.3,15.6,250,8,17,NA,1013.3,METAR KSAN 092051Z 25008G17KT 220V290 10SM FEW023 23/16 A2992 RMK AO2 SLP130 T02330156 58021,2025-09-09T20:54:03Z,2025-09-09T16:54:03Z
KSAT,"San Antonio Intl, TX, US",2025-09-09T14:51:00Z,2025-09-09T10:51:00Z,VFR,23.9,16.1,110,5,0,NA,1018,METAR KSAT 091451Z 11005KT 10SM FEW250 24/16 A3006 RMK AO2 SLP160 T02390161 51007,2025-09-09T15:51:30Z,2025-09-09T11:51:30Z
KSAT,"San Antonio Intl, TX, US",2025-09-09T15:51:00Z,2025-09-09T11:51:00Z,VFR,26.7,15,100,4,0,NA,1018,METAR KSAT 091551Z 10004KT 10SM CLR 27/15 A3006 RMK AO2 SLP163 T02670150,2025-09-09T16:06:03Z,2025-09-09T12:06:03Z
KSAT,"San Antonio Intl, TX, US",2025-09-09T16:51:00Z,2025-09-09T12:51:00Z,VFR,27.8,14.4,90,5,0,NA,1018,METAR KSAT 091651Z 09005KT 10SM CLR 28/14 A3006 RMK AO2 SLP160 T02780144,2025-09-09T16:54:04Z,2025-09-09T12:54:04Z
KSAT,"San Antonio Intl, TX, US",2025-09-09T17:51:00Z,2025-09-09T13:51:00Z,VFR,28.3,14.4,0,0,0,NA,1017.7,METAR KSAT 091751Z 00000KT 10SM CLR 28/14 A3005 RMK AO2 SLP156 T02830144 10289 20183 58003,2025-09-09T18:09:22Z,2025-09-09T14:09:22Z
KSAT,"San Antonio Intl, TX, US",2025-09-09T18:51:00Z,2025-09-09T14:51:00Z,VFR,29.4,15,VAR,4,0,NA,1017,METAR KSAT 091851Z VRB04KT 10SM FEW055 29/15 A3003 RMK AO2 SLP150 T02940150,2025-09-09T19:00:57Z,2025-09-09T15:00:57Z
KSAT,"San Antonio Intl, TX, US",2025-09-09T19:51:00Z,2025-09-09T15:51:00Z,VFR,30.6,15.6,VAR,5,0,NA,1016,METAR KSAT 091951Z VRB05KT 10SM FEW060 31/16 A3000 RMK AO2 SLP142 T03060156,2025-09-09T20:10:18Z,2025-09-09T16:10:18Z
KSAT,"San Antonio Intl, TX, US",2025-09-09T20:51:00Z,2025-09-09T16:51:00Z,VFR,31.1,14.4,VAR,3,0,NA,1015.3,METAR KSAT 092051Z VRB03KT 10SM FEW060 31/14 A2998 RMK AO2 SLP135 T03110144 56021,2025-09-09T20:54:01Z,2025-09-09T16:54:01Z
KSAV,"Savannah Intl, GA, US",2025-09-09T14:53:00Z,2025-09-09T10:53:00Z,VFR,23.9,15.6,20,13,17,NA,1019.7,METAR KSAV 091453Z 02013G17KT 10SM FEW060 FEW250 24/16 A3011 RMK AO2 SLP196 T02390156 53011,2025-09-09T15:51:29Z,2025-09-09T11:51:29Z
KSAV,"Savannah Intl, GA, US",2025-09-09T15:53:00Z,2025-09-09T11:53:00Z,VFR,25.6,15,40,11,19,NA,1019.7,METAR KSAV 091553Z 04011G19KT 10SM SCT250 26/15 A3011 RMK AO2 SLP197 T02560150,2025-09-09T16:06:01Z,2025-09-09T12:06:01Z
KSAV,"Savannah Intl, GA, US",2025-09-09T16:53:00Z,2025-09-09T12:53:00Z,VFR,27.2,15.6,30,9,0,NA,1019.4,METAR KSAV 091653Z 03009KT 10SM BKN250 27/16 A3010 RMK AO2 SLP192 T02720156,2025-09-09T17:12:51Z,2025-09-09T13:12:51Z
KSAV,"Savannah Intl, GA, US",2025-09-09T17:53:00Z,2025-09-09T13:53:00Z,VFR,27.2,15.6,30,9,18,NA,1018.7,METAR KSAV 091753Z 03009G18KT 360V060 10SM BKN250 27/16 A3008 RMK AO2 SLP184 T02720156 10278 20183 58013,2025-09-09T18:09:20Z,2025-09-09T14:09:20Z
KSAV,"Savannah Intl, GA, US",2025-09-09T18:53:00Z,2025-09-09T14:53:00Z,VFR,27.8,15.6,60,10,19,NA,1017.7,METAR KSAV 091853Z 06010G19KT 10SM BKN200 28/16 A3005 RMK AO2 SLP176 T02780156,2025-09-09T19:00:56Z,2025-09-09T15:00:56Z
KSAV,"Savannah Intl, GA, US",2025-09-09T19:53:00Z,2025-09-09T15:53:00Z,VFR,27.8,15.6,40,9,0,NA,1017.4,METAR KSAV 091953Z 04009KT 10SM BKN210 28/16 A3004 RMK AO2 SLP171 T02780156,2025-09-09T20:10:15Z,2025-09-09T16:10:15Z
KSBA,"Santa Barbara Muni, CA, US",2025-09-09T14:53:00Z,2025-09-09T10:53:00Z,VFR,19.4,16.7,110,4,0,NA,1013.3,METAR KSBA 091453Z 11004KT 10SM CLR 19/17 A2992 RMK AO2 SLP133 T01940167 53008 $,2025-09-09T15:51:32Z,2025-09-09T11:51:32Z
KSBA,"Santa Barbara Muni, CA, US",2025-09-09T15:53:00Z,2025-09-09T11:53:00Z,VFR,20,17.2,130,9,0,NA,1013.6,METAR KSBA 091553Z 13009KT 10SM CLR 20/17 A2993 RMK AO2 SLP133 T02000172 $,2025-09-09T16:06:05Z,2025-09-09T12:06:05Z
KSBA,"Santa Barbara Muni, CA, US",2025-09-09T16:53:00Z,2025-09-09T12:53:00Z,VFR,20.6,17.2,140,9,0,NA,1013.6,METAR KSBA 091653Z 14009KT 10SM CLR 21/17 A2993 RMK AO2 SLP136 T02060172 $,2025-09-09T17:12:57Z,2025-09-09T13:12:57Z
KSBA,"Santa Barbara Muni, CA, US",2025-09-09T17:53:00Z,2025-09-09T13:53:00Z,VFR,21.7,17.2,150,9,0,NA,1014,METAR KSBA 091753Z 15009KT 10SM CLR 22/17 A2994 RMK AO2 SLP138 T02170172 10217 20139 53005 $,2025-09-09T18:09:23Z,2025-09-09T14:09:23Z
KSBA,"Santa Barbara Muni, CA, US",2025-09-09T18:53:00Z,2025-09-09T14:53:00Z,VFR,21.7,17.2,150,9,0,NA,1013.6,METAR KSBA 091853Z 15009KT 10SM CLR 22/17 A2993 RMK AO2 SLP135 T02170172 $,2025-09-09T19:00:59Z,2025-09-09T15:00:59Z
KSBA,"Santa Barbara Muni, CA, US",2025-09-09T19:53:00Z,2025-09-09T15:53:00Z,VFR,22.2,17.2,150,8,0,NA,1013,METAR KSBA 091953Z 15008KT 10SM CLR 22/17 A2991 RMK AO2 SLP129 T02220172 $,2025-09-09T20:10:19Z,2025-09-09T16:10:19Z
KSBN,"South Bend Rgnl, IN, US",2025-09-09T14:54:00Z,2025-09-09T10:54:00Z,VFR,19.4,8.9,200,5,0,NA,1023.5,METAR KSBN 091454Z 20005KT 10SM CLR 19/09 A3022 RMK AO2 SLP235 T01940089 50001,2025-09-09T15:51:29Z,2025-09-09T11:51:29Z
KSBN,"South Bend Rgnl, IN, US",2025-09-09T15:54:00Z,2025-09-09T11:54:00Z,VFR,21.1,8.9,210,6,0,NA,1023.5,METAR KSBN 091554Z 21006KT 10SM CLR 21/09 A3022 RMK AO2 SLP232 T02110089,2025-09-09T16:06:01Z,2025-09-09T12:06:01Z
KSBN,"South Bend Rgnl, IN, US",2025-09-09T16:54:00Z,2025-09-09T12:54:00Z,VFR,21.7,7.2,210,9,0,NA,1023.1,METAR KSBN 091654Z 21009KT 10SM CLR 22/07 A3021 RMK AO2 SLP229 T02170072,2025-09-09T17:12:51Z,2025-09-09T13:12:51Z
KSBN,"South Bend Rgnl, IN, US",2025-09-09T17:54:00Z,2025-09-09T13:54:00Z,VFR,22.2,7.2,200,11,0,NA,1022.4,METAR KSBN 091754Z 20011KT 10SM CLR 22/07 A3019 RMK AO2 SLP224 T02220072 10222 20072 58010,2025-09-09T18:09:20Z,2025-09-09T14:09:20Z
KSBN,"South Bend Rgnl, IN, US",2025-09-09T18:54:00Z,2025-09-09T14:54:00Z,VFR,23.3,7.2,250,5,0,NA,1021.8,METAR KSBN 091854Z 25005KT 10SM CLR 23/07 A3017 RMK AO2 SLP215 T02330072,2025-09-09T19:00:56Z,2025-09-09T15:00:56Z
KSBN,"South Bend Rgnl, IN, US",2025-09-09T19:54:00Z,2025-09-09T15:54:00Z,VFR,22.8,6.7,190,7,0,NA,1021.4,METAR KSBN 091954Z 19007KT 10SM CLR 23/07 A3016 RMK AO2 SLP212 T02280067,2025-09-09T20:10:15Z,2025-09-09T16:10:15Z
KSDF,"Louisville Intl, KY, US",2025-09-09T14:56:00Z,2025-09-09T10:56:00Z,VFR,18.9,9.4,0,0,0,NA,1022.8,METAR KSDF 091456Z 00000KT 10SM SCT350 19/09 A3020 RMK AO2 SLP225 T01890094 51001,2025-09-09T15:51:29Z,2025-09-09T11:51:29Z
KSDF,"Louisville Intl, KY, US",2025-09-09T15:56:00Z,2025-09-09T11:56:00Z,VFR,22.2,9.4,0,0,0,NA,1022.8,METAR KSDF 091556Z 00000KT 10SM FEW350 22/09 A3020 RMK AO2 SLP222 T02220094,2025-09-09T16:06:01Z,2025-09-09T12:06:01Z
KSDF,"Louisville Intl, KY, US",2025-09-09T16:56:00Z,2025-09-09T12:56:00Z,VFR,23.9,7.8,VAR,4,0,NA,1022.1,METAR KSDF 091656Z VRB04KT 10SM FEW055 FEW350 24/08 A3018 RMK AO2 SLP216 T02390078,2025-09-09T17:12:51Z,2025-09-09T13:12:51Z
KSDF,"Louisville Intl, KY, US",2025-09-09T17:56:00Z,2025-09-09T13:56:00Z,VFR,25.6,7.8,VAR,3,0,NA,1021.4,METAR KSDF 091756Z VRB03KT 10SM FEW060 FEW350 26/08 A3016 RMK AO2 SLP209 T02560078 10256 20133 58015,2025-09-09T18:09:20Z,2025-09-09T14:09:20Z
KSDF,"Louisville Intl, KY, US",2025-09-09T18:56:00Z,2025-09-09T14:56:00Z,VFR,25.6,7.8,VAR,NA,0,NA,1020.7,METAR KSDF 091856Z 10SM FEW060 FEW350 26/08 A3014 RMK AO2 SLP202 T02560078,2025-09-09T19:00:56Z,2025-09-09T15:00:56Z
KSDF,"Louisville Intl, KY, US",2025-09-09T19:00:00Z,2025-09-09T15:00:00Z,VFR,25.6,8.3,320,3,0,NA,1020.4,SPECI KSDF 091900Z 32003KT 10SM FEW060 FEW350 26/08 A3013 RMK AO2 T02560083,2025-09-09T19:20:54Z,2025-09-09T15:20:54Z
KSDF,"Louisville Intl, KY, US",2025-09-09T19:56:00Z,2025-09-09T15:56:00Z,VFR,26.7,7.8,150,4,0,NA,1020.1,METAR KSDF 091956Z 15004KT 10SM FEW060 FEW350 27/08 A3012 RMK AO2 SLP196 T02670078,2025-09-09T20:10:15Z,2025-09-09T16:10:15Z
KSEA,"Seattle-Tacoma Intl, WA, US",2025-09-09T14:53:00Z,2025-09-09T10:53:00Z,VFR,15.6,12.2,10,6,0,NA,1014.6,METAR KSEA 091453Z 01006KT 10SM BKN041 BKN100 BKN250 16/12 A2996 RMK AO2 SLP149 T01560122 50004 $,2025-09-09T15:51:30Z,2025-09-09T11:51:30Z
KSEA,"Seattle-Tacoma Intl, WA, US",2025-09-09T15:53:00Z,2025-09-09T11:53:00Z,VFR,16.1,12.8,20,6,0,NA,1014.6,METAR KSEA 091553Z 02006KT 10SM BKN039 BKN120 BKN250 16/13 A2996 RMK AO2 SLP151 T01610128 $,2025-09-09T16:06:03Z,2025-09-09T12:06:03Z
KSEA,"Seattle-Tacoma Intl, WA, US",2025-09-09T16:13:00Z,2025-09-09T12:13:00Z,VFR,17.2,12.8,360,5,0,NA,1015,SPECI KSEA 091613Z 36005KT 10SM FEW009 SCT040 BKN100 BKN250 17/13 A2997 RMK AO2 T01720128 $,2025-09-09T16:38:39Z,2025-09-09T12:38:39Z
KSEA,"Seattle-Tacoma Intl, WA, US",2025-09-09T16:53:00Z,2025-09-09T12:53:00Z,VFR,18.3,13.9,10,5,0,NA,1015,METAR KSEA 091653Z 01005KT 10SM SCT012 BKN038 OVC100 18/14 A2997 RMK AO2 SLP154 T01830139 $,2025-09-09T17:12:54Z,2025-09-09T13:12:54Z
KSEA,"Seattle-Tacoma Intl, WA, US",2025-09-09T17:53:00Z,2025-09-09T13:53:00Z,VFR,17.8,13.9,20,7,0,NA,1015,METAR KSEA 091753Z 02007KT 10SM FEW012 BKN038 BKN100 BKN250 18/14 A2997 RMK AO2 SLP153 T01780139 10183 20144 50003 $,2025-09-09T18:09:21Z,2025-09-09T14:09:21Z
KSEA,"Seattle-Tacoma Intl, WA, US",2025-09-09T18:53:00Z,2025-09-09T14:53:00Z,VFR,18.9,13.9,360,6,0,NA,1014.6,METAR KSEA 091853Z 36006KT 10SM FEW015 SCT050 BKN090 BKN130 19/14 A2996 RMK AO2 SLP150 T01890139 $,2025-09-09T19:00:57Z,2025-09-09T15:00:57Z
KSEA,"Seattle-Tacoma Intl, WA, US",2025-09-09T19:53:00Z,2025-09-09T15:53:00Z,VFR,19.4,13.9,VAR,6,0,NA,1014.6,METAR KSEA 091953Z VRB06KT 10SM FEW015 BKN090 BKN130 19/14 A2996 RMK AO2 SLP148 T01940139 $,2025-09-09T20:10:18Z,2025-09-09T16:10:18Z
KSFO,"San Francisco Intl, CA, US",2025-09-09T15:10:00Z,2025-09-09T11:10:00Z,VFR,18.9,17.2,150,4,0,NA,1014.3,SPECI KSFO 091510Z 15004KT 10SM FEW006 SCT013 BKN035 19/17 A2995 RMK AO2 T01890172 $,2025-09-09T15:51:32Z,2025-09-09T11:51:32Z
KSFO,"San Francisco Intl, CA, US",2025-09-09T15:56:00Z,2025-09-09T11:56:00Z,VFR,19.4,17.2,0,0,0,NA,1014,METAR KSFO 091556Z 00000KT 10SM FEW006 SCT017 BKN043 19/17 A2994 RMK AO2 SLP140 T01940172 $,2025-09-09T16:06:05Z,2025-09-09T12:06:05Z
KSFO,"San Francisco Intl, CA, US",2025-09-09T16:39:00Z,2025-09-09T12:39:00Z,MVFR,20,16.7,230,8,0,NA,1014.3,SPECI KSFO 091639Z 23008KT 10SM FEW005 BKN018 OVC040 20/17 A2995 RMK AO2 T02000167 $,2025-09-09T16:54:06Z,2025-09-09T12:54:06Z
KSFO,"San Francisco Intl, CA, US",2025-09-09T16:56:00Z,2025-09-09T12:56:00Z,MVFR,20,16.1,230,9,0,NA,1014.3,METAR KSFO 091656Z 23009KT 10SM FEW005 BKN018 OVC038 20/16 A2995 RMK AO2 SLP142 T02000161 $,2025-09-09T17:12:57Z,2025-09-09T13:12:57Z
KSFO,"San Francisco Intl, CA, US",2025-09-09T17:29:00Z,2025-09-09T13:29:00Z,VFR,20,17.2,170,4,0,NA,1014.3,SPECI KSFO 091729Z 17004KT 10SM FEW006 SCT024 BKN042 20/17 A2995 RMK AO2 RAB08E22 P0000 T02000172 $,2025-09-09T17:41:40Z,2025-09-09T13:41:40Z
KSFO,"San Francisco Intl, CA, US",2025-09-09T17:56:00Z,2025-09-09T13:56:00Z,VFR,20.6,16.7,240,6,0,NA,1014,METAR KSFO 091756Z 24006KT 10SM FEW006 SCT022 BKN037 21/17 A2994 RMK AO2 RAB08E22 SLP140 P0000 60002 T02060167 10206 20178 58001 $,2025-09-09T18:09:23Z,2025-09-09T14:09:23Z
KSFO,"San Francisco Intl, CA, US",2025-09-09T18:56:00Z,2025-09-09T14:56:00Z,VFR,21.7,15,190,7,0,NA,1014,METAR KSFO 091856Z 19007KT 10SM FEW006 SCT023 BKN037 22/15 A2994 RMK AO2 SLP139 T02170150 $,2025-09-09T19:00:59Z,2025-09-09T15:00:59Z
KSFO,"San Francisco Intl, CA, US",2025-09-09T19:56:00Z,2025-09-09T15:56:00Z,VFR,22.2,15,210,6,0,NA,1013.6,METAR KSFO 091956Z 21006KT 10SM FEW009 SCT024 BKN036 22/15 A2993 RMK AO2 SLP135 CB DSNT NE T02220150 $,2025-09-09T20:10:19Z,2025-09-09T16:10:19Z
KSJC,"San Jose Intl Arpt, CA, US",2025-09-09T14:53:00Z,2025-09-09T10:53:00Z,VFR,19.4,15.6,130,5,0,NA,1014.3,METAR KSJC 091453Z 13005KT 10SM FEW010 SCT025 SCT035 19/16 A2995 RMK AO2 SLP141 TCU DSNT SE T01940156 55001,2025-09-09T15:51:32Z,2025-09-09T11:51:32Z
KSJC,"San Jose Intl Arpt, CA, US",2025-09-09T15:53:00Z,2025-09-09T11:53:00Z,VFR,20.6,13.9,180,3,0,NA,1014.3,METAR KSJC 091553Z 18003KT 10SM FEW010 SCT023 BKN042 21/14 A2995 RMK AO2 SLP143 TCU DSNT SE T02060139,2025-09-09T16:06:05Z,2025-09-09T12:06:05Z
KSJC,"San Jose Intl Arpt, CA, US",2025-09-09T16:53:00Z,2025-09-09T12:53:00Z,MVFR,20.6,14.4,0,0,0,NA,1014.6,METAR KSJC 091653Z 00000KT 10SM -RA FEW010 BKN030 BKN045 21/14 A2996 RMK AO2 RAB46 SLP143 TCU DSNT SE AND NW P0000 T02060144,2025-09-09T17:12:57Z,2025-09-09T13:12:57Z
KSJC,"San Jose Intl Arpt, CA, US",2025-09-09T17:53:00Z,2025-09-09T13:53:00Z,MVFR,22.8,14.4,0,0,0,NA,1014,METAR KSJC 091753Z 00000KT 10SM FEW010 BKN030 BKN045 23/14 A2994 RMK AO2 RAE1657 SLP139 P0000 60000 T02280144 10228 20183 58002,2025-09-09T18:09:23Z,2025-09-09T14:09:23Z
KSJC,"San Jose Intl Arpt, CA, US",2025-09-09T18:53:00Z,2025-09-09T14:53:00Z,VFR,22.8,13.9,230,5,0,NA,1014,METAR KSJC 091853Z 23005KT 10SM FEW010 BKN035 BKN050 23/14 A2994 RMK AO2 SLP137 T02280139,2025-09-09T19:00:59Z,2025-09-09T15:00:59Z
KSJC,"San Jose Intl Arpt, CA, US",2025-09-09T19:53:00Z,2025-09-09T15:53:00Z,MVFR,23.9,14.4,VAR,5,0,NA,1013.3,METAR KSJC 091953Z VRB05KT 10SM FEW010 BKN030 BKN060 24/14 A2992 RMK AO2 SLP132 T02390144,2025-09-09T20:10:19Z,2025-09-09T16:10:19Z
KSLC,"Salt Lake City Intl, UT, US",2025-09-09T14:54:00Z,2025-09-09T10:54:00Z,VFR,25,7.2,130,9,0,NA,1014.3,METAR KSLC 091454Z 13009KT 10SM FEW120 SCT190 BKN230 25/07 A2995 RMK AO2 SLP088 ACSL DSNT SE T02500072 58001 $,2025-09-09T15:51:30Z,2025-09-09T11:51:30Z
KSLC,"Salt Lake City Intl, UT, US",2025-09-09T15:54:00Z,2025-09-09T11:54:00Z,VFR,27.2,6.7,160,19,25,NA,1014.3,METAR KSLC 091554Z 16019G25KT 10SM FEW085 FEW120 BKN190 BKN230 27/07 A2995 RMK AO2 SLP083 T02720067 $,2025-09-09T16:06:03Z,2025-09-09T12:06:03Z
KSLC,"Salt Lake City Intl, UT, US",2025-09-09T16:54:00Z,2025-09-09T12:54:00Z,VFR,27.8,6.1,170,14,24,NA,1014.6,METAR KSLC 091654Z 17014G24KT 10SM FEW095 FEW130 BKN230 28/06 A2996 RMK AO2 PK WND 16026/1610 SLP088 T02780061 $,2025-09-09T17:12:54Z,2025-09-09T13:12:54Z
KSLC,"Salt Lake City Intl, UT, US",2025-09-09T17:54:00Z,2025-09-09T13:54:00Z,VFR,27.8,3.9,170,15,25,NA,1014,METAR KSLC 091754Z 17015G25KT 10SM FEW095 FEW140 BKN230 28/04 A2994 RMK AO2 SLP081 T02780039 10278 20222 58002 $,2025-09-09T18:09:21Z,2025-09-09T14:09:21Z
KSLC,"Salt Lake City Intl, UT, US",2025-09-09T18:54:00Z,2025-09-09T14:54:00Z,VFR,29.4,4.4,160,16,26,NA,1013.6,METAR KSLC 091854Z 16016G26KT 10SM FEW095 FEW140 BKN230 29/04 A2993 RMK AO2 PK WND 17027/1829 SLP072 T02940044 $,2025-09-09T19:00:57Z,2025-09-09T15:00:57Z
KSLC,"Salt Lake City Intl, UT, US",2025-09-09T19:54:00Z,2025-09-09T15:54:00Z,VFR,28.9,4.4,160,16,0,NA,1013,METAR KSLC 091954Z 16016KT 10SM FEW095 FEW140 BKN230 29/04 A2991 RMK AO2 SLP070 ACSL DSNT E T02890044 $,2025-09-09T20:10:18Z,2025-09-09T16:10:18Z
KSMO,"Santa Monica Muni, CA, US",2025-09-09T14:51:00Z,2025-09-09T10:51:00Z,MVFR,20,16.7,0,0,0,NA,1014.3,METAR KSMO 091451Z 00000KT 10SM OVC014 20/17 A2995 RMK AO2 SLP139 T02000167 53008,2025-09-09T15:51:32Z,2025-09-09T11:51:32Z
KSMO,"Santa Monica Muni, CA, US",2025-09-09T15:51:00Z,2025-09-09T11:51:00Z,MVFR,20.6,17.2,190,4,0,NA,1014.6,METAR KSMO 091551Z 19004KT 10SM OVC014 21/17 A2996 RMK AO2 SLP144 T02060172,2025-09-09T16:06:05Z,2025-09-09T12:06:05Z
KSMO,"Santa Monica Muni, CA, US",2025-09-09T16:51:00Z,2025-09-09T12:51:00Z,MVFR,21.1,16.7,VAR,4,0,NA,1014.6,METAR KSMO 091651Z VRB04KT 10SM OVC020 21/17 A2996 RMK AO2 SLP143 T02110167,2025-09-09T16:54:06Z,2025-09-09T12:54:06Z
KSMO,"Santa Monica Muni, CA, US",2025-09-09T17:51:00Z,2025-09-09T13:51:00Z,VFR,22.8,16.7,210,6,0,NA,1014.3,METAR KSMO 091751Z 21006KT 10SM SCT024 23/17 A2995 RMK AO2 SLP140 T02280167 10228 20189 50001,2025-09-09T18:09:23Z,2025-09-09T14:09:23Z
KSMO,"Santa Monica Muni, CA, US",2025-09-09T18:51:00Z,2025-09-09T14:51:00Z,VFR,23.3,16.1,220,8,0,NA,1014,METAR KSMO 091851Z 22008KT 10SM CLR 23/16 A2994 RMK AO2 SLP136 T02330161,2025-09-09T19:00:59Z,2025-09-09T15:00:59Z
KSMO,"Santa Monica Muni, CA, US",2025-09-09T19:51:00Z,2025-09-09T15:51:00Z,VFR,23.3,16.1,210,8,0,NA,1013.3,METAR KSMO 091951Z 21008KT 10SM CLR 23/16 A2992 RMK AO2 SLP129 T02330161,2025-09-09T20:10:19Z,2025-09-09T16:10:19Z
KSMO,"Santa Monica Muni, CA, US",2025-09-09T20:51:00Z,2025-09-09T16:51:00Z,VFR,23.9,16.7,210,10,16,NA,1013,METAR KSMO 092051Z 21010G16KT 10SM CLR 24/17 A2991 RMK AO2 SLP125 T02390167 57015,2025-09-09T20:54:03Z,2025-09-09T16:54:03Z
KSNA,"Santa Ana/Wayne Arpt, CA, US",2025-09-09T14:53:00Z,2025-09-09T10:53:00Z,MVFR,20.6,16.1,110,6,0,NA,1014,METAR KSNA 091453Z 11006KT 10SM OVC019 21/16 A2994 RMK AO2 SLP139 T02060161 51006,2025-09-09T15:51:32Z,2025-09-09T11:51:32Z
KSNA,"Santa Ana/Wayne Arpt, CA, US",2025-09-09T15:53:00Z,2025-09-09T11:53:00Z,MVFR,20.6,16.1,130,5,0,NA,1014.3,METAR KSNA 091553Z 13005KT 10SM BKN020 21/16 A2995 RMK AO2 SLP141 T02060161,2025-09-09T16:06:05Z,2025-09-09T12:06:05Z
KSNA,"Santa Ana/Wayne Arpt, CA, US",2025-09-09T16:53:00Z,2025-09-09T12:53:00Z,MVFR,21.1,15.6,VAR,4,0,NA,1014.6,METAR KSNA 091653Z VRB04KT 10SM BKN020 21/16 A2996 RMK AO2 SLP145 T02110156,2025-09-09T17:12:57Z,2025-09-09T13:12:57Z
KSNA,"Santa Ana/Wayne Arpt, CA, US",2025-09-09T17:42:00Z,2025-09-09T13:42:00Z,VFR,22.2,15,VAR,3,0,NA,1014.3,SPECI KSNA 091742Z VRB03KT 10SM SCT024 22/15 A2995 RMK AO2 T02220150,2025-09-09T17:52:18Z,2025-09-09T13:52:18Z
KSNA,"Santa Ana/Wayne Arpt, CA, US",2025-09-09T17:53:00Z,2025-09-09T13:53:00Z,VFR,22.2,15.6,VAR,5,0,NA,1014.3,METAR KSNA 091753Z VRB05KT 10SM SCT024 22/16 A2995 RMK AO2 SLP140 T02220156 10228 20194 50001,2025-09-09T18:09:23Z,2025-09-09T14:09:23Z
KSNA,"Santa Ana/Wayne Arpt, CA, US",2025-09-09T18:53:00Z,2025-09-09T14:53:00Z,VFR,23.3,15.6,230,8,0,NA,1013.3,METAR KSNA 091853Z 23008KT 10SM CLR 23/16 A2992 RMK AO2 SLP132 T02330156,2025-09-09T19:00:59Z,2025-09-09T15:00:59Z
KSNA,"Santa Ana/Wayne Arpt, CA, US",2025-09-09T19:53:00Z,2025-09-09T15:53:00Z,VFR,23.9,15.6,200,12,0,NA,1013,METAR KSNA 091953Z 20012KT 10SM CLR 24/16 A2991 RMK AO2 SLP127 T02390156,2025-09-09T20:10:19Z,2025-09-09T16:10:19Z
KSTL,"St Louis/Lambert Intl, MO, US",2025-09-09T14:51:00Z,2025-09-09T10:51:00Z,VFR,21.1,8.9,160,5,0,NA,1021.1,METAR KSTL 091451Z 16005KT 10SM SCT140 BKN230 21/09 A3015 RMK AO2 SLP205 T02110089 55000,2025-09-09T15:51:29Z,2025-09-09T11:51:29Z
KSTL,"St Louis/Lambert Intl, MO, US",2025-09-09T15:51:00Z,2025-09-09T11:51:00Z,VFR,23.3,9.4,170,5,0,NA,1021.1,METAR KSTL 091551Z 17005KT 10SM FEW140 SCT200 BKN250 23/09 A3015 RMK AO2 SLP202 T02330094,2025-09-09T16:06:02Z,2025-09-09T12:06:02Z
KSTL,"St Louis/Lambert Intl, MO, US",2025-09-09T16:51:00Z,2025-09-09T12:51:00Z,VFR,25,8.3,180,4,0,NA,1020.4,METAR KSTL 091651Z 18004KT 10SM FEW150 FEW200 SCT250 25/08 A3013 RMK AO2 SLP197 T02500083,2025-09-09T16:54:03Z,2025-09-09T12:54:03Z
KSTL,"St Louis/Lambert Intl, MO, US",2025-09-09T17:51:00Z,2025-09-09T13:51:00Z,VFR,25.6,7.2,190,5,0,NA,1020.1,METAR KSTL 091751Z 19005KT 10SM SCT150 SCT200 BKN250 26/07 A3012 RMK AO2 SLP193 T02560072 10261 20128 58010,2025-09-09T18:09:20Z,2025-09-09T14:09:20Z
KSTL,"St Louis/Lambert Intl, MO, US",2025-09-09T18:51:00Z,2025-09-09T14:51:00Z,VFR,25.6,7.8,210,7,0,NA,1019.7,METAR KSTL 091851Z 21007KT 10SM BKN160 BKN250 26/08 A3011 RMK AO2 SLP189 T02560078,2025-09-09T19:00:56Z,2025-09-09T15:00:56Z
KSTL,"St Louis/Lambert Intl, MO, US",2025-09-09T19:51:00Z,2025-09-09T15:51:00Z,VFR,25.6,7.2,200,9,0,NA,1018.7,METAR KSTL 091951Z 20009KT 10SM BKN150 BKN250 26/07 A3008 RMK AO2 SLP181 T02560072,2025-09-09T20:10:15Z,2025-09-09T16:10:15Z
KSTL,"St Louis/Lambert Intl, MO, US",2025-09-09T20:51:00Z,2025-09-09T16:51:00Z,VFR,26.1,8.3,120,6,0,NA,1018,METAR KSTL 092051Z 12006KT 10SM BKN130 BKN250 26/08 A3006 RMK AO2 SLP173 T02610083 58019,2025-09-09T20:54:00Z,2025-09-09T16:54:00Z
KSTS,"Santa Rosa/Schulz Arpt, CA, US",2025-09-09T15:09:00Z,2025-09-09T11:09:00Z,IFR,17.2,16.7,150,5,0,2,1014,SPECI KSTS 091509Z 15005KT 2SM -RA BR BKN008 OVC010 17/17 A2994 RMK AO2 P0003 T01720167,2025-09-09T15:51:32Z,2025-09-09T11:51:32Z
KSTS,"Santa Rosa/Schulz Arpt, CA, US",2025-09-09T15:53:00Z,2025-09-09T11:53:00Z,IFR,17.8,17.2,130,4,0,6,1014,METAR KSTS 091553Z 13004KT 6SM BR BKN005 OVC013 18/17 A2994 RMK AO2 RAE42 SLP132 P0005 T01780172,2025-09-09T16:06:05Z,2025-09-09T12:06:05Z
KSTS,"Santa Rosa/Schulz Arpt, CA, US",2025-09-09T16:53:00Z,2025-09-09T12:53:00Z,MVFR,18.9,17.2,120,3,0,NA,1013.6,METAR KSTS 091653Z 12003KT 10SM SCT010 BKN019 BKN027 19/17 A2993 RMK AO2 SLP130 T01890172,2025-09-09T17:12:57Z,2025-09-09T13:12:57Z
KSTS,"Santa Rosa/Schulz Arpt, CA, US",2025-09-09T17:27:00Z,2025-09-09T13:27:00Z,MVFR,19.4,16.7,0,0,0,NA,1014,SPECI KSTS 091727Z 00000KT 10SM BKN017 OVC050 19/17 A2994 RMK AO2 T01940167,2025-09-09T17:30:41Z,2025-09-09T13:30:41Z
KSTS,"Santa Rosa/Schulz Arpt, CA, US",2025-09-09T17:53:00Z,2025-09-09T13:53:00Z,IFR,19.4,16.7,170,4,0,2.5,1013.6,METAR KSTS 091753Z 17004KT 2 1/2SM -RA BKN014 BKN024 OVC034 19/17 A2993 RMK AO2 RAB51 SLP129 P0000 60008 T01940167 10200 20172 58002,2025-09-09T18:09:23Z,2025-09-09T14:09:23Z
KSTS,"Santa Rosa/Schulz Arpt, CA, US",2025-09-09T18:53:00Z,2025-09-09T14:53:00Z,MVFR,20,17.2,210,4,0,3,1013.6,METAR KSTS 091853Z 21004KT 3SM HZ SCT010 BKN032 OVC046 20/17 A2993 RMK AO2 RAE48 SLP129 P0002 T02000172,2025-09-09T19:00:59Z,2025-09-09T15:00:59Z
KSTS,"Santa Rosa/Schulz Arpt, CA, US",2025-09-09T19:29:00Z,2025-09-09T15:29:00Z,MVFR,20.6,16.1,230,7,0,NA,1013.3,SPECI KSTS 091929Z 23007KT 10SM SCT020 BKN027 OVC034 21/16 A2992 RMK AO2 T02060161,2025-09-09T19:41:17Z,2025-09-09T15:41:17Z
KSTS,"Santa Rosa/Schulz Arpt, CA, US",2025-09-09T19:53:00Z,2025-09-09T15:53:00Z,MVFR,21.1,16.7,230,7,0,NA,1013.3,METAR KSTS 091953Z 23007KT 10SM SCT022 BKN028 OVC043 21/17 A2992 RMK AO2 SLP124 T02110167,2025-09-09T20:10:19Z,2025-09-09T16:10:19Z
KSWF,"Newburgh/Stewart Intl, NY, US",2025-09-09T16:45:00Z,2025-09-09T12:45:00Z,VFR,22,11,110,7,0,NA,1027.5,METAR KSWF 091645Z 11007KT 10SM FEW050 22/11 A3034,2025-09-09T16:54:01Z,2025-09-09T12:54:01Z
KSWF,"Newburgh/Stewart Intl, NY, US",2025-09-09T17:45:00Z,2025-09-09T13:45:00Z,VFR,22,9,100,10,0,NA,1026.8,METAR KSWF 091745Z 10010KT 10SM FEW050 22/09 A3032,2025-09-09T17:52:13Z,2025-09-09T13:52:13Z
KSWF,"Newburgh/Stewart Intl, NY, US",2025-09-09T18:45:00Z,2025-09-09T14:45:00Z,VFR,23,10,90,6,0,NA,1026.5,METAR KSWF 091845Z 09006KT 10SM FEW050 23/10 A3031,2025-09-09T18:50:45Z,2025-09-09T14:50:45Z
KSWF,"Newburgh/Stewart Intl, NY, US",2025-09-09T19:45:00Z,2025-09-09T15:45:00Z,VFR,23,8,90,6,0,NA,1025.8,METAR KSWF 091945Z 09006KT 10SM FEW050 23/08 A3029,2025-09-09T20:31:16Z,2025-09-09T16:31:16Z
KSWF,"Newburgh/Stewart Intl, NY, US",2025-09-09T20:45:00Z,2025-09-09T16:45:00Z,VFR,23,8,VAR,NA,0,NA,1025.5,METAR KSWF 092045Z 1207KT 10SM FEW050 23/08 A3028,2025-09-09T20:53:58Z,2025-09-09T16:53:58Z
KSYR,"Syracuse/Hancock Intl, NY, US",2025-09-09T14:54:00Z,2025-09-09T10:54:00Z,VFR,17.2,10,0,0,0,NA,1028.5,METAR KSYR 091454Z 00000KT 10SM FEW020 FEW200 SCT250 17/10 A3037 RMK AO2 SLP280 T01720100,2025-09-09T15:51:27Z,2025-09-09T11:51:27Z
KSYR,"Syracuse/Hancock Intl, NY, US",2025-09-09T15:54:00Z,2025-09-09T11:54:00Z,VFR,20,10.6,0,0,0,NA,1027.9,METAR KSYR 091554Z 00000KT 10SM FEW030 SCT250 20/11 A3035 RMK AO2 SLP275 T02000106,2025-09-09T16:06:00Z,2025-09-09T12:06:00Z
KSYR,"Syracuse/Hancock Intl, NY, US",2025-09-09T16:54:00Z,2025-09-09T12:54:00Z,VFR,21.1,10,320,5,0,NA,1026.8,METAR KSYR 091654Z 32005KT 10SM FEW035 SCT250 21/10 A3032 RMK AO2 SLP265 T02110100,2025-09-09T17:12:49Z,2025-09-09T13:12:49Z
KSYR,"Syracuse/Hancock Intl, NY, US",2025-09-09T17:54:00Z,2025-09-09T13:54:00Z,VFR,22.2,8.3,VAR,3,0,NA,1026.2,METAR KSYR 091754Z VRB03KT 10SM FEW040 FEW070 SCT250 22/08 A3030 RMK AO2 SLP259 T02220083 10228 20083 58021,2025-09-09T18:09:19Z,2025-09-09T14:09:19Z
KSYR,"Syracuse/Hancock Intl, NY, US",2025-09-09T18:54:00Z,2025-09-09T14:54:00Z,VFR,22.2,11.1,30,3,0,NA,1025.8,METAR KSYR 091854Z 03003KT 10SM SCT055 SCT250 22/11 A3029 RMK AO2 SLP252 T02220111,2025-09-09T19:00:54Z,2025-09-09T15:00:54Z
KSYR,"Syracuse/Hancock Intl, NY, US",2025-09-09T19:54:00Z,2025-09-09T15:54:00Z,VFR,22.2,11.1,40,7,0,NA,1025.1,METAR KSYR 091954Z 04007KT 10SM FEW055 SCT250 22/11 A3027 RMK AO2 SLP247 T02220111,2025-09-09T20:10:12Z,2025-09-09T16:10:12Z
KTPA,"Tampa Intl Arpt, FL, US",2025-09-09T14:53:00Z,2025-09-09T10:53:00Z,MVFR,26.7,24.4,30,4,0,NA,1015,METAR KTPA 091453Z 03004KT 10SM BKN010 27/24 A2997 RMK AO2 RAB09E27 SLP149 P0000 60000 T02670244 53013 $,2025-09-09T15:51:29Z,2025-09-09T11:51:29Z
KTPA,"Tampa Intl Arpt, FL, US",2025-09-09T15:53:00Z,2025-09-09T11:53:00Z,VFR,27.8,24.4,VAR,4,0,NA,1014.6,METAR KTPA 091553Z VRB04KT 10SM FEW010 SCT035 BKN110 28/24 A2996 RMK AO2 SLP146 OCNL LTGIC DSNT SW CB DSNT SW T02780244 $,2025-09-09T16:06:01Z,2025-09-09T12:06:01Z
KTPA,"Tampa Intl Arpt, FL, US",2025-09-09T16:53:00Z,2025-09-09T12:53:00Z,VFR,27.8,23.9,60,5,0,NA,1015,METAR KTPA 091653Z 06005KT 10SM FEW010 FEW049 SCT110 28/24 A2997 RMK AO2 SLP148 T02780239,2025-09-09T17:12:51Z,2025-09-09T13:12:51Z
KTPA,"Tampa Intl Arpt, FL, US",2025-09-09T17:53:00Z,2025-09-09T13:53:00Z,VFR,27.8,24.4,60,3,0,NA,1014.3,METAR KTPA 091753Z 06003KT 10SM FEW012 BKN050 BKN110 28/24 A2995 RMK AO2 SLP142 OCNL LTGIC DSNT S-SW CB DSNT S-SW 60000 T02780244 10283 20250 58008,2025-09-09T18:09:20Z,2025-09-09T14:09:20Z
KTPA,"Tampa Intl Arpt, FL, US",2025-09-09T18:53:00Z,2025-09-09T14:53:00Z,VFR,28.3,24.4,40,3,0,NA,1013.6,METAR KTPA 091853Z 04003KT 10SM FEW012 SCT050 BKN110 28/24 A2993 RMK AO2 SLP135 OCNL LTGIC DSNT E-S CB DSNT E-S T02830244,2025-09-09T19:00:56Z,2025-09-09T15:00:56Z
KTPA,"Tampa Intl Arpt, FL, US",2025-09-09T19:53:00Z,2025-09-09T15:53:00Z,VFR,28.3,23.9,50,6,0,NA,1012.6,METAR KTPA 091953Z 05006KT 10SM FEW019 SCT048 BKN120 OVC250 28/24 A2990 RMK AO2 SLP126 CB DSNT E-S T02830239,2025-09-09T20:10:15Z,2025-09-09T16:10:15Z
KTUL,"Tulsa Intl Arpt, OK, US",2025-09-09T14:53:00Z,2025-09-09T10:53:00Z,VFR,22.2,11.1,180,11,0,NA,1018.7,METAR KTUL 091453Z 18011KT 10SM SCT090 SCT160 22/11 A3008 RMK AO2 SLP179 T02220111 58001,2025-09-09T15:51:30Z,2025-09-09T11:51:30Z
KTUL,"Tulsa Intl Arpt, OK, US",2025-09-09T15:53:00Z,2025-09-09T11:53:00Z,VFR,23.9,11.7,170,13,0,NA,1018.7,METAR KTUL 091553Z 17013KT 10SM SCT090 SCT160 24/12 A3008 RMK AO2 SLP180 T02390117,2025-09-09T16:06:03Z,2025-09-09T12:06:03Z
KTUL,"Tulsa Intl Arpt, OK, US",2025-09-09T16:53:00Z,2025-09-09T12:53:00Z,VFR,25.6,12.2,170,11,0,NA,1018.4,METAR KTUL 091653Z 17011KT 10SM BKN070 BKN090 26/12 A3007 RMK AO2 SLP176 T02560122,2025-09-09T17:12:54Z,2025-09-09T13:12:54Z
KTUL,"Tulsa Intl Arpt, OK, US",2025-09-09T17:53:00Z,2025-09-09T13:53:00Z,VFR,26.7,12.8,170,12,19,NA,1017.4,METAR KTUL 091753Z 17012G19KT 10SM FEW070 FEW090 SCT200 27/13 A3004 RMK AO2 SLP168 CB DSNT N MOV SE T02670128 10267 20161 58012,2025-09-09T18:09:22Z,2025-09-09T14:09:22Z
KTUL,"Tulsa Intl Arpt, OK, US",2025-09-09T18:53:00Z,2025-09-09T14:53:00Z,VFR,27.8,13.9,180,13,0,NA,1017,METAR KTUL 091853Z 18013KT 10SM SCT070 SCT090 SCT200 28/14 A3003 RMK AO2 SLP162 CB DSNT NE MOV SE T02780139,2025-09-09T19:00:57Z,2025-09-09T15:00:57Z
KTUL,"Tulsa Intl Arpt, OK, US",2025-09-09T19:53:00Z,2025-09-09T15:53:00Z,VFR,28.9,15,180,12,18,NA,1016,METAR KTUL 091953Z 18012G18KT 10SM FEW070 SCT250 29/15 A3000 RMK AO2 SLP151 T02890150,2025-09-09T20:10:18Z,2025-09-09T16:10:18Z
KTUS,"Tucson Intl Arpt, AZ, US",2025-09-09T14:53:00Z,2025-09-09T10:53:00Z,VFR,27.8,16.7,160,3,0,NA,1016,METAR KTUS 091453Z 16003KT 10SM CLR 28/17 A3000 RMK AO2 SLP105 T02780167 51009,2025-09-09T15:51:32Z,2025-09-09T11:51:32Z
KTUS,"Tucson Intl Arpt, AZ, US",2025-09-09T15:53:00Z,2025-09-09T11:53:00Z,VFR,30,16.7,0,0,0,NA,1016,METAR KTUS 091553Z 00000KT 10SM CLR 30/17 A3000 RMK AO2 SLP103 T03000167,2025-09-09T16:06:05Z,2025-09-09T12:06:05Z
KTUS,"Tucson Intl Arpt, AZ, US",2025-09-09T16:53:00Z,2025-09-09T12:53:00Z,VFR,32.2,16.1,210,3,0,NA,1015.7,METAR KTUS 091653Z 21003KT 10SM CLR 32/16 A2999 RMK AO2 SLP100 T03220161,2025-09-09T17:12:57Z,2025-09-09T13:12:57Z
KTUS,"Tucson Intl Arpt, AZ, US",2025-09-09T17:53:00Z,2025-09-09T13:53:00Z,VFR,33.3,14.4,180,4,0,NA,1015.3,METAR KTUS 091753Z 18004KT 10SM CLR 33/14 A2998 RMK AO2 SLP095 T03330144 10333 20244 58007,2025-09-09T18:09:23Z,2025-09-09T14:09:23Z
KTUS,"Tucson Intl Arpt, AZ, US",2025-09-09T18:53:00Z,2025-09-09T14:53:00Z,VFR,35.6,13.9,180,7,0,NA,1014.3,METAR KTUS 091853Z 18007KT 10SM CLR 36/14 A2995 RMK AO2 SLP085 T03560139,2025-09-09T19:00:59Z,2025-09-09T15:00:59Z
KTUS,"Tucson Intl Arpt, AZ, US",2025-09-09T19:53:00Z,2025-09-09T15:53:00Z,VFR,37.2,7.8,VAR,5,0,NA,1013.3,METAR KTUS 091953Z VRB05KT 10SM CLR 37/08 A2992 RMK AO2 SLP076 T03720078,2025-09-09T20:10:19Z,2025-09-09T16:10:19Z
PHNL,"Honolulu Intl, HI, US",2025-09-09T14:53:00Z,2025-09-09T10:53:00Z,VFR,25.6,22.2,60,6,0,NA,1014.6,METAR PHNL 091453Z 06006KT 10SM FEW025 FEW040 SCT065 26/22 A2996 RMK AO2 SLP146 60001 T02560222 55006,2025-09-09T15:51:32Z,2025-09-09T11:51:32Z
PHNL,"Honolulu Intl, HI, US",2025-09-09T15:53:00Z,2025-09-09T11:53:00Z,VFR,25.6,22.2,340,3,0,NA,1015.3,METAR PHNL 091553Z 34003KT 10SM FEW020 FEW035 FEW080 26/22 A2998 RMK AO2 SLP150 T02560222,2025-09-09T16:06:05Z,2025-09-09T12:06:05Z
PHNL,"Honolulu Intl, HI, US",2025-09-09T16:53:00Z,2025-09-09T12:53:00Z,VFR,26.1,22.2,60,5,0,NA,1015.3,METAR PHNL 091653Z 06005KT 10SM FEW022 SCT035 26/22 A2998 RMK AO2 SLP152 VCSH N T02610222,2025-09-09T17:12:57Z,2025-09-09T13:12:57Z
PHNL,"Honolulu Intl, HI, US",2025-09-09T17:53:00Z,2025-09-09T13:53:00Z,VFR,27.2,20.6,60,12,17,NA,1015.7,METAR PHNL 091753Z 06012G17KT 10SM FEW024 SCT040 27/21 A2999 RMK AO2 SLP156 60001 T02720206 10272 20250 52010,2025-09-09T18:09:23Z,2025-09-09T14:09:23Z
PHNL,"Honolulu Intl, HI, US",2025-09-09T18:53:00Z,2025-09-09T14:53:00Z,VFR,28.3,20.6,40,8,0,NA,1016.3,METAR PHNL 091853Z 04008KT 10SM FEW025 SCT045 28/21 A3001 RMK AO2 SLP162 T02830206,2025-09-09T19:00:59Z,2025-09-09T15:00:59Z
PHNL,"Honolulu Intl, HI, US",2025-09-09T19:53:00Z,2025-09-09T15:53:00Z,VFR,28.3,19.4,40,10,18,NA,1016.7,METAR PHNL 091953Z 04010G18KT 10SM FEW024 SCT045 28/19 A3002 RMK AO2 SLP164 T02830194,2025-09-09T20:10:19Z,2025-09-09T16:10:19Z
PHOG,"Kahului Arpt, HI, US",2025-09-09T14:54:00Z,2025-09-09T10:54:00Z,VFR,24.4,21.7,40,5,0,NA,1014.6,METAR PHOG 091454Z AUTO 04005KT 10SM CLR 24/22 A2996 RMK AO2 SLP150 T02440217 55001 TSNO,2025-09-09T15:51:32Z,2025-09-09T11:51:32Z
PHOG,"Kahului Arpt, HI, US",2025-09-09T15:54:00Z,2025-09-09T11:54:00Z,VFR,23.9,21.1,30,4,0,NA,1015,METAR PHOG 091554Z 03004KT 10SM FEW030 SCT045 24/21 A2997 RMK AO2 SLP153 T02390211,2025-09-09T16:06:05Z,2025-09-09T12:06:05Z
PHOG,"Kahului Arpt, HI, US",2025-09-09T16:54:00Z,2025-09-09T12:54:00Z,VFR,24.4,20.6,30,3,0,NA,1015.3,METAR PHOG 091654Z 03003KT 10SM FEW030 SCT045 24/21 A2998 RMK AO2 SLP155 T02440206,2025-09-09T17:12:57Z,2025-09-09T13:12:57Z
PHOG,"Kahului Arpt, HI, US",2025-09-09T17:54:00Z,2025-09-09T13:54:00Z,VFR,27.2,21.1,20,9,0,NA,1015.7,METAR PHOG 091754Z 02009KT 10SM FEW030 SCT045 27/21 A2999 RMK AO2 SLP159 T02720211 10272 20239 53009,2025-09-09T18:09:23Z,2025-09-09T14:09:23Z
PHOG,"Kahului Arpt, HI, US",2025-09-09T18:54:00Z,2025-09-09T14:54:00Z,VFR,26.7,21.7,40,12,0,NA,1016,METAR PHOG 091854Z 04012KT 10SM FEW030 SCT045 27/22 A3000 RMK AO2 SLP163 T02670217,2025-09-09T19:00:59Z,2025-09-09T15:00:59Z
PHOG,"Kahului Arpt, HI, US",2025-09-09T19:54:00Z,2025-09-09T15:54:00Z,VFR,28.3,20,30,10,0,NA,1016.3,METAR PHOG 091954Z 03010KT 10SM FEW030 SCT045 28/20 A3001 RMK AO2 SLP166 T02830200,2025-09-09T20:10:19Z,2025-09-09T16:10:19Z
