icao,site,observed_utc,observed_local,flight_category,temp_c,dewpoint_c,wind_dir_deg,wind_kts,gust_kts,vis_sm,altimeter_hpa,raw_text,fetched_at_utc,fetched_at_local,site_name,site_lat,site_lon,country,region
CBBC,"Bella Bella Arpt, BC, CA",2025-09-12T21:38:00Z,2025-09-12 14:38:00,LIFR,15,15,350,5,0,1.5,1016,SPECI CBBC 122138Z AUTO 35005KT 1 1/2SM -RA BR BKN003 OVC011 15/15 A3000 RMK PCPN 1.8MM PAST HR SLP162,2025-09-12T21:44:21Z,2025-09-12T17:44:21Z,Bella Bella (Campbell Island) Airport,52.185001,-128.156994,CA,CA-BC
CBBC,"Bella Bella Arpt, BC, CA",2025-09-12T21:52:00Z,2025-09-12 14:52:00,LIFR,15,15,350,3,0,3,1015.7,SPECI CBBC 122152Z AUTO 35003KT 3SM -RA BR BKN003 OVC011 15/15 A2999 RMK PCPN 1.8MM PAST HR SLP159,2025-09-12T21:55:06Z,2025-09-12T17:55:06Z,Bella Bella (Campbell Island) Airport,52.185001,-128.156994,CA,CA-BC
CWJC,"Ennadai Lake(MAPS), NU, CA",2025-09-12T21:00:00Z,2025-09-12 21:00:00,NA,19.6,10.1,180,15,0,NA,NA,METAR CWJC 122100Z AUTO 18015KT 20/10 RMK AO1 PK WND 18021/2037 SLP139 T01960101 58016,2025-09-12T21:44:35Z,2025-09-12T17:44:35Z,Ennadai Lake Airport,61.1333333333,-100.9,CA,CA-NU
CYAH,"La Grande IV Arpt, QC, CA",2025-09-12T21:00:00Z,2025-09-12 17:00:00,VFR,14,4,200,11,17,9,1013.6,METAR CYAH 122100Z AUTO 20011G17KT 9SM OVC038 14/04 A2993 RMK SLP151,2025-09-12T21:44:36Z,2025-09-12T17:44:36Z,La Grande-4 Airport,53.754699707,-73.6753005981,CA,CA-QC
CYAH,"La Grande IV Arpt, QC, CA",2025-09-12T21:45:00Z,2025-09-12 17:45:00,VFR,14,5,210,13,21,9,1013.3,SPECI CYAH 122145Z AUTO 21013G21KT 9SM -RA OVC036 14/05 A2992 RMK SLP142,2025-09-12T21:55:20Z,2025-09-12T17:55:20Z,La Grande-4 Airport,53.754699707,-73.6753005981,CA,CA-QC
CYAM,"Sault Ste Marie Arpt, ON, CA",2025-09-12T21:00:00Z,2025-09-12 17:00:00,VFR,19,16,60,5,0,20,1021.8,METAR CYAM 122100Z 06005KT 20SM SCT029 BKN035 BKN068 19/16 A3017 RMK CU3SC2ACC2 ACC SE NW MOV SE SLP221 DENSITY ALT 1000FT,2025-09-12T21:44:36Z,2025-09-12T17:44:36Z,Sault Ste Marie Airport,46.483216,-84.508467,CA,CA-ON
CYAS,"Kangirsuk Arpt, QC, CA",2025-09-12T21:00:00Z,2025-09-12 17:00:00,VFR,6,2,110,13,0,15,1015,METAR CYAS 122100Z 11013KT 15SM BKN100 OVC250 06/02 A2997 RMK AS7CI1 LST STFD/NXT OBS 131200Z SLP160,2025-09-12T21:44:36Z,2025-09-12T17:44:36Z,Kangirsuk Airport,60.027199,-69.999199,CA,CA-QC
CYAT,"Attawapisket Arpt, ON, CA",2025-09-12T21:00:00Z,2025-09-12 17:00:00,VFR,19,16,320,3,0,9,1013.6,METAR CYAT 122100Z AUTO 32003KT 290V360 9SM OVC055 19/16 A2993 RMK SLP137 DENSITY ALT 600FT,2025-09-12T21:44:36Z,2025-09-12T17:44:36Z,Attawapiskat Airport,52.927502,-82.4319,CA,CA-ON
CYAY,"St Anthony Arpt, NL, CA",2025-09-12T21:12:00Z,2025-09-12 18:42:00,VFR,6,5,10,8,15,9,1018.7,SPECI CYAY 122112Z AUTO 01008G15KT 9SM FEW015 SCT024 SCT028 OVC039 06/05 A3008 RMK SLP191,2025-09-12T21:44:35Z,2025-09-12T17:44:35Z,St. Anthony Airport,51.391909,-56.08321,CA,CA-NL
CYAZ,"Tofino Arpt, BC, CA",2025-09-12T21:04:00Z,2025-09-12 14:04:00,MVFR,16,15,170,4,0,5,1017.7,SPECI CYAZ 122104Z 17004KT 5SM BR SCT002 OVC022 16/15 A3005 RMK SF4SC4 SLP179,2025-09-12T21:44:35Z,2025-09-12T17:44:35Z,Tofino / Long Beach Airport,49.079833,-125.775583,CA,CA-BC
CYBB,"Pelly Bay/Kugaaruk Arpt, NU, CA",2025-09-12T21:00:00Z,2025-09-12 15:00:00,MVFR,8,2,160,12,0,15,1018.7,METAR CYBB 122100Z 16012KT 15SM OVC025 08/02 A3008 RMK SC8 SLP190,2025-09-12T21:44:36Z,2025-09-12T17:44:36Z,Kugaaruk Airport,68.535711,-89.805508,CA,CA-NU
CYBC,"Baie Comeau Arpt, QC, CA",2025-09-12T21:00:00Z,2025-09-12 17:00:00,VFR,13,5,230,9,0,9,1022.1,METAR CYBC 122100Z AUTO 23009KT 9SM CLR 13/05 A3018 RMK SLP221,2025-09-12T21:44:36Z,2025-09-12T17:44:36Z,Baie-Comeau Airport,49.1325,-68.204399,CA,CA-QC
CYBD,"Bella Coola Arpt, BC, CA",2025-09-12T21:00:00Z,2025-09-12 14:00:00,VFR,18,16,80,2,0,8,1015,METAR CYBD 122100Z 08002KT 8SM -RA FEW008 SCT022 SCT066 OVC090 18/16 A2997 RMK SF1SC3AC1AS4 SF TR VIS LWR E IN LO CLD SLP152 DENSITY ALT 500FT,2025-09-12T21:44:36Z,2025-09-12T17:44:36Z,Bella Coola Airport,52.387501,-126.596001,CA,CA-BC
CYBG,"Bagotville(MIL), QC, CA",2025-09-12T21:00:00Z,2025-09-12 17:00:00,VFR,16,6,290,6,0,25,1022.4,METAR CYBG 122100Z 29006KT 25SM FEW160 BKN250 16/06 A3019 RMK AC1CI5 DENSITY ALT 602FT CI DNS SLP230,2025-09-12T21:44:37Z,2025-09-12T17:44:37Z,CFB Bagotville / Saguenay-Bagotville Airport,48.331908,-70.992909,CA,CA-QC
CYBK,"Baker Lake Arpt, NU, CA",2025-09-12T21:18:00Z,2025-09-12 16:18:00,MVFR,8,6,110,11,0,20,1016.3,SPECI CYBK 122118Z 11011KT 20SM FEW013 OVC016 08/06 A3001 RMK SC1SC8 SC TR SLP165,2025-09-12T21:44:37Z,2025-09-12T17:44:37Z,Baker Lake Airport,64.29889678960001,-96.077796936,CA,CA-NU
CYBL,"Campbell River Arpt, BC, CA",2025-09-12T21:35:00Z,2025-09-12 14:35:00,VFR,18,15,40,5,0,12,1017,SPECI CYBL 122135Z 04005KT 030V110 12SM FEW011 SCT020 OVC055 18/15 A3003 RMK SC2SC2SC4 SLP172 DENSITY ALT 700FT,2025-09-12T21:44:37Z,2025-09-12T17:44:37Z,Campbell River Airport,49.950802,-125.271004,CA,CA-BC
CYBQ,"Tadoule Lake Arpt, MB, CA",2025-09-12T21:00:00Z,2025-09-12 16:00:00,VFR,19,9,VAR,5,0,9,1016.3,METAR CYBQ 122100Z AUTO VRB05KT 9SM CLR 19/09 A3001 RMK SLP173 DENSITY ALT 1500FT,2025-09-12T21:44:37Z,2025-09-12T17:44:37Z,Tadoule Lake Airport,58.706308,-98.511057,CA,CA-MB
CYBR,"Brandon Arpt, MB, CA",2025-09-12T21:00:00Z,2025-09-12 16:00:00,IFR,19,18,40,10,0,6,1015.3,METAR CYBR 122100Z 04010KT 6SM BR OVC007 19/18 A2998 RMK ST8 SLP160 DENSITY ALT 2100FT,2025-09-12T21:44:38Z,2025-09-12T17:44:38Z,Brandon Municipal Airport,49.91,-99.951897,CA,CA-MB
CYBU,"Nipawin(AUTO), SK, CA",2025-09-12T21:00:00Z,2025-09-12 21:00:00,VFR,28,12,120,10,0,8,1015,METAR CYBU 122100Z AUTO 12010KT 050V140 8SM FEW055 28/12 A2997 RMK SLP153 DENSITY ALT 3000FT,2025-09-12T21:44:37Z,2025-09-12T17:44:37Z,Nipawin Airport,53.33250045776367,-104.00800323486328,CA,CA-SK
CYBV,"Berens River Arpt, MB, CA",2025-09-12T21:00:00Z,2025-09-12 16:00:00,VFR,20,17,290,9,0,12,1016.3,METAR CYBV 122100Z 29009KT 12SM FEW025 20/17 A3001 RMK CU1 CU TR HZ LAST STFD OBS/NEXT 151200UTC SLP171 DENSITY ALT 1400FT,2025-09-12T21:44:38Z,2025-09-12T17:44:38Z,Berens River Airport,52.358898,-97.018303,CA,CA-MB
CYBW,"Calgary/Springbank Arpt, AB, CA",2025-09-12T21:00:00Z,2025-09-12 21:00:00,VFR,24,11,10,7,0,9,1015,METAR CYBW 122100Z AUTO 01007KT 320V030 9SM CLR 24/11 A2997 RMK LTNG DIST W SLP147 DENSITY ALT 5800FT,2025-09-12T21:44:37Z,2025-09-12T17:44:37Z,Calgary / Springbank Airport,51.1031,-114.374001,CA,CA-AB
CYBX,"Blanc Sablon Arpt, QC, CA",2025-09-12T21:00:00Z,2025-09-12 17:00:00,VFR,9,2,10,10,0,15,1019.4,METAR CYBX 122100Z 01010KT 15SM BKN034 09/02 A3010 RMK SC6 SLP197,2025-09-12T21:44:37Z,2025-09-12T17:44:37Z,Lourdes-de-Blanc-Sablon Airport,51.443600000000004,-57.185299,CA,CA-QC
CYCA,"Cartwright Arpt, NL, CA",2025-09-12T21:00:00Z,2025-09-12 18:00:00,VFR,6,2,360,9,15,9,1020.4,METAR CYCA 122100Z AUTO 36009G15KT 9SM FEW023 BKN036 06/02 A3013 RMK SLP206,2025-09-12T21:44:37Z,2025-09-12T17:44:37Z,Cartwright Airport,53.682501,-57.042303,CA,CA-NL
CYCB,"Cambridge Bay Arpt, NU, CA",2025-09-12T21:00:00Z,2025-09-12 15:00:00,MVFR,7,7,130,20,28,15,1001.4,METAR CYCB 122100Z 13020G28KT 15SM VCSH SCT007 OVC012 07/07 A2957 RMK SF3SC5 CIG RAG SLP017,2025-09-12T21:44:38Z,2025-09-12T17:44:38Z,Cambridge Bay Airport,69.1081008911,-105.138000488,CA,CA-NU
CYCB,"Cambridge Bay Arpt, NU, CA",2025-09-12T21:43:00Z,2025-09-12 15:43:00,IFR,7,7,140,19,26,15,1001.1,SPECI CYCB 122143Z 14019G26KT 15SM VCSH FEW003 BKN008 OVC025 07/07 A2956 RMK SF1SC6SC1 CIG VRB 6-10 SLP013,2025-09-12T21:55:22Z,2025-09-12T17:55:22Z,Cambridge Bay Airport,69.1081008911,-105.138000488,CA,CA-NU
CYCD,"Nanaimo Arpt, BC, CA",2025-09-12T21:00:00Z,2025-09-12 14:00:00,VFR,21,14,60,5,0,25,1016.7,METAR CYCD 122100Z 06005KT 030V110 25SM FEW050 SCT240 21/14 A3002 RMK CU1CI4 CU TR SLP169 DENSITY ALT 800FT,2025-09-12T21:44:38Z,2025-09-12T17:44:38Z,Nanaimo Airport,49.05497,-123.869863,CA,CA-BC
CYCG,"Castlegar Rgnl, BC, CA",2025-09-12T21:00:00Z,2025-09-12 14:00:00,VFR,29,11,180,11,0,NA,1012.6,METAR CYCG 122100Z 18011KT 10SM FEW059TCU 29/11 A2990 RMK TCU2 HZ SLP121 DENSITY ALT 3700FT,2025-09-12T21:44:38Z,2025-09-12T17:44:38Z,Castlegar/West Kootenay Regional Airport,49.296398,-117.632004,CA,CA-BC
CYCK,"Chatham/Kent Arpt, ON, CA",2025-09-12T21:00:00Z,2025-09-12 17:00:00,VFR,24,13,170,6,0,9,1022.1,METAR CYCK 122100Z AUTO 17006KT 9SM CLR 24/13 A3018 RMK SLP221 DENSITY ALT 1600FT,2025-09-12T21:44:37Z,2025-09-12T17:44:37Z,Chatham Kent Airport,42.3064002991,-82.0819015503,CA,CA-ON
CYCO,"Coppermine/Kugluktuk Arpt, NU, CA",2025-09-12T21:23:00Z,2025-09-12 15:23:00,VFR,15,10,10,6,0,15,997,SPECI CYCO 122123Z 01006KT 15SM SCT016TCU BKN073 BKN240 15/10 A2944 RMK TCU3AC2CI1 SLP971 DENSITY ALT 700FT,2025-09-12T21:44:37Z,2025-09-12T17:44:37Z,Kugluktuk Airport,67.816408,-115.14307,CA,CA-NU
CYCP,"Blue River Arpt, BC, CA",2025-09-12T21:00:00Z,2025-09-12 21:00:00,VFR,23,11,0,0,0,8,1013.6,METAR CYCP 122100Z 00000KT 8SM FEW075 FEW300 23/11 A2993 RMK CU1CI1 FU ALQDS SLP142 DENSITY ALT 3700FT,2025-09-12T21:44:37Z,2025-09-12T17:44:37Z,Blue River Airport,52.11669921875,-119.28299713134766,CA,CA-BC
CYCQ,"Chetwynd Arpt, BC, CA",2025-09-12T21:00:00Z,2025-09-12 14:00:00,VFR,21,10,220,5,0,35,1012.3,METAR CYCQ 122100Z 22005KT 35SM FEW050 BKN150 OVC180 21/10 A2989 RMK CU2AC5AC1 SLP133 DENSITY ALT 3300FT,2025-09-12T21:44:37Z,2025-09-12T17:44:37Z,Chetwynd Airport,55.687198638916016,-121.6269989013672,CA,CA-BC
CYCS,"Chesterfield Inlet Arpt, NU, CA",2025-09-12T21:00:00Z,2025-09-12 16:00:00,MVFR,6,5,60,11,0,15,1016.7,METAR CYCS 122100Z 06011KT 15SM SCT013 OVC026 06/05 A3002 RMK ST4SC4 SLP170,2025-09-12T21:44:38Z,2025-09-12T17:44:38Z,Chesterfield Inlet Airport,63.346901,-90.731102,CA,CA-NU
CYCX,"Gagetown (MIL), NB, CA",2025-09-12T21:00:00Z,2025-09-12 21:00:00,VFR,21,6,280,7,0,12,1021.1,METAR CYCX 122100Z 28007KT 250V320 12SM SKC 21/06 A3015 RMK DENSITY ALT 814FT SLP209,2025-09-12T21:44:38Z,2025-09-12T17:44:38Z,CFB Gagetown Heliport,45.837766,-66.436729,CA,CA-NB
CYCY,"Cylde River Arpt, NU, CA",2025-09-12T21:00:00Z,2025-09-12 17:00:00,VFR,2,-1,120,5,0,15,1020.1,METAR CYCY 122100Z 12005KT 15SM FEW016 FEW021 BKN190 02/M01 A3012 RMK SF1SC2CI5 SF TR PARHELIA SLP204,2025-09-12T21:44:37Z,2025-09-12T17:44:37Z,Clyde River Airport,70.486099,-68.516701,CA,CA-NU
CYDA,"Dawson Arpt, YT, CA",2025-09-12T21:00:00Z,2025-09-12 14:00:00,VFR,13,7,80,6,0,20,1005.5,METAR CYDA 122100Z 08006KT 340V090 20SM FEW017 BKN065 BKN130 OVC200 13/07 A2969 RMK CF1SC4AC1CI2 SLP068 DENSITY ALT 1600FT,2025-09-12T21:44:37Z,2025-09-12T17:44:37Z,Dawson City Airport,64.04309844970703,-139.1280059814453,CA,CA-YT
CYDB,"Burwash Arpt, YT, CA",2025-09-12T21:00:00Z,2025-09-12 14:00:00,VFR,14,1,120,14,21,15,1003.8,METAR CYDB 122100Z 12014G21KT 15SM FEW085 BKN250 14/01 A2964 RMK AC1CS5 SLP059 DENSITY ALT 3500FT,2025-09-12T21:44:38Z,2025-09-12T17:44:38Z,Burwash Airport,61.371101,-139.041,CA,CA-YT
CYDC,"Princeton Arpt, BC, CA",2025-09-12T21:00:00Z,2025-09-12 21:00:00,VFR,27,8,0,0,0,15,1014,METAR CYDC 122100Z 00000KT 15SM FEW045 SCT250 27/08 A2994 RMK FU2CI1 FU SLP127 DENSITY ALT 4200FT,2025-09-12T21:44:37Z,2025-09-12T17:44:37Z,Princeton Airport,49.468102,-120.511002,CA,CA-BC
CYDF,"Deer Lake Arpt, NL, CA",2025-09-12T21:00:00Z,2025-09-12 18:30:00,MVFR,9,6,50,11,0,15,1018.4,METAR CYDF 122100Z 05011KT 15SM BKN016 BKN050 09/06 A3007 RMK SC6SC1 SLP185,2025-09-12T21:44:38Z,2025-09-12T17:44:38Z,Deer Lake Airport,49.2108,-57.391399,CA,CA-NL
CYDL,"Dease Lake Arpt, BC, CA",2025-09-12T21:00:00Z,2025-09-12 14:00:00,VFR,13,5,230,9,0,9,1013,METAR CYDL 122100Z AUTO 23009KT 9SM BKN071 OVC085 13/05 A2991 RMK SLP134 DENSITY ALT 3000FT,2025-09-12T21:44:37Z,2025-09-12T17:44:37Z,Dease Lake Airport,58.422199,-130.031998,CA,CA-BC
CYDN,"Dauphin Arpt, MB, CA",2025-09-12T21:00:00Z,2025-09-12 16:00:00,MVFR,20,17,70,5,0,9,1016.3,METAR CYDN 122100Z AUTO 07005KT 9SM OVC010 20/17 A3001 RMK SLP169 DENSITY ALT 1700FT,2025-09-12T21:44:38Z,2025-09-12T17:44:38Z,Dauphin Barker Airport,51.1008,-100.052002,CA,CA-MB
CYDP,"Nain Arpt, NL, CA",2025-09-12T21:14:00Z,2025-09-12 18:14:00,VFR,7,4,210,4,0,15,1019,SPECI CYDP 122114Z 21004KT 15SM SCT047 BKN150 07/04 A3009 RMK SC3AC3 SLP193,2025-09-12T21:44:37Z,2025-09-12T17:44:37Z,Nain Airport,56.550778,-61.682224,CA,CA-NL
CYDQ,"Dawson Creek Arpt, BC, CA",2025-09-12T21:00:00Z,2025-09-12 14:00:00,VFR,23,9,240,10,0,9,1012.6,METAR CYDQ 122100Z AUTO 24010KT 9SM FEW250 23/09 A2990 RMK SLP131 DENSITY ALT 3600FT,2025-09-12T21:44:37Z,2025-09-12T17:44:37Z,Dawson Creek Airport,55.741245,-120.183263,CA,CA-BC
CYED,"Edmonton(MIL), AB, CA",2025-09-12T21:00:00Z,2025-09-12 21:00:00,VFR,28,9,160,6,17,NA,1013.3,METAR CYED 122100Z CCA 16006G17KT 140V200 10SM FEW080 SCT110 28/09 A2992 RMK AC1AC2 DENSITY ALT 4468FT FU LAST OBS /NEXT 151400 UTC SLP127,2025-09-12T21:44:38Z,2025-09-12T17:44:38Z,Edmonton (CFB Namao) Heliport,53.667934,-113.472548,CA,CA-AB
CYEG,"Edmonton Intl Arpt, AB, CA",2025-09-12T21:00:00Z,2025-09-12 15:00:00,VFR,27,9,140,10,0,15,1013,METAR CYEG 122100Z 14010KT 15SM FEW072 BKN110 27/09 A2991 RMK CU1AC6 CU TR SLP128 DENSITY ALT 4400FT,2025-09-12T21:44:38Z,2025-09-12T17:44:38Z,Edmonton International Airport,53.3097,-113.580002,CA,CA-AB
CYEK,"Arviat/Eskimo Pt Arpt, NU, CA",2025-09-12T21:00:00Z,2025-09-12 16:00:00,MVFR,9,5,350,6,0,15,1017.4,METAR CYEK 122100Z 35006KT 15SM OVC017 09/05 A3004 RMK SC8 SLP174,2025-09-12T21:44:38Z,2025-09-12T17:44:38Z,Arviat Airport,61.0942,-94.070801,CA,CA-NU
CYEN,"Estevan Arpt, SK, CA",2025-09-12T21:00:00Z,2025-09-12 15:00:00,VFR,25,18,90,9,15,9,1014.6,METAR CYEN 122100Z AUTO 09009G15KT 9SM CLR 25/18 A2996 RMK SLP146 DENSITY ALT 3500FT,2025-09-12T21:44:37Z,2025-09-12T17:44:37Z,Estevan Airport,49.2103004456,-102.966003418,CA,CA-SK
CYER,"Ft Severn Arpt, ON, CA",2025-09-12T21:24:00Z,2025-09-12 17:24:00,MVFR,13,10,320,7,0,9,1015.3,SPECI CYER 122124Z AUTO 32007KT 290V350 9SM BKN024 OVC030 13/10 A2998 RMK SLP155,2025-09-12T21:44:37Z,2025-09-12T17:44:37Z,Fort Severn Airport,56.018902,-87.676102,CA,CA-ON
CYET,"Edson Arpt, AB, CA",2025-09-12T21:23:00Z,2025-09-12 15:23:00,MVFR,24,9,VAR,4,0,5,1014,SPECI CYET 122123Z AUTO VRB04KT 5SM HZ CLR 24/09 A2994 RMK SLP141 DENSITY ALT 4800FT,2025-09-12T21:44:37Z,2025-09-12T17:44:37Z,Edson Airport,53.578899383499994,-116.464996338,CA,CA-AB
CYEV,"Inuvik/Zubko Arpt, NT, CA",2025-09-12T21:00:00Z,2025-09-12 15:00:00,MVFR,5,3,290,8,0,15,1005.2,METAR CYEV 122100Z 29008KT 270V330 15SM OVC010 05/03 A2968 RMK ST8 SLP058,2025-09-12T21:44:37Z,2025-09-12T17:44:37Z,Inuvik Mike Zubko Airport,68.30419921880001,-133.483001709,CA,CA-NT
CYFB,"Iqaluit Arpt, NU, CA",2025-09-12T21:00:00Z,2025-09-12 17:00:00,VFR,5,2,160,2,0,30,1017.7,METAR CYFB 122100Z 16002KT 30SM FEW020 BKN200 05/02 A3005 RMK SC1CI7 SC TR SLP180,2025-09-12T21:44:37Z,2025-09-12T17:44:37Z,Iqaluit Airport,63.756402,-68.555801,CA,CA-NU
CYFC,"Fredericton Intl, NB, CA",2025-09-12T21:00:00Z,2025-09-12 18:00:00,VFR,22,5,350,5,0,9,1020.7,METAR CYFC 122100Z AUTO 35005KT 280V030 9SM CLR 22/05 A3014 RMK SLP209 DENSITY ALT 600FT,2025-09-12T21:44:37Z,2025-09-12T17:44:37Z,Fredericton Airport,45.868900299072266,-66.537200927734375,CA,CA-NB
CYFO,"Flin Flon Arpto, MB, CA",2025-09-12T21:00:00Z,2025-09-12 16:00:00,VFR,25,12,220,5,0,15,1016.3,METAR CYFO 122100Z 22005KT 15SM SKC 25/12 A3001 RMK SLP167 DENSITY ALT 2300FT,2025-09-12T21:44:37Z,2025-09-12T17:44:37Z,Flin Flon Airport,54.678101,-101.681999,CA,CA-MB
CYFR,"Fort Resolution Arpt, NT, CA",2025-09-12T21:00:00Z,2025-09-12 15:00:00,VFR,20,11,280,4,0,15,1006.2,METAR CYFR 122100Z 28004KT 190V310 15SM BKN170 BKN280 20/11 A2971 RMK AC5CS2 FU PRSNT SLP066 DENSITY ALT 1600FT,2025-09-12T21:44:38Z,2025-09-12T17:44:38Z,Fort Resolution Airport,61.1808013916,-113.690002441,CA,CA-NT
CYFS,"Fort Simpson Arpt, NT, CA",2025-09-12T21:00:00Z,2025-09-12 15:00:00,VFR,23,3,230,11,0,15,1004.5,METAR CYFS 122100Z 23011KT 15SM FEW230 BKN250 23/03 A2966 RMK CI1CI7 CI TR SLP050 DENSITY ALT 2000FT,2025-09-12T21:44:38Z,2025-09-12T17:44:38Z,Fort Simpson Airport,61.76020050048828,-121.23699951171876,CA,CA-NT
CYGE,"Golden Arpt, BC, CA",2025-09-12T21:00:00Z,2025-09-12 21:00:00,VFR,25,10,VAR,2,0,15,1013.6,METAR CYGE 122100Z VRB02KT 15SM FEW060 BKN150 25/10 A2993 RMK CU1AC4 FU ALQDS SLP133 DENSITY ALT 4300FT,2025-09-12T21:44:38Z,2025-09-12T17:44:38Z,Golden Airport,51.299196,-116.982002,CA,CA-BC
CYGH,"Fort Good Hope Arpt, NT, CA",2025-09-12T21:00:00Z,2025-09-12 15:00:00,VFR,10,7,250,8,0,20,1004.5,METAR CYGH 122100Z 25008KT 20SM FEW009 BKN033 10/07 A2966 RMK SF1SC7 SF TR SLP050,2025-09-12T21:44:38Z,2025-09-12T17:44:38Z,Fort Good Hope Airport,66.240658,-128.647757,CA,CA-NT
CYGK,"Kingston Arpt, ON, CA",2025-09-12T21:00:00Z,2025-09-12 17:00:00,VFR,21,12,180,8,0,15,1022.4,METAR CYGK 122100Z 18008KT 15SM FEW050 BKN250 21/12 A3019 RMK SC1CI6 SC TR SLP225 DENSITY ALT 800FT,2025-09-12T21:44:37Z,2025-09-12T17:44:37Z,Kingston Norman Rogers Airport,44.2253,-76.596901,CA,CA-ON
CYGL,"La Grande Riviere Arpt, QC, CA",2025-09-12T21:41:00Z,2025-09-12 17:41:00,LIFR,12,12,240,9,0,1,1013,SPECI CYGL 122141Z 24009KT 1SM -RA BR OVC004 12/12 A2991 RMK SF8 SLP138,2025-09-12T21:44:37Z,2025-09-12T17:44:37Z,La Grande Rivière Airport,53.625301361083984,-77.7042007446289,CA,CA-QC
CYGP,"Gaspé Arpt, QC, CA",2025-09-12T21:00:00Z,2025-09-12 17:00:00,VFR,15,7,120,7,0,15,1022.1,METAR CYGP 122100Z 12007KT 090V170 15SM FEW035 FEW240 15/07 A3018 RMK SC1CI1 SC TR CI TR SLP222,2025-09-12T21:44:37Z,2025-09-12T17:44:37Z,Michel-Pouliot Gaspé Airport,48.774915,-64.481893,CA,CA-QC
CYGR,"Îles de la Madeleine Arpt, QC, CA",2025-09-12T21:00:00Z,2025-09-12 18:00:00,MVFR,14,10,30,14,21,20,1021.1,METAR CYGR 122100Z 03014G21KT 20SM BKN020 BKN036 14/10 A3015 RMK CU5SC2 SLP211,2025-09-12T21:44:38Z,2025-09-12T17:44:38Z,Îles-de-la-Madeleine Airport,47.425242,-61.778612,CA,CA-QC
CYGT,"Igloolik Arpt, NU, CA",2025-09-12T21:00:00Z,2025-09-12 17:00:00,MVFR,-1,-1,130,3,0,4,1021.4,METAR CYGT 122100Z 13003KT 4SM BR SCT004 M01/M01 A3016 RMK ST3 LAST STFD OBS/NXT/131500Z SLP220,2025-09-12T21:44:38Z,2025-09-12T17:44:38Z,Igloolik Airport,69.3647,-81.816101,CA,CA-NU
CYGV,"Havre St Pierre Arpt, QC, CA",2025-09-12T21:00:00Z,2025-09-12 17:00:00,VFR,13,7,270,10,16,9,1021.4,METAR CYGV 122100Z AUTO 27010G16KT 9SM CLR 13/07 A3016 RMK SLP216,2025-09-12T21:44:38Z,2025-09-12T17:44:38Z,Havre-Saint-Pierre Airport,50.281898,-63.611401,CA,CA-QC
CYGW,"Kuujjuarapik Arpt, QC, CA",2025-09-12T21:26:00Z,2025-09-12 17:26:00,LIFR,9,9,240,9,0,0.75,1011.3,SPECI CYGW 122126Z AUTO 24009KT 210V280 3/4SM BR VV002 09/09 A2986 RMK SLP114,2025-09-12T21:44:37Z,2025-09-12T17:44:37Z,Kuujjuarapik Airport,55.28189849853515,-77.76529693603516,CA,CA-QC
CYGX,"Gillam Arpt, MB, CA",2025-09-12T21:00:00Z,2025-09-12 16:00:00,VFR,17,8,290,3,0,15,1017.4,METAR CYGX 122100Z 29003KT 260V350 15SM FEW055 SCT250 17/08 A3004 RMK SC1CI3 SC TR SLP181 DENSITY ALT 700FT,2025-09-12T21:44:38Z,2025-09-12T17:44:38Z,Gillam Airport,56.35712,-94.711504,CA,CA-MB
CYHD,"Dryden Rgnl, ON, CA",2025-09-12T21:00:00Z,2025-09-12 16:00:00,VFR,20,15,150,5,0,9,1017,METAR CYHD 122100Z AUTO 15005KT 130V270 9SM SCT021 20/15 A3003 RMK SLP176 DENSITY ALT 2200FT,2025-09-12T21:44:38Z,2025-09-12T17:44:38Z,Dryden Regional Airport,49.831699,-92.744202,CA,CA-ON
CYHE,"Hope Rgnl Airpark, BC, CA",2025-09-12T21:00:00Z,2025-09-12 14:00:00,VFR,23,15,270,8,15,9,1015.3,METAR CYHE 122100Z AUTO 27008G15KT 9SM CLR 23/15 A2998 RMK SLP156 DENSITY ALT 1100FT,2025-09-12T21:44:38Z,2025-09-12T17:44:38Z,Hope Airport / FVRD Regional Airpark,49.368865,-121.49495,CA,CA-BC
CYHK,"Gjoa Haven Arpt, NU, CA",2025-09-12T21:00:00Z,2025-09-12 15:00:00,MVFR,6,4,170,13,0,15,1014.3,METAR CYHK 122100Z 17013KT 15SM BKN017 BKN120 OVC260 06/04 A2995 RMK SC5AC2CS2 SLP147,2025-09-12T21:44:37Z,2025-09-12T17:44:37Z,Gjoa Haven Airport,68.635597,-95.849701,CA,CA-NU
CYHM,"Hamilton/Munro Intl, ON, CA",2025-09-12T21:00:00Z,2025-09-12 17:00:00,VFR,23,13,40,7,0,15,1022.4,METAR CYHM 122100Z 04007KT 15SM FEW042 FEW060 BKN075 BKN220 23/13 A3019 RMK CU1SC1AC5CI1 CU TR SC TR CI TR SLP223 DENSITY ALT 1600FT,2025-09-12T21:44:38Z,2025-09-12T17:44:38Z,John C. Munro Hamilton International Airport,43.173599243199995,-79.93499755859999,CA,CA-ON
CYHU,"Montreal/St Hubert, QC, CA",2025-09-12T21:00:00Z,2025-09-12 17:00:00,VFR,20,8,VAR,3,0,9,1022.4,METAR CYHU 122100Z AUTO VRB03KT 9SM CLR 20/08 A3019 RMK SLP226 DENSITY ALT 400FT,2025-09-12T21:44:38Z,2025-09-12T17:44:38Z,Montréal / Saint-Hubert Metropolitan Airport,45.517502,-73.416901,CA,CA-QC
CYHY,"Hay River/Carter Arpt, NT, CA",2025-09-12T21:00:00Z,2025-09-12 15:00:00,VFR,23,8,320,3,0,12,1006.2,METAR CYHY 122100Z 32003KT 300V360 12SM FEW180 BKN210 BKN230 23/08 A2971 RMK AC2CC4CI1 FU SLP066 DENSITY ALT 1900FT,2025-09-12T21:44:37Z,2025-09-12T17:44:37Z,Hay River / Merlyn Carter Airport,60.8396987915,-115.782997131,CA,CA-NT
CYHZ,"Halifax/Stanfield Intl, NS, CA",2025-09-12T21:00:00Z,2025-09-12 18:00:00,VFR,16,9,10,7,0,15,1021.4,METAR CYHZ 122100Z 01007KT 15SM BKN038 BKN280 16/09 A3016 RMK SC6CI1 SLP216,2025-09-12T21:44:37Z,2025-09-12T17:44:37Z,Halifax / Stanfield International Airport,44.8807983398,-63.5085983276,CA,CA-NS
CYIK,"Ivujivik Arpt, QC, CA",2025-09-12T21:00:00Z,2025-09-12 17:00:00,VFR,9,5,110,12,21,15,1011.9,METAR CYIK 122100Z 11012G21KT 15SM OVC048 09/05 A2988 RMK SC8 LST STFD OB/NXT 131200Z SLP124,2025-09-12T21:44:37Z,2025-09-12T17:44:37Z,Ivujivik Airport,62.417301,-77.925301,CA,CA-QC
CYIO,"Pond Inlet Arpt, NU, CA",2025-09-12T21:00:00Z,2025-09-12 17:00:00,MVFR,2,-2,250,4,0,40,1020.7,METAR CYIO 122100Z 25004KT 40SM BKN016 02/M02 A3014 RMK SC5 SLP213,2025-09-12T21:44:38Z,2025-09-12T17:44:38Z,Pond Inlet Airport,72.689494,-77.968941,CA,CA-NU
CYKA,"Kamloops Arpt, BC, CA",2025-09-12T21:00:00Z,2025-09-12 14:00:00,VFR,26,11,260,5,0,40,1012.3,METAR CYKA 122100Z 26005KT 40SM FEW080 SCT250 26/11 A2989 RMK CU1CI3 CU TR SLP122 DENSITY ALT 2800FT,2025-09-12T21:44:38Z,2025-09-12T17:44:38Z,Kamloops John Moose Fulton Field Regional Airport,50.703038,-120.448641,CA,CA-BC
CYKD,"Aklavik Arpt, NT, CA",2025-09-12T21:00:00Z,2025-09-12 15:00:00,VFR,6,2,330,6,0,15,1005.8,METAR CYKD 122100Z 33006KT 290V360 15SM FEW017 FEW026 BKN048 BKN083 06/02 A2970 RMK SC1SC1SC3AC2 SLP060,2025-09-12T21:44:37Z,2025-09-12T17:44:37Z,Aklavik/Freddie Carmichael Airport,68.223297,-135.00599,CA,CA-NT
CYKF,"Waterloo Intl, ON, CA",2025-09-12T21:00:00Z,2025-09-12 17:00:00,VFR,24,11,330,6,0,9,1022.4,METAR CYKF 122100Z AUTO 33006KT 9SM FEW055 OVC078 24/11 A3019 RMK SLP226 DENSITY ALT 2100FT,2025-09-12T21:44:37Z,2025-09-12T17:44:37Z,Region of Waterloo International Airport,43.4608,-80.378601,CA,CA-ON
CYKJ,"Key Lake Arpt, SK, CA",2025-09-12T21:00:00Z,2025-09-12 15:00:00,VFR,25,9,200,8,0,9,1015,METAR CYKJ 122100Z AUTO 20008KT 160V230 9SM CLR 25/09 A2997 RMK SLP160 DENSITY ALT 3300FT,2025-09-12T21:44:37Z,2025-09-12T17:44:37Z,Key Lake Airport,57.256099700927734,-105.61799621582033,CA,CA-SK
CYKO,"Akulivik Arpt, QC, CA",2025-09-12T21:00:00Z,2025-09-12 17:00:00,MVFR,9,7,110,11,17,15,1008.9,METAR CYKO 122100Z 11011G17KT 15SM -DZ OVC018 09/07 A2979 RMK ST8 LST STFD OB /NXT 131200Z SLP092,2025-09-12T21:44:37Z,2025-09-12T17:44:37Z,Akulivik Airport,60.818600000000004,-78.148598,CA,CA-QC
CYKP,"Ogoki Post, ON, CA",2025-09-12T21:00:00Z,2025-09-12 17:00:00,VFR,25,9,230,8,0,9,1015,METAR CYKP 122100Z AUTO 23008KT 170V280 9SM CLR 25/09 A2997 RMK SLP147 DENSITY ALT 1900FT,2025-09-12T21:44:37Z,2025-09-12T17:44:37Z,Ogoki Post Airport,51.6585998535,-85.9017028809,CA,CA-ON
CYKY,"Kindersley Arpt, SK, CA",2025-09-12T21:00:00Z,2025-09-12 15:00:00,VFR,26,9,100,2,0,15,1014.6,METAR CYKY 122100Z 10002KT 15SM FEW016 FEW100 SCT220 26/09 A2996 RMK CU1AC1CI2 SLP145 DENSITY ALT 4000FT,2025-09-12T21:44:37Z,2025-09-12T17:44:37Z,Kindersley Airport,51.5175018311,-109.180999756,CA,CA-SK
CYLA,"Apaluk Arpt, QC, CA",2025-09-12T21:00:00Z,2025-09-12 17:00:00,VFR,8,2,110,15,0,15,1014.6,METAR CYLA 122100Z 11015KT 15SM FEW035 BKN120 BKN280 08/02 A2996 RMK SC1AC5CS2 SC TR LAST STFD OBS /NXT 131200Z SLP150,2025-09-12T21:44:37Z,2025-09-12T17:44:37Z,Aupaluk Airport,59.2967,-69.599701,CA,CA-QC
CYLD,"Chapleau Arpt, ON, CA",2025-09-12T21:00:00Z,2025-09-12 17:00:00,VFR,16,14,230,3,0,15,1022.4,METAR CYLD 122100Z 23003KT 15SM SCT038 OVC097 16/14 A3019 RMK SC4AC4 SLP237 DENSITY ALT 1700FT,2025-09-12T21:44:37Z,2025-09-12T17:44:37Z,Chapleau Airport,47.81999969482422,-83.3467025756836,CA,CA-ON
CYLH,"Lansdowne House Arpt, ON, CA",2025-09-12T21:00:00Z,2025-09-12 17:00:00,VFR,25,12,290,5,0,9,1015,METAR CYLH 122100Z AUTO 29005KT 230V330 9SM CLR 25/12 A2997 RMK SLP154 DENSITY ALT 2200FT,2025-09-12T21:44:37Z,2025-09-12T17:44:37Z,Lansdowne House Airport,52.195599,-87.934196,CA,CA-ON
CYLJ,"Meadow Lake Arpt, SK, CA",2025-09-12T21:00:00Z,2025-09-12 15:00:00,VFR,25,15,VAR,6,0,12,1014.3,METAR CYLJ 122100Z VRB06KT 12SM FEW038TCU 25/15 A2995 RMK TCU1 TCU TR TCU SW FU SLP149 DENSITY ALT 3100FT,2025-09-12T21:44:37Z,2025-09-12T17:44:37Z,Meadow Lake Airport,54.125301361083984,-108.52300262451172,CA,CA-SK
CYLL,"Lloydminster Arpt, AB, CA",2025-09-12T21:00:00Z,2025-09-12 15:00:00,VFR,27,8,180,4,0,12,1014.3,METAR CYLL 122100Z 18004KT 110V250 12SM SCT080 27/08 A2995 RMK CU4 FU SLP145 DENSITY ALT 4100FT,2025-09-12T21:44:37Z,2025-09-12T17:44:37Z,Lloydminster Airport,53.3092,-110.072998,CA,CA-AB
CYLU,"Kangiksualujjuaq Arpt, QC, CA",2025-09-12T21:00:00Z,2025-09-12 17:00:00,VFR,10,3,120,6,0,15,1016.7,METAR CYLU 122100Z 12006KT 15SM BKN035 BKN085 BKN120 10/03 A3002 RMK CU5AC1AS2 AC TR LAST STFD OBS/NEXT 131200 UTC SLP172,2025-09-12T21:44:38Z,2025-09-12T17:44:38Z,Kangiqsualujjuaq (Georges River) Airport,58.711399,-65.992798,CA,CA-QC
CYLW,"Kelowna Arpt, BC, CA",2025-09-12T21:26:00Z,2025-09-12 14:26:00,VFR,28,6,VAR,3,0,6,1011.9,SPECI CYLW 122126Z AUTO VRB03KT 6SM HZ CLR 28/06 A2988 RMK SLP116 DENSITY ALT 3300FT,2025-09-12T21:44:37Z,2025-09-12T17:44:37Z,Kelowna International Airport,49.9561,-119.377998,CA,CA-BC
CYLW,"Kelowna Arpt, BC, CA",2025-09-12T21:54:00Z,2025-09-12 14:54:00,MVFR,29,7,VAR,2,0,4,1011.6,SPECI CYLW 122154Z AUTO VRB02KT 4SM HZ CLR 29/07 A2987 RMK SLP112 DENSITY ALT 3400FT,2025-09-12T21:55:22Z,2025-09-12T17:55:22Z,Kelowna International Airport,49.9561,-119.377998,CA,CA-BC
CYMA,"Mayo Arpt, YT, CA",2025-09-12T21:00:00Z,2025-09-12 14:00:00,VFR,14,5,0,0,0,20,1005.8,METAR CYMA 122100Z 00000KT 20SM SCT060TCU OVC120 14/05 A2970 RMK TCU4AC4 SLP074 DENSITY ALT 2200FT,2025-09-12T21:44:37Z,2025-09-12T17:44:37Z,Mayo Airport,63.61640167236328,-135.8679962158203,CA,CA-YT
CYMH,"Mary's Harbor Arpt, NL, CA",2025-09-12T21:22:00Z,2025-09-12 18:52:00,VFR,6,4,360,7,15,9,1019,SPECI CYMH 122122Z AUTO 36007G15KT 330V040 9SM FEW017 SCT025 OVC043 06/04 A3009 RMK SLP192,2025-09-12T21:44:39Z,2025-09-12T17:44:39Z,Mary's Harbour Airport,52.302837,-55.847433,CA,CA-NL
CYMJ,"Moose Jaw Arpt(CFB), SK, CA",2025-09-12T21:00:00Z,2025-09-12 15:00:00,VFR,25,17,330,5,0,NA,1014.6,METAR CYMJ 122100Z 33005KT 10SM FEW032 FEW120 BKN230 25/17 A2996 RMK CU1AC1CI4 TCU ASOCTD DENSITY ALT 3777FT HZ SLP143,2025-09-12T21:44:39Z,2025-09-12T17:44:39Z,Moose Jaw Air Vice Marshal C. M. McEwen Airport,50.330299377441406,-105.55899810791016,CA,CA-SK
CYMM,"Fort McMurray Arpt, AB, CA",2025-09-12T21:00:00Z,2025-09-12 15:00:00,VFR,29,10,200,9,15,9,1011.3,METAR CYMM 122100Z AUTO 20009G15KT 9SM CLR 29/10 A2986 RMK SLP116 DENSITY ALT 3200FT,2025-09-12T21:44:40Z,2025-09-12T17:44:40Z,Fort McMurray Airport,56.653301239,-111.222000122,CA,CA-AB
CYMO,"Moosonee Arpt, ON, CA",2025-09-12T21:00:00Z,2025-09-12 17:00:00,VFR,22,16,210,9,15,9,1014.6,METAR CYMO 122100Z AUTO 21009G15KT 9SM BKN140 22/16 A2996 RMK SLP149 DENSITY ALT 900FT,2025-09-12T21:44:39Z,2025-09-12T17:44:39Z,Moosonee Airport,51.29109954833984,-80.60780334472656,CA,CA-ON
CYMT,"Chibougamau Arpt, QC, CA",2025-09-12T21:00:00Z,2025-09-12 17:00:00,VFR,15,5,200,7,0,9,1020.7,METAR CYMT 122100Z AUTO 20007KT 9SM CLR 15/05 A3014 RMK SLP221,2025-09-12T21:44:39Z,2025-09-12T17:44:39Z,Chapais Airport,49.77190017700195,-74.5280990600586,CA,CA-QC
CYMX,"Montreal/Mirabel Arpt, QC, CA",2025-09-12T21:00:00Z,2025-09-12 17:00:00,VFR,20,7,VAR,2,0,30,1022.8,METAR CYMX 122100Z VRB02KT 30SM BKN250 20/07 A3020 RMK CI6 SLP230 DENSITY ALT 600FT,2025-09-12T21:44:39Z,2025-09-12T17:44:39Z,Montreal International (Mirabel) Airport,45.679501,-74.038696,CA,CA-QC
CYNA,"Natashquan Arpt, QC, CA",2025-09-12T21:00:00Z,2025-09-12 17:00:00,VFR,14,6,360,4,0,9,1021.4,METAR CYNA 122100Z AUTO 36004KT 9SM FEW040 14/06 A3016 RMK SLP215,2025-09-12T21:44:39Z,2025-09-12T17:44:39Z,Natashquan Airport,50.190114,-61.78898,CA,CA-QC
CYND,"Gatineau/Ottawa Exec, QC, CA",2025-09-12T21:00:00Z,2025-09-12 17:00:00,VFR,20,6,60,3,0,15,1022.1,METAR CYND 122100Z 06003KT 010V090 15SM FEW040 FEW120 OVC280 20/06 A3018 RMK CU1AC1CI7 CU TR SLP224 DENSITY ALT 600FT,2025-09-12T21:44:39Z,2025-09-12T17:44:39Z,Ottawa / Gatineau Airport,45.521702,-75.563599,CA,CA-QC
CYNE,"Norway House Arpt, MB, CA",2025-09-12T21:00:00Z,2025-09-12 16:00:00,VFR,22,15,VAR,2,0,9,1017,METAR CYNE 122100Z AUTO VRB02KT 9SM CLR 22/15 A3003 RMK SLP177 DENSITY ALT 1600FT,2025-09-12T21:44:39Z,2025-09-12T17:44:39Z,Norway House Airport,53.958302,-97.8442,CA,CA-MB
CYNM,"Matagami Arpt, QC, CA",2025-09-12T21:00:00Z,2025-09-12 17:00:00,VFR,18,9,200,11,16,9,1019.7,METAR CYNM 122100Z AUTO 20011G16KT 9SM BKN100 OVC120 18/09 A3011 RMK SLP207 DENSITY ALT 1300FT,2025-09-12T21:44:39Z,2025-09-12T17:44:39Z,Matagami Airport,49.76169967651367,-77.80280303955078,CA,CA-QC
CYOD,"Cold Lake (Mil), AB, CA",2025-09-12T21:00:00Z,2025-09-12 15:00:00,VFR,27,15,130,7,0,15,1014.3,METAR CYOD 122100Z 13007KT 15SM FEW080 27/15 A2995 RMK CU1 DENSITY ALT 3795FT SLP140,2025-09-12T21:44:39Z,2025-09-12T17:44:39Z,CFB Cold Lake,54.404998779296875,-110.27899932861328,CA,CA-AB
CYOJ,"High Level Arpt, AB, CA",2025-09-12T21:00:00Z,2025-09-12 15:00:00,VFR,24,10,160,4,0,15,1008.5,METAR CYOJ 122100Z 16004KT 150V230 15SM SCT140 BKN260 24/10 A2978 RMK AC3CI2 SLP092 DENSITY ALT 2600FT,2025-09-12T21:44:39Z,2025-09-12T17:44:39Z,High Level Airport,58.62139892578125,-117.16500091552734,CA,CA-AB
CYOO,"Oshawa Arpt, ON, CA",2025-09-12T21:00:00Z,2025-09-12 17:00:00,VFR,21,14,150,4,0,9,1022.1,METAR CYOO 122100Z AUTO 15004KT 120V180 9SM CLR 21/14 A3018 RMK SLP224 DENSITY ALT 1000FT,2025-09-12T21:44:39Z,2025-09-12T17:44:39Z,Oshawa Executive Airport,43.922798,-78.894997,CA,CA-ON
CYOW,"Ottawa/Cartier Intl, ON, CA",2025-09-12T21:00:00Z,2025-09-12 17:00:00,VFR,21,6,VAR,2,0,15,1022.4,METAR CYOW 122100Z VRB02KT 15SM BKN250 21/06 A3019 RMK CI7 SLP226 DENSITY ALT 900FT,2025-09-12T21:44:39Z,2025-09-12T17:44:39Z,Ottawa Macdonald-Cartier International Airport,45.322498,-75.669197,CA,CA-ON
CYPA,"Prince Albert Arpt, SK, CA",2025-09-12T21:00:00Z,2025-09-12 15:00:00,VFR,28,16,100,9,0,15,1014.3,METAR CYPA 122100Z 10009KT 15SM BKN050 BKN270 28/16 A2995 RMK CU5CI1 SLP147 DENSITY ALT 3200FT,2025-09-12T21:44:39Z,2025-09-12T17:44:39Z,Prince Albert Glass Field,53.2141990662,-105.672996521,CA,CA-SK
CYPC,"Paulatuk Arpt, NT, CA",2025-09-12T21:00:00Z,2025-09-12 15:00:00,MVFR,6,5,260,17,0,11,997.4,METAR CYPC 122100Z 26017KT 11SM -DZRA OVC019 06/05 A2945 RMK SC8 SLP974,2025-09-12T21:44:40Z,2025-09-12T17:44:40Z,Paulatuk (Nora Aliqatchialuk Ruben) Airport,69.360838,-124.07547,CA,CA-NT
CYPD,"Port Hawkesbury Arpt, NS, CA",2025-09-12T21:00:00Z,2025-09-12 18:00:00,VFR,16,9,360,8,18,9,1019.7,METAR CYPD 122100Z AUTO 36008G18KT 300V030 9SM BKN033 16/09 A3011 RMK SLP200,2025-09-12T21:44:39Z,2025-09-12T17:44:39Z,Port Hawkesbury Airport,45.6567001343,-61.3680992126,CA,CA-NS
CYPE,"Peace River Arpt, AB, CA",2025-09-12T21:00:00Z,2025-09-12 15:00:00,VFR,22,8,170,8,0,9,1011.9,METAR CYPE 122100Z AUTO 17008KT 9SM CLR 22/08 A2988 RMK SLP126 DENSITY ALT 3200FT,2025-09-12T21:44:39Z,2025-09-12T17:44:39Z,Peace River Airport,56.226898,-117.446999,CA,CA-AB
CYPG,"Portage la Prairie/Southport Arpt, MB, CA",2025-09-12T21:00:00Z,2025-09-12 16:00:00,MVFR,21,18,10,9,0,15,1015.3,METAR CYPG 122100Z 01009KT 15SM OVC021 21/18 A2998 RMK SC8 DENSITY ALT 2056FT SLP152,2025-09-12T21:44:39Z,2025-09-12T17:44:39Z,Portage-la-Prairie / Southport Airport,49.903099,-98.273817,CA,CA-MB
CYPH,"Inukjuak Arpt, QC, CA",2025-09-12T21:42:00Z,2025-09-12 17:42:00,LIFR,7,7,250,10,0,9,1004.1,SPECI CYPH 122142Z AUTO 25010KT 9SM OVC002 07/07 A2965 RMK SLP044,2025-09-12T21:44:39Z,2025-09-12T17:44:39Z,Inukjuak Airport,58.471901,-78.076897,CA,CA-QC
CYPH,"Inukjuak Arpt, QC, CA",2025-09-12T21:45:00Z,2025-09-12 17:45:00,LIFR,7,7,250,10,0,9,1004.1,SPECI CYPH 122145Z AUTO 25010KT 9SM -RA OVC002 07/07 A2965 RMK SLP044,2025-09-12T21:55:24Z,2025-09-12T17:55:24Z,Inukjuak Airport,58.471901,-78.076897,CA,CA-QC
CYPL,"Pickle Lake Arpt, ON, CA",2025-09-12T21:00:00Z,2025-09-12 16:00:00,VFR,24,12,220,7,16,9,1016.3,METAR CYPL 122100Z AUTO 22007G16KT 9SM CLR 24/12 A3001 RMK SLP169 DENSITY ALT 2500FT,2025-09-12T21:44:40Z,2025-09-12T17:44:40Z,Pickle Lake Airport,51.4463996887207,-90.214202880859375,CA,CA-ON
CYPO,"Peawanuck Arpt, ON, CA",2025-09-12T21:00:00Z,2025-09-12 17:00:00,VFR,13,10,VAR,2,0,9,1014.3,METAR CYPO 122100Z AUTO VRB02KT 9SM SCT028 BKN037 OVC045 13/10 A2995 RMK SLP145,2025-09-12T21:44:39Z,2025-09-12T17:44:39Z,Peawanuck Airport,54.987932,-85.442648,CA,CA-ON
CYPQ,"Peterborough Muni, ON, CA",2025-09-12T21:00:00Z,2025-09-12 17:00:00,VFR,21,16,190,3,0,9,1022.1,METAR CYPQ 122100Z AUTO 19003KT 150V210 9SM SCT055 BKN066 21/16 A3018 RMK SLP220 DENSITY ALT 1200FT,2025-09-12T21:44:39Z,2025-09-12T17:44:39Z,Peterborough Municipal Airport,44.23,-78.363297,CA,CA-ON
CYPR,"Prince Rupert Arpt, BC, CA",2025-09-12T21:00:00Z,2025-09-12 14:00:00,NA,15,12,240,4,0,NA,1016,METAR CYPR 122100Z AUTO 24004KT 210V280 CLR 15/12 A3000 RMK WX MISG VIS MISG SLP161,2025-09-12T21:44:39Z,2025-09-12T17:44:39Z,Prince Rupert Airport,54.2860984802,-130.445007324,CA,CA-BC
CYPW,"Powell River Arpt, BC, CA",2025-09-12T21:00:00Z,2025-09-12 14:00:00,VFR,20,15,280,4,0,20,1017.4,METAR CYPW 122100Z 28004KT 250V310 20SM FEW025 BKN058 BKN130 BKN220 20/15 A3004 RMK SC1SC5AC1CI1 SC TR SLP175 DENSITY ALT 1000FT,2025-09-12T21:44:40Z,2025-09-12T17:44:40Z,Powell River Airport,49.83420181274414,-124.5,CA,CA-BC
CYPX,"Puvungnituq Arpt, QC, CA",2025-09-12T21:27:00Z,2025-09-12 17:27:00,MVFR,8,NA,90,17,0,6,1007.2,SPECI CYPX 122127Z AUTO 09017KT 6SM HZ SCT006 OVC014 08/ A2974 RMK DP MISG SLP073,2025-09-12T21:44:39Z,2025-09-12T17:44:39Z,Puvirnituq Airport,60.050598,-77.286903,CA,CA-QC
CYPY,"Fort Chipewyan Arpt, AB, CA",2025-09-12T21:00:00Z,2025-09-12 15:00:00,VFR,28,13,210,8,0,9,1007.9,METAR CYPY 122100Z AUTO 21008KT 170V250 9SM CLR 28/13 A2976 RMK SLP083 DENSITY ALT 2600FT,2025-09-12T21:44:39Z,2025-09-12T17:44:39Z,Fort Chipewyan Airport,58.7672004699707,-111.11699676513672,CA,CA-AB
CYQA,"Muskoka Arpt, ON, CA",2025-09-12T21:00:00Z,2025-09-12 17:00:00,VFR,22,8,310,6,0,9,1022.8,METAR CYQA 122100Z AUTO 31006KT 290V360 9SM SCT220 22/08 A3020 RMK SLP230 DENSITY ALT 1600FT,2025-09-12T21:44:39Z,2025-09-12T17:44:39Z,Muskoka Airport,44.975376,-79.306546,CA,CA-ON
CYQB,"Quebec/Lesage Intl, QC, CA",2025-09-12T21:00:00Z,2025-09-12 17:00:00,VFR,18,5,220,7,0,30,1022.4,METAR CYQB 122100Z 22007KT 30SM BKN240 18/05 A3019 RMK CI7 CONTRAILS SLP227,2025-09-12T21:44:40Z,2025-09-12T17:44:40Z,Quebec Jean Lesage International Airport,46.7911,-71.393303,CA,CA-QC
CYQD,"The Pas Arpt, MB, CA",2025-09-12T21:00:00Z,2025-09-12 16:00:00,VFR,25,14,80,8,0,9,1016.3,METAR CYQD 122100Z AUTO 08008KT 040V120 9SM CLR 25/14 A3001 RMK SLP168 DENSITY ALT 2200FT,2025-09-12T21:44:39Z,2025-09-12T17:44:39Z,The Pas Airport,53.97140121459961,-101.09100341796876,CA,CA-MB
CYQF,"Red Deer Rgnl, AB, CA",2025-09-12T21:00:00Z,2025-09-12 15:00:00,VFR,26,10,220,7,0,9,1013.6,METAR CYQF 122100Z AUTO 22007KT 170V260 9SM FEW130 26/10 A2993 RMK SLP139 DENSITY ALT 4900FT,2025-09-12T21:44:40Z,2025-09-12T17:44:40Z,Red Deer Regional Airport,52.182201,-113.893997,CA,CA-AB
CYQG,"Windsor Intl, ON, CA",2025-09-12T21:00:00Z,2025-09-12 17:00:00,VFR,26,10,40,6,0,9,1022.1,METAR CYQG 122100Z AUTO 04006KT 350V090 9SM CLR 26/10 A3018 RMK SLP220 DENSITY ALT 1800FT,2025-09-12T21:44:39Z,2025-09-12T17:44:39Z,Windsor Airport,42.27560043334961,-82.955596923828125,CA,CA-ON
CYQH,"Watson Lake Arpt, YT, CA",2025-09-12T21:00:00Z,2025-09-12 14:00:00,VFR,17,2,170,3,0,40,1010.2,METAR CYQH 122100Z 17003KT 40SM BKN065 17/02 A2983 RMK CU7 SLP114 DENSITY ALT 3100FT,2025-09-12T21:44:39Z,2025-09-12T17:44:39Z,Watson Lake Airport,60.116839,-128.821993,CA,CA-YT
CYQI,"Yarmouth Arpt, NS, CA",2025-09-12T21:00:00Z,2025-09-12 18:00:00,VFR,16,8,330,11,0,15,1021.4,METAR CYQI 122100Z 33011KT 15SM FEW250 16/08 A3016 RMK CI1 CI TR SLP214,2025-09-12T21:44:39Z,2025-09-12T17:44:39Z,Yarmouth Airport,43.826900482177734,-66.08809661865234,CA,CA-NS
CYQK,"Kenora Arpt, ON, CA",2025-09-12T21:00:00Z,2025-09-12 16:00:00,VFR,21,16,100,3,0,20,1016.3,METAR CYQK 122100Z 10003KT 070V150 20SM FEW014 SCT230 21/16 A3001 RMK SC1CI2 SLP167 DENSITY ALT 2300FT,2025-09-12T21:44:39Z,2025-09-12T17:44:39Z,Kenora Airport,49.788299560546875,-94.36309814453124,CA,CA-ON
CYQL,"Lethbridge Cnty Arpt, AB, CA",2025-09-12T21:00:00Z,2025-09-12 15:00:00,VFR,28,7,110,7,0,25,1013,METAR CYQL 122100Z 11007KT 060V160 25SM FEW085 SCT120 28/07 A2991 RMK CU2AC1 SLP123 DENSITY ALT 5200FT,2025-09-12T21:44:39Z,2025-09-12T17:44:39Z,Lethbridge County Airport,49.6302986145,-112.800003052,CA,CA-AB
CYQM,"Moncton Intl, NB, CA",2025-09-12T21:00:00Z,2025-09-12 18:00:00,VFR,16,8,40,9,15,15,1021.8,METAR CYQM 122100Z 04009G15KT 15SM FEW036 16/08 A3017 RMK SC1 SC TR SLP222,2025-09-12T21:44:39Z,2025-09-12T17:44:39Z,Greater Moncton Roméo LeBlanc International Airport,46.112202,-64.678596,CA,CA-NB
CYQQ,"Comox(MIL), BC, CA",2025-09-12T21:00:00Z,2025-09-12 14:00:00,VFR,19,14,130,9,0,20,1017,METAR CYQQ 122100Z 13009KT 20SM FEW024 BKN140 BKN220 OVC250 19/14 A3003 RMK CU1AC5CC2CI1 DENSITY ALT 699FT SLP171,2025-09-12T21:44:39Z,2025-09-12T17:44:39Z,Comox Valley Airport / CFB Comox,49.7108,-124.887001,CA,CA-BC
CYQR,"Regina Intl Arpt, SK, CA",2025-09-12T21:00:00Z,2025-09-12 15:00:00,VFR,25,18,VAR,4,0,NA,1014.6,METAR CYQR 122100Z VRB04KT 10SM SCT028 BKN090 BKN280 25/18 A2996 RMK CU3AC4CI1 CI TR FU SLP148 DENSITY ALT 3500FT,2025-09-12T21:44:39Z,2025-09-12T17:44:39Z,Regina International Airport,50.43190002441406,-104.66600036621094,CA,CA-SK
CYQT,"Thunder Bay Intl, ON, CA",2025-09-12T21:00:00Z,2025-09-12 17:00:00,LIFR,14,14,50,4,0,6,1019,METAR CYQT 122100Z 05004KT 6SM -RA BR BKN004 BKN011 OVC045 14/14 A3009 RMK SF5SC2SC1 SLP197,2025-09-12T21:44:39Z,2025-09-12T17:44:39Z,Thunder Bay Airport,48.37189865112305,-89.32389831542969,CA,CA-ON
CYQT,"Thunder Bay Intl, ON, CA",2025-09-12T21:52:00Z,2025-09-12 17:52:00,LIFR,14,14,90,6,0,6,1019,SPECI CYQT 122152Z 09006KT 6SM BR BKN004 OVC010 14/14 A3009 RMK ST6SC2 SLP195,2025-09-12T21:55:24Z,2025-09-12T17:55:24Z,Thunder Bay Airport,48.37189865112305,-89.32389831542969,CA,CA-ON
CYQU,"Grande Prairie Arpt, AB, CA",2025-09-12T21:00:00Z,2025-09-12 15:00:00,MVFR,22,9,170,5,0,5,1013.3,METAR CYQU 122100Z 17005KT 150V210 5SM FU SKC 22/09 A2992 RMK SLP142 DENSITY ALT 3500FT,2025-09-12T21:44:39Z,2025-09-12T17:44:39Z,Grande Prairie Airport,55.1796989441,-118.885002136,CA,CA-AB
CYQV,"Yorkton Muni, SK, CA",2025-09-12T21:00:00Z,2025-09-12 15:00:00,VFR,26,15,110,7,15,9,1015.3,METAR CYQV 122100Z AUTO 11007G15KT 9SM CLR 26/15 A2998 RMK SLP159 DENSITY ALT 3200FT,2025-09-12T21:44:39Z,2025-09-12T17:44:39Z,Yorkton Municipal Airport,51.26470184326172,-102.46199798583984,CA,CA-SK
CYQW,"North Battleford Arpt, SK, CA",2025-09-12T21:00:00Z,2025-09-12 15:00:00,VFR,27,11,VAR,2,0,9,1015,METAR CYQW 122100Z AUTO VRB02KT 9SM CLR 27/11 A2997 RMK SLP154 DENSITY ALT 3500FT,2025-09-12T21:44:39Z,2025-09-12T17:44:39Z,North Battleford Airport,52.769409,-108.243742,CA,CA-SK
CYQX,"Gander Intl Arpt, NL, CA",2025-09-12T21:30:00Z,2025-09-12 19:00:00,LIFR,7,7,350,19,26,2,1015,SPECI CYQX 122130Z 35019G26KT 2SM -RA BR OVC004 07/07 A2997 RMK FG3SF5 SLP155,2025-09-12T21:44:39Z,2025-09-12T17:44:39Z,Gander International Airport / CFB Gander,48.936258,-54.567719,CA,CA-NL
CYQY,"Sydney Arpt, NS, CA",2025-09-12T21:00:00Z,2025-09-12 18:00:00,VFR,16,10,350,15,24,15,1018.4,METAR CYQY 122100Z 35015G24KT 15SM SCT031 16/10 A3007 RMK CU3 SLP187,2025-09-12T21:44:39Z,2025-09-12T17:44:39Z,Sydney / J.A. Douglas McCurdy Airport,46.1614,-60.047798,CA,CA-NS
CYQZ,"Quesnel Arpt, BC, CA",2025-09-12T21:00:00Z,2025-09-12 14:00:00,VFR,21,7,VAR,2,0,9,1014.3,METAR CYQZ 122100Z AUTO VRB02KT 9SM FEW110 SCT130 21/07 A2995 RMK SLP150 DENSITY ALT 2900FT,2025-09-12T21:44:39Z,2025-09-12T17:44:39Z,Quesnel Airport,53.026100158691406,-122.51000213623048,CA,CA-BC
CYRB,"Resolute Bay Arpt, NU, CA",2025-09-12T21:31:00Z,2025-09-12 16:31:00,MVFR,1,1,120,11,0,25,1014.6,SPECI CYRB 122131Z 12011KT 25SM FEW005 OVC011 01/01 A2996 RMK ST1ST7 SLP155,2025-09-12T21:44:39Z,2025-09-12T17:44:39Z,Resolute Bay Airport,74.7169036865,-94.9693984985,CA,CA-NU
CYRJ,"Roberval Arpt, QC, CA",2025-09-12T21:00:00Z,2025-09-12 17:00:00,VFR,15,6,120,3,0,40,1022.1,METAR CYRJ 122100Z 12003KT 080V160 40SM SCT230 BKN250 15/06 A3018 RMK CI3CI2 SLP229,2025-09-12T21:44:39Z,2025-09-12T17:44:39Z,Roberval Airport,48.519665,-72.265735,CA,CA-QC
CYRL,"Red Lake Arpt, ON, CA",2025-09-12T21:00:00Z,2025-09-12 16:00:00,VFR,21,17,VAR,2,0,15,1016.7,METAR CYRL 122100Z VRB02KT 15SM SCT014 SCT060 SCT240 21/17 A3002 RMK SC3SC1CI1 SC TR CI TR SLP173 DENSITY ALT 2200FT,2025-09-12T21:44:40Z,2025-09-12T17:44:40Z,Red Lake Airport,51.066898345947266,-93.79309844970705,CA,CA-ON
CYRQ,"Trois-Rivières, QC, CA",2025-09-12T21:00:00Z,2025-09-12 17:00:00,VFR,19,7,210,5,0,9,1022.4,METAR CYRQ 122100Z AUTO 21005KT 9SM FEW240 19/07 A3019 RMK SLP227 DENSITY ALT 400FT,2025-09-12T21:44:39Z,2025-09-12T17:44:39Z,Trois-Rivières Airport,46.35279846191406,-72.67939758300781,CA,CA-QC
CYRT,"Rankin Inlet Arpt, NU, CA",2025-09-12T21:32:00Z,2025-09-12 16:32:00,MVFR,8,6,70,7,0,NA,1016.7,SPECI CYRT 122132Z 07007KT 10SM OVC013 08/06 A3002 RMK SC8 SLP171,2025-09-12T21:44:39Z,2025-09-12T17:44:39Z,Rankin Inlet Airport,62.8114013672,-92.1157989502,CA,CA-NU
CYRV,"Revelstoke Arpt, BC, CA",2025-09-12T21:00:00Z,2025-09-12 14:00:00,LIFR,26,14,180,6,0,0.25,1012.3,METAR CYRV 122100Z AUTO 18006KT 1/4SM HZ CLR 26/14 A2989 RMK SLP122 DENSITY ALT 3100FT,2025-09-12T21:44:40Z,2025-09-12T17:44:40Z,Revelstoke Airport,50.962245,-118.184258,CA,CA-BC
CYRV,"Revelstoke Arpt, BC, CA",2025-09-12T21:54:00Z,2025-09-12 14:54:00,LIFR,27,14,200,4,0,0.5,1011.9,SPECI CYRV 122154Z AUTO 20004KT 1/2SM HZ CLR 27/14 A2988 RMK SLP117 DENSITY ALT 3200FT,2025-09-12T21:55:24Z,2025-09-12T17:55:24Z,Revelstoke Airport,50.962245,-118.184258,CA,CA-BC
CYSB,"Sudbury Arpt, ON, CA",2025-09-12T21:00:00Z,2025-09-12 17:00:00,VFR,19,11,210,5,0,15,1022.8,METAR CYSB 122100Z 21005KT 15SM SCT036 OVC160 19/11 A3020 RMK SC3AC5 SLP237 DENSITY ALT 1600FT,2025-09-12T21:44:40Z,2025-09-12T17:44:40Z,Sudbury Airport,46.625,-80.79889678955078,CA,CA-ON
CYSC,"Sherbrooke Arpt, QC, CA",2025-09-12T21:00:00Z,2025-09-12 17:00:00,VFR,19,3,290,4,0,9,1022.8,METAR CYSC 122100Z AUTO 29004KT 200V360 9SM FEW250 19/03 A3020 RMK SLP233 DENSITY ALT 1200FT,2025-09-12T21:44:39Z,2025-09-12T17:44:39Z,Sherbrooke Airport,45.438599,-71.691399,CA,CA-QC
CYSF,"Stony Rapids Arpt, SK, CA",2025-09-12T21:00:00Z,2025-09-12 15:00:00,VFR,27,12,210,11,20,9,1010.9,METAR CYSF 122100Z AUTO 21011G20KT 9SM FEW060 27/12 A2985 RMK SLP118 DENSITY ALT 2500FT,2025-09-12T21:44:39Z,2025-09-12T17:44:39Z,Stony Rapids Airport,59.250301361083984,-105.84100341796876,CA,CA-SK
CYSJ,"Saint John Arpt, NB, CA",2025-09-12T21:00:00Z,2025-09-12 18:00:00,VFR,20,6,360,8,0,15,1020.7,METAR CYSJ 122100Z 36008KT 320V030 15SM FEW270 20/06 A3014 RMK CI1 CI TR SLP212 DENSITY ALT 800FT,2025-09-12T21:44:39Z,2025-09-12T17:44:39Z,Saint John Airport,45.31610107421875,-65.89029693603516,CA,CA-NB
CYSK,"Sanikiluaq Arpt, QC, CA",2025-09-12T21:00:00Z,2025-09-12 17:00:00,LIFR,7,7,260,13,0,0.25,1009.2,METAR CYSK 122100Z 26013KT 1/4SM FG VV002 07/07 A2980 RMK FG8 SLP094,2025-09-12T21:44:39Z,2025-09-12T17:44:39Z,Sanikiluaq Airport,56.536891,-79.250221,CA,CA-NU
CYSM,"Fort Smith Arpt, NT, CA",2025-09-12T21:00:00Z,2025-09-12 15:00:00,VFR,26,8,210,11,0,6,1006.5,METAR CYSM 122100Z 21011KT 6SM FU BKN280 26/08 A2972 RMK CI7 SLP068 DENSITY ALT 2400FT,2025-09-12T21:44:39Z,2025-09-12T17:44:39Z,Fort Smith Airport,60.020302,-111.961998,CA,CA-NT
CYSN,"St Catharines/Niagara Arpt, ON, CA",2025-09-12T21:00:00Z,2025-09-12 17:00:00,VFR,23,13,360,4,0,15,1021.8,METAR CYSN 122100Z 36004KT 15SM SCT040 SCT250 23/13 A3017 RMK SC3CI1 SLP220 DENSITY ALT 1100FT,2025-09-12T21:44:40Z,2025-09-12T17:44:40Z,Niagara District Airport,43.191598,-79.171686,CA,CA-ON
CYSP,"Marathon Arpt, ON, CA",2025-09-12T21:00:00Z,2025-09-12 17:00:00,IFR,14,13,0,0,0,3,1020.7,METAR CYSP 122100Z 00000KT 3SM BR OVC005 14/13 A3014 RMK ST8 LAST STFD OBS/NEXT 131200UTC SLP215,2025-09-12T21:44:39Z,2025-09-12T17:44:39Z,Marathon Airport,48.75529861450195,-86.34439849853516,CA,CA-ON
CYTE,"Cape Dorset Arpt, NU, CA",2025-09-12T21:33:00Z,2025-09-12 17:33:00,VFR,4,2,90,10,0,9,1017.7,SPECI CYTE 122133Z AUTO 09010KT 9SM SCT045 04/02 A3005 RMK SLP180,2025-09-12T21:44:39Z,2025-09-12T17:44:39Z,Cape Dorset Airport,64.230003,-76.526703,CA,CA-NU
CYTH,"Thompson Arpt, MB, CA",2025-09-12T21:00:00Z,2025-09-12 16:00:00,VFR,22,7,310,5,0,15,1017,METAR CYTH 122100Z 31005KT 290V010 15SM FEW250 22/07 A3003 RMK CI2 SLP180 DENSITY ALT 1600FT,2025-09-12T21:44:40Z,2025-09-12T17:44:40Z,Thompson Airport,55.80110168457031,-97.86419677734376,CA,CA-MB
CYTL,"Big Trout Lake Arpt, ON, CA",2025-09-12T21:00:00Z,2025-09-12 16:00:00,VFR,22,13,330,5,0,9,1015,METAR CYTL 122100Z AUTO 33005KT 310V010 9SM FEW050 22/13 A2997 RMK SLP156 DENSITY ALT 1600FT,2025-09-12T21:44:39Z,2025-09-12T17:44:39Z,Big Trout Lake Airport,53.817799,-89.896896,CA,CA-ON
CYTQ,"Tasiujaq Arpt, QC, CA",2025-09-12T21:00:00Z,2025-09-12 17:00:00,VFR,13,2,150,8,0,15,1013.6,METAR CYTQ 122100Z 15008KT 15SM BKN040 13/02 A2993 RMK SC7 LAST OBS NEXT/131200 UTC SLP138,2025-09-12T21:44:40Z,2025-09-12T17:44:40Z,Tasiujaq Airport,58.667801,-69.955803,CA,CA-QC
CYTR,"Trenton(MIL), ON, CA",2025-09-12T21:00:00Z,2025-09-12 17:00:00,VFR,21,13,220,10,0,15,1022.1,METAR CYTR 122100Z 22010KT 15SM FEW050 SCT250 21/13 A3018 RMK CU1CI3 DENSITY ALT 967FT SLP219,2025-09-12T21:44:39Z,2025-09-12T17:44:39Z,CFB Trenton,44.118900299072266,-77.5280990600586,CA,CA-ON
CYTS,"Timmins/Power Arpt, ON, CA",2025-09-12T21:00:00Z,2025-09-12 17:00:00,VFR,19,13,220,6,0,15,1020.7,METAR CYTS 122100Z 22006KT 180V260 15SM FEW026 BKN220 19/13 A3014 RMK SC1CS6 SLP217 DENSITY ALT 1400FT,2025-09-12T21:44:39Z,2025-09-12T17:44:39Z,Timmins/Victor M. Power,48.5696983337,-81.376701355,CA,CA-ON
CYTZ,"Toronto/Bishop Arpt, ON, CA",2025-09-12T21:00:00Z,2025-09-12 17:00:00,VFR,20,16,140,4,0,9,1022.1,METAR CYTZ 122100Z AUTO 14004KT 9SM CLR 20/16 A3018 RMK SLP222 DENSITY ALT 600FT,2025-09-12T21:44:39Z,2025-09-12T17:44:39Z,Billy Bishop Toronto City Centre Airport,43.627499,-79.396202,CA,CA-ON
CYUB,"Tuktoyaktuk Arpt, NT, CA",2025-09-12T21:06:00Z,2025-09-12 15:06:00,IFR,4,4,320,16,0,NA,1003.5,SPECI CYUB 122106Z 32016KT 10SM BKN005 04/04 A2963 RMK ST7 CIG RAG SLP035,2025-09-12T21:44:39Z,2025-09-12T17:44:39Z,Tuktoyaktuk / James Gruben Airport,69.433296,-133.026001,CA,CA-NT
CYUB,"Tuktoyaktuk Arpt, NT, CA",2025-09-12T21:51:00Z,2025-09-12 15:51:00,IFR,4,4,310,16,0,6,1004.1,SPECI CYUB 122151Z 31016KT 6SM -DZ BR BKN005 04/04 A2965 RMK ST7 PRESRR SLP043,2025-09-12T21:55:24Z,2025-09-12T17:55:24Z,Tuktoyaktuk / James Gruben Airport,69.433296,-133.026001,CA,CA-NT
CYUL,"Montreal/Trudeau Intl, QC, CA",2025-09-12T21:00:00Z,2025-09-12 17:00:00,VFR,20,5,310,4,0,30,1022.4,METAR CYUL 122100Z 31004KT 270V330 30SM BKN250 20/05 A3019 RMK CI6 SLP226 DENSITY ALT 400FT,2025-09-12T21:44:39Z,2025-09-12T17:44:39Z,Montreal / Pierre Elliott Trudeau International Airport,45.467837,-73.742294,CA,CA-QC
CYUT,"Repulse Bay Arpt, NU, CA",2025-09-12T21:00:00Z,2025-09-12 16:00:00,VFR,5,1,240,3,0,25,1021.1,METAR CYUT 122100Z 24003KT 180V270 25SM FEW150 05/01 A3015 RMK AC1 SLP212,2025-09-12T21:44:39Z,2025-09-12T17:44:39Z,Naujaat Airport,66.521024,-86.225166,CA,CA-NU
CYUX,"Hall Beach Arpt, NU, CA",2025-09-12T21:00:00Z,2025-09-12 17:00:00,LIFR,-1,-1,140,6,0,0.25,1022.1,METAR CYUX 122100Z 14006KT 1/4SM FZFG VV002 M01/M01 A3018 RMK FG8 SLP222,2025-09-12T21:44:39Z,2025-09-12T17:44:39Z,Hall Beach Airport,68.7761,-81.2425,CA,CA-NU
CYUY,"Rouyn/Noranda Arpt, QC, CA",2025-09-12T21:00:00Z,2025-09-12 17:00:00,VFR,16,7,230,8,0,15,1022.1,METAR CYUY 122100Z 23008KT 15SM FEW140 SCT170 BKN240 16/07 A3018 RMK AS2AC2CI1 SLP232,2025-09-12T21:44:39Z,2025-09-12T17:44:39Z,Rouyn Noranda Airport,48.20610046386719,-78.835601806640625,CA,CA-QC
CYVC,"La Ronge Arpt, SK, CA",2025-09-12T21:00:00Z,2025-09-12 15:00:00,VFR,25,15,50,9,0,15,1015.3,METAR CYVC 122100Z 05009KT 15SM FEW040 25/15 A2998 RMK CU1 SLP160 DENSITY ALT 2600FT,2025-09-12T21:44:39Z,2025-09-12T17:44:39Z,La Ronge Airport,55.1514015198,-105.262001038,CA,CA-SK
CYVL,"Colville Lake, NT, CA",2025-09-12T21:25:00Z,2025-09-12 15:25:00,MVFR,8,6,260,13,18,9,1002.5,SPECI CYVL 122125Z AUTO 26013G18KT 9SM -RA BKN011 OVC017 08/06 A2960 RMK SLP038,2025-09-12T21:44:39Z,2025-09-12T17:44:39Z,Tommy Kochon Airport,67.02,-126.126,CA,CA-NT
CYVM,"Broughton Isl/Qikiqtarjuaq Arpt, NU, CA",2025-09-12T21:00:00Z,2025-09-12 17:00:00,VFR,2,-1,340,5,0,12,1020.4,METAR CYVM 122100Z 34005KT 12SM VCSH FEW009 FEW015 FEW020 OVC036 02/M01 A3013 RMK SF1SC1SC1SC6 SF TR VIS S 5 SH LAST STFD OBS/NXT 131200UTC SLP205,2025-09-12T21:44:39Z,2025-09-12T17:44:39Z,Qikiqtarjuaq Airport,67.54656,-64.03141,CA,CA-NU
CYVO,"Val D'Or Arpt, QC, CA",2025-09-12T21:00:00Z,2025-09-12 17:00:00,VFR,16,7,250,5,0,15,1022.1,METAR CYVO 122100Z 25005KT 180V260 15SM FEW190 BKN240 16/07 A3018 RMK AC2CI4 SLP236,2025-09-12T21:44:39Z,2025-09-12T17:44:39Z,Val-d'Or Airport,48.0532989502,-77.7827987671,CA,CA-QC
CYVP,"Kuujjuaq Arpt, QC, CA",2025-09-12T21:00:00Z,2025-09-12 17:00:00,VFR,12,4,180,7,0,15,1014.6,METAR CYVP 122100Z 18007KT 15SM SCT120 BKN140 BKN220 12/04 A2996 RMK AC3AC2CI2 SLP150,2025-09-12T21:44:39Z,2025-09-12T17:44:39Z,Kuujjuaq Airport,58.096099853515625,-68.4269027709961,CA,CA-QC
CYVQ,"Norman Wells Arpt, NT, CA",2025-09-12T21:00:00Z,2025-09-12 15:00:00,VFR,15,10,240,10,0,30,1004.5,METAR CYVQ 122100Z 24010KT 30SM FEW024 FEW085 BKN130 BKN240 15/10 A2966 RMK SC1AC1AC4CI1 SLP048 DENSITY ALT 700FT,2025-09-12T21:44:39Z,2025-09-12T17:44:39Z,Norman Wells Airport,65.28160095214844,-126.7979965209961,CA,CA-NT
CYVR,"Vancouver Intl, BC, CA",2025-09-12T21:00:00Z,2025-09-12 14:00:00,VFR,21,14,130,8,0,20,1017,METAR CYVR 122100Z 13008KT 20SM FEW021 FEW053 FEW120 SCT200 BKN220 21/14 A3003 RMK CU1SC1AC1CC1CI2 AC TR SLP172 DENSITY ALT 600FT,2025-09-12T21:44:39Z,2025-09-12T17:44:39Z,Vancouver International Airport,49.193901062,-123.183998108,CA,CA-BC
CYVT,"Buffalo Narrows Arpt, SK, CA",2025-09-12T21:00:00Z,2025-09-12 15:00:00,VFR,26,12,160,5,0,9,1014,METAR CYVT 122100Z AUTO 16005KT 120V200 9SM CLR 26/12 A2994 RMK SLP144 DENSITY ALT 3000FT,2025-09-12T21:44:39Z,2025-09-12T17:44:39Z,Buffalo Narrows Airport,55.8418998718,-108.417999268,CA,CA-SK
CYVV,"Wiarton Arpt, ON, CA",2025-09-12T21:00:00Z,2025-09-12 17:00:00,VFR,20,13,40,5,0,15,1022.8,METAR CYVV 122100Z 04005KT 330V060 15SM FEW050 SCT250 20/13 A3020 RMK SC1CI3 SLP231 DENSITY ALT 1200FT,2025-09-12T21:44:39Z,2025-09-12T17:44:39Z,Wiarton Airport,44.7458,-81.107201,CA,CA-ON
CYWA,"Petawawa Arpt, ON, CA",2025-09-12T21:00:00Z,2025-09-12 17:00:00,VFR,19,6,90,3,0,15,1022.8,METAR CYWA 122100Z 09003KT 060V200 15SM BKN240 19/06 A3020 RMK CI6 DENSITY ALT 843FT SLP230,2025-09-12T21:44:39Z,2025-09-12T17:44:39Z,Petawawa Heliport,45.952202,-77.319199,CA,CA-ON
CYWE,"Wekweètì Arpt, NT, CA",2025-09-12T21:00:00Z,2025-09-12 15:00:00,VFR,19,11,230,10,0,9,1002.8,METAR CYWE 122100Z AUTO 23010KT 9SM CLR 19/11 A2961 RMK SLP038 DENSITY ALT 2400FT,2025-09-12T21:44:40Z,2025-09-12T17:44:40Z,Wekweètì Airport,64.190804,-114.077002,CA,CA-NT
CYWG,"Winnipeg Intl Arpt, MB, CA",2025-09-12T21:00:00Z,2025-09-12 16:00:00,MVFR,26,18,VAR,4,0,15,1014.3,METAR CYWG 122100Z VRB04KT 15SM BKN030 26/18 A2995 RMK SC7 SLP146 DENSITY ALT 2200FT,2025-09-12T21:44:39Z,2025-09-12T17:44:39Z,Winnipeg / James Armstrong Richardson International Airport,49.909999847399995,-97.2398986816,CA,CA-MB
CYWH,"Victoria Harbour Arpt, BC, CA",2025-09-12T21:09:00Z,2025-09-12 14:09:00,MVFR,14,13,140,8,0,3,1017.4,SPECI CYWH 122109Z 14008KT 3SM VCFG SCT003 BKN220 14/13 A3004 RMK ST4CI2 FG BANK ONSHR E-SW VIS SE-W 1/2 SLP176,2025-09-12T21:44:39Z,2025-09-12T17:44:39Z,Victoria Harbour Seaplane Base,48.423782,-123.37198,CA,CA-BC
CYWJ,"Déline Arpt, NT, CA",2025-09-12T21:00:00Z,2025-09-12 15:00:00,VFR,19,8,310,10,15,20,1002.8,METAR CYWJ 122100Z 31010G15KT 270V330 20SM FEW042 BKN100 19/08 A2961 RMK CU1AC5 SLP036 DENSITY ALT 1700FT,2025-09-12T21:44:39Z,2025-09-12T17:44:39Z,Déline Airport,65.211098,-123.435997,CA,CA-NT
CYWK,"Wabush Lake Arpt, NL, CA",2025-09-12T21:00:00Z,2025-09-12 18:00:00,VFR,13,4,210,5,0,15,1018.7,METAR CYWK 122100Z 21005KT 190V260 15SM SCT200 13/04 A3008 RMK CI4 SLP205,2025-09-12T21:44:40Z,2025-09-12T17:44:40Z,Wabush Airport,52.92190170288086,-66.8644027709961,CA,CA-NL
CYWL,"Williams Lake Rgnl, BC, CA",2025-09-12T21:00:00Z,2025-09-12 14:00:00,VFR,23,5,150,3,0,6,1015.3,METAR CYWL 122100Z 15003KT 6SM FU FEW040 23/05 A2998 RMK CU1 CU TR SLP148 DENSITY ALT 4700FT,2025-09-12T21:44:39Z,2025-09-12T17:44:39Z,Williams Lake Airport,52.1831016541,-122.054000854,CA,CA-BC
CYXC,"Cranbrook Intl, BC, CA",2025-09-12T21:00:00Z,2025-09-12 15:00:00,VFR,26,9,100,4,0,25,1014.3,METAR CYXC 122100Z 10004KT 25SM FEW080TCU FEW140 FEW200 26/09 A2995 RMK TCU1AC1CI1 AC TR CI TR CB TOPS DIST SW-S SLP131 DENSITY ALT 5000FT,2025-09-12T21:44:41Z,2025-09-12T17:44:41Z,Cranbrook/Canadian Rockies International Airport,49.610801696777,-115.78199768066,CA,CA-BC
CYXE,"Saskatoon/Diefenbaker Intl, SK, CA",2025-09-12T21:00:00Z,2025-09-12 15:00:00,VFR,23,16,140,4,0,12,1014.3,METAR CYXE 122100Z 14004KT 12SM BKN090TCU BKN240 23/16 A2995 RMK TCU5CI3 CB TOPS NE SLP150 DENSITY ALT 3000FT,2025-09-12T21:44:41Z,2025-09-12T17:44:41Z,Saskatoon John G. Diefenbaker International Airport,52.170799255371094,-106.6999969482422,CA,CA-SK
CYXH,"Medicine Hat Arpt, AB, CA",2025-09-12T21:00:00Z,2025-09-12 15:00:00,VFR,26,9,180,6,0,30,1013.6,METAR CYXH 122100Z 18006KT 150V260 30SM SCT068CB BKN200 BKN270 26/09 A2993 RMK CB3CI3CI1 SLP134 DENSITY ALT 4200FT,2025-09-12T21:44:42Z,2025-09-12T17:44:42Z,Medicine Hat Regional Airport,50.018902,-110.721001,CA,CA-AB
CYXJ,"Fort St John/N Peace Rgnl, BC, CA",2025-09-12T21:00:00Z,2025-09-12 14:00:00,VFR,22,9,230,11,19,60,1012.3,METAR CYXJ 122100Z 23011G19KT 60SM FEW052 BKN110 BKN200 22/09 A2989 RMK CU1AC6CI1 CU TR SLP127 DENSITY ALT 3700FT,2025-09-12T21:44:41Z,2025-09-12T17:44:41Z,Fort St John / North Peace Regional Airport,56.238098,-120.739998,CA,CA-BC
CYXL,"Sioux Lookout Arpt, ON, CA",2025-09-12T21:00:00Z,2025-09-12 16:00:00,VFR,22,15,200,8,0,15,1017,METAR CYXL 122100Z 20008KT 150V220 15SM SCT025 SCT120 SCT250 22/15 A3003 RMK CU3AC1CI1 AC TR SLP175 DENSITY ALT 2300FT,2025-09-12T21:44:41Z,2025-09-12T17:44:41Z,Sioux Lookout Airport,50.11389923095703,-91.9052963256836,CA,CA-ON
CYXP,"Pangnirtung Arpt, NU, CA",2025-09-12T21:00:00Z,2025-09-12 17:00:00,VFR,3,1,250,10,0,15,1018.4,METAR CYXP 122100Z 25010KT 15SM FEW019 BKN039 03/01 A3007 RMK SF1SC6 SF TR SLP187,2025-09-12T21:44:42Z,2025-09-12T17:44:42Z,Pangnirtung Airport,66.144878,-65.713606,CA,CA-NU
CYXQ,"Beaver Creek Arpt, YT, CA",2025-09-12T21:15:00Z,2025-09-12 14:15:00,VFR,10,6,320,2,0,25,1005.2,SPECI CYXQ 122115Z 32002KT 25SM FEW030 OVC250 10/06 A2968 RMK CU1CI7 WIND EST SLP074 DENSITY ALT 2400FT,2025-09-12T21:44:41Z,2025-09-12T17:44:41Z,Beaver Creek Airport,62.410301208496094,-140.86700439453125,CA,CA-YT
CYXR,"Earlton Arpt, ON, CA",2025-09-12T21:00:00Z,2025-09-12 17:00:00,VFR,17,11,140,8,0,9,1021.8,METAR CYXR 122100Z AUTO 14008KT 9SM CLR 17/11 A3017 RMK SLP228 DENSITY ALT 1000FT,2025-09-12T21:44:41Z,2025-09-12T17:44:41Z,Earlton (Timiskaming Regional) Airport,47.6974006546,-79.8473453522,CA,CA-ON
CYXS,"Prince George Arpt, BC, CA",2025-09-12T21:00:00Z,2025-09-12 14:00:00,VFR,19,11,130,3,0,9,1015,METAR CYXS 122100Z AUTO 13003KT 080V180 9SM BKN081 BKN096 19/11 A2997 RMK SLP158 DENSITY ALT 3300FT,2025-09-12T21:44:41Z,2025-09-12T17:44:41Z,Prince George Airport,53.884311,-122.666554,CA,CA-BC
CYXT,"Terrace Arpt, BC, CA",2025-09-12T21:00:00Z,2025-09-12 14:00:00,VFR,19,14,170,12,21,20,1015,METAR CYXT 122100Z 17012G21KT 20SM FEW015 SCT032 SCT043 BKN100 BKN220 19/14 A2997 RMK CF1CU3SC1AC1CI2 CF TR SLP152 DENSITY ALT 1300FT,2025-09-12T21:44:42Z,2025-09-12T17:44:42Z,Northwest Regional Airport Terrace-Kitimat,54.468498,-128.576009,CA,CA-BC
CYXU,"London Intl, ON, CA",2025-09-12T21:00:00Z,2025-09-12 17:00:00,VFR,25,11,0,0,0,15,1022.1,METAR CYXU 122100Z 00000KT 15SM BKN074 25/11 A3018 RMK AC6 SLP223 DENSITY ALT 2000FT,2025-09-12T21:44:41Z,2025-09-12T17:44:41Z,London Airport,43.035599,-81.1539,CA,CA-ON
CYXX,"Abbotsford Intl, BC, CA",2025-09-12T21:00:00Z,2025-09-12 14:00:00,VFR,21,14,220,5,0,25,1017,METAR CYXX 122100Z 22005KT 210V280 25SM SCT028 SCT055 SCT220 21/14 A3003 RMK CU3CU1CI1 CI TR SLP170 DENSITY ALT 800FT,2025-09-12T21:44:41Z,2025-09-12T17:44:41Z,Abbotsford International Airport,49.025299,-122.361,CA,CA-BC
CYXY,"Whitehorse Arpt, YT, CA",2025-09-12T21:00:00Z,2025-09-12 14:00:00,VFR,15,3,150,16,23,40,1007.5,METAR CYXY 122100Z 15016G23KT 40SM SCT060 SCT150 BKN190 15/03 A2975 RMK SC4AC1AC2 AC TR SLP095 DENSITY ALT 3100FT,2025-09-12T21:44:41Z,2025-09-12T17:44:41Z,Whitehorse / Erik Nielsen International Airport,60.709599,-135.067001,CA,CA-YT
CYXZ,"Wawa Arpt, ON, CA",2025-09-12T21:00:00Z,2025-09-12 17:00:00,LIFR,14,14,210,3,0,3,1021.8,METAR CYXZ 122100Z 21003KT 190V290 3SM BR OVC004 14/14 A3017 RMK ST8 SLP227,2025-09-12T21:44:41Z,2025-09-12T17:44:41Z,Wawa Airport,47.96670150756836,-84.78669738769531,CA,CA-ON
CYYB,"North Bay/Garland Arpt, ON, CA",2025-09-12T21:00:00Z,2025-09-12 17:00:00,VFR,17,12,240,6,0,30,1023.1,METAR CYYB 122100Z 24006KT 30SM FEW040 SCT140 OVC280 17/12 A3021 RMK SC1AC3CI4 SLP239 DENSITY ALT 1500FT,2025-09-12T21:44:41Z,2025-09-12T17:44:41Z,North Bay Jack Garland Airport,46.363602,-79.422798,CA,CA-ON
CYYC,"Calgary Intl, AB, CA",2025-09-12T21:00:00Z,2025-09-12 15:00:00,VFR,24,8,0,0,0,15,1014.3,METAR CYYC 122100Z 00000KT 15SM FEW130 24/08 A2995 RMK AC2 SLP138 DENSITY ALT 5500FT,2025-09-12T21:44:41Z,2025-09-12T17:44:41Z,Calgary International Airport,51.118822,-114.009933,CA,CA-AB
CYYD,"Smithers Arpt, BC, CA",2025-09-12T21:00:00Z,2025-09-12 14:00:00,VFR,18,13,VAR,2,0,25,1014,METAR CYYD 122100Z VRB02KT 25SM SCT070 BKN160 18/13 A2994 RMK AC3CC4 SLP142 DENSITY ALT 2500FT,2025-09-12T21:44:41Z,2025-09-12T17:44:41Z,Smithers Airport,54.82469940185547,-127.18299865722656,CA,CA-BC
CYYE,"Fort Nelson Arpt, BC, CA",2025-09-12T21:00:00Z,2025-09-12 14:00:00,VFR,22,8,340,2,0,30,1008.9,METAR CYYE 122100Z 34002KT 30SM FEW140 BKN220 22/08 A2979 RMK AC2CI4 SLP095 DENSITY ALT 2600FT,2025-09-12T21:44:41Z,2025-09-12T17:44:41Z,Fort Nelson Airport,58.8363990784,-122.597000122,CA,CA-BC
CYYF,"Penticton Rgnl, BC, CA",2025-09-12T21:00:00Z,2025-09-12 14:00:00,VFR,28,6,150,4,0,15,1011.6,METAR CYYF 122100Z 15004KT 100V180 15SM FEW240 28/06 A2987 RMK CI1 SLP115 DENSITY ALT 3000FT,2025-09-12T21:44:42Z,2025-09-12T17:44:42Z,Penticton Airport,49.46310043334961,-119.60199737548828,CA,CA-BC
CYYG,"Charlottetown Arpt, PE, CA",2025-09-12T21:00:00Z,2025-09-12 18:00:00,VFR,15,10,340,10,15,15,1021.4,METAR CYYG 122100Z 34010G15KT 15SM SCT020 SCT030 15/10 A3016 RMK CU3SC1 SLP217,2025-09-12T21:44:42Z,2025-09-12T17:44:42Z,Charlottetown Airport,46.290000915527344,-63.12110137939453,CA,CA-PE
CYYH,"Taloyoak Arpt, NU, CA",2025-09-12T21:00:00Z,2025-09-12 15:00:00,MVFR,6,3,150,10,0,20,1016,METAR CYYH 122100Z CCA 15010KT 20SM BKN018 BKN150 06/03 A3000 RMK SC6AC1 SLP164,2025-09-12T21:44:41Z,2025-09-12T17:44:41Z,Taloyoak Airport,69.5467,-93.576698,CA,CA-NU
CYYJ,"Victoria Intl, BC, CA",2025-09-12T21:00:00Z,2025-09-12 14:00:00,VFR,17,14,120,5,0,30,1017.4,METAR CYYJ 122100Z 12005KT 090V150 30SM FEW025 FEW220 SCT250 17/14 A3004 RMK CU1CC2CI2 CU TR SLP173 DENSITY ALT 300FT,2025-09-12T21:44:41Z,2025-09-12T17:44:41Z,Victoria International Airport,48.647201,-123.427792,CA,CA-BC
CYYN,"Swift Current Arpt, SK, CA",2025-09-12T21:00:00Z,2025-09-12 15:00:00,VFR,25,12,350,4,0,9,1015.3,METAR CYYN 122100Z AUTO 35004KT 240V030 9SM FEW050 25/12 A2998 RMK SLP150 DENSITY ALT 4400FT,2025-09-12T21:44:42Z,2025-09-12T17:44:42Z,Swift Current Airport,50.291900634799994,-107.691001892,CA,CA-SK
CYYQ,"Churchill Arpt, MB, CA",2025-09-12T21:25:00Z,2025-09-12 16:25:00,LIFR,10,9,70,7,0,NA,1017.4,SPECI CYYQ 122125Z 07007KT 10SM OVC004 10/09 A3004 RMK ST8 SLP176,2025-09-12T21:44:41Z,2025-09-12T17:44:41Z,Churchill Airport,58.739200592041016,-94.06500244140624,CA,CA-MB
CYYR,"Goose Bay Arpt, NL, CA",2025-09-12T21:00:00Z,2025-09-12 18:00:00,VFR,9,4,90,6,0,15,1021.1,METAR CYYR 122100Z 09006KT 15SM FEW020 OVC032 09/04 A3015 RMK SC1SC8 DENSITY ALT -744FT SLP211,2025-09-12T21:44:42Z,2025-09-12T17:44:42Z,Goose Bay Airport,53.3191986084,-60.4258003235,CA,CA-NL
CYYT,"St Johns Intl, NL, CA",2025-09-12T21:03:00Z,2025-09-12 18:33:00,VFR,10,9,340,18,29,15,1010.9,SPECI CYYT 122103Z 34018G29KT 15SM -SHRA SCT010 BKN110 BKN130 10/09 A2985 RMK SC4AC2AC1 CVCTV CLD EMBD SLP112,2025-09-12T21:44:41Z,2025-09-12T17:44:41Z,St. John's International Airport,47.618599,-52.7519,CA,CA-NL
CYYU,"Kapuskasing Arpt, ON, CA",2025-09-12T21:00:00Z,2025-09-12 17:00:00,VFR,22,13,210,12,0,15,1019,METAR CYYU 122100Z 21012KT 200V260 15SM FEW100 FEW260 22/13 A3009 RMK AC1CI1 SLP195 DENSITY ALT 1600FT,2025-09-12T21:44:41Z,2025-09-12T17:44:41Z,Kapuskasing Airport,49.411587,-82.469645,CA,CA-ON
CYYW,"Armstrong Arpt, ON, CA",2025-09-12T21:00:00Z,2025-09-12 17:00:00,VFR,20,15,160,7,0,9,1017.4,METAR CYYW 122100Z AUTO 16007KT 9SM SCT027 20/15 A3004 RMK SLP168 DENSITY ALT 1800FT,2025-09-12T21:44:42Z,2025-09-12T17:44:42Z,Armstrong Airport,50.29029846191406,-88.909698486328125,CA,CA-ON
CYYY,"Mont Joli Arpt, QC, CA",2025-09-12T21:00:00Z,2025-09-12 17:00:00,VFR,15,6,VAR,2,0,30,1022.1,METAR CYYY 122100Z VRB02KT 30SM FEW240 15/06 A3018 RMK CI2 SLP225,2025-09-12T21:44:42Z,2025-09-12T17:44:42Z,Mont Joli Airport,48.60860061645508,-68.208099365234375,CA,CA-QC
CYYZ,"Toronto/Pearson Intl, ON, CA",2025-09-12T21:00:00Z,2025-09-12 17:00:00,VFR,21,14,160,5,0,15,1022.1,METAR CYYZ 122100Z 16005KT 140V200 15SM FEW062 SCT076 SCT250 21/14 A3018 RMK CU2AC2CI1 CI TR SLP223 DENSITY ALT 1100FT,2025-09-12T21:44:41Z,2025-09-12T17:44:41Z,Toronto Lester B. Pearson International Airport,43.6772,-79.6306,CA,CA-ON
CYZE,"Gore Bay/Manitoulin Arpt, ON, CA",2025-09-12T21:00:00Z,2025-09-12 17:00:00,VFR,19,12,180,9,0,9,1022.4,METAR CYZE 122100Z AUTO 18009KT 9SM BKN130 19/12 A3019 RMK SLP228 DENSITY ALT 1000FT,2025-09-12T21:44:42Z,2025-09-12T17:44:42Z,Gore Bay Manitoulin Airport,45.8853,-82.567802,CA,CA-ON
CYZF,"Yellowknife Arpt, NT, CA",2025-09-12T21:00:00Z,2025-09-12 15:00:00,VFR,20,12,160,8,0,15,1004.1,METAR CYZF 122100Z 16008KT 15SM SCT190 BKN240 20/12 A2965 RMK AC3CI4 SLP049 DENSITY ALT 1700FT,2025-09-12T21:44:42Z,2025-09-12T17:44:42Z,Yellowknife International Airport,62.462799,-114.440002,CA,CA-NT
CYZG,"Salliut Arpt, QC, CA",2025-09-12T21:00:00Z,2025-09-12 17:00:00,VFR,7,4,120,8,0,6,1013.6,METAR CYZG 122100Z 12008KT 6SM -RA OVC038 07/04 A2993 RMK SC8 LST STFD OBS/NXT 131200Z SLP150,2025-09-12T21:44:41Z,2025-09-12T17:44:41Z,Salluit Airport,62.179401,-75.667198,CA,CA-QC
CYZH,"Slave Lake Arpt, AB, CA",2025-09-12T21:00:00Z,2025-09-12 15:00:00,VFR,24,13,VAR,2,0,9,1012.6,METAR CYZH 122100Z AUTO VRB02KT 9SM CLR 24/13 A2990 RMK SLP129 DENSITY ALT 3500FT,2025-09-12T21:44:42Z,2025-09-12T17:44:42Z,Slave Lake Airport,55.292945,-114.777276,CA,CA-AB
CYZP,"Sandspit Arpt, BC, CA",2025-09-12T21:40:00Z,2025-09-12 14:40:00,VFR,15,13,110,4,0,9,1016,SPECI CYZP 122140Z AUTO 11004KT 9SM -RA OVC038 15/13 A3000 RMK SLP160,2025-09-12T21:44:41Z,2025-09-12T17:44:41Z,Sandspit Airport,53.25429916379999,-131.813995361,CA,CA-BC
CYZR,"Sarnia/Hadfield Arpt, ON, CA",2025-09-12T21:00:00Z,2025-09-12 17:00:00,VFR,23,15,20,7,0,9,1022.1,METAR CYZR 122100Z AUTO 02007KT 9SM CLR 23/15 A3018 RMK SLP221 DENSITY ALT 1400FT,2025-09-12T21:44:41Z,2025-09-12T17:44:41Z,Chris Hadfield Airport,42.999401,-82.308899,CA,CA-ON
CYZS,"Coral Harbour Arpt, NU, CA",2025-09-12T21:00:00Z,2025-09-12 16:00:00,MVFR,6,4,70,18,0,15,1016.7,METAR CYZS 122100Z 07018KT 15SM BKN011 OVC036 06/04 A3002 RMK SC6SC2 SLP173,2025-09-12T21:44:42Z,2025-09-12T17:44:42Z,Coral Harbour Airport,64.1932983398,-83.3593978882,CA,CA-NU
CYZT,"Port Hardy Arpt, BC, CA",2025-09-12T21:31:00Z,2025-09-12 14:31:00,IFR,15,15,320,3,0,3,1016,SPECI CYZT 122131Z 32003KT 3SM RA BR FEW003 BKN005 BKN012 OVC026 15/15 A3000 RMK SF2ST4ST1SC1 SLP162,2025-09-12T21:44:41Z,2025-09-12T17:44:41Z,Port Hardy Airport,50.68059921264648,-127.36699676513672,CA,CA-BC
CYZU,"Whitecourt Arpt, AB, CA",2025-09-12T21:00:00Z,2025-09-12 15:00:00,VFR,22,12,20,4,0,6,1013.3,METAR CYZU 122100Z 02004KT 290V100 6SM FU BKN240 22/12 A2992 RMK FU4CI1 SLP139 DENSITY ALT 4000FT,2025-09-12T21:44:41Z,2025-09-12T17:44:41Z,Whitecourt Airport,54.143902,-115.787003,CA,CA-AB
CYZV,"Sept-Îles Arpt, QC, CA",2025-09-12T21:00:00Z,2025-09-12 17:00:00,VFR,12,7,230,8,0,30,1021.4,METAR CYZV 122100Z 23008KT 180V240 30SM FEW045 FEW060 BKN210 12/07 A3016 RMK SC1SC1CI5 SC TR SC TR SLP215,2025-09-12T21:44:42Z,2025-09-12T17:44:42Z,Sept-Îles Airport,50.22330093383789,-66.2656021118164,CA,CA-QC
CYZW,"Teslin Arpt, YT, CA",2025-09-12T21:00:00Z,2025-09-12 14:00:00,VFR,14,2,200,11,19,30,1010.6,METAR CYZW 122100Z 20011G19KT 170V230 30SM BKN057 BKN082 14/02 A2984 RMK CU5AC1 CVCTV CLD ASOCTD SLP125 DENSITY ALT 2900FT,2025-09-12T21:44:41Z,2025-09-12T17:44:41Z,Teslin Airport,60.17279815673828,-132.7429962158203,CA,CA-YT
CYZX,"Greenwood (MIL), NS, CA",2025-09-12T21:00:00Z,2025-09-12 18:00:00,VFR,19,6,30,5,0,15,1021.4,METAR CYZX 122100Z 03005KT 320V070 15SM SKC 19/06 A3016 RMK DENSITY ALT 429FT SLP213,2025-09-12T21:44:42Z,2025-09-12T17:44:42Z,CFB Greenwood,44.98440170288086,-64.916900634765625,CA,CA-NS
CYZY,"Mackenzie Arpt, BC, CA",2025-09-12T21:00:00Z,2025-09-12 21:00:00,VFR,20,11,150,9,0,9,1014,METAR CYZY 122100Z AUTO 15009KT 9SM BKN066 BKN077 BKN110 20/11 A2994 RMK SLP147 DENSITY ALT 3400FT,2025-09-12T21:44:41Z,2025-09-12T17:44:41Z,Mackenzie Airport,55.297786,-123.133907,CA,CA-BC
CZBF,"Bathurst Arpt, NB, CA",2025-09-12T21:00:00Z,2025-09-12 18:00:00,VFR,18,7,90,5,0,9,1022.1,METAR CZBF 122100Z AUTO 09005KT 9SM CLR 18/07 A3018 RMK SLP224,2025-09-12T21:44:41Z,2025-09-12T17:44:41Z,Bathurst Airport,47.6297,-65.738899,CA,CA-NB
CZFA,"Faro Arpt, YT, CA",2025-09-12T21:00:00Z,2025-09-12 14:00:00,VFR,15,0,250,5,0,30,1007.2,METAR CZFA 122100Z 25005KT 230V320 30SM SCT060 BKN070 15/M00 A2974 RMK CU4AC3 SLP091 DENSITY ALT 3100FT,2025-09-12T21:44:41Z,2025-09-12T17:44:41Z,Faro Airport,62.20750045776367,-133.37600708007812,CA,CA-YT
CZFM,"Fort McPherson Arpt, NT, CA",2025-09-12T21:00:00Z,2025-09-12 15:00:00,MVFR,7,5,170,5,0,NA,1005.5,METAR CZFM 122100Z 17005KT 110V210 10SM BKN010 07/05 A2969 RMK ST7 SLP060,2025-09-12T21:44:41Z,2025-09-12T17:44:41Z,Fort Mcpherson Airport,67.406993,-134.860182,CA,CA-NT
CZFN,"Fort Norman Arpt, NT, CA",2025-09-12T21:00:00Z,2025-09-12 15:00:00,VFR,15,10,240,6,0,15,1003.8,METAR CZFN 122100Z 24006KT 15SM FEW041 BKN150 15/10 A2964 RMK CU1AC6 CU TR SLP042 DENSITY ALT 800FT,2025-09-12T21:44:41Z,2025-09-12T17:44:41Z,Tulita Airport,64.909496,-125.570297,CA,CA-NT
CZMD,"Muskrat Dam Arpt, ON, CA",2025-09-12T21:00:00Z,2025-09-12 16:00:00,NA,22,16,310,4,0,9,1015.7,METAR CZMD 122100Z AUTO 31004KT 280V360 9SM 22/16 A2999 RMK CLD MISG SLP163 DENSITY ALT 1900FT,2025-09-12T21:44:42Z,2025-09-12T17:44:42Z,Muskrat Dam Airport,53.441399,-91.762802,CA,CA-ON
CZMT,"Masset Arpt, BC, CA",2025-09-12T21:21:00Z,2025-09-12 14:21:00,VFR,15,13,170,4,0,15,1016,SPECI CZMT 122121Z 17004KT 15SM SCT044 BKN062 15/13 A3000 RMK SC4SC3 TCU TOPS S SLP161,2025-09-12T21:44:41Z,2025-09-12T17:44:41Z,Masset Airport,54.0275,-132.125,CA,CA-BC
CZPC,"Pincher Creek Arpt, AB, CA",2025-09-12T21:01:00Z,2025-09-12 15:01:00,NA,18,7,VAR,NA,0,7,1015.3,SPECI CZPC 122101Z AUTO /////KT 7SM 18/07 A2998 RMK LTNG DIST ALQDS PRESRR PCPN 0.5MM PAST HR WIND MISG CLD MISG WX MISG ICE MISG SLP150 DENSITY ALT 5100FT,2025-09-12T21:44:41Z,2025-09-12T17:44:41Z,Pincher Creek Airport,49.520429,-113.997002,CA,CA-AB
CZSJ,"Sandy Lake Arpt, ON, CA",2025-09-12T21:15:00Z,2025-09-12 16:15:00,VFR,23,16,330,7,0,7,1016.3,SPECI CZSJ 122115Z AUTO 33007KT 270V010 7SM CLR 23/16 A3001 RMK SLP165 DENSITY ALT 2100FT,2025-09-12T21:44:41Z,2025-09-12T17:44:41Z,Sandy Lake Airport,53.06420135498047,-93.34439849853516,CA,CA-ON
CZST,"Stewart Arpt, BC, CA",2025-09-12T21:00:00Z,2025-09-12 14:00:00,VFR,15,13,220,3,0,15,1015,METAR CZST 122100Z 22003KT 190V280 15SM SCT063 BKN080 BKN230 15/13 A2997 RMK SC3AC2CI2 SLP150,2025-09-12T21:44:41Z,2025-09-12T17:44:41Z,Stewart Airport,55.935410448,-129.982434511,CA,CA-BC
CZUM,"Churchill Falls Arpt, NL, CA",2025-09-12T21:00:00Z,2025-09-12 18:00:00,VFR,9,4,300,5,0,9,1019.7,METAR CZUM 122100Z AUTO 30005KT 230V350 9SM OVC040 09/04 A3011 RMK SLP214,2025-09-12T21:44:41Z,2025-09-12T17:44:41Z,Churchill Falls Airport,53.5619010925293,-64.10639953613281,CA,CA-NL
CZVL,"Edmonton/Villenueve Arpt, AB, CA",2025-09-12T21:00:00Z,2025-09-12 21:00:00,VFR,26,9,170,8,0,9,1013,METAR CZVL 122100Z AUTO 17008KT 9SM CLR 26/09 A2991 RMK SLP128 DENSITY ALT 4100FT,2025-09-12T21:44:42Z,2025-09-12T17:44:42Z,Edmonton / Villeneuve Airport,53.6675,-113.853996,CA,CA-AB
K05U,"Eureka Arpt, NV, US",2025-09-12T21:35:00Z,2025-09-12 14:35:00,VFR,21,-4,0,0,11,NA,1018.7,METAR K05U 122135Z AUTO 00000G11KT 10SM CLR 21/M04 A3008 RMK A01,2025-09-12T21:44:41Z,2025-09-12T17:44:41Z,Eureka Airport,39.604198455799995,-116.004997253,US,US-NV
K06C,"Schaumburg Rgnl, IL, US",2025-09-12T21:35:00Z,2025-09-12 21:35:00,VFR,28.2,12.8,170,6,0,NA,1020.1,METAR K06C 122135Z AUTO 17006KT 10SM CLR 28/13 A3012 RMK AO2 T02820128,2025-09-12T21:44:41Z,2025-09-12T17:44:41Z,Schaumburg Regional Airport,41.9892997742,-88.1011962891,US,US-IL
K06D,"Rolla Muni, ND, US",2025-09-12T21:35:00Z,2025-09-12 21:35:00,VFR,25,18,60,7,0,NA,1015,METAR K06D 122135Z AUTO 06007KT 10SM CLR 25/18 A2997 RMK AO2,2025-09-12T21:44:41Z,2025-09-12T17:44:41Z,Rolla Municipal Airport,48.8843,-99.620903,US,US-ND
K08D,"Stanley Muni, ND, US",2025-09-12T21:35:00Z,2025-09-12 21:35:00,VFR,28,17,60,7,0,NA,1014,METAR K08D 122135Z AUTO 06007KT 10SM CLR 28/17 A2994 RMK AO2,2025-09-12T21:44:41Z,2025-09-12T17:44:41Z,Stanley Municipal Airport,48.3008,-102.405998,US,US-ND
K08D,"Stanley Muni, ND, US",2025-09-12T21:55:00Z,2025-09-12 21:55:00,VFR,28,16,70,11,0,NA,1014,METAR K08D 122155Z AUTO 07011KT 10SM CLR 28/16 A2994 RMK AO2,2025-09-12T21:55:26Z,2025-09-12T17:55:26Z,Stanley Municipal Airport,48.3008,-102.405998,US,US-ND
K0A9,"Elizabethton Muni, TN, US",2025-09-12T21:35:00Z,2025-09-12 21:35:00,VFR,27,12,VAR,4,0,NA,1020.7,METAR K0A9 122135Z AUTO VRB04KT 10SM CLR 27/12 A3014 RMK AO2,2025-09-12T21:44:41Z,2025-09-12T17:44:41Z,Elizabethton Municipal Airport,36.371201,-82.173302,US,US-TN
K0E0,"Moriarty Muni, NM, US",2025-09-12T21:35:00Z,2025-09-12 21:35:00,VFR,27.8,3.2,170,8,15,NA,1021.8,METAR K0E0 122135Z AUTO 17008G15KT 10SM CLR 28/03 A3017 RMK AO2 T02780032,2025-09-12T21:44:41Z,2025-09-12T17:44:41Z,Moriarty Municipal Airport,34.9751,-106.0028,US,US-NM
K0F2,"Bowie Muni, TX, US",2025-09-12T21:35:00Z,2025-09-12 21:35:00,VFR,34.1,17.2,150,5,0,NA,1018,METAR K0F2 122135Z AUTO 15005KT 10SM CLR 34/17 A3006 RMK AO2 T03410172,2025-09-12T21:44:41Z,2025-09-12T17:44:41Z,Bowie Municipal Airport,33.6017,-97.775597,US,US-TX
K0J4,"Florala Muni, AL, US",2025-09-12T20:58:00Z,2025-09-12 20:58:00,VFR,32.8,15,40,8,0,NA,1017.4,METAR K0J4 122058Z AUTO 04008KT 10SM FEW065 SCT100 33/15 A3004 RMK AO2 SLP167 T03280150 56016,2025-09-12T21:44:43Z,2025-09-12T17:44:43Z,Florala Municipal Airport,31.0425,-86.3116,US,US-AL
K0R0,"Columbia/Marion Cnty, MS, US",2025-09-12T21:35:00Z,2025-09-12 21:35:00,NA,36,18,0,0,0,NA,1017.7,METAR K0R0 122135Z AUTO 00000KT CLR 36/18 A3005 RMK AO2,2025-09-12T21:44:43Z,2025-09-12T17:44:43Z,Columbia-Marion County Airport,31.297001,-89.812798,US,US-MS
K0R4,"Vidalia/Concordia Arpt, LA, US",2025-09-12T21:35:00Z,2025-09-12 21:35:00,VFR,36.7,19,50,3,0,NA,1018.4,METAR K0R4 122135Z AUTO 05003KT 10SM CLR 37/19 A3007 RMK AO2 T03670190,2025-09-12T21:44:43Z,2025-09-12T17:44:43Z,Concordia Parish Airport,31.562000274658203,-91.506500244140625,US,US-LA
K0S9,"Port Townsend/Jefferson Cnty, WA, US",2025-09-12T21:35:00Z,2025-09-12 14:35:00,MVFR,22,14,70,6,0,NA,1017,METAR K0S9 122135Z AUTO 07006KT 10SM BKN026 OVC031 22/14 A3003 RMK AO2,2025-09-12T21:44:43Z,2025-09-12T17:44:43Z,Jefferson County International Airport,48.0537986755,-122.810997009,US,US-WA
K0V4,"Brookneal/Campbell Cnty, VA, US",2025-09-12T21:35:00Z,2025-09-12 21:35:00,VFR,27,12,80,11,17,NA,1020.4,METAR K0V4 122135Z AUTO 08011G17KT 10SM CLR 27/12 A3013 RMK AO1,2025-09-12T21:44:43Z,2025-09-12T17:44:43Z,Brookneal/Campbell County Airport,37.141701,-79.016403,US,US-VA
K0VG,"Jonesville/Lee Cnty, VA, US",2025-09-12T21:35:00Z,2025-09-12 21:35:00,VFR,27,13,VAR,5,0,NA,1021.4,METAR K0VG 122135Z AUTO VRB05KT 10SM FEW060 27/13 A3016 RMK AO2,2025-09-12T21:44:43Z,2025-09-12T17:44:43Z,Lee County Airport,36.654099,-83.217796,US,US-VA
K0W3,"Churchville/Hartford Cnty, MD, US",2025-09-12T21:35:00Z,2025-09-12 21:35:00,VFR,25.1,12.5,160,3,0,NA,1021.4,METAR K0W3 122135Z AUTO 16003KT 10SM CLR 25/13 A3016 RMK AO2 T02510125 $,2025-09-12T21:44:43Z,2025-09-12T17:44:43Z,Harford County Airport,39.566799,-76.2024,US,US-MD
K0W3,"Churchville/Hartford Cnty, MD, US",2025-09-12T21:45:00Z,2025-09-12 21:45:00,VFR,25.1,12.3,0,0,0,NA,1021.4,METAR K0W3 122145Z AUTO 00000KT 10SM CLR 25/12 A3016 RMK AO2 T02510123 $,2025-09-12T21:55:28Z,2025-09-12T17:55:28Z,Harford County Airport,39.566799,-76.2024,US,US-MD
K10G,"Millersburg/Holmes Cnty, OH, US",2025-09-12T21:35:00Z,2025-09-12 21:35:00,VFR,26,10,140,3,0,NA,1022.1,METAR K10G 122135Z AUTO 14003KT 10SM CLR 26/10 A3018 RMK AO2,2025-09-12T21:44:43Z,2025-09-12T17:44:43Z,Holmes County Airport,40.537201,-81.954399,US,US-OH
K11R,"Brenham Muni, TX, US",2025-09-12T21:35:00Z,2025-09-12 21:35:00,VFR,33.6,19.3,150,4,0,NA,1017.4,METAR K11R 122135Z AUTO 15004KT 10SM SCT060 SCT070 34/19 A3004 RMK AO2 T03360193,2025-09-12T21:44:43Z,2025-09-12T17:44:43Z,Brenham Municipal Airport,30.219,-96.374298,US,US-TX
K12N,"Andover/Aeroflex Arpt, NJ, US",2025-09-12T20:54:00Z,2025-09-12 20:54:00,NA,25.6,10.6,0,0,0,NA,1021.8,METAR K12N 122054Z AUTO 00000KT 26/11 A3017 RMK AO1 SLP212 T02560106 56014,2025-09-12T21:44:43Z,2025-09-12T17:44:43Z,Aeroflex-Andover Airport,41.008598,-74.737999,US,US-NJ
K13K,"Eureka Muni, KS, US",2025-09-12T21:35:00Z,2025-09-12 21:35:00,VFR,33.2,19.3,190,14,21,NA,1017.4,METAR K13K 122135Z AUTO 19014G21KT 10SM CLR 33/19 A3004 RMK AO2 T03320193,2025-09-12T21:44:43Z,2025-09-12T17:44:43Z,Eureka Municipal Airport,37.851601,-96.291702,US,US-KS
K14Y,"Long Prairie Muni, MN, US",2025-09-12T21:35:00Z,2025-09-12 21:35:00,VFR,18,17,150,17,22,NA,1012.3,METAR K14Y 122135Z AUTO 15017G22KT 10SM -RA SCT070 SCT100 BKN120 18/17 A2989 RMK AO2 LTG DSNT E P0002,2025-09-12T21:44:43Z,2025-09-12T17:44:43Z,Todd Field,45.898602,-94.873901,US,US-MN
K15M,"Iuka Arpt, MS, US",2025-09-12T21:35:00Z,2025-09-12 21:35:00,VFR,29.7,21.1,0,0,0,9,1018.4,METAR K15M 122135Z AUTO 00000KT 9SM SCT065 30/21 A3007 RMK AO2 T02970211 $,2025-09-12T21:44:43Z,2025-09-12T17:44:43Z,Iuka Airport,34.772300720214844,-88.16590118408203,US,US-MS
K17J,"Donaldsonville Muni, GA, US",2025-09-12T21:35:00Z,2025-09-12 21:35:00,VFR,31,12,30,9,0,NA,1017.4,METAR K17J 122135Z AUTO 03009KT 10SM CLR 31/12 A3004 RMK AO2,2025-09-12T21:44:43Z,2025-09-12T17:44:43Z,Donalsonville Municipal Airport,31.006901,-84.877602,US,US-GA
K18A,"Canon/Franklin Cnty, GA, US",2025-09-12T21:35:00Z,2025-09-12 21:35:00,VFR,27.7,14.2,130,7,0,NA,1020.1,METAR K18A 122135Z AUTO 13007KT 10SM CLR 28/14 A3012 RMK AO2 T02770142,2025-09-12T21:44:43Z,2025-09-12T17:44:43Z,Franklin County Airport,34.340099,-83.133499,US,US-GA
K19S,"Sublette Muni, KS, US",2025-09-12T21:35:00Z,2025-09-12 21:35:00,VFR,NA,NA,190,17,22,NA,1017,METAR K19S 122135Z AUTO 19017G22KT 10SM CLR A3003 RMK AO2,2025-09-12T21:44:43Z,2025-09-12T17:44:43Z,Sublette Municipal Airport,37.497018,-100.834343,US,US-KS
K1A5,"Franklin/Macon Cnty, NC, US",2025-09-12T21:35:00Z,2025-09-12 21:35:00,VFR,26.3,13.8,300,3,0,NA,1022.1,METAR K1A5 122135Z AUTO 30003KT 10SM BKN065 26/14 A3018 RMK AO2 T02630138,2025-09-12T21:44:43Z,2025-09-12T17:44:43Z,Macon County Airport,35.222599029541016,-83.41899871826172,US,US-NC
K1A5,"Franklin/Macon Cnty, NC, US",2025-09-12T21:45:00Z,2025-09-12 21:45:00,VFR,25.5,14.5,280,3,0,NA,1022.1,METAR K1A5 122145Z AUTO 28003KT 10SM OVC075 26/15 A3018 RMK AO2 T02550145,2025-09-12T21:55:28Z,2025-09-12T17:55:28Z,Macon County Airport,35.222599029541016,-83.41899871826172,US,US-NC
K1A6,"Middlesboro/Bell Cnty, KY, US",2025-09-12T21:35:00Z,2025-09-12 21:35:00,VFR,27.5,11.5,40,3,0,NA,1021.1,METAR K1A6 122135Z AUTO 04003KT 10SM CLR 28/12 A3015 RMK AO2 T02750115,2025-09-12T21:44:43Z,2025-09-12T17:44:43Z,Middlesboro-Bell County Airport,36.610257,-83.737385,US,US-KY
K1A9,"Prattville Arpt, AL, US",2025-09-12T21:35:00Z,2025-09-12 21:35:00,VFR,NA,NA,60,4,0,NA,1017,METAR K1A9 122135Z AUTO 06004KT 10SM CLR A3003 RMK AO2,2025-09-12T21:44:43Z,2025-09-12T17:44:43Z,Prattville - Grouby Field,32.438702,-86.512703,US,US-AL
K1B9,"Mansfield Muni, MA, US",2025-09-12T21:35:00Z,2025-09-12 21:35:00,VFR,21.3,12.5,110,5,0,9,1022.1,METAR K1B9 122135Z AUTO 11005KT 9SM CLR 21/12 A3018 RMK AO2 T02130125 $,2025-09-12T21:44:43Z,2025-09-12T17:44:43Z,Mansfield Municipal Airport,42.000099182099994,-71.1968002319,US,US-MA
K1D1,"Milbank Muni, SD, US",2025-09-12T21:15:00Z,2025-09-12 21:15:00,VFR,26,18,140,15,21,NA,1013,METAR K1D1 122115Z AUTO 14015G21KT 10SM CLR 26/18 A2991 RMK AO2,2025-09-12T21:44:43Z,2025-09-12T17:44:43Z,Milbank Municipal Airport,45.23049927,-96.56600189,US,US-SD
K1D1,"Milbank Muni, SD, US",2025-09-12T21:35:00Z,2025-09-12 21:35:00,VFR,26,18,140,16,23,NA,1012.6,METAR K1D1 122135Z AUTO 14016G23KT 10SM CLR 26/18 A2990 RMK AO2,2025-09-12T21:55:28Z,2025-09-12T17:55:28Z,Milbank Municipal Airport,45.23049927,-96.56600189,US,US-SD
K1D8,"Redfield Muni, SD, US",2025-09-12T21:15:00Z,2025-09-12 21:15:00,VFR,29,23,90,11,0,NA,1011.3,METAR K1D8 122115Z AUTO 09011KT 10SM BKN035 29/23 A2986 RMK AO2,2025-09-12T21:44:43Z,2025-09-12T17:44:43Z,Redfield Municipal Airport,44.856176,-98.531284,US,US-SD
K1D8,"Redfield Muni, SD, US",2025-09-12T21:35:00Z,2025-09-12 21:35:00,VFR,29,22,120,9,0,NA,1011.3,METAR K1D8 122135Z AUTO 12009KT 10SM SCT037 29/22 A2986 RMK AO2,2025-09-12T21:55:28Z,2025-09-12T17:55:28Z,Redfield Municipal Airport,44.856176,-98.531284,US,US-SD
K1F0,"Ardmore/Downtown Exec, OK, US",2025-09-12T21:35:00Z,2025-09-12 16:35:00,VFR,34.3,18.7,140,7,0,NA,1018,METAR K1F0 122135Z AUTO 14007KT 10SM CLR 34/19 A3006 RMK AO2 T03430187,2025-09-12T21:44:43Z,2025-09-12T17:44:43Z,Ardmore Downtown Executive Airport,34.1469993591,-97.1227035522,US,US-OK
K1H2,"Effingham Cnty, IL, US",2025-09-12T21:35:00Z,2025-09-12 21:35:00,VFR,31.5,9.6,130,4,0,NA,1019.7,METAR K1H2 122135Z AUTO 13004KT 10SM CLR 32/10 A3011 RMK AO2 T03150096,2025-09-12T21:44:43Z,2025-09-12T17:44:43Z,Effingham County Memorial Airport,39.0704,-88.533501,US,US-IL
K1M4,"Haleyville/Posey Fld, AL, US",2025-09-12T20:56:00Z,2025-09-12 20:56:00,VFR,30,17.2,30,5,0,NA,1020.1,METAR K1M4 122056Z AUTO 03005KT 10SM CLR 30/17 A3012 RMK AO2 SLP956 T03000172 56018 $,2025-09-12T21:44:43Z,2025-09-12T17:44:43Z,Posey Field,34.2803,-87.600403,US,US-AL
K1R7,"Brookhaven/Lincoln Cnty Arpt, MS, US",2025-09-12T21:35:00Z,2025-09-12 21:35:00,VFR,32,20,320,4,0,9,1018,METAR K1R7 122135Z AUTO 32004KT 9SM CLR 32/20 A3006 RMK A01 TSNO,2025-09-12T21:44:43Z,2025-09-12T17:44:43Z,Brookhaven-Lincoln County Airport,31.605801,-90.409302,US,US-MS
K1R8,"Bay Minette Muni, AL, US",2025-09-12T21:35:00Z,2025-09-12 21:35:00,VFR,33,16,VAR,5,0,NA,1016.3,METAR K1R8 122135Z AUTO VRB05KT 10SM FEW070 33/16 A3001 RMK AO2,2025-09-12T21:44:43Z,2025-09-12T17:44:43Z,Bay Minette Municipal Airport,30.870321,-87.819298,US,US-AL
K1U7,"Paris/Bear Lake Cnty Arpt, ID, US",2025-09-12T21:35:00Z,2025-09-12 21:35:00,VFR,22,0,VAR,4,0,NA,1017.4,METAR K1U7 122135Z AUTO VRB04KT 10SM FEW110 22/00 A3004 RMK A01,2025-09-12T21:44:43Z,2025-09-12T17:44:43Z,Bear Lake County Airport,42.2472,-111.337997,US,US-ID
K1V6,"Canon City/Fremont Cnty Arpt, CO, US",2025-09-12T21:35:00Z,2025-09-12 15:35:00,VFR,25,10,300,10,0,NA,1019,METAR K1V6 122135Z AUTO 30010KT 10SM SCT050 SCT085 SCT120 25/10 A3009 RMK AO2,2025-09-12T21:44:43Z,2025-09-12T17:44:43Z,Fremont County Airport,38.429739,-105.108562,US,US-CO
K20U,"Beach Arpt, ND, US",2025-09-12T21:35:00Z,2025-09-12 21:35:00,NA,28,11,290,7,0,NA,1015,METAR K20U 122135Z AUTO 29007KT 10SM 28/11 A2997 RMK AO2 TSNO,2025-09-12T21:44:44Z,2025-09-12T17:44:44Z,Beach Airport,46.925201,-103.982002,US,US-ND
K20V,"Kremmling/McElroy Fld, CO, US",2025-09-12T21:35:00Z,2025-09-12 21:35:00,VFR,18,6,270,8,0,NA,1024.1,METAR K20V 122135Z AUTO 27008KT 10SM SCT100 18/06 A3024 RMK AO2,2025-09-12T21:44:44Z,2025-09-12T17:44:44Z,McElroy Airfield,40.05341,-106.369078,US,US-CO
K21D,"Lake Elmo Arpt, MN, US",2025-09-12T21:35:00Z,2025-09-12 21:35:00,VFR,25,18,10,3,0,NA,1017.7,METAR K21D 122135Z AUTO 01003KT 10SM VCTS SCT110 25/18 A3005 RMK AO2 LTG DSNT N THRU E,2025-09-12T21:44:44Z,2025-09-12T17:44:44Z,Lake Elmo Airport,44.99750137,-92.85569763,US,US-MN
K22N,"Lehighton/Arner Mem, PA, US",2025-09-12T21:35:00Z,2025-09-12 21:35:00,VFR,23,12,0,0,0,NA,1021.8,METAR K22N 122135Z AUTO 00000KT 10SM CLR 23/12 A3017 RMK AO2,2025-09-12T21:44:44Z,2025-09-12T17:44:44Z,Jake Arner Memorial Airport,40.809502,-75.761497,US,US-PA
K24A,"Sylva/Jackson Cnty, NC, US",2025-09-12T21:35:00Z,2025-09-12 21:35:00,VFR,24.5,12.5,270,3,0,NA,1022.8,METAR K24A 122135Z AUTO 27003KT 10SM SCT065 SCT075 24/13 A3020 RMK AO2 T02450125,2025-09-12T21:44:44Z,2025-09-12T17:44:44Z,Jackson County Airport,35.31740188598633,-83.20989990234375,US,US-NC
K24A,"Sylva/Jackson Cnty, NC, US",2025-09-12T21:45:00Z,2025-09-12 21:45:00,VFR,24.6,12.7,0,0,0,NA,1022.8,METAR K24A 122145Z AUTO 00000KT 10SM SCT065 BKN075 25/13 A3020 RMK AO2 T02460127,2025-09-12T21:55:29Z,2025-09-12T17:55:29Z,Jackson County Airport,35.31740188598633,-83.20989990234375,US,US-NC
K24J,"Live Oak/Suwannee Cnty, FL, US",2025-09-12T21:35:00Z,2025-09-12 21:35:00,VFR,31,15,30,7,13,NA,1016,METAR K24J 122135Z AUTO 03007G13KT 10SM CLR 31/15 A3000 RMK A01,2025-09-12T21:44:44Z,2025-09-12T17:44:44Z,Suwannee County Airport,30.3001,-83.024696,US,US-FL
K27K,"Georgetown/Scott Cnty, KY, US",2025-09-12T21:35:00Z,2025-09-12 21:35:00,VFR,29.5,11.4,VAR,3,0,9,1019.7,METAR K27K 122135Z AUTO VRB03KT 9SM CLR 29/11 A3011 RMK AO2 T02950114 $,2025-09-12T21:44:45Z,2025-09-12T17:44:45Z,Georgetown-Scott County Regional Airport,38.234405,-84.434702,US,US-KY
K2A0,"Dayton/Anton Arpt, TN, US",2025-09-12T21:35:00Z,2025-09-12 21:35:00,VFR,29,12,20,4,10,NA,1019,METAR K2A0 122135Z AUTO 02004G10KT 10SM CLR 29/12 A3009 RMK A01,2025-09-12T21:44:44Z,2025-09-12T17:44:44Z,Mark Anton Airport,35.486198,-84.931099,US,US-TN
K2C8,"Cavalier Muni, ND, US",2025-09-12T21:15:00Z,2025-09-12 21:15:00,MVFR,25,22,60,4,0,8,1014,METAR K2C8 122115Z AUTO 06004KT 8SM OVC024 25/22 A2994 RMK AO2,2025-09-12T21:44:45Z,2025-09-12T17:44:45Z,Cavalier Municipal Airport,48.783798,-97.631897,US,US-ND
K2D5,"Oakes Muni, ND, US",2025-09-12T21:35:00Z,2025-09-12 21:35:00,NA,25,20,80,7,0,NA,1013,METAR K2D5 122135Z AUTO 08007KT CLR 25/20 A2991 RMK AO2,2025-09-12T21:44:44Z,2025-09-12T17:44:44Z,Oakes Municipal Airport,46.173778,-98.079507,US,US-ND
K2G2,"Steubenville/Jefferson Cnty, OH, US",2025-09-12T21:15:00Z,2025-09-12 21:15:00,VFR,29,6,0,0,0,NA,1020.7,METAR K2G2 122115Z AUTO 00000KT 10SM CLR 29/06 A3014 RMK A01,2025-09-12T21:44:45Z,2025-09-12T17:44:45Z,Jefferson County Airpark,40.359402,-80.700104,US,US-OH
K2G2,"Steubenville/Jefferson Cnty, OH, US",2025-09-12T21:35:00Z,2025-09-12 21:35:00,VFR,28,7,160,4,0,NA,1020.7,METAR K2G2 122135Z AUTO 16004KT 10SM CLR 28/07 A3014 RMK A01,2025-09-12T21:55:29Z,2025-09-12T17:55:29Z,Jefferson County Airpark,40.359402,-80.700104,US,US-OH
K2G4,"Oakland/Garrett Cnty, MD, US",2025-09-12T21:35:00Z,2025-09-12 21:35:00,VFR,24,10,0,0,0,NA,1023.8,METAR K2G4 122135Z AUTO 00000KT 10SM SCT055 24/10 A3023 RMK AO2,2025-09-12T21:44:44Z,2025-09-12T17:44:44Z,Garrett County Airport,39.580819,-79.33573,US,US-MD
K2G4,"Oakland/Garrett Cnty, MD, US",2025-09-12T21:45:00Z,2025-09-12 21:45:00,VFR,24,10,0,0,0,NA,1023.8,METAR K2G4 122145Z AUTO 00000KT 10SM CLR 24/10 A3023 RMK AO2,2025-09-12T21:55:29Z,2025-09-12T17:55:29Z,Garrett County Airport,39.580819,-79.33573,US,US-MD
K2G9,"Somerset Cnty Arpt, PA, US",2025-09-12T21:35:00Z,2025-09-12 21:35:00,VFR,24,7,340,6,0,NA,1022.8,METAR K2G9 122135Z AUTO 34006KT 10SM CLR 24/07 A3020 RMK AO2,2025-09-12T21:44:44Z,2025-09-12T17:44:44Z,Somerset County Airport,40.039101,-79.014603,US,US-PA
K2I0,"Madisonville Muni, KY, US",2025-09-12T21:35:00Z,2025-09-12 21:35:00,VFR,31.8,10,70,7,0,NA,1019.4,METAR K2I0 122135Z AUTO 07007KT 10SM SCT080 32/10 A3010 RMK AO2 T03180100,2025-09-12T21:44:45Z,2025-09-12T17:44:45Z,Madisonville Regional Airport,37.355868,-87.398205,US,US-KY
K2IS,"Clewistown/Airglades Arpt, FL, US",2025-09-12T21:35:00Z,2025-09-12 21:35:00,NA,29.1,22.5,70,10,0,NA,1013.6,METAR K2IS 122135Z AUTO 07010KT CLR 29/22 A2993 RMK AO2 LTG DSNT NW PWINO T02910225,2025-09-12T21:44:44Z,2025-09-12T17:44:44Z,Airglades Airport,26.735195,-81.051078,US,US-FL
K2J5,"Millen Arpt, GA, US",2025-09-12T21:30:00Z,2025-09-12 21:30:00,VFR,NA,NA,10,6,0,NA,1018.4,METAR K2J5 122130Z AUTO 01006KT 10SM CLR A3007 RMK AO2,2025-09-12T21:44:45Z,2025-09-12T17:44:45Z,Millen Airport,32.89360046386719,-81.96540069580078,US,US-GA
K2M2,"Lawrenceburg/Lawrence Cnty, TN, US",2025-09-12T21:35:00Z,2025-09-12 21:35:00,VFR,29,15,50,6,0,9,1019.4,METAR K2M2 122135Z AUTO 05006KT 9SM CLR 29/15 A3010 RMK A01,2025-09-12T21:44:44Z,2025-09-12T17:44:44Z,Lawrenceburg Lawrence County Airport,35.234299,-87.257896,US,US-TN
K2M8,"Millington/Baker Arpt, TN, US",2025-09-12T20:55:00Z,2025-09-12 20:55:00,VFR,NA,NA,VAR,NA,0,NA,1017.7,METAR K2M8 122055Z AUTO 10SM BKN095 OVC120 A3005 RMK AO2 FZRANO $,2025-09-12T21:44:45Z,2025-09-12T17:44:45Z,Charles W. Baker Airport,35.278999,-89.931503,US,US-TN
K2R2,"Indianapolis/Hendrick Cnty, IN, US",2025-09-12T21:35:00Z,2025-09-12 21:35:00,NA,29,13.1,0,0,0,NA,1020.7,METAR K2R2 122135Z AUTO 00000KT CLR 29/13 A3014 RMK AO2 T02900131 PWINO TSNO $,2025-09-12T21:44:44Z,2025-09-12T17:44:44Z,Hendricks County Gordon Graham Field,39.7481,-86.473801,US,US-IN
K2R9,"Kenedy/Karnes Cnty, TX, US",2025-09-12T21:35:00Z,2025-09-12 21:35:00,VFR,35.8,17.1,130,8,16,NA,1016,METAR K2R9 122135Z AUTO 13008G16KT 10SM CLR 36/17 A3000 RMK AO2 T03580171,2025-09-12T21:44:44Z,2025-09-12T17:44:44Z,Kenedy Regional Airport,28.825001,-97.865601,US,US-TX
K2V5,"Wray Muni, CO, US",2025-09-12T21:35:00Z,2025-09-12 21:35:00,VFR,35,8,190,14,18,NA,1014,METAR K2V5 122135Z AUTO 19014G18KT 10SM CLR 35/08 A2994 RMK AO2,2025-09-12T21:44:44Z,2025-09-12T17:44:44Z,Wray Municipal Airport,40.10029984,-102.2409973,US,US-CO
K2V6,"Yuma Muni, CO, US",2025-09-12T21:34:00Z,2025-09-12 21:34:00,VFR,32,6,200,8,0,NA,1014.6,METAR K2V6 122134Z AUTO 20008KT 10SM CLR 32/06 A2996 RMK AO2,2025-09-12T21:44:45Z,2025-09-12T17:44:45Z,Yuma Municipal Airport,40.104198,-102.712997,US,US-CO
K2W6,"Leonardtown/St Marys, MD, US",2025-09-12T21:35:00Z,2025-09-12 17:35:00,VFR,24.9,12.9,0,0,0,9,1021.4,METAR K2W6 122135Z AUTO 00000KT 9SM CLR 25/13 A3016 RMK AO2 T02490129 $,2025-09-12T21:44:44Z,2025-09-12T17:44:44Z,St. Mary's County Regional Airport,38.315399,-76.550102,US,US-MD
K2W6,"Leonardtown/St Marys, MD, US",2025-09-12T21:45:00Z,2025-09-12 17:45:00,VFR,24.8,13.3,0,0,0,9,1021.8,METAR K2W6 122145Z AUTO 00000KT 9SM CLR 25/13 A3017 RMK AO2 T02480133 $,2025-09-12T21:55:29Z,2025-09-12T17:55:29Z,St. Mary's County Regional Airport,38.315399,-76.550102,US,US-MD
K33N,"Dover/Cheswold Arpk, DE, US",2025-09-12T21:15:00Z,2025-09-12 21:15:00,VFR,26,13,40,3,0,NA,NA,METAR K33N 122115Z AUTO 04003KT 10SM FEW090 26/13 RMK A01,2025-09-12T21:44:45Z,2025-09-12T17:44:45Z,Delaware Airpark,39.21874,-75.600424,US,US-DE
K33N,"Dover/Cheswold Arpk, DE, US",2025-09-12T21:35:00Z,2025-09-12 21:35:00,VFR,26,14,130,4,0,NA,1021.1,METAR K33N 122135Z AUTO 13004KT 10SM FEW090 26/14 A3015 RMK A01,2025-09-12T21:55:29Z,2025-09-12T17:55:29Z,Delaware Airpark,39.21874,-75.600424,US,US-DE
K35A,"Union/Union Cnty, SC, US",2025-09-12T21:35:00Z,2025-09-12 21:35:00,VFR,28.5,12.9,40,8,0,NA,1021.1,METAR K35A 122135Z AUTO 04008KT 10SM SCT060 28/13 A3015 RMK A02 T02850129,2025-09-12T21:44:44Z,2025-09-12T17:44:44Z,"Union County, Troy Shelton Field",34.687046,-81.64105,US,US-SC
K36K,"Lakin/Kearney Cnty, KS, US",2025-09-12T21:35:00Z,2025-09-12 21:35:00,VFR,33,10,190,21,30,NA,1017,METAR K36K 122135Z AUTO 19021G30KT 10SM CLR 33/10 A3003 RMK AO2,2025-09-12T21:44:44Z,2025-09-12T17:44:44Z,Kearny County Airport,37.969501,-101.254997,US,US-KS
K3AU,"Augusta Muni, KS, US",2025-09-12T21:35:00Z,2025-09-12 21:35:00,VFR,33,13,190,8,0,NA,1017,METAR K3AU 122135Z AUTO 19008KT 10SM CLR 33/13 A3003 RMK AO2,2025-09-12T21:44:44Z,2025-09-12T17:44:44Z,Augusta Municipal Airport,37.6716,-97.077904,US,US-KS
K3F3,"Mansfield/Williams Arpt, LA, US",2025-09-12T21:35:00Z,2025-09-12 21:35:00,VFR,32.9,20.7,70,6,0,NA,1018.7,METAR K3F3 122135Z AUTO 07006KT 060V120 10SM SCT060 33/21 A3008 RMK AO2 T03290207,2025-09-12T21:44:44Z,2025-09-12T17:44:44Z,C E 'Rusty' Williams Airport,32.0735015869,-93.7655029297,US,US-LA
K3K3,"Syracuse/Hamilton Cnty, KS, US",2025-09-12T21:35:00Z,2025-09-12 21:35:00,VFR,34,9,180,20,28,NA,1015.3,METAR K3K3 122135Z AUTO 18020G28KT 10SM CLR 34/09 A2998 RMK AO2 PK WND 17028/21,2025-09-12T21:44:46Z,2025-09-12T17:44:46Z,Syracuse Hamilton County Municipal Airport,37.997113,-101.748218,US,US-KS
K3K7,"Leoti/Hoard Mem, KS, US",2025-09-12T21:35:00Z,2025-09-12 21:35:00,VFR,31,12,190,12,26,NA,1015.7,METAR K3K7 122135Z AUTO 19012G26KT 10SM CLR 31/12 A2999 RMK AO2 PK WND 19026/33,2025-09-12T21:44:46Z,2025-09-12T17:44:46Z,Mark Hoard Memorial Airport,38.457001,-101.352997,US,US-KS
K3LF,"Litchfield Muni, IL, US",2025-09-12T21:35:00Z,2025-09-12 21:35:00,VFR,32.2,13.9,0,0,0,NA,1019,METAR K3LF 122135Z AUTO 00000KT 10SM CLR 32/14 A3009 RMK AO2 T03220139,2025-09-12T21:44:46Z,2025-09-12T17:44:46Z,Litchfield Municipal Airport,39.162498,-89.674599,US,US-IL
K3R7,"Jennings Arpt, LA, US",2025-09-12T21:35:00Z,2025-09-12 21:35:00,VFR,32.6,17.2,VAR,NA,0,NA,1017.4,METAR K3R7 122135Z AUTO 10SM SCT090 33/17 A3004 RMK AO2 T03260172,2025-09-12T21:44:46Z,2025-09-12T17:44:46Z,Jennings Airport,30.242700576782227,-92.67340087890624,US,US-LA
K3S8,"Grants Pass Arpt, OR, US",2025-09-12T21:35:00Z,2025-09-12 14:35:00,VFR,26,13,0,0,0,NA,1016,METAR K3S8 122135Z AUTO 00000KT 10SM CLR 26/13 A3000 RMK AO2,2025-09-12T21:44:46Z,2025-09-12T17:44:46Z,Grants Pass Airport,42.510101,-123.388,US,US-OR
K3T5,"LaGrange/Fayette Rgnl, TX, US",2025-09-12T21:35:00Z,2025-09-12 21:35:00,VFR,34.4,17.1,VAR,6,0,9,1016.3,METAR K3T5 122135Z AUTO VRB06KT 9SM FEW065 34/17 A3001 RMK AO2 T03440171 $,2025-09-12T21:44:46Z,2025-09-12T17:44:46Z,Fayette Regional Air Center Airport,29.908001,-96.949997,US,US-TX
K3U3,"Anaconda/Bowman Fld, MT, US",2025-09-12T21:35:00Z,2025-09-12 21:35:00,VFR,20.5,4.5,90,6,0,NA,1017.4,METAR K3U3 122135Z AUTO 09006KT 10SM FEW260 20/04 A3004 RMK AO2 T02050045 $,2025-09-12T21:44:46Z,2025-09-12T17:44:46Z,Bowman Field,46.153099,-112.867996,US,US-MT
K3W7,"Electric City/Grand Coulee Arpt, WA, US",2025-09-12T21:35:00Z,2025-09-12 14:35:00,VFR,27,13,260,8,0,9,1013.6,METAR K3W7 122135Z AUTO 26008KT 9SM CLR 27/13 A2993 RMK AO2,2025-09-12T21:44:46Z,2025-09-12T17:44:46Z,Grand Coulee Dam Airport,47.922000885,-119.083000183,US,US-WA
K40U,"Manila Arpt, UT, US",2025-09-12T21:35:00Z,2025-09-12 21:35:00,VFR,23.3,3.7,120,20,26,NA,1017,METAR K40U 122135Z AUTO 12020G26KT 10SM CLR 23/04 A3003 RMK AO2 LTG DSNT S T02330037,2025-09-12T21:44:46Z,2025-09-12T17:44:46Z,Manila Airport,40.98609924316406,-109.6780014038086,US,US-UT
K42A,"Melbourne Muni, AR, US",2025-09-12T21:15:00Z,2025-09-12 21:15:00,VFR,NA,NA,220,5,0,NA,1017.7,METAR K42A 122115Z AUTO 22005KT 10SM CLR A3005 RMK AO2,2025-09-12T21:44:46Z,2025-09-12T17:44:46Z,Melbourne Municipal John E Miller Field,36.070999,-91.830101,US,US-AR
K42A,"Melbourne Muni, AR, US",2025-09-12T21:35:00Z,2025-09-12 21:35:00,VFR,NA,NA,VAR,5,0,NA,1017.7,METAR K42A 122135Z AUTO VRB05KT 10SM CLR A3005 RMK AO2,2025-09-12T21:55:31Z,2025-09-12T17:55:31Z,Melbourne Municipal John E Miller Field,36.070999,-91.830101,US,US-AR
K42J,"Keystone Airpark, FL, US",2025-09-12T21:35:00Z,2025-09-12 21:35:00,VFR,28,20,70,11,18,NA,1016,METAR K42J 122135Z AUTO 07011G18KT 10SM CLR 28/20 A3000 RMK A01,2025-09-12T21:44:46Z,2025-09-12T17:44:46Z,Keystone Heights Airport,29.8447,-82.047501,US,US-FL
K46D,"Carrington Muni, ND, US",2025-09-12T21:35:00Z,2025-09-12 21:35:00,MVFR,28,21,80,6,0,5,1013.3,METAR K46D 122135Z AUTO 08006KT 5SM HZ CLR 28/21 A2992 RMK A01,2025-09-12T21:44:46Z,2025-09-12T17:44:46Z,Carrington Municipal Airport,47.451099,-99.1511,US,US-ND
K46U,"Alpine Arpt, WY, US",2025-09-12T21:35:00Z,2025-09-12 21:35:00,VFR,22,1,0,0,0,9,1018,METAR K46U 122135Z AUTO 00000KT 9SM FEW100 22/01 A3006 RMK A01,2025-09-12T21:44:46Z,2025-09-12T17:44:46Z,Alpine Airport,43.181876,-111.038657,US,US-WY
K48A,"Cochran Arpt, GA, US",2025-09-12T21:35:00Z,2025-09-12 21:35:00,VFR,28.7,15.5,60,9,0,NA,1018.4,METAR K48A 122135Z AUTO 06009KT 10SM SCT070 SCT100 29/16 A3007 RMK AO2 T02870155,2025-09-12T21:44:46Z,2025-09-12T17:44:46Z,Cochran Airport,32.3993988,-83.27590179,US,US-GA
K48I,"Sutton/Braxton Cnty, WV, US",2025-09-12T21:35:00Z,2025-09-12 21:35:00,VFR,27.3,7.7,0,0,0,NA,1021.1,METAR K48I 122135Z AUTO 00000KT 10SM CLR 27/08 A3015 RMK AO2 T02730077,2025-09-12T21:44:46Z,2025-09-12T17:44:46Z,Braxton County Airport,38.68700027,-80.65180206,US,US-WV
K49A,"Ellijay/Gilmer Cnty, GA, US",2025-09-12T21:35:00Z,2025-09-12 21:35:00,VFR,27,22,0,0,0,NA,1020.4,METAR K49A 122135Z AUTO 00000KT 10SM CLR 27/22 A3013 RMK AO2,2025-09-12T21:44:46Z,2025-09-12T17:44:46Z,Gilmer County Airport,34.627899169921875,-84.52490234375,US,US-GA
K49B,"Sturgis Muni, SD, US",2025-09-12T21:15:00Z,2025-09-12 21:15:00,VFR,30,10,VAR,4,0,NA,1014.3,METAR K49B 122115Z AUTO VRB04KT 10SM CLR 30/10 A2995 RMK AO2,2025-09-12T21:44:46Z,2025-09-12T17:44:46Z,Sturgis Municipal Airport,44.417999,-103.375,US,US-SD
K49B,"Sturgis Muni, SD, US",2025-09-12T21:35:00Z,2025-09-12 21:35:00,VFR,29,10,0,0,11,NA,1014,METAR K49B 122135Z AUTO 00000G11KT 10SM CLR 29/10 A2994 RMK AO2,2025-09-12T21:55:31Z,2025-09-12T17:55:31Z,Sturgis Municipal Airport,44.417999,-103.375,US,US-SD
K4A6,"Scottsboro Muni, AL, US",2025-09-12T21:35:00Z,2025-09-12 21:35:00,VFR,29,17,VAR,4,0,NA,1019,METAR K4A6 122135Z AUTO VRB04KT 10SM CLR 29/17 A3009 RMK AO2,2025-09-12T21:44:46Z,2025-09-12T17:44:46Z,Scottsboro Municipal Word Field,34.688702,-86.005898,US,US-AL
K4A9,"Fort Payne/Isbell Fld, AL, US",2025-09-12T21:35:00Z,2025-09-12 21:35:00,VFR,29.2,14.4,100,7,0,NA,1019,METAR K4A9 122135Z AUTO 10007KT 10SM CLR 29/14 A3009 RMK AO2 T02920144,2025-09-12T21:44:46Z,2025-09-12T17:44:46Z,Isbell Field,34.473701,-85.721397,US,US-AL
K4F2,"Carthage/Panola Cnty, TX, US",2025-09-12T21:35:00Z,2025-09-12 21:35:00,VFR,34.1,18.3,0,0,0,NA,1017.7,METAR K4F2 122135Z AUTO 00000KT 10SM CLR 34/18 A3005 RMK AO2 T03410183,2025-09-12T21:44:46Z,2025-09-12T17:44:46Z,Panola County Sharpe Field,32.176102,-94.298798,US,US-TX
K4I3,"Mount Vernon/Knox Cnty, OH, US",2025-09-12T21:36:00Z,2025-09-12 21:36:00,VFR,28,9,10,4,0,NA,1021.4,METAR K4I3 122136Z 01004KT 10SM CLR 28/09 A3016 RMK AO2,2025-09-12T21:44:46Z,2025-09-12T17:44:46Z,Knox County Airport,40.328701,-82.523804,US,US-OH
K4M3,"Carlisle Muni, AR, US",2025-09-12T21:35:00Z,2025-09-12 21:35:00,NA,33,17,220,3,0,NA,1017,METAR K4M3 122135Z AUTO 22003KT 10SM 33/17 A3003 RMK A01,2025-09-12T21:44:46Z,2025-09-12T17:44:46Z,Carlisle Municipal Airport,34.808201,-91.712097,US,US-AR
K4M9,"Corning Muni, AR, US",2025-09-12T21:35:00Z,2025-09-12 21:35:00,VFR,36,22,VAR,3,0,NA,1017.4,METAR K4M9 122135Z AUTO VRB03KT 10SM CLR 36/22 A3004 RMK A01,2025-09-12T21:44:46Z,2025-09-12T17:44:46Z,Corning Municipal Airport,36.404202,-90.647903,US,US-AR
K4O4,"Idabel/McCurtain Rgnl, OK, US",2025-09-12T21:35:00Z,2025-09-12 21:35:00,VFR,33,20,0,0,0,NA,1018,METAR K4O4 122135Z AUTO 00000KT 10SM CLR 33/20 A3006 RMK AO2,2025-09-12T21:44:46Z,2025-09-12T17:44:46Z,McCurtain County Regional Airport,33.909401,-94.859398,US,US-OK
K4R5,"La Pointe/Madeline Isl Arpt, WI, US",2025-09-12T21:35:00Z,2025-09-12 21:35:00,VFR,17.4,13.9,40,4,0,NA,1018,METAR K4R5 122135Z AUTO 04004KT 10SM CLR 17/14 A3006 RMK AO2 LTG DSNT SW T01740139,2025-09-12T21:44:46Z,2025-09-12T17:44:46Z,Major Gilbert Field Airport,46.7887,-90.758698,US,US-WI
K4S1,"Gold Beach Muni, OR, US",2025-09-12T21:34:00Z,2025-09-12 14:34:00,VFR,17,13,320,11,0,6,1016.3,METAR K4S1 122134Z AUTO 32011KT 6SM HZ CLR 17/13 A3001 RMK AO2,2025-09-12T21:44:46Z,2025-09-12T17:44:46Z,Gold Beach Municipal Airport,42.41339874,-124.4240036,US,US-OR
K4S2,"Hood River/Jernstedt Arfld, OR, US",2025-09-12T21:35:00Z,2025-09-12 21:35:00,VFR,23,11,300,6,0,NA,1014.3,METAR K4S2 122135Z AUTO 30006KT 10SM CLR 23/11 A2995 RMK AO2,2025-09-12T21:44:46Z,2025-09-12T17:44:46Z,Ken Jernstedt Airfield,45.67259979,-121.5360031,US,US-OR
K4V0,"Rangely Arpt, CO, US",2025-09-12T21:35:00Z,2025-09-12 21:35:00,MVFR,15.3,13,0,0,0,5,1021.4,METAR K4V0 122135Z AUTO 00000KT 5SM /VCTSRA SCT060 BKN075 OVC090 15/13 A3016 RMK AO2 LTG DSNT S AND SW T01530130,2025-09-12T21:44:46Z,2025-09-12T17:44:46Z,Rangely Airport,40.094002,-108.763,US,US-CO
K4V1,"Walsenburg/Spanish Peaks Arfld, CO, US",2025-09-12T21:35:00Z,2025-09-12 21:35:00,VFR,26,7,VAR,4,0,NA,1020.1,METAR K4V1 122135Z AUTO VRB04KT 10SM SCT110 26/07 A3012 RMK AO2 LTG DSNT S-W,2025-09-12T21:44:46Z,2025-09-12T17:44:46Z,Spanish Peaks Airfield,37.696602,-104.783997,US,US-CO
K54J,"DeFuniak Springs Muni, FL, US",2025-09-12T21:35:00Z,2025-09-12 21:35:00,VFR,32.2,16,50,6,0,NA,1017,METAR K54J 122135Z AUTO 05006KT 10SM SCT080 SCT110 32/16 A3003 RMK AO2 T03220160,2025-09-12T21:44:47Z,2025-09-12T17:44:47Z,Defuniak Springs Airport,30.7313,-86.151604,US,US-FL
K57C,"East Troy Muni, WI, US",2025-09-12T21:35:00Z,2025-09-12 21:35:00,VFR,27,13.2,160,5,0,NA,1020.4,METAR K57C 122135Z AUTO 16005KT 10SM CLR 27/13 A3013 RMK AO2 T02700132,2025-09-12T21:44:47Z,2025-09-12T17:44:47Z,East Troy Municipal Airport,42.797199,-88.372597,US,US-WI
K5A6,"Winona/Montgomery Cnty, MS, US",2025-09-12T21:35:00Z,2025-09-12 21:35:00,VFR,33.7,16.1,30,5,0,NA,1017,METAR K5A6 122135Z AUTO 03005KT 10SM SCT120 34/16 A3003 RMK AO2 T03370161,2025-09-12T21:44:47Z,2025-09-12T17:44:47Z,Winona–Montgomery County Airport,33.465400699999996,-89.72920227,US,US-MS
K5A9,"Warm Springs/Roosevelt Muni, GA, US",2025-09-12T21:35:00Z,2025-09-12 21:35:00,VFR,29.5,15,80,5,0,NA,1019.4,METAR K5A9 122135Z AUTO 08005KT 10SM CLR 29/15 A3010 RMK AO2 T02950150,2025-09-12T21:44:47Z,2025-09-12T17:44:47Z,Roosevelt Memorial Airport,32.937904,-84.696467,US,US-GA
K5C1,"Boerne/Stage Fld, TX, US",2025-09-12T21:35:00Z,2025-09-12 21:35:00,VFR,32,13,0,0,0,NA,1018.4,METAR K5C1 122135Z AUTO 00000KT 10SM CLR 32/13 A3007 RMK AO1,2025-09-12T21:44:47Z,2025-09-12T17:44:47Z,Boerne Stage Field,29.7239,-98.694603,US,US-TX
K5H4,"Harvey Muni, ND, US",2025-09-12T21:35:00Z,2025-09-12 21:35:00,VFR,26,21,60,10,0,9,1014.3,METAR K5H4 122135Z AUTO 06010KT 9SM CLR 26/21 A2995 RMK AO2,2025-09-12T21:44:47Z,2025-09-12T17:44:47Z,Harvey Municipal Airport,47.791199,-99.931702,US,US-ND
K5R8,"DeQuincey Ind Arpk, LA, US",2025-09-12T21:35:00Z,2025-09-12 21:35:00,VFR,33.3,17.9,0,0,0,NA,1017.4,METAR K5R8 122135Z AUTO 00000KT 10SM CLR 33/18 A3004 RMK AO2 T03330179,2025-09-12T21:44:47Z,2025-09-12T17:44:47Z,De Quincy Industrial Airpark,30.441200256347656,-93.47350311279295,US,US-LA
K5T9,"Maverick County Arpt, TX, US",2025-09-12T21:35:00Z,2025-09-12 16:35:00,VFR,34,21,VAR,5,11,NA,1015,METAR K5T9 122135Z AUTO VRB05G11KT 10SM SCT060 SCT075 34/21 A2997 RMK A01,2025-09-12T21:44:47Z,2025-09-12T17:44:47Z,Maverick County Memorial International Airport,28.859766,-100.516682,US,US-TX
K65S,"Bonners Ferry/Boundary Cnty, ID, US",2025-09-12T21:35:00Z,2025-09-12 21:35:00,VFR,26,11,230,8,13,NA,1013.6,METAR K65S 122135Z AUTO 23008G13KT 10SM CLR 26/11 A2993 RMK AO2,2025-09-12T21:44:47Z,2025-09-12T17:44:47Z,Boundary County Airport,48.7258,-116.294998,US,US-ID
K66R,"Columbus/Well Arpt, TX, US",2025-09-12T21:35:00Z,2025-09-12 21:35:00,VFR,34,19.7,120,5,0,NA,1017,METAR K66R 122135Z AUTO 12005KT 10SM SCT060 SCT070 34/20 A3003 RMK AO2 T03400197,2025-09-12T21:44:47Z,2025-09-12T17:44:47Z,Robert R Wells Jr Airport,29.6411,-96.5158,US,US-TX
K6A1,"Butler Muni, GA, US",2025-09-12T21:35:00Z,2025-09-12 21:35:00,VFR,29.3,14,70,9,0,NA,1018.7,METAR K6A1 122135Z AUTO 07009KT 030V090 10SM SCT075 29/14 A3008 RMK AO2 T02930140,2025-09-12T21:44:47Z,2025-09-12T17:44:47Z,Butler Municipal Airport,32.569492,-84.245194,US,US-GA
K6B9,"Skaneateles Arpt, NY, US",2025-09-12T21:35:00Z,2025-09-12 21:35:00,VFR,23,13,360,4,0,NA,1022.1,METAR K6B9 122135Z AUTO 36004KT 10SM CLR 23/13 A3018 RMK AO2,2025-09-12T21:44:47Z,2025-09-12T17:44:47Z,Skaneateles Aero Drome,42.914001,-76.440804,US,US-NY
K6E5,"De Smet/Wilder Arpt, SD, US",2025-09-12T21:35:00Z,2025-09-12 21:35:00,VFR,NA,NA,80,13,0,9,1012.3,METAR K6E5 122135Z AUTO 08013KT 9SM CLR A2989 RMK AO2,2025-09-12T21:44:47Z,2025-09-12T17:44:47Z,Wilder Airport,44.433033,-97.558207,US,US-SD
K6I2,"Lebanon-Springfield/Hoerter Fld, KY, US",2025-09-12T21:35:00Z,2025-09-12 21:35:00,VFR,31,10,0,0,0,NA,1020.7,METAR K6I2 122135Z AUTO 00000KT 10SM FEW075 31/10 A3014 RMK AO2,2025-09-12T21:44:47Z,2025-09-12T17:44:47Z,Lebanon Springfield Airport - George Hoerter Field,37.633499,-85.241798,US,US-KY
K6L4,"Logan Cnty, WV, US",2025-09-12T21:35:00Z,2025-09-12 21:35:00,VFR,26,10,360,4,0,NA,1022.1,METAR K6L4 122135Z AUTO 36004KT 10SM CLR 26/10 A3018 RMK AO2,2025-09-12T21:44:47Z,2025-09-12T17:44:47Z,Logan County Airport,37.855701,-81.915901,US,US-WV
K6L4,"Logan Cnty, WV, US",2025-09-12T21:55:00Z,2025-09-12 21:55:00,VFR,25,9,360,5,0,NA,1022.1,METAR K6L4 122155Z AUTO 36005KT 10SM CLR 25/09 A3018 RMK AO2,2025-09-12T21:55:32Z,2025-09-12T17:55:32Z,Logan County Airport,37.855701,-81.915901,US,US-WV
K6R3,"Cleveland Muni, TX, US",2025-09-12T21:35:00Z,2025-09-12 21:35:00,VFR,33.3,18.5,0,0,0,NA,1017.7,METAR K6R3 122135Z AUTO 00000KT 10SM SCT060 33/19 A3005 RMK AO2 T03330185,2025-09-12T21:44:47Z,2025-09-12T17:44:47Z,Cleveland Municipal Airport,30.3564,-95.008003,US,US-TX
K6R6,"Dryden/Terrell Cnty, TX, US",2025-09-12T20:51:00Z,2025-09-12 20:51:00,NA,33.3,17.2,110,15,23,NA,1018,METAR K6R6 122051Z AUTO 11015G23KT 33/17 A3006 RMK AO1 PK WND 09027/2026 SLP141 T03330172 58023,2025-09-12T21:44:47Z,2025-09-12T17:44:47Z,Terrell County Airport,30.046,-102.212997,US,US-TX
K6R6,"Dryden/Terrell Cnty, TX, US",2025-09-12T21:51:00Z,2025-09-12 21:51:00,NA,33.3,16.1,110,18,26,NA,1017.4,METAR K6R6 122151Z AUTO 11018G26KT 33/16 A3004 RMK AO1 PK WND 12026/2150 SLP133 T03330161,2025-09-12T21:55:32Z,2025-09-12T17:55:32Z,Terrell County Airport,30.046,-102.212997,US,US-TX
K6S0,"Big Timber Arpt, MT, US",2025-09-12T20:45:00Z,2025-09-12 20:45:00,VFR,24,2,130,9,0,NA,1016.3,METAR K6S0 122045Z AUTO 13009KT 10SM CLR 24/02 A3001 RMK A01,2025-09-12T21:44:47Z,2025-09-12T17:44:47Z,Big Timber Airport,45.806681,-109.979153,US,US-MT
K6S0,"Big Timber Arpt, MT, US",2025-09-12T21:35:00Z,2025-09-12 21:35:00,VFR,22,2,240,15,23,NA,1017,METAR K6S0 122135Z AUTO 24015G23KT 10SM CLR 22/02 A3003 RMK A01,2025-09-12T21:55:32Z,2025-09-12T17:55:32Z,Big Timber Airport,45.806681,-109.979153,US,US-MT
K6S2,"Florence Muni, OR, US",2025-09-12T21:35:00Z,2025-09-12 14:35:00,MVFR,17,13,320,9,0,8,1017.4,METAR K6S2 122135Z AUTO 32009KT 8SM OVC020 17/13 A3004 RMK AO2,2025-09-12T21:44:47Z,2025-09-12T17:44:47Z,Florence Municipal Airport,43.98279953,-124.111000061,US,US-OR
K74V,"Roosevelt Muni, UT, US",2025-09-12T21:35:00Z,2025-09-12 15:35:00,VFR,22,8,90,17,0,NA,1015.7,METAR K74V 122135Z AUTO 09017KT 10SM CLR 22/08 A2999 RMK AO2 LTG DSNT S AND SW,2025-09-12T21:44:49Z,2025-09-12T17:44:49Z,Roosevelt Municipal Airport,40.278301,-110.051003,US,US-UT
K77S,"Creswell/Hobby Fld, OR, US",2025-09-12T21:35:00Z,2025-09-12 21:35:00,VFR,22,13,VAR,6,0,NA,1016.7,METAR K77S 122135Z AUTO VRB06KT 10SM CLR 22/13 A3002 RMK A01,2025-09-12T21:44:49Z,2025-09-12T17:44:49Z,Hobby Field,43.93080139160156,-123.00700378417967,US,US-OR
K79J,"Andalusia/Benton Fld, AL, US",2025-09-12T20:56:00Z,2025-09-12 20:56:00,VFR,34.4,13.9,10,6,15,NA,1016.7,METAR K79J 122056Z AUTO 01006G15KT 10SM CLR 34/14 A3002 RMK AO2 SLP161 T03440139 56016 TSNO,2025-09-12T21:44:49Z,2025-09-12T17:44:49Z,South Alabama Regional At Bill Benton Field Airport,31.3088,-86.393799,US,US-AL
K79S,"Fort Benton Arpt, MT, US",2025-09-12T21:35:00Z,2025-09-12 21:35:00,VFR,26.8,9.7,180,5,0,NA,1013.3,METAR K79S 122135Z AUTO 18005KT 10SM FEW270 27/10 A2992 RMK AO2 T02680097,2025-09-12T21:44:49Z,2025-09-12T17:44:49Z,Fort Benton Airport,47.84510040283203,-110.63600158691406,US,US-MT
K7L2,"Linton Muni, ND, US",2025-09-12T21:35:00Z,2025-09-12 21:35:00,VFR,32,19,130,7,0,9,1012.3,METAR K7L2 122135Z AUTO 13007KT 9SM FEW050 32/19 A2989 RMK AO2,2025-09-12T21:44:49Z,2025-09-12T17:44:49Z,Linton Municipal Airport,46.21829987,-100.2450027,US,US-ND
K7S0,"Ronan Aprt, MT, US",2025-09-12T21:35:00Z,2025-09-12 21:35:00,VFR,24,6,180,6,0,NA,1015.7,METAR K7S0 122135Z AUTO 18006KT 10SM CLR 24/06 A2999 RMK A01,2025-09-12T21:44:49Z,2025-09-12T17:44:49Z,Ronan Airport,47.56719970703125,-114.10099792480467,US,US-MT
K7W6,"Engelhard/Hyde Cnty, NC, US",2025-09-12T21:35:00Z,2025-09-12 21:35:00,VFR,23.1,15.1,40,9,0,NA,1019.7,METAR K7W6 122135Z AUTO 04009KT 10SM CLR 23/15 A3011 RMK AO2 T02310151,2025-09-12T21:44:49Z,2025-09-12T17:44:49Z,Hyde County Airport,35.562400817871094,-75.9552001953125,US,US-NC
K7W6,"Engelhard/Hyde Cnty, NC, US",2025-09-12T21:45:00Z,2025-09-12 21:45:00,VFR,23.4,15.5,30,9,16,NA,1019.7,METAR K7W6 122145Z AUTO 03009G16KT 10SM CLR 23/16 A3011 RMK AO2 T02340155,2025-09-12T21:55:33Z,2025-09-12T17:55:33Z,Hyde County Airport,35.562400817871094,-75.9552001953125,US,US-NC
K81R,"San Saba Muni, TX, US",2025-09-12T21:35:00Z,2025-09-12 21:35:00,VFR,33.3,15.2,120,4,0,NA,1018.4,METAR K81R 122135Z AUTO 12004KT 10SM SCT070 33/15 A3007 RMK AO2 PWINO T03330152,2025-09-12T21:44:49Z,2025-09-12T17:44:49Z,San Saba County Municipal Airport,31.235200881958008,-98.71700286865234,US,US-TX
K82C,"Mauston/New Lisbon Arpt, WI, US",2025-09-12T21:35:00Z,2025-09-12 21:35:00,VFR,27.5,16.7,150,8,0,NA,1018.4,METAR K82C 122135Z AUTO 15008KT 10SM CLR 28/17 A3007 RMK AO2 T02750167,2025-09-12T21:44:49Z,2025-09-12T17:44:49Z,Mauston New Lisbon Union Airport,43.838699,-90.137703,US,US-WI
K82V,"Pine Bluffs Muni, WY, US",2025-09-12T21:35:00Z,2025-09-12 21:35:00,NA,29,1,260,3,0,NA,1017.4,METAR K82V 122135Z AUTO 26003KT 10SM 29/01 A3004 RMK AO2,2025-09-12T21:44:49Z,2025-09-12T17:44:49Z,Pine Bluffs Municipal Airport,41.153301239,-104.129997253,US,US-WY
K8A3,"Livingston Muni, TN, US",2025-09-12T21:35:00Z,2025-09-12 21:35:00,VFR,27,11,20,7,0,NA,1020.4,METAR K8A3 122135Z AUTO 02007KT 10SM CLR 27/11 A3013 RMK A01,2025-09-12T21:44:49Z,2025-09-12T17:44:49Z,Livingston Municipal Airport,36.412102,-85.3116,US,US-TN
K8B0,"Rangeley/Bean Muni, ME, US",2025-09-12T21:35:00Z,2025-09-12 21:35:00,VFR,19,4,230,5,0,NA,1022.8,METAR K8B0 122135Z AUTO 23005KT 10SM CLR 19/04 A3020 RMK AO2,2025-09-12T21:44:49Z,2025-09-12T17:44:49Z,Steven A. Bean Municipal Airport,44.991902,-70.664597,US,US-ME
K8D3,"Sisseton Muni, SD, US",2025-09-12T20:56:00Z,2025-09-12 20:56:00,NA,23.3,18.9,160,12,28,NA,1010.9,METAR K8D3 122056Z AUTO 16012G28KT 23/19 A2985 RMK AO1 PK WND 16028/2054 SLP094 P0001 60007 T02330189 58015,2025-09-12T21:44:49Z,2025-09-12T17:44:49Z,Sisseton Municipal Airport,45.669925,-96.994215,US,US-SD
K8T6,"George West/Live Oak Cnty, TX, US",2025-09-12T21:35:00Z,2025-09-12 21:35:00,VFR,34,23,130,11,0,NA,1015.3,METAR K8T6 122135Z AUTO 13011KT 10SM FEW120 34/23 A2998 RMK AO2,2025-09-12T21:44:49Z,2025-09-12T17:44:49Z,Live Oak County Airport,28.362801,-98.116501,US,US-TX
K8V7,"Springfield Muni, CO, US",2025-09-12T21:15:00Z,2025-09-12 21:15:00,VFR,32,3,190,19,25,NA,1018,METAR K8V7 122115Z AUTO 19019G25KT 10SM CLR 32/03 A3006 RMK AO2,2025-09-12T21:44:49Z,2025-09-12T17:44:49Z,Springfield Municipal Airport,37.458698,-102.617996,US,US-CO
K8V7,"Springfield Muni, CO, US",2025-09-12T21:35:00Z,2025-09-12 21:35:00,VFR,31,4,170,18,25,NA,1017.7,METAR K8V7 122135Z AUTO 17018G25KT 10SM CLR 31/04 A3005 RMK AO2,2025-09-12T21:55:33Z,2025-09-12T17:55:33Z,Springfield Municipal Airport,37.458698,-102.617996,US,US-CO
K8W2,"New Market Arpt, VA, US",2025-09-12T21:35:00Z,2025-09-12 21:35:00,VFR,27,10.3,70,6,0,NA,1021.1,METAR K8W2 122135Z AUTO 07006KT 10SM CLR 27/10 A3015 RMK AO1 T02700103,2025-09-12T21:44:49Z,2025-09-12T17:44:49Z,New Market Airport,38.655683,-78.708995,US,US-VA
K8W2,"New Market Arpt, VA, US",2025-09-12T21:55:00Z,2025-09-12 21:55:00,VFR,26.5,9.6,90,5,0,NA,1021.1,METAR K8W2 122155Z AUTO 09005KT 10SM CLR 27/10 A3015 RMK AO1 T02650096,2025-09-12T21:55:33Z,2025-09-12T17:55:33Z,New Market Airport,38.655683,-78.708995,US,US-VA
K96D,"Walhalla Muni, ND, US",2025-09-12T21:35:00Z,2025-09-12 21:35:00,VFR,25,20,60,8,0,NA,1014,METAR K96D 122135Z AUTO 06008KT 10SM FEW027 25/20 A2994 RMK AO2,2025-09-12T21:44:49Z,2025-09-12T17:44:49Z,Walhalla Municipal Airport,48.94060134887695,-97.902801513671875,US,US-ND
K9A4,"Courtland(AAF), AL, US",2025-09-12T21:35:00Z,2025-09-12 21:35:00,VFR,30,14,50,4,0,NA,1019.4,METAR K9A4 122135Z AUTO 05004KT 10SM CLR 30/14 A3010 RMK AO2,2025-09-12T21:44:49Z,2025-09-12T17:44:49Z,Courtland Airport,34.659028,-87.350206,US,US-AL
K9L2,"Edwards AF Aux North, CA, US",2025-09-12T20:55:00Z,2025-09-12 20:55:00,VFR,29.1,6.5,210,3,0,8,1012.3,METAR K9L2 122055Z AUTO 21003KT 8SM CLR 29/07 A2989 RMK AO2 SLP101 T02910065 57021,2025-09-12T21:44:51Z,2025-09-12T17:44:51Z,Edwards Af Aux North Base Airport,34.99079895019531,-117.86299896240234,US,US-CA
K9L2,"Edwards AF Aux North, CA, US",2025-09-12T21:40:00Z,2025-09-12 21:40:00,VFR,29,5,280,3,0,6,1011.6,SPECI K9L2 122140Z AUTO 28003KT 6SM HZ CLR 29/05 A2987 RMK AO2 LTG DSNT N SLP095,2025-09-12T21:55:35Z,2025-09-12T17:55:35Z,Edwards Af Aux North Base Airport,34.99079895019531,-117.86299896240234,US,US-CA
K9S2,"Scobey Arpt, MT, US",2025-09-12T21:35:00Z,2025-09-12 21:35:00,VFR,29,13,340,9,0,NA,1013,METAR K9S2 122135Z AUTO 34009KT 10SM VCTS CLR 29/13 A2991 RMK AO2 LTG DSNT NE AND E,2025-09-12T21:44:50Z,2025-09-12T17:44:50Z,Scobey Airport,48.807565,-105.439253,US,US-MT
K9S9,"Lexington Arpt, OR, US",2025-09-12T21:35:00Z,2025-09-12 21:35:00,VFR,27,11,VAR,5,0,NA,1015.3,METAR K9S9 122135Z AUTO VRB05KT 10SM CLR 27/11 A2998 RMK AO2,2025-09-12T21:44:50Z,2025-09-12T17:44:50Z,Lexington Airport,45.454102,-119.690001,US,US-OR
K9V9,"Chamberlain Muni, SD, US",2025-09-12T21:35:00Z,2025-09-12 21:35:00,VFR,30,19.4,0,0,0,NA,1011.3,METAR K9V9 122135Z AUTO 00000KT 10SM CLR 30/19 A2986 RMK AO2 T03000194,2025-09-12T21:44:50Z,2025-09-12T17:44:50Z,Chamberlain Municipal Airport,43.7661018371582,-99.32129669189452,US,US-SD
K9Y1,"Killdeer/Dunn Cnty, ND, US",2025-09-12T21:35:00Z,2025-09-12 21:35:00,VFR,30,17,VAR,3,0,NA,1013,METAR K9Y1 122135Z AUTO VRB03KT 10SM CLR 30/17 A2991 RMK AO2,2025-09-12T21:44:50Z,2025-09-12T17:44:50Z,Weydahl Field,47.392799377441406,-102.77100372314452,US,US-ND
KA39,"Ak-Chin Rgnl, AZ, US",2025-09-12T21:35:00Z,2025-09-12 21:35:00,VFR,37,15,220,13,0,NA,1009.6,METAR KA39 122135Z AUTO 22013KT 10SM SCT095 SCT110 37/15 A2981 RMK AO2,2025-09-12T21:44:50Z,2025-09-12T17:44:50Z,Ak-Chin Regional Airport,32.990806,-111.918528,US,US-AZ
KAAA,"Lincoln/Logan Cnty, IL, US",2025-09-12T21:35:00Z,2025-09-12 21:35:00,VFR,31.9,12.5,120,3,0,NA,1018.4,METAR KAAA 122135Z AUTO 12003KT 10SM CLR 32/13 A3007 RMK AO2 T03190125,2025-09-12T21:44:50Z,2025-09-12T17:44:50Z,Logan County Airport,40.158699,-89.334999,US,US-IL
KAAF,"Apalachicola Muni, FL, US",2025-09-12T20:53:00Z,2025-09-12 16:53:00,VFR,29.4,18.9,130,6,0,NA,1016,METAR KAAF 122053Z AUTO 13006KT 10SM FEW075 29/19 A3000 RMK AO2 SLP158 T02940189 56014 $,2025-09-12T21:44:51Z,2025-09-12T17:44:51Z,Apalachicola Regional Airport,29.727501,-85.027496,US,US-FL
KAAF,"Apalachicola Muni, FL, US",2025-09-12T21:53:00Z,2025-09-12 17:53:00,VFR,29.4,17.8,170,3,0,NA,1016,METAR KAAF 122153Z AUTO 17003KT 10SM CLR 29/18 A3000 RMK AO2 SLP159 T02940178 $,2025-09-12T21:55:35Z,2025-09-12T17:55:35Z,Apalachicola Regional Airport,29.727501,-85.027496,US,US-FL
KAAO,"Wichita/Jabara Arpt, KS, US",2025-09-12T20:54:00Z,2025-09-12 20:54:00,VFR,33.3,17.2,180,13,20,NA,1017,METAR KAAO 122054Z AUTO 18013G20KT 10SM CLR 33/17 A3003 RMK AO2 SLP153 T03330172 58016,2025-09-12T21:44:51Z,2025-09-12T17:44:51Z,Colonel James Jabara Airport,37.74760056,-97.22109985,US,US-KS
KAAS,"Campbellsville/Taylor Cnty, KY, US",2025-09-12T21:35:00Z,2025-09-12 21:35:00,VFR,30,11,120,5,0,NA,1021.8,METAR KAAS 122135Z AUTO 12005KT 10SM SCT075 30/11 A3017 RMK AO1,2025-09-12T21:44:50Z,2025-09-12T17:44:50Z,Taylor County Airport,37.358254,-85.309434,US,US-KY
KAAT,"Alturas Muni, CA, US",2025-09-12T20:55:00Z,2025-09-12 20:55:00,VFR,21.7,6.7,VAR,3,0,NA,1018.7,METAR KAAT 122055Z AUTO VRB03KT 10SM BKN050 22/07 A3008 RMK AO2 SLP153 T02170067 58015,2025-09-12T21:44:51Z,2025-09-12T17:44:51Z,Alturas Municipal Airport,41.482736,-120.565671,US,US-CA
KABE,"Allentown/Lehigh Valley Intl, PA, US",2025-09-12T20:51:00Z,2025-09-12 16:51:00,VFR,25.6,12.2,VAR,4,0,NA,1021.4,METAR KABE 122051Z VRB04KT 10SM SCT090 26/12 A3016 RMK AO2 SLP211 T02560122 56013 $,2025-09-12T21:44:51Z,2025-09-12T17:44:51Z,Lehigh Valley International Airport,40.651773,-75.442797,US,US-PA
KABE,"Allentown/Lehigh Valley Intl, PA, US",2025-09-12T21:51:00Z,2025-09-12 17:51:00,VFR,25.6,12.8,VAR,4,0,NA,1021.4,METAR KABE 122151Z VRB04KT 10SM SCT060 BKN085 26/13 A3016 RMK AO2 SLP211 T02560128 $,2025-09-12T21:55:35Z,2025-09-12T17:55:35Z,Lehigh Valley International Airport,40.651773,-75.442797,US,US-PA
KABI,"Abilene Rgnl, TX, US",2025-09-12T20:52:00Z,2025-09-12 15:52:00,VFR,34.4,13.3,160,16,23,NA,1018.7,METAR KABI 122052Z 16016G23KT 10SM CLR 34/13 A3008 RMK AO2 PK WND 12029/2004 SLP157 T03440133 56025 $,2025-09-12T21:44:51Z,2025-09-12T17:44:51Z,Abilene Regional Airport,32.4113006592,-99.6819000244,US,US-TX
KABI,"Abilene Rgnl, TX, US",2025-09-12T21:52:00Z,2025-09-12 16:52:00,VFR,34.4,12.2,130,15,22,NA,1018,METAR KABI 122152Z 13015G22KT 10SM CLR 34/12 A3006 RMK AO2 SLP152 T03440122 $,2025-09-12T21:55:35Z,2025-09-12T17:55:35Z,Abilene Regional Airport,32.4113006592,-99.6819000244,US,US-TX
KABQ,"Albuquerque Intl, NM, US",2025-09-12T20:52:00Z,2025-09-12 14:52:00,VFR,31.1,9.4,190,18,23,NA,1018.7,METAR KABQ 122052Z 19018G23KT 10SM SCT085 BKN250 31/09 A3008 RMK AO2 SLP092 CB DSNT SW-NW T03110094 57032,2025-09-12T21:44:51Z,2025-09-12T17:44:51Z,Albuquerque International Sunport,35.039976,-106.608925,US,US-NM
KABQ,"Albuquerque Intl, NM, US",2025-09-12T21:52:00Z,2025-09-12 15:52:00,VFR,29.4,9.4,170,17,24,NA,1018.4,METAR KABQ 122152Z 17017G24KT 10SM BKN080 BKN250 30/09 A3007 RMK AO2 SLP091 CB DSNT SW-NW T02940094,2025-09-12T21:55:35Z,2025-09-12T17:55:35Z,Albuquerque International Sunport,35.039976,-106.608925,US,US-NM
KABR,"Aberdeen Rgnl, SD, US",2025-09-12T20:53:00Z,2025-09-12 15:53:00,VFR,28.9,20,130,12,0,NA,1011.3,METAR KABR 122053Z AUTO 13012KT 10SM FEW035 29/20 A2986 RMK AO2 SLP102 T02890200 58002,2025-09-12T21:44:51Z,2025-09-12T17:44:51Z,Aberdeen Regional Airport,45.449100494384766,-98.42179870605467,US,US-SD
KABR,"Aberdeen Rgnl, SD, US",2025-09-12T21:53:00Z,2025-09-12 16:53:00,VFR,27.8,20,160,11,0,NA,1010.9,METAR KABR 122153Z AUTO 16011KT 10SM CLR 28/20 A2985 RMK AO2 SLP100 T02780200,2025-09-12T21:55:35Z,2025-09-12T17:55:35Z,Aberdeen Regional Airport,45.449100494384766,-98.42179870605467,US,US-SD
KABY,"Albany/SW Georgia Rgnl, GA, US",2025-09-12T20:53:00Z,2025-09-12 16:53:00,VFR,33.3,14.4,40,7,17,NA,1017.7,METAR KABY 122053Z 04007G17KT 10SM SCT065 33/14 A3005 RMK AO2 SLP172 T03330144 56014,2025-09-12T21:44:51Z,2025-09-12T17:44:51Z,Southwest Georgia Regional Airport,31.532946,-84.196215,US,US-GA
KABY,"Albany/SW Georgia Rgnl, GA, US",2025-09-12T21:53:00Z,2025-09-12 17:53:00,VFR,31.7,15,20,8,0,NA,1017.7,METAR KABY 122153Z 02008KT 10SM CLR 32/15 A3005 RMK AO2 SLP173 T03170150,2025-09-12T21:55:35Z,2025-09-12T17:55:35Z,Southwest Georgia Regional Airport,31.532946,-84.196215,US,US-GA
KACB,"Bellaire/Antrim Cnty, MI, US",2025-09-12T21:35:00Z,2025-09-12 17:35:00,VFR,22.6,14.5,360,3,0,NA,1021.8,METAR KACB 122135Z AUTO 36003KT 10SM CLR 23/15 A3017 RMK AO2 T02260145,2025-09-12T21:44:50Z,2025-09-12T17:44:50Z,Antrim County Airport,44.988602,-85.198402,US,US-MI
KACJ,"Americus/Carter Rgnl, GA, US",2025-09-12T21:35:00Z,2025-09-12 21:35:00,VFR,30,16.5,90,5,0,NA,1017,METAR KACJ 122135Z AUTO 09005KT 10SM BKN065 30/16 A3003 RMK AO2 T03000165,2025-09-12T21:44:50Z,2025-09-12T17:44:50Z,Jimmy Carter Regional Airport,32.110802,-84.188904,US,US-GA
KACK,"Nantucket Mem Arpt, MA, US",2025-09-12T20:53:00Z,2025-09-12 16:53:00,VFR,19.4,10,50,11,0,NA,1022.8,METAR KACK 122053Z 05011KT 10SM CLR 19/10 A3020 RMK AO2 SLP226 T01940100 55000,2025-09-12T21:44:51Z,2025-09-12T17:44:51Z,Nantucket Memorial Airport,41.25310135,-70.06020355,US,US-MA
KACK,"Nantucket Mem Arpt, MA, US",2025-09-12T21:53:00Z,2025-09-12 17:53:00,VFR,17.8,11.1,60,9,0,NA,1022.8,METAR KACK 122153Z 06009KT 10SM CLR 18/11 A3020 RMK AO2 SLP226 T01780111,2025-09-12T21:55:35Z,2025-09-12T17:55:35Z,Nantucket Memorial Airport,41.25310135,-70.06020355,US,US-MA
KACP,"Oakdale/Parish Arpt, LA, US",2025-09-12T21:35:00Z,2025-09-12 21:35:00,VFR,35,17,0,0,0,NA,1017,METAR KACP 122135Z AUTO 00000KT 10SM SCT090 35/17 A3003 RMK AO2,2025-09-12T21:44:50Z,2025-09-12T17:44:50Z,Allen Parish Airport,30.750299,-92.688301,US,US-LA
KACQ,"Waseca Muni, MN, US",2025-09-12T21:35:00Z,2025-09-12 21:35:00,VFR,22,19,90,7,0,NA,1015.7,METAR KACQ 122135Z AUTO 09007KT 10SM SCT110 22/19 A2999 RMK AO2 LTG DSNT NE AND E PWINO,2025-09-12T21:44:50Z,2025-09-12T17:44:50Z,Waseca Municipal Airport,44.073502,-93.552902,US,US-MN
KACT,"Waco Rgnl, TX, US",2025-09-12T20:51:00Z,2025-09-12 15:51:00,VFR,33.9,18.9,200,8,0,NA,1018,METAR KACT 122051Z 20008KT 160V220 10SM FEW060 34/19 A3006 RMK AO2 SLP171 T03390189 56022,2025-09-12T21:44:51Z,2025-09-12T17:44:51Z,Waco Regional Airport,31.611299514770508,-97.230499267578125,US,US-TX
KACT,"Waco Rgnl, TX, US",2025-09-12T21:51:00Z,2025-09-12 16:51:00,VFR,33.3,18.3,130,6,0,NA,1017.4,METAR KACT 122151Z 13006KT 10SM FEW065 33/18 A3004 RMK AO2 SLP165 T03330183,2025-09-12T21:55:35Z,2025-09-12T17:55:35Z,Waco Regional Airport,31.611299514770508,-97.230499267578125,US,US-TX
KACV,"Arcata Arpt, CA, US",2025-09-12T21:35:00Z,2025-09-12 14:35:00,IFR,15.6,12.8,300,6,0,NA,1016.7,SPECI KACV 122135Z AUTO 30006KT 10SM OVC009 16/13 A3002 RMK AO2 T01560128,2025-09-12T21:44:50Z,2025-09-12T17:44:50Z,California Redwood Coast-Humboldt County Airport,40.978101,-124.109,US,US-CA
KACV,"Arcata Arpt, CA, US",2025-09-12T21:53:00Z,2025-09-12 14:53:00,IFR,15.6,12.8,320,8,0,NA,1016.7,METAR KACV 122153Z AUTO 32008KT 10SM OVC009 16/13 A3002 RMK AO2 SLP171 T01560128,2025-09-12T21:55:35Z,2025-09-12T17:55:35Z,California Redwood Coast-Humboldt County Airport,40.978101,-124.109,US,US-CA
KACY,"Atlantic City Intl, NJ, US",2025-09-12T20:54:00Z,2025-09-12 16:54:00,VFR,22.8,15,80,6,0,NA,1021.8,METAR KACY 122054Z 08006KT 10SM FEW080 23/15 A3017 RMK AO2 SLP217 T02280150 56004,2025-09-12T21:44:51Z,2025-09-12T17:44:51Z,Atlantic City International Airport,39.45759963989258,-74.57720184326172,US,US-NJ
KACZ,"Wallace/Henderson Fld, NC, US",2025-09-12T21:30:00Z,2025-09-12 21:30:00,VFR,26.3,16.2,30,8,17,NA,1019,METAR KACZ 122130Z AUTO 03008G17KT 10SM SCT043 SCT060 26/16 A3009 RMK AO2 T02630162,2025-09-12T21:44:51Z,2025-09-12T17:44:51Z,Henderson Field,34.717899,-78.003601,US,US-NC
KACZ,"Wallace/Henderson Fld, NC, US",2025-09-12T21:40:00Z,2025-09-12 21:40:00,VFR,26.1,16.2,30,11,16,NA,1019,METAR KACZ 122140Z AUTO 03011G16KT 10SM SCT043 SCT060 26/16 A3009 RMK AO2 T02610162,2025-09-12T21:55:35Z,2025-09-12T17:55:35Z,Henderson Field,34.717899,-78.003601,US,US-NC
KADC,"Wadena Muni, MN, US",2025-09-12T21:36:00Z,2025-09-12 21:36:00,VFR,18,16,80,6,0,NA,1014.3,METAR KADC 122136Z AUTO 08006KT 10SM CLR 18/16 A2995 RMK AO2,2025-09-12T21:44:50Z,2025-09-12T17:44:50Z,Wadena Municipal Airport,46.450298,-95.210999,US,US-MN
KADG,"Adrian/Lenawee Cnty, MI, US",2025-09-12T20:53:00Z,2025-09-12 16:53:00,VFR,27.2,10.6,170,4,0,NA,1022.1,METAR KADG 122053Z AUTO 17004KT 10SM FEW075 27/11 A3018 RMK AO2 SLP218 T02720106 56018,2025-09-12T21:44:51Z,2025-09-12T17:44:51Z,Lenawee County Airport,41.866205,-84.077983,US,US-MI
KADG,"Adrian/Lenawee Cnty, MI, US",2025-09-12T21:53:00Z,2025-09-12 17:53:00,VFR,26.7,10.6,VAR,4,0,NA,1021.8,METAR KADG 122153Z AUTO VRB04KT 10SM CLR 27/11 A3017 RMK AO2 SLP215 T02670106,2025-09-12T21:55:35Z,2025-09-12T17:55:35Z,Lenawee County Airport,41.866205,-84.077983,US,US-MI
KADH,"Ada Muni, OK, US",2025-09-12T21:35:00Z,2025-09-12 16:35:00,VFR,34,22,160,7,0,NA,1018.4,METAR KADH 122135Z AUTO 16007KT 10SM CLR 34/22 A3007 RMK AO2,2025-09-12T21:44:50Z,2025-09-12T17:44:50Z,Ada Regional Airport,34.805214,-96.671988,US,US-OK
KADM,"Ardmore Muni, OK, US",2025-09-12T20:50:00Z,2025-09-12 15:50:00,VFR,34,18,0,0,0,NA,1018,METAR KADM 122050Z 00000KT 10SM SCT060 34/18 A3006,2025-09-12T21:44:51Z,2025-09-12T17:44:51Z,Ardmore Municipal Airport,34.30301,-97.0196342,US,US-OK
KADS,"Dallas/Addison Arpt, TX, US",2025-09-12T20:47:00Z,2025-09-12 15:47:00,VFR,34,16,170,6,0,NA,1018.4,METAR KADS 122047Z 17006KT 10SM SCT060 34/16 A3007,2025-09-12T21:44:51Z,2025-09-12T17:44:51Z,Addison Airport,32.9686012268,-96.8364028931,US,US-TX
KADS,"Dallas/Addison Arpt, TX, US",2025-09-12T21:47:00Z,2025-09-12 16:47:00,VFR,35,16,150,11,0,NA,1017.7,METAR KADS 122147Z 15011KT 10SM SCT065 BKN090 35/16 A3005,2025-09-12T21:55:35Z,2025-09-12T17:55:35Z,Addison Airport,32.9686012268,-96.8364028931,US,US-TX
KADT,"Atwood/Rollins Cnty, KS, US",2025-09-12T21:30:00Z,2025-09-12 21:30:00,VFR,35.9,6.5,200,16,26,NA,1015,METAR KADT 122130Z AUTO 20016G26KT 10SM CLR 36/07 A2997 RMK AO2 T03590065,2025-09-12T21:44:51Z,2025-09-12T17:44:51Z,Atwood-Rawlins City-County Airport,39.841209,-101.043248,US,US-KS
KADU,"Audubon Cnty Arpt, IA, US",2025-09-12T21:35:00Z,2025-09-12 21:35:00,VFR,32,18,170,11,17,NA,1013.3,METAR KADU 122135Z AUTO 17011G17KT 10SM SCT010 SCT033 BKN046 32/18 A2992 RMK AO2 PWINO,2025-09-12T21:44:50Z,2025-09-12T17:44:50Z,Audubon County Airport,41.701401,-94.920502,US,US-IA
KADW,"Andrews AFB, MD, US",2025-09-12T20:55:00Z,2025-09-12 16:55:00,VFR,25.8,11.2,60,6,0,NA,1020.7,METAR KADW 122055Z AUTO 06006KT 10SM CLR 26/11 A3014 RMK AO2 SLP212 T02580112 57006 TSNO $,2025-09-12T21:44:51Z,2025-09-12T17:44:51Z,Joint Base Andrews,38.810799,-76.866997,US,US-MD
KAEG,"Albuquerque/Double Eagle Arpt, NM, US",2025-09-12T20:50:00Z,2025-09-12 20:50:00,VFR,26,7,240,10,16,NA,1020.4,METAR KAEG 122050Z 24010G16KT 10SM VCTS BKN095 26/07 A3013 RMK LTG VC AND DSNT W AND NW,2025-09-12T21:44:51Z,2025-09-12T17:44:51Z,Double Eagle II Airport,35.145198822021484,-106.79499816894533,US,US-NM
KAEG,"Albuquerque/Double Eagle Arpt, NM, US",2025-09-12T21:47:00Z,2025-09-12 21:47:00,VFR,28,6,200,20,27,NA,1019.7,METAR KAEG 122147Z 20020G27KT 10SM VCTS BKN085 28/06 A3011 RMK LTG VC AND DSNT SW,2025-09-12T21:55:35Z,2025-09-12T17:55:35Z,Double Eagle II Airport,35.145198822021484,-106.79499816894533,US,US-NM
KAEJ,"Buena Vista/Central Colorado Rgnl, CO, US",2025-09-12T21:35:00Z,2025-09-12 21:35:00,NA,12.2,9.2,90,4,0,NA,1027.2,METAR KAEJ 122135Z AUTO 09004KT BKN070 BKN080 BKN095 12/09 A3033 RMK AO2 T01220092 PWINO,2025-09-12T21:44:50Z,2025-09-12T17:44:50Z,Central Colorado Regional Airport,38.812906,-106.120062,US,US-CO
KAEL,"Albert Lea Muni, MN, US",2025-09-12T21:35:00Z,2025-09-12 16:35:00,VFR,26,19,130,11,0,NA,1015,METAR KAEL 122135Z AUTO 13011KT 10SM CLR 26/19 A2997 RMK AO2 TSNO,2025-09-12T21:44:50Z,2025-09-12T17:44:50Z,Albert Lea Municipal Airport,43.68149948,-93.36720276,US,US-MN
KAEX,"Alexandria Intl, LA, US",2025-09-12T20:53:00Z,2025-09-12 15:53:00,VFR,33.3,18.9,160,4,0,NA,1017.4,METAR KAEX 122053Z 16004KT 10SM CLR 33/19 A3004 RMK AO2 SLP174 T03330189 56022,2025-09-12T21:44:51Z,2025-09-12T17:44:51Z,Alexandria International Airport,31.3274,-92.549797,US,US-LA
KAEX,"Alexandria Intl, LA, US",2025-09-12T21:53:00Z,2025-09-12 16:53:00,VFR,33.9,18.9,80,3,0,NA,1017,METAR KAEX 122153Z 08003KT 10SM CLR 34/19 A3003 RMK AO2 SLP172 T03390189,2025-09-12T21:55:35Z,2025-09-12T17:55:35Z,Alexandria International Airport,31.3274,-92.549797,US,US-LA
KAFF,"Air Force Academy Arfld, CO, US",2025-09-12T20:55:00Z,2025-09-12 14:55:00,VFR,23.3,6.1,270,3,0,NA,1021.4,METAR KAFF 122055Z 27003KT 10SM VCSH FEW080 SCT120 BKN190 23/06 A3016 RMK AO2A SLP116 60000 T02330061 57015,2025-09-12T21:44:51Z,2025-09-12T17:44:51Z,USAF Academy Airfield,38.972497,-104.821125,US,US-CO
KAFJ,"Washington Cnty Arpt, PA, US",2025-09-12T20:56:00Z,2025-09-12 16:56:00,VFR,27.8,8.9,VAR,4,0,8,1022.4,METAR KAFJ 122056Z AUTO VRB04KT 8SM CLR 28/09 A3019 RMK AO2 SLP218 T02780089 56017 $,2025-09-12T21:44:51Z,2025-09-12T17:44:51Z,Washington County Airport,40.136501,-80.290199,US,US-PA
KAFK,"Nebraska City Muni, NE, US",2025-09-12T21:35:00Z,2025-09-12 21:35:00,VFR,34.1,20.2,200,15,0,NA,1013.3,METAR KAFK 122135Z AUTO 20015KT 10SM CLR 34/20 A2992 RMK AO2 T03410202,2025-09-12T21:44:50Z,2025-09-12T17:44:50Z,Nebraska City Municipal Airport,40.606899,-95.8657,US,US-NE
KAFN,"Jaffrey Muni, NH, US",2025-09-12T20:52:00Z,2025-09-12 16:52:00,VFR,22.2,7.2,VAR,NA,0,NA,1022.4,METAR KAFN 122052Z AUTO 10SM CLR 22/07 A3019 RMK AO2 SLP228 T02220072 56011,2025-09-12T21:44:51Z,2025-09-12T17:44:51Z,Jaffrey Airfield Silver Ranch Airport,42.805099,-72.002998,US,US-NH
KAFN,"Jaffrey Muni, NH, US",2025-09-12T21:52:00Z,2025-09-12 17:52:00,VFR,22.8,7.2,0,0,0,NA,1022.4,METAR KAFN 122152Z AUTO 00000KT 10SM CLR 23/07 A3019 RMK AO2 SLP228 T02280072,2025-09-12T21:55:35Z,2025-09-12T17:55:35Z,Jaffrey Airfield Silver Ranch Airport,42.805099,-72.002998,US,US-NH
KAFO,"Afton Muni, WY, US",2025-09-12T21:35:00Z,2025-09-12 15:35:00,VFR,13,7,320,11,21,7,1019,METAR KAFO 122135Z AUTO 32011G21KT 7SM -RA SCT035 BKN070 OVC090 13/07 A3009 RMK AO2,2025-09-12T21:44:50Z,2025-09-12T17:44:50Z,Afton Municipal Airport,42.7112007141,-110.942001343,US,US-WY
KAFW,"Fort Worth/Alliance Arpt, TX, US",2025-09-12T20:53:00Z,2025-09-12 15:53:00,VFR,33.9,16.7,150,12,16,NA,1017.7,METAR KAFW 122053Z 15012G16KT 10SM FEW070 FEW100 SCT250 34/17 A3005 RMK AO2 SLP160 T03390167 56021,2025-09-12T21:44:51Z,2025-09-12T17:44:51Z,Perot Field/Fort Worth Alliance Airport,32.99044,-97.31947,US,US-TX
KAFW,"Fort Worth/Alliance Arpt, TX, US",2025-09-12T21:53:00Z,2025-09-12 16:53:00,VFR,34.4,16.7,140,12,15,NA,1017.4,METAR KAFW 122153Z 14012G15KT 10SM FEW070 FEW100 SCT250 34/17 A3004 RMK AO2 SLP154 T03440167,2025-09-12T21:55:35Z,2025-09-12T17:55:35Z,Perot Field/Fort Worth Alliance Airport,32.99044,-97.31947,US,US-TX
KAGC,"Pittsburgh/Allegheny Cnty, PA, US",2025-09-12T20:53:00Z,2025-09-12 16:53:00,VFR,26.7,8.9,0,0,0,NA,1021.4,METAR KAGC 122053Z 00000KT 10SM CLR 27/09 A3016 RMK AO2 SLP209 T02670089 56016,2025-09-12T21:44:51Z,2025-09-12T17:44:51Z,Allegheny County Airport,40.354401,-79.930199,US,US-PA
KAGO,"Magnolia Muni, AR, US",2025-09-12T21:35:00Z,2025-09-12 16:35:00,VFR,34,20,0,0,0,NA,1017.4,METAR KAGO 122135Z AUTO 00000KT 10SM CLR 34/20 A3004 RMK A01,2025-09-12T21:44:50Z,2025-09-12T17:44:50Z,Magnolia Municipal Airport / Ralph C Weiser Field,33.228001,-93.217002,US,US-AR
KAGS,"Augusta Rgnl, GA, US",2025-09-12T20:53:00Z,2025-09-12 16:53:00,VFR,28.3,14.4,60,7,0,NA,1018,METAR KAGS 122053Z 06007KT 10SM BKN085 28/14 A3006 RMK AO2 SLP177 T02830144 56014 $,2025-09-12T21:44:51Z,2025-09-12T17:44:51Z,Augusta Regional At Bush Field,33.3699,-81.9645,US,US-GA
KAGS,"Augusta Rgnl, GA, US",2025-09-12T21:53:00Z,2025-09-12 17:53:00,VFR,28.9,13.9,30,8,0,NA,1018,METAR KAGS 122153Z 03008KT 10SM SCT090 29/14 A3006 RMK AO2 SLP176 T02890139 $,2025-09-12T21:55:35Z,2025-09-12T17:55:35Z,Augusta Regional At Bush Field,33.3699,-81.9645,US,US-GA
KAHN,"Athens/Epps Arpt, GA, US",2025-09-12T20:51:00Z,2025-09-12 16:51:00,VFR,28.3,15.6,100,6,0,NA,1019.7,METAR KAHN 122051Z 10006KT 10SM CLR 28/16 A3011 RMK AO2 SLP189 T02830156 56013,2025-09-12T21:44:51Z,2025-09-12T17:44:51Z,Athens Ben Epps Airport,33.948842,-83.325634,US,US-GA
KAHN,"Athens/Epps Arpt, GA, US",2025-09-12T21:51:00Z,2025-09-12 17:51:00,VFR,27.8,15,100,5,0,NA,1019.4,METAR KAHN 122151Z 10005KT 10SM CLR 28/15 A3010 RMK AO2 SLP187 T02780150,2025-09-12T21:55:35Z,2025-09-12T17:55:35Z,Athens Ben Epps Airport,33.948842,-83.325634,US,US-GA
KAHQ,"Wahoo Muni, NE, US",2025-09-12T21:35:00Z,2025-09-12 21:35:00,VFR,31.2,18.4,190,11,14,NA,1012.6,METAR KAHQ 122135Z AUTO 19011G14KT 10SM CLR 31/18 A2990 RMK AO2 T03120184,2025-09-12T21:44:50Z,2025-09-12T17:44:50Z,Wahoo Municipal Airport,41.2412986755,-96.59400177,US,US-NE
KAIA,"Alliance Muni, NE, US",2025-09-12T20:53:00Z,2025-09-12 14:53:00,VFR,31.7,7.2,VAR,3,0,NA,1014,METAR KAIA 122053Z AUTO VRB03KT 10SM CLR 32/07 A2994 RMK AO2 SLP094 T03170072 56019,2025-09-12T21:44:51Z,2025-09-12T17:44:51Z,Alliance Municipal Airport,42.052543,-102.803965,US,US-NE
KAIA,"Alliance Muni, NE, US",2025-09-12T21:53:00Z,2025-09-12 15:53:00,VFR,32.2,6.1,160,5,0,NA,1013.6,METAR KAIA 122153Z AUTO 16005KT 10SM CLR 32/06 A2993 RMK AO2 SLP092 T03220061,2025-09-12T21:55:35Z,2025-09-12T17:55:35Z,Alliance Municipal Airport,42.052543,-102.803965,US,US-NE
KAID,"Anderson Muni, IN, US",2025-09-12T21:35:00Z,2025-09-12 17:35:00,VFR,28.3,6.9,360,5,0,NA,1021.1,METAR KAID 122135Z AUTO 36005KT 10SM CLR 28/07 A3015 RMK AO2 T02830069,2025-09-12T21:44:50Z,2025-09-12T17:44:50Z,Anderson Municipal Darlington Field,40.10860061649999,-85.6129989624,US,US-IN
KAID,"Anderson Muni, IN, US",2025-09-12T21:55:00Z,2025-09-12 17:55:00,VFR,27.8,6.5,80,3,0,NA,1020.7,METAR KAID 122155Z AUTO 08003KT 10SM CLR 28/07 A3014 RMK AO2 T02780065,2025-09-12T21:55:35Z,2025-09-12T17:55:35Z,Anderson Municipal Darlington Field,40.10860061649999,-85.6129989624,US,US-IN
KAIG,"Antigo/Langlade Cnty, WI, US",2025-09-12T21:35:00Z,2025-09-12 21:35:00,VFR,21.7,14.8,160,6,0,NA,1020.7,METAR KAIG 122135Z AUTO 16006KT 10SM CLR 22/15 A3014 RMK AO2 T02170148,2025-09-12T21:44:50Z,2025-09-12T17:44:50Z,Langlade County Airport,45.154202,-89.110703,US,US-WI
KAIK,"Aiken Muni, GA, US",2025-09-12T21:35:00Z,2025-09-12 17:35:00,VFR,28.5,14.1,40,11,0,NA,1019.4,METAR KAIK 122135Z AUTO 04011KT 10SM CLR 29/14 A3010 RMK AO2 T02850141,2025-09-12T21:44:50Z,2025-09-12T17:44:50Z,Aiken Regional Airport,33.649399,-81.684998,US,US-SC
KAIO,"Atlantic Muni, IA, US",2025-09-12T21:35:00Z,2025-09-12 16:35:00,VFR,31,20,200,8,15,NA,1013,METAR KAIO 122135Z AUTO 20008G15KT 10SM CLR 31/20 A2991 RMK AO2,2025-09-12T21:44:50Z,2025-09-12T17:44:50Z,Atlantic Municipal Airport,41.40729904,-95.04689789,US,US-IA
KAIT,"Aitkin Muni, MN, US",2025-09-12T21:36:00Z,2025-09-12 21:36:00,VFR,19,17,130,3,0,NA,1016,METAR KAIT 122136Z AUTO 13003KT 10SM CLR 19/17 A3000 RMK AO2 LTG DSNT SE,2025-09-12T21:44:50Z,2025-09-12T17:44:50Z,Aitkin Municipal Airport Steve Kurtz Field,46.548401,-93.676804,US,US-MN
KAIZ,"Kaiser/Lee Fine Mem, MO, US",2025-09-12T20:56:00Z,2025-09-12 15:56:00,VFR,35.6,16.1,VAR,3,0,NA,1017.7,METAR KAIZ 122056Z AUTO VRB03KT 10SM CLR 36/16 A3005 RMK AO2 SLP167 T03560161 56025,2025-09-12T21:44:51Z,2025-09-12T17:44:51Z,Lee C Fine Memorial Airport,38.0960006714,-92.54949951170002,US,US-MO
KAJG,"Mount Carmel Muni, IL, US",2025-09-12T21:35:00Z,2025-09-12 21:35:00,NA,31.6,12.7,130,5,0,NA,1019.7,METAR KAJG 122135Z AUTO 13005KT 10SM 32/13 A3011 RMK AO2 T03160127,2025-09-12T21:44:50Z,2025-09-12T17:44:50Z,Mount Carmel Municipal Airport,38.606499,-87.7267,US,US-IL
KAJO,"Corona Muni, CA, US",2025-09-12T20:56:00Z,2025-09-12 20:56:00,VFR,NA,NA,VAR,NA,0,NA,NA,METAR KAJO 122056Z AUTO 10SM CLR RMK AO2 SLPNO 6//// FZRANO $,2025-09-12T21:44:51Z,2025-09-12T17:44:51Z,Corona Municipal Airport,33.897701,-117.601997,US,US-CA
KAJR,"Cornelia/Habersham Cnty, GA, US",2025-09-12T21:35:00Z,2025-09-12 21:35:00,VFR,26,15.6,130,4,0,NA,1020.4,METAR KAJR 122135Z AUTO 13004KT 10SM SCT065 BKN070 26/16 A3013 RMK AO2 T02600156,2025-09-12T21:44:50Z,2025-09-12T17:44:50Z,Habersham County Airport,34.499901,-83.556702,US,US-GA
KAJZ,"Delta/Blake Fld, CO, US",2025-09-12T21:35:00Z,2025-09-12 21:35:00,VFR,24.4,10.4,60,11,0,NA,1019.4,METAR KAJZ 122135Z AUTO 06011KT 10SM VCTSRA CLR 24/10 A3010 RMK AO2 LTG DSNT NW T02440104,2025-09-12T21:44:50Z,2025-09-12T17:44:50Z,Blake Field,38.7864,-108.064003,US,US-CO
KAKH,"Gastonia Muni, NC, US",2025-09-12T20:54:00Z,2025-09-12 20:54:00,VFR,27.8,15,VAR,6,0,NA,1020.1,METAR KAKH 122054Z AUTO VRB06KT 10SM SCT060 28/15 A3012 RMK AO2 SLP194 T02780150 56015,2025-09-12T21:44:51Z,2025-09-12T17:44:51Z,Gastonia Municipal Airport,35.202598,-81.149902,US,US-NC
KAKO,"Akron/Plains Rgnl, CO, US",2025-09-12T20:53:00Z,2025-09-12 14:53:00,VFR,30.6,8.3,VAR,NA,0,NA,1016,METAR KAKO 122053Z AUTO 10SM CLR 31/08 A3000 RMK AO2 LTG DSNT S SLP095 T03060083 56021,2025-09-12T21:44:51Z,2025-09-12T17:44:51Z,Colorado Plains Regional Airport,40.1755981445,-103.222000122,US,US-CO
KAKO,"Akron/Plains Rgnl, CO, US",2025-09-12T21:53:00Z,2025-09-12 15:53:00,VFR,29.4,7.8,210,5,0,NA,1015.7,METAR KAKO 122153Z AUTO 21005KT 10SM SCT110 29/08 A2999 RMK AO2 LTG DSNT E SLP095 T02940078,2025-09-12T21:55:35Z,2025-09-12T17:55:35Z,Colorado Plains Regional Airport,40.1755981445,-103.222000122,US,US-CO
KAKQ,"Norfolk Muni, VA, US",2025-09-12T20:54:00Z,2025-09-12 20:54:00,VFR,24.4,15,100,7,0,NA,1020.7,METAR KAKQ 122054Z AUTO 10007KT 10SM FEW042 24/15 A3014 RMK AO2 SLP204 T02440150 55007,2025-09-12T21:44:51Z,2025-09-12T17:44:51Z,Wakefield Municipal Airport,36.98720169067383,-77.0010986328125,US,US-VA
KAKR,"Akron/Fulton Intl, OH, US",2025-09-12T20:54:00Z,2025-09-12 16:54:00,VFR,27.2,7.8,VAR,3,0,NA,1021.1,METAR KAKR 122054Z AUTO VRB03KT 10SM CLR 27/08 A3015 RMK AO2 SLP206 T02720078 56020 PWINO $,2025-09-12T21:44:51Z,2025-09-12T17:44:51Z,Akron Fulton International Airport,41.037355,-81.46784,US,US-OH
KALB,"Albany Intl, NY, US",2025-09-12T20:51:00Z,2025-09-12 16:51:00,VFR,25,10,340,5,0,NA,1021.4,METAR KALB 122051Z 34005KT 10SM FEW055 25/10 A3016 RMK AO2 SLP214 T02500100 56018,2025-09-12T21:44:51Z,2025-09-12T17:44:51Z,Albany International Airport,42.74829864501953,-73.80169677734375,US,US-NY
KALB,"Albany Intl, NY, US",2025-09-12T21:51:00Z,2025-09-12 17:51:00,VFR,24.4,10,VAR,4,0,NA,1021.4,METAR KALB 122151Z VRB04KT 10SM FEW070 24/10 A3016 RMK AO2 SLP213 T02440100,2025-09-12T21:55:35Z,2025-09-12T17:55:35Z,Albany International Airport,42.74829864501953,-73.80169677734375,US,US-NY
KALI,"Alice Intl, TX, US",2025-09-12T20:53:00Z,2025-09-12 15:53:00,VFR,31.7,22.8,110,15,25,NA,1016.3,METAR KALI 122053Z AUTO 11015G25KT 10SM CLR 32/23 A3001 RMK AO2 PK WND 11027/2043 WSHFT 1945 SLP160 60000 T03170228 56021,2025-09-12T21:44:51Z,2025-09-12T17:44:51Z,Alice International Airport,27.7409,-98.026901,US,US-TX
KALI,"Alice Intl, TX, US",2025-09-12T21:53:00Z,2025-09-12 16:53:00,VFR,32.2,23.3,170,8,17,NA,1015.7,METAR KALI 122153Z AUTO 17008G17KT 100V220 10SM FEW100 32/23 A2999 RMK AO2 SLP153 T03220233,2025-09-12T21:55:35Z,2025-09-12T17:55:35Z,Alice International Airport,27.7409,-98.026901,US,US-TX
KALM,"Alamogordo/White Sands Rgnl, NM, US",2025-09-12T21:35:00Z,2025-09-12 15:35:00,VFR,33,7,170,9,21,NA,1017,METAR KALM 122135Z AUTO 17009G21KT 10SM CLR 33/07 A3003 RMK AO2,2025-09-12T21:44:50Z,2025-09-12T17:44:50Z,Alamogordo White Sands Regional Airport,32.837818,-105.993149,US,US-NM
KALN,"Alton/St Louis Rgnl, IL, US",2025-09-12T20:50:00Z,2025-09-12 15:50:00,VFR,32,16,140,5,0,NA,1018.7,METAR KALN 122050Z 14005KT 10SM CLR 32/16 A3008,2025-09-12T21:44:51Z,2025-09-12T17:44:51Z,St Louis Regional Airport,38.89030075069999,-90.0459976196,US,US-IL
KALN,"Alton/St Louis Rgnl, IL, US",2025-09-12T21:50:00Z,2025-09-12 16:50:00,VFR,32,17,150,5,0,NA,1018.4,METAR KALN 122150Z 15005KT 10SM CLR 32/17 A3007,2025-09-12T21:55:35Z,2025-09-12T17:55:35Z,St Louis Regional Airport,38.89030075069999,-90.0459976196,US,US-IL
KALO,"Waterloo Rgnl, IA, US",2025-09-12T20:54:00Z,2025-09-12 15:54:00,VFR,30,16.1,150,15,24,NA,1015.7,METAR KALO 122054Z 15015G24KT 10SM CLR 30/16 A2999 RMK AO2 LTG DSNT SE SLP148 T03000161 58023,2025-09-12T21:44:51Z,2025-09-12T17:44:51Z,Waterloo Regional Airport,42.557098388671875,-92.400299072265625,US,US-IA
KALS,"Alamosa/Bergman Fld, CO, US",2025-09-12T21:12:00Z,2025-09-12 15:12:00,VFR,17.2,10.6,VAR,3,0,NA,1024.5,SPECI KALS 122112Z AUTO VRB03KT 10SM VCTS FEW050 SCT085 OVC110 17/11 A3025 RMK AO2 T01720106,2025-09-12T21:44:51Z,2025-09-12T17:44:51Z,San Luis Valley Regional Airport/Bergman Field,37.434898,-105.866997,US,US-CO
KALS,"Alamosa/Bergman Fld, CO, US",2025-09-12T21:52:00Z,2025-09-12 15:52:00,VFR,16.1,7.8,0,0,0,NA,1024.5,METAR KALS 122152Z AUTO 00000KT 10SM BKN100 OVC120 16/08 A3025 RMK AO2 LTG DSNT N RAB14E38 SLP171 P0000 T01610078,2025-09-12T21:55:35Z,2025-09-12T17:55:35Z,San Luis Valley Regional Airport/Bergman Field,37.434898,-105.866997,US,US-CO
KALW,"Walla Walla Rgnl, WA, US",2025-09-12T20:53:00Z,2025-09-12 13:53:00,VFR,23.9,12.2,VAR,3,0,NA,1014.6,METAR KALW 122053Z VRB03KT 10SM CLR 24/12 A2996 RMK AO2 SLP140 T02390122 58022,2025-09-12T21:44:51Z,2025-09-12T17:44:51Z,Walla Walla Regional Airport,46.09489822,-118.288002,US,US-WA
KALW,"Walla Walla Rgnl, WA, US",2025-09-12T21:53:00Z,2025-09-12 14:53:00,VFR,25.6,12.2,280,6,0,NA,1014,METAR KALW 122153Z 28006KT 10SM CLR 26/12 A2994 RMK AO2 SLP133 T02560122,2025-09-12T21:55:35Z,2025-09-12T17:55:35Z,Walla Walla Regional Airport,46.09489822,-118.288002,US,US-WA
KALX,"Alexander City/Russell Fld, AL, US",2025-09-12T21:35:00Z,2025-09-12 16:35:00,VFR,31.3,13.4,10,9,0,NA,1018,METAR KALX 122135Z AUTO 01009KT 10SM CLR 31/13 A3006 RMK AO2 T03130134,2025-09-12T21:44:50Z,2025-09-12T17:44:50Z,Thomas C Russell Field,32.914699554399995,-85.9629974365,US,US-AL
KAMA,"Amarillo Intl Arpt, TX, US",2025-09-12T20:53:00Z,2025-09-12 15:53:00,VFR,30.6,11.7,190,17,27,NA,1020.1,METAR KAMA 122053Z 19017G27KT 10SM CLR 31/12 A3012 RMK AO2 PK WND 17031/2023 SLP143 T03060117 57025,2025-09-12T21:44:51Z,2025-09-12T17:44:51Z,Rick Husband Amarillo International Airport,35.219398,-101.706001,US,US-TX
KAMA,"Amarillo Intl Arpt, TX, US",2025-09-12T21:53:00Z,2025-09-12 16:53:00,VFR,31.1,11.1,180,18,27,NA,1019.4,METAR KAMA 122153Z 18018G27KT 10SM CLR 31/11 A3010 RMK AO2 PK WND 18030/2127 SLP137 T03110111,2025-09-12T21:55:35Z,2025-09-12T17:55:35Z,Rick Husband Amarillo International Airport,35.219398,-101.706001,US,US-TX
KAMG,"Alma/Bacon Cnty, GA, US",2025-09-12T20:53:00Z,2025-09-12 20:53:00,VFR,30,13.9,VAR,5,0,NA,1017,METAR KAMG 122053Z AUTO VRB05KT 10SM FEW065 30/14 A3003 RMK AO2 SLP167 T03000139 56012 $,2025-09-12T21:44:51Z,2025-09-12T17:44:51Z,Bacon County Airport,31.53610038757324,-82.50659942626953,US,US-GA
KAMG,"Alma/Bacon Cnty, GA, US",2025-09-12T21:53:00Z,2025-09-12 21:53:00,VFR,29.4,13.3,10,6,0,NA,1017,METAR KAMG 122153Z AUTO 01006KT 10SM FEW070 29/13 A3003 RMK AO2 SLP167 T02940133 $,2025-09-12T21:55:35Z,2025-09-12T17:55:35Z,Bacon County Airport,31.53610038757324,-82.50659942626953,US,US-GA
KAMN,"Alma/Gratiot Communi, MI, US",2025-09-12T21:36:00Z,2025-09-12 17:36:00,VFR,26,12,210,5,0,NA,1021.1,METAR KAMN 122136Z AUTO 21005KT 10SM BKN065 26/12 A3015 RMK AO2,2025-09-12T21:44:50Z,2025-09-12T17:44:50Z,Gratiot Community Airport,43.322101593,-84.68800354,US,US-MI
KAMW,"Ames Muni, IA, US",2025-09-12T20:53:00Z,2025-09-12 15:53:00,VFR,27.8,18.9,120,9,19,NA,1013.6,METAR KAMW 122053Z AUTO 12009G19KT 10SM FEW038 28/19 A2993 RMK AO2 RAB35E46 SLP126 P0000 60000 T02780189 58031,2025-09-12T21:44:51Z,2025-09-12T17:44:51Z,Ames Municipal Airport,41.992001,-93.621803,US,US-IA
KAMW,"Ames Muni, IA, US",2025-09-12T21:53:00Z,2025-09-12 16:53:00,VFR,28.9,18.3,150,13,19,NA,1013.6,METAR KAMW 122153Z AUTO 15013G19KT 10SM CLR 29/18 A2993 RMK AO2 SLP127 T02890183,2025-09-12T21:55:35Z,2025-09-12T17:55:35Z,Ames Municipal Airport,41.992001,-93.621803,US,US-IA
KANB,"Anniston Metro, AL, US",2025-09-12T20:53:00Z,2025-09-12 15:53:00,VFR,30,11.7,60,4,0,NA,1018.7,METAR KANB 122053Z AUTO 06004KT 10SM CLR 30/12 A3008 RMK AO2 SLP176 T03000117 56016,2025-09-12T21:44:51Z,2025-09-12T17:44:51Z,Anniston Regional Airport,33.5882,-85.8581,US,US-AL
KANB,"Anniston Metro, AL, US",2025-09-12T21:53:00Z,2025-09-12 16:53:00,VFR,30.6,12.8,360,7,0,NA,1018.4,METAR KANB 122153Z AUTO 36007KT 10SM CLR 31/13 A3007 RMK AO2 SLP174 T03060128,2025-09-12T21:55:35Z,2025-09-12T17:55:35Z,Anniston Regional Airport,33.5882,-85.8581,US,US-AL
KAND,"Anderson Rgnl, SC, US",2025-09-12T20:56:00Z,2025-09-12 16:56:00,VFR,29.4,14.4,60,6,0,NA,1019.7,METAR KAND 122056Z AUTO 06006KT 10SM FEW075 29/14 A3011 RMK AO2 SLP187 T02940144 56011,2025-09-12T21:44:51Z,2025-09-12T17:44:51Z,Anderson Regional Airport,34.4945983887,-82.70939636230001,US,US-SC
KANE,"Blaine/Anoka Cnty, MN, US",2025-09-12T20:45:00Z,2025-09-12 20:45:00,VFR,28,17,160,4,0,NA,1016.3,METAR KANE 122045Z 16004KT 10SM SCT060 28/17 A3001,2025-09-12T21:44:51Z,2025-09-12T17:44:51Z,Anoka County-Blaine (Janes Field) Airport,45.145,-93.211401,US,US-MN
KANE,"Blaine/Anoka Cnty, MN, US",2025-09-12T21:45:00Z,2025-09-12 21:45:00,VFR,24,19,20,12,0,7,1017.4,METAR KANE 122145Z 02012KT 7SM -RA SCT060 24/19 A3004,2025-09-12T21:55:35Z,2025-09-12T17:55:35Z,Anoka County-Blaine (Janes Field) Airport,45.145,-93.211401,US,US-MN
KANJ,"Sault Ste Marie Muni, MI, US",2025-09-12T20:55:00Z,2025-09-12 20:55:00,VFR,18.3,15,90,3,0,NA,1021.8,METAR KANJ 122055Z AUTO 09003KT 10SM -RA FEW080 BKN110 18/15 A3017 RMK AO2 RAB49 SLP217 P0000 60000 T01830150 56011,2025-09-12T21:44:51Z,2025-09-12T17:44:51Z,Sault Ste Marie Municipal Airport Sanderson Field,46.479198,-84.368401,US,US-MI
KANK,"Salida/Alexander Fld, CO, US",2025-09-12T21:35:00Z,2025-09-12 15:35:00,VFR,12.5,10.9,310,11,0,9,1025.5,METAR KANK 122135Z AUTO 31011KT 9SM BKN041 OVC048 13/11 A3028 RMK AO2 RAE2131 P0001 T01250109 $,2025-09-12T21:44:50Z,2025-09-12T17:44:50Z,Salida Airport - Harriet Alexander Field,38.5383,-106.049004,US,US-CO
KANW,"Ainsworth Muni, NE, US",2025-09-12T21:35:00Z,2025-09-12 16:35:00,VFR,34.6,13.4,0,0,0,NA,1011.6,METAR KANW 122135Z AUTO 00000KT 10SM CLR 35/13 A2987 RMK AO2 T03460134,2025-09-12T21:44:50Z,2025-09-12T17:44:50Z,Ainsworth Regional Airport,42.579201,-99.992995,US,US-NE
KAOH,"Lima/Allen Cnty, OH, US",2025-09-12T20:53:00Z,2025-09-12 16:53:00,VFR,27.2,9.4,20,5,0,NA,1021.8,METAR KAOH 122053Z AUTO 02005KT 10SM CLR 27/09 A3017 RMK AO2 SLP212 T02720094 56020,2025-09-12T21:44:51Z,2025-09-12T17:44:51Z,Lima Allen County Airport,40.706902,-84.026703,US,US-OH
KAOH,"Lima/Allen Cnty, OH, US",2025-09-12T21:53:00Z,2025-09-12 17:53:00,VFR,26.7,10,0,0,0,NA,1021.8,METAR KAOH 122153Z AUTO 00000KT 10SM CLR 27/10 A3017 RMK AO2 SLP212 T02670100,2025-09-12T21:55:35Z,2025-09-12T17:55:35Z,Lima Allen County Airport,40.706902,-84.026703,US,US-OH
KAOO,"Altoona/Blair Cnty, PA, US",2025-09-12T20:53:00Z,2025-09-12 16:53:00,VFR,26.1,8.9,VAR,3,0,NA,1022.1,METAR KAOO 122053Z AUTO VRB03KT 10SM FEW070 26/09 A3018 RMK AO2 SLP217 T02610089 56013,2025-09-12T21:44:51Z,2025-09-12T17:44:51Z,Altoona Blair County Airport,40.296398,-78.32,US,US-PA
KAOO,"Altoona/Blair Cnty, PA, US",2025-09-12T21:53:00Z,2025-09-12 17:53:00,VFR,25.6,8.9,120,4,0,NA,1022.1,METAR KAOO 122153Z AUTO 12004KT 10SM CLR 26/09 A3018 RMK AO2 SLP214 T02560089,2025-09-12T21:55:35Z,2025-09-12T17:55:35Z,Altoona Blair County Airport,40.296398,-78.32,US,US-PA
KAPA,"Denver/Centennial Arpt, CO, US",2025-09-12T21:11:00Z,2025-09-12 15:11:00,VFR,23.9,6.7,310,9,20,NA,1020.1,SPECI KAPA 122111Z 31009G20KT 10SM -RA SCT060 BKN110 BKN140 BKN220 24/07 A3012 RMK AO2 WSHFT 2056 RAB10 SHRA DSNT SW AND NW P0000 T02390067,2025-09-12T21:44:51Z,2025-09-12T17:44:51Z,Centennial Airport,39.57009888,-104.848999,US,US-CO
KAPA,"Denver/Centennial Arpt, CO, US",2025-09-12T21:53:00Z,2025-09-12 15:53:00,VFR,22.8,7.2,310,8,0,NA,1020.1,METAR KAPA 122153Z 31008KT 10SM SCT060 BKN110 BKN140 BKN220 23/07 A3012 RMK AO2 WSHFT 2056 RAB10E20 SLP135 VIRGA DSNT SW AND W P0000 T02280072,2025-09-12T21:55:35Z,2025-09-12T17:55:35Z,Centennial Airport,39.57009888,-104.848999,US,US-CO
KAPC,"Napa Cnty Arpt, CA, US",2025-09-12T20:54:00Z,2025-09-12 13:54:00,VFR,21.7,15.6,210,12,0,NA,1014.3,METAR KAPC 122054Z 21012KT 10SM CLR 22/16 A2995 RMK AO2 SLP132 T02170156 58013,2025-09-12T21:44:51Z,2025-09-12T17:44:51Z,Napa County Airport,38.2132,-122.280998,US,US-CA
KAPF,"Naples Muni, FL, US",2025-09-12T20:53:00Z,2025-09-12 16:53:00,VFR,31.1,21.7,40,7,0,NA,1013.3,METAR KAPF 122053Z 04007KT 10SM FEW033 31/22 A2992 RMK AO2 SLP130 T03110217 56011 $,2025-09-12T21:44:51Z,2025-09-12T17:44:51Z,Naples Municipal Airport,26.1525993347,-81.7752990723,US,US-FL
KAPF,"Naples Muni, FL, US",2025-09-12T21:53:00Z,2025-09-12 17:53:00,VFR,30.6,21.7,30,4,0,NA,1012.6,METAR KAPF 122153Z 03004KT 10SM CLR 31/22 A2990 RMK AO2 LTG DSNT N AND NW SLP124 T03060217 $,2025-09-12T21:55:35Z,2025-09-12T17:55:35Z,Naples Municipal Airport,26.1525993347,-81.7752990723,US,US-FL
KAPG,"Phillips(AAF), MD, US",2025-09-12T20:55:00Z,2025-09-12 16:55:00,VFR,27,13,0,0,0,9,1021.1,METAR KAPG 122055Z 00000KT 9SM SCT090 27/13 A3015 RMK RMK AO2A LAST,2025-09-12T21:44:51Z,2025-09-12T17:44:51Z,Phillips Army Air Field,39.466202,-76.1688,US,US-MD
KAPN,"Alpena Cnty Rgnl, MI, US",2025-09-12T20:54:00Z,2025-09-12 16:54:00,VFR,20.6,15.6,90,9,0,NA,1021.8,METAR KAPN 122054Z AUTO 09009KT 10SM BKN060 21/16 A3017 RMK AO2 SLP217 T02060156 56015,2025-09-12T21:44:51Z,2025-09-12T17:44:51Z,Alpena County Regional Airport,45.0780983,-83.56030273,US,US-MI
KAPY,"Zapata Cnty, TX, US",2025-09-12T21:35:00Z,2025-09-12 21:35:00,VFR,36.5,19.5,110,9,18,NA,1014.6,METAR KAPY 122135Z AUTO 11009G18KT 10SM SCT060 BKN085 BKN120 37/20 A2996 RMK AO2 T03650195,2025-09-12T21:44:50Z,2025-09-12T17:44:50Z,Zapata County Airport,26.9687995911,-99.2489013672,US,US-TX
KAQO,"Llano Muni, TX, US",2025-09-12T21:35:00Z,2025-09-12 21:35:00,VFR,35,14,130,7,13,NA,1018,METAR KAQO 122135Z AUTO 13007G13KT 070V150 10SM SCT080 35/14 A3006 RMK AO2,2025-09-12T21:44:50Z,2025-09-12T17:44:50Z,Llano Municipal Airport,30.783700942993,-98.662002563477,US,US-TX
KAQP,"Appleton Muni, MN, US",2025-09-12T21:33:00Z,2025-09-12 21:33:00,VFR,27,19,130,15,21,NA,1013,METAR KAQP 122133Z AUTO 13015G21KT 10SM CLR 27/19 A2991 RMK AO2 TSNO,2025-09-12T21:44:50Z,2025-09-12T17:44:50Z,Appleton Municipal Airport,45.228239,-96.005856,US,US-MN
KAQW,"North Adams/Harriman West Arpt, MA, US",2025-09-12T20:52:00Z,2025-09-12 20:52:00,NA,NA,NA,VAR,NA,0,NA,1022.1,METAR KAQW 122052Z AUTO A3018 RMK AO2 SLPNO 56013 PWINO $,2025-09-12T21:44:51Z,2025-09-12T17:44:51Z,Harriman and West Airport,42.6959,-73.170403,US,US-MA
KAQW,"North Adams/Harriman West Arpt, MA, US",2025-09-12T21:52:00Z,2025-09-12 21:52:00,NA,NA,NA,VAR,NA,0,NA,1022.1,METAR KAQW 122152Z AUTO A3018 RMK AO2 SLPNO PWINO $,2025-09-12T21:55:35Z,2025-09-12T17:55:35Z,Harriman and West Airport,42.6959,-73.170403,US,US-MA
KAQX,"Allendale Cnty Arpt, SC, US",2025-09-12T21:35:00Z,2025-09-12 21:35:00,VFR,28,13,0,0,10,NA,1017.7,METAR KAQX 122135Z AUTO 00000G10KT 10SM FEW080 28/13 A3005 RMK AO2,2025-09-12T21:44:50Z,2025-09-12T17:44:50Z,Allendale County Airport,32.995098,-81.270203,US,US-SC
KARA,"New Iberia/Acadiana Rgnl, LA, US",2025-09-12T20:53:00Z,2025-09-12 15:53:00,VFR,33.9,16.7,50,5,0,NA,1017.4,METAR KARA 122053Z 05005KT 10SM FEW070 34/17 A3004 RMK AO2 SLP171 T03390167 56019,2025-09-12T21:44:51Z,2025-09-12T17:44:51Z,Acadiana Regional Airport,30.0378,-91.883904,US,US-LA
KARA,"New Iberia/Acadiana Rgnl, LA, US",2025-09-12T21:53:00Z,2025-09-12 16:53:00,VFR,33.3,16.7,0,0,0,NA,1017,METAR KARA 122153Z 00000KT 10SM FEW070 33/17 A3003 RMK AO2 SLP168 T03330167,2025-09-12T21:55:35Z,2025-09-12T17:55:35Z,Acadiana Regional Airport,30.0378,-91.883904,US,US-LA
KARB,"Ann Arbor Muni, MI, US",2025-09-12T20:53:00Z,2025-09-12 16:53:00,VFR,25,10.6,0,0,0,NA,1021.8,METAR KARB 122053Z 00000KT 10SM OVC070 25/11 A3017 RMK AO2 SLP216 T02500106 56017,2025-09-12T21:44:51Z,2025-09-12T17:44:51Z,Ann Arbor Municipal Airport,42.2229995728,-83.74559783939999,US,US-MI
KARB,"Ann Arbor Muni, MI, US",2025-09-12T21:53:00Z,2025-09-12 17:53:00,VFR,25.6,10.6,VAR,3,0,NA,1021.8,METAR KARB 122153Z VRB03KT 10SM CLR 26/11 A3017 RMK AO2 SLP213 T02560106,2025-09-12T21:55:35Z,2025-09-12T17:55:35Z,Ann Arbor Municipal Airport,42.2229995728,-83.74559783939999,US,US-MI
KARG,"Walnut Ridge Rgnl, AR, US",2025-09-12T20:56:00Z,2025-09-12 15:56:00,VFR,35.6,16.7,230,7,0,NA,1017.7,METAR KARG 122056Z AUTO 23007KT 10SM CLR 36/17 A3005 RMK AO2 SLP173 6//// T03560167 56023 $,2025-09-12T21:44:51Z,2025-09-12T17:44:51Z,Walnut Ridge Regional Airport,36.124667,-90.925111,US,US-AR
KARM,"Wharton Rgnl, TX, US",2025-09-12T21:35:00Z,2025-09-12 16:35:00,VFR,32.1,19.1,120,8,14,NA,1017.4,METAR KARM 122135Z AUTO 12008G14KT 10SM SCT055 32/19 A3004 RMK AO2 T03210191 TSNO,2025-09-12T21:44:50Z,2025-09-12T17:44:50Z,Wharton Regional Airport,29.254299,-96.154404,US,US-TX
KARR,"Aurora Muni, IL, US",2025-09-12T20:52:00Z,2025-09-12 15:52:00,VFR,28.3,13.9,160,6,0,8,1019.7,METAR KARR 122052Z 16006KT 8SM CLR 28/14 A3011 RMK AO2 SLP192 T02830139 56025,2025-09-12T21:44:51Z,2025-09-12T17:44:51Z,Aurora Municipal Airport,41.771900177,-88.47570037839999,US,US-IL
KARR,"Aurora Muni, IL, US",2025-09-12T21:52:00Z,2025-09-12 16:52:00,VFR,28.9,13.9,140,9,0,8,1019.4,METAR KARR 122152Z 14009KT 8SM CLR 29/14 A3010 RMK AO2 SLP189 T02890139,2025-09-12T21:55:35Z,2025-09-12T17:55:35Z,Aurora Municipal Airport,41.771900177,-88.47570037839999,US,US-IL
KART,"Watertown Intl, NY, US",2025-09-12T20:56:00Z,2025-09-12 16:56:00,VFR,22.2,10,270,7,0,NA,1022.1,METAR KART 122056Z AUTO 27007KT 10SM CLR 22/10 A3018 RMK AO2 SLP217 T02220100 56019,2025-09-12T21:44:51Z,2025-09-12T17:44:51Z,Watertown International Airport,43.991901,-76.021698,US,US-NY
KARV,"Woodruff/Lakeland Arpt, WI, US",2025-09-12T21:35:00Z,2025-09-12 16:35:00,VFR,21.9,15.2,170,9,15,NA,1019,METAR KARV 122135Z AUTO 17009G15KT 10SM CLR 22/15 A3009 RMK AO2 LTG DSNT W T02190152,2025-09-12T21:44:50Z,2025-09-12T17:44:50Z,Lakeland Airport Noble F Lee Memorial Field,45.927898,-89.730904,US,US-WI
KARW,"Beaufort Cnty, GA, US",2025-09-12T21:35:00Z,2025-09-12 17:35:00,VFR,28,16,30,10,0,NA,1017.4,METAR KARW 122135Z AUTO 03010KT 10SM CLR 28/16 A3004 RMK AO2,2025-09-12T21:44:50Z,2025-09-12T17:44:50Z,Beaufort Executive Airport,32.412201,-80.634399,US,US-SC
KASD,"Slidell Arpt, LA, US",2025-09-12T20:53:00Z,2025-09-12 20:53:00,VFR,31.7,19.4,190,7,0,NA,1016.7,METAR KASD 122053Z AUTO 19007KT 10SM FEW080 32/19 A3002 RMK AO2 SLP166 T03170194 56018,2025-09-12T21:44:51Z,2025-09-12T17:44:51Z,Slidell Airport,30.3451,-89.820801,US,US-LA
KASD,"Slidell Arpt, LA, US",2025-09-12T21:53:00Z,2025-09-12 21:53:00,VFR,31.7,18.9,180,8,0,NA,1016.3,METAR KASD 122153Z AUTO 18008KT 10SM FEW080 SCT100 32/19 A3001 RMK AO2 SLP164 T03170189,2025-09-12T21:55:35Z,2025-09-12T17:55:35Z,Slidell Airport,30.3451,-89.820801,US,US-LA
KASE,"Aspen/Pitkin Cnty, CO, US",2025-09-12T21:31:00Z,2025-09-12 15:31:00,VFR,15,7.2,180,14,0,NA,1025.1,SPECI KASE 122131Z 18014KT 10SM FEW050 SCT070 BKN090 15/07 A3027 RMK AO2 WSHFT 2111 RAE24 P0000 T01500072,2025-09-12T21:44:51Z,2025-09-12T17:44:51Z,Aspen-Pitkin County Airport (Sardy Field),39.223202,-106.869003,US,US-CO
KASE,"Aspen/Pitkin Cnty, CO, US",2025-09-12T21:53:00Z,2025-09-12 15:53:00,VFR,15.6,6.7,170,13,22,NA,1024.5,METAR KASE 122153Z 17013G22KT 10SM FEW028 BKN100 16/07 A3025 RMK AO2 WSHFT 2111 RAE24 SLP135 P0000 T01560067,2025-09-12T21:55:35Z,2025-09-12T17:55:35Z,Aspen-Pitkin County Airport (Sardy Field),39.223202,-106.869003,US,US-CO
KASG,"Springdale Muni, AR, US",2025-09-12T20:48:00Z,2025-09-12 15:48:00,VFR,32,24,220,3,10,NA,1020.1,METAR KASG 122048Z 22003G10KT 10SM CLR 32/24 A3012,2025-09-12T21:44:51Z,2025-09-12T17:44:51Z,Springdale Municipal Airport,36.176399231,-94.1193008423,US,US-AR
KASG,"Springdale Muni, AR, US",2025-09-12T21:48:00Z,2025-09-12 16:48:00,VFR,32,24,250,6,0,NA,1019.7,METAR KASG 122148Z 25006KT 10SM CLR 32/24 A3011,2025-09-12T21:55:35Z,2025-09-12T17:55:35Z,Springdale Municipal Airport,36.176399231,-94.1193008423,US,US-AR
KASH,"Nashua/Boire Fld, NH, US",2025-09-12T20:56:00Z,2025-09-12 16:56:00,VFR,23.9,8.9,VAR,4,0,NA,1022.1,METAR KASH 122056Z VRB04KT 10SM SCT060 24/09 A3018 RMK AO2 SLP220 6//// T02390089 56014 PNO $,2025-09-12T21:44:51Z,2025-09-12T17:44:51Z,Nashua Airport / Boire Field,42.7817,-71.514801,US,US-NH
KASJ,"Ahoskie/Tri Cnty, NC, US",2025-09-12T21:35:00Z,2025-09-12 21:35:00,VFR,24.1,13.6,20,5,0,NA,1020.1,METAR KASJ 122135Z AUTO 02005KT 10SM BKN070 OVC080 24/14 A3012 RMK AO2 T02410136,2025-09-12T21:44:50Z,2025-09-12T17:44:50Z,Tri-County Airport at Henry Joyner Field,36.297501,-77.170898,US,US-NC
KASJ,"Ahoskie/Tri Cnty, NC, US",2025-09-12T21:45:00Z,2025-09-12 21:45:00,VFR,24.1,13.6,30,5,0,NA,1020.1,METAR KASJ 122145Z AUTO 03005KT 10SM SCT070 OVC080 24/14 A3012 RMK AO2 T02410136,2025-09-12T21:55:35Z,2025-09-12T17:55:35Z,Tri-County Airport at Henry Joyner Field,36.297501,-77.170898,US,US-NC
KASL,"Marshall/Harrison Cnty, TX, US",2025-09-12T21:35:00Z,2025-09-12 16:35:00,VFR,33.9,21.2,360,3,0,9,1017.4,METAR KASL 122135Z AUTO 36003KT 9SM FEW060 34/21 A3004 RMK AO2 T03390212 $,2025-09-12T21:44:50Z,2025-09-12T17:44:50Z,Harrison County Airport,32.5205001831,-94.307800293,US,US-TX
KASN,"Talladega Muni, AL, US",2025-09-12T21:35:00Z,2025-09-12 16:35:00,VFR,32,14,50,8,0,NA,1017.7,METAR KASN 122135Z AUTO 05008KT 10SM FEW075 32/14 A3005 RMK AO2,2025-09-12T21:44:50Z,2025-09-12T17:44:50Z,Talladega Municipal Airport,33.569900512699995,-86.05090332030001,US,US-AL
KAST,"Astoria Rgnl, OR, US",2025-09-12T21:21:00Z,2025-09-12 14:21:00,MVFR,18.3,14.4,340,6,0,NA,1017.7,SPECI KAST 122121Z AUTO 34006KT 10SM FEW023 OVC029 18/14 A3005 RMK AO2 T01830144 $,2025-09-12T21:44:51Z,2025-09-12T17:44:51Z,Astoria Regional Airport,46.158000946,-123.878997803,US,US-OR
KASW,"Warsaw Muni, IN, US",2025-09-12T21:15:00Z,2025-09-12 21:15:00,VFR,27,10.7,80,3,0,NA,1021.4,METAR KASW 122115Z AUTO 08003KT 10SM CLR 27/10 A3016 RMK AO2 T02700107,2025-09-12T21:55:38Z,2025-09-12T17:55:38Z,Warsaw Municipal Airport,41.2747,-85.840103,US,US-IN
KASW,"Warsaw Muni, IN, US",2025-09-12T21:35:00Z,2025-09-12 21:35:00,VFR,26.8,10.2,0,0,0,NA,1021.4,METAR KASW 122135Z AUTO 00000KT 10SM CLR 26/10 A3016 RMK AO2 T02680102,2025-09-12T21:44:53Z,2025-09-12T17:44:53Z,Warsaw Municipal Airport,41.2747,-85.840103,US,US-IN
KASX,"Ashland/Kennedy Mem Arpt, WI, US",2025-09-12T20:53:00Z,2025-09-12 15:53:00,VFR,18.3,15.6,80,6,0,NA,1016.3,METAR KASX 122053Z AUTO 08006KT 10SM CLR 18/16 A3001 RMK AO2 SLP164 T01830156 58028,2025-09-12T21:44:54Z,2025-09-12T17:44:54Z,John F Kennedy Memorial Airport,46.54850006,-90.91899872,US,US-WI
KATL,"Atlanta/Hartsfield-Jackson Intl, GA, US",2025-09-12T20:52:00Z,2025-09-12 16:52:00,VFR,29.4,12.8,30,5,0,NA,1019.4,METAR KATL 122052Z 03005KT 10SM SCT065 29/13 A3010 RMK AO2 SLP182 MDT CU ALQDS T02940128 56015 $,2025-09-12T21:44:54Z,2025-09-12T17:44:54Z,Hartsfield Jackson Atlanta International Airport,33.6367,-84.428101,US,US-GA
KATS,"Artesia Muni, NM, US",2025-09-12T20:55:00Z,2025-09-12 14:55:00,VFR,33,9,150,11,0,NA,1018,METAR KATS 122055Z AUTO 15011KT 10SM CLR 33/09 A3006 RMK AO2,2025-09-12T21:55:38Z,2025-09-12T17:55:38Z,Artesia Municipal Airport,32.8525009155,-104.46800231900001,US,US-NM
KATS,"Artesia Muni, NM, US",2025-09-12T21:35:00Z,2025-09-12 15:35:00,VFR,33,10,170,7,16,NA,1017.4,METAR KATS 122135Z AUTO 17007G16KT 120V200 10SM CLR 33/10 A3004 RMK AO2,2025-09-12T21:44:53Z,2025-09-12T17:44:53Z,Artesia Municipal Airport,32.8525009155,-104.46800231900001,US,US-NM
KATW,"Appleton/Outagamie Cnty, WI, US",2025-09-12T20:45:00Z,2025-09-12 15:45:00,VFR,24,16,130,4,0,NA,1020.7,METAR KATW 122045Z 13004KT 10SM SCT120 24/16 A3014,2025-09-12T21:44:54Z,2025-09-12T17:44:54Z,Appleton International Airport,44.258099,-88.519096,US,US-WI
KATY,"Watertown Rgnl, SD, US",2025-09-12T20:53:00Z,2025-09-12 15:53:00,VFR,24.4,18.3,90,14,23,NA,1013.6,METAR KATY 122053Z AUTO 09014G23KT 10SM SCT034 24/18 A2993 RMK AO2 PK WND 05029/2009 SLP125 T02440183 53006,2025-09-12T21:44:54Z,2025-09-12T17:44:54Z,Watertown Regional Airport,44.91400146,-97.15470123,US,US-SD
KAUG,"Augusta/State Arpt, ME, US",2025-09-12T20:53:00Z,2025-09-12 16:53:00,VFR,22.2,7.2,50,4,0,NA,1022.4,METAR KAUG 122053Z AUTO 05004KT 10SM CLR 22/07 A3019 RMK AO2 SLP224 T02220072 56010 PWINO $,2025-09-12T21:44:53Z,2025-09-12T17:44:53Z,Augusta State Airport,44.320598602299995,-69.7973022461,US,US-ME
KAUH,"Aurora/Potter Fld, NE, US",2025-09-12T21:15:00Z,2025-09-12 21:15:00,VFR,33.6,19.6,170,9,14,NA,1013,METAR KAUH 122115Z AUTO 17009G14KT 10SM CLR 34/20 A2991 RMK AO2 T03360196,2025-09-12T21:55:38Z,2025-09-12T17:55:38Z,Aurora Municipal Al Potter Field,40.8941,-97.994598,US,US-NE
KAUH,"Aurora/Potter Fld, NE, US",2025-09-12T21:35:00Z,2025-09-12 21:35:00,VFR,34.5,18.3,180,10,0,NA,1012.6,METAR KAUH 122135Z AUTO 18010KT 10SM CLR 35/18 A2990 RMK AO2 T03450183,2025-09-12T21:44:53Z,2025-09-12T17:44:53Z,Aurora Municipal Al Potter Field,40.8941,-97.994598,US,US-NE
KAUM,"Austin Muni, MN, US",2025-09-12T21:15:00Z,2025-09-12 16:15:00,VFR,27,19,0,0,0,NA,1016.3,METAR KAUM 122115Z AUTO 00000KT 10SM CLR 27/19 A3001 RMK AO2,2025-09-12T21:55:38Z,2025-09-12T17:55:38Z,Austin Municipal Airport,43.66500092,-92.93340302,US,US-MN
KAUM,"Austin Muni, MN, US",2025-09-12T21:36:00Z,2025-09-12 16:36:00,VFR,26,21,100,6,0,NA,1016,METAR KAUM 122136Z AUTO 10006KT 10SM CLR 26/21 A3000 RMK AO2 LTG DSNT N AND NE,2025-09-12T21:44:53Z,2025-09-12T17:44:53Z,Austin Municipal Airport,43.66500092,-92.93340302,US,US-MN
KAUN,"Auburn Muni, CA, US",2025-09-12T21:15:00Z,2025-09-12 14:15:00,VFR,27,12,280,6,0,NA,1014.3,METAR KAUN 122115Z AUTO 28006KT 10SM CLR 27/12 A2995 RMK A01,2025-09-12T21:55:38Z,2025-09-12T17:55:38Z,Auburn Municipal Airport,38.95479965,-121.0820007,US,US-CA
KAUN,"Auburn Muni, CA, US",2025-09-12T21:35:00Z,2025-09-12 14:35:00,VFR,26,12,0,0,11,NA,1014,METAR KAUN 122135Z AUTO 00000G11KT 10SM CLR 26/12 A2994 RMK A01,2025-09-12T21:44:53Z,2025-09-12T17:44:53Z,Auburn Municipal Airport,38.95479965,-121.0820007,US,US-CA
KAUO,"Auburn Univ Arpt, AL, US",2025-09-12T20:56:00Z,2025-09-12 15:56:00,VFR,32.2,13.9,40,9,0,NA,1018.7,METAR KAUO 122056Z AUTO 04009KT 10SM CLR 32/14 A3008 RMK AO2 SLP170 T03220139 56014 $,2025-09-12T21:44:53Z,2025-09-12T17:44:53Z,Auburn University Regional Airport,32.615101,-85.433998,US,US-AL
KAUS,"Austin/Bergstrom Intl, TX, US",2025-09-12T20:53:00Z,2025-09-12 15:53:00,VFR,34.4,16.1,120,7,18,NA,1016.7,METAR KAUS 122053Z 12007G18KT 090V160 10SM FEW065 SCT300 34/16 A3002 RMK AO2 SLP156 T03440161 56027,2025-09-12T21:44:54Z,2025-09-12T17:44:54Z,Austin Bergstrom International Airport,30.197535,-97.662015,US,US-TX
KAUW,"Wausau Downtown, WI, US",2025-09-12T20:54:00Z,2025-09-12 15:54:00,VFR,24.4,15.6,130,7,0,NA,1019.7,METAR KAUW 122054Z AUTO 13007KT 10SM CLR 24/16 A3011 RMK AO2 SLP199 T02440156 56022,2025-09-12T21:44:53Z,2025-09-12T17:44:53Z,Wausau Downtown Airport,44.9262008667,-89.6266021729,US,US-WI
KAVC,"Mecklenburg/Brunswick Rgnl, VA, US",2025-09-12T20:55:00Z,2025-09-12 20:55:00,VFR,27,14.3,0,0,0,NA,1022.4,METAR KAVC 122055Z AUTO 00000KT 10SM CLR 27/14 A3019 RMK AO2 T02700143,2025-09-12T21:55:38Z,2025-09-12T17:55:38Z,Mecklenburg Brunswick Regional Airport,36.688301,-78.054497,US,US-VA
KAVC,"Mecklenburg/Brunswick Rgnl, VA, US",2025-09-12T21:35:00Z,2025-09-12 21:35:00,VFR,25.6,13.9,30,3,0,NA,1022.4,METAR KAVC 122135Z AUTO 03003KT 10SM CLR 26/14 A3019 RMK AO2 T02560139,2025-09-12T21:44:53Z,2025-09-12T17:44:53Z,Mecklenburg Brunswick Regional Airport,36.688301,-78.054497,US,US-VA
KAVK,"Alva Muni, OK, US",2025-09-12T21:15:00Z,2025-09-12 21:15:00,VFR,NA,NA,190,13,19,NA,1016.3,METAR KAVK 122115Z AUTO 19013G19KT 10SM CLR A3001 RMK A01,2025-09-12T21:55:38Z,2025-09-12T17:55:38Z,Alva Regional Airport,36.773201,-98.669899,US,US-OK
KAVK,"Alva Muni, OK, US",2025-09-12T21:35:00Z,2025-09-12 21:35:00,VFR,NA,NA,190,12,17,NA,1016,METAR KAVK 122135Z AUTO 19012G17KT 10SM CLR A3000 RMK A01,2025-09-12T21:44:53Z,2025-09-12T17:44:53Z,Alva Regional Airport,36.773201,-98.669899,US,US-OK
KAVL,"Asheville Muni, NC, US",2025-09-12T20:54:00Z,2025-09-12 16:54:00,VFR,24.4,13.9,VAR,4,0,NA,1022.1,METAR KAVL 122054Z AUTO VRB04KT 10SM BKN055 OVC070 24/14 A3018 RMK AO2 SLP198 T02440139 56010,2025-09-12T21:44:53Z,2025-09-12T17:44:53Z,Asheville Regional Airport,35.436199,-82.541801,US,US-NC
KAVP,"Wilkes-Barre Scranton Intl, PA, US",2025-09-12T20:54:00Z,2025-09-12 16:54:00,VFR,26.1,10.6,10,6,0,NA,1021.8,METAR KAVP 122054Z 01006KT 10SM SCT060 BKN085 26/11 A3017 RMK AO2 SLP210 T02610106 56015,2025-09-12T21:44:53Z,2025-09-12T17:44:53Z,Wilkes Barre Scranton International Airport,41.338500976599995,-75.72339630130001,US,US-PA
KAVQ,"Tucson/Marana Rgnl, AZ, US",2025-09-12T21:15:00Z,2025-09-12 14:15:00,VFR,37,12,230,7,12,NA,1010.2,METAR KAVQ 122115Z AUTO 23007G12KT 210V270 10SM FEW090 37/12 A2983 RMK AO2,2025-09-12T21:55:38Z,2025-09-12T17:55:38Z,Marana Regional Airport,32.409065,-111.216199,US,US-AZ
KAVQ,"Tucson/Marana Rgnl, AZ, US",2025-09-12T21:35:00Z,2025-09-12 14:35:00,VFR,38,13,260,13,21,NA,1009.6,METAR KAVQ 122135Z AUTO 26013G21KT 10SM SCT095 38/13 A2981 RMK AO2,2025-09-12T21:44:53Z,2025-09-12T17:44:53Z,Marana Regional Airport,32.409065,-111.216199,US,US-AZ
KAVX,"Avalon/Catalina Arpt, CA, US",2025-09-12T20:51:00Z,2025-09-12 13:51:00,VFR,20,15,VAR,6,0,NA,1015,METAR KAVX 122051Z AUTO VRB06KT 10SM CLR 20/15 A2997 RMK AO2 SLP129 T02000150 58014,2025-09-12T21:44:54Z,2025-09-12T17:44:54Z,Catalina Airport,33.4049,-118.416,US,US-CA
KAWG,"Washington Muni, IA, US",2025-09-12T21:15:00Z,2025-09-12 21:15:00,VFR,32,17,190,10,0,NA,1016.7,METAR KAWG 122115Z AUTO 19010KT 10SM CLR 32/17 A3002 RMK AO2,2025-09-12T21:55:38Z,2025-09-12T17:55:38Z,Washington Municipal Airport,41.276100158691406,-91.67340087890624,US,US-IA
KAWG,"Washington Muni, IA, US",2025-09-12T21:35:00Z,2025-09-12 21:35:00,VFR,31,17,VAR,6,13,NA,1016.7,METAR KAWG 122135Z AUTO VRB06G13KT 10SM CLR 31/17 A3002 RMK AO2,2025-09-12T21:44:53Z,2025-09-12T17:44:53Z,Washington Municipal Airport,41.276100158691406,-91.67340087890624,US,US-IA
KAWM,"West Memphis Muni, AR, US",2025-09-12T20:53:00Z,2025-09-12 15:53:00,VFR,34.4,17.2,200,6,0,NA,1017.4,METAR KAWM 122053Z AUTO 20006KT 10SM FEW100 34/17 A3004 RMK AO2 SLP166 60000 T03440172 58024,2025-09-12T21:44:54Z,2025-09-12T17:44:54Z,West Memphis Municipal Airport,35.1351013184,-90.2343978882,US,US-AR
KAWO,"Arlington Muni, WA, US",2025-09-12T21:20:00Z,2025-09-12 21:20:00,VFR,21,13,0,0,0,NA,1017.7,SPECI KAWO 122120Z AUTO 00000KT 10SM OVC031 21/13 A3005 RMK AO2,2025-09-12T21:44:53Z,2025-09-12T17:44:53Z,Arlington Municipal Airport,48.161448,-122.158442,US,US-WA
KAXA,"Algona Muni, IA, US",2025-09-12T21:15:00Z,2025-09-12 16:15:00,VFR,29,19,150,10,0,NA,1013.6,METAR KAXA 122115Z AUTO 15010KT 10SM CLR 29/19 A2993 RMK A01,2025-09-12T21:55:38Z,2025-09-12T17:55:38Z,Algona Municipal Airport,43.078104,-94.271836,US,US-IA
KAXA,"Algona Muni, IA, US",2025-09-12T21:35:00Z,2025-09-12 16:35:00,VFR,29,19,150,11,18,NA,1013.6,METAR KAXA 122135Z AUTO 15011G18KT 10SM CLR 29/19 A2993 RMK A01,2025-09-12T21:44:53Z,2025-09-12T17:44:53Z,Algona Municipal Airport,43.078104,-94.271836,US,US-IA
KAXH,"Houston/SW Arpt, TX, US",2025-09-12T21:15:00Z,2025-09-12 21:15:00,VFR,31.1,19.9,140,3,0,NA,1017.7,METAR KAXH 122115Z AUTO 14003KT 10SM SCT050 31/20 A3005 RMK AO2 T03110199,2025-09-12T21:55:38Z,2025-09-12T17:55:38Z,Houston Southwest Airport,29.5061,-95.476898,US,US-TX
KAXH,"Houston/SW Arpt, TX, US",2025-09-12T21:35:00Z,2025-09-12 21:35:00,VFR,32.6,20.3,110,5,0,NA,1017.7,METAR KAXH 122135Z AUTO 11005KT 10SM SCT050 33/20 A3005 RMK AO2 T03260203,2025-09-12T21:44:53Z,2025-09-12T17:44:53Z,Houston Southwest Airport,29.5061,-95.476898,US,US-TX
KAXN,"Alexandria/Chandler Fld, MN, US",2025-09-12T20:53:00Z,2025-09-12 15:53:00,VFR,18.9,17.2,160,23,31,NA,1012.6,METAR KAXN 122053Z AUTO 16023G31KT 10SM FEW100 BKN120 19/17 A2990 RMK AO2 PK WND 15031/2034 LTG DSNT SW RAE27 SLP123 P0002 60004 T01890172 58031,2025-09-12T21:44:53Z,2025-09-12T17:44:53Z,Chandler Field,45.866299,-95.394699,US,US-MN
KAXS,"Altus/Quartz Mtn Rgnl, OK, US",2025-09-12T21:15:00Z,2025-09-12 16:15:00,VFR,35,15,200,12,0,NA,1017,METAR KAXS 122115Z AUTO 20012KT 10SM CLR 35/15 A3003 RMK AO2,2025-09-12T21:44:53Z,2025-09-12T17:44:53Z,Altus Quartz Mountain Regional Airport,34.697952,-99.3385,US,US-OK
KAXV,"Wapakoneta/Armstrong Arpt, OH, US",2025-09-12T21:15:00Z,2025-09-12 17:15:00,VFR,27,10,350,4,0,NA,1021.8,METAR KAXV 122115Z AUTO 35004KT 10SM CLR 27/10 A3017 RMK AO2,2025-09-12T21:55:38Z,2025-09-12T17:55:38Z,Neil Armstrong Airport,40.49340057,-84.29889679,US,US-OH
KAXV,"Wapakoneta/Armstrong Arpt, OH, US",2025-09-12T21:35:00Z,2025-09-12 17:35:00,VFR,27,9,0,0,0,NA,1021.4,METAR KAXV 122135Z AUTO 00000KT 10SM CLR 27/09 A3016 RMK AO2,2025-09-12T21:44:53Z,2025-09-12T17:44:53Z,Neil Armstrong Airport,40.49340057,-84.29889679,US,US-OH
KAXX,"Angel Fire Arpt, NM, US",2025-09-12T21:15:00Z,2025-09-12 15:15:00,VFR,16.5,9.4,0,0,0,NA,1027.2,METAR KAXX 122115Z AUTO 00000KT 10SM SCT075 BKN100 17/09 A3033 RMK AO2 T01650094,2025-09-12T21:55:38Z,2025-09-12T17:55:38Z,Angel Fire Airport,36.422001,-105.290001,US,US-NM
KAXX,"Angel Fire Arpt, NM, US",2025-09-12T21:35:00Z,2025-09-12 15:35:00,VFR,16.6,9.5,0,0,0,NA,1026.8,METAR KAXX 122135Z AUTO 00000KT 10SM SCT075 OVC100 17/10 A3032 RMK AO2 T01660095,2025-09-12T21:44:53Z,2025-09-12T17:44:53Z,Angel Fire Airport,36.422001,-105.290001,US,US-NM
KAYS,"Waycross/Ware Cnty, GA, US",2025-09-12T21:15:00Z,2025-09-12 17:15:00,NA,30.8,15.6,10,6,0,NA,1017,METAR KAYS 122115Z AUTO 01006KT SCT085 31/16 A3003 RMK AO2 T03080156 PWINO,2025-09-12T21:55:38Z,2025-09-12T17:55:38Z,Waycross Ware County Airport,31.2490997314,-82.39550018310001,US,US-GA
KAYS,"Waycross/Ware Cnty, GA, US",2025-09-12T21:35:00Z,2025-09-12 17:35:00,NA,30.6,15.6,60,9,0,NA,1017,METAR KAYS 122135Z AUTO 06009KT SCT060 BKN085 31/16 A3003 RMK AO2 T03060156 PWINO,2025-09-12T21:44:53Z,2025-09-12T17:44:53Z,Waycross Ware County Airport,31.2490997314,-82.39550018310001,US,US-GA
KAZC,"Colorado City Muni, AZ, US",2025-09-12T21:15:00Z,2025-09-12 21:15:00,VFR,28,-2,270,6,10,NA,1017,METAR KAZC 122115Z AUTO 27006G10KT 10SM CLR 28/M02 A3003 RMK AO2,2025-09-12T21:55:38Z,2025-09-12T17:55:38Z,Colorado City Municipal Airport,36.95919,-113.013166,US,US-AZ
KAZC,"Colorado City Muni, AZ, US",2025-09-12T21:35:00Z,2025-09-12 21:35:00,VFR,28,-2,210,10,15,NA,1017,METAR KAZC 122135Z AUTO 21010G15KT 10SM CLR 28/M02 A3003 RMK AO2 LTG DSNT NE,2025-09-12T21:44:53Z,2025-09-12T17:44:53Z,Colorado City Municipal Airport,36.95919,-113.013166,US,US-AZ
KAZO,"Kalamazoo Intl, MI, US",2025-09-12T20:53:00Z,2025-09-12 16:53:00,VFR,25.6,11.1,300,4,0,NA,1021.8,METAR KAZO 122053Z 30004KT 10SM SCT065 26/11 A3017 RMK AO2 SLP214 T02560111 58018,2025-09-12T21:44:54Z,2025-09-12T17:44:54Z,Kalamazoo Battle Creek International Airport,42.234901428222656,-85.5521011352539,US,US-MI
KBAB,"Beale AFB, CA, US",2025-09-12T20:55:00Z,2025-09-12 13:55:00,VFR,29.1,13.7,230,6,0,NA,1011.6,METAR KBAB 122055Z AUTO 23006KT 10SM CLR 29/14 A2987 RMK AO2 SLP117 T02910137 57020 $,2025-09-12T21:44:53Z,2025-09-12T17:44:53Z,Beale Air Force Base,39.136101,-121.436996,US,US-CA
KBAF,"Westfield/Barnes Muni, MA, US",2025-09-12T20:53:00Z,2025-09-12 16:53:00,VFR,23.9,10,120,5,0,NA,1021.4,METAR KBAF 122053Z 12005KT 10SM CLR 24/10 A3016 RMK AO2 SLP214 T02390100 56014,2025-09-12T21:44:54Z,2025-09-12T17:44:54Z,Westfield-Barnes Regional Airport,42.157799,-72.715599,US,US-MA
KBAK,"Columbus Muni, IN, US",2025-09-12T20:45:00Z,2025-09-12 16:45:00,VFR,29,10,0,0,0,NA,1020.7,METAR KBAK 122045Z 00000KT 10SM CLR 29/10 A3014,2025-09-12T21:44:54Z,2025-09-12T17:44:54Z,Columbus Municipal Airport,39.262386,-85.895576,US,US-IN
KBAM,"Battle Mountain Arpt, NV, US",2025-09-12T21:15:00Z,2025-09-12 14:15:00,VFR,23,3,290,9,0,NA,1017.7,METAR KBAM 122115Z AUTO 29009KT 10SM CLR 23/03 A3005 RMK AO1,2025-09-12T21:55:38Z,2025-09-12T17:55:38Z,Battle Mountain Airport,40.598999023400005,-116.874000549,US,US-NV
KBAM,"Battle Mountain Arpt, NV, US",2025-09-12T21:35:00Z,2025-09-12 14:35:00,VFR,25,3,260,3,0,NA,1017.4,METAR KBAM 122135Z AUTO 26003KT 10SM CLR 25/03 A3004 RMK AO1,2025-09-12T21:44:53Z,2025-09-12T17:44:53Z,Battle Mountain Airport,40.598999023400005,-116.874000549,US,US-NV
KBAX,"Bad Axe/Huron Cnty, MI, US",2025-09-12T21:15:00Z,2025-09-12 21:15:00,VFR,23,15.2,90,8,0,NA,1022.4,METAR KBAX 122115Z AUTO 09008KT 10SM SCT041 BKN050 OVC070 23/15 A3019 RMK AO2 T02300152,2025-09-12T21:55:38Z,2025-09-12T17:55:38Z,Huron County Memorial Airport,43.780201,-82.985397,US,US-MI
KBAX,"Bad Axe/Huron Cnty, MI, US",2025-09-12T21:35:00Z,2025-09-12 21:35:00,VFR,23.2,15.3,100,8,0,NA,1022.1,METAR KBAX 122135Z AUTO 10008KT 10SM BKN050 OVC070 23/15 A3018 RMK AO2 T02320153,2025-09-12T21:44:53Z,2025-09-12T17:44:53Z,Huron County Memorial Airport,43.780201,-82.985397,US,US-MI
KBAZ,"New Braunfels Muni, TX, US",2025-09-12T20:51:00Z,2025-09-12 20:51:00,VFR,35.6,11.1,150,12,0,NA,1016.7,METAR KBAZ 122051Z 15012KT 10SM CLR 36/11 A3002 RMK AO2 SLP156 T03560111 56026,2025-09-12T21:44:54Z,2025-09-12T17:44:54Z,New Braunfels Municipal Airport,29.7045,-98.042198,US,US-TX
KBBB,"Benson Muni, MN, US",2025-09-12T21:15:00Z,2025-09-12 16:15:00,VFR,23,19,120,10,17,NA,1013.6,METAR KBBB 122115Z AUTO 12010G17KT 10SM OVC100 23/19 A2993 RMK AO2,2025-09-12T21:55:38Z,2025-09-12T17:55:38Z,Benson Municipal Airport,45.331902,-95.650597,US,US-MN
KBBB,"Benson Muni, MN, US",2025-09-12T21:35:00Z,2025-09-12 16:35:00,VFR,23,19,120,10,19,NA,1013,METAR KBBB 122135Z AUTO 12010G19KT 10SM OVC100 23/19 A2991 RMK AO2,2025-09-12T21:44:53Z,2025-09-12T17:44:53Z,Benson Municipal Airport,45.331902,-95.650597,US,US-MN
KBBD,"Brady/Curtis Fld, TX, US",2025-09-12T21:15:00Z,2025-09-12 16:15:00,VFR,32,12,140,9,0,NA,1018.7,METAR KBBD 122115Z AUTO 14009KT 10SM CLR 32/12 A3008 RMK AO2,2025-09-12T21:55:38Z,2025-09-12T17:55:38Z,Curtis Field,31.178931,-99.324732,US,US-TX
KBBD,"Brady/Curtis Fld, TX, US",2025-09-12T21:35:00Z,2025-09-12 16:35:00,VFR,32,12,140,12,0,NA,1018.7,METAR KBBD 122135Z AUTO 14012KT 10SM CLR 32/12 A3008 RMK AO2,2025-09-12T21:44:53Z,2025-09-12T17:44:53Z,Curtis Field,31.178931,-99.324732,US,US-TX
KBBG,"Branson Arpt, MO, US",2025-09-12T20:45:00Z,2025-09-12 15:45:00,VFR,34,16,220,7,0,NA,1019.7,METAR KBBG 122045Z 22007KT 180V270 10SM CLR 34/16 A3011,2025-09-12T21:44:54Z,2025-09-12T17:44:54Z,Branson Airport,36.532082,-93.200544,US,US-MO
KBBP,"Bennettsville/Marlboro Jetport, SC, US",2025-09-12T21:15:00Z,2025-09-12 17:15:00,VFR,28,15,40,7,0,NA,1018.7,METAR KBBP 122115Z AUTO 04007KT 10SM SCT060 28/15 A3008 RMK AO2,2025-09-12T21:55:38Z,2025-09-12T17:55:38Z,Marlboro County Jetport - H E Avent Field Airport,34.6217,-79.734398,US,US-SC
KBBP,"Bennettsville/Marlboro Jetport, SC, US",2025-09-12T21:35:00Z,2025-09-12 17:35:00,VFR,28,15,70,6,0,NA,1018.7,METAR KBBP 122135Z AUTO 07006KT 10SM SCT060 SCT080 28/15 A3008 RMK AO2,2025-09-12T21:44:53Z,2025-09-12T17:44:53Z,Marlboro County Jetport - H E Avent Field Airport,34.6217,-79.734398,US,US-SC
KBBW,"Broken Bow Muni, NE, US",2025-09-12T20:53:00Z,2025-09-12 15:53:00,VFR,35,12.8,200,15,26,NA,1012.3,METAR KBBW 122053Z AUTO 20015G26KT 10SM CLR 35/13 A2989 RMK AO2 PK WND 19027/2032 SLP092 T03500128 56015,2025-09-12T21:44:54Z,2025-09-12T17:44:54Z,Broken Bow Municipal Airport,41.4365005493,-99.6421966553,US,US-NE
KBCB,"Blacksburg/VA Tech Montgomery Exec, VA, US",2025-09-12T20:55:00Z,2025-09-12 16:55:00,VFR,25.5,9.9,60,3,0,NA,1023.5,METAR KBCB 122055Z AUTO 06003KT 10SM CLR 26/10 A3022 RMK AO2 T02550099,2025-09-12T21:55:38Z,2025-09-12T17:55:38Z,Virginia Tech Montgomery Executive Airport,37.2075996399,-80.4077987671,US,US-VA
KBCB,"Blacksburg/VA Tech Montgomery Exec, VA, US",2025-09-12T21:35:00Z,2025-09-12 17:35:00,VFR,25,10.4,70,6,0,NA,1023.8,METAR KBCB 122135Z AUTO 07006KT 10SM CLR 25/10 A3023 RMK AO2 T02500104,2025-09-12T21:44:53Z,2025-09-12T17:44:53Z,Virginia Tech Montgomery Executive Airport,37.2075996399,-80.4077987671,US,US-VA
KBCE,"Bryce Canyon Arpt, UT, US",2025-09-12T20:53:00Z,2025-09-12 14:53:00,VFR,19.4,-3.9,180,12,27,NA,1021.8,METAR KBCE 122053Z AUTO 18012G27KT 10SM CLR 19/M04 A3017 RMK AO2 PK WND 18027/2005 SLP120 T01941039 58012,2025-09-12T21:44:54Z,2025-09-12T17:44:54Z,Bryce Canyon Airport,37.706401825,-112.144996643,US,US-UT
KBCK,"Black River Falls Arpt, WI, US",2025-09-12T21:15:00Z,2025-09-12 21:15:00,VFR,28.6,15.8,160,7,0,NA,1018,METAR KBCK 122115Z AUTO 16007KT 120V200 10SM CLR 29/16 A3006 RMK AO2 T02860158,2025-09-12T21:55:38Z,2025-09-12T17:55:38Z,Black River Falls Area Airport,44.250702,-90.855301,US,US-WI
KBCK,"Black River Falls Arpt, WI, US",2025-09-12T21:35:00Z,2025-09-12 21:35:00,VFR,28,16,150,5,0,NA,1018,METAR KBCK 122135Z AUTO 15005KT 10SM CLR 28/16 A3006 RMK AO2 T02800160,2025-09-12T21:44:53Z,2025-09-12T17:44:53Z,Black River Falls Area Airport,44.250702,-90.855301,US,US-WI
KBCT,"Boca Raton Arpt, FL, US",2025-09-12T20:53:00Z,2025-09-12 16:53:00,VFR,26,24,360,10,0,8,1014,METAR KBCT 122053Z 36010KT 8SM VCSH -RA SCT018 26/24 A2994 RMK LTG DSNT ALQDS.,2025-09-12T21:44:53Z,2025-09-12T17:44:53Z,Boca Raton Airport,26.3785,-80.107697,US,US-FL
KBDE,"Baudette Intl, MN, US",2025-09-12T21:19:00Z,2025-09-12 16:19:00,VFR,23.3,17.8,40,6,0,NA,1015,SPECI KBDE 122119Z AUTO 04006KT 10SM FEW023 23/18 A2997 RMK AO2 T02330178,2025-09-12T21:44:53Z,2025-09-12T17:44:53Z,Baudette International Airport,48.7284011841,-94.612197876,US,US-MN
KBDG,"Blanding Muni, UT, US",2025-09-12T20:55:00Z,2025-09-12 14:55:00,VFR,17.7,12.9,50,10,0,NA,1020.1,METAR KBDG 122055Z AUTO 05010KT 10SM FEW060 18/13 A3012 RMK AO2 LTG DSNT NE - SE T01770129,2025-09-12T21:55:38Z,2025-09-12T17:55:38Z,Blanding Municipal Airport,37.58330154,-109.4830017,US,US-UT
KBDG,"Blanding Muni, UT, US",2025-09-12T21:35:00Z,2025-09-12 15:35:00,VFR,17.7,13.3,20,10,0,NA,1019.4,METAR KBDG 122135Z AUTO 02010KT 10SM VCTS FEW037 SCT055 BKN120 18/13 A3010 RMK AO2 RAB2117E2134 P0003 T01770133,2025-09-12T21:44:53Z,2025-09-12T17:44:53Z,Blanding Municipal Airport,37.58330154,-109.4830017,US,US-UT
KBDH,"Willmar Muni, MN, US",2025-09-12T21:15:00Z,2025-09-12 16:15:00,VFR,23,21,60,11,0,NA,1015,METAR KBDH 122115Z AUTO 06011KT 10SM BKN120 23/21 A2997 RMK AO2,2025-09-12T21:55:38Z,2025-09-12T17:55:38Z,Willmar Municipal Airport John L Rice Field (2006),45.117552,-95.132259,US,US-MN
KBDH,"Willmar Muni, MN, US",2025-09-12T21:35:00Z,2025-09-12 16:35:00,VFR,23,21,80,11,0,NA,1015,METAR KBDH 122135Z AUTO 08011KT 10SM SCT110 23/21 A2997 RMK AO2,2025-09-12T21:44:53Z,2025-09-12T17:44:53Z,Willmar Municipal Airport John L Rice Field (2006),45.117552,-95.132259,US,US-MN
KBDL,"Hartford/Bradley Intl, CT, US",2025-09-12T20:51:00Z,2025-09-12 16:51:00,VFR,23.9,8.9,0,0,0,NA,1021.8,METAR KBDL 122051Z 00000KT 10SM FEW055 24/09 A3017 RMK AO2 SLP215 T02390089 56014,2025-09-12T21:44:54Z,2025-09-12T17:44:54Z,Bradley International Airport,41.93851,-72.688066,US,US-CT
KBDN,"Bend Muni, OR, US",2025-09-12T21:15:00Z,2025-09-12 21:15:00,VFR,25,8,VAR,4,0,NA,1016.7,METAR KBDN 122115Z AUTO VRB04KT 10SM CLR 25/08 A3002 RMK AO2,2025-09-12T21:44:53Z,2025-09-12T17:44:53Z,Bend Municipal Airport,44.09479904,-121.2009964,US,US-OR
KBDR,"Bridgeport/Sikorsky Mem, CT, US",2025-09-12T20:52:00Z,2025-09-12 16:52:00,VFR,23.3,12.2,140,7,0,NA,1021.8,METAR KBDR 122052Z 14007KT 10SM CLR 23/12 A3017 RMK AO2 SLP215 T02330122 56008 $,2025-09-12T21:44:54Z,2025-09-12T17:44:54Z,Igor I Sikorsky Memorial Airport,41.163502,-73.126198,US,US-CT
KBDU,"Boulder Muni, CO, US",2025-09-12T21:15:00Z,2025-09-12 15:15:00,VFR,19,17,260,12,17,NA,1018.7,METAR KBDU 122115Z AUTO 26012G17KT 10SM SCT014 SCT026 BKN090 19/17 A3008 RMK AO2,2025-09-12T21:55:38Z,2025-09-12T17:55:38Z,Boulder Municipal Airport,40.039101,-105.226025,US,US-CO
KBDU,"Boulder Muni, CO, US",2025-09-12T21:35:00Z,2025-09-12 15:35:00,VFR,24,11,270,11,0,NA,1018.4,METAR KBDU 122135Z AUTO 27011KT 10SM SCT090 SCT110 24/11 A3007 RMK AO2 LTG DSNT SW,2025-09-12T21:44:53Z,2025-09-12T17:44:53Z,Boulder Municipal Airport,40.039101,-105.226025,US,US-CO
KBEC,"Wichita/Beech Factory Arpt, KS, US",2025-09-12T21:15:00Z,2025-09-12 16:15:00,VFR,33.2,16.5,200,10,15,NA,1017,METAR KBEC 122115Z AUTO 20010G15KT 10SM SCT120 33/17 A3003 RMK AO2 T03320165,2025-09-12T21:55:38Z,2025-09-12T17:55:38Z,Beech Factory Airport,37.694499969499994,-97.21499633790002,US,US-KS
KBEC,"Wichita/Beech Factory Arpt, KS, US",2025-09-12T21:35:00Z,2025-09-12 16:35:00,VFR,33,16.2,180,11,17,NA,1017,METAR KBEC 122135Z AUTO 18011G17KT 10SM SCT110 33/16 A3003 RMK AO2 T03300162,2025-09-12T21:44:53Z,2025-09-12T17:44:53Z,Beech Factory Airport,37.694499969499994,-97.21499633790002,US,US-KS
KBED,"Bedford/Hanscom Fld, MA, US",2025-09-12T20:51:00Z,2025-09-12 16:51:00,VFR,21.1,10,110,9,0,NA,1022.1,METAR KBED 122051Z 11009KT 10SM FEW050 21/10 A3018 RMK AO2 SLP233 T02110100 56007,2025-09-12T21:44:54Z,2025-09-12T17:44:54Z,Laurence G Hanscom Field,42.470001,-71.289001,US,US-MA
KBEH,"Benton Harbor/SW Michigan Rgnl, MI, US",2025-09-12T20:53:00Z,2025-09-12 16:53:00,VFR,26.7,12.8,340,4,0,NA,1021.1,METAR KBEH 122053Z AUTO 34004KT 10SM CLR 27/13 A3015 RMK AO2 SLP209 T02670128 58020,2025-09-12T21:44:54Z,2025-09-12T17:44:54Z,Southwest Michigan Regional Airport,42.128601074200006,-86.4284973145,US,US-MI
KBFA,"Boyne Falls Arpt, MI, US",2025-09-12T21:15:00Z,2025-09-12 21:15:00,VFR,22,15,310,6,0,NA,1021.8,METAR KBFA 122115Z AUTO 31006KT 10SM CLR 22/15 A3017 RMK AO2,2025-09-12T21:44:53Z,2025-09-12T17:44:53Z,Boyne Mountain Airport,45.165798,-84.924103,US,US-MI
KBFD,"Bradford Rgnl, PA, US",2025-09-12T20:53:00Z,2025-09-12 16:53:00,VFR,23.3,7.2,270,3,0,NA,1022.8,METAR KBFD 122053Z AUTO 27003KT 10SM CLR 23/07 A3020 RMK AO2 SLP221 T02330072 58016,2025-09-12T21:44:54Z,2025-09-12T17:44:54Z,Bradford Regional Airport,41.8031005859375,-78.64009857177734,US,US-PA
KBFF,"Scottsbluff/Western Nebraska Rgnl, NE, US",2025-09-12T20:53:00Z,2025-09-12 14:53:00,VFR,30,8.9,170,6,0,NA,1014.6,METAR KBFF 122053Z AUTO 17006KT 10SM CLR 30/09 A2996 RMK AO2 SLP100 T03000089 56019,2025-09-12T21:44:54Z,2025-09-12T17:44:54Z,Western Neb. Rgnl/William B. Heilig Airport,41.87400055,-103.5960007,US,US-NE
KBFI,"Seattle/Boeing Fld, WA, US",2025-09-12T20:53:00Z,2025-09-12 13:53:00,VFR,20,12.2,0,0,0,NA,1017.7,METAR KBFI 122053Z 00000KT 10SM BKN032 20/12 A3005 RMK AO2 SLP176 T02000122 56012,2025-09-12T21:44:54Z,2025-09-12T17:44:54Z,Boeing Field King County International Airport,47.529999,-122.302002,US,US-WA
KBFL,"Bakersfield/Meadows Arpt, CA, US",2025-09-12T20:54:00Z,2025-09-12 13:54:00,VFR,27.8,12.2,280,11,0,NA,1013,METAR KBFL 122054Z 28011KT 10SM CLR 28/12 A2991 RMK AO2 SLP122 T02780122 58023,2025-09-12T21:44:53Z,2025-09-12T17:44:53Z,Meadows Field,35.433601,-119.056999,US,US-CA
KBFM,"Mobile/Downtown Arpt, AL, US",2025-09-12T20:53:00Z,2025-09-12 15:53:00,VFR,33.3,17.2,30,7,0,NA,1017,METAR KBFM 122053Z 03007KT 10SM FEW060 33/17 A3003 RMK AO2 SLP169 T03330172 56018,2025-09-12T21:44:54Z,2025-09-12T17:44:54Z,Mobile Downtown Airport,30.626800537100003,-88.06809997559999,US,US-AL
KBFR,"Bedford/Grissom Arpt, IN, US",2025-09-12T21:15:00Z,2025-09-12 17:15:00,NA,29,14,VAR,3,0,NA,1020.4,METAR KBFR 122115Z AUTO VRB03KT 10SM 29/14 A3013 RMK AO2,2025-09-12T21:55:38Z,2025-09-12T17:55:38Z,Virgil I Grissom Municipal Airport,38.84000015,-86.44539642,US,US-IN
KBFR,"Bedford/Grissom Arpt, IN, US",2025-09-12T21:35:00Z,2025-09-12 17:35:00,NA,29,14,VAR,2,0,NA,1020.4,METAR KBFR 122135Z AUTO VRB02KT 10SM 29/14 A3013 RMK AO2,2025-09-12T21:44:53Z,2025-09-12T17:44:53Z,Virgil I Grissom Municipal Airport,38.84000015,-86.44539642,US,US-IN
KBGD,"Borger/Hutchinson Cnty, TX, US",2025-09-12T20:51:00Z,2025-09-12 15:51:00,VFR,32.8,9.4,180,15,28,NA,1019,METAR KBGD 122051Z AUTO 18015G28KT 10SM CLR 33/09 A3009 RMK AO2 PK WND 21029/2041 SLP140 T03280094 58024,2025-09-12T21:44:54Z,2025-09-12T17:44:54Z,Hutchinson County Airport,35.700901031499995,-101.393997192,US,US-TX
KBGE,"Bainbridge/Decatur Cnty, GA, US",2025-09-12T21:15:00Z,2025-09-12 17:15:00,VFR,32.9,14,50,10,16,NA,1016.7,METAR KBGE 122115Z AUTO 05010G16KT 10SM SCT075 33/14 A3002 RMK AO2 T03290140,2025-09-12T21:55:38Z,2025-09-12T17:55:38Z,Decatur County Industrial Air Park,30.9715004,-84.63739777,US,US-GA
KBGE,"Bainbridge/Decatur Cnty, GA, US",2025-09-12T21:35:00Z,2025-09-12 17:35:00,VFR,31.5,14.1,40,12,0,NA,1017,METAR KBGE 122135Z AUTO 04012KT 10SM BKN075 32/14 A3003 RMK AO2 T03150141,2025-09-12T21:44:53Z,2025-09-12T17:44:53Z,Decatur County Industrial Air Park,30.9715004,-84.63739777,US,US-GA
KBGF,"Winchester Muni, TN, US",2025-09-12T21:15:00Z,2025-09-12 21:15:00,VFR,29,13,VAR,NA,0,NA,1019.4,METAR KBGF 122115Z AUTO 10SM CLR 29/13 A3010 RMK A01,2025-09-12T21:44:53Z,2025-09-12T17:44:53Z,Winchester Municipal Airport,35.177502,-86.0662,US,US-TN
KBGM,"Binghamton Arpt, NY, US",2025-09-12T20:53:00Z,2025-09-12 16:53:00,VFR,22.8,10,350,5,0,NA,1022.8,METAR KBGM 122053Z AUTO 35005KT 10SM CLR 23/10 A3020 RMK AO2 SLP221 T02280100 56013,2025-09-12T21:44:53Z,2025-09-12T17:44:53Z,Greater Binghamton/Edwin A Link field,42.20869827,-75.97979736,US,US-NY
KBGR,"Bangor Intl Arpt, ME, US",2025-09-12T20:53:00Z,2025-09-12 16:53:00,VFR,21.7,3.9,360,7,0,NA,1022.1,METAR KBGR 122053Z 36007KT 10SM FEW250 22/04 A3018 RMK AO2 SLP218 T02170039 56008,2025-09-12T21:44:53Z,2025-09-12T17:44:53Z,Bangor International Airport,44.8074,-68.828102,US,US-ME
KBHB,"Bar Harbor/Hancock Cnty, ME, US",2025-09-12T20:56:00Z,2025-09-12 16:56:00,VFR,21.1,5,VAR,3,0,NA,1022.1,METAR KBHB 122056Z AUTO VRB03KT 10SM CLR 21/05 A3018 RMK AO2 SLP220 T02110050 55004,2025-09-12T21:44:53Z,2025-09-12T17:44:53Z,Hancock County-Bar Harbor Airport,44.45000076,-68.3615036,US,US-ME
KBHC,"Baxley Muni, GA, US",2025-09-12T21:15:00Z,2025-09-12 21:15:00,VFR,29,13,50,4,0,NA,1017.4,METAR KBHC 122115Z AUTO 05004KT 10SM SCT070 29/13 A3004 RMK AO2 PNO,2025-09-12T21:55:38Z,2025-09-12T17:55:38Z,Baxley Municipal Airport,31.71380043029785,-82.393798828125,US,US-GA
KBHC,"Baxley Muni, GA, US",2025-09-12T21:35:00Z,2025-09-12 21:35:00,VFR,30,13,30,8,0,NA,1017.4,METAR KBHC 122135Z AUTO 03008KT 10SM CLR 30/13 A3004 RMK AO2 PNO,2025-09-12T21:44:53Z,2025-09-12T17:44:53Z,Baxley Municipal Airport,31.71380043029785,-82.393798828125,US,US-GA
KBHK,"Baker Muni, MT, US",2025-09-12T20:51:00Z,2025-09-12 20:51:00,VFR,25,12.2,290,12,0,NA,1015.7,METAR KBHK 122051Z AUTO 29012KT 10SM CLR 25/12 A2999 RMK AO2 SLP135 T02500122 56006,2025-09-12T21:44:54Z,2025-09-12T17:44:54Z,Baker Municipal Airport,46.347599,-104.259002,US,US-MT
KBHM,"Birmingham Intl, AL, US",2025-09-12T20:53:00Z,2025-09-12 15:53:00,VFR,32.8,11.7,360,6,0,NA,1019,METAR KBHM 122053Z 36006KT 10SM FEW080 33/12 A3009 RMK AO2 SLP178 T03280117 56018,2025-09-12T21:44:53Z,2025-09-12T17:44:53Z,Birmingham-Shuttlesworth International Airport,33.562901,-86.753502,US,US-AL
KBID,"Block Island Arpt, RI, US",2025-09-12T20:56:00Z,2025-09-12 16:56:00,VFR,19.4,13.3,110,10,15,NA,1022.8,METAR KBID 122056Z AUTO 11010G15KT 10SM CLR 19/13 A3020 RMK AO2 SLP226 6//// T01940133 56003 PNO $,2025-09-12T21:44:53Z,2025-09-12T17:44:53Z,Block Island State Airport,41.168446,-71.578631,US,US-RI
KBIF,"Biggs(AAF), TX, US",2025-09-12T20:55:00Z,2025-09-12 14:55:00,VFR,33.9,10.5,180,9,0,NA,1016.3,METAR KBIF 122055Z AUTO 18009KT 10SM SCT095 BKN150 34/11 A3001 RMK AO2 SLP088 T03390105 57033 $,2025-09-12T21:44:53Z,2025-09-12T17:44:53Z,Biggs Army Air Field (Fort Bliss),31.84950066,-106.3799973,US,US-TX
KBIH,"Bishop Rgnl, CA, US",2025-09-12T21:29:00Z,2025-09-12 14:29:00,VFR,25,3.3,350,4,0,NA,1015,SPECI KBIH 122129Z AUTO 35004KT 10SM VCTS SCT110 25/03 A2997 RMK AO2 LTG DSNT E AND SW T02500033,2025-09-12T21:44:53Z,2025-09-12T17:44:53Z,Eastern Sierra Regional Airport,37.3731,-118.363998,US,US-CA
KBIJ,"Blakely/Early Cnty, GA, US",2025-09-12T21:15:00Z,2025-09-12 21:15:00,VFR,31,12,20,5,0,NA,1017.4,METAR KBIJ 122115Z AUTO 02005KT 10SM CLR 31/12 A3004 RMK AO2,2025-09-12T21:55:38Z,2025-09-12T17:55:38Z,Early County Airport,31.397499084472656,-84.8947982788086,US,US-GA
KBIJ,"Blakely/Early Cnty, GA, US",2025-09-12T21:35:00Z,2025-09-12 21:35:00,VFR,31,13,40,6,0,NA,1017.4,METAR KBIJ 122135Z AUTO 04006KT 10SM SCT070 31/13 A3004 RMK AO2,2025-09-12T21:44:53Z,2025-09-12T17:44:53Z,Early County Airport,31.397499084472656,-84.8947982788086,US,US-GA
KBIL,"Billings/Logan Intl, MT, US",2025-09-12T20:53:00Z,2025-09-12 14:53:00,VFR,25.6,6.7,100,6,0,NA,1015.3,METAR KBIL 122053Z 10006KT 10SM FEW075 SCT120 26/07 A2998 RMK AO2 SLP126 CB DSNT W-N T02560067 56018,2025-09-12T21:44:54Z,2025-09-12T17:44:54Z,Billings Logan International Airport,45.807701,-108.542999,US,US-MT
KBIS,"Bismarck Arpt, ND, US",2025-09-12T20:52:00Z,2025-09-12 15:52:00,VFR,31.7,17.8,VAR,3,0,NA,1011.9,METAR KBIS 122052Z AUTO VRB03KT 10SM CLR 32/18 A2988 RMK AO2 SLP105 T03170178 58003,2025-09-12T21:44:54Z,2025-09-12T17:44:54Z,Bismarck Municipal Airport,46.772701263427734,-100.74600219726562,US,US-ND
KBIV,"Holland/Tulip City Arpt, MI, US",2025-09-12T20:53:00Z,2025-09-12 20:53:00,VFR,26.1,10.6,VAR,5,0,NA,1021.8,METAR KBIV 122053Z AUTO VRB05KT 10SM CLR 26/11 A3017 RMK AO2 SLP214 T02610106 56020,2025-09-12T21:44:54Z,2025-09-12T17:44:54Z,West Michigan Regional Airport,42.742901,-86.107399,US,US-MI
KBIX,"Biloxi/Keesler AFB, MS, US",2025-09-12T20:55:00Z,2025-09-12 15:55:00,VFR,31.9,19.1,230,11,0,NA,1016,METAR KBIX 122055Z AUTO 23011KT 10SM FEW070 32/19 A3000 RMK AO2 SLP162 T03190191 57017,2025-09-12T21:44:53Z,2025-09-12T17:44:53Z,Keesler Air Force Base,30.4104003906,-88.92440032959999,US,US-MS
KBJC,"Rocky Mtn Metro, CO, US",2025-09-12T20:47:00Z,2025-09-12 14:47:00,VFR,21,8,280,22,32,NA,1020.1,METAR KBJC 122047Z 28022G32KT 10SM SCT048 BKN070 21/08 A3012,2025-09-12T21:44:54Z,2025-09-12T17:44:54Z,Rocky Mountain Metropolitan Airport,39.908798,-105.116997,US,US-CO
KBJI,"Bemidji Municip, MN, US",2025-09-12T21:15:00Z,2025-09-12 16:15:00,VFR,21.6,16.8,150,8,0,NA,1015.7,METAR KBJI 122115Z AUTO 15008KT 10SM CLR 22/17 A2999 RMK AO2 T02160168,2025-09-12T21:55:38Z,2025-09-12T17:55:38Z,Bemidji Regional Airport,47.50939941,-94.93370056,US,US-MN
KBJI,"Bemidji Municip, MN, US",2025-09-12T21:35:00Z,2025-09-12 16:35:00,VFR,21.3,16.3,150,9,0,NA,1015.7,METAR KBJI 122135Z AUTO 15009KT 10SM CLR 21/16 A2999 RMK AO2 T02130163,2025-09-12T21:44:53Z,2025-09-12T17:44:53Z,Bemidji Regional Airport,47.50939941,-94.93370056,US,US-MN
KBJJ,"Wooster/Wayne Cnty, OH, US",2025-09-12T20:56:00Z,2025-09-12 16:56:00,VFR,26.7,8.3,0,0,0,NA,1021.8,METAR KBJJ 122056Z AUTO 00000KT 10SM CLR 27/08 A3017 RMK AO2 SLP214 T02670083 56021,2025-09-12T21:44:53Z,2025-09-12T17:44:53Z,Wayne County Airport,40.874801635699995,-81.88829803470001,US,US-OH
KBKD,"Breckenridge/Stephens Cnty, TX, US",2025-09-12T21:15:00Z,2025-09-12 16:15:00,NA,35.7,13.2,160,11,16,NA,1017.7,METAR KBKD 122115Z AUTO 16011G16KT CLR 36/13 A3005 RMK AO2 T03570132,2025-09-12T21:55:38Z,2025-09-12T17:55:38Z,Stephens County Airport,32.71900177,-98.8909988403,US,US-TX
KBKD,"Breckenridge/Stephens Cnty, TX, US",2025-09-12T21:35:00Z,2025-09-12 16:35:00,NA,35.6,12.5,170,7,14,NA,1017.4,METAR KBKD 122135Z AUTO 17007G14KT CLR 36/13 A3004 RMK AO2 T03560125,2025-09-12T21:44:53Z,2025-09-12T17:44:53Z,Stephens County Airport,32.71900177,-98.8909988403,US,US-TX
KBKE,"Baker Muni, OR, US",2025-09-12T20:53:00Z,2025-09-12 13:53:00,VFR,23.3,8.9,250,4,0,NA,1017.4,METAR KBKE 122053Z AUTO 25004KT 10SM FEW120 23/09 A3004 RMK AO2 SLP153 T02330089 58018,2025-09-12T21:44:54Z,2025-09-12T17:44:54Z,Baker City Municipal Airport,44.8372993469,-117.808998108,US,US-OR
KBKF,"Buckley SFB, CO, US",2025-09-12T20:58:00Z,2025-09-12 14:58:00,VFR,25.8,5.4,220,10,0,NA,1018.7,METAR KBKF 122058Z 22010KT 10SM BKN120 BKN140 BKN180 26/05 A3008 RMK AO2A SLP105 T02580054 57009,2025-09-12T21:44:53Z,2025-09-12T17:44:53Z,Buckley Space Force Base,39.701698,-104.751999,US,US-CO
KBKL,"Cleveland/Burke Lakefront Arpt, OH, US",2025-09-12T20:53:00Z,2025-09-12 16:53:00,VFR,22.2,16.1,20,11,0,NA,1022.1,METAR KBKL 122053Z 02011KT 10SM CLR 22/16 A3018 RMK AO2 SLP218 T02220161 56015,2025-09-12T21:44:54Z,2025-09-12T17:44:54Z,Burke Lakefront Airport,41.51750183105469,-81.68329620361328,US,US-OH
KBKN,"Blackwell/Tonkawa Muni, OK, US",2025-09-12T20:55:00Z,2025-09-12 20:55:00,VFR,37,15,180,12,0,9,1017,METAR KBKN 122055Z AUTO 18012KT 9SM CLR 37/15 A3003 RMK AO2,2025-09-12T21:55:38Z,2025-09-12T17:55:38Z,Blackwell Tonkawa Municipal Airport,36.745098,-97.349602,US,US-OK
KBKN,"Blackwell/Tonkawa Muni, OK, US",2025-09-12T21:35:00Z,2025-09-12 21:35:00,VFR,37,15,180,12,0,9,1016.7,METAR KBKN 122135Z AUTO 18012KT 9SM CLR 37/15 A3002 RMK AO2,2025-09-12T21:44:53Z,2025-09-12T17:44:53Z,Blackwell Tonkawa Municipal Airport,36.745098,-97.349602,US,US-OK
KBKT,"Blackstone/Perkinson(AAF), VA, US",2025-09-12T20:55:00Z,2025-09-12 16:55:00,VFR,26.4,13.1,50,8,0,NA,1020.4,METAR KBKT 122055Z AUTO 05008KT 10SM FEW060 BKN080 26/13 A3013 RMK AO2 SLP203 T02640131 56012,2025-09-12T21:44:53Z,2025-09-12T17:44:53Z,Allen C Perkinson Blackstone Army Air Field,37.0741996765,-77.9574966431,US,US-VA
KBKV,"Brooksville-Tampa Bay Rgnl, FL, US",2025-09-12T20:53:00Z,2025-09-12 20:53:00,VFR,31.7,21.1,50,7,0,NA,1014.6,METAR KBKV 122053Z 05007KT 10SM CLR 32/21 A2996 RMK AO2 SLP141 T03170211 56017,2025-09-12T21:44:53Z,2025-09-12T17:44:53Z,Brooksville–Tampa Bay Regional Airport,28.469461,-82.457114,US,US-FL
KBKW,"Beckley/Raleigh Cnty, WV, US",2025-09-12T20:51:00Z,2025-09-12 16:51:00,VFR,25,10,VAR,3,0,NA,1023.1,METAR KBKW 122051Z AUTO VRB03KT 10SM CLR 25/10 A3021 RMK AO2 SLP205 T02500100 56013,2025-09-12T21:44:54Z,2025-09-12T17:44:54Z,Raleigh County Memorial Airport,37.7873,-81.124199,US,US-WV
KBLF,"Bluefield/Mercer Cnty, WV, US",2025-09-12T20:52:00Z,2025-09-12 16:52:00,VFR,22.8,9.4,VAR,4,0,NA,1023.8,METAR KBLF 122052Z AUTO VRB04KT 10SM FEW060 23/09 A3023 RMK AO2 SLP210 T02280094 56012,2025-09-12T21:44:54Z,2025-09-12T17:44:54Z,Mercer County Airport,37.295799,-81.207703,US,US-WV
KBLH,"Blythe Arpt, CA, US",2025-09-12T20:52:00Z,2025-09-12 13:52:00,VFR,33.9,5,160,6,16,NA,1008.2,METAR KBLH 122052Z AUTO 16006G16KT 10SM CLR 34/05 A2977 RMK AO2 SLP075 T03390050 58024,2025-09-12T21:44:54Z,2025-09-12T17:44:54Z,Blythe Airport,33.6192016602,-114.717002869,US,US-CA
KBLI,"Bellingham Intl, WA, US",2025-09-12T20:53:00Z,2025-09-12 13:53:00,VFR,18.9,13.3,180,8,0,NA,1017.4,METAR KBLI 122053Z 18008KT 10SM CLR 19/13 A3004 RMK AO2 SLP177 T01890133 58015,2025-09-12T21:44:54Z,2025-09-12T17:44:54Z,Bellingham International Airport,48.79280090332031,-122.53800201416016,US,US-WA
KBLM,"Farmingdale/Monmouth Exec, NJ, US",2025-09-12T20:56:00Z,2025-09-12 16:56:00,VFR,23.3,10.6,VAR,4,0,NA,1022.4,METAR KBLM 122056Z AUTO VRB04KT 10SM CLR 23/11 A3019 RMK AO2 SLP224 T02330106 56009,2025-09-12T21:44:53Z,2025-09-12T17:44:53Z,Monmouth Executive Airport,40.18690109,-74.12490082,US,US-NJ
KBLU,"Blue Canyon/Nyack Arpt, CA, US",2025-09-12T20:52:00Z,2025-09-12 13:52:00,VFR,18.9,6.7,VAR,3,0,NA,1019.7,METAR KBLU 122052Z AUTO VRB03KT 10SM FEW049 19/07 A3011 RMK AO2 SLP128 T01890067 58003 TSNO,2025-09-12T21:44:54Z,2025-09-12T17:44:54Z,Blue Canyon Nyack Airport,39.2750015259,-120.709999084,US,US-CA
KBLV,"Belleville/Scott AFB, IL, US",2025-09-12T20:55:00Z,2025-09-12 15:55:00,VFR,33.6,16.4,120,7,0,NA,1017.7,METAR KBLV 122055Z AUTO 12007KT 10SM CLR 34/16 A3005 RMK AO2 SLP175 T03360164 57024,2025-09-12T21:44:53Z,2025-09-12T17:44:53Z,Scott AFB/Midamerica Airport,38.5452,-89.835197,US,US-IL
KBMC,"Brigham City Arpt, UT, US",2025-09-12T21:15:00Z,2025-09-12 15:15:00,VFR,25,-1,190,6,0,NA,1015,METAR KBMC 122115Z AUTO 19006KT 10SM CLR 25/M01 A2997 RMK AO2,2025-09-12T21:55:38Z,2025-09-12T17:55:38Z,Brigham City Regional Airport,41.552399,-112.061996,US,US-UT
KBMC,"Brigham City Arpt, UT, US",2025-09-12T21:35:00Z,2025-09-12 15:35:00,VFR,25,0,180,8,0,NA,1015,METAR KBMC 122135Z AUTO 18008KT 10SM CLR 25/M00 A2997 RMK AO2,2025-09-12T21:44:53Z,2025-09-12T17:44:53Z,Brigham City Regional Airport,41.552399,-112.061996,US,US-UT
KBMG,"Bloomington/Monroe Cnty, IN, US",2025-09-12T20:53:00Z,2025-09-12 16:53:00,VFR,30,12.8,180,4,0,NA,1020.7,METAR KBMG 122053Z 18004KT 10SM CLR 30/13 A3014 RMK AO2 SLP199 T03000128 56019,2025-09-12T21:44:54Z,2025-09-12T17:44:54Z,Monroe County Airport,39.145999908447266,-86.61669921875,US,US-IN
KBMI,"Bloomington Rgnl, IL, US",2025-09-12T20:56:00Z,2025-09-12 15:56:00,VFR,30,13.3,210,8,0,NA,1019.7,METAR KBMI 122056Z 21008KT 10SM CLR 30/13 A3011 RMK AO2 SLP190 T03000133 58023,2025-09-12T21:44:53Z,2025-09-12T17:44:53Z,Central Illinois Regional Airport at Bloomington-Normal,40.4771,-88.915901,US,US-IL
KBML,"Berlin Muni, NH, US",2025-09-12T20:52:00Z,2025-09-12 16:52:00,VFR,22.2,3.9,0,0,0,NA,1022.4,METAR KBML 122052Z AUTO 00000KT 10SM CLR 22/04 A3019 RMK AO2 SLP227 T02220039 56009,2025-09-12T21:44:54Z,2025-09-12T17:44:54Z,Berlin Regional Airport,44.57540131,-71.17590332,US,US-NH
KBMQ,"Burnet Muni, TX, US",2025-09-12T20:53:00Z,2025-09-12 20:53:00,VFR,32.2,15.6,120,7,15,NA,1019,METAR KBMQ 122053Z AUTO 12007G15KT 10SM FEW065 32/16 A3009 RMK AO2 SLP170 T03220156 56024,2025-09-12T21:44:53Z,2025-09-12T17:44:53Z,Burnet Municipal Airport/Kate Craddock Field,30.738899,-98.238602,US,US-TX
KBMT,"Beaumont Muni, TX, US",2025-09-12T21:15:00Z,2025-09-12 16:15:00,VFR,32.9,17.1,110,4,0,NA,1017,METAR KBMT 122115Z AUTO 11004KT 10SM SCT060 SCT075 33/17 A3003 RMK AO2 T03290171,2025-09-12T21:55:38Z,2025-09-12T17:55:38Z,Beaumont Municipal Airport,30.070635,-94.215746,US,US-TX
KBMT,"Beaumont Muni, TX, US",2025-09-12T21:35:00Z,2025-09-12 16:35:00,VFR,32.7,17.5,110,4,0,NA,1017,METAR KBMT 122135Z AUTO 11004KT 10SM SCT060 SCT075 33/18 A3003 RMK AO2 T03270175,2025-09-12T21:44:53Z,2025-09-12T17:44:53Z,Beaumont Municipal Airport,30.070635,-94.215746,US,US-TX
KBNA,"Nashville Intl, TN, US",2025-09-12T20:53:00Z,2025-09-12 15:53:00,VFR,31.7,12.2,100,6,0,NA,1019.7,METAR KBNA 122053Z 10006KT 10SM FEW075 32/12 A3011 RMK AO2 SLP189 T03170122 56020 $,2025-09-12T21:44:53Z,2025-09-12T17:44:53Z,Nashville International Airport,36.1245,-86.6782,US,US-TN
KBNL,"Barnwell Cnty, SC, US",2025-09-12T21:15:00Z,2025-09-12 17:15:00,VFR,30,13,40,11,0,NA,1018.4,METAR KBNL 122115Z AUTO 04011KT 10SM FEW065 30/13 A3007 RMK AO2,2025-09-12T21:55:38Z,2025-09-12T17:55:38Z,Barnwell Regional Airport,33.25780106,-81.38829803,US,US-SC
KBNL,"Barnwell Cnty, SC, US",2025-09-12T21:35:00Z,2025-09-12 17:35:00,VFR,30,12,40,10,0,NA,1018.4,METAR KBNL 122135Z AUTO 04010KT 10SM FEW065 30/12 A3007 RMK AO2,2025-09-12T21:44:53Z,2025-09-12T17:44:53Z,Barnwell Regional Airport,33.25780106,-81.38829803,US,US-SC
KBNO,"Burns Muni, OR, US",2025-09-12T20:53:00Z,2025-09-12 13:53:00,VFR,21.7,6.7,VAR,NA,0,NA,1018.7,METAR KBNO 122053Z AUTO 10SM OVC090 22/07 A3008 RMK AO2 SLP171 T02170067 58016,2025-09-12T21:44:54Z,2025-09-12T17:44:54Z,Burns Municipal Airport,43.590463,-118.955154,US,US-OR
KBNW,"Boone Muni, IA, US",2025-09-12T21:15:00Z,2025-09-12 16:15:00,VFR,29,19,150,13,23,NA,1013.3,METAR KBNW 122115Z AUTO 15013G23KT 10SM CLR 29/19 A2992 RMK AO2,2025-09-12T21:55:38Z,2025-09-12T17:55:38Z,Boone Municipal Airport,42.049599,-93.847603,US,US-IA
KBNW,"Boone Muni, IA, US",2025-09-12T21:35:00Z,2025-09-12 16:35:00,VFR,30,19,150,14,21,NA,1013.3,METAR KBNW 122135Z AUTO 15014G21KT 10SM CLR 30/19 A2992 RMK AO2,2025-09-12T21:44:53Z,2025-09-12T17:44:53Z,Boone Municipal Airport,42.049599,-93.847603,US,US-IA
KBOI,"Boise Arpt, ID, US",2025-09-12T20:53:00Z,2025-09-12 14:53:00,VFR,24.4,8.9,280,9,14,NA,1015.7,METAR KBOI 122053Z 28009G14KT 10SM CLR 24/09 A2999 RMK AO2 SLP135 T02440089 56019,2025-09-12T21:44:54Z,2025-09-12T17:44:54Z,Boise Air Terminal/Gowen Field,43.5644,-116.223,US,US-ID
KBOK,"Brookings/State Arpt, OR, US",2025-09-12T20:56:00Z,2025-09-12 13:56:00,IFR,14.4,13.3,VAR,3,0,8,1017.4,METAR KBOK 122056Z AUTO VRB03KT 8SM OVC005 14/13 A3004 RMK AO2 SLP172 T01440133 56004,2025-09-12T21:44:53Z,2025-09-12T17:44:53Z,Brookings Airport,42.0746,-124.290001,US,US-OR
KBOS,"Boston/Logan Intl, MA, US",2025-09-12T20:54:00Z,2025-09-12 16:54:00,VFR,18.3,12.8,110,12,0,NA,1023.1,METAR KBOS 122054Z 11012KT 10SM FEW065 18/13 A3021 RMK AO2 SLP229 T01830128 56008,2025-09-12T21:44:53Z,2025-09-12T17:44:53Z,Logan International Airport,42.36197,-71.0079,US,US-MA
KBOW,"Bartow Muni, FL, US",2025-09-12T21:15:00Z,2025-09-12 17:15:00,NA,27,21,70,12,0,NA,1014.6,METAR KBOW 122115Z AUTO 07012KT CLR 27/21 A2996 RMK AO2 PWINO,2025-09-12T21:55:38Z,2025-09-12T17:55:38Z,Bartow Executive Airport,27.943399,-81.783401,US,US-FL
KBOW,"Bartow Muni, FL, US",2025-09-12T21:35:00Z,2025-09-12 17:35:00,NA,28,21,60,12,0,NA,1014.6,METAR KBOW 122135Z AUTO 06012KT FEW039 28/21 A2996 RMK AO2 PWINO,2025-09-12T21:44:53Z,2025-09-12T17:44:53Z,Bartow Executive Airport,27.943399,-81.783401,US,US-FL
KBPG,"Big Springs/McMahon , TX, US",2025-09-12T21:15:00Z,2025-09-12 16:15:00,VFR,32.6,12.5,150,13,18,NA,1018.7,METAR KBPG 122115Z AUTO 15013G18KT 10SM SCT070 33/12 A3008 RMK AO2 T03260125,2025-09-12T21:55:38Z,2025-09-12T17:55:38Z,Big Spring Mc Mahon-Wrinkle Airport,32.212601,-101.522003,US,US-TX
KBPG,"Big Springs/McMahon , TX, US",2025-09-12T21:35:00Z,2025-09-12 16:35:00,VFR,32.7,12.5,190,10,16,NA,1018.4,METAR KBPG 122135Z AUTO 19010G16KT 10SM SCT080 33/12 A3007 RMK AO2 T03270125,2025-09-12T21:44:53Z,2025-09-12T17:44:53Z,Big Spring Mc Mahon-Wrinkle Airport,32.212601,-101.522003,US,US-TX
KBPI,"Big Piney Arpt, WY, US",2025-09-12T20:53:00Z,2025-09-12 14:53:00,VFR,21.7,-1.1,VAR,NA,0,NA,1019.7,METAR KBPI 122053Z AUTO 10SM CLR 22/M01 A3011 RMK AO2 SLP096 T02171011 58025,2025-09-12T21:44:54Z,2025-09-12T17:44:54Z,Miley Memorial Field,42.58509827,-110.1110001,US,US-WY
KBPK,"Mountain Home/Baxter Cnty, AR, US",2025-09-12T20:53:00Z,2025-09-12 15:53:00,VFR,35,12.2,0,0,0,NA,1018.4,METAR KBPK 122053Z AUTO 00000KT 10SM CLR 35/12 A3007 RMK AO2 SLP171 T03500122 56024 PWINO,2025-09-12T21:44:54Z,2025-09-12T17:44:54Z,Ozark Regional Airport,36.3689002991,-92.4704971313,US,US-AR
KBPT,"Beaumont/SE Texas Rgnl, TX, US",2025-09-12T20:53:00Z,2025-09-12 15:53:00,VFR,33.9,19.4,110,6,0,NA,1017.4,METAR KBPT 122053Z 11006KT 10SM CLR 34/19 A3004 RMK AO2 SLP171 T03390194 58019,2025-09-12T21:44:54Z,2025-09-12T17:44:54Z,Jack Brooks Regional Airport,29.9508,-94.020699,US,US-TX
KBQK,"Brunswick/Golden Isles Arpt, GA, US",2025-09-12T21:15:00Z,2025-09-12 17:15:00,VFR,28.2,18,50,14,0,NA,1017.4,METAR KBQK 122115Z AUTO 05014KT 10SM CLR 28/18 A3004 RMK AO2 T02820180,2025-09-12T21:55:38Z,2025-09-12T17:55:38Z,Brunswick Golden Isles Airport,31.258801,-81.466499,US,US-GA
KBQK,"Brunswick/Golden Isles Arpt, GA, US",2025-09-12T21:35:00Z,2025-09-12 17:35:00,VFR,27.7,17.7,70,13,0,NA,1017.4,METAR KBQK 122135Z AUTO 07013KT 10SM CLR 28/18 A3004 RMK AO2 T02770177,2025-09-12T21:44:53Z,2025-09-12T17:44:53Z,Brunswick Golden Isles Airport,31.258801,-81.466499,US,US-GA
KBQP,"Morehouse Mem Arpt, LA, US",2025-09-12T21:10:00Z,2025-09-12 21:10:00,NA,33.8,17.8,0,0,0,NA,1017.7,METAR KBQP 122110Z AUTO 00000KT CLR 34/18 A3005 RMK AO2 T03380178 PWINO,2025-09-12T21:55:38Z,2025-09-12T17:55:38Z,Morehouse Memorial Airport,32.756,-91.880556,US,US-LA
KBQP,"Morehouse Mem Arpt, LA, US",2025-09-12T21:30:00Z,2025-09-12 21:30:00,NA,32.5,20.2,0,0,0,NA,1017.7,METAR KBQP 122130Z AUTO 00000KT CLR 33/20 A3005 RMK AO2 T03250202 PWINO,2025-09-12T21:44:53Z,2025-09-12T17:44:53Z,Morehouse Memorial Airport,32.756,-91.880556,US,US-LA
KBRD,"Brainerd/Lakes Rgnl, MN, US",2025-09-12T20:53:00Z,2025-09-12 15:53:00,VFR,21.1,17.8,140,6,0,NA,1016,METAR KBRD 122053Z AUTO 14006KT 10SM FEW080 21/18 A3000 RMK AO2 SLP157 T02110178 53002,2025-09-12T21:44:54Z,2025-09-12T17:44:54Z,Brainerd Lakes Regional Airport,46.402861,-94.129727,US,US-MN
KBRL,"Burlington/SE Iowa Rgnl, IA, US",2025-09-12T20:53:00Z,2025-09-12 15:53:00,VFR,31.7,16.7,170,10,0,NA,1017.4,METAR KBRL 122053Z AUTO 17010KT 10SM CLR 32/17 A3004 RMK AO2 SLP169 T03170167 58021,2025-09-12T21:44:54Z,2025-09-12T17:44:54Z,Southeast Iowa Regional Airport,40.783199310302734,-91.12550354003906,US,US-IA
KBRO,"Brownsville Intl, TX, US",2025-09-12T20:53:00Z,2025-09-12 15:53:00,VFR,33.3,23.3,80,11,19,NA,1015,METAR KBRO 122053Z 08011G19KT 10SM FEW038 33/23 A2997 RMK AO2 SLP146 T03330233 56022,2025-09-12T21:44:54Z,2025-09-12T17:44:54Z,Brownsville South Padre Island International Airport,25.90679931640625,-97.4259033203125,US,US-TX
KBRY,"Bardstown/Samuel Fld, KY, US",2025-09-12T20:55:00Z,2025-09-12 16:55:00,VFR,30.5,12.1,210,4,0,NA,1019.7,METAR KBRY 122055Z AUTO 21004KT 10SM CLR 31/12 A3011 RMK AO2 T03050121 $,2025-09-12T21:55:38Z,2025-09-12T17:55:38Z,Samuels Field,37.8143005371,-85.4996032715,US,US-KY
KBRY,"Bardstown/Samuel Fld, KY, US",2025-09-12T21:35:00Z,2025-09-12 17:35:00,VFR,30.6,11.6,40,3,0,NA,1019.7,METAR KBRY 122135Z AUTO 04003KT 10SM CLR 31/12 A3011 RMK AO2 T03060116 $,2025-09-12T21:44:53Z,2025-09-12T17:44:53Z,Samuels Field,37.8143005371,-85.4996032715,US,US-KY
KBTA,"Blair Muni, NE, US",2025-09-12T21:15:00Z,2025-09-12 21:15:00,VFR,31.4,18.4,180,14,20,NA,1013,METAR KBTA 122115Z AUTO 18014G20KT 10SM CLR 31/18 A2991 RMK AO2 T03140184,2025-09-12T21:55:38Z,2025-09-12T17:55:38Z,Blair Executive Airport,41.414908,-96.109136,US,US-NE
KBTA,"Blair Muni, NE, US",2025-09-12T21:35:00Z,2025-09-12 21:35:00,VFR,31.3,18.6,180,13,21,NA,1012.6,METAR KBTA 122135Z AUTO 18013G21KT 10SM CLR 31/19 A2990 RMK AO2 T03130186,2025-09-12T21:44:53Z,2025-09-12T17:44:53Z,Blair Executive Airport,41.414908,-96.109136,US,US-NE
KBTL,"Battle Creek/Kellogg Fld Arpt, MI, US",2025-09-12T20:53:00Z,2025-09-12 16:53:00,VFR,26.1,11.7,VAR,4,0,NA,1022.1,METAR KBTL 122053Z VRB04KT 10SM CLR 26/12 A3018 RMK AO2 SLP216 T02610117 58018,2025-09-12T21:44:54Z,2025-09-12T17:44:54Z,Battle Creek Executive Airport at Kellogg Field,42.307301,-85.251503,US,US-MI
KBTN,"Britton Muni, SD, US",2025-09-12T21:15:00Z,2025-09-12 16:15:00,VFR,26,21,160,7,15,NA,1011.6,METAR KBTN 122115Z AUTO 16007G15KT 10SM CLR 26/21 A2987 RMK AO2,2025-09-12T21:44:53Z,2025-09-12T17:44:53Z,Britton Municipal Airport,45.815200805664,-97.743103027344,US,US-SD
KBTP,"Pittsburgh/Butler Rgnl, PA, US",2025-09-12T20:56:00Z,2025-09-12 16:56:00,VFR,27.2,8.9,330,4,0,NA,1021.8,METAR KBTP 122056Z AUTO 33004KT 10SM CLR 27/09 A3017 RMK AO2 SLP217 6//// T02720089 56016,2025-09-12T21:44:53Z,2025-09-12T17:44:53Z,Pittsburgh/Butler Regional Airport,40.776901,-79.949699,US,US-PA
KBTR,"Baton Rouge/Ryan Fld, LA, US",2025-09-12T20:53:00Z,2025-09-12 15:53:00,VFR,33.9,18.3,VAR,6,0,NA,1017,METAR KBTR 122053Z VRB06KT 10SM FEW070 34/18 A3003 RMK AO2 SLP167 T03390183 56022,2025-09-12T21:44:54Z,2025-09-12T17:44:54Z,Baton Rouge Metropolitan Airport,30.533199,-91.149597,US,US-LA
KBTV,"Burlington Intl, VT, US",2025-09-12T20:54:00Z,2025-09-12 16:54:00,VFR,22.2,5,10,3,0,NA,1022.4,METAR KBTV 122054Z 01003KT 10SM FEW150 SCT200 22/05 A3019 RMK AO2 SLP222 T02220050 56019,2025-09-12T21:44:53Z,2025-09-12T17:44:53Z,Burlington International Airport,44.471901,-73.153297,US,US-VT
KBUF,"Buffalo-Niagara Intl, NY, US",2025-09-12T20:54:00Z,2025-09-12 16:54:00,VFR,25,12.2,290,6,0,NA,1022.1,METAR KBUF 122054Z 29006KT 10SM BKN050 BKN260 25/12 A3018 RMK AO2 SLP217 T02500122 56016 $,2025-09-12T21:44:56Z,2025-09-12T17:44:56Z,Buffalo Niagara International Airport,42.940498,-78.732201,US,US-NY
KBUR,"Burbank/Bob Hope Arpt, CA, US",2025-09-12T20:53:00Z,2025-09-12 13:53:00,VFR,25.6,14.4,190,7,0,NA,1013,METAR KBUR 122053Z 19007KT 10SM FEW041 26/14 A2991 RMK AO2 SLP116 T02560144 57022,2025-09-12T21:44:56Z,2025-09-12T17:44:56Z,Hollywood Burbank Airport,34.197703,-118.356378,US,US-CA
KBUR,"Burbank/Bob Hope Arpt, CA, US",2025-09-12T21:53:00Z,2025-09-12 14:53:00,VFR,25.6,15.6,170,8,0,NA,1012.3,METAR KBUR 122153Z 17008KT 10SM SCT037 26/16 A2989 RMK AO2 SLP108 T02560156,2025-09-12T21:55:41Z,2025-09-12T17:55:41Z,Hollywood Burbank Airport,34.197703,-118.356378,US,US-CA
KBUU,"Burlington Muni, WI, US",2025-09-12T21:35:00Z,2025-09-12 21:35:00,VFR,27.4,11.2,190,3,0,NA,1020.4,METAR KBUU 122135Z AUTO 19003KT 10SM CLR 27/11 A3013 RMK AO2 T02740112 PWINO,2025-09-12T21:44:55Z,2025-09-12T17:44:55Z,Burlington Municipal Airport,42.69070053100586,-88.30460357666016,US,US-WI
KBUY,"Burlington/Alamance Rgnl, NC, US",2025-09-12T20:54:00Z,2025-09-12 20:54:00,VFR,26.7,13.9,50,6,0,NA,1020.1,METAR KBUY 122054Z AUTO 05006KT 10SM FEW055 27/14 A3012 RMK AO2 SLP195 T02670139 56014,2025-09-12T21:44:56Z,2025-09-12T17:44:56Z,Burlington Alamance Regional Airport,36.04850006103515,-79.47489929199219,US,US-NC
KBVI,"Beaver Falls Arpt, PA, US",2025-09-12T20:47:00Z,2025-09-12 16:47:00,VFR,29,4,0,0,0,NA,1021.4,METAR KBVI 122047Z 00000KT 10SM CLR 29/04 A3016,2025-09-12T21:44:56Z,2025-09-12T17:44:56Z,Beaver County Airport,40.772499,-80.391403,US,US-PA
KBVI,"Beaver Falls Arpt, PA, US",2025-09-12T21:47:00Z,2025-09-12 17:47:00,VFR,29,5,0,0,0,NA,1021.4,METAR KBVI 122147Z 00000KT 10SM CLR 29/05 A3016,2025-09-12T21:55:41Z,2025-09-12T17:55:41Z,Beaver County Airport,40.772499,-80.391403,US,US-PA
KBVN,"Albion Muni, NE, US",2025-09-12T21:35:00Z,2025-09-12 21:35:00,VFR,33.3,19.1,170,11,0,NA,1011.6,METAR KBVN 122135Z AUTO 17011KT 10SM CLR 33/19 A2987 RMK AO2 T03330191,2025-09-12T21:44:55Z,2025-09-12T17:44:55Z,Albion Municipal Airport,41.7286,-98.055801,US,US-NE
KBVO,"Bartlesville Muni, OK, US",2025-09-12T20:53:00Z,2025-09-12 15:53:00,VFR,34.4,18.9,200,6,15,NA,1017.7,METAR KBVO 122053Z AUTO 20006G15KT 10SM CLR 34/19 A3005 RMK AO2 SLP164 T03440189 56017,2025-09-12T21:44:56Z,2025-09-12T17:44:56Z,Bartlesville Municipal Airport,36.762501,-96.0112,US,US-OK
KBVO,"Bartlesville Muni, OK, US",2025-09-12T21:53:00Z,2025-09-12 16:53:00,VFR,33.9,18.3,180,8,17,NA,1017,METAR KBVO 122153Z AUTO 18008G17KT 10SM CLR 34/18 A3003 RMK AO2 SLP160 T03390183,2025-09-12T21:55:41Z,2025-09-12T17:55:41Z,Bartlesville Municipal Airport,36.762501,-96.0112,US,US-OK
KBVS,"Burlington/Skagit Rgnl, WA, US",2025-09-12T21:35:00Z,2025-09-12 14:35:00,MVFR,21,14,0,0,0,NA,1017.4,METAR KBVS 122135Z AUTO 00000KT 10SM BKN028 21/14 A3004 RMK A01,2025-09-12T21:44:56Z,2025-09-12T17:44:56Z,Skagit Regional Airport,48.470901,-122.420998,US,US-WA
KBVX,"Batesville Rgnl, AR, US",2025-09-12T20:56:00Z,2025-09-12 15:56:00,VFR,36.1,17.2,VAR,4,0,8,1018,METAR KBVX 122056Z AUTO VRB04KT 8SM BKN075 36/17 A3006 RMK AO2 SLP176 T03610172 56024,2025-09-12T21:44:56Z,2025-09-12T17:44:56Z,Batesville Regional Airport,35.7262,-91.647301,US,US-AR
KBVY,"Beverly Muni, MA, US",2025-09-12T20:53:00Z,2025-09-12 16:53:00,VFR,18.3,11.7,140,8,0,NA,1022.8,METAR KBVY 122053Z 14008KT 10SM CLR 18/12 A3020 RMK AO2 SLP221 T01830117 56007,2025-09-12T21:44:56Z,2025-09-12T17:44:56Z,Beverly Regional Airport,42.584202,-70.916496,US,US-MA
KBVY,"Beverly Muni, MA, US",2025-09-12T21:53:00Z,2025-09-12 17:53:00,VFR,17.2,11.7,130,8,0,NA,1022.8,METAR KBVY 122153Z 13008KT 10SM CLR 17/12 A3020 RMK AO2 SLP221 T01720117,2025-09-12T21:55:41Z,2025-09-12T17:55:41Z,Beverly Regional Airport,42.584202,-70.916496,US,US-MA
KBWD,"Brownwood Muni, TX, US",2025-09-12T21:35:00Z,2025-09-12 16:35:00,VFR,34.1,14.9,170,10,0,NA,1017.7,METAR KBWD 122135Z AUTO 17010KT 10SM CLR 34/15 A3005 RMK AO2 T03410149 $,2025-09-12T21:44:55Z,2025-09-12T17:44:55Z,Brownwood Regional Airport,31.7936000824,-98.9564971924,US,US-TX
KBWG,"Bowling Green/Warren Cnty, KY, US",2025-09-12T20:53:00Z,2025-09-12 15:53:00,VFR,32.2,12.2,0,0,0,NA,1019.7,METAR KBWG 122053Z AUTO 00000KT 10SM FEW075 32/12 A3011 RMK AO2 SLP189 T03220122 56021,2025-09-12T21:44:56Z,2025-09-12T17:44:56Z,Bowling Green Warren County Regional Airport,36.964500427199994,-86.41970062259999,US,US-KY
KBWG,"Bowling Green/Warren Cnty, KY, US",2025-09-12T21:53:00Z,2025-09-12 16:53:00,VFR,31.7,11.7,0,0,0,NA,1019.7,METAR KBWG 122153Z AUTO 00000KT 10SM CLR 32/12 A3011 RMK AO2 SLP189 T03170117,2025-09-12T21:55:41Z,2025-09-12T17:55:41Z,Bowling Green Warren County Regional Airport,36.964500427199994,-86.41970062259999,US,US-KY
KBWI,"Baltimore-Washington Intl, MD, US",2025-09-12T20:54:00Z,2025-09-12 16:54:00,VFR,26.1,11.7,110,7,0,NA,1021.4,METAR KBWI 122054Z 11007KT 10SM FEW060 26/12 A3016 RMK AO2 SLP211 T02610117 58009,2025-09-12T21:44:56Z,2025-09-12T17:44:56Z,Baltimore/Washington International Thurgood Marshall Airport,39.1754,-76.668297,US,US-MD
KBWP,"Breckenridge-Wahpeton/Stern Arpt, ND, US",2025-09-12T21:35:00Z,2025-09-12 16:35:00,VFR,23,22,100,4,0,NA,1012.3,METAR KBWP 122135Z AUTO 10004KT 10SM CLR 23/22 A2989 RMK AO2,2025-09-12T21:44:55Z,2025-09-12T17:44:55Z,Harry Stern Airport,46.2440986633,-96.6073989868,US,US-ND
KBWW,"Bowman Rgnl, ND, US",2025-09-12T21:35:00Z,2025-09-12 15:35:00,VFR,27,16,10,7,0,NA,1014,METAR KBWW 122135Z AUTO 01007KT 10SM -DZ FEW075 27/16 A2994 RMK AO2 LTG DSNT SW AND W,2025-09-12T21:44:55Z,2025-09-12T17:44:55Z,Bowman Regional Airport,46.165519,-103.30075,US,US-ND
KBXA,"Bogalusa/Carr Arfld, LA, US",2025-09-12T21:35:00Z,2025-09-12 16:35:00,VFR,35.1,16.9,110,5,0,NA,1017,METAR KBXA 122135Z AUTO 11005KT 10SM BKN070 BKN090 BKN120 35/17 A3003 RMK AO2 T03510169,2025-09-12T21:44:56Z,2025-09-12T17:44:56Z,George R Carr Memorial Air Field,30.813699722299997,-89.8649978638,US,US-LA
KBXK,"Buckeye Muni, AZ, US",2025-09-12T21:35:00Z,2025-09-12 14:35:00,VFR,36,13,VAR,6,14,NA,1008.5,METAR KBXK 122135Z AUTO VRB06G14KT 10SM CLR 36/13 A2978 RMK AO2,2025-09-12T21:44:55Z,2025-09-12T17:44:55Z,Buckeye Municipal Airport,33.422397,-112.686317,US,US-AZ
KBXM,"Brunswick Exec, ME, US",2025-09-12T21:35:00Z,2025-09-12 17:35:00,VFR,19,9,200,7,0,NA,1023.1,METAR KBXM 122135Z AUTO 20007KT 10SM CLR 19/09 A3021 RMK AO2,2025-09-12T21:44:55Z,2025-09-12T17:44:55Z,Brunswick Executive Airport,43.89220047,-69.93859863,US,US-ME
KBYG,"Buffalo/Johnson Cnty, WY, US",2025-09-12T21:03:00Z,2025-09-12 15:03:00,VFR,17.2,10,270,16,21,NA,1019,SPECI KBYG 122103Z AUTO 27016G21KT 10SM TS BKN055 OVC070 17/10 A3009 RMK AO2 TSB2057 T01720100,2025-09-12T21:44:56Z,2025-09-12T17:44:56Z,Johnson County Airport,44.381100000000004,-106.722,US,US-WY
KBYG,"Buffalo/Johnson Cnty, WY, US",2025-09-12T21:53:00Z,2025-09-12 15:53:00,VFR,13.9,10,360,7,0,NA,1018.7,METAR KBYG 122153Z AUTO 36007KT 10SM VCTS -RA BKN060 OVC070 14/10 A3008 RMK AO2 PK WND 27028/2123 LTG DSNT NE AND SW RAB31 TSB2057E35B38E53 SLP153 P0000 T01390100,2025-09-12T21:55:41Z,2025-09-12T17:55:41Z,Johnson County Airport,44.381100000000004,-106.722,US,US-WY
KBYI,"Burley Muni, ID, US",2025-09-12T20:53:00Z,2025-09-12 14:53:00,VFR,22.8,6.1,320,9,0,NA,1016.3,METAR KBYI 122053Z AUTO 32009KT 10SM CLR 23/06 A3001 RMK AO2 SLP132 T02280061 58017,2025-09-12T21:44:56Z,2025-09-12T17:44:56Z,Burley Municipal Airport,42.542598724399994,-113.772003174,US,US-ID
KBYI,"Burley Muni, ID, US",2025-09-12T21:53:00Z,2025-09-12 15:53:00,VFR,22.2,5,270,5,0,NA,1016,METAR KBYI 122153Z AUTO 27005KT 10SM CLR 22/05 A3000 RMK AO2 SLP128 T02220050,2025-09-12T21:55:41Z,2025-09-12T17:55:41Z,Burley Municipal Airport,42.542598724399994,-113.772003174,US,US-ID
KBYS,"Bicycle Lake (AAF), CA, US",2025-09-12T20:55:00Z,2025-09-12 13:55:00,VFR,29.2,5.3,180,5,0,NA,1011.6,METAR KBYS 122055Z AUTO 18005KT 10SM CLR 29/05 A2987 RMK AO2 SLP089 T02920053 57019 $,2025-09-12T21:44:56Z,2025-09-12T17:44:56Z,Bicycle Lake Army Air Field,35.2804985046,-116.629997253,US,US-CA
KBYY,"Bay City Muni, TX, US",2025-09-12T21:35:00Z,2025-09-12 16:35:00,VFR,31.7,23.7,100,10,0,NA,1016,METAR KBYY 122135Z AUTO 10010KT 10SM FEW045 32/24 A3000 RMK AO2 T03170237,2025-09-12T21:44:55Z,2025-09-12T17:44:55Z,Bay City Regional Airport,28.973301,-95.863503,US,US-TX
KBZN,"Bozeman/Gallatin Fld, MT, US",2025-09-12T20:56:00Z,2025-09-12 14:56:00,VFR,21.7,6.7,190,8,0,NA,1017.4,METAR KBZN 122056Z 19008KT 10SM FEW120 22/07 A3004 RMK AO2 SLP145 T02170067 56016,2025-09-12T21:44:56Z,2025-09-12T17:44:56Z,Bozeman Yellowstone International Airport,45.7775,-111.153,US,US-MT
KC08,"Westcliffe/Silver West Arpt, CO, US",2025-09-12T21:35:00Z,2025-09-12 21:35:00,VFR,18,4,220,21,0,NA,1026.2,METAR KC08 122135Z AUTO 22021KT 10SM BKN090 18/04 A3030 RMK AO2,2025-09-12T21:44:55Z,2025-09-12T17:44:55Z,Silver West Airport,38.013182,-105.374279,US,US-CO
KC09,"Morris Muni, IL, US",2025-09-12T21:35:00Z,2025-09-12 21:35:00,VFR,29.5,14.9,120,6,0,NA,1019,METAR KC09 122135Z AUTO 12006KT 10SM CLR 30/15 A3009 RMK AO2 T02950149,2025-09-12T21:44:56Z,2025-09-12T17:44:56Z,Morris Municipal Airport James R. Washburn field,41.4254,-88.418701,US,US-IL
KC29,"Middleton Muni, WI, US",2025-09-12T21:35:00Z,2025-09-12 21:35:00,VFR,28,11,150,8,0,NA,1019.4,METAR KC29 122135Z AUTO 15008KT 10SM CLR 28/11 A3010 RMK AO1 T02800110,2025-09-12T21:44:55Z,2025-09-12T17:44:55Z,Middleton Municipal Morey Field,43.1143,-89.531502,US,US-WI
KC35,"Reedsburg Muni, WI, US",2025-09-12T21:35:00Z,2025-09-12 21:35:00,VFR,28.1,14.4,170,5,0,NA,1019,METAR KC35 122135Z AUTO 17005KT 10SM CLR 28/14 A3009 RMK AO2 T02810144 PWINO,2025-09-12T21:44:55Z,2025-09-12T17:44:55Z,Reedsburg Municipal Airport,43.525902,-89.9832,US,US-WI
KC62,"Kendallville Muni, IN, US",2025-09-12T21:15:00Z,2025-09-12 21:15:00,VFR,25.9,11.1,0,0,0,NA,1022.1,METAR KC62 122115Z AUTO 00000KT 10SM CLR 26/11 A3018 RMK AO2 T02590111,2025-09-12T21:44:56Z,2025-09-12T17:44:56Z,Kendallville Municipal Airport,41.472698,-85.260803,US,US-IN
KC62,"Kendallville Muni, IN, US",2025-09-12T21:55:00Z,2025-09-12 21:55:00,VFR,24.4,14.6,0,0,0,NA,1022.1,METAR KC62 122155Z AUTO 00000KT 10SM SCT065 24/14 A3018 RMK AO2 T02440146,2025-09-12T21:55:41Z,2025-09-12T17:55:41Z,Kendallville Municipal Airport,41.472698,-85.260803,US,US-IN
KC65,"Plymouth Muni, IN, US",2025-09-12T21:35:00Z,2025-09-12 17:35:00,VFR,27,12,90,4,0,NA,1021.1,METAR KC65 122135Z AUTO 09004KT 10SM CLR 27/12 A3015 RMK A01,2025-09-12T21:44:55Z,2025-09-12T17:44:55Z,Plymouth Municipal Airport,41.365101,-86.300499,US,US-IN
KC75,"Lacon/Marshall Cnty, IL, US",2025-09-12T21:35:00Z,2025-09-12 21:35:00,VFR,30.3,12.1,130,4,0,NA,1018.4,METAR KC75 122135Z AUTO 13004KT 10SM CLR 30/12 A3007 RMK AO2 T03030121,2025-09-12T21:44:56Z,2025-09-12T17:44:56Z,Marshall County Airport,41.018391,-89.385865,US,US-IL
KC83,"Byron Arpt, CA, US",2025-09-12T21:35:00Z,2025-09-12 21:35:00,VFR,31,13,VAR,3,12,7,1012.3,METAR KC83 122135Z AUTO VRB03G12KT 7SM CLR 31/13 A2989 RMK AO2,2025-09-12T21:44:55Z,2025-09-12T17:44:55Z,Byron Airport,37.82647,-121.621699,US,US-CA
KCAD,"Cadillac/Wexford Cnty, MI, US",2025-09-12T21:35:00Z,2025-09-12 17:35:00,VFR,24,12,VAR,6,0,NA,1021.8,METAR KCAD 122135Z AUTO VRB06KT 10SM CLR 24/12 A3017 RMK AO2,2025-09-12T21:44:56Z,2025-09-12T17:44:56Z,Wexford County Airport,44.275749,-85.421534,US,US-MI
KCAE,"Columbia Metro, SC, US",2025-09-12T20:56:00Z,2025-09-12 16:56:00,VFR,29.4,13.3,50,9,0,NA,1018.4,METAR KCAE 122056Z 05009KT 10SM SCT065 29/13 A3007 RMK AO2 SLP178 T02940133 56015,2025-09-12T21:44:56Z,2025-09-12T17:44:56Z,Columbia Metropolitan Airport,33.938801,-81.119499,US,US-SC
KCAG,"Craig-Moffat Arpt, CO, US",2025-09-12T21:41:00Z,2025-09-12 15:41:00,VFR,13.3,10.6,VAR,4,0,NA,1023.1,SPECI KCAG 122141Z AUTO VRB04KT 10SM FEW016 BKN080 OVC095 13/11 A3021 RMK AO2 LTG DSNT SW AND W RAE2057 P0000 T01330106,2025-09-12T21:44:55Z,2025-09-12T17:44:55Z,Craig Moffat Airport,40.4952011108,-107.522003174,US,US-CO
KCAG,"Craig-Moffat Arpt, CO, US",2025-09-12T21:53:00Z,2025-09-12 15:53:00,VFR,13.3,10.6,0,0,0,NA,1023.5,METAR KCAG 122153Z AUTO 00000KT 10SM -RA FEW017 OVC075 13/11 A3022 RMK AO2 RAE2057B49 SLP188 P0000 T01330106,2025-09-12T21:55:41Z,2025-09-12T17:55:41Z,Craig Moffat Airport,40.4952011108,-107.522003174,US,US-CO
KCAK,"Akron/Canton Rgnl, OH, US",2025-09-12T20:51:00Z,2025-09-12 16:51:00,VFR,26.7,8.3,290,3,0,NA,1021.4,METAR KCAK 122051Z 29003KT 10SM FEW250 27/08 A3016 RMK AO2 SLP207 T02670083 56020,2025-09-12T21:44:56Z,2025-09-12T17:44:56Z,Akron Canton Regional Airport,40.91609954833984,-81.44219970703125,US,US-OH
KCAK,"Akron/Canton Rgnl, OH, US",2025-09-12T21:51:00Z,2025-09-12 17:51:00,VFR,26.7,8.3,290,3,0,NA,1021.4,METAR KCAK 122151Z 29003KT 10SM CLR 27/08 A3016 RMK AO2 SLP206 T02670083,2025-09-12T21:55:41Z,2025-09-12T17:55:41Z,Akron Canton Regional Airport,40.91609954833984,-81.44219970703125,US,US-OH
KCAO,"Clayton Muni, NM, US",2025-09-12T20:55:00Z,2025-09-12 14:55:00,VFR,29.4,7.2,180,17,28,NA,1020.4,METAR KCAO 122055Z AUTO 18017G28KT 10SM CLR 29/07 A3013 RMK AO2 PK WND 17028/2047 SLP131 T02940072 58024,2025-09-12T21:44:56Z,2025-09-12T17:44:56Z,Clayton Municipal Airpark,36.4462013245,-103.166999817,US,US-NM
KCAR,"Caribou Muni, ME, US",2025-09-12T20:54:00Z,2025-09-12 16:54:00,VFR,18.9,5,330,5,0,NA,1021.8,METAR KCAR 122054Z AUTO 33005KT 10SM CLR 19/05 A3017 RMK AO2 SLP223 T01890050 55005,2025-09-12T21:44:56Z,2025-09-12T17:44:56Z,Caribou Municipal Airport,46.871498,-68.017899,US,US-ME
KCAV,"Clarion Muni, IA, US",2025-09-12T21:35:00Z,2025-09-12 21:35:00,VFR,27,18,160,16,25,NA,1013.6,METAR KCAV 122135Z AUTO 16016G25KT 10SM CLR 27/18 A2993 RMK A01,2025-09-12T21:44:56Z,2025-09-12T17:44:56Z,Clarion Municipal Airport,42.741901,-93.758904,US,US-IA
KCBE,"Cumberland Arpt, MD, US",2025-09-12T21:35:00Z,2025-09-12 17:35:00,VFR,28.4,9.3,210,6,0,NA,1021.8,METAR KCBE 122135Z AUTO 21006KT 10SM CLR 28/09 A3017 RMK AO2 T02840093,2025-09-12T21:44:56Z,2025-09-12T17:44:56Z,Greater Cumberland Regional Airport,39.615398,-78.760902,US,US-WV
KCBE,"Cumberland Arpt, MD, US",2025-09-12T21:45:00Z,2025-09-12 17:45:00,VFR,28.3,9,230,6,0,NA,1021.8,METAR KCBE 122145Z AUTO 23006KT 10SM CLR 28/09 A3017 RMK AO2 T02830090,2025-09-12T21:55:41Z,2025-09-12T17:55:41Z,Greater Cumberland Regional Airport,39.615398,-78.760902,US,US-WV
KCBF,"Council Bluffs Muni, IA, US",2025-09-12T21:35:00Z,2025-09-12 16:35:00,VFR,31,19,200,13,18,NA,1012.6,METAR KCBF 122135Z AUTO 20013G18KT 10SM CLR 31/19 A2990 RMK AO2,2025-09-12T21:44:55Z,2025-09-12T17:44:55Z,Council Bluffs Municipal Airport,41.2592010498,-95.760597229,US,US-IA
KCBG,"Cambridge Muni, MN, US",2025-09-12T21:05:00Z,2025-09-12 21:05:00,NA,19,18,VAR,6,0,5,1018,METAR KCBG 122105Z VRB06KT 5SM VCTS 19/18 A3006 RMK AO2,2025-09-12T21:44:56Z,2025-09-12T17:44:56Z,Cambridge Municipal Airport,45.557499,-93.264198,US,US-MN
KCBK,"Colby/Shaltz Fld, KS, US",2025-09-12T21:35:00Z,2025-09-12 16:35:00,VFR,35.4,8.3,190,16,24,NA,1014.6,METAR KCBK 122135Z AUTO 19016G24KT 10SM CLR 35/08 A2996 RMK AO2 T03540083,2025-09-12T21:44:56Z,2025-09-12T17:44:56Z,Shalz Field,39.42750168,-101.0469971,US,US-KS
KCBM,"Columbus AFB, MS, US",2025-09-12T20:55:00Z,2025-09-12 15:55:00,VFR,34.7,14.5,60,7,0,NA,1016,METAR KCBM 122055Z 06007KT 10SM FEW070 35/15 A3000 RMK AO2A SLP159 T03470145 57021 $,2025-09-12T21:44:56Z,2025-09-12T17:44:56Z,Columbus Air Force Base,33.643799,-88.443802,US,US-MS
KCCA,"Clinton Muni, AR, US",2025-09-12T21:35:00Z,2025-09-12 21:35:00,VFR,33,18,150,5,0,NA,1018.4,METAR KCCA 122135Z AUTO 15005KT 10SM CLR 33/18 A3007 RMK AO2,2025-09-12T21:44:55Z,2025-09-12T17:44:55Z,Clinton Municipal Airport,35.597801,-92.451599,US,US-AR
KCCA,"Clinton Muni, AR, US",2025-09-12T21:55:00Z,2025-09-12 21:55:00,VFR,34,18,220,5,0,NA,1018,METAR KCCA 122155Z AUTO 22005KT 10SM CLR 34/18 A3006 RMK AO2,2025-09-12T21:55:41Z,2025-09-12T17:55:41Z,Clinton Municipal Airport,35.597801,-92.451599,US,US-AR
KCCB,"Upland/Cable Arpt, CA, US",2025-09-12T21:15:00Z,2025-09-12 14:15:00,VFR,24,12,240,4,13,NA,1013.3,METAR KCCB 122115Z AUTO 24004G13KT 10SM CLR 24/12 A2992 RMK AO2,2025-09-12T21:44:56Z,2025-09-12T17:44:56Z,Upland-Cable Airport,34.111599,-117.688004,US,US-CA
KCCB,"Upland/Cable Arpt, CA, US",2025-09-12T21:35:00Z,2025-09-12 14:35:00,VFR,24,13,240,6,13,9,1013,METAR KCCB 122135Z AUTO 24006G13KT 9SM CLR 24/13 A2991 RMK AO2,2025-09-12T21:55:41Z,2025-09-12T17:55:41Z,Upland-Cable Airport,34.111599,-117.688004,US,US-CA
KCCO,"Newnan/Coweta Cnty, GA, US",2025-09-12T21:35:00Z,2025-09-12 21:35:00,VFR,29.6,12.6,100,3,0,NA,1019.7,METAR KCCO 122135Z AUTO 10003KT 10SM CLR 30/13 A3011 RMK AO2 T02960126,2025-09-12T21:44:55Z,2025-09-12T17:44:55Z,Newnan Coweta County Airport,33.3116,-84.769798,US,US-GA
KCCO,"Newnan/Coweta Cnty, GA, US",2025-09-12T21:55:00Z,2025-09-12 21:55:00,VFR,29.1,12.9,0,0,0,NA,1019.7,METAR KCCO 122155Z AUTO 00000KT 10SM SCT060 29/13 A3011 RMK AO2 T02910129,2025-09-12T21:55:41Z,2025-09-12T17:55:41Z,Newnan Coweta County Airport,33.3116,-84.769798,US,US-GA
KCCR,"Concord/Buchanan Fld, CA, US",2025-09-12T20:53:00Z,2025-09-12 13:53:00,VFR,27.8,13.9,200,8,0,NA,1013.3,METAR KCCR 122053Z 20008KT 10SM CLR 28/14 A2992 RMK AO2 SLP117 T02780139 58018,2025-09-12T21:44:56Z,2025-09-12T17:44:56Z,Buchanan Field,37.9897,-122.056999,US,US-CA
KCCR,"Concord/Buchanan Fld, CA, US",2025-09-12T21:53:00Z,2025-09-12 14:53:00,VFR,28.3,13.3,180,10,0,NA,1012.6,METAR KCCR 122153Z 18010KT 10SM CLR 28/13 A2990 RMK AO2 SLP111 T02830133,2025-09-12T21:55:41Z,2025-09-12T17:55:41Z,Buchanan Field,37.9897,-122.056999,US,US-CA
KCCY,"Charles City/NE Iowa Rgnl, IA, US",2025-09-12T21:35:00Z,2025-09-12 16:35:00,VFR,28,18,150,9,15,NA,1015,METAR KCCY 122135Z AUTO 15009G15KT 10SM CLR 28/18 A2997 RMK AO2,2025-09-12T21:44:56Z,2025-09-12T17:44:56Z,Northeast Iowa Regional Airport,43.0726013184,-92.6108016968,US,US-IA
KCDC,"Cedar City Muni, UT, US",2025-09-12T20:53:00Z,2025-09-12 14:53:00,VFR,23.9,-0.6,240,16,25,NA,1017.7,METAR KCDC 122053Z AUTO 24016G25KT 10SM CLR 24/M01 A3005 RMK AO2 PK WND 23028/2033 SLP109 T02391006 58012,2025-09-12T21:44:56Z,2025-09-12T17:44:56Z,Cedar City Regional Airport,37.70100021362305,-113.0989990234375,US,US-UT
KCDC,"Cedar City Muni, UT, US",2025-09-12T21:53:00Z,2025-09-12 15:53:00,VFR,23.9,-0.6,240,14,21,NA,1017.4,METAR KCDC 122153Z AUTO 24014G21KT 10SM CLR 24/M01 A3004 RMK AO2 SLP104 T02391006,2025-09-12T21:55:41Z,2025-09-12T17:55:41Z,Cedar City Regional Airport,37.70100021362305,-113.0989990234375,US,US-UT
KCDH,"Camden/Harrell Fld, AR, US",2025-09-12T21:35:00Z,2025-09-12 16:35:00,VFR,35,19,0,0,0,7,1017.4,METAR KCDH 122135Z AUTO 00000KT 7SM CLR 35/19 A3004 RMK AO2,2025-09-12T21:44:55Z,2025-09-12T17:44:55Z,Harrell Field,33.622798919699996,-92.7633972168,US,US-AR
KCDI,"Cambridg Muni, OH, US",2025-09-12T21:35:00Z,2025-09-12 21:35:00,VFR,28.2,10.2,340,4,0,NA,1020.7,METAR KCDI 122135Z AUTO 34004KT 10SM CLR 28/10 A3014 RMK AO2 T02820102,2025-09-12T21:44:55Z,2025-09-12T17:44:55Z,Cambridge Municipal Airport,39.974998,-81.577599,US,US-OH
KCDN,"Camden/Woodward Fld, SC, US",2025-09-12T21:30:00Z,2025-09-12 17:30:00,VFR,29,13,50,10,0,NA,1019,METAR KCDN 122130Z AUTO 05010KT 10SM FEW060 FEW070 29/13 A3009 RMK AO2,2025-09-12T21:44:56Z,2025-09-12T17:44:56Z,Woodward Field,34.2835998535,-80.56490325930001,US,US-SC
KCDR,"Chadron Muni, NE, US",2025-09-12T20:53:00Z,2025-09-12 14:53:00,VFR,31.1,11.1,50,3,0,NA,1013,METAR KCDR 122053Z AUTO 05003KT 10SM CLR 31/11 A2991 RMK AO2 SLP103 T03110111 56020,2025-09-12T21:44:56Z,2025-09-12T17:44:56Z,Chadron Municipal Airport,42.837601,-103.095001,US,US-NE
KCDR,"Chadron Muni, NE, US",2025-09-12T21:53:00Z,2025-09-12 15:53:00,VFR,31.7,10.6,0,0,0,NA,1012.6,METAR KCDR 122153Z AUTO 00000KT 10SM CLR 32/11 A2990 RMK AO2 SLP096 T03170106,2025-09-12T21:55:41Z,2025-09-12T17:55:41Z,Chadron Municipal Airport,42.837601,-103.095001,US,US-NE
KCDS,"Childress Muni, TX, US",2025-09-12T20:53:00Z,2025-09-12 15:53:00,VFR,33.9,15,170,12,0,NA,1018,METAR KCDS 122053Z AUTO 17012KT 10SM CLR 34/15 A3006 RMK AO2 SLP153 T03390150 58024,2025-09-12T21:44:56Z,2025-09-12T17:44:56Z,Childress Municipal Airport,34.4337997437,-100.288002014,US,US-TX
KCDS,"Childress Muni, TX, US",2025-09-12T21:53:00Z,2025-09-12 16:53:00,VFR,34.4,13.9,180,16,22,NA,1017.4,METAR KCDS 122153Z AUTO 18016G22KT 10SM CLR 34/14 A3004 RMK AO2 SLP144 T03440139,2025-09-12T21:55:41Z,2025-09-12T17:55:41Z,Childress Municipal Airport,34.4337997437,-100.288002014,US,US-TX
KCDW,"Caldwell/Essex Cnty, NJ, US",2025-09-12T20:53:00Z,2025-09-12 16:53:00,VFR,26.1,11.1,0,0,0,NA,1021.4,METAR KCDW 122053Z 00000KT 10SM CLR 26/11 A3016 RMK AO2 SLP218 T02610111 56015,2025-09-12T21:44:56Z,2025-09-12T17:44:56Z,Essex County Airport,40.875198364300005,-74.2814025879,US,US-NJ
KCDW,"Caldwell/Essex Cnty, NJ, US",2025-09-12T21:53:00Z,2025-09-12 17:53:00,VFR,26.1,11.1,330,3,0,NA,1021.4,METAR KCDW 122153Z 33003KT 10SM CLR 26/11 A3016 RMK AO2 SLP217 T02610111,2025-09-12T21:55:41Z,2025-09-12T17:55:41Z,Essex County Airport,40.875198364300005,-74.2814025879,US,US-NJ
KCEC,"Crescent City/McNama, CA, US",2025-09-12T21:34:00Z,2025-09-12 14:34:00,MVFR,16.1,13.3,270,5,0,NA,1017,SPECI KCEC 122134Z AUTO 27005KT 10SM OVC010 16/13 A3003 RMK AO2 T01610133,2025-09-12T21:44:56Z,2025-09-12T17:44:56Z,Jack Mc Namara Field Airport,41.778929,-124.236403,US,US-CA
KCEF,"Chicopee/Westover AFB, MA, US",2025-09-12T20:55:00Z,2025-09-12 16:55:00,VFR,24.6,8.9,0,0,0,NA,1020.4,METAR KCEF 122055Z 00000KT 10SM FEW060 25/09 A3013 RMK AO2A SLP206 T02460089 57014,2025-09-12T21:44:56Z,2025-09-12T17:44:56Z,Westover Metropolitan Airport / Westover Air Reserve Base,42.194,-72.534798,US,US-MA
KCEU,"Clemson/Oconee Cnty, SC, US",2025-09-12T20:54:00Z,2025-09-12 16:54:00,VFR,28.3,15,0,0,0,NA,1020.1,METAR KCEU 122054Z AUTO 00000KT 10SM FEW060 28/15 A3012 RMK AO2 SLP188 T02830150 56013,2025-09-12T21:44:56Z,2025-09-12T17:44:56Z,Oconee County Regional Airport,34.6719017,-82.8864975,US,US-SC
KCEW,"Crestview/Sikes Arpt, FL, US",2025-09-12T20:53:00Z,2025-09-12 15:53:00,VFR,33.3,15,VAR,3,0,NA,1017.4,METAR KCEW 122053Z AUTO VRB03KT 10SM FEW080 33/15 A3004 RMK AO2 SLP167 T03330150 56018,2025-09-12T21:44:56Z,2025-09-12T17:44:56Z,Bob Sikes Airport,30.778799057,-86.522102356,US,US-FL
KCEW,"Crestview/Sikes Arpt, FL, US",2025-09-12T21:53:00Z,2025-09-12 16:53:00,VFR,32.8,15,0,0,0,NA,1017,METAR KCEW 122153Z AUTO 00000KT 10SM CLR 33/15 A3003 RMK AO2 SLP165 T03280150,2025-09-12T21:55:41Z,2025-09-12T17:55:41Z,Bob Sikes Airport,30.778799057,-86.522102356,US,US-FL
KCEY,"Murray/Oakley Fld, KY, US",2025-09-12T21:35:00Z,2025-09-12 16:35:00,VFR,32,13,50,8,0,NA,1019,METAR KCEY 122135Z AUTO 05008KT 10SM CLR 32/13 A3009 RMK A01,2025-09-12T21:44:55Z,2025-09-12T17:44:55Z,Murray-Calloway County Airport Kyle-Oakley Field,36.6646,-88.372803,US,US-KY
KCEZ,"Cortez/Montezuma Cnt, CO, US",2025-09-12T20:53:00Z,2025-09-12 14:53:00,VFR,19.4,13.3,80,7,0,NA,1020.1,METAR KCEZ 122053Z AUTO 08007KT 10SM FEW031 BKN075 19/13 A3012 RMK AO2 RAB34E53 SLP133 P0001 60009 T01940133 58023,2025-09-12T21:44:56Z,2025-09-12T17:44:56Z,Cortez Municipal Airport,37.303001,-108.627998,US,US-CO
KCEZ,"Cortez/Montezuma Cnt, CO, US",2025-09-12T21:53:00Z,2025-09-12 15:53:00,VFR,19.4,13.3,230,7,0,NA,1020.1,METAR KCEZ 122153Z AUTO 23007KT 10SM CLR 19/13 A3012 RMK AO2 LTG DSNT S AND NW SLP134 T01940133,2025-09-12T21:55:41Z,2025-09-12T17:55:41Z,Cortez Municipal Airport,37.303001,-108.627998,US,US-CO
KCFD,"Bryan/Coulter Fld, TX, US",2025-09-12T21:35:00Z,2025-09-12 16:35:00,VFR,33.9,18.3,110,7,0,NA,1018,METAR KCFD 122135Z AUTO 11007KT 10SM SCT060 34/18 A3006 RMK AO2 T03390183,2025-09-12T21:44:55Z,2025-09-12T17:44:55Z,Coulter Field,30.7157001495,-96.3313980103,US,US-TX
KCFE,"Buffalo Muni, MN, US",2025-09-12T21:35:00Z,2025-09-12 21:35:00,VFR,21,21,40,10,17,NA,1016.3,METAR KCFE 122135Z AUTO 04010G17KT 10SM BKN120 21/21 A3001 RMK AO2,2025-09-12T21:44:56Z,2025-09-12T17:44:56Z,Buffalo Municipal Airport,45.159,-93.8433,US,US-MN
KCFJ,"Crawfordsville Muni, IN, US",2025-09-12T21:35:00Z,2025-09-12 21:35:00,VFR,27.4,7.9,0,0,0,NA,1020.4,METAR KCFJ 122135Z AUTO 00000KT 10SM CLR 27/08 A3013 RMK AO2 T02740079,2025-09-12T21:44:56Z,2025-09-12T17:44:56Z,Crawfordsville Regional Airport,39.975602,-86.919899,US,US-IN
KCFS,"Tuscola Area Arpt, MI, US",2025-09-12T21:35:00Z,2025-09-12 17:35:00,VFR,25,13,140,4,0,9,1021.8,METAR KCFS 122135Z AUTO 14004KT 9SM CLR 25/13 A3017 RMK AO2,2025-09-12T21:44:55Z,2025-09-12T17:44:55Z,Tuscola Area Airport,43.458801,-83.445503,US,US-MI
KCFV,"Coffeyville Muni, KS, US",2025-09-12T20:52:00Z,2025-09-12 15:52:00,VFR,32.2,21.1,180,10,0,NA,1017.4,METAR KCFV 122052Z AUTO 18010KT 10SM CLR 32/21 A3004 RMK AO2 SLP164 T03220211 58018,2025-09-12T21:44:56Z,2025-09-12T17:44:56Z,Coffeyville Municipal Airport,37.09400177,-95.5718994141,US,US-KS
KCFV,"Coffeyville Muni, KS, US",2025-09-12T21:52:00Z,2025-09-12 16:52:00,VFR,32.2,21.7,170,9,0,NA,1017,METAR KCFV 122152Z AUTO 17009KT 10SM CLR 32/22 A3003 RMK AO2 SLP160 T03220217,2025-09-12T21:55:41Z,2025-09-12T17:55:41Z,Coffeyville Municipal Airport,37.09400177,-95.5718994141,US,US-KS
KCGC,"Crystal River Arpt, FL, US",2025-09-12T21:35:00Z,2025-09-12 21:35:00,VFR,NA,NA,60,8,0,NA,1015,METAR KCGC 122135Z AUTO 06008KT 10SM SCT044 SCT050 BKN070 A2997 RMK AO2,2025-09-12T21:44:56Z,2025-09-12T17:44:56Z,Crystal River Airport,28.867246,-82.571009,US,US-FL
KCGE,"Cambridge/Dorchester Rgnl, MD, US",2025-09-12T21:35:00Z,2025-09-12 17:35:00,VFR,26,13,90,8,0,NA,1021.1,METAR KCGE 122135Z AUTO 09008KT 10SM CLR 26/13 A3015 RMK A01,2025-09-12T21:44:55Z,2025-09-12T17:44:55Z,Cambridge Dorchester Airport,38.53929901,-76.03040314,US,US-MD
KCGE,"Cambridge/Dorchester Rgnl, MD, US",2025-09-12T21:45:00Z,2025-09-12 17:45:00,VFR,26,13,90,5,11,NA,1021.4,METAR KCGE 122145Z AUTO 09005G11KT 10SM CLR 26/13 A3016 RMK A01,2025-09-12T21:55:41Z,2025-09-12T17:55:41Z,Cambridge Dorchester Airport,38.53929901,-76.03040314,US,US-MD
KCGF,"Cleveland/Cuyahoga Cnty, OH, US",2025-09-12T20:45:00Z,2025-09-12 16:45:00,VFR,23,15,330,7,0,NA,1022.4,METAR KCGF 122045Z 33007KT 10SM CLR 23/15 A3019,2025-09-12T21:44:56Z,2025-09-12T17:44:56Z,Cuyahoga County Airport,41.5651016235,-81.4863967896,US,US-OH
KCGF,"Cleveland/Cuyahoga Cnty, OH, US",2025-09-12T21:45:00Z,2025-09-12 17:45:00,VFR,22,14,30,10,0,NA,1022.4,METAR KCGF 122145Z 03010KT 10SM CLR 22/14 A3019,2025-09-12T21:55:41Z,2025-09-12T17:55:41Z,Cuyahoga County Airport,41.5651016235,-81.4863967896,US,US-OH
KCGI,"Cape Girardeau Rgnl, MO, US",2025-09-12T20:53:00Z,2025-09-12 15:53:00,VFR,33.3,16.7,60,7,0,NA,1018,METAR KCGI 122053Z 06007KT 10SM CLR 33/17 A3006 RMK AO2 SLP177 T03330167 56019,2025-09-12T21:44:56Z,2025-09-12T17:44:56Z,Cape Girardeau Regional Airport,37.2253,-89.570801,US,US-MO
KCGI,"Cape Girardeau Rgnl, MO, US",2025-09-12T21:53:00Z,2025-09-12 16:53:00,VFR,32.8,16.1,90,8,0,NA,1017.7,METAR KCGI 122153Z 09008KT 10SM CLR 33/16 A3005 RMK AO2 SLP173 T03280161,2025-09-12T21:55:41Z,2025-09-12T17:55:41Z,Cape Girardeau Regional Airport,37.2253,-89.570801,US,US-MO
KCGS,"College Park Arpt, MD, US",2025-09-12T21:35:00Z,2025-09-12 17:35:00,VFR,26,11.8,70,3,0,NA,1021.8,METAR KCGS 122135Z AUTO 07003KT 10SM CLR 26/12 A3017 RMK AO2 T02600118,2025-09-12T21:44:56Z,2025-09-12T17:44:56Z,College Park Airport,38.9805984497,-76.9223022461,US,US-MD
KCGS,"College Park Arpt, MD, US",2025-09-12T21:45:00Z,2025-09-12 17:45:00,VFR,25.8,12,70,5,0,NA,1021.8,METAR KCGS 122145Z AUTO 07005KT 10SM CLR 26/12 A3017 RMK AO2 T02580120,2025-09-12T21:55:41Z,2025-09-12T17:55:41Z,College Park Airport,38.9805984497,-76.9223022461,US,US-MD
KCGZ,"Casa Granda Muni, AZ, US",2025-09-12T20:56:00Z,2025-09-12 13:56:00,VFR,36.1,16.1,200,11,18,NA,1009.6,METAR KCGZ 122056Z AUTO 20011G18KT 10SM FEW080 36/16 A2981 RMK AO2 WSHFT 2039 SLP076 6//// T03610161 56030 $,2025-09-12T21:44:56Z,2025-09-12T17:44:56Z,Casa Grande Municipal Airport,32.954899,-111.766998,US,US-AZ
KCHA,"Chattanooga Metro, TN, US",2025-09-12T20:53:00Z,2025-09-12 16:53:00,VFR,30,12.2,360,6,0,NA,1019.4,METAR KCHA 122053Z 36006KT 10SM FEW065 30/12 A3010 RMK AO2 SLP187 T03000122 56016 $,2025-09-12T21:44:56Z,2025-09-12T17:44:56Z,Chattanooga Metropolitan Airport (Lovell Field),35.035301,-85.203796,US,US-TN
KCHA,"Chattanooga Metro, TN, US",2025-09-12T21:53:00Z,2025-09-12 17:53:00,VFR,30,6.7,360,10,0,NA,1019.7,METAR KCHA 122153Z 36010KT 10SM FEW070 30/07 A3011 RMK AO2 SLP188 T03000067 $,2025-09-12T21:55:41Z,2025-09-12T17:55:41Z,Chattanooga Metropolitan Airport (Lovell Field),35.035301,-85.203796,US,US-TN
KCHD,"Chandler Muni, AZ, US",2025-09-12T20:47:00Z,2025-09-12 20:47:00,VFR,36,16,220,10,22,NA,1009.2,METAR KCHD 122047Z 22010G22KT 10SM FEW150 36/16 A2980,2025-09-12T21:44:56Z,2025-09-12T17:44:56Z,Chandler Municipal Airport,33.2691,-111.810997,US,US-AZ
KCHD,"Chandler Muni, AZ, US",2025-09-12T21:47:00Z,2025-09-12 21:47:00,VFR,38,14,220,11,18,NA,1008.2,METAR KCHD 122147Z 22011G18KT 10SM FEW150 38/14 A2977,2025-09-12T21:55:41Z,2025-09-12T17:55:41Z,Chandler Municipal Airport,33.2691,-111.810997,US,US-AZ
KCHK,"Chickasha Muni, OK, US",2025-09-12T21:35:00Z,2025-09-12 16:35:00,VFR,35.2,15.8,170,12,17,NA,1016.3,METAR KCHK 122135Z AUTO 17012G17KT 10SM CLR 35/16 A3001 RMK AO2 T03520158,2025-09-12T21:44:56Z,2025-09-12T17:44:56Z,Chickasha Municipal Airport,35.09740067,-97.96769714,US,US-OK
KCHO,"Charlottesville/Albemarle Arpt, VA, US",2025-09-12T20:53:00Z,2025-09-12 16:53:00,VFR,27.2,8.9,30,8,0,NA,1021.1,METAR KCHO 122053Z 03008KT 10SM CLR 27/09 A3015 RMK AO2 SLP205 T02720089 56011,2025-09-12T21:44:56Z,2025-09-12T17:44:56Z,Charlottesville Albemarle Airport,38.13859939575195,-78.4529037475586,US,US-VA
KCHO,"Charlottesville/Albemarle Arpt, VA, US",2025-09-12T21:53:00Z,2025-09-12 17:53:00,VFR,26.7,9.4,70,7,0,NA,1021.1,METAR KCHO 122153Z 07007KT 10SM CLR 27/09 A3015 RMK AO2 SLP204 T02670094,2025-09-12T21:55:41Z,2025-09-12T17:55:41Z,Charlottesville Albemarle Airport,38.13859939575195,-78.4529037475586,US,US-VA
KCHS,"Charleston Intl, SC, US",2025-09-12T20:56:00Z,2025-09-12 16:56:00,VFR,27.2,16.1,20,8,0,NA,1017.7,METAR KCHS 122056Z 02008KT 10SM SCT055 BKN070 BKN250 27/16 A3005 RMK AO2 SLP174 T02720161 56011,2025-09-12T21:44:56Z,2025-09-12T17:44:56Z,Charleston International Airport,32.898602,-80.040497,US,US-SC
KCIC,"Chico Muni, CA, US",2025-09-12T20:50:00Z,2025-09-12 13:50:00,VFR,29,13,190,4,0,NA,1012.6,METAR KCIC 122050Z 19004KT 10SM CLR 29/13 A2990,2025-09-12T21:44:56Z,2025-09-12T17:44:56Z,Chico Regional Airport,39.795595,-121.857716,US,US-CA
KCIC,"Chico Muni, CA, US",2025-09-12T21:50:00Z,2025-09-12 14:50:00,VFR,30,12,0,0,0,NA,1011.9,METAR KCIC 122150Z 00000KT 10SM CLR 30/12 A2988,2025-09-12T21:55:41Z,2025-09-12T17:55:41Z,Chico Regional Airport,39.795595,-121.857716,US,US-CA
KCID,"Cedar Rapids/E Iowa Arpt, IA, US",2025-09-12T20:52:00Z,2025-09-12 15:52:00,VFR,29.4,16.1,160,8,0,9,1017.4,METAR KCID 122052Z 16008KT 9SM BKN110 29/16 A3004 RMK AO2 SLP167 T02940161 56019 $,2025-09-12T21:44:56Z,2025-09-12T17:44:56Z,The Eastern Iowa Airport,41.884701,-91.7108,US,US-IA
KCID,"Cedar Rapids/E Iowa Arpt, IA, US",2025-09-12T21:52:00Z,2025-09-12 16:52:00,VFR,27.2,19.4,140,8,0,NA,1016.3,METAR KCID 122152Z 14008KT 10SM CLR 27/19 A3001 RMK AO2 RAB04E23 SLP157 P0001 T02720194 $,2025-09-12T21:55:41Z,2025-09-12T17:55:41Z,The Eastern Iowa Airport,41.884701,-91.7108,US,US-IA
KCIN,"Carroll/Neu Arpt, IA, US",2025-09-12T21:35:00Z,2025-09-12 16:35:00,VFR,32,19,190,12,17,9,1012.6,METAR KCIN 122135Z AUTO 19012G17KT 9SM CLR 32/19 A2990 RMK AO2,2025-09-12T21:44:56Z,2025-09-12T17:44:56Z,Arthur N Neu Airport,42.0461997986,-94.7890014648,US,US-IA
KCIR,"Cairo Rgnl, IL, US",2025-09-12T21:35:00Z,2025-09-12 16:35:00,VFR,33.7,16.4,50,5,0,NA,1018.4,METAR KCIR 122135Z AUTO 05005KT 10SM SCT090 34/16 A3007 RMK AO2 T03370164,2025-09-12T21:44:55Z,2025-09-12T17:44:55Z,Cairo Regional Airport,37.064499,-89.219597,US,US-IL
KCIU,"Chippewa Cnty Intl, MI, US",2025-09-12T20:56:00Z,2025-09-12 16:56:00,VFR,20,15,230,4,0,NA,1022.4,METAR KCIU 122056Z AUTO 23004KT 10SM SCT120 20/15 A3019 RMK AO2 SLP221 T02000150 56010,2025-09-12T21:44:56Z,2025-09-12T17:44:56Z,Chippewa County International Airport,46.247707,-84.471379,US,US-MI
KCJR,"Culpeper Rgnl, VA, US",2025-09-12T21:35:00Z,2025-09-12 21:35:00,VFR,28.2,7.8,100,4,0,NA,1021.4,METAR KCJR 122135Z AUTO 10004KT 10SM CLR 28/08 A3016 RMK AO2 T02820078,2025-09-12T21:44:55Z,2025-09-12T17:44:55Z,Culpeper Regional Airport,38.526699,-77.858902,US,US-VA
KCKB,"Clarksburg/NC West Virginia Arpt, WV, US",2025-09-12T20:53:00Z,2025-09-12 16:53:00,VFR,28.3,10.6,30,7,0,NA,1021.4,METAR KCKB 122053Z AUTO 03007KT 10SM CLR 28/11 A3016 RMK AO2 SLP202 T02830106 56015,2025-09-12T21:44:56Z,2025-09-12T17:44:56Z,North Central West Virginia Airport,39.2966,-80.228104,US,US-WV
KCKB,"Clarksburg/NC West Virginia Arpt, WV, US",2025-09-12T21:53:00Z,2025-09-12 17:53:00,VFR,29.4,10.6,VAR,6,0,NA,1021.4,METAR KCKB 122153Z AUTO VRB06KT 10SM CLR 29/11 A3016 RMK AO2 SLP199 T02940106,2025-09-12T21:55:41Z,2025-09-12T17:55:41Z,North Central West Virginia Airport,39.2966,-80.228104,US,US-WV
KCKC,"Grand Marais Muni, MN, US",2025-09-12T21:09:00Z,2025-09-12 16:09:00,LIFR,14,14,0,0,0,7,1019,METAR KCKC 122109Z 00000KT 7SM OVC004 14/14 A3009 RMK AO2,2025-09-12T21:44:56Z,2025-09-12T17:44:56Z,Grand Marais Cook County Airport,47.8382987976,-90.3828964233,US,US-MN
KCKC,"Grand Marais Muni, MN, US",2025-09-12T21:44:00Z,2025-09-12 16:44:00,LIFR,14,14,0,0,0,7,1019.4,METAR KCKC 122144Z 00000KT 7SM BKN004 OVC055 14/14 A3010 RMK AO2,2025-09-12T21:55:41Z,2025-09-12T17:55:41Z,Grand Marais Cook County Airport,47.8382987976,-90.3828964233,US,US-MN
KCKF,"Cordele/Crisp Cnty, GA, US",2025-09-12T21:35:00Z,2025-09-12 21:35:00,VFR,30.2,15.1,40,9,0,NA,1018.4,METAR KCKF 122135Z AUTO 04009KT 10SM CLR 30/15 A3007 RMK AO2 T03020151,2025-09-12T21:44:55Z,2025-09-12T17:44:55Z,Crisp County Cordele Airport,31.9888,-83.773903,US,US-GA
KCKI,"Kingstree/Williamsburg Rgnl, SC, US",2025-09-12T21:35:00Z,2025-09-12 21:35:00,VFR,27,13,90,5,0,NA,1018,METAR KCKI 122135Z AUTO 09005KT 10SM CLR 27/13 A3006 RMK AO2,2025-09-12T21:44:56Z,2025-09-12T17:44:56Z,Williamsburg Regional Airport,33.717201,-79.857002,US,US-SC
KCKM,"Clarksdale/Fletcher Fld, MS, US",2025-09-12T21:35:00Z,2025-09-12 16:35:00,NA,NA,NA,10,5,11,NA,1017.4,METAR KCKM 122135Z AUTO 01005G11KT 10SM A3004 RMK A01,2025-09-12T21:44:55Z,2025-09-12T17:44:55Z,Fletcher Field,34.2997016907,-90.512298584,US,US-MS
KCKN,"Crookston Muni, MN, US",2025-09-12T21:35:00Z,2025-09-12 16:35:00,VFR,27,19,70,4,0,NA,1013.3,METAR KCKN 122135Z AUTO 07004KT 10SM BKN036 27/19 A2992 RMK AO2,2025-09-12T21:44:56Z,2025-09-12T17:44:56Z,Crookston Municipal Kirkwood Field,47.8417015076,-96.62159729,US,US-MN
KCKP,"Cherokee Cnty, IA, US",2025-09-12T21:35:00Z,2025-09-12 21:35:00,VFR,30,19,200,15,20,NA,1011.9,METAR KCKP 122135Z AUTO 20015G20KT 10SM CLR 30/19 A2988 RMK AO2,2025-09-12T21:44:55Z,2025-09-12T17:44:55Z,Cherokee County Regional Airport,42.7317009,-95.55590057,US,US-IA
KCKV,"Clarksville/Outlaw Fld, TN, US",2025-09-12T20:52:00Z,2025-09-12 15:52:00,VFR,32.8,11.7,120,3,0,NA,1019,METAR KCKV 122052Z AUTO 12003KT 10SM CLR 33/12 A3009 RMK AO2 SLP182 T03280117 56021,2025-09-12T21:44:56Z,2025-09-12T17:44:56Z,Clarksville–Montgomery County Regional Airport,36.6218986511,-87.4150009155,US,US-TN
KCKV,"Clarksville/Outlaw Fld, TN, US",2025-09-12T21:52:00Z,2025-09-12 16:52:00,VFR,32.8,11.7,50,7,0,NA,1019,METAR KCKV 122152Z AUTO 05007KT 10SM FEW090 33/12 A3009 RMK AO2 SLP183 T03280117,2025-09-12T21:55:41Z,2025-09-12T17:55:41Z,Clarksville–Montgomery County Regional Airport,36.6218986511,-87.4150009155,US,US-TN
KCKZ,"Perkasie/Pennridge Arpt, PA, US",2025-09-12T21:35:00Z,2025-09-12 21:35:00,VFR,25,14,0,0,0,NA,1022.1,METAR KCKZ 122135Z AUTO 00000KT 10SM CLR 25/14 A3018 RMK AO2,2025-09-12T21:44:55Z,2025-09-12T17:44:55Z,Pennridge Airport,40.389198303222656,-75.290496826171875,US,US-PA
KCLE,"Cleveland/Hopkins Intl, OH, US",2025-09-12T20:51:00Z,2025-09-12 16:51:00,VFR,22.8,13.9,360,11,0,NA,1021.8,METAR KCLE 122051Z 36011KT 10SM CLR 23/14 A3017 RMK AO2 SLP231 T02280139 56014 $,2025-09-12T21:44:56Z,2025-09-12T17:44:56Z,Cleveland Hopkins International Airport,41.411701,-81.8498,US,US-OH
KCLE,"Cleveland/Hopkins Intl, OH, US",2025-09-12T21:51:00Z,2025-09-12 17:51:00,VFR,22.2,15,20,10,0,NA,1022.1,METAR KCLE 122151Z 02010KT 10SM CLR 22/15 A3018 RMK AO2 SLP234 T02220150 $,2025-09-12T21:55:41Z,2025-09-12T17:55:41Z,Cleveland Hopkins International Airport,41.411701,-81.8498,US,US-OH
KCLI,"Clintonville Muni, WI, US",2025-09-12T21:35:00Z,2025-09-12 16:35:00,VFR,23.4,14.1,170,4,0,NA,1020.4,METAR KCLI 122135Z AUTO 17004KT 10SM CLR 23/14 A3013 RMK AO2 T02340141,2025-09-12T21:44:55Z,2025-09-12T17:44:55Z,Clintonville Municipal Airport,44.613800048799995,-88.731300354,US,US-WI
KCLK,"Clinton Rgnl, OK, US",2025-09-12T21:35:00Z,2025-09-12 16:35:00,VFR,34,11,210,14,18,NA,1017.7,METAR KCLK 122135Z AUTO 21014G18KT 10SM CLR 34/11 A3005 RMK AO2,2025-09-12T21:44:56Z,2025-09-12T17:44:56Z,Clinton Regional Airport,35.5383,-98.932701,US,US-OK
KCLL,"College Station/Easterwood Arpt, TX, US",2025-09-12T20:53:00Z,2025-09-12 15:53:00,VFR,33.9,18.9,90,7,15,NA,1017.4,METAR KCLL 122053Z 09007G15KT 10SM FEW060 34/19 A3004 RMK AO2 SLP168 T03390189 58022,2025-09-12T21:44:56Z,2025-09-12T17:44:56Z,Easterwood Field,30.5886,-96.3638,US,US-TX
KCLL,"College Station/Easterwood Arpt, TX, US",2025-09-12T21:53:00Z,2025-09-12 16:53:00,VFR,33.9,18.3,150,9,0,NA,1017,METAR KCLL 122153Z 15009KT 10SM FEW060 34/18 A3003 RMK AO2 SLP164 T03390183,2025-09-12T21:55:41Z,2025-09-12T17:55:41Z,Easterwood Field,30.5886,-96.3638,US,US-TX
KCLM,"Port Angeles Intl, WA, US",2025-09-12T20:53:00Z,2025-09-12 13:53:00,VFR,18.3,13.9,VAR,5,0,NA,1018,METAR KCLM 122053Z AUTO VRB05KT 10SM FEW033 18/14 A3006 RMK AO2 SLP178 T01830139 56010,2025-09-12T21:44:56Z,2025-09-12T17:44:56Z,William R Fairchild International Airport,48.120201,-123.5,US,US-WA
KCLM,"Port Angeles Intl, WA, US",2025-09-12T21:53:00Z,2025-09-12 14:53:00,VFR,17.8,14.4,280,7,0,NA,1017.7,METAR KCLM 122153Z AUTO 28007KT 10SM OVC031 18/14 A3005 RMK AO2 SLP175 T01780144,2025-09-12T21:55:41Z,2025-09-12T17:55:41Z,William R Fairchild International Airport,48.120201,-123.5,US,US-WA
KCLS,"Chehalis-Centralia Arpt, WA, US",2025-09-12T21:35:00Z,2025-09-12 14:35:00,VFR,21,14,30,6,0,NA,1017.4,METAR KCLS 122135Z AUTO 03006KT 10SM CLR 21/14 A3004 RMK AO2,2025-09-12T21:44:55Z,2025-09-12T17:44:55Z,Chehalis Centralia Airport,46.676998,-122.983002,US,US-WA
KCLT,"Charlotte/Douglas Intl, NC, US",2025-09-12T20:52:00Z,2025-09-12 16:52:00,VFR,26.7,13.3,70,8,15,NA,1020.1,METAR KCLT 122052Z 07008G15KT 10SM SCT060 SCT080 27/13 A3012 RMK AO2 SLP207 T02670133 56014,2025-09-12T21:44:56Z,2025-09-12T17:44:56Z,Charlotte Douglas International Airport,35.2140007019043,-80.94309997558594,US,US-NC
KCLT,"Charlotte/Douglas Intl, NC, US",2025-09-12T21:52:00Z,2025-09-12 17:52:00,VFR,27.8,13.3,40,9,0,NA,1020.1,METAR KCLT 122152Z 04009KT 10SM FEW060 28/13 A3012 RMK AO2 SLP207 T02780133,2025-09-12T21:55:41Z,2025-09-12T17:55:41Z,Charlotte Douglas International Airport,35.2140007019043,-80.94309997558594,US,US-NC
KCLW,"Clearwater Air Park, FL, US",2025-09-12T21:35:00Z,2025-09-12 17:35:00,VFR,28,22,340,9,15,NA,1014.3,METAR KCLW 122135Z AUTO 34009G15KT 10SM SCT037 SCT048 28/22 A2995 RMK AO2,2025-09-12T21:44:55Z,2025-09-12T17:44:55Z,Clearwater Air Park,27.9766998291,-82.7586975098,US,US-FL
KCMA,"Camarillo Arpt, CA, US",2025-09-12T20:55:00Z,2025-09-12 20:55:00,VFR,23.9,16.1,220,9,0,NA,1013,METAR KCMA 122055Z 22009KT 10SM FEW023 24/16 A2991 RMK AO2 SLP135 T02390161 58015,2025-09-12T21:44:56Z,2025-09-12T17:44:56Z,Camarillo International Airport,34.213699,-119.094002,US,US-CA
KCMD,"Culman Rgnl, AL, US",2025-09-12T21:35:00Z,2025-09-12 21:35:00,VFR,30,13,40,7,0,NA,1019.4,METAR KCMD 122135Z AUTO 04007KT 10SM FEW070 30/13 A3010 RMK AO2,2025-09-12T21:44:56Z,2025-09-12T17:44:56Z,Cullman Regional Airport-Folsom Field,34.2687,-86.858002,US,US-AL
KCMH,"Columbus/Glenn Intl, OH, US",2025-09-12T20:51:00Z,2025-09-12 16:51:00,VFR,28.3,8.9,0,0,0,NA,1020.7,METAR KCMH 122051Z 00000KT 10SM FEW070 FEW250 28/09 A3014 RMK AO2 SLP202 T02830089 56021,2025-09-12T21:44:56Z,2025-09-12T17:44:56Z,John Glenn Columbus International Airport,39.998001,-82.891899,US,US-OH
KCMH,"Columbus/Glenn Intl, OH, US",2025-09-12T21:51:00Z,2025-09-12 17:51:00,VFR,28.3,8.3,0,0,0,NA,1020.4,METAR KCMH 122151Z 00000KT 10SM FEW070 FEW250 28/08 A3013 RMK AO2 SLP199 T02830083,2025-09-12T21:55:41Z,2025-09-12T17:55:41Z,John Glenn Columbus International Airport,39.998001,-82.891899,US,US-OH
KCMI,"Champaign/Willard Arpt, IL, US",2025-09-12T20:53:00Z,2025-09-12 15:53:00,VFR,31.1,13.3,210,8,0,NA,1019.7,METAR KCMI 122053Z 21008KT 10SM FEW050 31/13 A3011 RMK AO2 SLP192 T03110133 58022,2025-09-12T21:44:56Z,2025-09-12T17:44:56Z,University of Illinois Willard Airport,40.039819,-88.276249000000007,US,US-IL
KCMI,"Champaign/Willard Arpt, IL, US",2025-09-12T21:53:00Z,2025-09-12 16:53:00,VFR,31.1,13.3,170,8,0,NA,1019.4,METAR KCMI 122153Z 17008KT 10SM CLR 31/13 A3010 RMK AO2 SLP189 T03110133,2025-09-12T21:55:41Z,2025-09-12T17:55:41Z,University of Illinois Willard Airport,40.039819,-88.276249000000007,US,US-IL
KCMR,"Williams/Clark Fld, AZ, US",2025-09-12T21:35:00Z,2025-09-12 21:35:00,VFR,24,-9,220,22,35,NA,1020.4,METAR KCMR 122135Z AUTO 22022G35KT 10SM CLR 24/M09 A3013 RMK AO2,2025-09-12T21:44:55Z,2025-09-12T17:44:55Z,H.A. Clark Memorial Field,35.305555,-112.194393,US,US-AZ
KCMX,"Houghton Cnty Mem, MI, US",2025-09-12T20:53:00Z,2025-09-12 16:53:00,VFR,17.8,14.4,110,8,0,NA,1019.4,METAR KCMX 122053Z AUTO 11008KT 10SM FEW090 18/14 A3010 RMK AO2 SLP192 T01780144 58016,2025-09-12T21:44:56Z,2025-09-12T17:44:56Z,Houghton County Memorial Airport,47.168399810791016,-88.48909759521484,US,US-MI
KCMX,"Houghton Cnty Mem, MI, US",2025-09-12T21:53:00Z,2025-09-12 17:53:00,VFR,17.2,13.3,90,6,0,NA,1019.4,METAR KCMX 122153Z AUTO 09006KT 10SM FEW090 OVC110 17/13 A3010 RMK AO2 SLP193 T01720133,2025-09-12T21:55:41Z,2025-09-12T17:55:41Z,Houghton County Memorial Airport,47.168399810791016,-88.48909759521484,US,US-MI
KCMY,"Sparta/Ft McCoy Arpt, WI, US",2025-09-12T20:55:00Z,2025-09-12 15:55:00,VFR,28.8,16.7,130,7,0,NA,1017.7,METAR KCMY 122055Z AUTO 13007KT 10SM CLR 29/17 A3005 RMK AO2 SLP176 T02880167 56023,2025-09-12T21:44:56Z,2025-09-12T17:44:56Z,Sparta Fort McCoy Airport,43.958009,-90.737886,US,US-WI
KCNB,"Canby Muni, MN, US",2025-09-12T21:35:00Z,2025-09-12 21:35:00,VFR,27,18.8,80,10,14,NA,1014.3,METAR KCNB 122135Z AUTO 08010G14KT 10SM SCT037 27/19 A2995 RMK AO2 T02700188,2025-09-12T21:44:55Z,2025-09-12T17:44:55Z,Myers Field Airport,44.7295,-96.265999,US,US-MN
KCNC,"Chariton Muni, IA, US",2025-09-12T21:35:00Z,2025-09-12 21:35:00,VFR,30,18,140,8,0,NA,1016.3,METAR KCNC 122135Z AUTO 14008KT 10SM CLR 30/18 A3001 RMK AO2,2025-09-12T21:44:58Z,2025-09-12T17:44:58Z,Chariton Municipal Airport,41.01959991455078,-93.35970306396484,US,US-IA
KCNK,"Concordia/Blosser Muni, KS, US",2025-09-12T20:55:00Z,2025-09-12 15:55:00,VFR,35,17.2,210,20,28,NA,1014,METAR KCNK 122055Z AUTO 21020G28KT 10SM CLR 35/17 A2994 RMK AO2 PK WND 19028/2046 SLP119 T03500172 56014,2025-09-12T21:44:58Z,2025-09-12T17:44:58Z,Blosser Municipal Airport,39.5493011475,-97.6522979736,US,US-KS
KCNM,"Carlsbad/Cavern City Air Term, NM, US",2025-09-12T20:53:00Z,2025-09-12 14:53:00,VFR,33.3,10,140,7,18,NA,1017,METAR KCNM 122053Z AUTO 14007G18KT 090V180 10SM CLR 33/10 A3003 RMK AO2 SLP109 T03330100 58032,2025-09-12T21:44:59Z,2025-09-12T17:44:59Z,Cavern City Air Terminal,32.337501525878906,-104.26300048828124,US,US-NM
KCNM,"Carlsbad/Cavern City Air Term, NM, US",2025-09-12T21:53:00Z,2025-09-12 15:53:00,VFR,33.9,11.1,160,12,19,NA,1016.3,METAR KCNM 122153Z AUTO 16012G19KT 10SM CLR 34/11 A3001 RMK AO2 SLP102 T03390111,2025-09-12T21:55:43Z,2025-09-12T17:55:43Z,Cavern City Air Terminal,32.337501525878906,-104.26300048828124,US,US-NM
KCNO,"Chino Arpt, CA, US",2025-09-12T20:53:00Z,2025-09-12 13:53:00,VFR,27.2,14.4,VAR,5,0,NA,1013,METAR KCNO 122053Z VRB05KT 10SM FEW060 27/14 A2991 RMK AO2 SLP123 T02720144 58027,2025-09-12T21:44:59Z,2025-09-12T17:44:59Z,Chino Airport,33.97470093,-117.637001,US,US-CA
KCNO,"Chino Arpt, CA, US",2025-09-12T21:53:00Z,2025-09-12 14:53:00,VFR,28.9,13.3,220,9,17,NA,1012.3,METAR KCNO 122153Z 22009G17KT 10SM FEW050 29/13 A2989 RMK AO2 SLP116 T02890133,2025-09-12T21:55:43Z,2025-09-12T17:55:43Z,Chino Airport,33.97470093,-117.637001,US,US-CA
KCNU,"Chanute/Johnson Arpt, KS, US",2025-09-12T20:52:00Z,2025-09-12 15:52:00,VFR,32.2,20.6,200,14,20,NA,1017.7,METAR KCNU 122052Z AUTO 20014G20KT 10SM CLR 32/21 A3005 RMK AO2 SLP163 T03220206 58016,2025-09-12T21:44:59Z,2025-09-12T17:44:59Z,Chanute Martin Johnson Airport,37.668173,-95.486727,US,US-KS
KCNU,"Chanute/Johnson Arpt, KS, US",2025-09-12T21:52:00Z,2025-09-12 16:52:00,VFR,32.2,20.6,180,14,20,NA,1017.4,METAR KCNU 122152Z AUTO 18014G20KT 10SM CLR 32/21 A3004 RMK AO2 SLP161 T03220206,2025-09-12T21:55:43Z,2025-09-12T17:55:43Z,Chanute Martin Johnson Airport,37.668173,-95.486727,US,US-KS
KCNW,"Waco/Texas State Tech Arpt, TX, US",2025-09-12T21:55:00Z,2025-09-12 16:55:00,VFR,32,17,140,6,0,NA,1017.7,METAR KCNW 122155Z 14006KT 10SM SCT055 32/17 A3005,2025-09-12T21:55:43Z,2025-09-12T17:55:43Z,TSTC Waco Airport,31.641129,-97.073335,US,US-TX
KCNY,"Moab/Canyonland Fld, UT, US",2025-09-12T20:53:00Z,2025-09-12 14:53:00,MVFR,18.3,13.9,90,24,29,5,1016.3,METAR KCNY 122053Z AUTO 09024G29KT 5SM RA FEW028 BKN090 OVC110 18/14 A3001 RMK AO2 PK WND 10029/2052 WSHFT 1940 RAB35 TSB36E51 SLP110 P0008 60015 T01830139 58002,2025-09-12T21:44:59Z,2025-09-12T17:44:59Z,Canyonlands Regional Airport,38.755001,-109.754997,US,US-UT
KCNY,"Moab/Canyonland Fld, UT, US",2025-09-12T21:53:00Z,2025-09-12 15:53:00,VFR,22.8,12.2,140,12,0,NA,1014.6,METAR KCNY 122153Z AUTO 14012KT 10SM CLR 23/12 A2996 RMK AO2 RAE28 SLP089 P0001 T02280122,2025-09-12T21:55:43Z,2025-09-12T17:55:43Z,Canyonlands Regional Airport,38.755001,-109.754997,US,US-UT
KCOD,"Cody/Yellowstone Rgnl, WY, US",2025-09-12T20:56:00Z,2025-09-12 14:56:00,VFR,23.3,1.7,VAR,6,0,NA,1018,METAR KCOD 122056Z AUTO VRB06KT 10SM BKN110 23/02 A3006 RMK AO2 LTG DSNT S SLP132 T02330017 56015,2025-09-12T21:44:58Z,2025-09-12T17:44:58Z,Yellowstone Regional Airport,44.520199,-109.024002,US,US-WY
KCOD,"Cody/Yellowstone Rgnl, WY, US",2025-09-12T21:44:00Z,2025-09-12 15:44:00,VFR,24,-1,220,10,17,NA,1018,SPECI KCOD 122144Z AUTO 22010G17KT 10SM TS FEW110 24/M01 A3006 RMK AO2 PK WND 23029/2059 TSB33,2025-09-12T21:55:43Z,2025-09-12T17:55:43Z,Yellowstone Regional Airport,44.520199,-109.024002,US,US-WY
KCOE,"Coeur DAlene Arpt, ID, US",2025-09-12T20:56:00Z,2025-09-12 13:56:00,VFR,24.4,12.8,270,8,0,NA,1016.3,METAR KCOE 122056Z AUTO 27008KT 10SM FEW043 24/13 A3001 RMK AO2 SLP160 T02440128 58015,2025-09-12T21:44:58Z,2025-09-12T17:44:58Z,Coeur D'Alene Airport - Pappy Boyington Field,47.7743,-116.82,US,US-ID
KCOF,"Cocoa Beach/Patrick(AFB), FL, US",2025-09-12T20:55:00Z,2025-09-12 16:55:00,VFR,28.4,22.4,60,6,0,NA,1013,METAR KCOF 122055Z AUTO 06006KT 10SM -RA FEW210 28/22 A2991 RMK AO2 SLP133 P0000 60000 T02840224 57011 $,2025-09-12T21:44:58Z,2025-09-12T17:44:58Z,Patrick Space Force Base,28.2349,-80.6101,US,US-FL
KCOI,"Cocoa/Merritt Isl Arpt, FL, US",2025-09-12T21:15:00Z,2025-09-12 17:15:00,VFR,26,25,320,5,0,NA,1014.6,METAR KCOI 122115Z AUTO 32005KT 10SM FEW019 FEW025 SCT036 26/25 A2996 RMK AO2,2025-09-12T21:44:58Z,2025-09-12T17:44:58Z,Merritt Island Airport,28.341600418099997,-80.6855010986,US,US-FL
KCOI,"Cocoa/Merritt Isl Arpt, FL, US",2025-09-12T21:35:00Z,2025-09-12 17:35:00,VFR,26,24,330,8,0,NA,1014.3,METAR KCOI 122135Z AUTO 33008KT 10SM CLR 26/24 A2995 RMK AO2,2025-09-12T21:55:43Z,2025-09-12T17:55:43Z,Merritt Island Airport,28.341600418099997,-80.6855010986,US,US-FL
KCOM,"Coleman Muni, TX, US",2025-09-12T21:35:00Z,2025-09-12 16:35:00,VFR,34.4,11.5,140,7,19,NA,1018.4,METAR KCOM 122135Z AUTO 14007G19KT 10SM CLR 34/12 A3007 RMK AO2 T03440115 PWINO,2025-09-12T21:44:58Z,2025-09-12T17:44:58Z,Coleman Municipal Airport,31.841100692699996,-99.4036026001,US,US-TX
KCON,"Concord Muni, NH, US",2025-09-12T20:51:00Z,2025-09-12 16:51:00,VFR,23.9,7.8,0,0,0,NA,1021.8,METAR KCON 122051Z AUTO 00000KT 10SM CLR 24/08 A3017 RMK AO2 SLP219 T02390078 56015,2025-09-12T21:44:59Z,2025-09-12T17:44:59Z,Concord Municipal Airport,43.20270157,-71.50229645,US,US-NH
KCON,"Concord Muni, NH, US",2025-09-12T21:51:00Z,2025-09-12 17:51:00,VFR,22.2,8.3,150,3,0,NA,1021.8,METAR KCON 122151Z AUTO 15003KT 10SM CLR 22/08 A3017 RMK AO2 SLP217 T02220083,2025-09-12T21:55:43Z,2025-09-12T17:55:43Z,Concord Municipal Airport,43.20270157,-71.50229645,US,US-NH
KCOQ,"Cloquet/Carlton Cnty, MN, US",2025-09-12T21:35:00Z,2025-09-12 21:35:00,LIFR,14,14,VAR,NA,0,1.5,1017.7,METAR KCOQ 122135Z AUTO 1 1/2SM BR OVC001 14/14 A3005 RMK AO2 TSNO,2025-09-12T21:44:58Z,2025-09-12T17:44:58Z,Cloquet Carlton County Airport,46.701099,-92.503601,US,US-MN
KCOS,"Colorado Spring Arpt, CO, US",2025-09-12T20:54:00Z,2025-09-12 14:54:00,VFR,25,6.7,200,10,0,NA,1021.1,METAR KCOS 122054Z 20010KT 10SM SCT110 BKN140 BKN200 25/07 A3015 RMK AO2 SLP118 T02500067 58015,2025-09-12T21:44:58Z,2025-09-12T17:44:58Z,City of Colorado Springs Municipal Airport,38.805801,-104.700996,US,US-CO
KCOT,"Cotulla/LaSalle Cnty, TX, US",2025-09-12T20:53:00Z,2025-09-12 15:53:00,VFR,35,17.8,90,10,16,NA,1015.7,METAR KCOT 122053Z AUTO 09010G16KT 10SM SCT070 35/18 A2999 RMK AO2 SLP146 T03500178 56028,2025-09-12T21:44:59Z,2025-09-12T17:44:59Z,Cotulla-La Salle County Airport,28.45669937,-99.22029877,US,US-TX
KCOT,"Cotulla/LaSalle Cnty, TX, US",2025-09-12T21:53:00Z,2025-09-12 16:53:00,VFR,35.6,18.3,100,8,0,NA,1015.3,METAR KCOT 122153Z AUTO 10008KT 10SM FEW070 SCT110 36/18 A2998 RMK AO2 SLP142 T03560183,2025-09-12T21:55:43Z,2025-09-12T17:55:43Z,Cotulla-La Salle County Airport,28.45669937,-99.22029877,US,US-TX
KCOU,"Columbia Rgnl, MO, US",2025-09-12T20:54:00Z,2025-09-12 15:54:00,VFR,35.6,14.4,220,5,0,NA,1017.7,METAR KCOU 122054Z 22005KT 10SM CLR 36/14 A3005 RMK AO2 SLP164 T03560144 56022 $,2025-09-12T21:44:58Z,2025-09-12T17:44:58Z,Columbia Regional Airport,38.8181,-92.219597,US,US-MO
KCPC,"Whiteville/Columbus Cnty, NC, US",2025-09-12T21:35:00Z,2025-09-12 21:35:00,VFR,25,15.8,30,3,0,NA,1019.4,METAR KCPC 122135Z AUTO 03003KT 10SM OVC085 25/16 A3010 RMK AO2 T02500158,2025-09-12T21:44:58Z,2025-09-12T17:44:58Z,Columbus County Municipal Airport,34.27289963,-78.71499634,US,US-NC
KCPC,"Whiteville/Columbus Cnty, NC, US",2025-09-12T21:45:00Z,2025-09-12 21:45:00,VFR,24.8,16.1,0,0,0,NA,1019.4,METAR KCPC 122145Z AUTO 00000KT 10SM BKN085 25/16 A3010 RMK AO2 T02480161,2025-09-12T21:55:43Z,2025-09-12T17:55:43Z,Columbus County Municipal Airport,34.27289963,-78.71499634,US,US-NC
KCPK,"Chesapeake Rgnl, VA, US",2025-09-12T21:35:00Z,2025-09-12 21:35:00,VFR,24,12.5,80,8,0,NA,1020.4,METAR KCPK 122135Z AUTO 08008KT 10SM CLR 24/13 A3013 RMK AO2 T02400125,2025-09-12T21:44:58Z,2025-09-12T17:44:58Z,Chesapeake Regional Airport,36.6656,-76.320702,US,US-VA
KCPR,"Casper/Natrona Cnty, WY, US",2025-09-12T20:53:00Z,2025-09-12 14:53:00,VFR,23.3,6.1,250,5,0,NA,1018,METAR KCPR 122053Z 25005KT 10SM FEW110 23/06 A3006 RMK AO2 LTG DSNT ALQDS SLP125 T02330061 56010,2025-09-12T21:44:59Z,2025-09-12T17:44:59Z,Casper-Natrona County International Airport,42.908001,-106.463997,US,US-WY
KCPR,"Casper/Natrona Cnty, WY, US",2025-09-12T21:53:00Z,2025-09-12 15:53:00,VFR,20.6,5,180,15,24,NA,1018.7,METAR KCPR 122153Z 18015G24KT 10SM -RA BKN110 21/05 A3008 RMK AO2 PK WND 17042/2126 LTG DSNT ALQDS RAB14 SLP136 P0000 T02060050,2025-09-12T21:55:43Z,2025-09-12T17:55:43Z,Casper-Natrona County International Airport,42.908001,-106.463997,US,US-WY
KCPS,"St Louis/Downtown Arpt, IL, US",2025-09-12T20:53:00Z,2025-09-12 15:53:00,VFR,33.9,16.1,120,5,0,NA,1018,METAR KCPS 122053Z 12005KT 10SM CLR 34/16 A3006 RMK AO2 SLP174 6//// T03390161 56023 PNO $,2025-09-12T21:44:59Z,2025-09-12T17:44:59Z,St Louis Downtown Airport,38.570701599100005,-90.1561965942,US,US-IL
KCPS,"St Louis/Downtown Arpt, IL, US",2025-09-12T21:53:00Z,2025-09-12 16:53:00,VFR,33.9,16.1,140,4,0,NA,1017.7,METAR KCPS 122153Z 14004KT 10SM CLR 34/16 A3005 RMK AO2 SLP170 T03390161 PNO $,2025-09-12T21:55:43Z,2025-09-12T17:55:43Z,St Louis Downtown Airport,38.570701599100005,-90.1561965942,US,US-IL
KCPT,"Cleburne Muni, TX, US",2025-09-12T21:35:00Z,2025-09-12 21:35:00,VFR,33.3,17,200,7,0,NA,1016.3,METAR KCPT 122135Z AUTO 20007KT 10SM CLR 33/17 A3001 RMK AO2 T03330170 $,2025-09-12T21:44:58Z,2025-09-12T17:44:58Z,Cleburne Regional Airport,32.353802,-97.433701,US,US-TX
KCPU,"San Andreas/Calaveras Cnty, CA, US",2025-09-12T21:35:00Z,2025-09-12 21:35:00,VFR,27.5,10.2,350,6,0,NA,1013.6,METAR KCPU 122135Z AUTO 35006KT 10SM CLR 28/10 A2993 RMK AO2 T02750102,2025-09-12T21:44:58Z,2025-09-12T17:44:58Z,Calaveras Co Maury Rasmussen Field,38.14609909057617,-120.64800262451172,US,US-CA
KCQB,"Chandler Muni, OK, US",2025-09-12T21:30:00Z,2025-09-12 21:30:00,VFR,33.5,19,170,9,0,NA,1018,METAR KCQB 122130Z AUTO 17009KT 10SM CLR 34/19 A3006 RMK AO2 T03350190,2025-09-12T21:44:58Z,2025-09-12T17:44:58Z,Chandler Regional Airport,35.723801,-96.820297,US,US-OK
KCQM,"Cook Muni, MN, US",2025-09-12T21:35:00Z,2025-09-12 21:35:00,VFR,19,17,130,4,0,NA,1017,METAR KCQM 122135Z AUTO 13004KT 10SM VCTS BKN075 BKN085 19/17 A3003 RMK AO2 LTG DSNT SW,2025-09-12T21:44:58Z,2025-09-12T17:44:58Z,Cook Municipal Airport,47.821899,-92.6894,US,US-MN
KCQW,"Cheraw Muni, SC, US",2025-09-12T21:35:00Z,2025-09-12 17:35:00,VFR,28,12,90,9,0,NA,1019,METAR KCQW 122135Z AUTO 09009KT 10SM CLR 28/12 A3009 RMK AO2,2025-09-12T21:44:58Z,2025-09-12T17:44:58Z,Cheraw Municipal Airport/Lynch Bellinger Field,34.712898,-79.957001,US,US-SC
KCQX,"Chatham Muni, MA, US",2025-09-12T20:52:00Z,2025-09-12 20:52:00,VFR,19.4,11.1,50,6,0,NA,1023.1,METAR KCQX 122052Z AUTO 05006KT 10SM CLR 19/11 A3021 RMK AO2 SLP231 T01940111 56004,2025-09-12T21:44:59Z,2025-09-12T17:44:59Z,Chatham Municipal Airport,41.68840026855469,-69.989501953125,US,US-MA
KCQX,"Chatham Muni, MA, US",2025-09-12T21:52:00Z,2025-09-12 21:52:00,VFR,18.9,11.7,70,6,0,NA,1023.1,METAR KCQX 122152Z AUTO 07006KT 10SM CLR 19/12 A3021 RMK AO2 SLP232 T01890117,2025-09-12T21:55:43Z,2025-09-12T17:55:43Z,Chatham Municipal Airport,41.68840026855469,-69.989501953125,US,US-MA
KCRE,"North Myrtle Beach/Grand Strand Arpt, SC, US",2025-09-12T20:53:00Z,2025-09-12 16:53:00,VFR,27.2,16.1,10,10,0,NA,1017.7,METAR KCRE 122053Z 01010KT 10SM SCT060 27/16 A3005 RMK AO1 SLP177 T02720161 56010,2025-09-12T21:44:59Z,2025-09-12T17:44:59Z,Grand Strand Airport,33.8116989136,-78.72389984130001,US,US-SC
KCRE,"North Myrtle Beach/Grand Strand Arpt, SC, US",2025-09-12T21:53:00Z,2025-09-12 17:53:00,VFR,26.1,16.7,20,8,0,NA,1018,METAR KCRE 122153Z 02008KT 10SM CLR 26/17 A3006 RMK AO1 SLP180 T02610167,2025-09-12T21:55:43Z,2025-09-12T17:55:43Z,Grand Strand Airport,33.8116989136,-78.72389984130001,US,US-SC
KCRG,"Jacksonville/Executive at Craig Arpt, FL, US",2025-09-12T20:53:00Z,2025-09-12 16:53:00,VFR,26.7,20,30,15,22,NA,1017,METAR KCRG 122053Z 03015G22KT 10SM FEW025 27/20 A3003 RMK AO2 SLP167 T02670200 55009 $,2025-09-12T21:44:59Z,2025-09-12T17:44:59Z,Jacksonville Executive at Craig Airport,30.3362998962,-81.51439666750001,US,US-FL
KCRG,"Jacksonville/Executive at Craig Arpt, FL, US",2025-09-12T21:53:00Z,2025-09-12 17:53:00,VFR,25.6,20,30,11,20,NA,1017,METAR KCRG 122153Z 03011G20KT 10SM FEW024 26/20 A3003 RMK AO2 SLP167 T02560200 $,2025-09-12T21:55:43Z,2025-09-12T17:55:43Z,Jacksonville Executive at Craig Airport,30.3362998962,-81.51439666750001,US,US-FL
KCRP,"Corpus Christi Intl, TX, US",2025-09-12T20:51:00Z,2025-09-12 15:51:00,VFR,32.2,23.9,90,15,0,NA,1016.3,METAR KCRP 122051Z 09015KT 10SM FEW030 FEW040 FEW060 SCT180 SCT250 32/24 A3001 RMK AO2 PK WND 12026/2003 SLP161 CB DSNT SE S SW W MOV W TCU DSNT N S W NW SHRA DSNT N SW W T03220239 56022 $,2025-09-12T21:44:59Z,2025-09-12T17:44:59Z,Corpus Christi International Airport,27.770399,-97.501198,US,US-TX
KCRP,"Corpus Christi Intl, TX, US",2025-09-12T21:51:00Z,2025-09-12 16:51:00,VFR,32.2,22.2,100,15,23,NA,1016,METAR KCRP 122151Z 10015G23KT 10SM FEW027 FEW040 FEW060 SCT180 BKN250 32/22 A3000 RMK AO2 SLP158 CB DSNT S SW W NW MOV W TCU DSNT SE S SW W NW T03220222,2025-09-12T21:55:43Z,2025-09-12T17:55:43Z,Corpus Christi International Airport,27.770399,-97.501198,US,US-TX
KCRQ,"Carlsbad/Palomar Arpt, CA, US",2025-09-12T20:53:00Z,2025-09-12 13:53:00,NA,21.7,15.6,250,9,0,NA,1013,METAR KCRQ 122053Z AUTO 25009KT FEW021 22/16 A2991 RMK AO2 SLP126 T02170156 57018 $,2025-09-12T21:44:59Z,2025-09-12T17:44:59Z,McClellan-Palomar Airport,33.1283,-117.279999,US,US-CA
KCRQ,"Carlsbad/Palomar Arpt, CA, US",2025-09-12T21:53:00Z,2025-09-12 14:53:00,NA,21.7,15.6,260,9,0,NA,1013,METAR KCRQ 122153Z AUTO 26009KT FEW020 22/16 A2991 RMK AO2 SLP124 T02170156 $,2025-09-12T21:55:43Z,2025-09-12T17:55:43Z,McClellan-Palomar Airport,33.1283,-117.279999,US,US-CA
KCRS,"Corsicana Muni, TX, US",2025-09-12T20:53:00Z,2025-09-12 15:53:00,VFR,33.9,20,120,5,0,NA,1018.4,METAR KCRS 122053Z AUTO 12005KT 10SM CLR 34/20 A3007 RMK AO2 SLP177 T03390200 56022,2025-09-12T21:44:59Z,2025-09-12T17:44:59Z,C David Campbell Field Corsicana Municipal Airport,32.0280990601,-96.4005966187,US,US-TX
KCRS,"Corsicana Muni, TX, US",2025-09-12T21:53:00Z,2025-09-12 16:53:00,VFR,33.9,20,120,6,0,NA,1018,METAR KCRS 122153Z AUTO 12006KT 10SM CLR 34/20 A3006 RMK AO2 SLP172 T03390200,2025-09-12T21:55:43Z,2025-09-12T17:55:43Z,C David Campbell Field Corsicana Municipal Airport,32.0280990601,-96.4005966187,US,US-TX
KCRW,"Charleston/Yeager Arpt, WV, US",2025-09-12T20:54:00Z,2025-09-12 16:54:00,VFR,28.9,7.8,60,6,0,NA,1020.7,METAR KCRW 122054Z 06006KT 10SM CLR 29/08 A3014 RMK AO2 SLP201 T02890078 56019,2025-09-12T21:44:58Z,2025-09-12T17:44:58Z,Yeager Airport,38.3731,-81.593201,US,US-WV
KCRX,"Corinth/Turner Fld, MS, US",2025-09-12T21:35:00Z,2025-09-12 16:35:00,VFR,32,17,60,5,0,NA,1018,METAR KCRX 122135Z AUTO 06005KT 10SM FEW075 SCT090 32/17 A3006 RMK AO2,2025-09-12T21:44:58Z,2025-09-12T17:44:58Z,Roscoe Turner Airport,34.9150009155,-88.6035003662,US,US-MS
KCSB,"Cambridge Muni, NE, US",2025-09-12T21:35:00Z,2025-09-12 21:35:00,NA,38,8,180,17,28,NA,1011.3,METAR KCSB 122135Z AUTO 18017G28KT 10SM 38/08 A2986 RMK AO2,2025-09-12T21:44:58Z,2025-09-12T17:44:58Z,Cambridge Municipal Airport,40.306599,-100.162003,US,US-NE
KCSG,"Columbus Arpt, GA, US",2025-09-12T20:51:00Z,2025-09-12 16:51:00,VFR,31.7,12.2,80,10,14,NA,1017.7,METAR KCSG 122051Z 08010G14KT 10SM FEW070 32/12 A3005 RMK AO2 SLP170 T03170122 56015,2025-09-12T21:44:59Z,2025-09-12T17:44:59Z,Columbus Metropolitan Airport,32.516300201416016,-84.93890380859375,US,US-GA
KCSG,"Columbus Arpt, GA, US",2025-09-12T21:51:00Z,2025-09-12 17:51:00,VFR,31.1,12.8,70,9,0,NA,1017.7,METAR KCSG 122151Z 07009KT 10SM CLR 31/13 A3005 RMK AO2 SLP170 T03110128,2025-09-12T21:55:43Z,2025-09-12T17:55:43Z,Columbus Metropolitan Airport,32.516300201416016,-84.93890380859375,US,US-GA
KCSM,"Clinton/Sherman Arpt, OK, US",2025-09-12T20:53:00Z,2025-09-12 15:53:00,VFR,35,12.8,200,14,0,NA,1018,METAR KCSM 122053Z 20014KT 10SM CLR 35/13 A3006 RMK AO2 SLP152 T03500128 58023,2025-09-12T21:44:59Z,2025-09-12T17:44:59Z,Clinton Sherman Airport,35.3398017883,-99.2005004883,US,US-OK
KCSM,"Clinton/Sherman Arpt, OK, US",2025-09-12T21:53:00Z,2025-09-12 16:53:00,VFR,35,11.7,170,15,26,NA,1017.7,METAR KCSM 122153Z 17015G26KT 10SM CLR 35/12 A3005 RMK AO2 PK WND 17026/2148 SLP147 T03500117,2025-09-12T21:55:43Z,2025-09-12T17:55:43Z,Clinton Sherman Airport,35.3398017883,-99.2005004883,US,US-OK
KCSQ,"Creston Muni, IA, US",2025-09-12T21:35:00Z,2025-09-12 16:35:00,VFR,33,18,170,15,0,NA,1014,METAR KCSQ 122135Z AUTO 17015KT 10SM CLR 33/18 A2994 RMK AO2,2025-09-12T21:44:58Z,2025-09-12T17:44:58Z,Creston Municipal Airport,41.0214004517,-94.3632965088,US,US-IA
KCSV,"Crossville/Whitson Fld, TN, US",2025-09-12T20:53:00Z,2025-09-12 15:53:00,VFR,26.7,11.7,40,9,0,NA,1021.8,METAR KCSV 122053Z AUTO 04009KT 10SM CLR 27/12 A3017 RMK AO2 SLP200 T02670117 56016,2025-09-12T21:44:59Z,2025-09-12T17:44:59Z,Crossville Memorial Airport Whitson Field,35.95131,-85.08499,US,US-TN
KCSV,"Crossville/Whitson Fld, TN, US",2025-09-12T21:53:00Z,2025-09-12 16:53:00,VFR,26.7,11.1,20,4,0,NA,1021.8,METAR KCSV 122153Z AUTO 02004KT 10SM CLR 27/11 A3017 RMK AO2 SLP200 T02670111,2025-09-12T21:55:43Z,2025-09-12T17:55:43Z,Crossville Memorial Airport Whitson Field,35.95131,-85.08499,US,US-TN
KCTB,"Cut Bank Muni, MT, US",2025-09-12T20:56:00Z,2025-09-12 14:56:00,VFR,23.3,7.2,170,12,0,NA,1015.3,METAR KCTB 122056Z AUTO 17012KT 10SM CLR 23/07 A2998 RMK AO2 SLP132 T02330072 58015,2025-09-12T21:44:58Z,2025-09-12T17:44:58Z,Cut Bank International Airport,48.608657,-112.378183,US,US-MT
KCTJ,"Carrollton/W Georgia Rgnl, GA, US",2025-09-12T21:35:00Z,2025-09-12 21:35:00,VFR,29.1,13.7,100,5,0,NA,1020.7,METAR KCTJ 122135Z AUTO 10005KT 10SM BKN065 29/14 A3014 RMK AO2 T02910137,2025-09-12T21:44:58Z,2025-09-12T17:44:58Z,West Georgia Regional Airport / O V Gray Field,33.631001,-85.152,US,US-GA
KCTY,"Cross City Arpt, FL, US",2025-09-12T21:35:00Z,2025-09-12 17:35:00,VFR,31,16,30,9,0,NA,1015.3,METAR KCTY 122135Z AUTO 03009KT 10SM CLR 31/16 A2998 RMK AO2,2025-09-12T21:44:58Z,2025-09-12T17:44:58Z,Cross City Airport,29.6354999542,-83.10479736330001,US,US-FL
KCTZ,"Clinton/Sampson Cnty, NC, US",2025-09-12T21:35:00Z,2025-09-12 17:35:00,VFR,26.1,18.5,70,3,0,NA,1019.7,METAR KCTZ 122135Z AUTO 07003KT 10SM SCT090 26/19 A3011 RMK AO2 T02610185,2025-09-12T21:44:58Z,2025-09-12T17:44:58Z,Sampson County Airport,34.9756011963,-78.3646011353,US,US-NC
KCTZ,"Clinton/Sampson Cnty, NC, US",2025-09-12T21:45:00Z,2025-09-12 17:45:00,VFR,26.5,17.9,40,7,0,NA,1019.7,METAR KCTZ 122145Z AUTO 04007KT 010V080 10SM SCT090 27/18 A3011 RMK AO2 T02650179,2025-09-12T21:55:43Z,2025-09-12T17:55:43Z,Sampson County Airport,34.9756011963,-78.3646011353,US,US-NC
KCUB,"Columbia/Downtown Arpt, SC, US",2025-09-12T20:53:00Z,2025-09-12 16:53:00,VFR,28.3,12.8,VAR,6,0,NA,1018.7,METAR KCUB 122053Z AUTO VRB06KT 10SM CLR 28/13 A3008 RMK AO2 SLP183 T02830128 56016,2025-09-12T21:44:59Z,2025-09-12T17:44:59Z,Jim Hamilton L.B. Owens Airport,33.970500946,-80.9952011108,US,US-SC
KCUB,"Columbia/Downtown Arpt, SC, US",2025-09-12T21:53:00Z,2025-09-12 17:53:00,VFR,28.9,12.8,VAR,4,0,NA,1018.7,METAR KCUB 122153Z AUTO VRB04KT 10SM CLR 29/13 A3008 RMK AO2 SLP183 T02890128,2025-09-12T21:55:43Z,2025-09-12T17:55:43Z,Jim Hamilton L.B. Owens Airport,33.970500946,-80.9952011108,US,US-SC
KCUH,"Cushing Muni, OK, US",2025-09-12T21:35:00Z,2025-09-12 16:35:00,VFR,33.6,16.9,190,5,0,NA,1017.4,METAR KCUH 122135Z AUTO 19005KT 10SM CLR 34/17 A3004 RMK AO2 T03360169,2025-09-12T21:44:58Z,2025-09-12T17:44:58Z,Cushing Municipal Airport,35.950496,-96.772371,US,US-OK
KCUT,"Custer Cnty Arpt, SD, US",2025-09-12T20:53:00Z,2025-09-12 20:53:00,VFR,24.4,10,120,7,17,NA,1018.7,METAR KCUT 122053Z AUTO 12007G17KT 090V150 10SM CLR 24/10 A3008 RMK AO2 LTG DSNT N SLP121 T02440100 56008,2025-09-12T21:44:59Z,2025-09-12T17:44:59Z,Custer County Airport,43.733299,-103.617996,US,US-SD
KCUT,"Custer Cnty Arpt, SD, US",2025-09-12T21:53:00Z,2025-09-12 21:53:00,VFR,23.9,10.6,80,7,18,NA,1018.4,METAR KCUT 122153Z AUTO 08007G18KT 040V100 10SM CLR 24/11 A3007 RMK AO2 SLP115 T02390106,2025-09-12T21:55:43Z,2025-09-12T17:55:43Z,Custer County Airport,43.733299,-103.617996,US,US-SD
KCVB,"Castroville Muni, TX, US",2025-09-12T21:35:00Z,2025-09-12 21:35:00,VFR,35,15,130,5,0,NA,1016.3,METAR KCVB 122135Z AUTO 13005KT 10SM CLR 35/15 A3001 RMK AO2,2025-09-12T21:44:58Z,2025-09-12T17:44:58Z,Castroville Municipal Airport,29.3419,-98.850899,US,US-TX
KCVG,"Cincinnati Intl, KY, US",2025-09-12T20:52:00Z,2025-09-12 16:52:00,VFR,28.9,10.6,VAR,6,0,NA,1020.7,METAR KCVG 122052Z VRB06KT 10SM CLR 29/11 A3014 RMK AO2 SLP198 T02890106 56019,2025-09-12T21:44:59Z,2025-09-12T17:44:59Z,Cincinnati Northern Kentucky International Airport,39.048801,-84.667801,US,US-KY
KCVG,"Cincinnati Intl, KY, US",2025-09-12T21:52:00Z,2025-09-12 17:52:00,VFR,28.9,10.6,VAR,3,0,NA,1020.7,METAR KCVG 122152Z VRB03KT 10SM CLR 29/11 A3014 RMK AO2 SLP195 T02890106,2025-09-12T21:55:43Z,2025-09-12T17:55:43Z,Cincinnati Northern Kentucky International Airport,39.048801,-84.667801,US,US-KY
KCVH,"Hollister Muni, CA, US",2025-09-12T21:35:00Z,2025-09-12 14:35:00,VFR,26,14,260,14,0,NA,1014.3,METAR KCVH 122135Z AUTO 26014KT 10SM CLR 26/14 A2995 RMK A01,2025-09-12T21:44:58Z,2025-09-12T17:44:58Z,Hollister Municipal Airport,36.8932991028,-121.410003662,US,US-CA
KCVN,"Clovis Muni, NM, US",2025-09-12T20:56:00Z,2025-09-12 14:56:00,VFR,31.1,10,150,16,21,NA,1020.7,METAR KCVN 122056Z AUTO 15016G21KT 10SM CLR 31/10 A3014 RMK AO2 SLP162 T03110100 58025 $,2025-09-12T21:44:58Z,2025-09-12T17:44:58Z,Clovis Municipal Airport,34.426594,-103.078794,US,US-NM
KCVO,"Corvallis Muni, OR, US",2025-09-12T21:25:00Z,2025-09-12 14:25:00,VFR,21,13,70,3,0,NA,1017.7,SPECI KCVO 122125Z 07003KT 10SM SCT022 21/13 A3005 RMK AO2,2025-09-12T21:44:58Z,2025-09-12T17:44:58Z,Corvallis Municipal Airport,44.49720001,-123.2900009,US,US-OR
KCVS,"Clovis/Cannon AFB, NM, US",2025-09-12T21:19:00Z,2025-09-12 15:19:00,VFR,32,7,190,15,21,NA,1019.4,SPECI KCVS 122119Z AUTO 19015G21KT 10SM CLR 32/07 A3010 RMK AO2 WSHFT 15 SLP128 $,2025-09-12T21:44:58Z,2025-09-12T17:44:58Z,Cannon Air Force Base,34.382801,-103.321999,US,US-NM
KCVX,"Charlevoix Muni, MI, US",2025-09-12T21:35:00Z,2025-09-12 21:35:00,VFR,19,15,340,2,0,NA,1021.8,METAR KCVX 122135Z AUTO 34002KT 10SM CLR 19/15 A3017 RMK AO2,2025-09-12T21:44:58Z,2025-09-12T17:44:58Z,Charlevoix Municipal Airport,45.304798,-85.274803,US,US-MI
KCWA,"Mosinee/C Wisconsin Arpt, WI, US",2025-09-12T20:50:00Z,2025-09-12 15:50:00,VFR,24,17,120,6,0,NA,1019.7,METAR KCWA 122050Z 12006KT 10SM CLR 24/17 A3011,2025-09-12T21:44:59Z,2025-09-12T17:44:59Z,Central Wisconsin Airport,44.777448,-89.670238,US,US-WI
KCWC,"Wichita Falls/Kickapoo Arpt, TX, US",2025-09-12T21:35:00Z,2025-09-12 16:35:00,VFR,35.3,15.5,130,11,22,NA,1017.4,METAR KCWC 122135Z AUTO 13011G22KT 100V160 10SM CLR 35/16 A3004 RMK AO2 T03530155,2025-09-12T21:44:58Z,2025-09-12T17:44:58Z,Kickapoo Downtown Airport,33.85779953,-98.490402220000007,US,US-TX
KCWF,"Chenault Intl, LA, US",2025-09-12T20:46:00Z,2025-09-12 15:46:00,VFR,37,19,170,3,0,NA,1017.4,METAR KCWF 122046Z 17003KT 10SM SCT060 37/19 A3004,2025-09-12T21:44:59Z,2025-09-12T17:44:59Z,Chennault International Airport,30.2106,-93.143204,US,US-LA
KCWF,"Chenault Intl, LA, US",2025-09-12T21:45:00Z,2025-09-12 16:45:00,VFR,36,19,170,3,0,NA,1017,METAR KCWF 122145Z 17003KT 10SM SCT070 36/19 A3003,2025-09-12T21:55:43Z,2025-09-12T17:55:43Z,Chennault International Airport,30.2106,-93.143204,US,US-LA
KCWI,"Clinton Muni, IA, US",2025-09-12T20:56:00Z,2025-09-12 15:56:00,VFR,30.6,15,140,8,0,NA,1018.7,METAR KCWI 122056Z AUTO 14008KT 10SM CLR 31/15 A3008 RMK AO2 SLP185 T03060150 56025,2025-09-12T21:44:58Z,2025-09-12T17:44:58Z,Clinton Municipal Airport,41.8311004639,-90.3291015625,US,US-IA
KCWV,"Claxton/Evans Cnty, GA, US",2025-09-12T21:35:00Z,2025-09-12 21:35:00,VFR,29,16,VAR,NA,0,NA,1017.4,METAR KCWV 122135Z AUTO 10SM CLR 29/16 A3004 RMK AO2,2025-09-12T21:44:58Z,2025-09-12T17:44:58Z,Claxton Evans County Airport,32.195099,-81.869598,US,US-GA
KCXE,"Chase City Muni, VA, US",2025-09-12T21:35:00Z,2025-09-12 21:35:00,VFR,24.9,13.6,0,0,0,NA,1020.7,METAR KCXE 122135Z AUTO 00000KT 10SM CLR 25/14 A3014 RMK AO1 T02490136,2025-09-12T21:44:58Z,2025-09-12T17:44:58Z,Chase City Municipal Airport,36.788299560546875,-78.50160217285156,US,US-VA
KCXO,"Conroe/Executive Arpt, TX, US",2025-09-12T20:53:00Z,2025-09-12 15:53:00,VFR,33.3,19.4,100,6,0,NA,1018,METAR KCXO 122053Z 10006KT 10SM CLR 33/19 A3006 RMK AO2 SLP174 T03330194 58020,2025-09-12T21:44:59Z,2025-09-12T17:44:59Z,Conroe-North Houston Regional Airport,30.351801,-95.414497,US,US-TX
KCXO,"Conroe/Executive Arpt, TX, US",2025-09-12T21:53:00Z,2025-09-12 16:53:00,VFR,33.3,19.4,120,8,0,NA,1017.4,METAR KCXO 122153Z 12008KT 10SM CLR 33/19 A3004 RMK AO2 SLP170 T03330194,2025-09-12T21:55:43Z,2025-09-12T17:55:43Z,Conroe-North Houston Regional Airport,30.351801,-95.414497,US,US-TX
KCXP,"Carson City Arpt, NV, US",2025-09-12T21:15:00Z,2025-09-12 14:15:00,VFR,22,5,VAR,3,0,NA,1018,METAR KCXP 122115Z AUTO VRB03KT 10SM CLR 22/05 A3006 RMK AO2,2025-09-12T21:44:58Z,2025-09-12T17:44:58Z,Carson Airport,39.1922,-119.734001,US,US-NV
KCXP,"Carson City Arpt, NV, US",2025-09-12T21:35:00Z,2025-09-12 14:35:00,VFR,23,5,60,6,11,NA,1018,METAR KCXP 122135Z AUTO 06006G11KT 10SM CLR 23/05 A3006 RMK AO2,2025-09-12T21:55:43Z,2025-09-12T17:55:43Z,Carson Airport,39.1922,-119.734001,US,US-NV
KCXU,"Camilla/Mitchell Cnty, GA, US",2025-09-12T21:35:00Z,2025-09-12 21:35:00,VFR,33,17,60,9,15,NA,1017,METAR KCXU 122135Z AUTO 06009G15KT 020V120 10SM SCT065 33/17 A3003 RMK AO2,2025-09-12T21:44:58Z,2025-09-12T17:44:58Z,Camilla Mitchell County Airport,31.21315,-84.235396,US,US-GA
KCXW,"Conway/Cantrell Fld, AR, US",2025-09-12T21:15:00Z,2025-09-12 21:15:00,VFR,34,22,0,0,0,NA,1017.7,METAR KCXW 122115Z AUTO 00000KT 10SM CLR 34/22 A3005 RMK A01,2025-09-12T21:44:58Z,2025-09-12T17:44:58Z,Conway Regional Airport,35.019889,-92.555111,US,US-AR
KCXW,"Conway/Cantrell Fld, AR, US",2025-09-12T21:35:00Z,2025-09-12 21:35:00,VFR,34,22,0,0,0,9,1017.7,METAR KCXW 122135Z AUTO 00000KT 9SM CLR 34/22 A3005 RMK A01,2025-09-12T21:55:43Z,2025-09-12T17:55:43Z,Conway Regional Airport,35.019889,-92.555111,US,US-AR
KCXY,"Harrisburg/Capital City Arpt, PA, US",2025-09-12T20:56:00Z,2025-09-12 16:56:00,VFR,27.2,10.6,VAR,4,0,NA,1021.1,METAR KCXY 122056Z VRB04KT 10SM CLR 27/11 A3015 RMK AO2 SLP210 T02720106 56013,2025-09-12T21:44:58Z,2025-09-12T17:44:58Z,Capital City Airport,40.2170982361,-76.85150146480001,US,US-PA
KCYS,"Cheyenne Rgnl, WY, US",2025-09-12T20:53:00Z,2025-09-12 14:53:00,VFR,25,3.9,200,11,16,NA,1019.7,METAR KCYS 122053Z 20011G16KT 10SM BKN100 25/04 A3011 RMK AO2 SLP108 T02500039 56013,2025-09-12T21:44:59Z,2025-09-12T17:44:59Z,Cheyenne Regional Jerry Olson Field,41.155701,-104.811997,US,US-WY
KCYS,"Cheyenne Rgnl, WY, US",2025-09-12T21:53:00Z,2025-09-12 15:53:00,VFR,24.4,2.2,140,8,0,NA,1019.4,METAR KCYS 122153Z 14008KT 10SM FEW090 24/02 A3010 RMK AO2 SLP109 T02440022,2025-09-12T21:55:43Z,2025-09-12T17:55:43Z,Cheyenne Regional Jerry Olson Field,41.155701,-104.811997,US,US-WY
KCZL,"Calhoun/Tom David Fld, GA, US",2025-09-12T21:35:00Z,2025-09-12 21:35:00,NA,31,15,VAR,5,0,NA,1018.7,METAR KCZL 122135Z AUTO VRB05KT CLR 31/15 A3008 RMK AO2 PWINO,2025-09-12T21:44:58Z,2025-09-12T17:44:58Z,Tom B. David Field,34.455399,-84.939201,US,US-GA
KCZT,"Carrizo Springs Arpt, TX, US",2025-09-12T21:35:00Z,2025-09-12 16:35:00,VFR,36,18,VAR,NA,0,NA,1015.7,METAR KCZT 122135Z AUTO 10SM SCT070 SCT080 BKN120 36/18 A2999 RMK AO2,2025-09-12T21:44:58Z,2025-09-12T17:44:58Z,Dimmit County Airport,28.5221996307,-99.823600769,US,US-TX
KD07,"Faith Muni, SD, US",2025-09-12T20:56:00Z,2025-09-12 20:56:00,NA,28.9,18.3,90,3,0,NA,1012.6,METAR KD07 122056Z AUTO 09003KT 29/18 A2990 RMK AO1 SLP105 T02890183 56012,2025-09-12T21:44:58Z,2025-09-12T17:44:58Z,Faith Municipal Airport,45.03609848022461,-102.0199966430664,US,US-SD
KD09,"Bottineau Muni, ND, US",2025-09-12T21:35:00Z,2025-09-12 21:35:00,VFR,28,19,0,0,0,NA,1013.3,METAR KD09 122135Z AUTO 00000KT 10SM CLR 28/19 A2992 RMK AO2,2025-09-12T21:44:58Z,2025-09-12T17:44:58Z,Bottineau Municipal Airport,48.830399,-100.417,US,US-ND
KD25,"Manitowish Waters Arpt, WI, US",2025-09-12T21:35:00Z,2025-09-12 21:35:00,VFR,21.5,16.1,190,4,0,NA,1019.7,METAR KD25 122135Z AUTO 19004KT 10SM CLR 22/16 A3011 RMK AO2 LTG DSNT W T02150161,2025-09-12T21:44:58Z,2025-09-12T17:44:58Z,Manitowish Waters Airport,46.122002,-89.882301,US,US-WI
KD39,"Sauk Center Muni, MN, US",2025-09-12T21:35:00Z,2025-09-12 21:35:00,VFR,19,19,0,0,0,NA,1015,METAR KD39 122135Z AUTO 00000KT 10SM SCT046 SCT060 OVC110 19/19 A2997 RMK AO2 T01900190,2025-09-12T21:44:58Z,2025-09-12T17:44:58Z,Sauk Centre Municipal Airport,45.706600189208984,-94.93340301513672,US,US-MN
KD50,"Crosby Muni, ND, US",2025-09-12T21:35:00Z,2025-09-12 21:35:00,VFR,25,18,100,7,0,NA,1014,METAR KD50 122135Z AUTO 10007KT 10SM CLR 25/18 A2994 RMK AO2 LTG DSNT W,2025-09-12T21:44:58Z,2025-09-12T17:44:58Z,Crosby Municipal Airport,48.928501,-103.296997,US,US-ND
KD55,"Langdon/Roberts Fld, ND, US",2025-09-12T21:35:00Z,2025-09-12 21:35:00,VFR,24,24,50,7,0,NA,1015,METAR KD55 122135Z AUTO 05007KT 10SM CLR 24/24 A2997 RMK AO2,2025-09-12T21:44:58Z,2025-09-12T17:44:58Z,Robertson Field,48.752998,-98.393303,US,US-ND
KD55,"Langdon/Roberts Fld, ND, US",2025-09-12T21:55:00Z,2025-09-12 21:55:00,VFR,24,24,50,6,0,NA,1015.3,METAR KD55 122155Z AUTO 05006KT 10SM FEW022 24/24 A2998 RMK AO2,2025-09-12T21:55:43Z,2025-09-12T17:55:43Z,Robertson Field,48.752998,-98.393303,US,US-ND
KD57,"Glen Ullin Rgnl, ND, US",2025-09-12T21:35:00Z,2025-09-12 21:35:00,VFR,31,15,350,10,0,NA,1011.9,METAR KD57 122135Z AUTO 35010KT 10SM FEW060 31/15 A2988 RMK AO2,2025-09-12T21:44:58Z,2025-09-12T17:44:58Z,Glen Ullin Regional Airport,46.812801361083984,-101.86000061035156,US,US-ND
KD60,"Tioga Muni, ND, US",2025-09-12T21:35:00Z,2025-09-12 16:35:00,VFR,27,18,90,10,16,NA,1014.3,METAR KD60 122135Z AUTO 09010G16KT 10SM CLR 27/18 A2995 RMK AO2,2025-09-12T21:44:58Z,2025-09-12T17:44:58Z,Tioga Municipal Airport,48.38050079,-102.8980026,US,US-ND
KD73,"Monroe/Walton Cnty, GA, US",2025-09-12T21:35:00Z,2025-09-12 21:35:00,VFR,27.8,15.9,VAR,NA,0,NA,1019.7,METAR KD73 122135Z AUTO 10SM CLR 28/16 A3011 RMK AO2 T02780159,2025-09-12T21:44:58Z,2025-09-12T17:44:58Z,Monroe Walton County Airport,33.782398,-83.692903,US,US-GA
KD95,"Lapeer/Dumont Arpt, MI, US",2025-09-12T21:35:00Z,2025-09-12 21:35:00,VFR,27,9,210,3,0,NA,1022.1,METAR KD95 122135Z AUTO 21003KT 10SM BKN065 27/09 A3018 RMK AO2,2025-09-12T21:44:58Z,2025-09-12T17:44:58Z,Dupont-Lapeer Airport,43.066601,-83.272301,US,US-MI
KDAA,"Fort Belvoir/Davison(AAF), VA, US",2025-09-12T20:55:00Z,2025-09-12 16:55:00,VFR,26.8,9.6,100,5,0,NA,1020.4,METAR KDAA 122055Z AUTO 10005KT 10SM CLR 27/10 A3013 RMK AO2 SLP205 T02680096 57008 $,2025-09-12T21:44:58Z,2025-09-12T17:44:58Z,Davison Army Air Field,38.715000152600005,-77.1809997559,US,US-VA
KDAB,"Daytona Beach Intl, FL, US",2025-09-12T20:53:00Z,2025-09-12 16:53:00,VFR,27.8,21.1,10,15,0,NA,1015.3,METAR KDAB 122053Z 01015KT 10SM SCT030 SCT038 BKN047 28/21 A2998 RMK AO2 PK WND 01026/2035 SLP152 60001 T02780211 55006,2025-09-12T21:44:59Z,2025-09-12T17:44:59Z,Daytona Beach International Airport,29.179899,-81.058098,US,US-FL
KDAB,"Daytona Beach Intl, FL, US",2025-09-12T21:53:00Z,2025-09-12 17:53:00,VFR,27.2,21.1,360,12,22,NA,1015.3,METAR KDAB 122153Z 36012G22KT 10SM SCT032CB BKN050 27/21 A2998 RMK AO2 SLP150 CB NE SW-S MOV SW T02720211,2025-09-12T21:55:43Z,2025-09-12T17:55:43Z,Daytona Beach International Airport,29.179899,-81.058098,US,US-FL
KDAG,"Barstow/Daggett Cnty, CA, US",2025-09-12T20:50:00Z,2025-09-12 13:50:00,VFR,28.9,5,330,8,19,NA,1011.6,METAR KDAG 122050Z AUTO 33008G19KT 10SM CLR 29/05 A2987 RMK AO2 SLP093 T02890050 56024,2025-09-12T21:44:59Z,2025-09-12T17:44:59Z,Barstow Daggett Airport,34.85369873,-116.7870026,US,US-CA
KDAG,"Barstow/Daggett Cnty, CA, US",2025-09-12T21:50:00Z,2025-09-12 14:50:00,VFR,30,4.4,330,8,17,NA,1010.9,METAR KDAG 122150Z AUTO 33008G17KT 290V350 10SM CLR 30/04 A2985 RMK AO2 SLP084 T03000044,2025-09-12T21:55:43Z,2025-09-12T17:55:43Z,Barstow Daggett Airport,34.85369873,-116.7870026,US,US-CA
KDAL,"Dallas/Love Fld, TX, US",2025-09-12T20:53:00Z,2025-09-12 15:53:00,VFR,33.9,17.2,140,9,0,NA,1017.7,METAR KDAL 122053Z 14009KT 10SM SCT070 SCT250 34/17 A3005 RMK AO2 SLP168 T03390172 56022,2025-09-12T21:44:59Z,2025-09-12T17:44:59Z,Dallas Love Field,32.847099,-96.851799,US,US-TX
KDAL,"Dallas/Love Fld, TX, US",2025-09-12T21:53:00Z,2025-09-12 16:53:00,VFR,33.9,17.8,140,7,0,NA,1017.4,METAR KDAL 122153Z 14007KT 10SM FEW070 SCT250 34/18 A3004 RMK AO2 SLP164 MDT CU DSNT N E-SE T03390178,2025-09-12T21:55:43Z,2025-09-12T17:55:43Z,Dallas Love Field,32.847099,-96.851799,US,US-TX
KDAN,"Danville Rgnl, VA, US",2025-09-12T20:53:00Z,2025-09-12 16:53:00,VFR,27.8,12.8,70,5,0,NA,1020.4,METAR KDAN 122053Z AUTO 07005KT 10SM SCT085 28/13 A3013 RMK AO2 SLP193 T02780128 56014,2025-09-12T21:44:59Z,2025-09-12T17:44:59Z,Danville Regional Airport,36.572899,-79.336098,US,US-VA
KDAN,"Danville Rgnl, VA, US",2025-09-12T21:53:00Z,2025-09-12 17:53:00,VFR,25,13.9,0,0,0,NA,1020.4,METAR KDAN 122153Z AUTO 00000KT 10SM CLR 25/14 A3013 RMK AO2 SLP194 T02500139,2025-09-12T21:55:43Z,2025-09-12T17:55:43Z,Danville Regional Airport,36.572899,-79.336098,US,US-VA
KDAW,"Rochester/Skyhaven Arpt, NH, US",2025-09-12T20:51:00Z,2025-09-12 20:51:00,VFR,20.6,11.1,170,5,0,NA,1022.1,METAR KDAW 122051Z AUTO 17005KT 10SM CLR 21/11 A3018 RMK AO2 SLP218 T02060111 56012 $,2025-09-12T21:44:59Z,2025-09-12T17:44:59Z,Skyhaven Airport,43.2841,-70.929298,US,US-NH
KDAW,"Rochester/Skyhaven Arpt, NH, US",2025-09-12T21:51:00Z,2025-09-12 21:51:00,NA,18.9,10.6,VAR,NA,0,NA,1022.4,METAR KDAW 122151Z AUTO 10SM 19/11 A3019 RMK AO2 SLP220 T01890106 PWINO $,2025-09-12T21:55:43Z,2025-09-12T17:55:43Z,Skyhaven Airport,43.2841,-70.929298,US,US-NH
KDAY,"Dayton/Cox Intl, OH, US",2025-09-12T20:56:00Z,2025-09-12 16:56:00,VFR,27.8,6.1,VAR,3,0,NA,1021.4,METAR KDAY 122056Z VRB03KT 10SM FEW250 28/06 A3016 RMK AO2 SLP208 T02780061 56021,2025-09-12T21:44:58Z,2025-09-12T17:44:58Z,James M Cox Dayton International Airport,39.902401,-84.219398,US,US-OH
KDBN,"Dublin/Barron Arpt, GA, US",2025-09-12T21:35:00Z,2025-09-12 17:35:00,VFR,29.4,16.1,VAR,5,0,NA,1018.4,METAR KDBN 122135Z AUTO VRB05KT 10SM FEW065 29/16 A3007 RMK AO2 T02940161 $,2025-09-12T21:44:58Z,2025-09-12T17:44:58Z,W H 'Bud' Barron Airport,32.5644,-82.985298,US,US-GA
KDBQ,"Dubuque Rgnl, IA, US",2025-09-12T20:53:00Z,2025-09-12 15:53:00,VFR,28.3,16.1,150,12,0,NA,1018.7,METAR KDBQ 122053Z 15012KT 10SM CLR 28/16 A3008 RMK AO2 SLP181 T02830161 56022,2025-09-12T21:44:59Z,2025-09-12T17:44:59Z,Dubuque Regional Airport,42.402,-90.709503,US,US-IA
KDBQ,"Dubuque Rgnl, IA, US",2025-09-12T21:53:00Z,2025-09-12 16:53:00,VFR,28.3,16.1,150,10,0,NA,1018.7,METAR KDBQ 122153Z 15010KT 10SM CLR 28/16 A3008 RMK AO2 SLP182 T02830161,2025-09-12T21:55:43Z,2025-09-12T17:55:43Z,Dubuque Regional Airport,42.402,-90.709503,US,US-IA
KDCA,"Washington/Reagan-National Arpt, VA, US",2025-09-12T20:52:00Z,2025-09-12 16:52:00,VFR,26.7,12.2,60,6,0,NA,1021.1,METAR KDCA 122052Z 06006KT 10SM FEW075 27/12 A3015 RMK AO2 SLP210 T02670122 56008,2025-09-12T21:44:59Z,2025-09-12T17:44:59Z,Ronald Reagan Washington National Airport,38.8521,-77.037697,US,US-DC
KDCA,"Washington/Reagan-National Arpt, VA, US",2025-09-12T21:52:00Z,2025-09-12 17:52:00,VFR,26.1,12.8,80,7,0,NA,1021.1,METAR KDCA 122152Z 08007KT 10SM FEW080 26/13 A3015 RMK AO2 SLP211 T02610128,2025-09-12T21:55:43Z,2025-09-12T17:55:43Z,Ronald Reagan Washington National Airport,38.8521,-77.037697,US,US-DC
KDCM,"Chester Muni, SC, US",2025-09-12T21:35:00Z,2025-09-12 21:35:00,VFR,27,13,40,5,0,NA,1020.1,METAR KDCM 122135Z AUTO 04005KT 10SM CLR 27/13 A3012 RMK AO2,2025-09-12T21:44:58Z,2025-09-12T17:44:58Z,Chester Catawba Regional Airport,34.789299,-81.195801,US,US-SC
KDCU,"Decatur/Pryor Fld, AL, US",2025-09-12T20:53:00Z,2025-09-12 15:53:00,VFR,31.7,13.3,360,5,0,NA,1019,METAR KDCU 122053Z AUTO 36005KT 10SM CLR 32/13 A3009 RMK AO2 SLP182 T03170133 56018 $,2025-09-12T21:44:59Z,2025-09-12T17:44:59Z,Pryor Field Regional Airport,34.652698516799994,-86.94539642330001,US,US-AL
KDCU,"Decatur/Pryor Fld, AL, US",2025-09-12T21:53:00Z,2025-09-12 16:53:00,VFR,32.2,13.3,60,10,0,NA,1018.7,METAR KDCU 122153Z AUTO 06010KT 10SM CLR 32/13 A3008 RMK AO2 SLP179 T03220133 $,2025-09-12T21:55:43Z,2025-09-12T17:55:43Z,Pryor Field Regional Airport,34.652698516799994,-86.94539642330001,US,US-AL
KDCY,"Washington/Daviess Cnty, IN, US",2025-09-12T21:35:00Z,2025-09-12 21:35:00,VFR,30,12.2,360,5,0,NA,1020.1,METAR KDCY 122135Z AUTO 36005KT 10SM CLR 30/12 A3012 RMK AO2 T03000122,2025-09-12T21:44:58Z,2025-09-12T17:44:58Z,Daviess County Airport,38.700401,-87.1297,US,US-IN
KDDC,"Dodge City Arpt, KS, US",2025-09-12T20:52:00Z,2025-09-12 15:52:00,VFR,32.8,13.3,200,17,26,7,1016.7,METAR KDDC 122052Z AUTO 20017G26KT 7SM CLR 33/13 A3002 RMK AO2 PK WND 18028/2031 SLP132 60000 T03280133 58019 $,2025-09-12T21:44:59Z,2025-09-12T17:44:59Z,Dodge City Regional Airport,37.76340103149414,-99.9655990600586,US,US-KS
KDDC,"Dodge City Arpt, KS, US",2025-09-12T21:52:00Z,2025-09-12 16:52:00,VFR,32.8,12.2,180,20,28,7,1016.3,METAR KDDC 122152Z AUTO 18020G28KT 7SM CLR 33/12 A3001 RMK AO2 PK WND 18028/2103 SLP128 T03280122 $,2025-09-12T21:55:43Z,2025-09-12T17:55:43Z,Dodge City Regional Airport,37.76340103149414,-99.9655990600586,US,US-KS
KDDH,"Bennington/Morse State Arpt, VT, US",2025-09-12T20:54:00Z,2025-09-12 20:54:00,VFR,22.8,2.8,VAR,4,0,NA,1022.4,METAR KDDH 122054Z AUTO VRB04KT 10SM CLR 23/03 A3019 RMK AO2 SLP220 T02280028 56012,2025-09-12T21:44:58Z,2025-09-12T17:44:58Z,William H Morse State Airport,42.8913,-73.246399,US,US-VT
KDEC,"Decatur Arpt, IL, US",2025-09-12T20:54:00Z,2025-09-12 15:54:00,VFR,31.7,12.2,150,3,0,NA,1019.4,METAR KDEC 122054Z 15003KT 10SM CLR 32/12 A3010 RMK AO2 SLP186 T03170122 56023,2025-09-12T21:44:58Z,2025-09-12T17:44:58Z,Decatur Airport,39.834598541259766,-88.8656997680664,US,US-IL
KDED,"Deland Muni, FL, US",2025-09-12T21:35:00Z,2025-09-12 21:35:00,VFR,27.9,20.4,10,10,0,NA,1015.7,METAR KDED 122135Z AUTO 01010KT 10SM BKN032 BKN043 BKN050 28/20 A2999 RMK AO2 LTG DSNT E T02790204,2025-09-12T21:44:58Z,2025-09-12T17:44:58Z,Deland Municipal Sidney H Taylor Field,29.066999,-81.283798,US,US-FL
KDEH,"Decorah Muni, IA, US",2025-09-12T21:35:00Z,2025-09-12 16:35:00,VFR,27,18,140,8,18,NA,1016.7,METAR KDEH 122135Z AUTO 14008G18KT 10SM CLR 27/18 A3002 RMK AO2,2025-09-12T21:44:58Z,2025-09-12T17:44:58Z,Decorah Municipal Airport,43.275501,-91.739403,US,US-IA
KDEN,"Denver Intl, CO, US",2025-09-12T21:27:00Z,2025-09-12 15:27:00,VFR,22.2,8.9,290,19,29,NA,1019,SPECI KDEN 122127Z 29019G29KT 10SM FEW060 SCT090 BKN140 22/09 A3009 RMK AO2 PK WND 29030/2112 WSHFT 2107 T02220089,2025-09-12T21:44:58Z,2025-09-12T17:44:58Z,Denver International Airport,39.861698150635,-104.672996521,US,US-CO
KDEN,"Denver Intl, CO, US",2025-09-12T21:53:00Z,2025-09-12 15:53:00,VFR,22.8,8.3,310,16,22,NA,1018.7,METAR KDEN 122153Z 31016G22KT 10SM FEW060 SCT090 BKN140 BKN220 23/08 A3008 RMK AO2 PK WND 29030/2112 WSHFT 2107 SLP113 T02280083,2025-09-12T21:55:43Z,2025-09-12T17:55:43Z,Denver International Airport,39.861698150635,-104.672996521,US,US-CO
KDEQ,"De Queen/Helms Arpt, AR, US",2025-09-12T20:53:00Z,2025-09-12 20:53:00,VFR,34.4,18.9,0,0,0,NA,1017.7,METAR KDEQ 122053Z AUTO 00000KT 10SM CLR 34/19 A3005 RMK AO2 SLP170 T03440189 58021,2025-09-12T21:44:59Z,2025-09-12T17:44:59Z,J Lynn Helms Sevier County Airport,34.047001,-94.399399,US,US-AR
KDEQ,"De Queen/Helms Arpt, AR, US",2025-09-12T21:53:00Z,2025-09-12 21:53:00,VFR,34.4,18.9,0,0,0,NA,1017.4,METAR KDEQ 122153Z AUTO 00000KT 10SM CLR 34/19 A3004 RMK AO2 SLP166 T03440189,2025-09-12T21:55:43Z,2025-09-12T17:55:43Z,J Lynn Helms Sevier County Airport,34.047001,-94.399399,US,US-AR
KDET,"Detroit/C Young Arpt, MI, US",2025-09-12T20:53:00Z,2025-09-12 16:53:00,VFR,26.7,8.9,60,7,0,NA,1022.1,METAR KDET 122053Z 06007KT 10SM CLR 27/09 A3018 RMK AO2 SLP218 T02670089 56017,2025-09-12T21:44:59Z,2025-09-12T17:44:59Z,Coleman A. Young Municipal Airport,42.40919876,-83.00990295,US,US-MI
KDET,"Detroit/C Young Arpt, MI, US",2025-09-12T21:53:00Z,2025-09-12 17:53:00,VFR,26.7,7.8,70,7,0,NA,1022.1,METAR KDET 122153Z 07007KT 10SM CLR 27/08 A3018 RMK AO2 SLP216 T02670078,2025-09-12T21:55:43Z,2025-09-12T17:55:43Z,Coleman A. Young Municipal Airport,42.40919876,-83.00990295,US,US-MI
KDEW,"Deer Park Arpt, WA, US",2025-09-12T20:53:00Z,2025-09-12 20:53:00,VFR,23.9,11.7,VAR,3,0,NA,1016,METAR KDEW 122053Z AUTO VRB03KT 10SM CLR 24/12 A3000 RMK AO2 SLP146 T02390117 58015,2025-09-12T21:44:58Z,2025-09-12T17:44:58Z,Deer Park Airport,47.966599,-117.427002,US,US-WA
KDEW,"Deer Park Arpt, WA, US",2025-09-12T21:53:00Z,2025-09-12 21:53:00,VFR,25,12.2,VAR,3,0,NA,1015.3,METAR KDEW 122153Z AUTO VRB03KT 10SM CLR 25/12 A2998 RMK AO2 SLP138 T02500122,2025-09-12T21:55:43Z,2025-09-12T17:55:43Z,Deer Park Airport,47.966599,-117.427002,US,US-WA
KDFI,"Defiance Mem Arpt, OH, US",2025-09-12T20:53:00Z,2025-09-12 16:53:00,VFR,27.8,12.2,0,0,0,NA,1021.8,METAR KDFI 122053Z AUTO 00000KT 10SM FEW070 28/12 A3017 RMK AO2 SLP214 T02780122 56018 $,2025-09-12T21:44:59Z,2025-09-12T17:44:59Z,Defiance Memorial Airport,41.3375015259,-84.4288024902,US,US-OH
KDFW,"Dallas-Ft Worth Intl, TX, US",2025-09-12T20:53:00Z,2025-09-12 15:53:00,VFR,33.9,17.8,120,4,0,NA,1017.4,METAR KDFW 122053Z 12004KT 10SM FEW065 SCT250 34/18 A3004 RMK AO2 SLP164 T03390178 57021,2025-09-12T21:44:59Z,2025-09-12T17:44:59Z,Dallas Fort Worth International Airport,32.896801,-97.038002,US,US-TX
KDFW,"Dallas-Ft Worth Intl, TX, US",2025-09-12T21:53:00Z,2025-09-12 16:53:00,VFR,33.9,16.7,180,8,0,NA,1017,METAR KDFW 122153Z 18008KT 10SM FEW065 SCT250 34/17 A3003 RMK AO2 SLP159 T03390167,2025-09-12T21:55:43Z,2025-09-12T17:55:43Z,Dallas Fort Worth International Airport,32.896801,-97.038002,US,US-TX
KDGW,"Douglas/Converse Cnty, WY, US",2025-09-12T21:15:00Z,2025-09-12 15:15:00,VFR,25.6,6.1,330,8,0,NA,1015.7,SPECI KDGW 122115Z AUTO 33008KT 10SM TS FEW100 26/06 A2999 RMK AO2 LTG DSNT S-W TSB15 T02560061,2025-09-12T21:44:58Z,2025-09-12T17:44:58Z,Converse County Airport,42.79719925,-105.3860016,US,US-WY
KDGW,"Douglas/Converse Cnty, WY, US",2025-09-12T21:53:00Z,2025-09-12 15:53:00,IFR,18.9,9.4,320,13,28,2.5,1018.4,METAR KDGW 122153Z AUTO 32013G28KT 2 1/2SM +TSRA BKN047 OVC085 19/09 A3007 RMK AO2 PK WND 29035/2136 WSHFT 2135 LTG DSNT ALQDS RAB36 TSB15 SLP141 P0021 T01890094,2025-09-12T21:55:43Z,2025-09-12T17:55:43Z,Converse County Airport,42.79719925,-105.3860016,US,US-WY
KDHN,"Dothan Rgnl, AL, US",2025-09-12T20:53:00Z,2025-09-12 15:53:00,VFR,32.2,15.6,40,9,17,NA,1018.4,METAR KDHN 122053Z 04009G17KT 10SM CLR 32/16 A3007 RMK AO1 SLP176 T03220156 56015,2025-09-12T21:44:59Z,2025-09-12T17:44:59Z,Dothan Regional Airport,31.321300506591797,-85.44960021972656,US,US-AL
KDHN,"Dothan Rgnl, AL, US",2025-09-12T21:53:00Z,2025-09-12 16:53:00,VFR,31.7,15,30,9,0,NA,1018,METAR KDHN 122153Z 03009KT 10SM CLR 32/15 A3006 RMK AO1 SLP174 T03170150,2025-09-12T21:55:43Z,2025-09-12T17:55:43Z,Dothan Regional Airport,31.321300506591797,-85.44960021972656,US,US-AL
KDHT,"Dalhart Muni, TX, US",2025-09-12T20:53:00Z,2025-09-12 15:53:00,VFR,32.2,8.3,170,21,30,NA,1019,METAR KDHT 122053Z AUTO 17021G30KT 10SM CLR 32/08 A3009 RMK AO2 PK WND 19033/2038 SLP131 T03220083 58027,2025-09-12T21:44:59Z,2025-09-12T17:44:59Z,Dalhart Municipal Airport,36.0225982666,-102.54699707,US,US-TX
KDIJ,"Driggs/Reed Mem, ID, US",2025-09-12T20:56:00Z,2025-09-12 20:56:00,VFR,20.6,1.1,VAR,3,0,NA,1019.7,METAR KDIJ 122056Z AUTO VRB03KT 10SM BKN100 BKN110 21/01 A3011 RMK AO2 LTG DSNT SW SLP147 T02060011 56009 $,2025-09-12T21:44:58Z,2025-09-12T17:44:58Z,Driggs/Reed Memorial Airport,43.742667,-111.096829,US,US-ID
KDKB,"DeKalb/Taylor Muni, IL, US",2025-09-12T21:35:00Z,2025-09-12 21:35:00,VFR,28,13.4,140,10,16,NA,1020.1,METAR KDKB 122135Z AUTO 14010G16KT 10SM CLR 28/13 A3012 RMK AO2 T02800134,2025-09-12T21:44:58Z,2025-09-12T17:44:58Z,DeKalb Taylor Municipal Airport,41.936316,-88.704128,US,US-IL
KDKK,"Dunkirk/Chautauqua Cnty, NY, US",2025-09-12T20:53:00Z,2025-09-12 16:53:00,VFR,23.3,11.1,340,6,0,NA,1022.4,METAR KDKK 122053Z AUTO 34006KT 10SM CLR 23/11 A3019 RMK AO2 SLP222 T02330111 56017,2025-09-12T21:44:59Z,2025-09-12T17:44:59Z,Chautauqua County-Dunkirk Airport,42.49247,-79.273102,US,US-NY
KDKK,"Dunkirk/Chautauqua Cnty, NY, US",2025-09-12T21:53:00Z,2025-09-12 17:53:00,VFR,22.2,12.2,320,5,0,NA,1022.4,METAR KDKK 122153Z AUTO 32005KT 10SM CLR 22/12 A3019 RMK AO2 SLP224 T02220122,2025-09-12T21:55:43Z,2025-09-12T17:55:43Z,Chautauqua County-Dunkirk Airport,42.49247,-79.273102,US,US-NY
KDKR,"Crockett/Houston Cnty, TX, US",2025-09-12T21:35:00Z,2025-09-12 21:35:00,VFR,35,20,0,0,0,NA,1017,METAR KDKR 122135Z AUTO 00000KT 10SM CLR 35/20 A3003 RMK AO2,2025-09-12T21:44:58Z,2025-09-12T17:44:58Z,Houston County Airport,31.306999,-95.403801,US,US-TX
KDKX,"Knoxville/Downtown Aprt, TN, US",2025-09-12T21:35:00Z,2025-09-12 21:35:00,VFR,29,14,0,0,0,NA,1020.1,METAR KDKX 122135Z AUTO 00000KT 10SM CLR 29/14 A3012 RMK A01,2025-09-12T21:44:58Z,2025-09-12T17:44:58Z,Knoxville Downtown Island Airport,35.963902,-83.873901,US,US-TN
KDLH,"Duluth Intl Arpt, MN, US",2025-09-12T21:11:00Z,2025-09-12 16:11:00,LIFR,14.4,13.3,50,8,0,2,1018.7,SPECI KDLH 122111Z 05008KT 2SM BR OVC002 14/13 A3008 RMK AO2 PRESRR T01440133 $,2025-09-12T21:44:58Z,2025-09-12T17:44:58Z,Duluth International Airport,46.842098,-92.193604,US,US-MN
KDLH,"Duluth Intl Arpt, MN, US",2025-09-12T21:53:00Z,2025-09-12 16:53:00,VFR,15,14,100,9,0,NA,1018,SPECI KDLH 122153Z 10009KT 10SM SCT005 BKN100 15/14 A3006 RMK AO2 $,2025-09-12T21:55:43Z,2025-09-12T17:55:43Z,Duluth International Airport,46.842098,-92.193604,US,US-MN
KDLL,"Baraboo-Dells Arpt, WI, US",2025-09-12T21:35:00Z,2025-09-12 21:35:00,VFR,27.8,13.5,160,8,0,NA,1019,METAR KDLL 122135Z AUTO 16008KT 10SM CLR 28/14 A3009 RMK AO2 T02780135,2025-09-12T21:44:58Z,2025-09-12T17:44:58Z,Baraboo Wisconsin Dells Regional Airport,43.522701,-89.770203,US,US-WI
KDLN,"Dillon Arpt, MT, US",2025-09-12T20:53:00Z,2025-09-12 14:53:00,VFR,22.2,1.1,VAR,3,0,NA,1017.4,METAR KDLN 122053Z AUTO VRB03KT 10SM CLR 22/01 A3004 RMK AO2 SLP132 T02220011 58019,2025-09-12T21:45:01Z,2025-09-12T17:45:01Z,Dillon Airport,45.255401611299995,-112.553001404,US,US-MT
KDLN,"Dillon Arpt, MT, US",2025-09-12T21:53:00Z,2025-09-12 15:53:00,VFR,23.3,2.8,10,6,0,NA,1016.7,METAR KDLN 122153Z AUTO 01006KT 10SM CLR 23/03 A3002 RMK AO2 SLP124 T02330028,2025-09-12T21:55:45Z,2025-09-12T17:55:45Z,Dillon Airport,45.255401611299995,-112.553001404,US,US-MT
KDLO,"Delano Muni, CA, US",2025-09-12T21:35:00Z,2025-09-12 21:35:00,NA,26.6,11.6,0,0,0,NA,1012.3,METAR KDLO 122135Z AUTO 00000KT 10SM 27/12 A2989 RMK AO2 T02660116,2025-09-12T21:45:01Z,2025-09-12T17:45:01Z,Delano Municipal Airport,35.745601654052734,-119.23699951171876,US,US-CA
KDLO,"Delano Muni, CA, US",2025-09-12T21:55:00Z,2025-09-12 21:55:00,NA,27,11.1,330,4,0,NA,1012.3,METAR KDLO 122155Z AUTO 33004KT 10SM 27/11 A2989 RMK AO2 T02700111,2025-09-12T21:55:45Z,2025-09-12T17:55:45Z,Delano Municipal Airport,35.745601654052734,-119.23699951171876,US,US-CA
KDLS,"The Dalles Muni, OR, US",2025-09-12T20:53:00Z,2025-09-12 13:53:00,VFR,25,11.7,340,13,0,NA,1013.6,METAR KDLS 122053Z AUTO 34013KT 10SM CLR 25/12 A2993 RMK AO2 SLP134 T02500117 58023,2025-09-12T21:45:01Z,2025-09-12T17:45:01Z,Columbia Gorge Regional Airport,45.620979,-121.170777,US,US-OR
KDLS,"The Dalles Muni, OR, US",2025-09-12T21:53:00Z,2025-09-12 14:53:00,VFR,26.7,11.1,330,9,0,NA,1013,METAR KDLS 122153Z AUTO 33009KT 10SM CLR 27/11 A2991 RMK AO2 SLP125 T02670111,2025-09-12T21:55:45Z,2025-09-12T17:55:45Z,Columbia Gorge Regional Airport,45.620979,-121.170777,US,US-OR
KDLZ,"Delaware Muni, OH, US",2025-09-12T21:35:00Z,2025-09-12 21:35:00,VFR,28,6,VAR,3,0,NA,1021.1,METAR KDLZ 122135Z AUTO VRB03KT 10SM CLR 28/06 A3015 RMK AO2,2025-09-12T21:45:01Z,2025-09-12T17:45:01Z,Delaware Municipal Airport,40.279701,-83.114799,US,US-OH
KDMA,"Tucson/Davis AFB, AZ, US",2025-09-12T20:55:00Z,2025-09-12 13:55:00,VFR,35.8,9.3,200,10,15,NA,1012.6,METAR KDMA 122055Z AUTO 20010G15KT 10SM FEW100 36/09 A2990 RMK AO2 LTG DSNT NE SLP119 T03580093 57026 $,2025-09-12T21:45:01Z,2025-09-12T17:45:01Z,Davis Monthan Air Force Base,32.1665000916,-110.883003235,US,US-AZ
KDMN,"Deming Muni, NM, US",2025-09-12T21:31:00Z,2025-09-12 15:31:00,VFR,25,17.8,360,5,0,NA,1017.7,SPECI KDMN 122131Z AUTO 36005KT 10SM FEW050 FEW075 BKN100 25/18 A3005 RMK AO2 PK WND 25030/2102 WSHFT 2048 LTG DSNT S RAB2059E28 TSB2057E25 P0009 T02500178,2025-09-12T21:45:01Z,2025-09-12T17:45:01Z,Deming Municipal Airport,32.262298584,-107.721000671,US,US-NM
KDMN,"Deming Muni, NM, US",2025-09-12T21:53:00Z,2025-09-12 15:53:00,VFR,25,18.9,150,3,0,NA,1017.4,METAR KDMN 122153Z AUTO 15003KT 10SM -RA FEW034 SCT080 OVC100 25/19 A3004 RMK AO2 PK WND 25030/2102 WSHFT 2048 LTG DSNT NE-S RAB2059E28B38 TSB2057E25 SLP098 P0009 T02500189,2025-09-12T21:55:45Z,2025-09-12T17:55:45Z,Deming Municipal Airport,32.262298584,-107.721000671,US,US-NM
KDMO,"Sedalia Mem, MO, US",2025-09-12T20:53:00Z,2025-09-12 15:53:00,VFR,35,16.1,180,11,0,NA,1017.7,METAR KDMO 122053Z AUTO 18011KT 10SM CLR 35/16 A3005 RMK AO2 SLP164 T03500161 56022,2025-09-12T21:45:01Z,2025-09-12T17:45:01Z,Sedalia Memorial Airport,38.70740127559999,-93.1759033203,US,US-MO
KDMO,"Sedalia Mem, MO, US",2025-09-12T21:53:00Z,2025-09-12 16:53:00,VFR,34.4,15.6,200,9,0,NA,1017.4,METAR KDMO 122153Z AUTO 20009KT 10SM CLR 34/16 A3004 RMK AO2 SLP161 T03440156,2025-09-12T21:55:45Z,2025-09-12T17:55:45Z,Sedalia Memorial Airport,38.70740127559999,-93.1759033203,US,US-MO
KDMW,"Westminster/Carroll Cnty Rgnl, MD, US",2025-09-12T21:35:00Z,2025-09-12 21:35:00,VFR,28,12,110,3,0,NA,1021.8,METAR KDMW 122135Z AUTO 11003KT 10SM SCT070 28/12 A3017 RMK AO2,2025-09-12T21:45:00Z,2025-09-12T17:45:00Z,Carroll County Regional Jack B Poage Field,39.60829926,-77.00769806,US,US-MD
KDMW,"Westminster/Carroll Cnty Rgnl, MD, US",2025-09-12T21:45:00Z,2025-09-12 21:45:00,VFR,28,11,150,4,0,NA,1021.8,METAR KDMW 122145Z AUTO 15004KT 10SM CLR 28/11 A3017 RMK AO2,2025-09-12T21:55:46Z,2025-09-12T17:55:46Z,Carroll County Regional Jack B Poage Field,39.60829926,-77.00769806,US,US-MD
KDNL,"Augusta/Daniel Fld, GA, US",2025-09-12T20:53:00Z,2025-09-12 16:53:00,VFR,29.4,12.8,60,9,0,NA,1018.7,METAR KDNL 122053Z AUTO 06009KT 10SM FEW065 SCT080 29/13 A3008 RMK AO2 SLP181 T02940128 56014,2025-09-12T21:45:01Z,2025-09-12T17:45:01Z,Daniel Field,33.4664993286,-82.0393981934,US,US-GA
KDNL,"Augusta/Daniel Fld, GA, US",2025-09-12T21:53:00Z,2025-09-12 17:53:00,VFR,27.8,13.9,50,7,0,NA,1018.7,METAR KDNL 122153Z AUTO 05007KT 10SM FEW085 28/14 A3008 RMK AO2 SLP183 T02780139,2025-09-12T21:55:45Z,2025-09-12T17:55:45Z,Daniel Field,33.4664993286,-82.0393981934,US,US-GA
KDNN,"Dalton Muni, GA, US",2025-09-12T21:35:00Z,2025-09-12 17:35:00,VFR,29.7,15.1,20,5,0,NA,1018.4,METAR KDNN 122135Z AUTO 02005KT 10SM CLR 30/15 A3007 RMK AO2 T02970151,2025-09-12T21:45:00Z,2025-09-12T17:45:00Z,Dalton Municipal Airport,34.72290039,-84.87020111,US,US-GA
KDNS,"Denison Muni, IA, US",2025-09-12T21:35:00Z,2025-09-12 16:35:00,VFR,31,19,200,13,22,NA,1013,METAR KDNS 122135Z AUTO 20013G22KT 10SM CLR 31/19 A2991 RMK AO2,2025-09-12T21:45:01Z,2025-09-12T17:45:01Z,Denison Municipal Airport,41.9864006,-95.38069916,US,US-IA
KDNV,"Danville/Vermillion Rgnl, IL, US",2025-09-12T21:35:00Z,2025-09-12 16:35:00,VFR,30,10.5,0,0,0,NA,1020.4,METAR KDNV 122135Z AUTO 00000KT 10SM CLR 30/11 A3013 RMK AO2 T03000105,2025-09-12T21:45:00Z,2025-09-12T17:45:00Z,Vermilion Regional Airport,40.199124,-87.59663,US,US-IL
KDOV,"Dover AFB, DE, US",2025-09-12T20:55:00Z,2025-09-12 16:55:00,VFR,26,13.1,120,5,0,NA,1020.7,METAR KDOV 122055Z AUTO 12005KT 10SM CLR 26/13 A3014 RMK AO2 SLP210 T02600131 57008,2025-09-12T21:45:01Z,2025-09-12T17:45:01Z,Dover Air Force Base,39.129501,-75.466003,US,US-DE
KDPA,"Dupage Cnty Arpt, IL, US",2025-09-12T20:52:00Z,2025-09-12 15:52:00,VFR,28.3,12.8,190,9,0,NA,1019.7,METAR KDPA 122052Z 19009KT 10SM CLR 28/13 A3011 RMK AO2 SLP192 T02830128 56025,2025-09-12T21:45:01Z,2025-09-12T17:45:01Z,Dupage Airport,41.90779877,-88.24859619,US,US-IL
KDPA,"Dupage Cnty Arpt, IL, US",2025-09-12T21:52:00Z,2025-09-12 16:52:00,VFR,28.3,12.8,140,6,0,NA,1019.7,METAR KDPA 122152Z AUTO 14006KT 10SM CLR 28/13 A3011 RMK AO2 SLP191 T02830128,2025-09-12T21:55:46Z,2025-09-12T17:55:46Z,Dupage Airport,41.90779877,-88.24859619,US,US-IL
KDPL,"Kenansville/Duplin Arpt, NC, US",2025-09-12T21:40:00Z,2025-09-12 21:40:00,VFR,25,18,50,3,0,NA,1019.7,METAR KDPL 122140Z AUTO 05003KT 10SM OVC070 25/18 A3011 RMK AO2,2025-09-12T21:45:00Z,2025-09-12T17:45:00Z,Duplin County Airport,35.00009918,-77.98169708,US,US-NC
KDPL,"Kenansville/Duplin Arpt, NC, US",2025-09-12T21:50:00Z,2025-09-12 21:50:00,VFR,25,17,40,5,0,NA,1019.7,METAR KDPL 122150Z AUTO 04005KT 10SM OVC070 25/17 A3011 RMK AO2,2025-09-12T21:55:46Z,2025-09-12T17:55:46Z,Duplin County Airport,35.00009918,-77.98169708,US,US-NC
KDQH,"Douglas Muni, GA, US",2025-09-12T21:35:00Z,2025-09-12 21:35:00,VFR,30.6,13.7,60,12,15,NA,1017.7,METAR KDQH 122135Z AUTO 06012G15KT 10SM SCT065 SCT085 31/14 A3005 RMK AO2 T03060137,2025-09-12T21:45:01Z,2025-09-12T17:45:01Z,Douglas Municipal Gene Chambers Airport,31.4767,-82.860497,US,US-GA
KDRA,"Mercury/Desert Rock, NV, US",2025-09-12T20:53:00Z,2025-09-12 13:53:00,VFR,28.3,3.3,0,0,0,NA,1013.3,METAR KDRA 122053Z AUTO 00000KT 10SM CLR 28/03 A2992 RMK AO2 SLP092 T02830033 58017,2025-09-12T21:45:01Z,2025-09-12T17:45:01Z,Desert Rock Airport,36.6194,-116.032997,US,US-NV
KDRA,"Mercury/Desert Rock, NV, US",2025-09-12T21:53:00Z,2025-09-12 14:53:00,VFR,29.4,3.3,240,10,17,NA,1012.6,METAR KDRA 122153Z AUTO 24010G17KT 10SM CLR 29/03 A2990 RMK AO2 SLP084 T02940033,2025-09-12T21:55:46Z,2025-09-12T17:55:46Z,Desert Rock Airport,36.6194,-116.032997,US,US-NV
KDRI,"Deridder/Beauregard Rgnl, LA, US",2025-09-12T21:35:00Z,2025-09-12 16:35:00,VFR,34.8,16.6,0,0,0,NA,1017,METAR KDRI 122135Z AUTO 00000KT 10SM BKN070 35/17 A3003 RMK AO2 T03480166 $,2025-09-12T21:45:01Z,2025-09-12T17:45:01Z,Beauregard Regional Airport,30.831699,-93.339897,US,US-LA
KDRM,"Drummond Island Arpt, MI, US",2025-09-12T21:35:00Z,2025-09-12 17:35:00,VFR,18,12,160,6,0,NA,1022.1,METAR KDRM 122135Z AUTO 16006KT 10SM CLR 18/12 A3018 RMK AO2 T01800120,2025-09-12T21:45:00Z,2025-09-12T17:45:00Z,Drummond Island Airport,46.0093002319,-83.74389648440001,US,US-MI
KDRO,"Durango/La Plata Cnty, CO, US",2025-09-12T20:53:00Z,2025-09-12 14:53:00,VFR,18.3,12.8,350,8,0,NA,1023.5,METAR KDRO 122053Z AUTO 35008KT 10SM SCT055 18/13 A3022 RMK AO2 LTG DSNT E-S RAE24 TSB05E26 SLP163 P0007 60015 T01830128 58012,2025-09-12T21:45:01Z,2025-09-12T17:45:01Z,Durango La Plata County Airport,37.151501,-107.753998,US,US-CO
KDRO,"Durango/La Plata Cnty, CO, US",2025-09-12T21:53:00Z,2025-09-12 15:53:00,VFR,13.9,11.1,110,10,0,NA,1024.1,METAR KDRO 122153Z AUTO 11010KT 10SM -RA FEW022 SCT041 BKN049 14/11 A3024 RMK AO2 LTG DSNT NE AND E RAB24 SLP184 P0001 T01390111,2025-09-12T21:55:45Z,2025-09-12T17:55:45Z,Durango La Plata County Airport,37.151501,-107.753998,US,US-CO
KDRP,"Colt/Delta Rgnl, AR, US",2025-09-12T21:35:00Z,2025-09-12 21:35:00,VFR,35,17,310,8,0,NA,1017,METAR KDRP 122135Z AUTO 31008KT 10SM CLR 35/17 A3003 RMK AO2,2025-09-12T21:45:00Z,2025-09-12T17:45:00Z,Delta Regional Airport,35.1200556,-90.8265,US,US-AR
KDRT,"Del Rio Intl, TX, US",2025-09-12T20:53:00Z,2025-09-12 15:53:00,VFR,33.9,18.3,120,9,18,NA,1016.3,METAR KDRT 122053Z AUTO 12009G18KT 10SM CLR 34/18 A3001 RMK AO2 SLP151 T03390183 58027,2025-09-12T21:45:01Z,2025-09-12T17:45:01Z,Del Rio International Airport,29.3742008209,-100.927001953,US,US-TX
KDRT,"Del Rio Intl, TX, US",2025-09-12T21:53:00Z,2025-09-12 16:53:00,VFR,33.9,18.3,130,12,20,NA,1015.7,METAR KDRT 122153Z AUTO 13012G20KT 10SM CLR 34/18 A2999 RMK AO2 SLP143 T03390183,2025-09-12T21:55:45Z,2025-09-12T17:55:45Z,Del Rio International Airport,29.3742008209,-100.927001953,US,US-TX
KDSM,"Des Moines Intl, IA, US",2025-09-12T20:54:00Z,2025-09-12 15:54:00,VFR,27.2,19.4,130,14,0,NA,1015.3,METAR KDSM 122054Z 13014KT 10SM -RA FEW050 SCT100 OVC150 27/19 A2998 RMK AO2 RAB45 SLP145 P0000 60000 T02720194 58015,2025-09-12T21:45:01Z,2025-09-12T17:45:01Z,Des Moines International Airport,41.534,-93.663101,US,US-IA
KDSV,"Dansville Muni, NY, US",2025-09-12T20:54:00Z,2025-09-12 16:54:00,VFR,27.8,10.6,330,7,0,NA,1021.8,METAR KDSV 122054Z AUTO 33007KT 10SM CLR 28/11 A3017 RMK AO2 SLP223 T02780106 56018,2025-09-12T21:45:01Z,2025-09-12T17:45:01Z,Dansville Municipal Airport,42.570545,-77.713273,US,US-NY
KDTA,"Delta Muni, UT, US",2025-09-12T21:35:00Z,2025-09-12 15:35:00,VFR,26,-3,190,8,0,NA,1015.3,METAR KDTA 122135Z AUTO 19008KT 10SM CLR 26/M03 A2998 RMK AO1,2025-09-12T21:45:00Z,2025-09-12T17:45:00Z,Delta Municipal Airport,39.3805999756,-112.508003235,US,US-UT
KDTL,"Detroit Lakes Arpt, MN, US",2025-09-12T21:07:00Z,2025-09-12 16:07:00,VFR,20,16,110,10,0,NA,1014,METAR KDTL 122107Z 11010KT 10SM CLR 20/16 A2994 RMK AO2,2025-09-12T21:45:01Z,2025-09-12T17:45:01Z,Detroit Lakes Airport,46.824301,-95.883322,US,US-MN
KDTL,"Detroit Lakes Arpt, MN, US",2025-09-12T21:41:00Z,2025-09-12 16:41:00,VFR,21,16,120,10,0,NA,1014,METAR KDTL 122141Z 12010KT 10SM CLR 21/16 A2994 RMK AO2,2025-09-12T21:55:46Z,2025-09-12T17:55:46Z,Detroit Lakes Airport,46.824301,-95.883322,US,US-MN
KDTN,"Shreveport/Downtown Arpt, LA, US",2025-09-12T20:53:00Z,2025-09-12 15:53:00,VFR,34.4,18.9,VAR,3,0,NA,1018,METAR KDTN 122053Z AUTO VRB03KT 10SM FEW060 34/19 A3006 RMK AO2 SLP175 T03440189 58020,2025-09-12T21:45:01Z,2025-09-12T17:45:01Z,Shreveport Downtown Airport,32.5401992798,-93.7450027466,US,US-LA
KDTN,"Shreveport/Downtown Arpt, LA, US",2025-09-12T21:53:00Z,2025-09-12 16:53:00,VFR,35,18.9,0,0,0,NA,1017.4,METAR KDTN 122153Z AUTO 00000KT 10SM CLR 35/19 A3004 RMK AO2 SLP170 T03500189,2025-09-12T21:55:45Z,2025-09-12T17:55:45Z,Shreveport Downtown Airport,32.5401992798,-93.7450027466,US,US-LA
KDTO,"Denton Muni, TX, US",2025-09-12T20:53:00Z,2025-09-12 20:53:00,VFR,33.9,18.9,140,8,0,NA,1018,METAR KDTO 122053Z 14008KT 10SM CLR 34/19 A3006 RMK AO2 SLP170 T03390189 56021,2025-09-12T21:45:01Z,2025-09-12T17:45:01Z,Denton Enterprise Airport,33.201769,-97.197983,US,US-TX
KDTO,"Denton Muni, TX, US",2025-09-12T21:53:00Z,2025-09-12 21:53:00,VFR,33.9,18.9,130,8,0,NA,1017.7,METAR KDTO 122153Z 13008KT 10SM CLR 34/19 A3005 RMK AO2 SLP165 T03390189,2025-09-12T21:55:45Z,2025-09-12T17:55:45Z,Denton Enterprise Airport,33.201769,-97.197983,US,US-TX
KDTS,"Destin Arpt, FL, US",2025-09-12T20:53:00Z,2025-09-12 15:53:00,VFR,30,17.8,VAR,3,0,NA,1016.3,METAR KDTS 122053Z VRB03KT 10SM BKN095 30/18 A3001 RMK AO2 SLP162 T03000178 56017,2025-09-12T21:45:01Z,2025-09-12T17:45:01Z,Destin Executive Airport,30.400101,-86.471497,US,US-FL
KDTS,"Destin Arpt, FL, US",2025-09-12T21:53:00Z,2025-09-12 16:53:00,VFR,30,18.9,VAR,4,0,NA,1016,METAR KDTS 122153Z VRB04KT 10SM CLR 30/19 A3000 RMK AO2 SLP158 T03000189,2025-09-12T21:55:45Z,2025-09-12T17:55:45Z,Destin Executive Airport,30.400101,-86.471497,US,US-FL
KDTW,"Detroit/Metro Wayne Cnty, MI, US",2025-09-12T20:53:00Z,2025-09-12 16:53:00,VFR,25.6,11.7,150,8,0,9,1022.1,METAR KDTW 122053Z 15008KT 9SM SCT070 BKN230 26/12 A3018 RMK AO2 SLP217 T02560117 56017,2025-09-12T21:45:01Z,2025-09-12T17:45:01Z,Detroit Metropolitan Wayne County Airport,42.21377,-83.353786,US,US-MI
KDTW,"Detroit/Metro Wayne Cnty, MI, US",2025-09-12T21:53:00Z,2025-09-12 17:53:00,VFR,25,12.2,170,10,0,9,1022.1,METAR KDTW 122153Z 17010KT 9SM SCT070 SCT230 25/12 A3018 RMK AO2 SLP216 T02500122,2025-09-12T21:55:45Z,2025-09-12T17:55:45Z,Detroit Metropolitan Wayne County Airport,42.21377,-83.353786,US,US-MI
KDUA,"Durant/Eaker Fld, OK, US",2025-09-12T21:35:00Z,2025-09-12 16:35:00,VFR,34,21,170,5,0,NA,1018.7,METAR KDUA 122135Z AUTO 17005KT 10SM CLR 34/21 A3008 RMK AO2,2025-09-12T21:45:00Z,2025-09-12T17:45:00Z,Durant Regional Airport - Eaker Field,33.939675,-96.395072,US,US-OK
KDUC,"Duncan/Halliburton Fld, OK, US",2025-09-12T21:35:00Z,2025-09-12 16:35:00,VFR,35,15,180,8,19,NA,1017.7,METAR KDUC 122135Z AUTO 18008G19KT 10SM CLR 35/15 A3005 RMK AO2,2025-09-12T21:45:00Z,2025-09-12T17:45:00Z,Halliburton Field,34.47090149,-97.9598999,US,US-OK
KDUH,"Toledo/Suburban Arpt, MI, US",2025-09-12T21:35:00Z,2025-09-12 21:35:00,VFR,25.7,9.8,80,3,0,NA,1022.1,METAR KDUH 122135Z AUTO 08003KT 10SM CLR 26/10 A3018 RMK AO2 T02570098,2025-09-12T21:45:00Z,2025-09-12T17:45:00Z,Toledo Suburban Airport,41.73590087890625,-83.65540313720703,US,US-MI
KDUJ,"Du Bois Rgnl, PA, US",2025-09-12T20:53:00Z,2025-09-12 16:53:00,VFR,23.9,7.2,360,3,0,NA,1022.1,METAR KDUJ 122053Z AUTO 36003KT 10SM BKN075 24/07 A3018 RMK AO2 SLP213 T02390072 56015,2025-09-12T21:45:01Z,2025-09-12T17:45:01Z,DuBois Regional Airport,41.17829895,-78.8986969,US,US-PA
KDUJ,"Du Bois Rgnl, PA, US",2025-09-12T21:53:00Z,2025-09-12 17:53:00,VFR,25,7.2,330,3,0,NA,1022.1,METAR KDUJ 122153Z AUTO 33003KT 10SM CLR 25/07 A3018 RMK AO2 SLP210 T02500072,2025-09-12T21:55:45Z,2025-09-12T17:55:45Z,DuBois Regional Airport,41.17829895,-78.8986969,US,US-PA
KDUX,"Dumas/Moore Cnty, TX, US",2025-09-12T21:35:00Z,2025-09-12 21:35:00,VFR,32.2,8,170,23,27,NA,1018.7,METAR KDUX 122135Z AUTO 17023G27KT 10SM CLR 32/08 A3008 RMK AO2 T03220080,2025-09-12T21:45:01Z,2025-09-12T17:45:01Z,Moore County Airport,35.857899,-102.013,US,US-TX
KDVK,"Danville/Powell Fld, KY, US",2025-09-12T21:30:00Z,2025-09-12 21:30:00,VFR,28,11,150,4,0,NA,1021.4,METAR KDVK 122130Z AUTO 15004KT 10SM CLR 28/11 A3016 RMK AO2,2025-09-12T21:45:01Z,2025-09-12T17:45:01Z,Stuart Powell Field,37.579409,-84.774347,US,US-KY
KDVL,"Devils Lake Rgnl, ND, US",2025-09-12T20:56:00Z,2025-09-12 15:56:00,VFR,24.4,19.4,50,7,0,NA,1014,METAR KDVL 122056Z AUTO 05007KT 10SM FEW020 24/19 A2994 RMK AO2 SLP139 T02440194 56006,2025-09-12T21:45:01Z,2025-09-12T17:45:01Z,Devils Lake Regional Airport,48.115454,-98.908796,US,US-ND
KDVN,"Davenport Muni, IA, US",2025-09-12T20:52:00Z,2025-09-12 15:52:00,VFR,31.1,16.1,150,7,0,NA,1018.7,METAR KDVN 122052Z AUTO 15007KT 10SM CLR 31/16 A3008 RMK AO2 SLP179 T03110161 56022,2025-09-12T21:45:01Z,2025-09-12T17:45:01Z,Davenport Municipal Airport,41.610432,-90.589693,US,US-IA
KDVN,"Davenport Muni, IA, US",2025-09-12T21:52:00Z,2025-09-12 16:52:00,VFR,31.1,16.1,150,9,16,NA,1018.4,METAR KDVN 122152Z AUTO 15009G16KT 10SM CLR 31/16 A3007 RMK AO2 SLP176 T03110161,2025-09-12T21:55:46Z,2025-09-12T17:55:46Z,Davenport Municipal Airport,41.610432,-90.589693,US,US-IA
KDVO,"Novato/Gnoss Fld, CA, US",2025-09-12T21:35:00Z,2025-09-12 14:35:00,VFR,27,16,100,7,0,NA,1013.3,METAR KDVO 122135Z AUTO 10007KT 10SM CLR 27/16 A2992 RMK AO2,2025-09-12T21:45:01Z,2025-09-12T17:45:01Z,Marin County Airport - Gnoss Field,38.143600463867,-122.55599975586,US,US-CA
KDVT,"Phoenix/Deer Valley Arpt, AZ, US",2025-09-12T20:53:00Z,2025-09-12 13:53:00,VFR,33.9,13.3,VAR,4,0,NA,1009.9,METAR KDVT 122053Z VRB04KT 10SM CLR 34/13 A2982 RMK AO2 SLP071 T03390133 58025,2025-09-12T21:45:01Z,2025-09-12T17:45:01Z,Phoenix Deer Valley Airport,33.6883010864,-112.083000183,US,US-AZ
KDVT,"Phoenix/Deer Valley Arpt, AZ, US",2025-09-12T21:53:00Z,2025-09-12 14:53:00,VFR,35,13.3,VAR,NA,0,NA,1008.9,METAR KDVT 122153Z 10SM CLR 35/13 A2979 RMK AO2 SLP060 T03500133,2025-09-12T21:55:45Z,2025-09-12T17:55:45Z,Phoenix Deer Valley Airport,33.6883010864,-112.083000183,US,US-AZ
KDWA,"Davis/Yolo Cnty, CA, US",2025-09-12T21:35:00Z,2025-09-12 21:35:00,VFR,30,14,210,9,0,8,1012.6,METAR KDWA 122135Z AUTO 21009KT 8SM CLR 30/14 A2990 RMK AO2,2025-09-12T21:45:00Z,2025-09-12T17:45:00Z,Yolo County Davis Woodland Winters Airport,38.57910156,-121.8570023,US,US-CA
KDWH,"Houston/Hooks Mem, TX, US",2025-09-12T20:53:00Z,2025-09-12 15:53:00,VFR,32.8,19.4,140,4,0,NA,1017.4,METAR KDWH 122053Z 14004KT 10SM SCT070 33/19 A3004 RMK AO2 SLP170 6//// T03280194 $,2025-09-12T21:45:01Z,2025-09-12T17:45:01Z,David Wayne Hooks Memorial Airport,30.0618000031,-95.5528030396,US,US-TX
KDWH,"Houston/Hooks Mem, TX, US",2025-09-12T21:53:00Z,2025-09-12 16:53:00,VFR,32.8,20,110,6,0,NA,1017,METAR KDWH 122153Z 11006KT 10SM FEW065 33/20 A3003 RMK AO2 SLP166 T03280200 $,2025-09-12T21:55:45Z,2025-09-12T17:55:45Z,David Wayne Hooks Memorial Airport,30.0618000031,-95.5528030396,US,US-TX
KDWU,"Ashland Rgnl, KY, US",2025-09-12T20:56:00Z,2025-09-12 20:56:00,VFR,29.4,11.7,0,0,0,NA,1020.7,METAR KDWU 122056Z AUTO 00000KT 10SM CLR 29/12 A3014 RMK AO2 SLP203 T02940117 56020,2025-09-12T21:45:01Z,2025-09-12T17:45:01Z,Ashland Regional Airport,38.554501,-82.737999,US,US-KY
KDXR,"Danbury Muni, CT, US",2025-09-12T20:53:00Z,2025-09-12 16:53:00,VFR,24.4,10.6,30,5,0,NA,1022.1,METAR KDXR 122053Z 03005KT 10SM FEW055 24/11 A3018 RMK AO2 SLP218 T02440106 56011,2025-09-12T21:45:01Z,2025-09-12T17:45:01Z,Danbury Municipal Airport,41.371656,-73.482227,US,US-CT
KDXR,"Danbury Muni, CT, US",2025-09-12T21:53:00Z,2025-09-12 17:53:00,VFR,24.4,9.4,50,6,0,NA,1022.1,METAR KDXR 122153Z 05006KT 10SM CLR 24/09 A3018 RMK AO2 SLP218 T02440094,2025-09-12T21:55:45Z,2025-09-12T17:55:45Z,Danbury Municipal Airport,41.371656,-73.482227,US,US-CT
KDXX,"Madison/Lac Qui Parle Cnty, MN, US",2025-09-12T21:35:00Z,2025-09-12 21:35:00,VFR,25,17,120,13,17,NA,1014.3,METAR KDXX 122135Z AUTO 12013G17KT 10SM CLR 25/17 A2995 RMK AO2,2025-09-12T21:45:00Z,2025-09-12T17:45:00Z,Lac Qui Parle County Airport,44.986198,-96.177696,US,US-MN
KDYA,"Demopolis Muni, AL, US",2025-09-12T21:35:00Z,2025-09-12 21:35:00,VFR,33.7,16.9,300,4,0,NA,1016.7,METAR KDYA 122135Z AUTO 30004KT 10SM SCT090 34/17 A3002 RMK AO2 T03370169,2025-09-12T21:45:00Z,2025-09-12T17:45:00Z,Demopolis Municipal Airport,32.463799,-87.954102,US,US-AL
KDYA,"Demopolis Muni, AL, US",2025-09-12T21:55:00Z,2025-09-12 21:55:00,VFR,33.5,17.5,10,5,0,NA,1016.7,METAR KDYA 122155Z AUTO 01005KT 10SM SCT070 SCT090 34/18 A3002 RMK AO2 T03350175,2025-09-12T21:55:45Z,2025-09-12T17:55:45Z,Demopolis Municipal Airport,32.463799,-87.954102,US,US-AL
KDYB,"Summerville Arpt, SC, US",2025-09-12T21:35:00Z,2025-09-12 21:35:00,VFR,28,17,VAR,5,0,NA,1017.7,METAR KDYB 122135Z AUTO VRB05KT 10SM FEW080 28/17 A3005 RMK AO2,2025-09-12T21:45:00Z,2025-09-12T17:45:00Z,Summerville Airport,33.0634,-80.279297,US,US-SC
KDYL,"Doylestown Arpt, PA, US",2025-09-12T20:54:00Z,2025-09-12 16:54:00,VFR,26.7,13.9,0,0,0,NA,1021.8,METAR KDYL 122054Z AUTO 00000KT 10SM CLR 27/14 A3017 RMK AO2 SLP211 T02670139 58008,2025-09-12T21:45:01Z,2025-09-12T17:45:01Z,Doylestown Airport,40.3330001831,-75.1222991943,US,US-PA
KDYR,"Dyersburg Rgnl, TN, US",2025-09-12T20:56:00Z,2025-09-12 20:56:00,VFR,34.4,16.7,0,0,0,NA,1018.4,METAR KDYR 122056Z AUTO 00000KT 10SM CLR 34/17 A3007 RMK AO2 SLP186 T03440167 56021,2025-09-12T21:45:01Z,2025-09-12T17:45:01Z,Dyersburg Regional Airport,35.999158,-89.404898,US,US-TN
KDYS,"Abilene/Dyess AFB, TX, US",2025-09-12T21:26:00Z,2025-09-12 16:26:00,VFR,35,9,190,15,18,NA,1017.4,SPECI KDYS 122126Z AUTO 19015G18KT 10SM CLR 35/09 A3004 RMK AO2 WSHFT 20 SLP146,2025-09-12T21:45:01Z,2025-09-12T17:45:01Z,Dyess Air Force Base,32.420799,-99.854599,US,US-TX
KDYT,"Duluth/Sky Harbor Arpt, MN, US",2025-09-12T21:35:00Z,2025-09-12 21:35:00,IFR,15,15,40,12,0,NA,1018.4,METAR KDYT 122135Z AUTO 04012KT 10SM BKN006 OVC011 15/15 A3007 RMK AO2,2025-09-12T21:45:00Z,2025-09-12T17:45:00Z,Sky Harbor Airport,46.721901,-92.043404,US,US-MN
KDZB,"Marble Falls/Horseshoe Bay Arpt, TX, US",2025-09-12T21:35:00Z,2025-09-12 21:35:00,NA,35.3,12.7,190,4,0,NA,1018,METAR KDZB 122135Z AUTO 19004KT SCT080 35/13 A3006 RMK AO2 T03530127 PWINO,2025-09-12T21:45:00Z,2025-09-12T17:45:00Z,Horseshoe Bay Resort Airpark,30.52709961,-98.35870361,US,US-TX
KDZJ,"Blairsville Arpt, GA, US",2025-09-12T21:35:00Z,2025-09-12 21:35:00,VFR,26.9,14.2,320,4,0,NA,1021.1,METAR KDZJ 122135Z AUTO 32004KT 10SM CLR 27/14 A3015 RMK AO2 T02690142,2025-09-12T21:45:01Z,2025-09-12T17:45:01Z,Blairsville Airport,34.855099,-83.996902,US,US-GA
KE01,"Monahans/Hurd Mem, TX, US",2025-09-12T21:35:00Z,2025-09-12 16:35:00,VFR,34,14,140,13,19,NA,1016.7,METAR KE01 122135Z AUTO 14013G19KT 10SM CLR 34/14 A3002 RMK AO2,2025-09-12T21:45:00Z,2025-09-12T17:45:00Z,Roy Hurd Memorial Airport,31.582500457764,-102.90899658203,US,US-TX
KE11,"Andrews Cnty, TX, US",2025-09-12T21:35:00Z,2025-09-12 21:35:00,VFR,32.5,10.9,190,16,0,NA,1019,METAR KE11 122135Z AUTO 19016KT 10SM CLR 33/11 A3009 RMK AO2 T03250109,2025-09-12T21:45:01Z,2025-09-12T17:45:01Z,Andrews County Airport,32.331100463867,-102.5299987793,US,US-TX
KE16,"San Martin Arpt, CA, US",2025-09-12T21:35:00Z,2025-09-12 21:35:00,VFR,25,14,0,0,0,9,1014,METAR KE16 122135Z AUTO 00000KT 9SM -RA CLR 25/14 A2994 RMK AO2,2025-09-12T21:45:01Z,2025-09-12T17:45:01Z,San Martin Airport,37.08160019,-121.5970001,US,US-CA
KE38,"Alpine/Casparis Muni, TX, US",2025-09-12T21:35:00Z,2025-09-12 16:35:00,VFR,29.5,11.2,150,4,0,NA,1022.1,METAR KE38 122135Z AUTO 15004KT 10SM SCT075 30/11 A3018 RMK AO2 T02950112,2025-09-12T21:45:01Z,2025-09-12T17:45:01Z,Alpine Casparis Municipal Airport,30.384199,-103.683998,US,US-TX
KE41,"Big Lake/Reagan Cnty, TX, US",2025-09-12T21:35:00Z,2025-09-12 21:35:00,VFR,30.6,14,170,14,0,NA,1019.4,METAR KE41 122135Z AUTO 17014KT 10SM SCT060 SCT075 31/14 A3010 RMK AO2 T03060140,2025-09-12T21:45:01Z,2025-09-12T17:45:01Z,Reagan County Airport,31.198900222800003,-101.472999573,US,US-TX
KE57,"Denver City Arpt, TX, US",2025-09-12T21:35:00Z,2025-09-12 21:35:00,VFR,32,8,160,13,21,NA,1019.4,METAR KE57 122135Z AUTO 16013G21KT 10SM CLR 32/08 A3010 RMK AO2,2025-09-12T21:45:00Z,2025-09-12T17:45:00Z,Denver City Airport,32.976466,-102.84231,US,US-TX
KE77,"San Manuel Arpt, AZ, US",2025-09-12T21:35:00Z,2025-09-12 21:35:00,VFR,29,18,360,7,0,NA,1016,METAR KE77 122135Z AUTO 36007KT 320V020 10SM CLR 29/18 A3000 RMK AO2 LTG DSNT N AND NW,2025-09-12T21:45:00Z,2025-09-12T17:45:00Z,San Manuel Airport,32.636501,-110.647003,US,US-AZ
KEAN,"Wheatland/Phifer Fld, WY, US",2025-09-12T21:35:00Z,2025-09-12 15:35:00,VFR,30.7,1.4,140,8,0,NA,1016,METAR KEAN 122135Z AUTO 14008KT 10SM CLR 31/01 A3000 RMK AO2 T03070014,2025-09-12T21:45:01Z,2025-09-12T17:45:01Z,Phifer Airfield,42.0555,-104.929001,US,US-WY
KEAR,"Kearney Rgnl, NE, US",2025-09-12T20:56:00Z,2025-09-12 15:56:00,VFR,34.4,16.7,160,14,0,NA,1013,METAR KEAR 122056Z AUTO 16014KT 10SM CLR 34/17 A2991 RMK AO2 SLP106 T03440167 58015,2025-09-12T21:45:01Z,2025-09-12T17:45:01Z,Kearney Regional Airport,40.727001,-99.006798,US,US-NE
KEAT,"Wenatchee/Pangborn Mem, WA, US",2025-09-12T20:55:00Z,2025-09-12 13:55:00,VFR,26.1,11.1,110,9,0,NA,1013.6,METAR KEAT 122055Z AUTO 11009KT 10SM CLR 26/11 A2993 RMK AO2 SLP125 T02610111 58017,2025-09-12T21:45:01Z,2025-09-12T17:45:01Z,Pangborn Memorial Airport,47.398899,-120.207001,US,US-WA
KEAU,"Eau Claire/Chippewa Valley Rgnl, WI, US",2025-09-12T20:56:00Z,2025-09-12 15:56:00,VFR,27.8,16.1,130,13,0,NA,1017.7,METAR KEAU 122056Z 13013KT 10SM CLR 28/16 A3005 RMK AO2 SLP172 T02780161 55015,2025-09-12T21:45:01Z,2025-09-12T17:45:01Z,Chippewa Valley Regional Airport,44.86579895019531,-91.48429870605467,US,US-WI
KEBG,"Edinburg/S Texas Intl, TX, US",2025-09-12T21:35:00Z,2025-09-12 21:35:00,VFR,31,23,150,12,0,NA,1014.6,METAR KEBG 122135Z AUTO 15012KT 10SM FEW049 SCT060 BKN075 31/23 A2996 RMK AO2,2025-09-12T21:45:00Z,2025-09-12T17:45:00Z,South Texas International at Edinburg Airport,26.4417,-98.1222,US,US-TX
KECG,"Elizabeth City Rgnl, NC, US",2025-09-12T20:54:00Z,2025-09-12 16:54:00,VFR,23.9,14.4,50,13,0,NA,1020.4,METAR KECG 122054Z 05013KT 10SM FEW070 24/14 A3013 RMK AO2 SLP202 T02390144 56007,2025-09-12T21:45:01Z,2025-09-12T17:45:01Z,Elizabeth City Regional Airport & Coast Guard Air Station,36.260601,-76.174599,US,US-NC
KECP,"Panama City/NW Florida Beaches Intl, FL, US",2025-09-12T20:53:00Z,2025-09-12 15:53:00,VFR,32.8,16.7,360,9,18,NA,1016,METAR KECP 122053Z 36009G18KT 10SM SCT075 33/17 A3000 RMK AO2 SLP169 T03280167 56016,2025-09-12T21:45:01Z,2025-09-12T17:45:01Z,Northwest Florida Beaches International Airport,30.357106,-85.795414,US,US-FL
KECP,"Panama City/NW Florida Beaches Intl, FL, US",2025-09-12T21:53:00Z,2025-09-12 16:53:00,VFR,33.3,16.7,360,8,0,NA,1016,METAR KECP 122153Z 36008KT 10SM SCT075 33/17 A3000 RMK AO2 SLP167 T03330167,2025-09-12T21:55:45Z,2025-09-12T17:55:45Z,Northwest Florida Beaches International Airport,30.357106,-85.795414,US,US-FL
KECS,"Newcastle/Mondell Arpt, WY, US",2025-09-12T21:35:00Z,2025-09-12 15:35:00,VFR,30,3,0,0,0,NA,1015,METAR KECS 122135Z AUTO 00000KT 10SM CLR 30/03 A2997 RMK AO2,2025-09-12T21:45:00Z,2025-09-12T17:45:00Z,Mondell Field,43.88379,-104.314156,US,US-WY
KECU,"Rocksprings/Edwards Cnty, TX, US",2025-09-12T21:35:00Z,2025-09-12 21:35:00,VFR,30,17,150,7,0,NA,1020.7,METAR KECU 122135Z AUTO 15007KT 10SM FEW055 FEW070 30/17 A3014 RMK AO2,2025-09-12T21:45:01Z,2025-09-12T17:45:01Z,Edwards County Airport,29.9468994140625,-100.17400360107422,US,US-TX
KEDC,"Austin/Executive Arpt, TX, US",2025-09-12T21:35:00Z,2025-09-12 21:35:00,VFR,35,15,0,0,15,8,1016.3,METAR KEDC 122135Z AUTO 00000G15KT 8SM BKN075 35/15 A3001 RMK AO2,2025-09-12T21:45:00Z,2025-09-12T17:45:00Z,Austin Executive Airport,30.398049,-97.566909,US,US-TX
KEDE,"Edenton/Northeast Rgnl, NC, US",2025-09-12T21:35:00Z,2025-09-12 17:35:00,VFR,25.4,16.2,70,7,0,NA,1020.4,METAR KEDE 122135Z AUTO 07007KT 10SM CLR 25/16 A3013 RMK AO2 T02540162,2025-09-12T21:45:01Z,2025-09-12T17:45:01Z,Northeastern Regional Airport,36.027698516799994,-76.56710052490001,US,US-NC
KEDE,"Edenton/Northeast Rgnl, NC, US",2025-09-12T21:45:00Z,2025-09-12 17:45:00,VFR,25.5,16.3,50,7,0,NA,1020.4,METAR KEDE 122145Z AUTO 05007KT 10SM CLR 26/16 A3013 RMK AO2 T02550163,2025-09-12T21:55:46Z,2025-09-12T17:55:46Z,Northeastern Regional Airport,36.027698516799994,-76.56710052490001,US,US-NC
KEDJ,"Bellefontaine Rgnl, OH, US",2025-09-12T21:35:00Z,2025-09-12 21:35:00,VFR,27,-5,0,0,0,NA,1022.1,METAR KEDJ 122135Z AUTO 00000KT 10SM CLR 27/M05 A3018 RMK A01,2025-09-12T21:45:01Z,2025-09-12T17:45:01Z,Bellefontaine Regional Airport,40.372299,-83.819,US,US-OH
KEDN,"Enterprise Muni, AL, US",2025-09-12T21:35:00Z,2025-09-12 16:35:00,VFR,31.9,14.1,60,7,0,NA,1017,METAR KEDN 122135Z AUTO 06007KT 10SM CLR 32/14 A3003 RMK AO1 T03190141,2025-09-12T21:45:01Z,2025-09-12T17:45:01Z,Enterprise Municipal Airport,31.29969978,-85.89990234,US,US-AL
KEDU,"Davis/University Arpt, CA, US",2025-09-12T21:35:00Z,2025-09-12 21:35:00,VFR,28,14,190,3,0,9,1012.3,METAR KEDU 122135Z AUTO 19003KT 9SM CLR 28/14 A2989 RMK AO1,2025-09-12T21:45:00Z,2025-09-12T17:45:00Z,University Airport,38.531502,-121.786489,US,US-CA
KEDW,"Edwards AFB, CA, US",2025-09-12T20:55:00Z,2025-09-12 13:55:00,VFR,28.6,7.2,260,7,0,50,1011.6,METAR KEDW 122055Z 26007KT 50SM FEW080 29/07 A2987 RMK AO2A SLP094 T02860072 57022,2025-09-12T21:45:01Z,2025-09-12T17:45:01Z,Edwards Air Force Base,34.905399,-117.884003,US,US-CA
KEED,"Needles Arpt, CA, US",2025-09-12T20:56:00Z,2025-09-12 13:56:00,VFR,36.7,4.4,230,12,21,NA,1008.9,METAR KEED 122056Z AUTO 23012G21KT 10SM CLR 37/04 A2979 RMK AO2 SLP052 T03670044 56023,2025-09-12T21:45:01Z,2025-09-12T17:45:01Z,Needles Airport,34.7663002014,-114.623001099,US,US-CA
KEEN,"Keene/Hopkins Arpt, NH, US",2025-09-12T20:56:00Z,2025-09-12 16:56:00,VFR,23.9,6.7,0,0,0,NA,1021.8,METAR KEEN 122056Z AUTO 00000KT 10SM CLR 24/07 A3017 RMK AO2 SLP218 T02390067 56014 $,2025-09-12T21:45:01Z,2025-09-12T17:45:01Z,Dillant Hopkins Airport,42.898399,-72.270798,US,US-NH
KEEO,"Meeker Arpt, CO, US",2025-09-12T21:39:00Z,2025-09-12 21:39:00,IFR,11.7,9.4,310,13,22,2,1023.5,SPECI KEEO 122139Z AUTO 31013G22KT 2SM RA BR FEW034 BKN050 OVC070 12/09 A3022 RMK AO2 PK WND 29030/2123 LTG DSNT SW-N RAB2057 P0006 T01170094,2025-09-12T21:45:00Z,2025-09-12T17:45:00Z,Meeker Airport,40.04880142211914,-107.88600158691406,US,US-CO
KEEO,"Meeker Arpt, CO, US",2025-09-12T21:53:00Z,2025-09-12 21:53:00,VFR,11.7,9.4,340,13,0,8,1022.4,METAR KEEO 122153Z AUTO 34013KT 8SM -RA FEW034 BKN060 OVC070 12/09 A3019 RMK AO2 PK WND 29030/2123 LTG DSNT SW AND W RAB2057 PRESFR SLP168 P0007 T01170094,2025-09-12T21:55:45Z,2025-09-12T17:55:45Z,Meeker Airport,40.04880142211914,-107.88600158691406,US,US-CO
KEET,"Alabaster/Shelby Cnty, AL, US",2025-09-12T20:53:00Z,2025-09-12 20:53:00,VFR,31.1,13.9,VAR,NA,0,NA,1018,METAR KEET 122053Z AUTO 10SM SCT075 BKN090 BKN110 31/14 A3006 RMK AO2 SLP172 T03110139 56017,2025-09-12T21:45:01Z,2025-09-12T17:45:01Z,Shelby County Airport,33.17699814,-86.78279877,US,US-AL
KEET,"Alabaster/Shelby Cnty, AL, US",2025-09-12T21:53:00Z,2025-09-12 21:53:00,VFR,32.2,13.9,VAR,3,0,NA,1017.7,METAR KEET 122153Z AUTO VRB03KT 10SM CLR 32/14 A3005 RMK AO2 SLP168 T03220139,2025-09-12T21:55:45Z,2025-09-12T17:55:45Z,Shelby County Airport,33.17699814,-86.78279877,US,US-AL
KEFD,"Houston/Ellington Arpt, TX, US",2025-09-12T20:54:00Z,2025-09-12 15:54:00,VFR,33,17,90,10,0,NA,1017.4,METAR KEFD 122054Z 09010KT 10SM SCT040 33/17 A3004,2025-09-12T21:45:01Z,2025-09-12T17:45:01Z,Ellington Airport,29.6072998047,-95.1587982178,US,US-TX
KEFK,"Newport/Northeast Kingdom Intl, VT, US",2025-09-12T21:35:00Z,2025-09-12 17:35:00,VFR,19.3,4.8,0,0,0,NA,1023.5,METAR KEFK 122135Z AUTO 00000KT 10SM CLR 19/05 A3022 RMK AO2 T01930048,2025-09-12T21:45:00Z,2025-09-12T17:45:00Z,Northeast Kingdom International Airport,44.888802,-72.229202,US,US-VT
KEFT,"Monroe Muni, WI, US",2025-09-12T21:35:00Z,2025-09-12 21:35:00,VFR,28.4,11.7,140,7,0,NA,1019,METAR KEFT 122135Z AUTO 14007KT 10SM CLR 28/12 A3009 RMK AO2 T02840117,2025-09-12T21:45:00Z,2025-09-12T17:45:00Z,Monroe Municipal Airport,42.614899,-89.590401,US,US-WI
KEGE,"Eagle Cnty Rgnl, CO, US",2025-09-12T20:56:00Z,2025-09-12 14:56:00,VFR,18.3,10,200,8,0,NA,1024.1,METAR KEGE 122056Z 20008KT 10SM BKN065 18/10 A3024 RMK AO2 SLP179 T01830100 58019 $,2025-09-12T21:45:01Z,2025-09-12T17:45:01Z,Eagle County Regional Airport,39.64260101,-106.9179993,US,US-CO
KEGI,"Eglin AFB/Duke Fld, FL, US",2025-09-12T20:55:00Z,2025-09-12 15:55:00,VFR,34.3,14.2,30,7,0,NA,1016,METAR KEGI 122055Z AUTO 03007KT 10SM FEW070 34/14 A3000 RMK AO2 SLP158 T03430142 57019 $,2025-09-12T21:45:01Z,2025-09-12T17:45:01Z,Duke Field,30.65040016,-86.52290344,US,US-FL
KEGT,"Wellington Muni, KS, US",2025-09-12T21:35:00Z,2025-09-12 21:35:00,VFR,33.9,16,190,6,0,NA,1017,METAR KEGT 122135Z AUTO 19006KT 10SM CLR 34/16 A3003 RMK AO2 T03390160,2025-09-12T21:45:00Z,2025-09-12T17:45:00Z,Wellington Municipal Airport,37.323601,-97.388298,US,US-KS
KEGV,"Eagle River/Union Arpt, WI, US",2025-09-12T21:35:00Z,2025-09-12 16:35:00,VFR,22.6,13.6,170,6,0,NA,1019.4,METAR KEGV 122135Z AUTO 17006KT 10SM CLR 23/14 A3010 RMK AO2 T02260136,2025-09-12T21:45:01Z,2025-09-12T17:45:01Z,Eagle River Union Airport,45.932300567599995,-89.26830291750001,US,US-WI
KEHA,"Elkhart/Morton Cnty, KS, US",2025-09-12T21:35:00Z,2025-09-12 21:35:00,VFR,31.9,9.2,180,18,25,NA,1018.4,METAR KEHA 122135Z AUTO 18018G25KT 10SM CLR 32/09 A3007 RMK AO2 T03190092,2025-09-12T21:45:00Z,2025-09-12T17:45:00Z,Elkhart Morton County Airport,37.000702,-101.879997,US,US-KS
KEHO,"Shelby/Cleveland Cnty, NC, US",2025-09-12T21:35:00Z,2025-09-12 21:35:00,VFR,26.7,13.1,0,0,0,NA,1020.4,METAR KEHO 122135Z AUTO 00000KT 10SM CLR 27/13 A3013 RMK AO2 T02670131,2025-09-12T21:45:01Z,2025-09-12T17:45:01Z,Shelby-Cleveland County Regional Airport,35.2556,-81.600998,US,US-NC
KEHO,"Shelby/Cleveland Cnty, NC, US",2025-09-12T21:45:00Z,2025-09-12 21:45:00,VFR,26.7,13.6,50,6,0,NA,1020.4,METAR KEHO 122145Z AUTO 05006KT 10SM CLR 27/14 A3013 RMK AO2 T02670136,2025-09-12T21:55:46Z,2025-09-12T17:55:46Z,Shelby-Cleveland County Regional Airport,35.2556,-81.600998,US,US-NC
KEHR,"Henderson City Arpt, KY, US",2025-09-12T20:56:00Z,2025-09-12 20:56:00,MVFR,31.7,12.8,VAR,3,0,4,1019.7,METAR KEHR 122056Z AUTO VRB03KT 4SM HZ SCT002 32/13 A3011 RMK AO2 SLP194 T03170128 56018,2025-09-12T21:45:01Z,2025-09-12T17:45:01Z,Henderson City County Airport,37.8078,-87.685699,US,US-KY
KEIK,"Erie Muni, CO, US",2025-09-12T21:35:00Z,2025-09-12 21:35:00,VFR,24.3,9.6,290,10,0,NA,1018,METAR KEIK 122135Z AUTO 29010KT 10SM FEW110 SCT150 24/10 A3006 RMK AO2 RAE2052 P0000 T02430096,2025-09-12T21:45:00Z,2025-09-12T17:45:00Z,Erie Municipal Airport,40.010200500488,-105.047996521,US,US-CO
KEKM,"Elkhart Muni, IN, US",2025-09-12T21:35:00Z,2025-09-12 17:35:00,VFR,27.4,10.5,190,6,0,9,1021.1,METAR KEKM 122135Z AUTO 19006KT 9SM CLR 27/11 A3015 RMK AO2 T02740105 $,2025-09-12T21:45:01Z,2025-09-12T17:45:01Z,Elkhart Municipal Airport,41.7193984985,-86.00319671630001,US,US-IN
KEKN,"Elkins Arpt, WV, US",2025-09-12T20:51:00Z,2025-09-12 16:51:00,VFR,26.7,10.6,360,8,0,NA,1022.4,METAR KEKN 122051Z AUTO 36008KT 10SM SCT070 27/11 A3019 RMK AO2 SLP221 T02670106 56014,2025-09-12T21:45:01Z,2025-09-12T17:45:01Z,Elkins-Randolph County Regional Airport,38.889759,-79.857651,US,US-WV
KEKN,"Elkins Arpt, WV, US",2025-09-12T21:51:00Z,2025-09-12 17:51:00,VFR,26.7,10,0,0,0,NA,1022.1,METAR KEKN 122151Z AUTO 00000KT 10SM CLR 27/10 A3018 RMK AO2 SLP219 T02670100,2025-09-12T21:55:46Z,2025-09-12T17:55:46Z,Elkins-Randolph County Regional Airport,38.889759,-79.857651,US,US-WV
KEKO,"Elko Rgnl, NV, US",2025-09-12T20:56:00Z,2025-09-12 13:56:00,VFR,23.9,1.7,80,5,0,NA,1017,METAR KEKO 122056Z AUTO 08005KT 10SM CLR 24/02 A3003 RMK AO2 SLP129 T02390017 58018,2025-09-12T21:45:01Z,2025-09-12T17:45:01Z,Elko Regional Airport,40.82490158081055,-115.79199981689452,US,US-NV
KEKO,"Elko Rgnl, NV, US",2025-09-12T21:44:00Z,2025-09-12 14:44:00,VFR,22.8,0.6,250,5,0,NA,1016.7,SPECI KEKO 122144Z AUTO 25005KT 10SM VCTS CLR 23/01 A3002 RMK AO2 LTG DSNT NW T02280006,2025-09-12T21:55:46Z,2025-09-12T17:55:46Z,Elko Regional Airport,40.82490158081055,-115.79199981689452,US,US-NV
KEKQ,"Monticello/Wayne Cnty, KY, US",2025-09-12T20:56:00Z,2025-09-12 20:56:00,VFR,28.3,12.8,10,6,0,NA,1021.4,METAR KEKQ 122056Z AUTO 01006KT 10SM CLR 28/13 A3016 RMK AO2 SLP203 6//// T02830128 56020 PNO $,2025-09-12T21:45:01Z,2025-09-12T17:45:01Z,Wayne County Airport,36.855301,-84.856102,US,US-KY
KEKS,"Ennis/Big Sky Arpt, MT, US",2025-09-12T21:30:00Z,2025-09-12 21:30:00,VFR,22,0,200,3,10,NA,1019,METAR KEKS 122130Z AUTO 20003G10KT 10SM FEW110 22/00 A3009 RMK AO2,2025-09-12T21:45:01Z,2025-09-12T17:45:01Z,Ennis Big Sky Airport,45.271801,-111.649002,US,US-MT
KEKX,"Elizabethtown/Addington Fld, KY, US",2025-09-12T21:35:00Z,2025-09-12 17:35:00,VFR,29.7,12.9,0,0,0,NA,1020.1,METAR KEKX 122135Z AUTO 00000KT 10SM CLR 30/13 A3012 RMK AO2 T02970129,2025-09-12T21:45:00Z,2025-09-12T17:45:00Z,Addington Field / Elizabethtown Regional Airport,37.686001,-85.925003,US,US-KY
KELD,"El Dorado/S Arkansas Rgnl, AR, US",2025-09-12T20:53:00Z,2025-09-12 15:53:00,VFR,34.4,18.9,180,3,0,NA,1018,METAR KELD 122053Z AUTO 18003KT 10SM FEW060 34/19 A3006 RMK AO2 SLP177 T03440189 56021,2025-09-12T21:45:01Z,2025-09-12T17:45:01Z,South Arkansas Regional Airport at Goodwin Field,33.221001,-92.813301,US,US-AR
KELD,"El Dorado/S Arkansas Rgnl, AR, US",2025-09-12T21:53:00Z,2025-09-12 16:53:00,VFR,34.4,17.8,80,3,0,NA,1017.7,METAR KELD 122153Z AUTO 08003KT 10SM SCT070 34/18 A3005 RMK AO2 SLP172 T03440178,2025-09-12T21:55:45Z,2025-09-12T17:55:45Z,South Arkansas Regional Airport at Goodwin Field,33.221001,-92.813301,US,US-AR
KELK,"Elk City Rgnl, OK, US",2025-09-12T21:35:00Z,2025-09-12 16:35:00,VFR,33.9,12.8,180,11,19,NA,1017.4,METAR KELK 122135Z AUTO 18011G19KT 10SM CLR 34/13 A3004 RMK AO2 T03390128 $,2025-09-12T21:45:00Z,2025-09-12T17:45:00Z,Elk City Regional Business Airport,35.43080139,-99.39430237,US,US-OK
KELM,"Elmira-Corning Rgnl, NY, US",2025-09-12T20:53:00Z,2025-09-12 16:53:00,VFR,23.9,11.7,0,0,0,NA,1021.8,METAR KELM 122053Z 00000KT 10SM SCT085 24/12 A3017 RMK AO2 SLP217 T02390117 56016,2025-09-12T21:45:01Z,2025-09-12T17:45:01Z,Elmira Corning Regional Airport,42.1599006652832,-76.8916015625,US,US-NY
KELM,"Elmira-Corning Rgnl, NY, US",2025-09-12T21:53:00Z,2025-09-12 17:53:00,VFR,23.9,11.1,VAR,3,0,NA,1021.4,METAR KELM 122153Z VRB03KT 10SM CLR 24/11 A3016 RMK AO2 SLP211 T02390111 $,2025-09-12T21:55:45Z,2025-09-12T17:55:45Z,Elmira Corning Regional Airport,42.1599006652832,-76.8916015625,US,US-NY
KELN,"Ellensburg/Bowers Fld, WA, US",2025-09-12T20:53:00Z,2025-09-12 13:53:00,VFR,25,9.4,140,4,0,NA,1014.3,METAR KELN 122053Z AUTO 14004KT 10SM CLR 25/09 A2995 RMK AO2 SLP134 T02500094 58013,2025-09-12T21:45:01Z,2025-09-12T17:45:01Z,Bowers Field,47.03300095,-120.5309982,US,US-WA
KELN,"Ellensburg/Bowers Fld, WA, US",2025-09-12T21:53:00Z,2025-09-12 14:53:00,VFR,26.1,8.3,VAR,3,0,NA,1013.6,METAR KELN 122153Z AUTO VRB03KT 10SM CLR 26/08 A2993 RMK AO2 SLP125 T02610083,2025-09-12T21:55:45Z,2025-09-12T17:55:45Z,Bowers Field,47.03300095,-120.5309982,US,US-WA
KELO,"Ely Muni, MN, US",2025-09-12T21:35:00Z,2025-09-12 16:35:00,VFR,18,15,130,4,0,NA,1018,METAR KELO 122135Z AUTO 13004KT 10SM VCTS BKN041 18/15 A3006 RMK AO2 LTG DSNT N AND SE,2025-09-12T21:45:00Z,2025-09-12T17:45:00Z,Ely Municipal Airport,47.82450104,-91.83070374,US,US-MN
KELP,"El Paso Intl, TX, US",2025-09-12T20:51:00Z,2025-09-12 14:51:00,VFR,33.3,10.6,140,7,0,NA,1016.3,METAR KELP 122051Z 14007KT 10SM SCT090 SCT120 BKN180 BKN250 33/11 A3001 RMK AO2 SLP081 T03330106 58033,2025-09-12T21:45:01Z,2025-09-12T17:45:01Z,El Paso International Airport,31.807199,-106.377998,US,US-TX
KELP,"El Paso Intl, TX, US",2025-09-12T21:51:00Z,2025-09-12 15:51:00,VFR,33.9,10,140,6,18,NA,1015.7,METAR KELP 122151Z 14006G18KT 10SM SCT090 BKN140 BKN250 34/10 A2999 RMK AO2 SLP074 TCU DSNT S-SW AND W SHRA DSNT S-SW AND W T03390100,2025-09-12T21:55:46Z,2025-09-12T17:55:46Z,El Paso International Airport,31.807199,-106.377998,US,US-TX
KELY,"Ely/Yelland Fld, NV, US",2025-09-12T20:53:00Z,2025-09-12 13:53:00,VFR,21.7,-5,220,13,0,NA,1018.4,METAR KELY 122053Z AUTO 22013KT 10SM CLR 22/M05 A3007 RMK AO2 SLP112 T02171050 56011,2025-09-12T21:45:01Z,2025-09-12T17:45:01Z,Ely Airport Yelland Field,39.29970169,-114.8420029,US,US-NV
KELY,"Ely/Yelland Fld, NV, US",2025-09-12T21:53:00Z,2025-09-12 14:53:00,VFR,21.1,-5,200,7,0,NA,1018,METAR KELY 122153Z AUTO 20007KT 10SM BKN120 21/M05 A3006 RMK AO2 SLP115 T02111050,2025-09-12T21:55:45Z,2025-09-12T17:55:45Z,Ely Airport Yelland Field,39.29970169,-114.8420029,US,US-NV
KELZ,"Wellsville/Tarantine Fld, NY, US",2025-09-12T20:56:00Z,2025-09-12 16:56:00,VFR,21.7,9.4,90,3,0,NA,1023.5,METAR KELZ 122056Z AUTO 09003KT 10SM CLR 22/09 A3022 RMK AO2 SLP233 T02170094 56017 $,2025-09-12T21:45:01Z,2025-09-12T17:45:01Z,Wellsville Municipal Airport - Tarantine Field,42.109501,-77.989998,US,US-NY
KEMM,"Kemmerer Muni, WY, US",2025-09-12T21:35:00Z,2025-09-12 15:35:00,NA,20,-3,10,6,0,NA,1019.4,METAR KEMM 122135Z AUTO 01006KT 10SM 20/M03 A3010 RMK AO2 LTG DSNT S,2025-09-12T21:45:00Z,2025-09-12T17:45:00Z,Kemmerer Municipal Airport,41.82410049439999,-110.556999207,US,US-WY
KEMP,"Emporia Muni, KS, US",2025-09-12T20:53:00Z,2025-09-12 15:53:00,VFR,33.3,18.9,210,12,20,NA,1016.7,METAR KEMP 122053Z AUTO 21012G20KT 10SM CLR 33/19 A3002 RMK AO2 SLP154 T03330189 56013,2025-09-12T21:45:01Z,2025-09-12T17:45:01Z,Emporia Municipal Airport,38.3320999146,-96.1912002563,US,US-KS
KEMP,"Emporia Muni, KS, US",2025-09-12T21:53:00Z,2025-09-12 16:53:00,VFR,33.3,18.9,200,12,0,NA,1016.3,METAR KEMP 122153Z AUTO 20012KT 10SM CLR 33/19 A3001 RMK AO2 SLP150 T03330189,2025-09-12T21:55:45Z,2025-09-12T17:55:45Z,Emporia Municipal Airport,38.3320999146,-96.1912002563,US,US-KS
KEMT,"El Monte Arpt, CA, US",2025-09-12T20:45:00Z,2025-09-12 13:45:00,VFR,26,14,220,3,0,NA,1013,METAR KEMT 122045Z 22003KT 10SM SCT040 26/14 A2991,2025-09-12T21:45:01Z,2025-09-12T17:45:01Z,San Gabriel Valley Airport,34.086102,-118.035004,US,US-CA
KEMT,"El Monte Arpt, CA, US",2025-09-12T21:45:00Z,2025-09-12 14:45:00,VFR,27,14,230,6,11,NA,1011.9,METAR KEMT 122145Z 23006G11KT 10SM SCT040 27/14 A2988,2025-09-12T21:55:46Z,2025-09-12T17:55:46Z,San Gabriel Valley Airport,34.086102,-118.035004,US,US-CA
KEMV,"Emporia Muni, VA, US",2025-09-12T21:35:00Z,2025-09-12 21:35:00,VFR,25.3,13.7,0,0,0,NA,1021.1,METAR KEMV 122135Z AUTO 00000KT 10SM SCT080 25/14 A3015 RMK AO2 T02530137,2025-09-12T21:45:03Z,2025-09-12T17:45:03Z,Emporia Greensville Regional Airport,36.6869010925293,-77.48280334472656,US,US-VA
KEND,"Enid/Vance AFB, OK, US",2025-09-12T21:16:00Z,2025-09-12 16:16:00,VFR,35,15,170,10,0,NA,1015.7,SPECI KEND 122116Z AUTO 17010KT 10SM CLR 35/15 A2999 RMK AO2 WSHFT 06 SLP141 $,2025-09-12T21:45:03Z,2025-09-12T17:45:03Z,Vance Air Force Base,36.339199,-97.916496,US,US-OK
KENL,"Centralia Muni, IL, US",2025-09-12T21:35:00Z,2025-09-12 16:35:00,VFR,32.9,13.9,90,8,0,NA,1018.7,METAR KENL 122135Z AUTO 09008KT 10SM CLR 33/14 A3008 RMK AO2 T03290139,2025-09-12T21:45:03Z,2025-09-12T17:45:03Z,Centralia Municipal Airport,38.515099,-89.091103,US,US-IL
KENV,"Wendover Arpt, UT, US",2025-09-12T20:56:00Z,2025-09-12 14:56:00,VFR,26.1,1.1,110,8,0,NA,1016,METAR KENV 122056Z AUTO 11008KT 10SM CLR 26/01 A3000 RMK AO2 SLP125 T02610011 58016,2025-09-12T21:45:03Z,2025-09-12T17:45:03Z,Wendover Airport,40.7187004089,-114.03099823,US,US-UT
KENW,"Kenosha Rgnl, WI, US",2025-09-12T20:53:00Z,2025-09-12 15:53:00,VFR,26,16,120,9,0,NA,1020.7,METAR KENW 122053Z 12009KT 10SM CLR 26/16 A3014,2025-09-12T21:45:03Z,2025-09-12T17:45:03Z,Kenosha Regional Airport,42.59569931,-87.92780304,US,US-WI
KENW,"Kenosha Rgnl, WI, US",2025-09-12T21:53:00Z,2025-09-12 16:53:00,VFR,26,15,110,8,0,NA,1020.7,METAR KENW 122153Z 11008KT 10SM CLR 26/15 A3014,2025-09-12T21:55:48Z,2025-09-12T17:55:48Z,Kenosha Regional Airport,42.59569931,-87.92780304,US,US-WI
KEOE,"Newberry Muni, SC, US",2025-09-12T21:35:00Z,2025-09-12 21:35:00,VFR,27,13,20,4,0,NA,1020.7,METAR KEOE 122135Z AUTO 02004KT 10SM CLR 27/13 A3014 RMK AO2,2025-09-12T21:45:03Z,2025-09-12T17:45:03Z,Newberry County Airport,34.309299,-81.639702,US,US-SC
KEOK,"Keokuk Muni, IA, US",2025-09-12T21:35:00Z,2025-09-12 16:35:00,VFR,33,16,160,7,0,NA,1017.4,METAR KEOK 122135Z AUTO 16007KT 10SM CLR 33/16 A3004 RMK A01,2025-09-12T21:45:03Z,2025-09-12T17:45:03Z,Keokuk Municipal Airport,40.459899902299995,-91.4284973145,US,US-IA
KEPH,"Ephrata Muni, WA, US",2025-09-12T20:53:00Z,2025-09-12 13:53:00,VFR,25.6,12.8,220,6,0,NA,1014.3,METAR KEPH 122053Z AUTO 22006KT 10SM CLR 26/13 A2995 RMK AO2 SLP135 T02560128 58014,2025-09-12T21:45:03Z,2025-09-12T17:45:03Z,Ephrata Municipal Airport,47.307598,-119.515999,US,US-WA
KEPH,"Ephrata Muni, WA, US",2025-09-12T21:53:00Z,2025-09-12 14:53:00,VFR,26.7,12.2,VAR,6,0,NA,1013.6,METAR KEPH 122153Z AUTO VRB06KT 10SM CLR 27/12 A2993 RMK AO2 SLP127 T02670122,2025-09-12T21:55:48Z,2025-09-12T17:55:48Z,Ephrata Municipal Airport,47.307598,-119.515999,US,US-WA
KEQA,"El Dorado/Thomas Mem, KS, US",2025-09-12T21:35:00Z,2025-09-12 16:35:00,VFR,34,17,190,12,16,NA,1017,METAR KEQA 122135Z AUTO 19012G16KT 10SM CLR 34/17 A3003 RMK AO2,2025-09-12T21:45:03Z,2025-09-12T17:45:03Z,Captain Jack Thomas El Dorado Airport,37.7741012573,-96.8175964355,US,US-KS
KEQY,"Charlotte-Monroe Exec, NC, US",2025-09-12T20:53:00Z,2025-09-12 20:53:00,VFR,27.8,13.9,40,9,0,NA,1019.7,METAR KEQY 122053Z AUTO 04009KT 10SM SCT080 28/14 A3011 RMK AO2 SLP195 T02780139 56014,2025-09-12T21:45:03Z,2025-09-12T17:45:03Z,Charlotte-Monroe Executive Airport,35.01879883,-80.62020111,US,US-NC
KEQY,"Charlotte-Monroe Exec, NC, US",2025-09-12T21:53:00Z,2025-09-12 21:53:00,VFR,26.1,13.9,60,6,0,NA,1019.7,METAR KEQY 122153Z AUTO 06006KT 10SM BKN060 26/14 A3011 RMK AO2 SLP199 T02610139,2025-09-12T21:55:48Z,2025-09-12T17:55:48Z,Charlotte-Monroe Executive Airport,35.01879883,-80.62020111,US,US-NC
KERI,"Erie Intl, PA, US",2025-09-12T20:51:00Z,2025-09-12 16:51:00,VFR,23.3,13.3,350,7,0,NA,1022.4,METAR KERI 122051Z AUTO 35007KT 10SM CLR 23/13 A3019 RMK AO2 SLP220 T02330133 56018 $,2025-09-12T21:45:03Z,2025-09-12T17:45:03Z,Erie International Tom Ridge Field,42.083127,-80.173867,US,US-PA
KERI,"Erie Intl, PA, US",2025-09-12T21:51:00Z,2025-09-12 17:51:00,VFR,22.8,12.2,30,7,0,NA,1022.4,METAR KERI 122151Z 03007KT 10SM CLR 23/12 A3019 RMK AO2 SLP221 T02280122 $,2025-09-12T21:55:48Z,2025-09-12T17:55:48Z,Erie International Tom Ridge Field,42.083127,-80.173867,US,US-PA
KERV,"Kerrville Muni, TX, US",2025-09-12T21:35:00Z,2025-09-12 16:35:00,VFR,32.4,14.5,110,3,0,NA,NA,METAR KERV 122135Z AUTO 11003KT 10SM CLR 32/15 RMK AO2 T03240145,2025-09-12T21:45:02Z,2025-09-12T17:45:02Z,Kerrville / Kerr County Airport at Louis Schreiner Field,29.9767,-99.085701,US,US-TX
KERY,"Newberry/Luce Cnty, MI, US",2025-09-12T21:35:00Z,2025-09-12 21:35:00,VFR,20,16,150,6,0,NA,1021.1,METAR KERY 122135Z AUTO 15006KT 10SM SCT022 SCT038 OVC046 20/16 A3015 RMK AO2,2025-09-12T21:45:02Z,2025-09-12T17:45:02Z,Luce County Airport,46.311199,-85.457298,US,US-MI
KESC,"Escanaba/Delta Cnty, MI, US",2025-09-12T20:56:00Z,2025-09-12 16:56:00,VFR,18.3,16.1,140,8,0,NA,1021.4,METAR KESC 122056Z AUTO 14008KT 10SM SCT050 18/16 A3016 RMK AO2 SLP215 T01830161 56015,2025-09-12T21:45:03Z,2025-09-12T17:45:03Z,Delta County Airport,45.723199,-87.088623,US,US-MI
KESF,"Alexandria/Esler Rgnl, LA, US",2025-09-12T20:53:00Z,2025-09-12 15:53:00,VFR,33.9,18.3,VAR,3,0,NA,1017.4,METAR KESF 122053Z AUTO VRB03KT 10SM CLR 34/18 A3004 RMK AO2 SLP169 T03390183 56022,2025-09-12T21:45:03Z,2025-09-12T17:45:03Z,Esler Army Airfield / Esler Regional Airport,31.394266,-92.294082,US,US-LA
KESF,"Alexandria/Esler Rgnl, LA, US",2025-09-12T21:53:00Z,2025-09-12 16:53:00,VFR,33.3,17.8,60,4,0,NA,1017,METAR KESF 122153Z AUTO 06004KT 10SM CLR 33/18 A3003 RMK AO2 SLP165 T03330178,2025-09-12T21:55:48Z,2025-09-12T17:55:48Z,Esler Army Airfield / Esler Regional Airport,31.394266,-92.294082,US,US-LA
KESN,"Easton Muni, MD, US",2025-09-12T20:50:00Z,2025-09-12 16:50:00,VFR,26,11,130,4,0,NA,1021.1,METAR KESN 122050Z 13004KT 10SM CLR 26/11 A3015,2025-09-12T21:45:03Z,2025-09-12T17:45:03Z,Easton Airport / Newnam Field,38.804199,-76.069,US,US-MD
KEST,"Estherville Muni, IA, US",2025-09-12T20:52:00Z,2025-09-12 15:52:00,VFR,28.9,18.3,160,14,0,NA,1013.3,METAR KEST 122052Z AUTO 16014KT 10SM CLR 29/18 A2992 RMK AO2 LTG DSNT E SLP124 60000 T02890183 56010,2025-09-12T21:45:03Z,2025-09-12T17:45:03Z,Estherville Municipal Airport,43.407398,-94.746399,US,US-IA
KEST,"Estherville Muni, IA, US",2025-09-12T21:52:00Z,2025-09-12 16:52:00,VFR,28.9,18.3,180,11,0,NA,1013.3,METAR KEST 122152Z AUTO 18011KT 10SM CLR 29/18 A2992 RMK AO2 SLP124 T02890183,2025-09-12T21:55:48Z,2025-09-12T17:55:48Z,Estherville Municipal Airport,43.407398,-94.746399,US,US-IA
KETB,"West Bend Muni, WI, US",2025-09-12T21:35:00Z,2025-09-12 16:35:00,VFR,25,19,110,6,0,NA,1021.1,METAR KETB 122135Z AUTO 11006KT 10SM CLR 25/19 A3015 RMK AO2,2025-09-12T21:45:03Z,2025-09-12T17:45:03Z,West Bend Municipal Airport,43.422278,-88.128966,US,US-WI
KETC,"Tarboro/Edgecombe Arpt, NC, US",2025-09-12T21:35:00Z,2025-09-12 21:35:00,VFR,25.4,16.1,50,7,0,NA,1020.1,METAR KETC 122135Z AUTO 05007KT 10SM BKN045 BKN055 BKN080 25/16 A3012 RMK AO2 T02540161,2025-09-12T21:45:03Z,2025-09-12T17:45:03Z,Tarboro Edgecombe Airport,35.93709945678711,-77.546600341796875,US,US-NC
KETC,"Tarboro/Edgecombe Arpt, NC, US",2025-09-12T21:45:00Z,2025-09-12 21:45:00,VFR,24.8,16.2,70,6,0,NA,1020.1,METAR KETC 122145Z AUTO 07006KT 10SM SCT045 BKN055 SCT070 25/16 A3012 RMK AO2 T02480162,2025-09-12T21:55:48Z,2025-09-12T17:55:48Z,Tarboro Edgecombe Airport,35.93709945678711,-77.546600341796875,US,US-NC
KETH,"Wheaton Muni, MN, US",2025-09-12T21:33:00Z,2025-09-12 21:33:00,VFR,23,19,180,7,0,NA,1011.9,METAR KETH 122133Z AUTO 18007KT 10SM CLR 23/19 A2988 RMK AO2,2025-09-12T21:45:03Z,2025-09-12T17:45:03Z,Wheaton Municipal Airport,45.782058,-96.543627,US,US-MN
KETN,"Eastland Muni, TX, US",2025-09-12T21:30:00Z,2025-09-12 16:30:00,VFR,33.9,13.8,200,8,17,NA,1018,METAR KETN 122130Z AUTO 20008G17KT 10SM SCT120 34/14 A3006 RMK AO2 T03390138,2025-09-12T21:45:03Z,2025-09-12T17:45:03Z,Eastland Municipal Airport,32.4135017395,-98.8097991943,US,US-TX
KEUF,"Eufaula/Weedon Fld, AL, US",2025-09-12T20:58:00Z,2025-09-12 15:58:00,VFR,30.6,14.4,60,6,0,NA,1017.7,METAR KEUF 122058Z AUTO 06006KT 10SM BKN070 31/14 A3005 RMK AO1 SLP171 T03060144 56015,2025-09-12T21:45:03Z,2025-09-12T17:45:03Z,Weedon Field,31.9512996674,-85.1288986206,US,US-AL
KEUG,"Eugene/Mahlon Sweet Fld, OR, US",2025-09-12T20:54:00Z,2025-09-12 13:54:00,MVFR,20,12.8,300,6,0,NA,1017.7,METAR KEUG 122054Z 30006KT 10SM OVC023 20/13 A3005 RMK AO2 SLP173 T02000128 58014,2025-09-12T21:45:03Z,2025-09-12T17:45:03Z,Mahlon Sweet Field,44.12459945678711,-123.21199798583984,US,US-OR
KEUL,"Caldwell Ind Arpt, ID, US",2025-09-12T20:56:00Z,2025-09-12 20:56:00,VFR,25,10,290,5,0,NA,1015.7,METAR KEUL 122056Z AUTO 29005KT 10SM CLR 25/10 A2999 RMK AO2 SLP141 T02500100 58021,2025-09-12T21:45:03Z,2025-09-12T17:45:03Z,Caldwell Executive Airport,43.641899,-116.636002,US,US-ID
KEVB,"New Smyrna Beach Muni, FL, US",2025-09-12T20:47:00Z,2025-09-12 20:47:00,MVFR,25,23,90,10,15,NA,1015.3,METAR KEVB 122047Z 09010G15KT 10SM BKN018 OVC026 25/23 A2998,2025-09-12T21:45:03Z,2025-09-12T17:45:03Z,New Smyrna Beach Municipal Airport,29.0557,-80.948898,US,US-FL
KEVB,"New Smyrna Beach Muni, FL, US",2025-09-12T21:47:00Z,2025-09-12 21:47:00,VFR,26,24,90,10,15,NA,1015.3,METAR KEVB 122147Z 09010G15KT 10SM SCT020 BKN040 26/24 A2998,2025-09-12T21:55:48Z,2025-09-12T17:55:48Z,New Smyrna Beach Municipal Airport,29.0557,-80.948898,US,US-FL
KEVM,"Eveleth Muni, MN, US",2025-09-12T21:35:00Z,2025-09-12 16:35:00,VFR,19,16.5,90,5,0,NA,1017.7,METAR KEVM 122135Z AUTO 09005KT 10SM BKN095 BKN110 19/17 A3005 RMK AO2 LTG DSNT S AND NW T01900165,2025-09-12T21:45:03Z,2025-09-12T17:45:03Z,Eveleth–Virginia Municipal Airport,47.42458,-92.499204,US,US-MN
KEVU,"Maryville/NW Missouri Rgnl, MO, US",2025-09-12T21:35:00Z,2025-09-12 21:35:00,VFR,33.5,20,180,12,18,NA,1014,METAR KEVU 122135Z AUTO 18012G18KT 10SM CLR 33/20 A2994 RMK AO2 T03350200,2025-09-12T21:45:03Z,2025-09-12T17:45:03Z,Northwest Missouri Regional Airport,40.352501,-94.915001,US,US-MO
KEVV,"Evansville Rgnl, IN, US",2025-09-12T20:54:00Z,2025-09-12 15:54:00,VFR,31.7,13.3,30,3,0,NA,1019.7,METAR KEVV 122054Z 03003KT 10SM CLR 32/13 A3011 RMK AO2 SLP192 T03170133 56020 $,2025-09-12T21:45:03Z,2025-09-12T17:45:03Z,Evansville Regional Airport,38.0369987488,-87.5324020386,US,US-IN
KEVW,"Evanston/Uinta Cnty, WY, US",2025-09-12T20:53:00Z,2025-09-12 14:53:00,VFR,21.1,-3.9,VAR,5,15,NA,1019.4,METAR KEVW 122053Z AUTO VRB05G15KT 10SM CLR 21/M04 A3010 RMK AO2 SLP108 T02111039 56018,2025-09-12T21:45:03Z,2025-09-12T17:45:03Z,Evanston-Uinta County Airport-Burns Field,41.27479935,-111.0350037,US,US-WY
KEVW,"Evanston/Uinta Cnty, WY, US",2025-09-12T21:53:00Z,2025-09-12 15:53:00,VFR,19.4,-4.4,200,16,26,NA,1019.7,METAR KEVW 122153Z AUTO 20016G26KT 10SM BKN110 19/M04 A3011 RMK AO2 PK WND 19026/2153 LTG DSNT E SLP119 T01941044,2025-09-12T21:55:48Z,2025-09-12T17:55:48Z,Evanston-Uinta County Airport-Burns Field,41.27479935,-111.0350037,US,US-WY
KEWB,"New Bedford Rgnl, MA, US",2025-09-12T20:53:00Z,2025-09-12 16:53:00,VFR,20,12.8,90,9,0,NA,1022.4,METAR KEWB 122053Z 09009KT 10SM BKN047 20/13 A3019 RMK AO2 SLP221 T02000128 55004,2025-09-12T21:45:03Z,2025-09-12T17:45:03Z,New Bedford Regional Airport,41.67610168457031,-70.95690155029297,US,US-MA
KEWB,"New Bedford Rgnl, MA, US",2025-09-12T21:53:00Z,2025-09-12 17:53:00,VFR,18.9,11.7,90,5,0,NA,1022.4,METAR KEWB 122153Z 09005KT 10SM SCT046 19/12 A3019 RMK AO2 SLP222 T01890117,2025-09-12T21:55:48Z,2025-09-12T17:55:48Z,New Bedford Regional Airport,41.67610168457031,-70.95690155029297,US,US-MA
KEWK,"Newton City Arpt, KS, US",2025-09-12T20:56:00Z,2025-09-12 15:56:00,VFR,32.2,18.3,200,13,19,NA,1017.4,METAR KEWK 122056Z AUTO 20013G19KT 10SM CLR 32/18 A3004 RMK AO2 SLP155 T03220183 56015 $,2025-09-12T21:45:03Z,2025-09-12T17:45:03Z,Newton City-County Airport,38.058200836199994,-97.2744979858,US,US-KS
KEWN,"New Bern/Coastal Carolina Rgnl, NC, US",2025-09-12T20:54:00Z,2025-09-12 16:54:00,VFR,26.7,13.9,50,12,21,NA,1019.4,METAR KEWN 122054Z 05012G21KT 10SM CLR 27/14 A3010 RMK AO2 SLP193 T02670139 56009,2025-09-12T21:45:03Z,2025-09-12T17:45:03Z,Coastal Carolina Regional Airport,35.0730018616,-77.04290008539999,US,US-NC
KEWR,"Newark Intl, NJ, US",2025-09-12T20:51:00Z,2025-09-12 16:51:00,VFR,25.6,10,220,7,0,NA,1021.4,METAR KEWR 122051Z 22007KT 10SM FEW060 FEW100 SCT250 26/10 A3016 RMK AO2 SLP211 T02560100 58014 $,2025-09-12T21:45:03Z,2025-09-12T17:45:03Z,Newark Liberty International Airport,40.692501,-74.168701,US,US-NJ
KEWR,"Newark Intl, NJ, US",2025-09-12T21:51:00Z,2025-09-12 17:51:00,VFR,25.6,9.4,100,3,0,NA,1021.1,METAR KEWR 122151Z 10003KT 10SM FEW060 FEW090 FEW250 26/09 A3015 RMK AO2 SLP209 T02560094 $,2025-09-12T21:55:48Z,2025-09-12T17:55:48Z,Newark Liberty International Airport,40.692501,-74.168701,US,US-NJ
KEXX,"Lexington/Davidson Cnty, NC, US",2025-09-12T21:35:00Z,2025-09-12 21:35:00,VFR,27.1,13.4,80,6,0,NA,1020.4,METAR KEXX 122135Z AUTO 08006KT 10SM BKN065 OVC080 27/13 A3013 RMK AO2 T02710134,2025-09-12T21:45:03Z,2025-09-12T17:45:03Z,Davidson County Executive Airport,35.781101,-80.303802,US,US-NC
KEXX,"Lexington/Davidson Cnty, NC, US",2025-09-12T21:45:00Z,2025-09-12 21:45:00,VFR,25.4,13.7,70,4,0,NA,1020.4,METAR KEXX 122145Z AUTO 07004KT 10SM BKN065 OVC085 25/14 A3013 RMK AO2 T02540137,2025-09-12T21:55:48Z,2025-09-12T17:55:48Z,Davidson County Executive Airport,35.781101,-80.303802,US,US-NC
KEYE,"Indianapolis/Eagle Creek Aprt, IN, US",2025-09-12T20:53:00Z,2025-09-12 20:53:00,VFR,28.9,9.4,0,0,0,NA,1020.7,METAR KEYE 122053Z AUTO 00000KT 10SM CLR 29/09 A3014 RMK AO2 SLP200 T02890094 56022,2025-09-12T21:45:03Z,2025-09-12T17:45:03Z,Eagle Creek Airpark,39.830699920654,-86.294403076172,US,US-IN
KEYE,"Indianapolis/Eagle Creek Aprt, IN, US",2025-09-12T21:53:00Z,2025-09-12 21:53:00,VFR,28.3,9.4,0,0,0,NA,1020.1,METAR KEYE 122153Z AUTO 00000KT 10SM CLR 28/09 A3012 RMK AO2 SLP195 T02830094 $,2025-09-12T21:55:48Z,2025-09-12T17:55:48Z,Eagle Creek Airpark,39.830699920654,-86.294403076172,US,US-IN
KEYF,"Elizabethtown/Brown Fld, NC, US",2025-09-12T21:35:00Z,2025-09-12 21:35:00,VFR,25.3,16,40,8,0,NA,1019.4,METAR KEYF 122135Z AUTO 04008KT 10SM OVC090 25/16 A3010 RMK AO2 T02530160,2025-09-12T21:45:02Z,2025-09-12T17:45:02Z,Curtis L Brown Jr Field,34.60179901,-78.57929993,US,US-NC
KEYF,"Elizabethtown/Brown Fld, NC, US",2025-09-12T21:45:00Z,2025-09-12 21:45:00,VFR,25.3,16.3,10,5,0,NA,1019.4,METAR KEYF 122145Z AUTO 01005KT 10SM OVC090 25/16 A3010 RMK AO2 T02530163,2025-09-12T21:55:48Z,2025-09-12T17:55:48Z,Curtis L Brown Jr Field,34.60179901,-78.57929993,US,US-NC
KEYW,"Key West Intl, FL, US",2025-09-12T20:53:00Z,2025-09-12 16:53:00,VFR,30,25,VAR,3,0,NA,1013.3,METAR KEYW 122053Z VRB03KT 10SM CLR 30/25 A2992 RMK AO2 SLP138 T03000250 55014 $,2025-09-12T21:45:03Z,2025-09-12T17:45:03Z,Key West International Airport,24.556101,-81.759598,US,US-FL
KEYW,"Key West Intl, FL, US",2025-09-12T21:53:00Z,2025-09-12 17:53:00,VFR,30,25.6,330,7,0,NA,1013.3,METAR KEYW 122153Z 33007KT 10SM FEW055 SCT070 30/26 A2992 RMK AO2 LTG DSNT W AND NW SLP138 T03000256 $,2025-09-12T21:55:48Z,2025-09-12T17:55:48Z,Key West International Airport,24.556101,-81.759598,US,US-FL
KEZF,"Fredericksburg/Shannon Aprt, VA, US",2025-09-12T21:35:00Z,2025-09-12 21:35:00,VFR,26.2,8.9,60,9,0,NA,1020.7,METAR KEZF 122135Z AUTO 06009KT 10SM CLR 26/09 A3014 RMK AO2 T02620089,2025-09-12T21:45:03Z,2025-09-12T17:45:03Z,Shannon Airport,38.2668,-77.449203,US,US-VA
KEZS,"Shawano Muni, WI, US",2025-09-12T21:35:00Z,2025-09-12 21:35:00,NA,25.4,12.4,140,5,0,NA,1019.7,METAR KEZS 122135Z AUTO 14005KT 10SM 25/12 A3011 RMK AO2 T02540124,2025-09-12T21:45:03Z,2025-09-12T17:45:03Z,Shawano Municipal Airport,44.787514,-88.560481,US,US-WI
KEZZ,"Cameron Arpt, MO, US",2025-09-12T21:15:00Z,2025-09-12 21:15:00,VFR,35,15,200,12,20,NA,1017,METAR KEZZ 122115Z AUTO 20012G20KT 10SM CLR 35/15 A3003 RMK AO2,2025-09-12T21:45:03Z,2025-09-12T17:45:03Z,Cameron Memorial Airport,39.7276,-94.276398,US,US-MO
KF00,"Bonham/Jones Fld, TX, US",2025-09-12T21:35:00Z,2025-09-12 21:35:00,VFR,33,19,190,4,0,NA,1018,METAR KF00 122135Z AUTO 19004KT 10SM CLR 33/19 A3006 RMK AO2,2025-09-12T21:45:02Z,2025-09-12T17:45:02Z,Jones Field,33.6128,-96.179298,US,US-TX
KF05,"Vernon/Wilbarger Cnty, TX, US",2025-09-12T21:35:00Z,2025-09-12 16:35:00,VFR,36.7,14,170,11,15,NA,1017,METAR KF05 122135Z AUTO 17011G15KT 10SM CLR 37/14 A3003 RMK AO2 T03670140,2025-09-12T21:45:03Z,2025-09-12T17:45:03Z,Wilbarger County Airport,34.2257003784,-99.2837982178,US,US-TX
KF17,"Center Muni, TX, US",2025-09-12T21:35:00Z,2025-09-12 21:35:00,VFR,32,18,60,3,0,NA,1017.7,METAR KF17 122135Z AUTO 06003KT 10SM CLR 32/18 A3005 RMK AO2,2025-09-12T21:45:02Z,2025-09-12T17:45:02Z,Center Municipal Airport,31.8316,-94.156403,US,US-TX
KF44,"Athens Muni, TX, US",2025-09-12T21:35:00Z,2025-09-12 21:35:00,VFR,32,20,0,0,0,NA,1017.4,METAR KF44 122135Z AUTO 00000KT 10SM SCT050 32/20 A3004 RMK AO2,2025-09-12T21:45:03Z,2025-09-12T17:45:03Z,Athens Municipal Airport,32.163799,-95.8284,US,US-TX
KF45,"North Palm Beach Cnty, FL, US",2025-09-12T21:30:00Z,2025-09-12 21:30:00,VFR,28,25,50,8,0,NA,1013.6,METAR KF45 122130Z AUTO 05008KT 10SM FEW021 28/25 A2993 RMK AO2 LTG DSNT SE AND S,2025-09-12T21:45:03Z,2025-09-12T17:45:03Z,North Palm Beach County General Aviation Airport,26.8444,-80.221298,US,US-FL
KF46,"Rockwall Muni, TX, US",2025-09-12T21:35:00Z,2025-09-12 21:35:00,VFR,31.7,19.6,140,3,0,NA,1018,METAR KF46 122135Z AUTO 14003KT 10SM SCT055 32/20 A3006 RMK AO2 T03170196,2025-09-12T21:45:03Z,2025-09-12T17:45:03Z,Rockwall Municipal Airport,32.930599,-96.435501,US,US-TX
KF70,"Murrieta/French Valley Arpt, CA, US",2025-09-12T21:35:00Z,2025-09-12 14:35:00,VFR,29,11,200,4,0,NA,1013,METAR KF70 122135Z AUTO 20004KT 10SM CLR 29/11 A2991 RMK AO2,2025-09-12T21:45:03Z,2025-09-12T17:45:03Z,French Valley Airport,33.5742,-117.127998,US,US-CA
KFAF,"Fort Eustis/Felker AAF, VA, US",2025-09-12T20:55:00Z,2025-09-12 16:55:00,VFR,24.6,11.5,80,10,15,NA,1020.1,METAR KFAF 122055Z 08010G15KT 10SM FEW050 25/12 A3012 RMK AO2A SLP203 T02460115 55002 $,2025-09-12T21:45:03Z,2025-09-12T17:45:03Z,Felker Army Air Field,37.1325,-76.608803,US,US-VA
KFAR,"Fargo/Hector Intl, ND, US",2025-09-12T20:53:00Z,2025-09-12 15:53:00,VFR,24.4,17.2,140,11,0,NA,1013,METAR KFAR 122053Z 14011KT 10SM CLR 24/17 A2991 RMK AO2 SLP125 T02440172 56008,2025-09-12T21:45:03Z,2025-09-12T17:45:03Z,Hector International Airport,46.92070007324219,-96.81580352783205,US,US-ND
KFAR,"Fargo/Hector Intl, ND, US",2025-09-12T21:53:00Z,2025-09-12 16:53:00,VFR,24.4,17.2,150,6,0,NA,1013,METAR KFAR 122153Z 15006KT 10SM CLR 24/17 A2991 RMK AO2 SLP125 T02440172,2025-09-12T21:55:48Z,2025-09-12T17:55:48Z,Hector International Airport,46.92070007324219,-96.81580352783205,US,US-ND
KFAT,"Fresno/Yosemite Intl, CA, US",2025-09-12T20:53:00Z,2025-09-12 13:53:00,VFR,28.9,13.3,250,9,0,NA,1013,METAR KFAT 122053Z 25009KT 10SM FEW040 SCT060 SCT150 29/13 A2991 RMK AO2 SLP124 FU FEW040 T02890133 58021 $,2025-09-12T21:45:03Z,2025-09-12T17:45:03Z,Fresno Yosemite International Airport,36.776199,-119.718002,US,US-CA
KFAT,"Fresno/Yosemite Intl, CA, US",2025-09-12T21:53:00Z,2025-09-12 14:53:00,VFR,29.4,12.2,340,8,0,NA,1011.9,METAR KFAT 122153Z 34008KT 10SM FEW040 FEW060 FEW150 29/12 A2988 RMK AO2 SLP115 FU FEW040 T02940122 $,2025-09-12T21:55:48Z,2025-09-12T17:55:48Z,Fresno Yosemite International Airport,36.776199,-119.718002,US,US-CA
KFAY,"Fayetteville Rgnl, NC, US",2025-09-12T20:53:00Z,2025-09-12 16:53:00,VFR,25.6,15,50,5,0,NA,1019.4,METAR KFAY 122053Z 05005KT 10SM OVC080 26/15 A3010 RMK AO2 SLP185 T02560150 56010,2025-09-12T21:45:03Z,2025-09-12T17:45:03Z,Fayetteville Regional Airport - Grannis Field,34.991199,-78.880302,US,US-NC
KFAY,"Fayetteville Rgnl, NC, US",2025-09-12T21:53:00Z,2025-09-12 17:53:00,VFR,26.1,15.6,80,7,0,NA,1019,METAR KFAY 122153Z 08007KT 10SM SCT085 26/16 A3009 RMK AO2 SLP183 T02610156,2025-09-12T21:55:48Z,2025-09-12T17:55:48Z,Fayetteville Regional Airport - Grannis Field,34.991199,-78.880302,US,US-NC
KFBG,"Fort Bragg/Simmons AAF, NC, US",2025-09-12T20:55:00Z,2025-09-12 16:55:00,VFR,26.8,14.5,30,3,0,NA,1018.7,METAR KFBG 122055Z AUTO 03003KT 10SM FEW060 BKN080 27/15 A3008 RMK AO2 SLP187 T02680145 56012,2025-09-12T21:45:03Z,2025-09-12T17:45:03Z,Simmons Army Air Field,35.13180161,-78.93669891,US,US-NC
KFBL,"Faribault Muni, MN, US",2025-09-12T21:35:00Z,2025-09-12 16:35:00,VFR,NA,NA,130,5,0,NA,1015.7,METAR KFBL 122135Z AUTO 13005KT 10SM -RA SCT065 120 A2999 RMK AO2 LTG DSNT N THRU E,2025-09-12T21:45:03Z,2025-09-12T17:45:03Z,Faribault Municipal Airport-Liz Wall Strohfus Field,44.32844,-93.312534,US,US-MN
KFBR,"Fort Bridger Arpt, WY, US",2025-09-12T21:35:00Z,2025-09-12 15:35:00,VFR,21.1,-4.8,0,0,0,NA,1019.7,METAR KFBR 122135Z AUTO 00000KT 10SM OVC100 21/M05 A3011 RMK AO2 LTG DSNT S T02111048,2025-09-12T21:45:03Z,2025-09-12T17:45:03Z,Fort Bridger Airport,41.3918991089,-110.40699768099999,US,US-WY
KFCH,"Fresno/Chandler Exec, CA, US",2025-09-12T21:35:00Z,2025-09-12 14:35:00,VFR,29,13,310,9,0,NA,1012.6,METAR KFCH 122135Z AUTO 31009KT 10SM CLR 29/13 A2990 RMK A01,2025-09-12T21:45:03Z,2025-09-12T17:45:03Z,Fresno Chandler Executive Airport,36.732399,-119.82,US,US-CA
KFCI,"Richmond/Chesterfield Cnty, VA, US",2025-09-12T20:56:00Z,2025-09-12 20:56:00,VFR,27.8,11.7,60,9,14,NA,1020.7,METAR KFCI 122056Z AUTO 06009G14KT 10SM CLR 28/12 A3014 RMK AO2 SLP215 6//// T02780117 56011 PNO $,2025-09-12T21:45:03Z,2025-09-12T17:45:03Z,Richmond Executive-Chesterfield County Airport,37.406502,-77.525002,US,US-VA
KFCM,"Eden Prairie/Flying, MN, US",2025-09-12T20:53:00Z,2025-09-12 15:53:00,VFR,25,18.3,140,8,0,8,1015,METAR KFCM 122053Z 14008KT 8SM -RA FEW042 SCT110 25/18 A2997 RMK AO2 SLP144 P0000 60000 T02500183 55005,2025-09-12T21:45:03Z,2025-09-12T17:45:03Z,Flying Cloud Airport,44.8272018433,-93.4570999146,US,US-MN
KFCM,"Eden Prairie/Flying, MN, US",2025-09-12T21:53:00Z,2025-09-12 16:53:00,MVFR,22.8,20,30,6,0,5,1016,METAR KFCM 122153Z 03006KT 5SM -RA FEW090 BKN110 23/20 A3000 RMK AO2 RAE12B30 SLP156 P0003 T02280200,2025-09-12T21:55:48Z,2025-09-12T17:55:48Z,Flying Cloud Airport,44.8272018433,-93.4570999146,US,US-MN
KFCS,"Fort Carson/Butts AAF, CO, US",2025-09-12T20:55:00Z,2025-09-12 14:55:00,VFR,25.6,5.7,240,10,0,NA,1019.7,METAR KFCS 122055Z AUTO 24010KT 10SM BKN130 OVC170 26/06 A3011 RMK AO2 SLP125 T02560057,2025-09-12T21:45:03Z,2025-09-12T17:45:03Z,Butts AAF (Fort Carson) Air Field,38.67839813,-104.7570038,US,US-CO
KFDK,"Frederick Muni, MD, US",2025-09-12T21:47:00Z,2025-09-12 17:47:00,VFR,28,12,0,0,0,NA,1021.4,METAR KFDK 122147Z 00000KT 10SM CLR 28/12 A3016,2025-09-12T21:55:48Z,2025-09-12T17:55:48Z,Frederick Municipal Airport,39.417598724399994,-77.3742980957,US,US-MD
KFDR,"Frederick Rgnl, OK, US",2025-09-12T20:53:00Z,2025-09-12 15:53:00,VFR,36.1,14.4,180,10,18,NA,1016.3,METAR KFDR 122053Z AUTO 18010G18KT 10SM CLR 36/14 A3001 RMK AO2 SLP142 T03610144 58026,2025-09-12T21:45:03Z,2025-09-12T17:45:03Z,Frederick Regional Airport,34.35200119,-98.98390198,US,US-OK
KFDR,"Frederick Rgnl, OK, US",2025-09-12T21:53:00Z,2025-09-12 16:53:00,VFR,36.1,14.4,160,13,22,NA,1015.7,METAR KFDR 122153Z AUTO 16013G22KT 10SM CLR 36/14 A2999 RMK AO2 SLP137 T03610144,2025-09-12T21:55:48Z,2025-09-12T17:55:48Z,Frederick Regional Airport,34.35200119,-98.98390198,US,US-OK
KFDW,"Winnsboro/Fairfield Cnty, SC, US",2025-09-12T21:35:00Z,2025-09-12 21:35:00,VFR,28,13,20,5,0,NA,1019.4,METAR KFDW 122135Z AUTO 02005KT 10SM SCT080 28/13 A3010 RMK AO1,2025-09-12T21:45:02Z,2025-09-12T17:45:02Z,Fairfield County Airport,34.315498,-81.108803,US,US-SC
KFDY,"Findlay Arpt, OH, US",2025-09-12T20:53:00Z,2025-09-12 16:53:00,VFR,27.2,8.9,280,5,0,NA,1021.4,METAR KFDY 122053Z AUTO 28005KT 10SM CLR 27/09 A3016 RMK AO2 SLP205 T02720089 56019,2025-09-12T21:45:03Z,2025-09-12T17:45:03Z,Findlay Airport,41.0135002136,-83.66870117190001,US,US-OH
KFDY,"Findlay Arpt, OH, US",2025-09-12T21:53:00Z,2025-09-12 17:53:00,VFR,27.2,8.9,50,6,0,NA,1021.1,METAR KFDY 122153Z AUTO 05006KT 10SM CLR 27/09 A3015 RMK AO2 SLP205 T02720089,2025-09-12T21:55:48Z,2025-09-12T17:55:48Z,Findlay Airport,41.0135002136,-83.66870117190001,US,US-OH
KFET,"Fremont Muni, NE, US",2025-09-12T21:35:00Z,2025-09-12 16:35:00,VFR,30.9,18.9,180,9,15,NA,1012.6,METAR KFET 122135Z AUTO 18009G15KT 10SM CLR 31/19 A2990 RMK AO2 T03090189,2025-09-12T21:45:03Z,2025-09-12T17:45:03Z,Fremont Municipal Airport,41.45024,-96.522884,US,US-NE
KFFA,"Kill Devil Hill/First Flight Arpt, NC, US",2025-09-12T21:35:00Z,2025-09-12 17:35:00,VFR,23,13.7,30,6,0,NA,1019.7,METAR KFFA 122135Z AUTO 03006KT 10SM CLR 23/14 A3011 RMK AO2 T02300137,2025-09-12T21:45:03Z,2025-09-12T17:45:03Z,First Flight Airport,36.0181999207,-75.67130279540001,US,US-NC
KFFA,"Kill Devil Hill/First Flight Arpt, NC, US",2025-09-12T21:45:00Z,2025-09-12 17:45:00,VFR,22.9,13.7,30,6,0,NA,1020.1,METAR KFFA 122145Z AUTO 03006KT 010V070 10SM CLR 23/14 A3012 RMK AO2 T02290137,2025-09-12T21:55:48Z,2025-09-12T17:55:48Z,First Flight Airport,36.0181999207,-75.67130279540001,US,US-NC
KFFC,"Peachtree City/Falcon Fld, GA, US",2025-09-12T20:53:00Z,2025-09-12 20:53:00,VFR,29.4,13.9,90,4,0,NA,1019,METAR KFFC 122053Z AUTO 09004KT 10SM FEW065 FEW085 29/14 A3009 RMK AO2 SLP185 T02940139 56015,2025-09-12T21:45:03Z,2025-09-12T17:45:03Z,Peachtree City Falcon Field,33.3573,-84.5718,US,US-GA
KFFC,"Peachtree City/Falcon Fld, GA, US",2025-09-12T21:53:00Z,2025-09-12 21:53:00,VFR,28.9,13.3,VAR,3,0,NA,1019,METAR KFFC 122153Z AUTO VRB03KT 10SM CLR 29/13 A3009 RMK AO2 SLP185 T02890133,2025-09-12T21:55:48Z,2025-09-12T17:55:48Z,Peachtree City Falcon Field,33.3573,-84.5718,US,US-GA
KFFL,"Fairfield Muni, IA, US",2025-09-12T21:35:00Z,2025-09-12 16:35:00,VFR,31,17,180,7,0,NA,1016.7,METAR KFFL 122135Z AUTO 18007KT 10SM CLR 31/17 A3002 RMK A01,2025-09-12T21:45:02Z,2025-09-12T17:45:02Z,Fairfield Municipal Airport,41.053024,-91.980114,US,US-IA
KFFM,"Fergus Falls/Mickelson Fld, MN, US",2025-09-12T21:35:00Z,2025-09-12 16:35:00,VFR,20,18,70,10,0,NA,1012.6,METAR KFFM 122135Z AUTO 07010KT 10SM CLR 20/18 A2990 RMK AO2,2025-09-12T21:45:03Z,2025-09-12T17:45:03Z,Fergus Falls Municipal Airport - Einar Mickelson Field,46.28440094,-96.15670013,US,US-MN
KFFO,"Wright Patterson AFB, OH, US",2025-09-12T20:55:00Z,2025-09-12 16:55:00,VFR,28.5,5.3,0,0,0,NA,1020.7,METAR KFFO 122055Z AUTO 00000KT 10SM CLR 29/05 A3014 RMK AO2 SLP204 T02850053 57020,2025-09-12T21:45:03Z,2025-09-12T17:45:03Z,Wright-Patterson Air Force Base,39.826099,-84.048302,US,US-OH
KFFT,"Frankfort/Capital City Arpt, KY, US",2025-09-12T20:53:00Z,2025-09-12 16:53:00,NA,NA,NA,VAR,NA,0,NA,1020.4,METAR KFFT 122053Z AUTO A3013 RMK AO2 SLPNO 56017 PWINO,2025-09-12T21:45:03Z,2025-09-12T17:45:03Z,Capital City Airport,38.181698,-84.906764,US,US-KY
KFFT,"Frankfort/Capital City Arpt, KY, US",2025-09-12T21:53:00Z,2025-09-12 17:53:00,NA,NA,NA,VAR,NA,0,NA,1020.1,METAR KFFT 122153Z AUTO A3012 RMK AO2 SLPNO PWINO,2025-09-12T21:55:48Z,2025-09-12T17:55:48Z,Capital City Airport,38.181698,-84.906764,US,US-KY
KFFX,"Fremont Muni, MI, US",2025-09-12T21:35:00Z,2025-09-12 21:35:00,VFR,26,12,240,6,0,NA,1021.1,METAR KFFX 122135Z AUTO 24006KT 10SM CLR 26/12 A3015 RMK AO2,2025-09-12T21:45:03Z,2025-09-12T17:45:03Z,Fremont Municipal Airport,43.436854,-85.996592,US,US-MI
KFFZ,"Mesa/Falcon Fld, AZ, US",2025-09-12T20:54:00Z,2025-09-12 13:54:00,VFR,34.4,16.1,100,3,0,NA,1009.2,METAR KFFZ 122054Z 10003KT 10SM BKN060 BKN075 34/16 A2980 RMK AO2 SLP066 T03440161 56029,2025-09-12T21:45:03Z,2025-09-12T17:45:03Z,Falcon Field,33.4608001709,-111.727996826,US,US-AZ
KFGX,"Flemingsburg Arpt, KY, US",2025-09-12T20:55:00Z,2025-09-12 20:55:00,VFR,29.4,9.3,330,4,0,NA,1021.1,METAR KFGX 122055Z AUTO 33004KT 10SM CLR 29/09 A3015 RMK AO2 T02940093,2025-09-12T21:45:03Z,2025-09-12T17:45:03Z,Fleming Mason Airport,38.5418014526,-83.74340057370001,US,US-KY
KFGX,"Flemingsburg Arpt, KY, US",2025-09-12T21:35:00Z,2025-09-12 21:35:00,VFR,29.3,9,0,0,0,NA,1021.4,METAR KFGX 122135Z AUTO 00000KT 10SM CLR 29/09 A3016 RMK AO2 T02930090,2025-09-12T21:55:48Z,2025-09-12T17:55:48Z,Fleming Mason Airport,38.5418014526,-83.74340057370001,US,US-KY
KFHR,"Friday Harbor Arpt, WA, US",2025-09-12T21:11:00Z,2025-09-12 14:11:00,VFR,18.3,13.9,120,5,0,NA,1017.7,SPECI KFHR 122111Z AUTO 12005KT 10SM SCT011 18/14 A3005 RMK AO2 T01830139,2025-09-12T21:45:03Z,2025-09-12T17:45:03Z,Friday Harbor Airport,48.523654,-123.024645,US,US-WA
KFHR,"Friday Harbor Arpt, WA, US",2025-09-12T21:53:00Z,2025-09-12 14:53:00,VFR,17.8,13.9,130,3,0,NA,1017.4,METAR KFHR 122153Z AUTO 13003KT 10SM CLR 18/14 A3004 RMK AO2 SLP174 T01780139,2025-09-12T21:55:48Z,2025-09-12T17:55:48Z,Friday Harbor Airport,48.523654,-123.024645,US,US-WA
KFHU,"Fort Huachuca/Libby AAF, AZ, US",2025-09-12T20:58:00Z,2025-09-12 13:58:00,VFR,31,13,210,12,17,NA,1017.7,SPECI KFHU 122058Z AUTO 21012G17KT 10SM SCT070 31/13 A3005 RMK AO2 WSHFT 49 LTG DSNT SE SLP101,2025-09-12T21:45:03Z,2025-09-12T17:45:03Z,Sierra Vista Municipal Airport / Libby Army Air Field,31.587383,-110.348225,US,US-AZ
KFHU,"Fort Huachuca/Libby AAF, AZ, US",2025-09-12T21:47:00Z,2025-09-12 14:47:00,VFR,31,15,270,13,18,NA,1017.4,SPECI KFHU 122147Z AUTO 27013G18KT 10SM SCT065 31/15 A3004 RMK AO2 WSHFT 41 LTG DSNT NE-SE SLP098,2025-09-12T21:55:48Z,2025-09-12T17:55:48Z,Sierra Vista Municipal Airport / Libby Army Air Field,31.587383,-110.348225,US,US-AZ
KFIG,"Clearfield/Lawrence Arpt, PA, US",2025-09-12T20:54:00Z,2025-09-12 20:54:00,VFR,26.1,7.2,330,4,0,NA,1022.1,METAR KFIG 122054Z AUTO 33004KT 10SM CLR 26/07 A3018 RMK AO2 SLP214 T02610072 56015,2025-09-12T21:45:03Z,2025-09-12T17:45:03Z,Clearfield Lawrence Airport,41.049032,-78.415003,US,US-PA
KFIT,"Fitchburg Muni, MA, US",2025-09-12T20:52:00Z,2025-09-12 20:52:00,VFR,23.3,7.8,50,4,0,NA,1022.1,METAR KFIT 122052Z AUTO 05004KT 10SM CLR 23/08 A3018 RMK AO2 SLP220 T02330078 56014,2025-09-12T21:45:03Z,2025-09-12T17:45:03Z,Fitchburg Municipal Airport,42.554100036621094,-71.759002685546875,US,US-MA
KFIT,"Fitchburg Muni, MA, US",2025-09-12T21:52:00Z,2025-09-12 21:52:00,VFR,22.8,7.8,170,6,0,NA,1022.1,METAR KFIT 122152Z AUTO 17006KT 10SM CLR 23/08 A3018 RMK AO2 SLP221 T02280078,2025-09-12T21:55:48Z,2025-09-12T17:55:48Z,Fitchburg Municipal Airport,42.554100036621094,-71.759002685546875,US,US-MA
KFKA,"Preston/Fillmore Cnty, MN, US",2025-09-12T21:35:00Z,2025-09-12 21:35:00,VFR,26,20,140,10,15,NA,1016.3,METAR KFKA 122135Z AUTO 14010G15KT 10SM FEW110 26/20 A3001 RMK AO2 LTG DSNT NW,2025-09-12T21:45:03Z,2025-09-12T17:45:03Z,Fillmore County Airport,43.6768,-92.179703,US,US-MN
KFKL,"Franklin/Lamberton Fld, PA, US",2025-09-12T20:56:00Z,2025-09-12 16:56:00,VFR,25.6,8.9,10,4,0,NA,1022.4,METAR KFKL 122056Z AUTO 01004KT 10SM CLR 26/09 A3019 RMK AO2 SLP217 T02560089 56017,2025-09-12T21:45:03Z,2025-09-12T17:45:03Z,Venango Regional Airport,41.3778991699,-79.8603973389,US,US-PA
KFKN,"Franklin/Rose Arpt, VA, US",2025-09-12T21:35:00Z,2025-09-12 17:35:00,VFR,24.5,13.6,60,8,0,NA,1020.7,METAR KFKN 122135Z AUTO 06008KT 10SM CLR 25/14 A3014 RMK AO2 T02450136,2025-09-12T21:45:03Z,2025-09-12T17:45:03Z,Franklin Regional Airport,36.698101,-76.903801,US,US-VA
KFKR,"Frankfort Muni, IN, US",2025-09-12T21:35:00Z,2025-09-12 21:35:00,VFR,NA,NA,0,0,0,NA,1020.4,METAR KFKR 122135Z AUTO 00000KT 10SM CLR A3013 RMK AO2,2025-09-12T21:45:03Z,2025-09-12T17:45:03Z,Frankfort Clinton County Regional Airport,40.273399,-86.562202,US,US-IN
KFKS,"Frankfort/Dow Mem, MI, US",2025-09-12T21:35:00Z,2025-09-12 21:35:00,VFR,22,14,250,2,0,NA,1021.4,METAR KFKS 122135Z AUTO 25002KT 10SM CLR 22/14 A3016 RMK AO2,2025-09-12T21:45:03Z,2025-09-12T17:45:03Z,Frankfort Dow Memorial Field,44.625198,-86.200798,US,US-MI
KFLD,"Fond Du Lac Cnty Arpt, WI, US",2025-09-12T20:53:00Z,2025-09-12 15:53:00,VFR,25.6,15,170,8,0,NA,1020.1,METAR KFLD 122053Z AUTO 17008KT 10SM CLR 26/15 A3012 RMK AO2 SLP199 T02560150 56024,2025-09-12T21:45:03Z,2025-09-12T17:45:03Z,Fond du Lac County Airport,43.7711982727,-88.48840332030001,US,US-WI
KFLD,"Fond Du Lac Cnty Arpt, WI, US",2025-09-12T21:53:00Z,2025-09-12 16:53:00,VFR,25.6,15,170,8,0,NA,1019.7,METAR KFLD 122153Z AUTO 17008KT 10SM CLR 26/15 A3011 RMK AO2 SLP194 T02560150,2025-09-12T21:55:48Z,2025-09-12T17:55:48Z,Fond du Lac County Airport,43.7711982727,-88.48840332030001,US,US-WI
KFLG,"Flagstaff/Pulliam Arpt, AZ, US",2025-09-12T20:57:00Z,2025-09-12 13:57:00,VFR,22.8,2.8,210,27,36,NA,1021.8,METAR KFLG 122057Z 21027G36KT 10SM FEW070 23/03 A3017 RMK AO2 PK WND 21036/2056 SLP114 T02280028 56016 $,2025-09-12T21:45:03Z,2025-09-12T17:45:03Z,Flagstaff Pulliam International Airport,35.1385,-111.670998,US,US-AZ
KFLL,"Ft Lauderdale-Hollywood Intl, FL, US",2025-09-12T20:53:00Z,2025-09-12 16:53:00,VFR,25,23.9,320,6,0,NA,1013.3,METAR KFLL 122053Z COR 32006KT 10SM SCT022 BKN035 BKN110 BKN170 OVC250 25/24 A2992 RMK AO2 RAB02E28 SLP129 CB DSNT ALQDS MOV E P0001 60029 T02500239 58004 $,2025-09-12T21:45:03Z,2025-09-12T17:45:03Z,Fort Lauderdale Hollywood International Airport,26.072599,-80.152702,US,US-FL
KFLL,"Ft Lauderdale-Hollywood Intl, FL, US",2025-09-12T21:53:00Z,2025-09-12 17:53:00,VFR,25,23.9,10,8,0,NA,1013,METAR KFLL 122153Z 01008KT 10SM -RA FEW022 SCT045 BKN075 BKN170 BKN250 25/24 A2991 RMK AO2 RAB02 SLP127 P0004 T02500239 $,2025-09-12T21:55:48Z,2025-09-12T17:55:48Z,Fort Lauderdale Hollywood International Airport,26.072599,-80.152702,US,US-FL
KFLO,"Florence Rgnl, SC, US",2025-09-12T20:53:00Z,2025-09-12 16:53:00,VFR,27.8,13.9,20,8,0,NA,1018.4,METAR KFLO 122053Z 02008KT 10SM FEW065 OVC080 28/14 A3007 RMK AO2 SLP181 T02780139 56014,2025-09-12T21:45:03Z,2025-09-12T17:45:03Z,Florence Regional Airport,34.18539810180664,-79.7238998413086,US,US-SC
KFLO,"Florence Rgnl, SC, US",2025-09-12T21:53:00Z,2025-09-12 17:53:00,VFR,27.8,15,50,11,0,NA,1018.7,METAR KFLO 122153Z 05011KT 10SM FEW060 28/15 A3008 RMK AO2 SLP183 T02780150,2025-09-12T21:55:48Z,2025-09-12T17:55:48Z,Florence Regional Airport,34.18539810180664,-79.7238998413086,US,US-SC
KFLP,"Flippin/Marion Cnty, AR, US",2025-09-12T20:56:00Z,2025-09-12 15:56:00,VFR,35,15,VAR,3,0,NA,1018.4,METAR KFLP 122056Z AUTO VRB03KT 10SM CLR 35/15 A3007 RMK AO2 SLP174 T03500150 56023 $,2025-09-12T21:45:03Z,2025-09-12T17:45:03Z,Marion County Regional Airport,36.29090118,-92.59030151,US,US-AR
KFME,"Fort Meade/Tipton Fld, MD, US",2025-09-12T21:39:00Z,2025-09-12 17:39:00,VFR,24,12,120,6,0,NA,1022.4,METAR KFME 122139Z AUTO 12006KT 10SM CLR 24/12 A3019 RMK AO1,2025-09-12T21:45:02Z,2025-09-12T17:45:02Z,Tipton Airport,39.08539962769999,-76.7593994141,US,US-MD
KFME,"Fort Meade/Tipton Fld, MD, US",2025-09-12T21:49:00Z,2025-09-12 17:49:00,VFR,24,12,110,5,0,NA,1022.4,METAR KFME 122149Z AUTO 11005KT 10SM CLR 24/12 A3019 RMK AO1,2025-09-12T21:55:48Z,2025-09-12T17:55:48Z,Tipton Airport,39.08539962769999,-76.7593994141,US,US-MD
KFMH,"Otis ANGB, MA, US",2025-09-12T21:45:00Z,2025-09-12 17:45:00,VFR,19,12,40,11,0,NA,1023.1,METAR KFMH 122145Z 04011KT 10SM CLR 19/12 A3021,2025-09-12T21:45:02Z,2025-09-12T17:45:02Z,Cape Cod Coast Guard Air Station,41.657899,-70.52163,US,US-MA
KFMM,"Fort Morgan Muni, CO, US",2025-09-12T21:35:00Z,2025-09-12 21:35:00,VFR,29,9,0,0,0,NA,1015.7,METAR KFMM 122135Z AUTO 00000KT 10SM CLR 29/09 A2999 RMK AO2,2025-09-12T21:45:02Z,2025-09-12T17:45:02Z,Fort Morgan Municipal Airport,40.335758,-103.804371,US,US-CO
KFMN,"Farmington/Four Corners Rgnl, NM, US",2025-09-12T20:53:00Z,2025-09-12 14:53:00,VFR,22.2,12.2,30,9,0,NA,1020.1,METAR KFMN 122053Z 03009KT 10SM BKN110 22/12 A3012 RMK AO2 LTG DSNT E SLP147 60001 T02220122 58017,2025-09-12T21:45:03Z,2025-09-12T17:45:03Z,Four Corners Regional Airport,36.741199,-108.230003,US,US-NM
KFMN,"Farmington/Four Corners Rgnl, NM, US",2025-09-12T21:53:00Z,2025-09-12 15:53:00,VFR,18.9,12.8,110,12,0,NA,1019.4,METAR KFMN 122153Z 11012KT 10SM -RA FEW036 BKN090 19/13 A3010 RMK AO2 LTG DSNT ALQDS RAB22 SLP149 P0003 T01890128,2025-09-12T21:55:48Z,2025-09-12T17:55:48Z,Four Corners Regional Airport,36.741199,-108.230003,US,US-NM
KFMY,"Fort Myers/Page Fld, FL, US",2025-09-12T21:42:00Z,2025-09-12 17:42:00,IFR,25,21.7,360,23,32,1.25,1013.6,SPECI KFMY 122142Z 36023G32KT 1 1/4SM +TSRA OVC035 25/22 A2993 RMK AO2 PK WND 35032/2140 LTG DSNT NE RAB37 TSB21 P0001 T02500217,2025-09-12T21:45:02Z,2025-09-12T17:45:02Z,Page Field,26.58659935,-81.86329650879999,US,US-FL
KFMY,"Fort Myers/Page Fld, FL, US",2025-09-12T21:53:00Z,2025-09-12 17:53:00,LIFR,23.3,21.7,350,9,29,0.25,1014,METAR KFMY 122153Z 35009G29KT 1/4SM VCTS +RA FG SCT012 OVC035 23/22 A2994 RMK AO2 PK WND 35032/2140 LTG DSNT NE AND SW RAB37 TSB21E48 PRESRR SLP139 P0053 T02330217,2025-09-12T21:55:48Z,2025-09-12T17:55:48Z,Page Field,26.58659935,-81.86329650879999,US,US-FL
KFNB,"Falls City/Brenner Fld, NE, US",2025-09-12T20:53:00Z,2025-09-12 20:53:00,VFR,33.9,19.4,180,9,19,NA,1013.6,METAR KFNB 122053Z AUTO 18009G19KT 10SM CLR 34/19 A2993 RMK AO2 SLP125 T03390194 56018,2025-09-12T21:45:03Z,2025-09-12T17:45:03Z,Brenner Field,40.0788,-95.592003,US,US-NE
KFNB,"Falls City/Brenner Fld, NE, US",2025-09-12T21:53:00Z,2025-09-12 21:53:00,VFR,34.4,19.4,190,11,21,NA,1013.6,METAR KFNB 122153Z AUTO 19011G21KT 10SM CLR 34/19 A2993 RMK AO2 SLP123 T03440194,2025-09-12T21:55:48Z,2025-09-12T17:55:48Z,Brenner Field,40.0788,-95.592003,US,US-NE
KFNL,"Fort Collins/N Colorado Rgnl, CO, US",2025-09-12T20:56:00Z,2025-09-12 14:56:00,VFR,25.6,6.1,240,17,24,NA,1019,METAR KFNL 122056Z 24017G24KT 10SM OVC100 26/06 A3009 RMK AO2 SLP129 T02560061 55005 $,2025-09-12T21:45:03Z,2025-09-12T17:45:03Z,Northern Colorado Regional Airport,40.44969,-105.011272,US,US-CO
KFNT,"Flint/Bishop Intl, MI, US",2025-09-12T20:53:00Z,2025-09-12 16:53:00,VFR,25.6,11.1,VAR,4,0,NA,1022.1,METAR KFNT 122053Z VRB04KT 10SM FEW070 26/11 A3018 RMK AO2 SLP217 T02560111 58018 $,2025-09-12T21:45:03Z,2025-09-12T17:45:03Z,Bishop International Airport,42.96540069580078,-83.74359893798828,US,US-MI
KFNT,"Flint/Bishop Intl, MI, US",2025-09-12T21:53:00Z,2025-09-12 17:53:00,VFR,25,11.7,0,0,0,NA,1022.1,METAR KFNT 122153Z 00000KT 10SM BKN075 25/12 A3018 RMK AO2 SLP218 T02500117 $,2025-09-12T21:55:48Z,2025-09-12T17:55:48Z,Bishop International Airport,42.96540069580078,-83.74359893798828,US,US-MI
KFOA,"Flora Muni, IL, US",2025-09-12T21:35:00Z,2025-09-12 21:35:00,VFR,31,13,130,6,0,NA,1019.4,METAR KFOA 122135Z AUTO 13006KT 10SM CLR 31/13 A3010 RMK AO2,2025-09-12T21:45:03Z,2025-09-12T17:45:03Z,Flora Municipal Airport,38.66490173339844,-88.4530029296875,US,US-IL
KFOD,"Fort Dodge Rgnl, IA, US",2025-09-12T20:56:00Z,2025-09-12 15:56:00,VFR,29.4,18.9,170,10,20,NA,1013.3,METAR KFOD 122056Z AUTO 17010G20KT 10SM CLR 29/19 A2992 RMK AO2 SLP135 60000 T02940189 56030 $,2025-09-12T21:45:05Z,2025-09-12T17:45:05Z,Fort Dodge Regional Airport,42.552624,-94.191237,US,US-IA
KFOE,"Topeka/Forbes Fld, KS, US",2025-09-12T20:53:00Z,2025-09-12 15:53:00,VFR,32.8,20.6,180,11,0,NA,1015.7,METAR KFOE 122053Z 18011KT 10SM CLR 33/21 A2999 RMK AO2 SLP144 T03280206 57014,2025-09-12T21:45:05Z,2025-09-12T17:45:05Z,Topeka Regional Airport,38.950901,-95.663597,US,US-KS
KFOE,"Topeka/Forbes Fld, KS, US",2025-09-12T21:53:00Z,2025-09-12 16:53:00,VFR,32.2,20.6,190,15,20,NA,1015.7,METAR KFOE 122153Z 19015G20KT 10SM CLR 32/21 A2999 RMK AO2 SLP144 T03220206,2025-09-12T21:55:50Z,2025-09-12T17:55:50Z,Topeka Regional Airport,38.950901,-95.663597,US,US-KS
KFOK,"Westhampton/Gabreski Arpt, NY, US",2025-09-12T20:53:00Z,2025-09-12 16:53:00,VFR,21.7,16.7,110,8,0,NA,1022.4,METAR KFOK 122053Z 11008KT 10SM CLR 22/17 A3019 RMK AO2 SLP222 T02170167 56004,2025-09-12T21:45:05Z,2025-09-12T17:45:05Z,Francis S Gabreski Airport,40.8437004089,-72.6317977905,US,US-NY
KFOK,"Westhampton/Gabreski Arpt, NY, US",2025-09-12T21:53:00Z,2025-09-12 17:53:00,VFR,20.6,16.1,90,7,16,NA,1022.4,METAR KFOK 122153Z 09007G16KT 10SM CLR 21/16 A3019 RMK AO2 SLP221 T02060161,2025-09-12T21:55:50Z,2025-09-12T17:55:50Z,Francis S Gabreski Airport,40.8437004089,-72.6317977905,US,US-NY
KFOM,"Fillmore Muni, UT, US",2025-09-12T21:35:00Z,2025-09-12 15:35:00,VFR,26,-1,VAR,5,0,NA,1015.7,METAR KFOM 122135Z AUTO VRB05KT 10SM CLR 26/M01 A2999 RMK AO2 LTG DSNT SW AND W,2025-09-12T21:45:05Z,2025-09-12T17:45:05Z,Fillmore Municipal Airport,38.95830154,-112.362999,US,US-UT
KFOT,"Fortuna/Rohnerville Arpt, CA, US",2025-09-12T21:35:00Z,2025-09-12 21:35:00,MVFR,15,15,300,10,0,NA,1016.7,METAR KFOT 122135Z AUTO 30010KT 10SM OVC012 15/15 A3002 RMK AO1,2025-09-12T21:45:05Z,2025-09-12T17:45:05Z,Rohnerville Airport,40.55390167,-124.1330032,US,US-CA
KFOZ,"Bigfork Muni, MN, US",2025-09-12T21:33:00Z,2025-09-12 21:33:00,VFR,22,18,140,5,0,NA,1017.7,METAR KFOZ 122133Z AUTO 14005KT 10SM SCT060 SCT085 22/18 A3005 RMK AO2,2025-09-12T21:45:05Z,2025-09-12T17:45:05Z,Bigfork Municipal Airport,47.783865,-93.65098,US,US-MN
KFOZ,"Bigfork Muni, MN, US",2025-09-12T21:53:00Z,2025-09-12 21:53:00,VFR,22,18,130,4,0,NA,1018,METAR KFOZ 122153Z AUTO 13004KT 10SM SCT060 22/18 A3006 RMK AO2,2025-09-12T21:55:50Z,2025-09-12T17:55:50Z,Bigfork Municipal Airport,47.783865,-93.65098,US,US-MN
KFPK,"Charotte/Beach Fld, MI, US",2025-09-12T21:35:00Z,2025-09-12 21:35:00,VFR,26,12,VAR,1,0,NA,1021.4,METAR KFPK 122135Z AUTO VRB01KT 10SM CLR 26/12 A3016 RMK AO2,2025-09-12T21:45:05Z,2025-09-12T17:45:05Z,Fitch H Beach Airport,42.574501,-84.811401,US,US-MI
KFPR,"Ft Pierce/Treasure Coast Intl, FL, US",2025-09-12T20:53:00Z,2025-09-12 16:53:00,VFR,27.2,22.2,70,4,0,NA,1014.3,METAR KFPR 122053Z 07004KT 10SM FEW024 FEW100 27/22 A2995 RMK AO2 SLP140 60005 T02720222 55013,2025-09-12T21:45:05Z,2025-09-12T17:45:05Z,St Lucie County International Airport,27.49510002,-80.36830139,US,US-FL
KFPR,"Ft Pierce/Treasure Coast Intl, FL, US",2025-09-12T21:53:00Z,2025-09-12 17:53:00,VFR,27.2,22.2,60,7,0,NA,1014,METAR KFPR 122153Z AUTO 06007KT 10SM FEW026 SCT034 BKN042 27/22 A2994 RMK AO2 SLP138 T02720222,2025-09-12T21:55:50Z,2025-09-12T17:55:50Z,St Lucie County International Airport,27.49510002,-80.36830139,US,US-FL
KFQD,"Rutherfordton/Marchman Fld, NC, US",2025-09-12T21:30:00Z,2025-09-12 21:30:00,VFR,27,13,110,6,0,NA,1020.7,METAR KFQD 122130Z AUTO 11006KT 10SM SCT060 27/13 A3014 RMK AO2,2025-09-12T21:45:05Z,2025-09-12T17:45:05Z,Rutherford County Marchman Field,35.4282,-81.935097,US,US-NC
KFQD,"Rutherfordton/Marchman Fld, NC, US",2025-09-12T21:40:00Z,2025-09-12 21:40:00,VFR,26,13,110,4,0,NA,1020.7,METAR KFQD 122140Z AUTO 11004KT 10SM SCT060 26/13 A3014 RMK AO2,2025-09-12T21:55:50Z,2025-09-12T17:55:50Z,Rutherford County Marchman Field,35.4282,-81.935097,US,US-NC
KFRG,"Farmingdale/Republic Arpt, NY, US",2025-09-12T20:53:00Z,2025-09-12 16:53:00,VFR,22.8,14.4,170,10,0,NA,1022.1,METAR KFRG 122053Z 17010KT 10SM OVC065 23/14 A3018 RMK AO2 SLP218 T02280144 56007,2025-09-12T21:45:05Z,2025-09-12T17:45:05Z,Republic Airport,40.7288017273,-73.4133987427,US,US-NY
KFRG,"Farmingdale/Republic Arpt, NY, US",2025-09-12T21:53:00Z,2025-09-12 17:53:00,VFR,21.1,15,160,8,0,NA,1022.1,METAR KFRG 122153Z 16008KT 10SM CLR 21/15 A3018 RMK AO2 SLP218 T02110150,2025-09-12T21:55:50Z,2025-09-12T17:55:50Z,Republic Airport,40.7288017273,-73.4133987427,US,US-NY
KFRH,"French Lick Muni, IN, US",2025-09-12T21:35:00Z,2025-09-12 17:35:00,VFR,28,12,0,0,0,NA,1020.4,METAR KFRH 122135Z AUTO 00000KT 10SM CLR 28/12 A3013 RMK AO1,2025-09-12T21:45:05Z,2025-09-12T17:45:05Z,French Lick Municipal Airport,38.5061988831,-86.63690185550001,US,US-IN
KFRI,"Ft Riley/Marshall Fld, KS, US",2025-09-12T20:55:00Z,2025-09-12 15:55:00,VFR,34.7,18.2,220,15,0,NA,1014.3,METAR KFRI 122055Z AUTO 22015KT 10SM CLR 35/18 A2995 RMK AO2 SLP128 T03470182 57015,2025-09-12T21:45:05Z,2025-09-12T17:45:05Z,Marshall Army Air Field,39.053021,-96.764202,US,US-KS
KFRM,"Fairmont Muni, MN, US",2025-09-12T20:56:00Z,2025-09-12 15:56:00,VFR,27.8,20,170,9,0,NA,1013.6,METAR KFRM 122056Z AUTO 17009KT 10SM FEW110 28/20 A2993 RMK AO2 LTG DSNT SE RAE08 SLP133 P0000 60001 T02780200 55007,2025-09-12T21:45:05Z,2025-09-12T17:45:05Z,Fairmont Municipal Airport,43.643901825,-94.4156036377,US,US-MN
KFRR,"Front Royal/Warren Cnty, VA, US",2025-09-12T21:35:00Z,2025-09-12 17:35:00,VFR,27.4,10.9,110,3,0,NA,1021.1,METAR KFRR 122135Z AUTO 11003KT 10SM SCT070 27/11 A3015 RMK AO2 T02740109,2025-09-12T21:45:05Z,2025-09-12T17:45:05Z,Front Royal Warren County Airport,38.9175,-78.253502,US,US-VA
KFSD,"Sioux Falls/Foss Fld, SD, US",2025-09-12T20:56:00Z,2025-09-12 15:56:00,VFR,31.1,17.8,220,7,0,NA,1011.6,METAR KFSD 122056Z 22007KT 10SM FEW170 BKN250 31/18 A2987 RMK AO2 SLP103 T03110178 55002,2025-09-12T21:45:05Z,2025-09-12T17:45:05Z,Sioux Falls Regional Airport / Joe Foss Field,43.585463,-96.741152,US,US-SD
KFSE,"Fosston Muni, MN, US",2025-09-12T21:35:00Z,2025-09-12 21:35:00,MVFR,25,17,150,6,0,NA,1014.3,METAR KFSE 122135Z AUTO 15006KT 10SM BKN028 25/17 A2995 RMK AO2,2025-09-12T21:45:05Z,2025-09-12T17:45:05Z,Fosston Municipal Airport-Anderson Field,47.5928,-95.773499,US,US-MN
KFSI,"Fort Sill/Post AAF, OK, US",2025-09-12T20:55:00Z,2025-09-12 15:55:00,VFR,36.5,13.9,180,11,0,NA,1016,METAR KFSI 122055Z 18011KT 10SM FEW025 SCT250 37/14 A3000 RMK AO2A SLPNO T03650139 57024 $,2025-09-12T21:45:05Z,2025-09-12T17:45:05Z,Henry Post Army Air Field,34.649799,-98.402199,US,US-OK
KFSK,"Fort Scott Muni, KS, US",2025-09-12T21:35:00Z,2025-09-12 16:35:00,VFR,33.7,18.4,220,12,0,NA,1017.4,METAR KFSK 122135Z AUTO 22012KT 10SM CLR 34/18 A3004 RMK AO2 T03370184,2025-09-12T21:45:05Z,2025-09-12T17:45:05Z,Fort Scott Municipal Airport,37.7984008789,-94.7694015503,US,US-KS
KFSM,"Fort Smith Rgnl, AR, US",2025-09-12T20:53:00Z,2025-09-12 15:53:00,VFR,33.9,18.3,VAR,6,0,NA,1018,METAR KFSM 122053Z VRB06KT 10SM CLR 34/18 A3006 RMK AO2 SLP174 T03390183 56023,2025-09-12T21:45:05Z,2025-09-12T17:45:05Z,Fort Smith Regional Airport,35.336601,-94.367401,US,US-AR
KFSM,"Fort Smith Rgnl, AR, US",2025-09-12T21:53:00Z,2025-09-12 16:53:00,VFR,33.9,18.9,160,7,0,NA,1017.7,METAR KFSM 122153Z 16007KT 10SM CLR 34/19 A3005 RMK AO2 SLP169 T03390189,2025-09-12T21:55:50Z,2025-09-12T17:55:50Z,Fort Smith Regional Airport,35.336601,-94.367401,US,US-AR
KFSO,"Highgate/Franklin Cnty, VT, US",2025-09-12T21:35:00Z,2025-09-12 21:35:00,VFR,20.3,7.1,0,0,0,NA,1022.8,METAR KFSO 122135Z AUTO 00000KT 10SM CLR 20/07 A3020 RMK AO2 T02030071,2025-09-12T21:45:05Z,2025-09-12T17:45:05Z,Franklin County State Airport,44.9403,-73.097504,US,US-VT
KFST,"Fort Stockton/Pecos Cnty, TX, US",2025-09-12T20:53:00Z,2025-09-12 15:53:00,VFR,32.8,15,130,15,24,NA,1017.7,METAR KFST 122053Z AUTO 13015G24KT 10SM CLR 33/15 A3005 RMK AO2 PK WND 12028/2007 SLP123 T03280150 58023,2025-09-12T21:45:05Z,2025-09-12T17:45:05Z,Fort Stockton Pecos County Airport,30.9157009125,-102.916000366,US,US-TX
KFST,"Fort Stockton/Pecos Cnty, TX, US",2025-09-12T21:53:00Z,2025-09-12 16:53:00,VFR,32.8,14.4,130,18,25,NA,1017,METAR KFST 122153Z AUTO 13018G25KT 10SM CLR 33/14 A3003 RMK AO2 SLP116 T03280144,2025-09-12T21:55:50Z,2025-09-12T17:55:50Z,Fort Stockton Pecos County Airport,30.9157009125,-102.916000366,US,US-TX
KFSW,"Fort Madison Muni, IA, US",2025-09-12T21:35:00Z,2025-09-12 16:35:00,VFR,33,18,170,9,0,NA,1017.4,METAR KFSW 122135Z AUTO 17009KT 10SM CLR 33/18 A3004 RMK AO2,2025-09-12T21:45:05Z,2025-09-12T17:45:05Z,Fort Madison Municipal Airport,40.659113,-91.327763,US,US-IA
KFTK,"Fort Knox/Godman AAF, KY, US",2025-09-12T20:55:00Z,2025-09-12 16:55:00,VFR,30.2,13.9,360,6,0,NA,1019.4,METAR KFTK 122055Z AUTO 36006KT 10SM CLR 30/14 A3010 RMK AO2 SLP189 T03020139 57017,2025-09-12T21:45:05Z,2025-09-12T17:45:05Z,Godman Army Air Field,37.9071006775,-85.9720993042,US,US-KY
KFTW,"Fort Worth/Meacham Intl, TX, US",2025-09-12T20:53:00Z,2025-09-12 15:53:00,VFR,34.4,15.6,170,10,18,NA,1017.4,METAR KFTW 122053Z 17010G18KT 10SM CLR 34/16 A3004 RMK AO2 SLP163 T03440156 56022 $,2025-09-12T21:45:05Z,2025-09-12T17:45:05Z,Fort Worth Meacham International Airport,32.819801,-97.362396,US,US-TX
KFTW,"Fort Worth/Meacham Intl, TX, US",2025-09-12T21:53:00Z,2025-09-12 16:53:00,VFR,33.9,15,160,8,0,NA,1017,METAR KFTW 122153Z 16008KT 10SM CLR 34/15 A3003 RMK AO2 SLP159 T03390150 $,2025-09-12T21:55:50Z,2025-09-12T17:55:50Z,Fort Worth Meacham International Airport,32.819801,-97.362396,US,US-TX
KFTY,"Atlanta/Fulton Cnty, GA, US",2025-09-12T20:53:00Z,2025-09-12 16:53:00,VFR,30.6,13.3,70,6,0,NA,1019,METAR KFTY 122053Z 07006KT 10SM CLR 31/13 A3009 RMK AO2 SLP179 T03060133 56016,2025-09-12T21:45:05Z,2025-09-12T17:45:05Z,Fulton County Airport Brown Field,33.7790985107,-84.5214004517,US,US-GA
KFTY,"Atlanta/Fulton Cnty, GA, US",2025-09-12T21:53:00Z,2025-09-12 17:53:00,VFR,28.9,13.3,110,6,0,NA,1018.7,METAR KFTY 122153Z 11006KT 10SM CLR 29/13 A3008 RMK AO2 SLP179 T02890133,2025-09-12T21:55:50Z,2025-09-12T17:55:50Z,Fulton County Airport Brown Field,33.7790985107,-84.5214004517,US,US-GA
KFUL,"Fullerton Muni, CA, US",2025-09-12T20:53:00Z,2025-09-12 13:53:00,VFR,25,15.6,190,8,15,NA,1012.6,METAR KFUL 122053Z 19008G15KT 10SM CLR 25/16 A2990 RMK AO2 SLP122 T02500156 56021,2025-09-12T21:45:05Z,2025-09-12T17:45:05Z,Fullerton Municipal Airport,33.8720016479,-117.980003357,US,US-CA
KFUL,"Fullerton Muni, CA, US",2025-09-12T21:53:00Z,2025-09-12 14:53:00,VFR,25.6,15,220,6,0,NA,1011.9,METAR KFUL 122153Z 22006KT 10SM CLR 26/15 A2988 RMK AO2 SLP116 T02560150,2025-09-12T21:55:50Z,2025-09-12T17:55:50Z,Fullerton Municipal Airport,33.8720016479,-117.980003357,US,US-CA
KFVE,"Frenchville/N Aroostook Rgnl, ME, US",2025-09-12T20:53:00Z,2025-09-12 16:53:00,VFR,16.7,4.4,320,8,0,NA,1022.1,METAR KFVE 122053Z AUTO 32008KT 10SM CLR 17/04 A3018 RMK AO2 SLP222 T01670044 56004,2025-09-12T21:45:05Z,2025-09-12T17:45:05Z,Northern Aroostook Regional Airport,47.2854995728,-68.31279754639999,US,US-ME
KFVE,"Frenchville/N Aroostook Rgnl, ME, US",2025-09-12T21:53:00Z,2025-09-12 17:53:00,VFR,15.6,4.4,330,4,0,NA,1022.1,METAR KFVE 122153Z AUTO 33004KT 10SM CLR 16/04 A3018 RMK AO2 SLP223 T01560044,2025-09-12T21:55:50Z,2025-09-12T17:55:50Z,Northern Aroostook Regional Airport,47.2854995728,-68.31279754639999,US,US-ME
KFVX,"Farmville Muni, VA, US",2025-09-12T21:35:00Z,2025-09-12 21:35:00,VFR,28.3,15.1,70,6,0,NA,1020.1,METAR KFVX 122135Z AUTO 07006KT 10SM CLR 28/15 A3012 RMK AO2 T02830151,2025-09-12T21:45:05Z,2025-09-12T17:45:05Z,Farmville Regional Airport,37.35749817,-78.43779755,US,US-VA
KFWA,"Fort Wayne Intl, IN, US",2025-09-12T20:54:00Z,2025-09-12 16:54:00,VFR,26.7,10.6,VAR,4,0,NA,1021.8,METAR KFWA 122054Z VRB04KT 10SM FEW070 FEW250 27/11 A3017 RMK AO2 SLP215 T02670106 56017,2025-09-12T21:45:05Z,2025-09-12T17:45:05Z,Fort Wayne International Airport,40.9785,-85.195099,US,US-IN
KFWC,"Fairfield Muni, IL, US",2025-09-12T21:35:00Z,2025-09-12 21:35:00,VFR,31.8,11.2,0,0,0,NA,1019,METAR KFWC 122135Z AUTO 00000KT 10SM CLR 32/11 A3009 RMK AO2 T03180112,2025-09-12T21:45:05Z,2025-09-12T17:45:05Z,Fairfield Municipal Airport,38.378601,-88.412697,US,US-IL
KFWN,"Sussex Arpt, NJ, US",2025-09-12T20:53:00Z,2025-09-12 20:53:00,VFR,25.6,12.2,0,0,0,NA,1021.4,METAR KFWN 122053Z AUTO 00000KT 10SM CLR 26/12 A3016 RMK AO2 SLP211 T02560122 56016,2025-09-12T21:45:05Z,2025-09-12T17:45:05Z,Sussex Airport,41.200199127197266,-74.62300109863281,US,US-NJ
KFWN,"Sussex Arpt, NJ, US",2025-09-12T21:53:00Z,2025-09-12 21:53:00,VFR,23.9,13.3,0,0,0,NA,1021.1,METAR KFWN 122153Z AUTO 00000KT 10SM CLR 24/13 A3015 RMK AO2 SLP209 T02390133,2025-09-12T21:55:50Z,2025-09-12T17:55:50Z,Sussex Airport,41.200199127197266,-74.62300109863281,US,US-NJ
KFWS,"Fort Worth/Spinks Arpt, TX, US",2025-09-12T20:46:00Z,2025-09-12 20:46:00,VFR,35,18,190,6,0,NA,1018.4,METAR KFWS 122046Z 19006KT 10SM FEW060 35/18 A3007,2025-09-12T21:45:05Z,2025-09-12T17:45:05Z,Fort Worth Spinks Airport,32.565201,-97.308098,US,US-TX
KFWS,"Fort Worth/Spinks Arpt, TX, US",2025-09-12T21:50:00Z,2025-09-12 21:50:00,VFR,34,18,170,10,0,NA,1017.7,METAR KFWS 122150Z 17010KT 10SM SCT060 34/18 A3005,2025-09-12T21:55:50Z,2025-09-12T17:55:50Z,Fort Worth Spinks Airport,32.565201,-97.308098,US,US-TX
KFXE,"Ft Lauderdale Exec, FL, US",2025-09-12T20:53:00Z,2025-09-12 16:53:00,VFR,26.1,25,300,8,0,8,1013.6,METAR KFXE 122053Z 30008KT 8SM VCTS SCT033 SCT045 OVC065 26/25 A2993 RMK AO2 LTG DSNT E AND SE SLP138 T02610250 55003,2025-09-12T21:45:05Z,2025-09-12T17:45:05Z,Fort Lauderdale Executive Airport,26.1972999573,-80.1707000732,US,US-FL
KFXE,"Ft Lauderdale Exec, FL, US",2025-09-12T21:53:00Z,2025-09-12 17:53:00,VFR,25,24.4,30,5,0,NA,1013.3,METAR KFXE 122153Z 03005KT 10SM VCTS FEW017 BKN095 OVC110 25/24 A2992 RMK AO2 LTG DSNT E AND SE SLP133 T02500244,2025-09-12T21:55:50Z,2025-09-12T17:55:50Z,Fort Lauderdale Executive Airport,26.1972999573,-80.1707000732,US,US-FL
KFXY,"Forest City Muni, IA, US",2025-09-12T21:35:00Z,2025-09-12 16:35:00,VFR,25,17,170,9,0,NA,1015,METAR KFXY 122135Z AUTO 17009KT 10SM RA SCT031 SCT050 BKN080 25/17 A2997 RMK AO2,2025-09-12T21:45:05Z,2025-09-12T17:45:05Z,Forest City Municipal Airport,43.23469925,-93.62409973,US,US-IA
KFYE,"Somerville/Fayette Cnty, TN, US",2025-09-12T21:35:00Z,2025-09-12 21:35:00,VFR,34,13,VAR,6,0,NA,1017.4,METAR KFYE 122135Z AUTO VRB06KT 10SM CLR 34/13 A3004 RMK A01,2025-09-12T21:45:05Z,2025-09-12T17:45:05Z,Fayette County Airport,35.207699,-89.394501,US,US-TN
KFYJ,"West Point/Middle Peninsula Arpt, VA, US",2025-09-12T21:35:00Z,2025-09-12 21:35:00,VFR,24.4,12.7,VAR,NA,0,7,1021.4,METAR KFYJ 122135Z AUTO 7SM CLR 24/13 A3016 RMK AO1 T02440127,2025-09-12T21:45:05Z,2025-09-12T17:45:05Z,Middle Peninsula Regional Airport,37.521299,-76.762762,US,US-VA
KFYM,"Fayetteville Muni, TN, US",2025-09-12T21:35:00Z,2025-09-12 16:35:00,VFR,29,15,VAR,6,13,NA,1020.1,METAR KFYM 122135Z AUTO VRB06G13KT 10SM CLR 29/15 A3012 RMK A01,2025-09-12T21:45:05Z,2025-09-12T17:45:05Z,Fayetteville Municipal Airport,35.059700012200004,-86.5640029907,US,US-TN
KFYV,"Fayetteville/Drake Fld, AR, US",2025-09-12T20:53:00Z,2025-09-12 15:53:00,VFR,32.8,20,VAR,4,0,NA,1019.7,METAR KFYV 122053Z VRB04KT 10SM CLR 33/20 A3011 RMK AO2 SLP182 T03280200 58021,2025-09-12T21:45:05Z,2025-09-12T17:45:05Z,Drake Field,36.00510025024414,-94.17009735107422,US,US-AR
KFYV,"Fayetteville/Drake Fld, AR, US",2025-09-12T21:53:00Z,2025-09-12 16:53:00,VFR,32.2,19.4,300,4,0,NA,1019.4,METAR KFYV 122153Z 30004KT 10SM CLR 32/19 A3010 RMK AO2 SLP177 T03220194,2025-09-12T21:55:50Z,2025-09-12T17:55:50Z,Drake Field,36.00510025024414,-94.17009735107422,US,US-AR
KFZG,"Fitzgerald Muni, GA, US",2025-09-12T21:35:00Z,2025-09-12 21:35:00,VFR,29.5,15.8,30,6,0,NA,1018,METAR KFZG 122135Z AUTO 03006KT 10SM CLR 30/16 A3006 RMK AO2 T02950158,2025-09-12T21:45:05Z,2025-09-12T17:45:05Z,Fitzgerald Municipal Airport,31.68370056152344,-83.27050018310547,US,US-GA
KFZY,"Fulton/Oswego Cnty, NY, US",2025-09-12T20:54:00Z,2025-09-12 20:54:00,VFR,22.8,11.7,0,0,0,NA,1022.1,METAR KFZY 122054Z AUTO 00000KT 10SM CLR 23/12 A3018 RMK AO2 SLP219 T02280117 58018,2025-09-12T21:45:05Z,2025-09-12T17:45:05Z,Oswego County Airport,43.3508,-76.3881,US,US-NY
KGAD,"Gadsden/NE Alabama Rgnl, AL, US",2025-09-12T20:56:00Z,2025-09-12 15:56:00,NA,29.4,16.1,80,6,0,NA,1018.7,METAR KGAD 122056Z AUTO 08006KT FEW060 29/16 A3008 RMK AO2 SLP186 T02940161 56018 PWINO $,2025-09-12T21:45:05Z,2025-09-12T17:45:05Z,Northeast Alabama Regional Airport,33.972599,-86.088996,US,US-AL
KGAF,"Grafton/Hutson Fld, ND, US",2025-09-12T21:35:00Z,2025-09-12 21:35:00,VFR,25,20,90,9,0,9,1013.6,METAR KGAF 122135Z AUTO 09009KT 9SM SCT026 25/20 A2993 RMK AO2,2025-09-12T21:45:05Z,2025-09-12T17:45:05Z,Hutson Field,48.40470123291016,-97.37090301513672,US,US-ND
KGAF,"Grafton/Hutson Fld, ND, US",2025-09-12T21:55:00Z,2025-09-12 21:55:00,VFR,26,20,90,5,0,9,1013.6,METAR KGAF 122155Z AUTO 09005KT 9SM FEW027 26/20 A2993 RMK AO2,2025-09-12T21:55:50Z,2025-09-12T17:55:50Z,Hutson Field,48.40470123291016,-97.37090301513672,US,US-ND
KGAG,"Gage Arpt, OK, US",2025-09-12T20:53:00Z,2025-09-12 15:53:00,VFR,33.3,12.2,180,14,20,NA,1017.7,METAR KGAG 122053Z AUTO 18014G20KT 10SM CLR 33/12 A3005 RMK AO2 PK WND 21026/2026 SLP146 T03330122 58020,2025-09-12T21:45:05Z,2025-09-12T17:45:05Z,Gage Heibeck Airport,36.295502,-99.776398,US,US-OK
KGAG,"Gage Arpt, OK, US",2025-09-12T21:53:00Z,2025-09-12 16:53:00,VFR,33.3,11.1,190,14,22,NA,1017,METAR KGAG 122153Z AUTO 19014G22KT 10SM CLR 33/11 A3003 RMK AO2 SLP140 T03330111,2025-09-12T21:55:50Z,2025-09-12T17:55:50Z,Gage Heibeck Airport,36.295502,-99.776398,US,US-OK
KGAI,"Gaithersburg/Montgomery Cnty, MD, US",2025-09-12T20:56:00Z,2025-09-12 16:56:00,VFR,26.7,12.2,VAR,3,0,NA,1022.4,METAR KGAI 122056Z AUTO VRB03KT 10SM CLR 27/12 A3019 RMK AO2 SLP231 6//// T02670122 56008 PNO $,2025-09-12T21:45:05Z,2025-09-12T17:45:05Z,Montgomery County Airpark,39.168301,-77.166,US,US-MD
KGAO,"Galliano/Miller Arpt, LA, US",2025-09-12T21:35:00Z,2025-09-12 21:35:00,VFR,32.2,16.7,0,0,0,NA,1017.7,METAR KGAO 122135Z AUTO 00000KT 10SM CLR 32/17 A3005 RMK AO2 T03220167,2025-09-12T21:45:05Z,2025-09-12T17:45:05Z,South Lafourche Leonard Miller Jr Airport,29.441052,-90.261129,US,US-LA
KGBD,"Great Bend Muni, KS, US",2025-09-12T20:56:00Z,2025-09-12 15:56:00,VFR,35,15.6,200,16,0,NA,1016,METAR KGBD 122056Z AUTO 20016KT 10SM CLR 35/16 A3000 RMK AO2 SLP137 T03500156 56014 $,2025-09-12T21:45:05Z,2025-09-12T17:45:05Z,Great Bend Municipal Airport,38.344299,-98.8592,US,US-KS
KGBG,"Galesburg Muni, IL, US",2025-09-12T21:35:00Z,2025-09-12 16:35:00,VFR,30.5,15,190,7,0,NA,1018.7,METAR KGBG 122135Z AUTO 19007KT 10SM CLR 31/15 A3008 RMK AO2 T03050150,2025-09-12T21:45:05Z,2025-09-12T17:45:05Z,Galesburg Municipal Airport,40.9379997253,-90.431098938,US,US-IL
KGCC,"Gillette/Campbell Cnty, WY, US",2025-09-12T20:53:00Z,2025-09-12 14:53:00,VFR,26.7,11.1,20,12,17,NA,1016.3,METAR KGCC 122053Z AUTO 02012G17KT 10SM CLR 27/11 A3001 RMK AO2 SLP118 T02670111 58012,2025-09-12T21:45:05Z,2025-09-12T17:45:05Z,Northeast Wyoming Regional Airport,44.3489,-105.539001,US,US-WY
KGCC,"Gillette/Campbell Cnty, WY, US",2025-09-12T21:53:00Z,2025-09-12 15:53:00,VFR,25,11.1,20,16,23,NA,1015.7,METAR KGCC 122153Z AUTO 02016G23KT 10SM CLR 25/11 A2999 RMK AO2 SLP119 T02500111,2025-09-12T21:55:50Z,2025-09-12T17:55:50Z,Northeast Wyoming Regional Airport,44.3489,-105.539001,US,US-WY
KGCD,"John Day/Grant Cnty, OR, US",2025-09-12T21:35:00Z,2025-09-12 14:35:00,VFR,23.6,8,0,0,0,NA,1017.4,METAR KGCD 122135Z AUTO 00000KT 10SM CLR 24/08 A3004 RMK AO2 T02360080,2025-09-12T21:45:05Z,2025-09-12T17:45:05Z,Grant County Regional Airport / Ogilvie Field,44.404202,-118.962997,US,US-OR
KGCK,"Garden City Rgnl, KS, US",2025-09-12T20:54:00Z,2025-09-12 15:54:00,VFR,32.2,12.8,200,19,29,NA,1016,METAR KGCK 122054Z 20019G29KT 10SM CLR 32/13 A3000 RMK AO2 PK WND 18031/2040 SLP125 T03220128 58021,2025-09-12T21:45:05Z,2025-09-12T17:45:05Z,Garden City Regional Airport,37.9275016785,-100.723999023,US,US-KS
KGCM,"Claremore Rgnl, OK, US",2025-09-12T21:35:00Z,2025-09-12 21:35:00,VFR,33,23,190,5,0,NA,1017.7,METAR KGCM 122135Z AUTO 19005KT 10SM CLR 33/23 A3005 RMK AO2,2025-09-12T21:45:05Z,2025-09-12T17:45:05Z,Claremore Regional Airport,36.292702,-95.479599,US,US-OK
KGCN,"Grand Canyon Park Arpt, AZ, US",2025-09-12T20:54:00Z,2025-09-12 13:54:00,VFR,24.4,-6.1,220,21,32,NA,1020.4,METAR KGCN 122054Z 22021G32KT 10SM CLR 24/M06 A3013 RMK AO2 PK WND 20032/2046 SLP111 T02441061 58019,2025-09-12T21:45:05Z,2025-09-12T17:45:05Z,Grand Canyon National Park Airport,35.9524,-112.147003,US,US-AZ
KGCY,"Greeneville/Greene Cnty, TN, US",2025-09-12T21:35:00Z,2025-09-12 17:35:00,VFR,26,8,360,3,0,NA,1021.1,METAR KGCY 122135Z AUTO 36003KT 10SM CLR 26/08 A3015 RMK A01,2025-09-12T21:45:05Z,2025-09-12T17:45:05Z,Greeneville Municipal Airport,36.195648,-82.811482,US,US-TN
KGDB,"Granite Falls Muni, MN, US",2025-09-12T21:35:00Z,2025-09-12 21:35:00,VFR,27.9,18,80,10,16,NA,1014.3,METAR KGDB 122135Z AUTO 08010G16KT 10SM CLR 28/18 A2995 RMK AO2 T02790180,2025-09-12T21:45:05Z,2025-09-12T17:45:05Z,Granite Falls Municipal Airport / Lenzen-Roe Memorial Field,44.7533,-95.556,US,US-MN
KGDJ,"Granbury Muni, TX, US",2025-09-12T21:35:00Z,2025-09-12 21:35:00,NA,34.3,16.5,170,8,0,NA,1018,METAR KGDJ 122135Z AUTO 17008KT CLR 34/17 A3006 RMK AO2 T03430165 PWINO,2025-09-12T21:45:05Z,2025-09-12T17:45:05Z,Granbury Regional Airport,32.442222,-97.824444,US,US-TX
KGDV,"Glendive/Dawson Arpt, MT, US",2025-09-12T20:56:00Z,2025-09-12 14:56:00,VFR,29.4,11.1,310,3,0,NA,1014.3,METAR KGDV 122056Z AUTO 31003KT 10SM CLR 29/11 A2995 RMK AO2 SLP123 T02940111 58007 TSNO $,2025-09-12T21:45:05Z,2025-09-12T17:45:05Z,Dawson Community Airport,47.137658,-104.80691,US,US-MT
KGED,"Georgetown/Sussex Cnty, DE, US",2025-09-12T20:54:00Z,2025-09-12 16:54:00,VFR,25,11.1,90,5,0,NA,1021.4,METAR KGED 122054Z AUTO 09005KT 10SM CLR 25/11 A3016 RMK AO2 SLP213 T02500111 55008,2025-09-12T21:45:05Z,2025-09-12T17:45:05Z,Delaware Coastal Airport,38.689201,-75.358902,US,US-DE
KGEG,"Spokane Intl, WA, US",2025-09-12T20:53:00Z,2025-09-12 13:53:00,VFR,22.8,11.7,200,7,0,8,1016.3,METAR KGEG 122053Z 20007KT 8SM FEW040 FEW065 SCT200 23/12 A3001 RMK AO2 SLP147 T02280117 58015 $,2025-09-12T21:45:05Z,2025-09-12T17:45:05Z,Spokane International Airport,47.6199,-117.533997,US,US-WA
KGEG,"Spokane Intl, WA, US",2025-09-12T21:53:00Z,2025-09-12 14:53:00,VFR,24.4,11.1,VAR,5,0,9,1015.7,METAR KGEG 122153Z VRB05KT 9SM FEW047 FEW070 SCT250 24/11 A2999 RMK AO2 SLP139 T02440111 $,2025-09-12T21:55:50Z,2025-09-12T17:55:50Z,Spokane International Airport,47.6199,-117.533997,US,US-WA
KGEU,"Glendale Muni, AZ, US",2025-09-12T20:55:00Z,2025-09-12 20:55:00,VFR,36,11,220,12,0,NA,1007.5,METAR KGEU 122055Z 22012KT 10SM CLR 36/11 A2975,2025-09-12T21:45:05Z,2025-09-12T17:45:05Z,Glendale Municipal Airport,33.52690124511719,-112.29499816894533,US,US-AZ
KGEU,"Glendale Muni, AZ, US",2025-09-12T21:47:00Z,2025-09-12 21:47:00,VFR,35,10,190,4,0,NA,1006.9,METAR KGEU 122147Z 19004KT 10SM CLR 35/10 A2973,2025-09-12T21:55:50Z,2025-09-12T17:55:50Z,Glendale Municipal Airport,33.52690124511719,-112.29499816894533,US,US-AZ
KGEV,"Jefferson/Ashe Cnty, NC, US",2025-09-12T21:40:00Z,2025-09-12 21:40:00,VFR,21.3,12.7,150,3,0,NA,1024.1,METAR KGEV 122140Z AUTO 15003KT 10SM BKN065 BKN080 21/13 A3024 RMK AO2 T02130127,2025-09-12T21:45:05Z,2025-09-12T17:45:05Z,Ashe County Airport,36.432418,-81.418519,US,US-NC
KGEV,"Jefferson/Ashe Cnty, NC, US",2025-09-12T21:50:00Z,2025-09-12 21:50:00,VFR,21.6,12.8,0,0,0,NA,1024.1,METAR KGEV 122150Z AUTO 00000KT 10SM BKN065 BKN080 22/13 A3024 RMK AO2 T02160128,2025-09-12T21:55:50Z,2025-09-12T17:55:50Z,Ashe County Airport,36.432418,-81.418519,US,US-NC
KGEY,"Greybull/South Big Horn Arpt, WY, US",2025-09-12T20:53:00Z,2025-09-12 14:53:00,VFR,27.2,2.8,0,0,0,NA,1014.6,METAR KGEY 122053Z AUTO 00000KT 10SM CLR 27/03 A2996 RMK AO2 SLP111 T02720028 56022,2025-09-12T21:45:05Z,2025-09-12T17:45:05Z,South Big Horn County Airport,44.51679993,-108.0830002,US,US-WY
KGEY,"Greybull/South Big Horn Arpt, WY, US",2025-09-12T21:53:00Z,2025-09-12 15:53:00,VFR,27.8,2.8,VAR,3,0,NA,1013.6,METAR KGEY 122153Z AUTO VRB03KT 10SM CLR 28/03 A2993 RMK AO2 SLP097 T02780028,2025-09-12T21:55:50Z,2025-09-12T17:55:50Z,South Big Horn County Airport,44.51679993,-108.0830002,US,US-WY
KGEZ,"Shelbyville Muni, IN, US",2025-09-12T20:53:00Z,2025-09-12 20:53:00,VFR,28.3,10,0,0,0,NA,1020.7,METAR KGEZ 122053Z AUTO 00000KT 10SM CLR 28/10 A3014 RMK AO2 SLP201 T02830100 56019,2025-09-12T21:45:05Z,2025-09-12T17:45:05Z,Shelbyville Municipal Airport,39.586044,-85.804024,US,US-IN
KGEZ,"Shelbyville Muni, IN, US",2025-09-12T21:53:00Z,2025-09-12 21:53:00,VFR,28.9,10,0,0,0,NA,1020.4,METAR KGEZ 122153Z AUTO 00000KT 10SM CLR 29/10 A3013 RMK AO2 SLP198 T02890100,2025-09-12T21:55:50Z,2025-09-12T17:55:50Z,Shelbyville Municipal Airport,39.586044,-85.804024,US,US-IN
KGFA,"Malmstrom AFB, MT, US",2025-09-12T20:59:00Z,2025-09-12 14:59:00,VFR,27,8,40,11,17,NA,1014.3,SPECI KGFA 122059Z 04011G17KT 10SM BKN075 27/08 A2995 RMK AO2A WSHFT 57 LTG DSNT SE SLP117 $,2025-09-12T21:45:05Z,2025-09-12T17:45:05Z,Malmstrom Air Force Base,47.504699707,-111.18699646,US,US-MT
KGFK,"Grand Forks Intl, ND, US",2025-09-12T20:53:00Z,2025-09-12 15:53:00,VFR,26.7,18.9,70,7,0,NA,1013,METAR KGFK 122053Z 07007KT 10SM SCT028 BKN130 27/19 A2991 RMK AO2 SLP126 T02670189 55002,2025-09-12T21:45:05Z,2025-09-12T17:45:05Z,Grand Forks International Airport,47.949299,-97.176102,US,US-ND
KGFK,"Grand Forks Intl, ND, US",2025-09-12T21:53:00Z,2025-09-12 16:53:00,MVFR,26.7,18.9,110,6,0,NA,1013,METAR KGFK 122153Z 11006KT 10SM BKN029 BKN130 27/19 A2991 RMK AO2 SLP126 T02670189,2025-09-12T21:55:50Z,2025-09-12T17:55:50Z,Grand Forks International Airport,47.949299,-97.176102,US,US-ND
KGFL,"Glens Falls/Warren Cnty, NY, US",2025-09-12T20:53:00Z,2025-09-12 16:53:00,VFR,23.9,7.8,0,0,0,NA,1021.4,METAR KGFL 122053Z AUTO 00000KT 10SM CLR 24/08 A3016 RMK AO2 SLP215 T02390078 56019,2025-09-12T21:45:05Z,2025-09-12T17:45:05Z,Floyd Bennett Memorial Airport,43.3412017822,-73.6102981567,US,US-NY
KGFL,"Glens Falls/Warren Cnty, NY, US",2025-09-12T21:53:00Z,2025-09-12 17:53:00,VFR,23.3,11.7,0,0,0,NA,1021.4,METAR KGFL 122153Z AUTO 00000KT 10SM CLR 23/12 A3016 RMK AO2 SLP214 T02330117,2025-09-12T21:55:50Z,2025-09-12T17:55:50Z,Floyd Bennett Memorial Airport,43.3412017822,-73.6102981567,US,US-NY
KGGE,"Georgetown Cnty, SC, US",2025-09-12T21:35:00Z,2025-09-12 17:35:00,VFR,26,16,20,7,0,NA,1018,METAR KGGE 122135Z AUTO 02007KT 10SM BKN050 OVC055 26/16 A3006 RMK AO2,2025-09-12T21:45:05Z,2025-09-12T17:45:05Z,Georgetown County Airport,33.3116989136,-79.3196029663,US,US-SC
KGGF,"Grant Muni, NE, US",2025-09-12T21:35:00Z,2025-09-12 21:35:00,VFR,33,12,180,8,0,NA,1013.3,METAR KGGF 122135Z AUTO 18008KT 10SM CLR 33/12 A2992 RMK AO2,2025-09-12T21:45:05Z,2025-09-12T17:45:05Z,Grant Municipal Airport,40.869499,-101.733002,US,US-NE
KGGG,"Longview/Gregg Cnty, TX, US",2025-09-12T20:53:00Z,2025-09-12 15:53:00,VFR,33.9,20,0,0,0,NA,1017.7,METAR KGGG 122053Z 00000KT 10SM CLR 34/20 A3005 RMK AO2 SLP169 T03390200 57021 $,2025-09-12T21:45:05Z,2025-09-12T17:45:05Z,East Texas Regional Airport,32.38399887084961,-94.71150207519533,US,US-TX
KGGG,"Longview/Gregg Cnty, TX, US",2025-09-12T21:53:00Z,2025-09-12 16:53:00,VFR,33.9,20,50,5,0,NA,1017.4,METAR KGGG 122153Z 05005KT 10SM FEW055 34/20 A3004 RMK AO2 SLP166 T03390200 $,2025-09-12T21:55:50Z,2025-09-12T17:55:50Z,East Texas Regional Airport,32.38399887084961,-94.71150207519533,US,US-TX
KGGI,"Grinnell Rgnl, IA, US",2025-09-12T21:35:00Z,2025-09-12 21:35:00,VFR,27.2,19,160,10,0,NA,1016.7,METAR KGGI 122135Z AUTO 16010KT 10SM CLR 27/19 A3002 RMK AO2 T02720190,2025-09-12T21:45:05Z,2025-09-12T17:45:05Z,Grinnell Regional Airport,41.70991,-92.736052,US,US-IA
KGGP,"Logansport/Cass Cnty, IN, US",2025-09-12T21:36:00Z,2025-09-12 21:36:00,VFR,28,9,0,0,0,NA,1021.1,METAR KGGP 122136Z AUTO 00000KT 10SM CLR 28/09 A3015 RMK AO2,2025-09-12T21:45:05Z,2025-09-12T17:45:05Z,Logansport Cass County Airport,40.711201,-86.374901,US,US-IN
KGGW,"Glasgow Intl Arpt, MT, US",2025-09-12T20:53:00Z,2025-09-12 14:53:00,VFR,27.2,11.1,VAR,6,0,NA,1014,METAR KGGW 122053Z AUTO VRB06KT 10SM CLR 27/11 A2994 RMK AO2 SLP130 T02720111 56014 TSNO,2025-09-12T21:45:05Z,2025-09-12T17:45:05Z,Glasgow Valley County Airport Wokal Field,48.212502,-106.614998,US,US-MT
KGGW,"Glasgow Intl Arpt, MT, US",2025-09-12T21:53:00Z,2025-09-12 15:53:00,VFR,27.2,10.6,0,0,0,NA,1013.3,METAR KGGW 122153Z AUTO 00000KT 10SM CLR 27/11 A2992 RMK AO2 SLP124 T02720106 TSNO,2025-09-12T21:55:50Z,2025-09-12T17:55:50Z,Glasgow Valley County Airport Wokal Field,48.212502,-106.614998,US,US-MT
KGHG,"Marshfield Muni, MA, US",2025-09-12T21:35:00Z,2025-09-12 21:35:00,VFR,19,13,90,5,10,NA,1023.1,METAR KGHG 122135Z AUTO 09005G10KT 10SM CLR 19/13 A3021 RMK AO2,2025-09-12T21:45:05Z,2025-09-12T17:45:05Z,Marshfield Municipal George Harlow Field,42.097665,-70.67283,US,US-MA
KGHW,"Glenwood Muni, MN, US",2025-09-12T21:35:00Z,2025-09-12 21:35:00,VFR,19,18,130,18,23,NA,1013,METAR KGHW 122135Z AUTO 13018G23KT 10SM RA CLR 19/18 A2991 RMK AO2 LTG DSNT SE,2025-09-12T21:45:05Z,2025-09-12T17:45:05Z,Glenwood Municipal Airport,45.64390182495117,-95.32039642333984,US,US-MN
KGIC,"Grangeville/Idaho Cnty, ID, US",2025-09-12T21:35:00Z,2025-09-12 14:35:00,VFR,21,12,50,8,0,NA,1017.4,METAR KGIC 122135Z AUTO 05008KT 10SM CLR 21/12 A3004 RMK AO1,2025-09-12T21:45:05Z,2025-09-12T17:45:05Z,Idaho County Airport,45.9426,-116.123001,US,US-ID
KGIF,"Winter Haven Rgnl, FL, US",2025-09-12T21:38:00Z,2025-09-12 17:38:00,VFR,27.8,21.7,40,13,0,NA,1015,SPECI KGIF 122138Z AUTO 04013KT 10SM FEW027 BKN037 28/22 A2997 RMK AO1 T02780217 $,2025-09-12T21:45:05Z,2025-09-12T17:45:05Z,Winter Haven Regional Airport - Gilbert Field,28.062901,-81.753304,US,US-FL
KGIF,"Winter Haven Rgnl, FL, US",2025-09-12T21:53:00Z,2025-09-12 17:53:00,VFR,27.2,22.2,50,12,0,NA,1015,METAR KGIF 122153Z AUTO 05012KT 10SM FEW027 SCT037 SCT050 27/22 A2997 RMK AO1 SLP148 T02720222 $,2025-09-12T21:55:50Z,2025-09-12T17:55:50Z,Winter Haven Regional Airport - Gilbert Field,28.062901,-81.753304,US,US-FL
KGJT,"Grand Junction Rgnl, CO, US",2025-09-12T21:41:00Z,2025-09-12 15:41:00,VFR,13.3,10.6,360,17,0,NA,1019,SPECI KGJT 122141Z 36017KT 10SM TS FEW040 OVC075 13/11 A3009 RMK AO2 PK WND 24059/2112 WSHFT 2121 LTG DSNT ALQDS TSB25 P0007 T01330106 $,2025-09-12T21:45:05Z,2025-09-12T17:45:05Z,Grand Junction Regional Airport,39.126663,-108.529387,US,US-CO
KGJT,"Grand Junction Rgnl, CO, US",2025-09-12T21:53:00Z,2025-09-12 15:53:00,VFR,13.9,10.6,360,15,25,8,1019,METAR KGJT 122153Z 36015G25KT 8SM TS FEW041 BKN080 OVC095 14/11 A3009 RMK AO2 PK WND 24059/2112 WSHFT 2121 LTG DSNT N AND NE AND S TSB25 SLP136 P0007 T01390106 $,2025-09-12T21:55:50Z,2025-09-12T17:55:50Z,Grand Junction Regional Airport,39.126663,-108.529387,US,US-CO
KGKJ,"Meadville Arpt, PA, US",2025-09-12T20:53:00Z,2025-09-12 16:53:00,VFR,25,10,340,5,0,NA,1022.1,METAR KGKJ 122053Z AUTO 34005KT 10SM CLR 25/10 A3018 RMK AO2 SLP215 T02500100 56019,2025-09-12T21:45:05Z,2025-09-12T17:45:05Z,Port Meadville Airport,41.626499,-80.214699,US,US-PA
KGKJ,"Meadville Arpt, PA, US",2025-09-12T21:53:00Z,2025-09-12 17:53:00,VFR,24.4,11.7,350,7,0,NA,1022.1,METAR KGKJ 122153Z AUTO 35007KT 10SM CLR 24/12 A3018 RMK AO2 SLP216 T02440117,2025-09-12T21:55:50Z,2025-09-12T17:55:50Z,Port Meadville Airport,41.626499,-80.214699,US,US-PA
KGKT,"Gatlinburg-Pigeon Forge Arpt, TN, US",2025-09-12T21:35:00Z,2025-09-12 17:35:00,VFR,28,12,20,5,0,NA,1020.1,METAR KGKT 122135Z AUTO 02005KT 10SM CLR 28/12 A3012 RMK A01,2025-09-12T21:45:05Z,2025-09-12T17:45:05Z,Gatlinburg-Pigeon Forge Airport,35.85779953,-83.52870178219999,US,US-TN
KGKY,"Arlington Muni, TX, US",2025-09-12T20:53:00Z,2025-09-12 20:53:00,VFR,35,16.7,190,9,16,NA,1017.7,METAR KGKY 122053Z 19009G16KT 10SM FEW070 35/17 A3005 RMK AO2 SLP167 T03500167 56022,2025-09-12T21:45:05Z,2025-09-12T17:45:05Z,Arlington Municipal Airport,32.66389846801758,-97.09429931640624,US,US-TX
KGKY,"Arlington Muni, TX, US",2025-09-12T21:53:00Z,2025-09-12 21:53:00,VFR,35,16.7,VAR,5,15,NA,1017.4,METAR KGKY 122153Z VRB05G15KT 10SM FEW070 35/17 A3004 RMK AO2 SLP163 T03500167,2025-09-12T21:55:50Z,2025-09-12T17:55:50Z,Arlington Municipal Airport,32.66389846801758,-97.09429931640624,US,US-TX
KGLD,"Goodland/Renner Fld, KS, US",2025-09-12T20:53:00Z,2025-09-12 14:53:00,VFR,33.3,11.1,210,14,24,NA,1015,METAR KGLD 122053Z AUTO 21014G24KT 10SM CLR 33/11 A2997 RMK AO2 PK WND 21030/2019 SLP092 60000 T03330111 58018,2025-09-12T21:45:05Z,2025-09-12T17:45:05Z,Goodland Municipal Airport,39.370701,-101.699753,US,US-KS
KGLD,"Goodland/Renner Fld, KS, US",2025-09-12T21:53:00Z,2025-09-12 15:53:00,VFR,33.3,9.4,210,15,30,NA,1014.6,METAR KGLD 122153Z AUTO 21015G30KT 10SM CLR 33/09 A2996 RMK AO2 PK WND 21030/2147 RAB49E52 SLP091 P0000 T03330094,2025-09-12T21:55:50Z,2025-09-12T17:55:50Z,Goodland Municipal Airport,39.370701,-101.699753,US,US-KS
KGLH,"Greenville/Mid Delta Arpt, MS, US",2025-09-12T20:53:00Z,2025-09-12 15:53:00,VFR,33.9,20.6,360,9,0,NA,1017,METAR KGLH 122053Z 36009KT 10SM FEW070 34/21 A3003 RMK AO2 SLP174 T03390206 56023,2025-09-12T21:45:05Z,2025-09-12T17:45:05Z,Mid Delta Regional Airport,33.482899,-90.985603,US,US-MS
KGLH,"Greenville/Mid Delta Arpt, MS, US",2025-09-12T21:53:00Z,2025-09-12 16:53:00,VFR,33.9,18.3,20,4,0,NA,1016.7,METAR KGLH 122153Z 02004KT 10SM BKN110 34/18 A3002 RMK AO2 SLP171 T03390183,2025-09-12T21:55:50Z,2025-09-12T17:55:50Z,Mid Delta Regional Airport,33.482899,-90.985603,US,US-MS
KGLR,"Gaylord Rgnl, MI, US",2025-09-12T20:53:00Z,2025-09-12 16:53:00,VFR,23.3,12.2,290,7,0,NA,1022.4,METAR KGLR 122053Z AUTO 29007KT 10SM CLR 23/12 A3019 RMK AO2 SLP220 T02330122 56010,2025-09-12T21:45:05Z,2025-09-12T17:45:05Z,Gaylord Regional Airport,45.0135002136,-84.7035980225,US,US-MI
KGLR,"Gaylord Rgnl, MI, US",2025-09-12T21:53:00Z,2025-09-12 17:53:00,VFR,22.8,12.8,VAR,6,0,NA,1022.1,METAR KGLR 122153Z AUTO VRB06KT 10SM CLR 23/13 A3018 RMK AO2 SLP220 T02280128,2025-09-12T21:55:50Z,2025-09-12T17:55:50Z,Gaylord Regional Airport,45.0135002136,-84.7035980225,US,US-MI
KGLW,"Glasgow Muni, KY, US",2025-09-12T21:35:00Z,2025-09-12 16:35:00,VFR,30.2,12.4,350,4,0,NA,1020.1,METAR KGLW 122135Z AUTO 35004KT 10SM CLR 30/12 A3012 RMK AO2 T03020124,2025-09-12T21:45:05Z,2025-09-12T17:45:05Z,Glasgow Municipal Airport,37.03179932,-85.9536972,US,US-KY
KGLY,"Clinton Mem, MO, US",2025-09-12T21:35:00Z,2025-09-12 21:35:00,VFR,36,15,200,6,11,NA,1016.7,METAR KGLY 122135Z AUTO 20006G11KT 10SM CLR 36/15 A3002 RMK AO2,2025-09-12T21:45:05Z,2025-09-12T17:45:05Z,Clinton Memorial Airport,38.35660171508789,-93.68419647216795,US,US-MO
KGMJ,"Grove Muni, OK, US",2025-09-12T21:35:00Z,2025-09-12 21:35:00,VFR,33,19,190,6,0,NA,1018,METAR KGMJ 122135Z AUTO 19006KT 10SM CLR 33/19 A3006 RMK AO2 TSNO,2025-09-12T21:45:05Z,2025-09-12T17:45:05Z,Grove Municipal Airport,36.6068,-94.738602,US,US-OK
KGMU,"Greenville/Downtown Arpt, SC, US",2025-09-12T20:53:00Z,2025-09-12 16:53:00,VFR,27.2,11.7,70,7,0,NA,1020.4,METAR KGMU 122053Z 07007KT 10SM FEW070 27/12 A3013 RMK AO2 SLP194 T02720117 56013,2025-09-12T21:45:05Z,2025-09-12T17:45:05Z,Greenville Downtown Airport,34.847903,-82.350217,US,US-SC
KGMU,"Greenville/Downtown Arpt, SC, US",2025-09-12T21:53:00Z,2025-09-12 17:53:00,VFR,28.3,12.8,100,7,0,NA,1020.4,METAR KGMU 122153Z 10007KT 10SM CLR 28/13 A3013 RMK AO2 SLP194 T02830128,2025-09-12T21:55:50Z,2025-09-12T17:55:50Z,Greenville Downtown Airport,34.847903,-82.350217,US,US-SC
KGNB,"Granby/Grand Cnty, CO, US",2025-09-12T21:35:00Z,2025-09-12 21:35:00,VFR,17,4.9,110,4,0,NA,1026.8,METAR KGNB 122135Z AUTO 11004KT 10SM CLR 17/05 A3032 RMK AO2 LTG DSNT SW T01700049,2025-09-12T21:45:05Z,2025-09-12T17:45:05Z,Granby Grand County Airport,40.089698791503906,-105.91699981689452,US,US-CO
KGNC,"Seminole/Gaines Cnty, TX, US",2025-09-12T21:35:00Z,2025-09-12 21:35:00,VFR,31.8,11.4,140,14,20,NA,1020.1,METAR KGNC 122135Z AUTO 14014G20KT 10SM CLR 32/11 A3012 RMK AO2 T03180114,2025-09-12T21:45:05Z,2025-09-12T17:45:05Z,Gaines County Airport,32.676807,-102.649927,US,US-TX
KGNG,"Gooding Muni, ID, US",2025-09-12T21:35:00Z,2025-09-12 15:35:00,VFR,24,6,240,8,0,NA,1016.3,METAR KGNG 122135Z AUTO 24008KT 10SM CLR 24/06 A3001 RMK AO2,2025-09-12T21:45:05Z,2025-09-12T17:45:05Z,Gooding Municipal Airport,42.91719818,-114.7649994,US,US-ID
KGNT,"Grants-Milan Muni, NM, US",2025-09-12T20:55:00Z,2025-09-12 14:55:00,VFR,19.6,8.1,240,21,29,NA,1023.5,METAR KGNT 122055Z AUTO 24021G29KT 10SM TS SCT090 OVC110 20/08 A3022 RMK AO2 LTG DSNT ALQDS T01960081,2025-09-12T21:45:05Z,2025-09-12T17:45:05Z,Grants-Milan Municipal Airport,35.167301178,-107.902000427,US,US-NM
KGNV,"Gainesville Rgnl, FL, US",2025-09-12T20:53:00Z,2025-09-12 16:53:00,VFR,30,18.9,30,14,18,NA,1016.3,METAR KGNV 122053Z 03014G18KT 10SM FEW055 30/19 A3001 RMK AO2 SLP160 T03000189 56013,2025-09-12T21:45:05Z,2025-09-12T17:45:05Z,Gainesville Regional Airport,29.6900997162,-82.2717971802,US,US-FL
KGNV,"Gainesville Rgnl, FL, US",2025-09-12T21:53:00Z,2025-09-12 17:53:00,VFR,28.9,18.9,50,13,0,NA,1016.7,METAR KGNV 122153Z 05013KT 10SM CLR 29/19 A3002 RMK AO2 SLP162 T02890189,2025-09-12T21:55:50Z,2025-09-12T17:55:50Z,Gainesville Regional Airport,29.6900997162,-82.2717971802,US,US-FL
KGOK,"Guthrie-Edmond Rgnl, OK, US",2025-09-12T20:53:00Z,2025-09-12 15:53:00,VFR,35,16.1,190,9,0,NA,1017.4,METAR KGOK 122053Z AUTO 19009KT 10SM CLR 35/16 A3004 RMK AO2 SLP161 T03500161 58018,2025-09-12T21:45:05Z,2025-09-12T17:45:05Z,Guthrie-Edmond Regional Airport,35.84980011,-97.41560364,US,US-OK
KGOK,"Guthrie-Edmond Rgnl, OK, US",2025-09-12T21:53:00Z,2025-09-12 16:53:00,VFR,34.4,16.7,170,9,0,NA,1016.7,METAR KGOK 122153Z AUTO 17009KT 10SM CLR 34/17 A3002 RMK AO2 SLP155 T03440167,2025-09-12T21:55:50Z,2025-09-12T17:55:50Z,Guthrie-Edmond Regional Airport,35.84980011,-97.41560364,US,US-OK
KGON,"Groton-New London Arpt, CT, US",2025-09-12T20:56:00Z,2025-09-12 16:56:00,VFR,18.9,13.9,130,10,0,NA,1022.1,METAR KGON 122056Z 13010KT 10SM FEW065 19/14 A3018 RMK AO2 SLP220 T01890139 56002,2025-09-12T21:45:05Z,2025-09-12T17:45:05Z,Groton New London Airport,41.330101,-72.045097,US,US-CT
KGOO,"Grass Valley/Nevada Cnty, CA, US",2025-09-12T21:35:00Z,2025-09-12 21:35:00,VFR,24,10,270,6,0,NA,1015.7,METAR KGOO 122135Z AUTO 27006KT 10SM CLR 24/10 A2999 RMK A01,2025-09-12T21:45:05Z,2025-09-12T17:45:05Z,Nevada County Airport,39.223998,-121.002997,US,US-CA
KGOP,"Gatesville Muni, TX, US",2025-09-12T21:35:00Z,2025-09-12 21:35:00,VFR,34,19,VAR,3,10,NA,1018,METAR KGOP 122135Z AUTO VRB03G10KT 10SM FEW065 34/19 A3006 RMK AO2,2025-09-12T21:45:05Z,2025-09-12T17:45:05Z,Gatesville Municipal Airport,31.421301,-97.796996,US,US-TX
KGOV,"Grayling(AAF), MI, US",2025-09-12T20:55:00Z,2025-09-12 20:55:00,VFR,25.8,12.6,250,6,0,NA,1021.1,METAR KGOV 122055Z AUTO 25006KT 10SM FEW060 26/13 A3015 RMK AO2 SLP215 T02580126 57016 $,2025-09-12T21:45:05Z,2025-09-12T17:45:05Z,Grayling Army Air Field,44.680302,-84.728897,US,US-MI
KGPH,"Mosby/Midwest Air Center, MO, US",2025-09-12T21:35:00Z,2025-09-12 21:35:00,VFR,35,13,210,12,17,NA,1015.7,METAR KGPH 122135Z AUTO 21012G17KT 10SM CLR 35/13 A2999 RMK AO2,2025-09-12T21:45:05Z,2025-09-12T17:45:05Z,Midwest National Air Center Airport,39.3325,-94.309601,US,US-MO
KGPI,"Kalispell/Glacier Park Intl, MT, US",2025-09-12T20:55:00Z,2025-09-12 14:55:00,VFR,23.9,8.9,VAR,NA,0,NA,1014.6,METAR KGPI 122055Z 10SM CLR 24/09 A2996 RMK AO2 SLP133 T02390089 58020,2025-09-12T21:45:05Z,2025-09-12T17:45:05Z,Glacier Park International Airport,48.31050109863281,-114.25599670410156,US,US-MT
KGPM,"Grand Prairie Muni, TX, US",2025-09-12T21:35:00Z,2025-09-12 21:35:00,VFR,33.8,15.2,160,8,0,NA,1018,METAR KGPM 122135Z AUTO 16008KT 10SM SCT070 34/15 A3006 RMK AO2 T03380152,2025-09-12T21:45:05Z,2025-09-12T17:45:05Z,Grand Prairie Municipal Airport,32.698799,-97.046898,US,US-TX
KGPT,"Gulfport-Biloxi Intl, MS, US",2025-09-12T20:53:00Z,2025-09-12 15:53:00,VFR,30.6,18.3,190,4,0,NA,1016.7,METAR KGPT 122053Z 19004KT 10SM FEW070 SCT110 31/18 A3002 RMK AO2 SLP164 T03060183 56016,2025-09-12T21:45:05Z,2025-09-12T17:45:05Z,Gulfport Biloxi International Airport,30.407301,-89.070099,US,US-MS
KGPT,"Gulfport-Biloxi Intl, MS, US",2025-09-12T21:53:00Z,2025-09-12 16:53:00,VFR,31.1,18.9,210,6,0,NA,1016.3,METAR KGPT 122153Z AUTO 21006KT 10SM SCT120 31/19 A3001 RMK AO2 SLP162 T03110189,2025-09-12T21:55:50Z,2025-09-12T17:55:50Z,Gulfport Biloxi International Airport,30.407301,-89.070099,US,US-MS
KGPZ,"Grand Rapids/Itasca Cnty, MN, US",2025-09-12T21:34:00Z,2025-09-12 16:34:00,MVFR,21,17,170,8,0,NA,1017,SPECI KGPZ 122134Z AUTO 17008KT 10SM BKN026 BKN065 OVC095 21/17 A3003 RMK AO2 LTG DSNT NE,2025-09-12T21:45:05Z,2025-09-12T17:45:05Z,Grand Rapids Itasca Co-Gordon Newstrom field,47.21110153,-93.50980377,US,US-MN
KGRB,"Green Bay/Straubel Intl, WI, US",2025-09-12T20:53:00Z,2025-09-12 15:53:00,VFR,25.6,13.3,0,0,0,NA,1020.1,METAR KGRB 122053Z 00000KT 10SM CLR 26/13 A3012 RMK AO2 SLP200 T02560133 56024,2025-09-12T21:45:05Z,2025-09-12T17:45:05Z,Austin Straubel International Airport,44.483459,-88.130805,US,US-WI
KGRB,"Green Bay/Straubel Intl, WI, US",2025-09-12T21:53:00Z,2025-09-12 16:53:00,VFR,26.1,12.8,200,6,0,NA,1019.7,METAR KGRB 122153Z 20006KT 10SM CLR 26/13 A3011 RMK AO2 SLP195 T02610128,2025-09-12T21:55:50Z,2025-09-12T17:55:50Z,Austin Straubel International Airport,44.483459,-88.130805,US,US-WI
KGRD,"Greenwood Cnty, GA, US",2025-09-12T20:56:00Z,2025-09-12 16:56:00,VFR,28.3,14.4,40,9,0,NA,1020.1,METAR KGRD 122056Z AUTO 04009KT 10SM FEW055 FEW085 28/14 A3012 RMK AO2 SLP194 T02830144 56013,2025-09-12T21:45:05Z,2025-09-12T17:45:05Z,Greenwood County Airport,34.248699,-82.159103,US,US-SC
KGRF,"Fort Lewis/Gray AAF, WA, US",2025-09-12T20:55:00Z,2025-09-12 13:55:00,MVFR,21,12.4,330,4,0,NA,1017,METAR KGRF 122055Z AUTO 33004KT 10SM BKN030 21/12 A3003 RMK AO2 SLP172 T02100124 57011 $,2025-09-12T21:45:05Z,2025-09-12T17:45:05Z,Gray Army Air Field,47.07920074,-122.5810013,US,US-WA
KGRI,"Grand Island Rgnl, NE, US",2025-09-12T20:53:00Z,2025-09-12 15:53:00,VFR,35.6,16.1,180,11,0,NA,1012.6,METAR KGRI 122053Z 18011KT 10SM CLR 36/16 A2990 RMK AO2 SLP109 T03560161 58014,2025-09-12T21:45:05Z,2025-09-12T17:45:05Z,Central Nebraska Regional Airport,40.967498779296875,-98.309600830078125,US,US-NE
KGRI,"Grand Island Rgnl, NE, US",2025-09-12T21:53:00Z,2025-09-12 16:53:00,VFR,35.6,14.4,180,14,0,NA,1012.3,METAR KGRI 122153Z 18014KT 10SM CLR 36/14 A2989 RMK AO2 SLP106 T03560144,2025-09-12T21:55:50Z,2025-09-12T17:55:50Z,Central Nebraska Regional Airport,40.967498779296875,-98.309600830078125,US,US-NE
KGRK,"Killeen-Ft Hood Rgnl, TX, US",2025-09-12T20:55:00Z,2025-09-12 15:55:00,VFR,34.2,17.4,130,8,0,NA,1018,METAR KGRK 122055Z AUTO 13008KT 10SM FEW070 34/17 A3006 RMK AO2 SLP165 T03420174 57023,2025-09-12T21:45:05Z,2025-09-12T17:45:05Z,Killeen Regional Airport / Robert Gray Army Airfield,31.0672,-97.828903,US,US-TX
KGRN,"Gordon Muni, NE, US",2025-09-12T21:35:00Z,2025-09-12 15:35:00,VFR,32.9,7.1,0,0,0,NA,1013,METAR KGRN 122135Z AUTO 00000KT 10SM CLR 33/07 A2991 RMK AO2 T03290071,2025-09-12T21:45:05Z,2025-09-12T17:45:05Z,Gordon Municipal Airport,42.8059997559,-102.175003052,US,US-NE
KGRR,"Grand Rapids Intl, MI, US",2025-09-12T20:53:00Z,2025-09-12 16:53:00,VFR,27.2,10.6,250,6,0,NA,1021.4,METAR KGRR 122053Z 25006KT 10SM SCT070 SCT250 27/11 A3016 RMK AO2 SLP211 T02720106 56019,2025-09-12T21:45:05Z,2025-09-12T17:45:05Z,Gerald R. Ford International Airport,42.88079834,-85.52279663,US,US-MI
KGRR,"Grand Rapids Intl, MI, US",2025-09-12T21:53:00Z,2025-09-12 17:53:00,VFR,26.1,10,250,7,0,NA,1021.1,METAR KGRR 122153Z 25007KT 10SM SCT075 SCT250 26/10 A3015 RMK AO2 SLP209 T02610100,2025-09-12T21:55:50Z,2025-09-12T17:55:50Z,Gerald R. Ford International Airport,42.88079834,-85.52279663,US,US-MI
KGSB,"Goldsboro/Johnson AFB, NC, US",2025-09-12T20:55:00Z,2025-09-12 16:55:00,VFR,25.7,16.8,60,9,0,NA,1019.4,METAR KGSB 122055Z 06009KT 10SM OVC065 26/17 A3010 RMK AO2A SLP196 T02570168 57010 TSNO $,2025-09-12T21:45:05Z,2025-09-12T17:45:05Z,Seymour Johnson Air Force Base,35.339401,-77.960602,US,US-NC
KGSH,"Goshen Muni, IN, US",2025-09-12T20:53:00Z,2025-09-12 16:53:00,VFR,26.1,10.6,20,3,0,NA,1021.4,METAR KGSH 122053Z AUTO 02003KT 10SM CLR 26/11 A3016 RMK AO2 SLP211 T02610106 57018,2025-09-12T21:45:05Z,2025-09-12T17:45:05Z,Goshen Municipal Airport,41.5264015198,-85.79290008539999,US,US-IN
KGSH,"Goshen Muni, IN, US",2025-09-12T21:53:00Z,2025-09-12 17:53:00,VFR,26.7,10.6,180,4,0,NA,1021.1,METAR KGSH 122153Z AUTO 18004KT 10SM CLR 27/11 A3015 RMK AO2 SLP208 T02670106,2025-09-12T21:55:50Z,2025-09-12T17:55:50Z,Goshen Municipal Airport,41.5264015198,-85.79290008539999,US,US-IN
KGSO,"Greensboro Intl, NC, US",2025-09-12T20:54:00Z,2025-09-12 16:54:00,VFR,26.1,14.4,80,8,0,NA,1020.4,METAR KGSO 122054Z 08008KT 10SM SCT050 BKN070 26/14 A3013 RMK AO2 SLP193 T02610144 56014,2025-09-12T21:45:05Z,2025-09-12T17:45:05Z,Piedmont Triad International Airport,36.097801,-79.937302,US,US-NC
KGSP,"Greenville-Spartanburg Intl, SC, US",2025-09-12T20:53:00Z,2025-09-12 16:53:00,VFR,27.8,12.2,130,3,0,NA,1020.4,METAR KGSP 122053Z 13003KT 10SM FEW060 28/12 A3013 RMK AO2 SLP192 T02780122 56013,2025-09-12T21:45:05Z,2025-09-12T17:45:05Z,Greenville Spartanburg International Airport,34.895699,-82.218903,US,US-SC
KGSP,"Greenville-Spartanburg Intl, SC, US",2025-09-12T21:53:00Z,2025-09-12 17:53:00,VFR,27.8,12.8,70,5,0,NA,1020.4,METAR KGSP 122153Z AUTO 07005KT 10SM CLR 28/13 A3013 RMK AO2 SLP192 T02780128,2025-09-12T21:55:50Z,2025-09-12T17:55:50Z,Greenville Spartanburg International Airport,34.895699,-82.218903,US,US-SC
KGTB,"Ft Drum/Wheeler AAF, NY, US",2025-09-12T20:55:00Z,2025-09-12 20:55:00,VFR,22.8,8.8,270,4,0,NA,1021.1,METAR KGTB 122055Z AUTO 27004KT 10SM CLR 23/09 A3015 RMK AO2 SLP209 T02280088 57021,2025-09-12T21:45:05Z,2025-09-12T17:45:05Z,Wheeler Sack Army Air Field,44.05559921,-75.71949768,US,US-NY
KGTF,"Great Falls Intl, MT, US",2025-09-12T20:53:00Z,2025-09-12 14:53:00,VFR,26.1,5,VAR,5,0,NA,1015,METAR KGTF 122053Z VRB05KT 10SM CLR 26/05 A2997 RMK AO2 SLP127 T02610050 56017,2025-09-12T21:45:05Z,2025-09-12T17:45:05Z,Great Falls International Airport,47.48199844,-111.3710022,US,US-MT
KGTF,"Great Falls Intl, MT, US",2025-09-12T21:53:00Z,2025-09-12 15:53:00,VFR,25,5,VAR,4,0,NA,1014.6,METAR KGTF 122153Z VRB04KT 10SM BKN080 25/05 A2996 RMK AO2 SLP123 T02500050,2025-09-12T21:55:50Z,2025-09-12T17:55:50Z,Great Falls International Airport,47.48199844,-111.3710022,US,US-MT
KGTR,"Golden Triangle Arpt, MS, US",2025-09-12T20:56:00Z,2025-09-12 15:56:00,VFR,34.4,16.1,20,7,0,NA,1017.7,METAR KGTR 122056Z 02007KT 10SM FEW080 34/16 A3005 RMK AO2 SLP176 T03440161 56020,2025-09-12T21:45:05Z,2025-09-12T17:45:05Z,Golden Triangle Regional Airport,33.450298,-88.5914,US,US-MS
KGTU,"Georgetown Muni, TX, US",2025-09-12T20:56:00Z,2025-09-12 20:56:00,VFR,33.9,17.2,140,10,15,NA,1017.7,METAR KGTU 122056Z 14010G15KT 10SM BKN070 34/17 A3005 RMK AO2 SLP168 T03390172 56027,2025-09-12T21:45:05Z,2025-09-12T17:45:05Z,Georgetown Executive Airport at Johnny Gantt Field,30.677543,-97.678524,US,US-TX
KGUC,"Gunnison Arpt, CO, US",2025-09-12T20:56:00Z,2025-09-12 14:56:00,VFR,12.8,9.4,VAR,3,0,NA,1026.5,METAR KGUC 122056Z AUTO VRB03KT 10SM FEW033 SCT060 BKN100 13/09 A3031 RMK AO2 RAE55 SLP208 P0005 60007 T01280094 58014 $,2025-09-12T21:45:05Z,2025-09-12T17:45:05Z,Gunnison Crested Butte Regional Airport,38.534672,-106.934566,US,US-CO
KGUP,"Gallup Muni, NM, US",2025-09-12T20:53:00Z,2025-09-12 14:53:00,VFR,18.3,13.3,170,11,0,NA,1023.1,METAR KGUP 122053Z AUTO 17011KT 10SM BKN090 OVC110 18/13 A3021 RMK AO2 LTG DSNT ALQDS RAB06E45 SLP112 P0001 60001 T01830133 56001,2025-09-12T21:45:05Z,2025-09-12T17:45:05Z,Gallup Municipal Airport,35.511653,-108.788166,US,US-NM
KGUP,"Gallup Muni, NM, US",2025-09-12T21:53:00Z,2025-09-12 15:53:00,VFR,22.8,8.9,170,11,18,NA,1021.8,METAR KGUP 122153Z AUTO 17011G18KT 10SM CLR 23/09 A3017 RMK AO2 SLP077 T02280089,2025-09-12T21:55:50Z,2025-09-12T17:55:50Z,Gallup Municipal Airport,35.511653,-108.788166,US,US-NM
KGUS,"Peru/Grissom ARB, IN, US",2025-09-12T20:55:00Z,2025-09-12 16:55:00,VFR,28.9,9.1,110,5,0,NA,1020.4,METAR KGUS 122055Z AUTO 11005KT 10SM CLR 29/09 A3013 RMK AO2 SLP202 T02890091 57021 $,2025-09-12T21:45:05Z,2025-09-12T17:45:05Z,Grissom Air Reserve Base,40.648102,-86.1521,US,US-IN
KGUY,"Guymon Muni, OK, US",2025-09-12T20:53:00Z,2025-09-12 15:53:00,VFR,32.8,9.4,190,13,26,NA,1017,METAR KGUY 122053Z AUTO 19013G26KT 10SM CLR 33/09 A3003 RMK AO2 PK WND 20028/2005 SLP118 T03280094 58020,2025-09-12T21:45:05Z,2025-09-12T17:45:05Z,Guymon Municipal Airport,36.6851005554,-101.508003235,US,US-OK
KGUY,"Guymon Muni, OK, US",2025-09-12T21:53:00Z,2025-09-12 16:53:00,VFR,32.2,9.4,180,15,26,NA,1016,METAR KGUY 122153Z AUTO 18015G26KT 10SM CLR 32/09 A3000 RMK AO2 PK WND 20028/2140 SLP112 T03220094,2025-09-12T21:55:50Z,2025-09-12T17:55:50Z,Guymon Municipal Airport,36.6851005554,-101.508003235,US,US-OK
KGVE,"Gordonsville Muni, VA, US",2025-09-12T21:35:00Z,2025-09-12 17:35:00,VFR,27.3,11.1,70,6,0,NA,NA,METAR KGVE 122135Z AUTO 07006KT 10SM CLR 27/11 RMK AO1 T02730111,2025-09-12T21:45:05Z,2025-09-12T17:45:05Z,Gordonsville Municipal Airport,38.155998,-78.165802,US,US-VA
KGVL,"Gainesville/Gilmer Mem, GA, US",2025-09-12T20:53:00Z,2025-09-12 16:53:00,VFR,28.9,13.9,30,6,0,NA,1020.7,METAR KGVL 122053Z AUTO 03006KT 10SM CLR 29/14 A3014 RMK AO2 SLP189 T02890139 56015,2025-09-12T21:45:05Z,2025-09-12T17:45:05Z,Lee Gilmer Memorial Airport,34.27259827,-83.8302002,US,US-GA
KGVL,"Gainesville/Gilmer Mem, GA, US",2025-09-12T21:53:00Z,2025-09-12 17:53:00,VFR,27.8,13.9,90,5,0,NA,1020.4,METAR KGVL 122153Z AUTO 09005KT 10SM BKN075 28/14 A3013 RMK AO2 SLP189 T02780139,2025-09-12T21:55:50Z,2025-09-12T17:55:50Z,Lee Gilmer Memorial Airport,34.27259827,-83.8302002,US,US-GA
KGVT,"Greenville/Majors Arpt, TX, US",2025-09-12T21:35:00Z,2025-09-12 16:35:00,VFR,33,19,110,5,0,NA,1018.4,METAR KGVT 122135Z AUTO 11005KT 10SM CLR 33/19 A3007 RMK AO2,2025-09-12T21:45:05Z,2025-09-12T17:45:05Z,Majors Airport,33.0677986145,-96.0652999878,US,US-TX
KGWB,"Auburn/De Kalb Cnty, IN, US",2025-09-12T21:35:00Z,2025-09-12 21:35:00,VFR,27,12,VAR,2,0,NA,1021.4,METAR KGWB 122135Z AUTO VRB02KT 10SM CLR 27/12 A3016 RMK AO2,2025-09-12T21:45:05Z,2025-09-12T17:45:05Z,De Kalb County Airport,41.307201,-85.0644,US,US-IN
KGWO,"Greenwood/Leflore Arpt, MS, US",2025-09-12T20:53:00Z,2025-09-12 15:53:00,VFR,36.1,17.2,40,5,0,NA,1017,METAR KGWO 122053Z AUTO 04005KT 10SM CLR 36/17 A3003 RMK AO2 SLP167 T03610172 56023,2025-09-12T21:45:08Z,2025-09-12T17:45:08Z,Greenwood–Leflore Airport,33.495025,-90.088204,US,US-MS
KGWO,"Greenwood/Leflore Arpt, MS, US",2025-09-12T21:53:00Z,2025-09-12 16:53:00,VFR,35.6,17.8,330,4,0,NA,1017,METAR KGWO 122153Z AUTO 33004KT 10SM CLR 36/18 A3003 RMK AO2 SLP164 T03560178,2025-09-12T21:55:52Z,2025-09-12T17:55:52Z,Greenwood–Leflore Airport,33.495025,-90.088204,US,US-MS
KGWR,"Gwinner Muni, ND, US",2025-09-12T21:35:00Z,2025-09-12 21:35:00,VFR,24,24,VAR,5,10,NA,1013,METAR KGWR 122135Z AUTO VRB05G10KT 10SM FEW020 24/24 A2991 RMK A01,2025-09-12T21:45:08Z,2025-09-12T17:45:08Z,Gwinner Roger Melroe Field,46.2187,-97.643204,US,US-ND
KGWW,"Goldsboro/Wayne Muni, NC, US",2025-09-12T21:35:00Z,2025-09-12 21:35:00,VFR,25.4,15.6,90,8,0,NA,1020.1,METAR KGWW 122135Z AUTO 09008KT 10SM SCT070 25/16 A3012 RMK AO2 T02540156,2025-09-12T21:45:08Z,2025-09-12T17:45:08Z,Wayne Executive Jetport,35.460602,-77.964897,US,US-NC
KGWW,"Goldsboro/Wayne Muni, NC, US",2025-09-12T21:45:00Z,2025-09-12 21:45:00,VFR,25.1,15.9,80,5,0,NA,1020.1,METAR KGWW 122145Z AUTO 08005KT 10SM CLR 25/16 A3012 RMK AO2 T02510159,2025-09-12T21:55:53Z,2025-09-12T17:55:53Z,Wayne Executive Jetport,35.460602,-77.964897,US,US-NC
KGXY,"Greeley/Weld Cnty Arpt, CO, US",2025-09-12T21:36:00Z,2025-09-12 15:36:00,VFR,26,7,280,19,22,NA,1017,SPECI KGXY 122136Z AUTO 28019G22KT 10SM FEW065 BKN100 26/07 A3003 RMK AO2 WSHFT 2116 $,2025-09-12T21:45:08Z,2025-09-12T17:45:08Z,Greeley–Weld County Airport,40.4374008179,-104.633003235,US,US-CO
KGYB,"Giddings/Lee Cnty, TX, US",2025-09-12T21:35:00Z,2025-09-12 21:35:00,VFR,34.5,17.3,140,7,0,NA,1018.4,METAR KGYB 122135Z AUTO 14007KT 100V170 10SM SCT065 BKN075 35/17 A3007 RMK AO2 T03450173,2025-09-12T21:45:08Z,2025-09-12T17:45:08Z,Giddings-Lee County Airport,30.1693,-96.980003,US,US-TX
KGYH,"Greenville/Donaldson Fld, SC, US",2025-09-12T20:47:00Z,2025-09-12 16:47:00,VFR,28,12,40,7,0,NA,1020.4,METAR KGYH 122047Z 04007KT 10SM SCT070 28/12 A3013,2025-09-12T21:45:08Z,2025-09-12T17:45:08Z,Donaldson Field Airport,34.758301,-82.376404,US,US-SC
KGYH,"Greenville/Donaldson Fld, SC, US",2025-09-12T21:47:00Z,2025-09-12 17:47:00,VFR,28,13,100,9,0,NA,1020.4,METAR KGYH 122147Z 10009KT 10SM SCT070 28/13 A3013,2025-09-12T21:55:53Z,2025-09-12T17:55:53Z,Donaldson Field Airport,34.758301,-82.376404,US,US-SC
KGYI,"Dennison/N Texas Rgnl, TX, US",2025-09-12T20:50:00Z,2025-09-12 15:50:00,VFR,33,20,170,8,0,8,1019,METAR KGYI 122050Z 17008KT 8SM CLR 33/20 A3009,2025-09-12T21:45:08Z,2025-09-12T17:45:08Z,North Texas Regional Airport Perrin Field,33.7141,-96.673698,US,US-TX
KGYI,"Dennison/N Texas Rgnl, TX, US",2025-09-12T21:50:00Z,2025-09-12 16:50:00,VFR,34,19,200,8,0,NA,1018.7,METAR KGYI 122150Z 20008KT 10SM CLR 34/19 A3008,2025-09-12T21:55:53Z,2025-09-12T17:55:53Z,North Texas Regional Airport Perrin Field,33.7141,-96.673698,US,US-TX
KGYL,"Glencoe Muni, MN, US",2025-09-12T21:35:00Z,2025-09-12 21:35:00,VFR,23.4,20.1,50,4,0,NA,1015.7,METAR KGYL 122135Z AUTO 05004KT 10SM SCT016 SCT046 SCT070 23/20 A2999 RMK AO2 LTG DSNT NE T02340201,2025-09-12T21:45:08Z,2025-09-12T17:45:08Z,Glencoe Municipal Airport,44.756001,-94.0812,US,US-MN
KGYR,"Phoenix/Goodyear Muni, AZ, US",2025-09-12T20:47:00Z,2025-09-12 13:47:00,VFR,36,12,260,10,0,NA,1009.2,METAR KGYR 122047Z 26010KT 10SM SCT080 36/12 A2980,2025-09-12T21:45:08Z,2025-09-12T17:45:08Z,Phoenix Goodyear Airport,33.4225006104,-112.375999451,US,US-AZ
KGYR,"Phoenix/Goodyear Muni, AZ, US",2025-09-12T21:47:00Z,2025-09-12 14:47:00,VFR,36,14,260,10,0,NA,1008.2,METAR KGYR 122147Z 26010KT 10SM SCT090 36/14 A2977,2025-09-12T21:55:53Z,2025-09-12T17:55:53Z,Phoenix Goodyear Airport,33.4225006104,-112.375999451,US,US-AZ
KGYY,"Gary Intl, IN, US",2025-09-12T20:55:00Z,2025-09-12 15:55:00,VFR,29,16,50,9,0,NA,1020.4,METAR KGYY 122055Z 05009KT 10SM CLR 29/16 A3013,2025-09-12T21:45:08Z,2025-09-12T17:45:08Z,Gary Chicago International Airport,41.61629867553711,-87.41280364990234,US,US-IN
KGYY,"Gary Intl, IN, US",2025-09-12T21:55:00Z,2025-09-12 16:55:00,VFR,28,16,60,8,13,NA,1020.4,METAR KGYY 122155Z 06008G13KT 10SM CLR 28/16 A3013,2025-09-12T21:55:52Z,2025-09-12T17:55:52Z,Gary Chicago International Airport,41.61629867553711,-87.41280364990234,US,US-IN
KGZH,"Evergreen/Middleton Fld, AL, US",2025-09-12T20:53:00Z,2025-09-12 20:53:00,VFR,33.9,16.1,60,10,0,NA,1017,METAR KGZH 122053Z AUTO 06010KT 10SM FEW095 FEW110 34/16 A3003 RMK AO2 SLP164 T03390161 56018,2025-09-12T21:45:08Z,2025-09-12T17:45:08Z,Evergreen Regional Airport/Middleton Field,31.4158,-87.043999,US,US-AL
KGZH,"Evergreen/Middleton Fld, AL, US",2025-09-12T21:53:00Z,2025-09-12 21:53:00,VFR,33.3,15,30,5,0,NA,1016.7,METAR KGZH 122153Z AUTO 03005KT 10SM BKN110 33/15 A3002 RMK AO2 SLP163 T03330150,2025-09-12T21:55:52Z,2025-09-12T17:55:52Z,Evergreen Regional Airport/Middleton Field,31.4158,-87.043999,US,US-AL
KGZN,"Cisco/Simmons Mem, TX, US",2025-09-12T21:35:00Z,2025-09-12 21:35:00,VFR,34,13,160,14,21,NA,1017.7,METAR KGZN 122135Z AUTO 16014G21KT 10SM CLR 34/13 A3005 RMK AO2,2025-09-12T21:45:08Z,2025-09-12T17:45:08Z,Gregory M. Simmons Memorial Airport,32.367348,-99.023642,US,US-TX
KGZS,"Pulaski/Abernathy Fld, TN, US",2025-09-12T21:35:00Z,2025-09-12 21:35:00,VFR,30,15,VAR,4,0,NA,1019,METAR KGZS 122135Z AUTO VRB04KT 10SM CLR 30/15 A3009 RMK A01,2025-09-12T21:45:08Z,2025-09-12T17:45:08Z,Abernathy Field,35.153702,-87.056801,US,US-TN
KHAE,"Hannibal Rgnl, MO, US",2025-09-12T21:35:00Z,2025-09-12 21:35:00,VFR,33,16,160,4,0,NA,1017.7,METAR KHAE 122135Z AUTO 16004KT 10SM SCT120 33/16 A3005 RMK AO2,2025-09-12T21:45:08Z,2025-09-12T17:45:08Z,Hannibal Regional Airport,39.724499,-91.443703,US,US-MO
KHAF,"Half Moon Bay Arpt, CA, US",2025-09-12T21:35:00Z,2025-09-12 14:35:00,MVFR,17,15,300,5,0,7,1016,METAR KHAF 122135Z AUTO 30005KT 7SM OVC013 17/15 A3000 RMK AO2,2025-09-12T21:45:08Z,2025-09-12T17:45:08Z,Half Moon Bay Airport,37.513401031499995,-122.500999451,US,US-CA
KHAI,"Three Rivers Muni, MI, US",2025-09-12T21:35:00Z,2025-09-12 17:35:00,VFR,27,12,320,3,0,NA,1021.1,METAR KHAI 122135Z AUTO 32003KT 10SM CLR 27/12 A3015 RMK AO2,2025-09-12T21:45:08Z,2025-09-12T17:45:08Z,Three Rivers Municipal Dr Haines Airport,41.959801,-85.593399,US,US-MI
KHAO,"Hamilton/Butler Cnty, OH, US",2025-09-12T20:53:00Z,2025-09-12 16:53:00,VFR,29.4,11.1,130,3,0,NA,1020.7,METAR KHAO 122053Z AUTO 13003KT 10SM CLR 29/11 A3014 RMK AO2 SLP204 T02940111 56021,2025-09-12T21:45:08Z,2025-09-12T17:45:08Z,Butler Co Regional Airport - Hogan Field,39.363800048799995,-84.5220031738,US,US-OH
KHAO,"Hamilton/Butler Cnty, OH, US",2025-09-12T21:53:00Z,2025-09-12 17:53:00,VFR,27.8,13.3,0,0,0,NA,1020.7,METAR KHAO 122153Z AUTO 00000KT 10SM CLR 28/13 A3014 RMK AO2 SLP202 T02780133,2025-09-12T21:55:52Z,2025-09-12T17:55:52Z,Butler Co Regional Airport - Hogan Field,39.363800048799995,-84.5220031738,US,US-OH
KHBG,"Hattiesburg/Chain Muni, MS, US",2025-09-12T20:53:00Z,2025-09-12 15:53:00,VFR,35.6,15.6,360,7,0,NA,1017,METAR KHBG 122053Z AUTO 36007KT 320V060 10SM FEW075 36/16 A3003 RMK AO2 SLP166 T03560156 56024,2025-09-12T21:45:08Z,2025-09-12T17:45:08Z,Hattiesburg Bobby L Chain Municipal Airport,31.26479912,-89.25279999,US,US-MS
KHBG,"Hattiesburg/Chain Muni, MS, US",2025-09-12T21:53:00Z,2025-09-12 16:53:00,VFR,35.6,14.4,VAR,5,0,NA,1016.7,METAR KHBG 122153Z AUTO VRB05KT 10SM FEW080 36/14 A3002 RMK AO2 SLP163 T03560144,2025-09-12T21:55:52Z,2025-09-12T17:55:52Z,Hattiesburg Bobby L Chain Municipal Airport,31.26479912,-89.25279999,US,US-MS
KHBR,"Hobart Muni, OK, US",2025-09-12T20:53:00Z,2025-09-12 15:53:00,VFR,36.1,13.3,180,17,25,NA,1017.7,METAR KHBR 122053Z AUTO 18017G25KT 10SM CLR 36/13 A3005 RMK AO2 PK WND 19026/2041 SLP156 T03610133 58023,2025-09-12T21:45:08Z,2025-09-12T17:45:08Z,Hobart Regional Airport,34.991317,-99.051313,US,US-OK
KHBR,"Hobart Muni, OK, US",2025-09-12T21:53:00Z,2025-09-12 16:53:00,VFR,35.6,13.9,200,16,24,NA,1017,METAR KHBR 122153Z AUTO 20016G24KT 10SM CLR 36/14 A3003 RMK AO2 SLP150 T03560139,2025-09-12T21:55:52Z,2025-09-12T17:55:52Z,Hobart Regional Airport,34.991317,-99.051313,US,US-OK
KHBV,"Hebbronville/Hogg Cnty, TX, US",2025-09-12T21:35:00Z,2025-09-12 21:35:00,VFR,29.2,22.4,100,11,0,8,1015.7,METAR KHBV 122135Z AUTO 10011KT 8SM -RA CLR 29/22 A2999 RMK AO2 RAB2133 P0000 T02920224,2025-09-12T21:45:08Z,2025-09-12T17:45:08Z,Jim Hogg County Airport,27.349599838256836,-98.73699951171876,US,US-TX
KHCD,"Hutchinson/Butler Fld, MN, US",2025-09-12T21:35:00Z,2025-09-12 21:35:00,VFR,23.7,19.4,30,13,17,NA,1016,METAR KHCD 122135Z AUTO 03013G17KT 10SM CLR 24/19 A3000 RMK AO2 LTG DSNT NE AND E T02370194,2025-09-12T21:45:08Z,2025-09-12T17:45:08Z,Hutchinson Municipal Butler Field,44.859901,-94.3825,US,US-MN
KHCO,"Hallock Muni, MN, US",2025-09-12T21:35:00Z,2025-09-12 21:35:00,VFR,26,21,50,8,0,NA,1013.3,METAR KHCO 122135Z AUTO 05008KT 10SM SCT110 26/21 A2992 RMK AO2,2025-09-12T21:45:08Z,2025-09-12T17:45:08Z,Hallock Municipal Airport,48.752701,-96.943001,US,US-MN
KHCR,"Heber City Muni, UT, US",2025-09-12T21:35:00Z,2025-09-12 21:35:00,VFR,23.3,0.5,240,9,0,NA,1015.7,METAR KHCR 122135Z AUTO 24009KT 10SM FEW210 23/00 A2999 RMK AO2 LTG DSNT E AND SE T02330005 $,2025-09-12T21:45:08Z,2025-09-12T17:45:08Z,Heber Valley Airport,40.4818,-111.429001,US,US-UT
KHDC,"Hammond/Northshore Rgnl, LA, US",2025-09-12T21:35:00Z,2025-09-12 21:35:00,VFR,34.4,17.8,0,0,0,NA,1016.7,METAR KHDC 122135Z AUTO 00000KT 10SM SCT075 SCT085 34/18 A3002 RMK AO2 T03440178,2025-09-12T21:45:08Z,2025-09-12T17:45:08Z,Hammond Northshore Regional Airport,30.521601,-90.418404,US,US-LA
KHDE,"Holdrege/Brewster Fld, NE, US",2025-09-12T21:35:00Z,2025-09-12 16:35:00,VFR,37,12,190,13,0,NA,1012.6,METAR KHDE 122135Z AUTO 19013KT 10SM CLR 37/12 A2990 RMK AO2 T03700120,2025-09-12T21:45:08Z,2025-09-12T17:45:08Z,Brewster Field,40.452099,-99.336502,US,US-NE
KHDN,"Hayden/Yampa Valley Arpt, CO, US",2025-09-12T20:56:00Z,2025-09-12 14:56:00,VFR,12.8,8.9,350,6,0,NA,1024.8,METAR KHDN 122056Z AUTO 35006KT 10SM FEW017 BKN047 OVC120 13/09 A3026 RMK AO2 PRESFR SLP198 60001 T01280089 50023 $,2025-09-12T21:45:08Z,2025-09-12T17:45:08Z,Yampa Valley Airport,40.481201,-107.218002,US,US-CO
KHDO,"Hondo Muni, TX, US",2025-09-12T20:51:00Z,2025-09-12 20:51:00,VFR,34.4,17.8,100,7,0,NA,1017,METAR KHDO 122051Z AUTO 10007KT 10SM FEW075 34/18 A3003 RMK AO2 SLP153 T03440178 58029,2025-09-12T21:45:08Z,2025-09-12T17:45:08Z,South Texas Regional Airport at Hondo,29.35950088501,-99.176696777344,US,US-TX
KHDO,"Hondo Muni, TX, US",2025-09-12T21:51:00Z,2025-09-12 21:51:00,VFR,34.4,15.6,120,9,0,NA,1016.7,METAR KHDO 122151Z AUTO 12009KT 10SM CLR 34/16 A3002 RMK AO2 SLP147 T03440156,2025-09-12T21:55:53Z,2025-09-12T17:55:53Z,South Texas Regional Airport at Hondo,29.35950088501,-99.176696777344,US,US-TX
KHEF,"Manassas Rgnl, VA, US",2025-09-12T20:56:00Z,2025-09-12 16:56:00,VFR,28.3,11.1,120,10,0,NA,1021.1,METAR KHEF 122056Z 12010KT 10SM CLR 28/11 A3015 RMK AO2 SLP215 T02830111 56009,2025-09-12T21:45:08Z,2025-09-12T17:45:08Z,Manassas Regional Airport/Harry P. Davis Field,38.721401,-77.515404,US,US-VA
KHEG,"Jacksonville/Herlong Arpt, FL, US",2025-09-12T21:35:00Z,2025-09-12 21:35:00,VFR,27,19,30,11,0,NA,1017.4,METAR KHEG 122135Z AUTO 03011KT 10SM FEW034 27/19 A3004 RMK AO2 TSNO,2025-09-12T21:45:08Z,2025-09-12T17:45:08Z,Herlong Airport,30.2778,-81.805901,US,US-FL
KHEI,"Hettinger Muni, ND, US",2025-09-12T20:53:00Z,2025-09-12 20:53:00,VFR,30,15,VAR,NA,0,NA,1013.6,METAR KHEI 122053Z AUTO 10SM CLR 30/15 A2993 RMK AO2 SLP112 T03000150 56012,2025-09-12T21:45:08Z,2025-09-12T17:45:08Z,Hettinger Municipal Airport,46.0149,-102.655998,US,US-ND
KHEI,"Hettinger Muni, ND, US",2025-09-12T21:53:00Z,2025-09-12 21:53:00,VFR,28.9,16.1,40,6,0,NA,1013.3,METAR KHEI 122153Z AUTO 04006KT 10SM BKN060 BKN075 29/16 A2992 RMK AO2 LTG DSNT W SLP109 T02890161,2025-09-12T21:55:52Z,2025-09-12T17:55:52Z,Hettinger Municipal Airport,46.0149,-102.655998,US,US-ND
KHEQ,"Holyoke Arpt, CO, US",2025-09-12T21:35:00Z,2025-09-12 21:35:00,VFR,30,13,220,6,0,NA,1014,METAR KHEQ 122135Z AUTO 22006KT 10SM CLR 30/13 A2994 RMK AO2,2025-09-12T21:45:08Z,2025-09-12T17:45:08Z,Holyoke Airport,40.56940078735352,-102.27300262451172,US,US-CO
KHEZ,"Natchez/Adams Cnty, MS, US",2025-09-12T20:56:00Z,2025-09-12 15:56:00,VFR,32.8,18.9,VAR,3,0,NA,1018.4,METAR KHEZ 122056Z AUTO VRB03KT 10SM CLR 33/19 A3007 RMK AO2 SLP179 T03280189 56021 $,2025-09-12T21:45:08Z,2025-09-12T17:45:08Z,Natchez–Adams County Airport / Hardy-Anders Field,31.614817,-91.297331,US,US-MS
KHFD,"Hartford/Brainard Arpt, CT, US",2025-09-12T20:53:00Z,2025-09-12 16:53:00,VFR,23.9,9.4,VAR,4,0,NA,1021.4,METAR KHFD 122053Z VRB04KT 10SM CLR 24/09 A3016 RMK AO2 SLP213 T02390094 56013,2025-09-12T21:45:08Z,2025-09-12T17:45:08Z,Hartford Brainard Airport,41.736698150635,-72.649398803711,US,US-CT
KHFD,"Hartford/Brainard Arpt, CT, US",2025-09-12T21:53:00Z,2025-09-12 17:53:00,VFR,23.9,9.4,0,0,0,NA,1021.4,METAR KHFD 122153Z 00000KT 10SM CLR 24/09 A3016 RMK AO2 SLP213 T02390094,2025-09-12T21:55:52Z,2025-09-12T17:55:52Z,Hartford Brainard Airport,41.736698150635,-72.649398803711,US,US-CT
KHFF,"Mackall(AAF), NC, US",2025-09-12T20:55:00Z,2025-09-12 16:55:00,VFR,28.6,13.3,50,9,0,NA,1018.7,METAR KHFF 122055Z AUTO 05009KT 10SM CLR 29/13 A3008 RMK AO2 SLP186 T02860133 56013 $,2025-09-12T21:45:08Z,2025-09-12T17:45:08Z,Mackall Army Air Field,35.036087,-79.498615,US,US-NC
KHFJ,"Monett Muni, MO, US",2025-09-12T21:35:00Z,2025-09-12 21:35:00,VFR,32,18,180,8,0,NA,1019,METAR KHFJ 122135Z AUTO 18008KT 10SM CLR 32/18 A3009 RMK AO2,2025-09-12T21:45:08Z,2025-09-12T17:45:08Z,Monett Regional Airport,36.9062,-94.012802,US,US-MO
KHFY,"Greenwood Muni, IN, US",2025-09-12T21:35:00Z,2025-09-12 21:35:00,VFR,28.6,11,70,4,0,NA,1021.1,METAR KHFY 122135Z AUTO 07004KT 10SM CLR 29/11 A3015 RMK AO2 T02860110,2025-09-12T21:45:08Z,2025-09-12T17:45:08Z,Indy South Greenwood Airport,39.628399,-86.087898,US,US-IN
KHGR,"Hagerstown Rgnl, MD, US",2025-09-12T20:53:00Z,2025-09-12 16:53:00,VFR,27.2,10.6,140,5,0,NA,1021.1,METAR KHGR 122053Z 14005KT 10SM BKN075 27/11 A3015 RMK AO2 SLP216 T02720106 56012,2025-09-12T21:45:08Z,2025-09-12T17:45:08Z,Hagerstown Regional Richard A Henson Field,39.708771,-77.728014,US,US-MD
KHGR,"Hagerstown Rgnl, MD, US",2025-09-12T21:53:00Z,2025-09-12 17:53:00,VFR,27.8,10.6,0,0,0,NA,1021.1,METAR KHGR 122153Z 00000KT 10SM BKN090 28/11 A3015 RMK AO2 SLP215 T02780106,2025-09-12T21:55:52Z,2025-09-12T17:55:52Z,Hagerstown Regional Richard A Henson Field,39.708771,-77.728014,US,US-MD
KHHF,"Canadian/Hemphill Cnty, TX, US",2025-09-12T21:35:00Z,2025-09-12 21:35:00,VFR,33.1,12.1,190,13,19,NA,1017.4,METAR KHHF 122135Z AUTO 19013G19KT 10SM CLR 33/12 A3004 RMK AO2 T03310121,2025-09-12T21:45:08Z,2025-09-12T17:45:08Z,Hemphill County Airport,35.89530182,-100.4039993,US,US-TX
KHHR,"Hawthorne Muni, CA, US",2025-09-12T20:53:00Z,2025-09-12 13:53:00,VFR,24.4,15.6,270,10,0,NA,1013,METAR KHHR 122053Z 27010KT 10SM CLR 24/16 A2991 RMK AO2 SLP127 T02440156 56019,2025-09-12T21:45:08Z,2025-09-12T17:45:08Z,Jack Northrop Field Hawthorne Municipal Airport,33.922798,-118.334999,US,US-CA
KHHR,"Hawthorne Muni, CA, US",2025-09-12T21:53:00Z,2025-09-12 14:53:00,VFR,24.4,15.6,280,11,20,NA,1012.6,METAR KHHR 122153Z 28011G20KT 10SM CLR 24/16 A2990 RMK AO2 SLP122 T02440156,2025-09-12T21:55:52Z,2025-09-12T17:55:52Z,Jack Northrop Field Hawthorne Municipal Airport,33.922798,-118.334999,US,US-CA
KHHW,"Hugo/Stamper Muni, OK, US",2025-09-12T21:35:00Z,2025-09-12 16:35:00,VFR,33,19,150,3,0,NA,1018,METAR KHHW 122135Z AUTO 15003KT 10SM CLR 33/19 A3006 RMK AO2,2025-09-12T21:45:08Z,2025-09-12T17:45:08Z,Stan Stamper Municipal Airport,34.03480148,-95.54190063,US,US-OK
KHIB,"Hibbing/Chisholm Arpt, MN, US",2025-09-12T21:40:00Z,2025-09-12 16:40:00,VFR,20.6,16.1,110,6,0,NA,1016.7,SPECI KHIB 122140Z AUTO 11006KT 10SM VCTS SCT085 BKN110 21/16 A3002 RMK AO2 LTG DSNT N AND NW T02060161,2025-09-12T21:45:08Z,2025-09-12T17:45:08Z,Range Regional Airport,47.384831,-92.836905,US,US-MN
KHIB,"Hibbing/Chisholm Arpt, MN, US",2025-09-12T21:53:00Z,2025-09-12 16:53:00,VFR,20.6,16.1,80,3,0,NA,1017,METAR KHIB 122153Z AUTO 08003KT 10SM VCTS FEW030 BKN100 21/16 A3003 RMK AO2 LTG DSNT NE SLP169 T02060161,2025-09-12T21:55:52Z,2025-09-12T17:55:52Z,Range Regional Airport,47.384831,-92.836905,US,US-MN
KHIE,"Mt Washington Rgnl, NH, US",2025-09-12T20:52:00Z,2025-09-12 16:52:00,VFR,21.7,2.2,290,6,0,NA,1022.8,METAR KHIE 122052Z AUTO 29006KT 10SM CLR 22/02 A3020 RMK AO2 SLP230 T02170022 55010,2025-09-12T21:45:08Z,2025-09-12T17:45:08Z,Mount Washington Regional Airport,44.36752,-71.545765,US,US-NH
KHIE,"Mt Washington Rgnl, NH, US",2025-09-12T21:52:00Z,2025-09-12 17:52:00,VFR,21.1,4.4,0,0,0,NA,1022.4,METAR KHIE 122152Z AUTO 00000KT 10SM CLR 21/04 A3019 RMK AO2 SLP229 T02110044,2025-09-12T21:55:53Z,2025-09-12T17:55:53Z,Mount Washington Regional Airport,44.36752,-71.545765,US,US-NH
KHIF,"Ogden/Hill AFB, UT, US",2025-09-12T21:07:00Z,2025-09-12 15:07:00,VFR,23,1,180,13,18,NA,1016.7,SPECI KHIF 122107Z 18013G18KT 10SM SCT080 BKN095 23/01 A3002 RMK AO2A SHRAB01E07 SLP110,2025-09-12T21:45:08Z,2025-09-12T17:45:08Z,Hill Air Force Base,41.12403,-111.973086,US,US-UT
KHII,"Lake Havasu City Arpt, AZ, US",2025-09-12T21:35:00Z,2025-09-12 14:35:00,VFR,35,3,VAR,4,18,NA,1007.9,METAR KHII 122135Z AUTO VRB04G18KT 10SM CLR 35/03 A2976 RMK AO2,2025-09-12T21:45:08Z,2025-09-12T17:45:08Z,Lake Havasu City International Airport,34.571098,-114.358002,US,US-AZ
KHIO,"Portland/Hillsboro Arpt, OR, US",2025-09-12T20:53:00Z,2025-09-12 13:53:00,VFR,20.6,11.1,VAR,3,0,NA,1017.4,METAR KHIO 122053Z VRB03KT 10SM CLR 21/11 A3004 RMK AO2 SLP170 T02060111 58015,2025-09-12T21:45:08Z,2025-09-12T17:45:08Z,Portland Hillsboro Airport,45.540401,-122.949997,US,US-OR
KHIO,"Portland/Hillsboro Arpt, OR, US",2025-09-12T21:53:00Z,2025-09-12 14:53:00,VFR,21.1,11.1,0,0,0,NA,1016.7,METAR KHIO 122153Z 00000KT 10SM CLR 21/11 A3002 RMK AO2 SLP164 T02110111,2025-09-12T21:55:52Z,2025-09-12T17:55:52Z,Portland Hillsboro Airport,45.540401,-122.949997,US,US-OR
KHJH,"Hebron Muni, NE, US",2025-09-12T21:35:00Z,2025-09-12 21:35:00,VFR,35.1,16.7,190,11,17,NA,1013.3,METAR KHJH 122135Z AUTO 19011G17KT 10SM CLR 35/17 A2992 RMK AO2 T03510167,2025-09-12T21:45:08Z,2025-09-12T17:45:08Z,Hebron Municipal Airport,40.151884,-97.583953,US,US-NE
KHJO,"Hanford Muni, CA, US",2025-09-12T20:53:00Z,2025-09-12 20:53:00,VFR,28.9,12.2,VAR,6,0,NA,1013,METAR KHJO 122053Z AUTO VRB06KT 10SM CLR 29/12 A2991 RMK AO2 SLP128 T02890122 58022,2025-09-12T21:45:08Z,2025-09-12T17:45:08Z,Hanford Municipal Airport,36.31669998,-119.6279984,US,US-CA
KHJO,"Hanford Muni, CA, US",2025-09-12T21:53:00Z,2025-09-12 21:53:00,VFR,30,12.2,VAR,6,0,NA,1012.3,METAR KHJO 122153Z AUTO VRB06KT 10SM CLR 30/12 A2989 RMK AO2 SLP120 T03000122,2025-09-12T21:55:52Z,2025-09-12T17:55:52Z,Hanford Municipal Airport,36.31669998,-119.6279984,US,US-CA
KHKA,"Blytheville Muni, AR, US",2025-09-12T20:53:00Z,2025-09-12 15:53:00,VFR,33.3,17.2,160,4,0,NA,1017.7,METAR KHKA 122053Z AUTO 16004KT 10SM FEW110 33/17 A3005 RMK AO2 SLP171 T03330172 56020 $,2025-09-12T21:45:08Z,2025-09-12T17:45:08Z,Blytheville Municipal Airport,35.940399169900004,-89.83080291750001,US,US-AR
KHKA,"Blytheville Muni, AR, US",2025-09-12T21:53:00Z,2025-09-12 16:53:00,VFR,33.3,16.7,170,4,0,NA,1017.4,METAR KHKA 122153Z AUTO 17004KT 10SM FEW070 33/17 A3004 RMK AO2 SLP168 T03330167 $,2025-09-12T21:55:52Z,2025-09-12T17:55:52Z,Blytheville Municipal Airport,35.940399169900004,-89.83080291750001,US,US-AR
KHKS,"Jackson/Hawkins Fld, MS, US",2025-09-12T20:53:00Z,2025-09-12 15:53:00,VFR,34,17,320,6,0,NA,1017.7,METAR KHKS 122053Z 32006KT 10SM SKC 34/17 A3005,2025-09-12T21:45:08Z,2025-09-12T17:45:08Z,Hawkins Field,32.33449936,-90.22219849,US,US-MS
KHKY,"Hickory Rgnl, NC, US",2025-09-12T20:53:00Z,2025-09-12 16:53:00,VFR,27.8,12.8,50,6,0,NA,1020.4,METAR KHKY 122053Z 05006KT 10SM CLR 28/13 A3013 RMK AO2 SLP184 T02780128 56015,2025-09-12T21:45:08Z,2025-09-12T17:45:08Z,Hickory Regional Airport,35.74110031,-81.38950348,US,US-NC
KHKY,"Hickory Rgnl, NC, US",2025-09-12T21:53:00Z,2025-09-12 17:53:00,VFR,27.8,12.8,60,6,0,NA,1020.7,METAR KHKY 122153Z 06006KT 10SM CLR 28/13 A3014 RMK AO2 SLP185 T02780128,2025-09-12T21:55:52Z,2025-09-12T17:55:52Z,Hickory Regional Airport,35.74110031,-81.38950348,US,US-NC
KHLB,"Batesville Arpt, IN, US",2025-09-12T21:35:00Z,2025-09-12 17:35:00,VFR,28,10,0,0,0,NA,1021.1,METAR KHLB 122135Z AUTO 00000KT 10SM CLR 28/10 A3015 RMK A01,2025-09-12T21:45:08Z,2025-09-12T17:45:08Z,Batesville Airport,39.342861,-85.258441,US,US-IN
KHLC,"Hill City Muni, KS, US",2025-09-12T20:53:00Z,2025-09-12 15:53:00,VFR,35,12.2,200,15,29,NA,1013.6,METAR KHLC 122053Z AUTO 20015G29KT 10SM CLR 35/12 A2993 RMK AO2 PK WND 21029/2044 SLP106 T03500122 56018,2025-09-12T21:45:08Z,2025-09-12T17:45:08Z,Hill City Municipal Airport,39.37879944,-99.83149719,US,US-KS
KHLC,"Hill City Muni, KS, US",2025-09-12T21:53:00Z,2025-09-12 16:53:00,VFR,35,10.6,190,17,32,NA,1013.3,METAR KHLC 122153Z AUTO 19017G32KT 10SM CLR 35/11 A2992 RMK AO2 PK WND 20032/2147 SLP103 T03500106,2025-09-12T21:55:52Z,2025-09-12T17:55:52Z,Hill City Municipal Airport,39.37879944,-99.83149719,US,US-KS
KHLG,"Wheeling/Ohio Cnty, WV, US",2025-09-12T20:53:00Z,2025-09-12 16:53:00,VFR,27.8,10.6,330,6,0,NA,1021.4,METAR KHLG 122053Z 33006KT 10SM CLR 28/11 A3016 RMK AO2 SLP208 T02780106 56017,2025-09-12T21:45:08Z,2025-09-12T17:45:08Z,Wheeling Ohio County Airport,40.1749992371,-80.6463012695,US,US-WV
KHLG,"Wheeling/Ohio Cnty, WV, US",2025-09-12T21:53:00Z,2025-09-12 17:53:00,VFR,26.7,9.4,VAR,3,0,NA,1021.1,METAR KHLG 122153Z VRB03KT 10SM CLR 27/09 A3015 RMK AO2 SLP206 T02670094,2025-09-12T21:55:52Z,2025-09-12T17:55:52Z,Wheeling Ohio County Airport,40.1749992371,-80.6463012695,US,US-WV
KHLN,"Helena Rgnl, MT, US",2025-09-12T20:53:00Z,2025-09-12 14:53:00,VFR,25,5.6,VAR,4,0,NA,1015.3,METAR KHLN 122053Z VRB04KT 10SM CLR 25/06 A2998 RMK AO2 LTG DSNT NW SLP141 T02500056 57020,2025-09-12T21:45:08Z,2025-09-12T17:45:08Z,Helena Regional Airport,46.6068,-111.983002,US,US-MT
KHLN,"Helena Rgnl, MT, US",2025-09-12T21:53:00Z,2025-09-12 15:53:00,VFR,23.3,3.9,0,0,0,NA,1015.3,METAR KHLN 122153Z 00000KT 10SM CLR 23/04 A2998 RMK AO2 LTG DSNT SE SLP144 T02330039,2025-09-12T21:55:52Z,2025-09-12T17:55:52Z,Helena Regional Airport,46.6068,-111.983002,US,US-MT
KHLR,"Killeen/Ft Hood AAF, TX, US",2025-09-12T20:55:00Z,2025-09-12 15:55:00,VFR,33.8,18.3,100,9,0,NA,1017.7,METAR KHLR 122055Z AUTO 10009KT 10SM FEW070 34/18 A3005 RMK AO2 SLP164 T03380183 57022,2025-09-12T21:45:08Z,2025-09-12T17:45:08Z,Hood Army Air Field,31.1387,-97.7145,US,US-TX
KHLX,"Hillsville/Twin Cnty, VA, US",2025-09-12T21:35:00Z,2025-09-12 21:35:00,VFR,23,11,130,6,0,NA,1023.1,METAR KHLX 122135Z AUTO 13006KT 10SM SCT060 23/11 A3021 RMK AO2,2025-09-12T21:45:08Z,2025-09-12T17:45:08Z,Twin County Airport,36.766102,-80.823601,US,US-VA
KHMN,"Holloman AFB, NM, US",2025-09-12T20:55:00Z,2025-09-12 14:55:00,NA,34.3,6.5,180,12,0,NA,1017.7,METAR KHMN 122055Z AUTO 18012KT 10SM M 34/07 A3005 RMK AO2 SLP090 T03430065 $,2025-09-12T21:45:08Z,2025-09-12T17:45:08Z,Holloman Air Force Base,32.852501,-106.107002,US,US-NM
KHMZ,"Bedford Arpt, PA, US",2025-09-12T21:35:00Z,2025-09-12 21:35:00,VFR,26.7,8.3,190,4,0,NA,1021.1,METAR KHMZ 122135Z AUTO 19004KT 10SM CLR 27/08 A3015 RMK AO2 T02670083,2025-09-12T21:45:08Z,2025-09-12T17:45:08Z,Bedford County Airport,40.085952,-78.513359,US,US-PA
KHNB,"Huntingburg Arpt, IN, US",2025-09-12T20:56:00Z,2025-09-12 16:56:00,VFR,30,15,VAR,NA,0,NA,1020.4,METAR KHNB 122056Z AUTO 10SM FEW070 30/15 A3013 RMK AO2 SLP198 T03000150 56018,2025-09-12T21:45:08Z,2025-09-12T17:45:08Z,Huntingburg Airport,38.2490005493,-86.95369720459999,US,US-IN
KHND,"Henderson Exec, NV, US",2025-09-12T20:56:00Z,2025-09-12 13:56:00,VFR,31.1,1.7,VAR,6,0,NA,1011.9,METAR KHND 122056Z VRB06KT 10SM CLR 31/02 A2988 RMK AO2 SLP108 T03110017 58021 $,2025-09-12T21:45:08Z,2025-09-12T17:45:08Z,Henderson Executive Airport,35.9728012085,-115.134002686,US,US-NV
KHNR,"Harlan Muni, IA, US",2025-09-12T21:35:00Z,2025-09-12 21:35:00,VFR,31,20,180,14,20,NA,1013,METAR KHNR 122135Z AUTO 18014G20KT 10SM CLR 31/20 A2991 RMK A01,2025-09-12T21:45:08Z,2025-09-12T17:45:08Z,Harlan Municipal Airport,41.58440017700195,-95.339599609375,US,US-IA
KHNZ,"Oxford-Henderson Arpt, NC, US",2025-09-12T21:30:00Z,2025-09-12 21:30:00,VFR,24.5,11.6,50,4,0,NA,1020.4,METAR KHNZ 122130Z AUTO 05004KT 10SM CLR 25/12 A3013 RMK AO2 T02450116,2025-09-12T21:45:08Z,2025-09-12T17:45:08Z,Henderson Oxford Airport,36.361599,-78.529198,US,US-NC
KHNZ,"Oxford-Henderson Arpt, NC, US",2025-09-12T21:40:00Z,2025-09-12 21:40:00,VFR,24.3,12,40,4,0,NA,1020.7,METAR KHNZ 122140Z AUTO 04004KT 10SM CLR 24/12 A3014 RMK AO2 T02430120,2025-09-12T21:55:53Z,2025-09-12T17:55:53Z,Henderson Oxford Airport,36.361599,-78.529198,US,US-NC
KHOB,"Hobbs Arpt, NM, US",2025-09-12T20:50:00Z,2025-09-12 14:50:00,VFR,31,11,160,14,20,NA,1019.4,METAR KHOB 122050Z 16014G20KT 10SM SCT070 31/11 A3010,2025-09-12T21:45:08Z,2025-09-12T17:45:08Z,Lea County Regional Airport,32.6875,-103.217003,US,US-NM
KHOB,"Hobbs Arpt, NM, US",2025-09-12T21:50:00Z,2025-09-12 15:50:00,VFR,32,9,150,14,19,NA,1018.7,METAR KHOB 122150Z 15014G19KT 10SM FEW075 32/09 A3008,2025-09-12T21:55:53Z,2025-09-12T17:55:53Z,Lea County Regional Airport,32.6875,-103.217003,US,US-NM
KHOE,"Homerville Arpt, GA, US",2025-09-12T21:35:00Z,2025-09-12 21:35:00,VFR,30.5,14.7,40,3,0,NA,1017,METAR KHOE 122135Z AUTO 04003KT 10SM CLR 30/14 A3003 RMK AO2 T03050147,2025-09-12T21:45:08Z,2025-09-12T17:45:08Z,Homerville Airport,31.055901,-82.774101,US,US-GA
KHON,"Huron Rgnl, SD, US",2025-09-12T20:55:00Z,2025-09-12 15:55:00,VFR,28.3,20,70,6,0,NA,1010.9,METAR KHON 122055Z AUTO 07006KT 10SM CLR 28/20 A2985 RMK AO2 SLP100 T02830200 55000,2025-09-12T21:45:08Z,2025-09-12T17:45:08Z,Huron Regional Airport,44.385201,-98.2285,US,US-SD
KHOP,"Fort Campbell, KY, US",2025-09-12T20:55:00Z,2025-09-12 15:55:00,VFR,32.3,12.5,330,4,0,NA,1018.7,METAR KHOP 122055Z AUTO 33004KT 10SM CLR 32/13 A3008 RMK AO2 SLP182 T03230125 57020,2025-09-12T21:45:08Z,2025-09-12T17:45:08Z,Campbell Army Airfield (Fort Campbell),36.674154,-87.48974,US,US-KY
KHOT,"Hot Springs Mem, AR, US",2025-09-12T20:53:00Z,2025-09-12 15:53:00,VFR,33.3,18.3,VAR,5,0,NA,1018.4,METAR KHOT 122053Z AUTO VRB05KT 10SM CLR 33/18 A3007 RMK AO2 SLP177 T03330183 56022,2025-09-12T21:45:08Z,2025-09-12T17:45:08Z,Memorial Field Airport,34.4788,-93.096262,US,US-AR
KHOT,"Hot Springs Mem, AR, US",2025-09-12T21:53:00Z,2025-09-12 16:53:00,VFR,33.3,18.3,220,6,0,NA,1018,METAR KHOT 122153Z AUTO 22006KT 10SM CLR 33/18 A3006 RMK AO2 SLP173 T03330183,2025-09-12T21:55:52Z,2025-09-12T17:55:52Z,Memorial Field Airport,34.4788,-93.096262,US,US-AR
KHOU,"Houston/Hobby Arpt, TX, US",2025-09-12T20:53:00Z,2025-09-12 15:53:00,VFR,33.3,18.3,120,13,17,NA,1017.4,METAR KHOU 122053Z 12013G17KT 10SM SCT060 33/18 A3004 RMK AO2 SLP175 T03330183 58019,2025-09-12T21:45:08Z,2025-09-12T17:45:08Z,William P Hobby Airport,29.645399,-95.2789,US,US-TX
KHOU,"Houston/Hobby Arpt, TX, US",2025-09-12T21:53:00Z,2025-09-12 16:53:00,VFR,32.8,18.9,140,9,0,NA,1017,METAR KHOU 122153Z 14009KT 10SM FEW050 33/19 A3003 RMK AO2 SLP172 T03280189,2025-09-12T21:55:52Z,2025-09-12T17:55:52Z,William P Hobby Airport,29.645399,-95.2789,US,US-TX
KHPN,"White Plains/Westchester Cnty, NY, US",2025-09-12T20:56:00Z,2025-09-12 16:56:00,VFR,23.9,13.3,180,6,0,NA,1021.8,METAR KHPN 122056Z 18006KT 10SM SCT060 SCT070 24/13 A3017 RMK AO2 SLP212 T02390133 56010,2025-09-12T21:45:08Z,2025-09-12T17:45:08Z,Westchester County Airport,41.06700134277344,-73.70760345458984,US,US-NY
KHPT,"Hampton Muni, IA, US",2025-09-12T21:35:00Z,2025-09-12 16:35:00,VFR,26,15,160,11,16,NA,1014.6,METAR KHPT 122135Z AUTO 16011G16KT 10SM CLR 26/15 A2996 RMK AO2,2025-09-12T21:45:08Z,2025-09-12T17:45:08Z,Hampton Municipal Airport,42.7237014771,-93.2263031006,US,US-IA
KHQG,"Hugoton Muni, KS, US",2025-09-12T21:35:00Z,2025-09-12 21:35:00,VFR,33,8,170,22,27,NA,1016.7,METAR KHQG 122135Z AUTO 17022G27KT 10SM CLR 33/08 A3002 RMK AO2 TSNO PK WND 18027/20,2025-09-12T21:45:08Z,2025-09-12T17:45:08Z,Hugoton Municipal Airport,37.163101,-101.371002,US,US-KS
KHQM,"Hoquiam/Bowerman Arpt, WA, US",2025-09-12T21:11:00Z,2025-09-12 14:11:00,VFR,18.3,14.4,290,9,0,NA,1018,SPECI KHQM 122111Z AUTO 29009KT 10SM SCT019 18/14 A3006 RMK AO2 T01830144,2025-09-12T21:45:08Z,2025-09-12T17:45:08Z,Bowerman Airport,46.971199035599994,-123.93699646,US,US-WA
KHQM,"Hoquiam/Bowerman Arpt, WA, US",2025-09-12T21:53:00Z,2025-09-12 14:53:00,VFR,19.4,15,260,12,0,NA,1017.7,METAR KHQM 122153Z AUTO 26012KT 10SM CLR 19/15 A3005 RMK AO2 SLP179 T01940150,2025-09-12T21:55:52Z,2025-09-12T17:55:52Z,Bowerman Airport,46.971199035599994,-123.93699646,US,US-WA
KHQU,"Thomson/McDuffie Cnty, GA, US",2025-09-12T21:35:00Z,2025-09-12 21:35:00,VFR,29,14,40,6,0,NA,1020.7,METAR KHQU 122135Z AUTO 04006KT 10SM SCT080 29/14 A3014 RMK AO2,2025-09-12T21:45:08Z,2025-09-12T17:45:08Z,Thomson-McDuffie County Airport,33.52970123,-82.51650238,US,US-GA
KHQZ,"Mesquite Metro, TX, US",2025-09-12T20:50:00Z,2025-09-12 20:50:00,VFR,36,17,160,8,0,NA,1018.4,METAR KHQZ 122050Z 16008KT 10SM CLR 36/17 A3007,2025-09-12T21:45:08Z,2025-09-12T17:45:08Z,Mesquite Metro Airport,32.747002,-96.530403,US,US-TX
KHQZ,"Mesquite Metro, TX, US",2025-09-12T21:50:00Z,2025-09-12 21:50:00,VFR,36,17,130,6,0,NA,1017.7,METAR KHQZ 122150Z 13006KT 10SM CLR 36/17 A3005,2025-09-12T21:55:53Z,2025-09-12T17:55:53Z,Mesquite Metro Airport,32.747002,-96.530403,US,US-TX
KHRI,"Hermiston Muni, OR, US",2025-09-12T20:53:00Z,2025-09-12 13:53:00,VFR,26.7,11.7,260,3,0,NA,1014,METAR KHRI 122053Z AUTO 26003KT 10SM CLR 27/12 A2994 RMK AO2 SLP133 T02670117 58020,2025-09-12T21:45:08Z,2025-09-12T17:45:08Z,Hermiston Municipal Airport,45.828223,-119.259024,US,US-OR
KHRI,"Hermiston Muni, OR, US",2025-09-12T21:53:00Z,2025-09-12 14:53:00,VFR,27.2,12.2,VAR,NA,0,NA,1013.3,METAR KHRI 122153Z AUTO 10SM CLR 27/12 A2992 RMK AO2 SLP126 T02720122,2025-09-12T21:55:52Z,2025-09-12T17:55:52Z,Hermiston Municipal Airport,45.828223,-119.259024,US,US-OR
KHRJ,"Erwin/Harnett Rgnl, NC, US",2025-09-12T21:40:00Z,2025-09-12 21:40:00,VFR,27.2,14.1,40,9,0,NA,1019.7,METAR KHRJ 122140Z AUTO 04009KT 10SM CLR 27/14 A3011 RMK AO2 T02720141,2025-09-12T21:45:08Z,2025-09-12T17:45:08Z,Harnett Regional Jetport Airport,35.379398,-78.733002,US,US-NC
KHRJ,"Erwin/Harnett Rgnl, NC, US",2025-09-12T21:50:00Z,2025-09-12 21:50:00,VFR,27,14.1,20,9,0,NA,1020.1,METAR KHRJ 122150Z AUTO 02009KT 10SM SCT055 27/14 A3012 RMK AO2 T02700141,2025-09-12T21:55:53Z,2025-09-12T17:55:53Z,Harnett Regional Jetport Airport,35.379398,-78.733002,US,US-NC
KHRL,"Harlingen/Valley Intl, TX, US",2025-09-12T20:52:00Z,2025-09-12 15:52:00,VFR,33.3,23.3,80,16,23,NA,1014.6,METAR KHRL 122052Z 08016G23KT 10SM CLR 33/23 A2996 RMK AO2 SLP145 T03330233 58022,2025-09-12T21:45:08Z,2025-09-12T17:45:08Z,Valley International Airport,26.228500366210938,-97.65440368652344,US,US-TX
KHRL,"Harlingen/Valley Intl, TX, US",2025-09-12T21:52:00Z,2025-09-12 16:52:00,VFR,33.9,23.3,100,15,0,NA,1014.6,METAR KHRL 122152Z 10015KT 10SM FEW034 34/23 A2996 RMK AO2 PK WND 08026/2108 LTG DSNT SW SLP144 T03390233,2025-09-12T21:55:53Z,2025-09-12T17:55:53Z,Valley International Airport,26.228500366210938,-97.65440368652344,US,US-TX
KHRO,"Harrison/Boone Cnty, AR, US",2025-09-12T20:53:00Z,2025-09-12 15:53:00,VFR,32.2,16.1,190,3,0,NA,1019.7,METAR KHRO 122053Z AUTO 19003KT 10SM CLR 32/16 A3011 RMK AO2 SLP178 T03220161 56022,2025-09-12T21:45:08Z,2025-09-12T17:45:08Z,Boone County Airport,36.26150131225586,-93.15470123291016,US,US-AR
KHRO,"Harrison/Boone Cnty, AR, US",2025-09-12T21:53:00Z,2025-09-12 16:53:00,VFR,33.9,16.1,0,0,0,NA,1019.4,METAR KHRO 122153Z AUTO 00000KT 10SM BKN070 34/16 A3010 RMK AO2 SLP175 T03390161,2025-09-12T21:55:52Z,2025-09-12T17:55:52Z,Boone County Airport,36.26150131225586,-93.15470123291016,US,US-AR
KHRT,"Ft Walton Beach/Hurlburt Fld, FL, US",2025-09-12T20:55:00Z,2025-09-12 20:55:00,VFR,30.7,17.4,220,9,0,NA,1016,METAR KHRT 122055Z 22009KT 10SM FEW090 31/17 A3000 RMK AO2A SLP157 T03070174 57016 $,2025-09-12T21:45:08Z,2025-09-12T17:45:08Z,Hurlburt Field,30.427799,-86.689301,US,US-FL
KHRX,"Hereford Muni, TX, US",2025-09-12T21:35:00Z,2025-09-12 21:35:00,VFR,32.4,8.8,190,16,26,NA,1019.7,METAR KHRX 122135Z AUTO 19016G26KT 10SM CLR 32/09 A3011 RMK AO2 T03240088 TSNO,2025-09-12T21:45:08Z,2025-09-12T17:45:08Z,Hereford Municipal Airport,34.85779953,-102.3259964,US,US-TX
KHSA,"Bay St Louis/Stennis Intl, MS, US",2025-09-12T20:47:00Z,2025-09-12 20:47:00,VFR,32,19,160,8,0,NA,1016.7,METAR KHSA 122047Z 16008KT 10SM SCT050 32/19 A3002,2025-09-12T21:45:08Z,2025-09-12T17:45:08Z,Stennis International Airport,30.3678,-89.454597,US,US-MS
KHSA,"Bay St Louis/Stennis Intl, MS, US",2025-09-12T21:47:00Z,2025-09-12 21:47:00,VFR,32,19,220,6,0,NA,1016.3,METAR KHSA 122147Z 22006KT 10SM FEW050 32/19 A3001,2025-09-12T21:55:53Z,2025-09-12T17:55:53Z,Stennis International Airport,30.3678,-89.454597,US,US-MS
KHSB,"Harrisburg/Raleigh Arpt, IL, US",2025-09-12T21:35:00Z,2025-09-12 16:35:00,VFR,32.1,10.1,VAR,NA,0,NA,1019,METAR KHSB 122135Z 10SM CLR 32/10 A3009 RMK AO2 T03210101,2025-09-12T21:45:08Z,2025-09-12T17:45:08Z,Harrisburg-Raleigh Airport,37.811298,-88.550301,US,US-IL
KHSD,"Oklahoma City/Sundance Arpt, OK, US",2025-09-12T21:35:00Z,2025-09-12 21:35:00,VFR,34,17,160,9,14,NA,1017,METAR KHSD 122135Z AUTO 16009G14KT 10SM CLR 34/17 A3003 RMK A01,2025-09-12T21:45:08Z,2025-09-12T17:45:08Z,Sundance Airpark,35.601799,-97.7062,US,US-OK
KHSE,"Hatteras/Mitchell Fld, NC, US",2025-09-12T20:51:00Z,2025-09-12 16:51:00,VFR,23.9,16.7,40,10,22,NA,1019,METAR KHSE 122051Z AUTO 04010G22KT 020V080 10SM CLR 24/17 A3009 RMK AO2 SLP188 T02390167 55006,2025-09-12T21:45:08Z,2025-09-12T17:45:08Z,Billy Mitchell Airport,35.232799530029,-75.617797851562,US,US-NC
KHSE,"Hatteras/Mitchell Fld, NC, US",2025-09-12T21:51:00Z,2025-09-12 17:51:00,VFR,23.3,16.1,40,11,24,NA,1019,METAR KHSE 122151Z AUTO 04011G24KT 10SM CLR 23/16 A3009 RMK AO2 SLP188 T02330161,2025-09-12T21:55:53Z,2025-09-12T17:55:53Z,Billy Mitchell Airport,35.232799530029,-75.617797851562,US,US-NC
KHSG,"Thermopolis/Hot Springs Cnty, WY, US",2025-09-12T21:35:00Z,2025-09-12 15:35:00,VFR,25.1,5,80,4,0,NA,1016,METAR KHSG 122135Z AUTO 08004KT 10SM CLR 25/05 A3000 RMK AO2 LTG DSNT SW T02510050,2025-09-12T21:45:08Z,2025-09-12T17:45:08Z,Hot Springs County Airport,43.713602,-108.389687,US,US-WY
KHSI,"Hastings Muni, NE, US",2025-09-12T20:53:00Z,2025-09-12 15:53:00,VFR,34.4,15.6,170,8,0,NA,1013.3,METAR KHSI 122053Z AUTO 17008KT 10SM CLR 34/16 A2992 RMK AO2 SLP110 T03440156 58015,2025-09-12T21:45:08Z,2025-09-12T17:45:08Z,Hastings Municipal Airport,40.6053009033,-98.4279022217,US,US-NE
KHSI,"Hastings Muni, NE, US",2025-09-12T21:53:00Z,2025-09-12 16:53:00,VFR,35,15.6,180,9,17,NA,1013,METAR KHSI 122153Z AUTO 18009G17KT 10SM CLR 35/16 A2991 RMK AO2 SLP105 T03500156 $,2025-09-12T21:55:52Z,2025-09-12T17:55:52Z,Hastings Municipal Airport,40.6053009033,-98.4279022217,US,US-NE
KHSP,"Hot Springs/Ingalls Fld, VA, US",2025-09-12T21:35:00Z,2025-09-12 17:35:00,VFR,21.1,8.1,80,5,0,NA,1025.1,METAR KHSP 122135Z AUTO 08005KT 10SM CLR 21/08 A3027 RMK AO2 T02110081,2025-09-12T21:45:08Z,2025-09-12T17:45:08Z,Ingalls Field,37.95140076,-79.83390045,US,US-VA
KHST,"Homestead AFB, FL, US",2025-09-12T20:55:00Z,2025-09-12 16:55:00,VFR,24.6,23,350,4,0,NA,1013,METAR KHST 122055Z 35004KT 10SM FEW030 SCT040 SCT150 BKN250 25/23 A2991 RMK LTG DSNT NE-SE RAE1959RAB06E21RAB22E32DZB32E34 TSB1955E26 SLP132 P0003 60067 T02460230 58002,2025-09-12T21:45:08Z,2025-09-12T17:45:08Z,Homestead ARB Airport,25.48859978,-80.38359833,US,US-FL
KHSV,"Huntsville Intl, AL, US",2025-09-12T20:53:00Z,2025-09-12 15:53:00,VFR,30.6,12.8,50,5,0,NA,1018.7,METAR KHSV 122053Z 05005KT 10SM FEW075 31/13 A3008 RMK AO2 SLP180 T03060128 56017 $,2025-09-12T21:45:08Z,2025-09-12T17:45:08Z,Huntsville International Carl T Jones Field,34.637199,-86.775101,US,US-AL
KHSV,"Huntsville Intl, AL, US",2025-09-12T21:53:00Z,2025-09-12 16:53:00,VFR,30,13.3,0,0,0,NA,1018.7,METAR KHSV 122153Z 00000KT 10SM FEW075 30/13 A3008 RMK AO2 SLP178 T03000133 $,2025-09-12T21:55:52Z,2025-09-12T17:55:52Z,Huntsville International Carl T Jones Field,34.637199,-86.775101,US,US-AL
KHTH,"Hawthorne Muni, NV, US",2025-09-12T21:35:00Z,2025-09-12 14:35:00,NA,24,4,300,7,0,NA,1016.7,METAR KHTH 122135Z AUTO 30007KT 10SM 24/04 A3002 RMK A01,2025-09-12T21:45:08Z,2025-09-12T17:45:08Z,Hawthorne Industrial Airport,38.544399,-118.634002,US,US-NV
KHTL,"Houghton Lake/Blodgett Mem, MI, US",2025-09-12T20:53:00Z,2025-09-12 16:53:00,VFR,25.6,11.1,260,4,0,NA,1021.8,METAR KHTL 122053Z AUTO 26004KT 10SM FEW070 26/11 A3017 RMK AO2 SLP217 T02560111 56016,2025-09-12T21:45:08Z,2025-09-12T17:45:08Z,Roscommon County - Blodgett Memorial Airport,44.359798,-84.671095,US,US-MI
KHTL,"Houghton Lake/Blodgett Mem, MI, US",2025-09-12T21:53:00Z,2025-09-12 17:53:00,VFR,25,11.7,VAR,4,0,NA,1021.8,METAR KHTL 122153Z AUTO VRB04KT 10SM CLR 25/12 A3017 RMK AO2 SLP215 T02500117,2025-09-12T21:55:52Z,2025-09-12T17:55:52Z,Roscommon County - Blodgett Memorial Airport,44.359798,-84.671095,US,US-MI
KHTS,"Huntington/Ferguson Fld, WV, US",2025-09-12T20:51:00Z,2025-09-12 16:51:00,VFR,28.9,10,VAR,3,0,NA,1020.7,METAR KHTS 122051Z VRB03KT 10SM CLR 29/10 A3014 RMK AO2 SLP199 T02890100 56019,2025-09-12T21:45:08Z,2025-09-12T17:45:08Z,Tri-State Airport / Milton J. Ferguson Field,38.366699,-82.557999,US,US-WV
KHTS,"Huntington/Ferguson Fld, WV, US",2025-09-12T21:51:00Z,2025-09-12 17:51:00,VFR,28.9,11.1,0,0,0,NA,1020.4,METAR KHTS 122151Z 00000KT 10SM CLR 29/11 A3013 RMK AO2 SLP198 T02890111,2025-09-12T21:55:53Z,2025-09-12T17:55:53Z,Tri-State Airport / Milton J. Ferguson Field,38.366699,-82.557999,US,US-WV
KHUF,"Terre Haute/Hulman Fld, IN, US",2025-09-12T20:53:00Z,2025-09-12 16:53:00,VFR,30,13.3,140,3,0,NA,1020.4,METAR KHUF 122053Z 14003KT 10SM CLR 30/13 A3013 RMK AO2 SLP199 T03000133 56020,2025-09-12T21:45:08Z,2025-09-12T17:45:08Z,"Terre Haute Regional Airport, Hulman Field",39.4515,-87.307602,US,US-IN
KHUF,"Terre Haute/Hulman Fld, IN, US",2025-09-12T21:53:00Z,2025-09-12 17:53:00,VFR,30.6,13.3,VAR,3,0,NA,1020.1,METAR KHUF 122153Z VRB03KT 10SM CLR 31/13 A3012 RMK AO2 SLP194 T03060133,2025-09-12T21:55:52Z,2025-09-12T17:55:52Z,"Terre Haute Regional Airport, Hulman Field",39.4515,-87.307602,US,US-IN
KHUL,"Houlton Intl, ME, US",2025-09-12T20:53:00Z,2025-09-12 17:53:00,VFR,19.4,4.4,350,7,0,NA,1021.4,METAR KHUL 122053Z AUTO 35007KT 10SM CLR 19/04 A3016 RMK AO2 SLP216 T01940044 55004,2025-09-12T21:45:08Z,2025-09-12T17:45:08Z,Houlton International Airport,46.1231002808,-67.792098999,US,US-ME
KHUL,"Houlton Intl, ME, US",2025-09-12T21:53:00Z,2025-09-12 18:53:00,VFR,17.8,5.6,10,6,0,NA,1021.4,METAR KHUL 122153Z AUTO 01006KT 10SM CLR 18/06 A3016 RMK AO2 SLP218 T01780056,2025-09-12T21:55:52Z,2025-09-12T17:55:52Z,Houlton International Airport,46.1231002808,-67.792098999,US,US-ME
KHUM,"Houma/Terrebonne Arpt, LA, US",2025-09-12T20:48:00Z,2025-09-12 15:48:00,VFR,33,18,90,4,0,7,1017.7,METAR KHUM 122048Z 09004KT 7SM CLR 33/18 A3005,2025-09-12T21:45:08Z,2025-09-12T17:45:08Z,Houma Terrebonne Airport,29.5664997101,-90.6604003906,US,US-LA
KHUM,"Houma/Terrebonne Arpt, LA, US",2025-09-12T21:47:00Z,2025-09-12 16:47:00,VFR,33,19,90,4,0,7,1017.4,METAR KHUM 122147Z 09004KT 7SM CLR 33/19 A3004,2025-09-12T21:55:53Z,2025-09-12T17:55:53Z,Houma Terrebonne Airport,29.5664997101,-90.6604003906,US,US-LA
KHUT,"Hutchinson Muni, KS, US",2025-09-12T20:52:00Z,2025-09-12 15:52:00,VFR,33.3,17.8,190,15,22,NA,1016.3,METAR KHUT 122052Z 19015G22KT 10SM CLR 33/18 A3001 RMK AO2 SLP137 T03330178 58017,2025-09-12T21:45:08Z,2025-09-12T17:45:08Z,Hutchinson Municipal Airport,38.0654983521,-97.86060333250002,US,US-KS
KHUT,"Hutchinson Muni, KS, US",2025-09-12T21:52:00Z,2025-09-12 16:52:00,VFR,33.3,17.8,180,11,21,NA,1015.7,METAR KHUT 122152Z 18011G21KT 10SM CLR 33/18 A2999 RMK AO2 SLP131 T03330178,2025-09-12T21:55:53Z,2025-09-12T17:55:53Z,Hutchinson Municipal Airport,38.0654983521,-97.86060333250002,US,US-KS
KHVC,"Hopkinsville/Christian Cnty, KY, US",2025-09-12T21:35:00Z,2025-09-12 21:35:00,VFR,32,12,VAR,5,0,NA,1019,METAR KHVC 122135Z AUTO VRB05KT 10SM CLR 32/12 A3009 RMK AO2,2025-09-12T21:45:08Z,2025-09-12T17:45:08Z,Hopkinsville Christian County Airport,36.856998,-87.455101,US,US-KY
KHVE,"Hanksville Arpt, UT, US",2025-09-12T21:30:00Z,2025-09-12 15:30:00,VFR,30,-1,220,16,23,NA,1014.3,METAR KHVE 122130Z AUTO 22016G23KT 10SM SCT120 30/M01 A2995 RMK AO2,2025-09-12T21:45:08Z,2025-09-12T17:45:08Z,Hanksville Airport,38.4179992676,-110.70400238,US,US-UT
KHVN,"New Haven/Tweed Arpt, CT, US",2025-09-12T20:53:00Z,2025-09-12 16:53:00,VFR,24.4,14.4,180,8,0,NA,1021.8,METAR KHVN 122053Z 18008KT 10SM SCT060 24/14 A3017 RMK AO2 SLP216 T02440144 56008,2025-09-12T21:45:08Z,2025-09-12T17:45:08Z,Tweed New Haven Airport,41.26369858,-72.88680267,US,US-CT
KHVN,"New Haven/Tweed Arpt, CT, US",2025-09-12T21:53:00Z,2025-09-12 17:53:00,VFR,23.9,13.3,140,7,0,NA,1021.8,METAR KHVN 122153Z 14007KT 10SM BKN060 24/13 A3017 RMK AO2 SLP217 T02390133,2025-09-12T21:55:53Z,2025-09-12T17:55:53Z,Tweed New Haven Airport,41.26369858,-72.88680267,US,US-CT
KHVR,"Havre/City Arpt, MT, US",2025-09-12T20:53:00Z,2025-09-12 14:53:00,VFR,22.2,10.6,50,11,0,NA,1015,METAR KHVR 122053Z AUTO 05011KT 10SM CLR 22/11 A2997 RMK AO2 LTG DSNT SE AND S SLP136 T02220106 58014,2025-09-12T21:45:08Z,2025-09-12T17:45:08Z,Havre City County Airport,48.541387,-109.762859,US,US-MT
KHVR,"Havre/City Arpt, MT, US",2025-09-12T21:53:00Z,2025-09-12 15:53:00,VFR,20.6,11.1,90,7,0,NA,1014.3,METAR KHVR 122153Z AUTO 09007KT 10SM CLR 21/11 A2995 RMK AO2 LTG DSNT SE AND S SLP133 T02060111,2025-09-12T21:55:52Z,2025-09-12T17:55:52Z,Havre City County Airport,48.541387,-109.762859,US,US-MT
KHVS,"Hartsville Rgnl, SC, US",2025-09-12T21:35:00Z,2025-09-12 17:35:00,VFR,29,12,70,12,0,NA,1018.7,METAR KHVS 122135Z AUTO 07012KT 10SM SCT065 SCT080 29/12 A3008 RMK AO2,2025-09-12T21:45:08Z,2025-09-12T17:45:08Z,Hartsville Regional Airport,34.4030990601,-80.11920166019999,US,US-SC
KHWD,"Hayward Exec, CA, US",2025-09-12T20:54:00Z,2025-09-12 13:54:00,VFR,20.6,14.4,290,9,17,NA,1014.6,METAR KHWD 122054Z 29009G17KT 10SM CLR 21/14 A2996 RMK AO2 SLP155 T02060144 58013,2025-09-12T21:45:08Z,2025-09-12T17:45:08Z,Hayward Executive Airport,37.659198761,-122.122001648,US,US-CA
KHWO,"Hollywood/North Perry Aprt, FL, US",2025-09-12T20:53:00Z,2025-09-12 16:53:00,VFR,26.1,23.3,340,7,0,NA,1013.3,METAR KHWO 122053Z 34007KT 10SM FEW009 SCT045 26/23 A2992 RMK AO2 LTG DSNT NE-SE SLP133 T02610233 58004 $,2025-09-12T21:45:08Z,2025-09-12T17:45:08Z,North Perry Airport,26.0012,-80.2407,US,US-FL
KHWO,"Hollywood/North Perry Aprt, FL, US",2025-09-12T21:53:00Z,2025-09-12 17:53:00,VFR,26.7,23.3,360,8,0,NA,1013.3,METAR KHWO 122153Z 36008KT 10SM CLR 27/23 A2992 RMK AO2 LTG DSNT E SLP130 T02670233 $,2025-09-12T21:55:52Z,2025-09-12T17:55:52Z,North Perry Airport,26.0012,-80.2407,US,US-FL
KHWV,"Brookhaven Arpt, NY, US",2025-09-12T20:56:00Z,2025-09-12 16:56:00,VFR,22.2,15,150,8,0,NA,1022.1,METAR KHWV 122056Z AUTO 15008KT 10SM CLR 22/15 A3018 RMK AO2 SLP219 T02220150 56005,2025-09-12T21:45:08Z,2025-09-12T17:45:08Z,Brookhaven Calabro Airport,40.821899,-72.8694,US,US-NY
KHWY,"Warrenton/Fauquier Arpt, VA, US",2025-09-12T21:35:00Z,2025-09-12 21:35:00,VFR,27.7,7.9,80,7,0,NA,1021.4,METAR KHWY 122135Z AUTO 08007KT 10SM CLR 28/08 A3016 RMK AO2 T02770079,2025-09-12T21:45:08Z,2025-09-12T17:45:08Z,Warrenton Fauquier Airport,38.5863,-77.710602,US,US-VA
KHXD,"Hilton Head Arpt, SC, US",2025-09-12T20:50:00Z,2025-09-12 16:50:00,VFR,27,19,70,4,11,NA,1017.7,METAR KHXD 122050Z 07004G11KT 10SM CLR 27/19 A3005,2025-09-12T21:45:08Z,2025-09-12T17:45:08Z,Hilton Head Airport,32.2244,-80.697502,US,US-SC
KHXD,"Hilton Head Arpt, SC, US",2025-09-12T21:50:00Z,2025-09-12 17:50:00,VFR,27,19,90,6,0,NA,1017.7,METAR KHXD 122150Z 09006KT 10SM SCT050 27/19 A3005,2025-09-12T21:55:53Z,2025-09-12T17:55:53Z,Hilton Head Airport,32.2244,-80.697502,US,US-SC
KHYA,"Hyannis/Barnstable Muni, MA, US",2025-09-12T20:56:00Z,2025-09-12 16:56:00,VFR,20.6,11.7,50,9,0,NA,1022.1,METAR KHYA 122056Z 05009KT 10SM CLR 21/12 A3018 RMK AO2 SLP222 T02060117 56003,2025-09-12T21:45:08Z,2025-09-12T17:45:08Z,Cape Cod Gateway Airport,41.6693,-70.280403,US,US-MA
KHYI,"San Marcos Muni, TX, US",2025-09-12T20:56:00Z,2025-09-12 20:56:00,VFR,36.1,15.6,150,9,18,NA,1017.4,METAR KHYI 122056Z 15009G18KT 10SM CLR 36/16 A3004 RMK AO2 SLP164 T03610156 56027,2025-09-12T21:45:08Z,2025-09-12T17:45:08Z,San Marcos Regional Airport,29.8927,-97.862999,US,US-TX
KHYR,"Hayward Muni, WI, US",2025-09-12T20:53:00Z,2025-09-12 15:53:00,VFR,20.6,15.6,180,14,22,NA,1016.3,METAR KHYR 122053Z AUTO 18014G22KT 10SM SCT008 SCT080 BKN095 21/16 A3001 RMK AO2 RAB25E47 SLP162 P0000 60000 T02060156 58034,2025-09-12T21:45:08Z,2025-09-12T17:45:08Z,Sawyer County Airport,46.025199890100005,-91.44429779050002,US,US-WI
KHYR,"Hayward Muni, WI, US",2025-09-12T21:53:00Z,2025-09-12 16:53:00,VFR,19.4,16.7,200,8,0,NA,1017,METAR KHYR 122153Z AUTO 20008KT 10SM FEW110 19/17 A3003 RMK AO2 RAB06E26 SLP170 P0000 T01940167,2025-09-12T21:55:53Z,2025-09-12T17:55:53Z,Sawyer County Airport,46.025199890100005,-91.44429779050002,US,US-WI
KHYS,"Hays Rgnl, KS, US",2025-09-12T20:56:00Z,2025-09-12 15:56:00,VFR,35.6,13.3,190,22,27,NA,1014.6,METAR KHYS 122056Z AUTO 19022G27KT 10SM CLR 36/13 A2996 RMK AO2 PK WND 19029/2029 SLP125 T03560133 58017 $,2025-09-12T21:45:08Z,2025-09-12T17:45:08Z,Hays Regional Airport,38.844521,-99.273148,US,US-KS
KHYW,"Conway/Horry Cnty, SC, US",2025-09-12T21:35:00Z,2025-09-12 21:35:00,VFR,27,16,50,8,0,NA,1018.4,METAR KHYW 122135Z AUTO 05008KT 10SM CLR 27/16 A3007 RMK AO2,2025-09-12T21:45:08Z,2025-09-12T17:45:08Z,Conway Horry County Airport,33.828499,-79.1222,US,US-SC
KHYX,"Saginaw Cnty Arpt, MI, US",2025-09-12T21:35:00Z,2025-09-12 21:35:00,VFR,26,12,230,4,0,8,1021.4,METAR KHYX 122135Z AUTO 23004KT 8SM SCT070 26/12 A3016 RMK AO2,2025-09-12T21:45:08Z,2025-09-12T17:45:08Z,Saginaw County H.W. Browne Airport,43.433399,-83.862297,US,US-MI
KHZD,"Huntingdon/Carroll Cnty, TN, US",2025-09-12T21:35:00Z,2025-09-12 21:35:00,VFR,32,14,100,5,0,NA,1018.4,METAR KHZD 122135Z AUTO 10005KT 10SM FEW075 32/14 A3007 RMK A01,2025-09-12T21:45:08Z,2025-09-12T17:45:08Z,Carroll County Airport,36.089298,-88.463303,US,US-TN
KHZE,"Hazen/Mercer Cnty, ND, US",2025-09-12T21:35:00Z,2025-09-12 21:35:00,VFR,30,16,20,8,15,NA,1012.6,METAR KHZE 122135Z AUTO 02008G15KT 10SM CLR 30/16 A2990 RMK AO2,2025-09-12T21:45:11Z,2025-09-12T17:45:11Z,Mercer County Regional Airport,47.28990173,-101.5810013,US,US-ND
KHZL,"Hazleton Muni, PA, US",2025-09-12T21:35:00Z,2025-09-12 17:35:00,VFR,NA,NA,0,0,0,NA,1023.8,METAR KHZL 122135Z AUTO 00000KT 10SM OVC055 A3023 RMK AO2,2025-09-12T21:45:10Z,2025-09-12T17:45:10Z,Hazleton Municipal Airport,40.9868011475,-75.9949035645,US,US-PA
KHZX,"McGregor/Iverson Arpt, MN, US",2025-09-12T21:35:00Z,2025-09-12 21:35:00,VFR,18,16,120,3,0,NA,1016.3,METAR KHZX 122135Z AUTO 12003KT 10SM OVC080 18/16 A3001 RMK AO2 LTG DSNT SE,2025-09-12T21:45:11Z,2025-09-12T17:45:11Z,Isedor Iverson Airport,46.61880111694336,-93.30979919433594,US,US-MN
KHZY,"Ashtabula/NE Ohio Rgnl, OH, US",2025-09-12T20:53:00Z,2025-09-12 16:53:00,VFR,23.9,11.7,VAR,3,0,NA,1022.1,METAR KHZY 122053Z AUTO VRB03KT 10SM CLR 24/12 A3018 RMK AO2 SLP220 T02390117 56016 $,2025-09-12T21:45:11Z,2025-09-12T17:45:11Z,Northeast Ohio Regional Airport,41.778,-80.695503,US,US-OH
KHZY,"Ashtabula/NE Ohio Rgnl, OH, US",2025-09-12T21:53:00Z,2025-09-12 17:53:00,VFR,22.8,11.7,360,6,0,NA,1022.4,METAR KHZY 122153Z AUTO 36006KT 10SM CLR 23/12 A3019 RMK AO2 SLP221 T02280117 $,2025-09-12T21:55:55Z,2025-09-12T17:55:55Z,Northeast Ohio Regional Airport,41.778,-80.695503,US,US-OH
KI16,"Pineville/Kee Fld, WV, US",2025-09-12T21:35:00Z,2025-09-12 21:35:00,VFR,24.3,15.8,VAR,NA,0,NA,1023.5,METAR KI16 122135Z AUTO 10SM CLR 24/16 A3022 RMK AO2 T02430158,2025-09-12T21:45:11Z,2025-09-12T17:45:11Z,Kee Field,37.600399,-81.559303,US,US-WV
KI23,"Washington Court House/Fayette Cnty, OH, US",2025-09-12T21:35:00Z,2025-09-12 21:35:00,VFR,28,4,0,0,0,NA,1021.1,METAR KI23 122135Z AUTO 00000KT 10SM CLR 28/04 A3015 RMK AO1,2025-09-12T21:45:10Z,2025-09-12T17:45:10Z,Fayette County Airport,39.5704,-83.420502,US,US-OH
KI35,"Harlan/Guthrie Mem, KY, US",2025-09-12T21:35:00Z,2025-09-12 21:35:00,VFR,26,13.9,80,4,0,NA,1021.8,METAR KI35 122135Z AUTO 08004KT 10SM CLR 26/14 A3017 RMK AO2 T02600139,2025-09-12T21:45:10Z,2025-09-12T17:45:10Z,Tucker Guthrie Memorial Airport,36.859352,-83.358523,US,US-KY
KI40,"Coshocton/Downing Arpt, OH, US",2025-09-12T21:35:00Z,2025-09-12 21:35:00,VFR,27,9,0,0,0,NA,1021.8,METAR KI40 122135Z AUTO 00000KT 10SM CLR 27/09 A3017 RMK AO2,2025-09-12T21:45:10Z,2025-09-12T17:45:10Z,Richard Downing Airport,40.3092,-81.853401,US,US-OH
KI63,"Mt Sterling Muni, IL, US",2025-09-12T21:35:00Z,2025-09-12 21:35:00,VFR,31.5,16,140,4,0,NA,1018.4,METAR KI63 122135Z AUTO 14004KT 10SM CLR 32/16 A3007 RMK AO2 T03150160,2025-09-12T21:45:10Z,2025-09-12T17:45:10Z,Mount Sterling Municipal Airport,39.987499,-90.804199,US,US-IL
KI67,"Harrison/West Arpt, OH, US",2025-09-12T21:35:00Z,2025-09-12 21:35:00,VFR,29,9,140,3,0,NA,1020.4,METAR KI67 122135Z AUTO 14003KT 10SM CLR 29/09 A3013 RMK AO1,2025-09-12T21:45:10Z,2025-09-12T17:45:10Z,Cincinnati West Airport,39.2589,-84.7743,US,US-OH
KI68,"Lebanon/Warren Cnty, OH, US",2025-09-12T21:35:00Z,2025-09-12 21:35:00,VFR,29,12,0,0,0,NA,1020.4,METAR KI68 122135Z AUTO 00000KT 10SM CLR 29/12 A3013 RMK AO2,2025-09-12T21:45:11Z,2025-09-12T17:45:11Z,Warren County Airport/John Lane Field,39.4622,-84.251801,US,US-OH
KI69,"Batavia/Clermont Cnty, OH, US",2025-09-12T21:36:00Z,2025-09-12 21:36:00,VFR,28.7,9.5,350,3,0,NA,1021.1,METAR KI69 122136Z AUTO 35003KT 10SM CLR 29/10 A3015 RMK AO1 T02870095,2025-09-12T21:45:10Z,2025-09-12T17:45:10Z,Clermont County Airport,39.0784,-84.210197,US,US-OH
KI74,"Urbana/Grimes Fld, OH, US",2025-09-12T21:35:00Z,2025-09-12 21:35:00,VFR,27,7,360,3,0,NA,1021.4,METAR KI74 122135Z AUTO 36003KT 10SM CLR 27/07 A3016 RMK AO2,2025-09-12T21:45:10Z,2025-09-12T17:45:10Z,Grimes Field,40.132599,-83.753403,US,US-OH
KI75,"Osceola Muni, IA, US",2025-09-12T21:35:00Z,2025-09-12 21:35:00,VFR,33.2,16,110,12,15,NA,1015.7,METAR KI75 122135Z AUTO 11012G15KT 10SM CLR 33/16 A2999 RMK AO2 T03320160,2025-09-12T21:45:10Z,2025-09-12T17:45:10Z,Osceola Municipal Airport,41.0522,-93.689697,US,US-IA
KI95,"Kenton/Hardin Cnty, OH, US",2025-09-12T21:35:00Z,2025-09-12 21:35:00,VFR,27,11,0,0,0,NA,1021.1,METAR KI95 122135Z AUTO 00000KT 10SM CLR 27/11 A3015 RMK A01,2025-09-12T21:45:10Z,2025-09-12T17:45:10Z,Hardin County Airport,40.610699,-83.6436,US,US-OH
KIAB,"McConnell AFB, KS, US",2025-09-12T20:55:00Z,2025-09-12 15:55:00,VFR,33.5,17.6,210,14,0,NA,1016.7,METAR KIAB 122055Z AUTO 21014KT 10SM CLR 34/18 A3002 RMK AO2 SLP150 T03350176 57016,2025-09-12T21:45:11Z,2025-09-12T17:45:11Z,McConnell Air Force Base,37.621899,-97.268204,US,US-KS
KIAD,"Washington/Dulles Intl, VA, US",2025-09-12T20:52:00Z,2025-09-12 16:52:00,VFR,27.8,9.4,110,6,0,NA,1021.4,METAR KIAD 122052Z 11006KT 10SM FEW070 28/09 A3016 RMK AO2 SLP209 T02780094 56008,2025-09-12T21:45:11Z,2025-09-12T17:45:11Z,Washington Dulles International Airport,38.9445,-77.455803,US,US-VA
KIAD,"Washington/Dulles Intl, VA, US",2025-09-12T21:52:00Z,2025-09-12 17:52:00,VFR,27.2,8.3,110,8,0,NA,1021.4,METAR KIAD 122152Z 11008KT 10SM FEW070 27/08 A3016 RMK AO2 SLP210 T02720083,2025-09-12T21:55:55Z,2025-09-12T17:55:55Z,Washington Dulles International Airport,38.9445,-77.455803,US,US-VA
KIAG,"Niagara Falls Intl, NY, US",2025-09-12T20:53:00Z,2025-09-12 16:53:00,VFR,25,12.2,340,8,0,NA,1022.1,METAR KIAG 122053Z 34008KT 10SM FEW065 25/12 A3018 RMK AO2 SLP219 T02500122 56015,2025-09-12T21:45:11Z,2025-09-12T17:45:11Z,Niagara Falls International Airport,43.1073,-78.946198,US,US-NY
KIAG,"Niagara Falls Intl, NY, US",2025-09-12T21:53:00Z,2025-09-12 17:53:00,VFR,23.9,11.7,340,6,0,NA,1022.1,METAR KIAG 122153Z 34006KT 10SM CLR 24/12 A3018 RMK AO2 SLP219 T02390117,2025-09-12T21:55:55Z,2025-09-12T17:55:55Z,Niagara Falls International Airport,43.1073,-78.946198,US,US-NY
KIAH,"Houston/Bush Intl, TX, US",2025-09-12T20:53:00Z,2025-09-12 15:53:00,VFR,32.2,18.9,100,7,0,NA,1017.4,METAR KIAH 122053Z 10007KT 10SM SCT055 32/19 A3004 RMK AO2 SLP170 T03220189 58021 $,2025-09-12T21:45:11Z,2025-09-12T17:45:11Z,George Bush Intercontinental Houston Airport,29.984399795532227,-95.341400146484375,US,US-TX
KIAH,"Houston/Bush Intl, TX, US",2025-09-12T21:53:00Z,2025-09-12 16:53:00,VFR,32.2,19.4,110,10,0,NA,1017,METAR KIAH 122153Z 11010KT 10SM SCT060 32/19 A3003 RMK AO2 SLP167 T03220194 $,2025-09-12T21:55:55Z,2025-09-12T17:55:55Z,George Bush Intercontinental Houston Airport,29.984399795532227,-95.341400146484375,US,US-TX
KIBM,"Kimball Muni, NE, US",2025-09-12T21:35:00Z,2025-09-12 21:35:00,VFR,29.8,8.3,180,7,0,NA,1016.7,METAR KIBM 122135Z AUTO 18007KT 10SM CLR 30/08 A3002 RMK AO2 T02980083,2025-09-12T21:45:10Z,2025-09-12T17:45:10Z,Kimball Municipal Robert E Arraj Field,41.1880989074707,-103.677001953125,US,US-NE
KICL,"Clarinda/Schenck Fld, IA, US",2025-09-12T21:35:00Z,2025-09-12 16:35:00,VFR,35,18,210,15,22,NA,1014,METAR KICL 122135Z AUTO 21015G22KT 10SM CLR 35/18 A2994 RMK AO2,2025-09-12T21:45:10Z,2025-09-12T17:45:10Z,Schenck Field,40.72180176,-95.02639771,US,US-IA
KICR,"Winner/Wiley Fld, SD, US",2025-09-12T20:53:00Z,2025-09-12 20:53:00,VFR,31.1,18.9,360,5,0,NA,1010.9,METAR KICR 122053Z AUTO 36005KT 10SM CLR 31/19 A2985 RMK AO2 SLP091 T03110189 56011,2025-09-12T21:45:11Z,2025-09-12T17:45:11Z,Winner Regional Airport,43.390202,-99.842102,US,US-SD
KICR,"Winner/Wiley Fld, SD, US",2025-09-12T21:53:00Z,2025-09-12 21:53:00,VFR,32.8,18.3,20,4,0,NA,1010.9,METAR KICR 122153Z AUTO 02004KT 10SM CLR 33/18 A2985 RMK AO2 SLP089 T03280183,2025-09-12T21:55:55Z,2025-09-12T17:55:55Z,Winner Regional Airport,43.390202,-99.842102,US,US-SD
KICT,"Wichita/Eisenhower Arpt, KS, US",2025-09-12T20:53:00Z,2025-09-12 15:53:00,VFR,33.3,17.2,200,12,0,NA,1016.7,METAR KICT 122053Z 20012KT 10SM FEW190 FEW250 33/17 A3002 RMK AO2 SLP149 T03330172 57017,2025-09-12T21:45:11Z,2025-09-12T17:45:11Z,Wichita Eisenhower National Airport,37.649899,-97.433098,US,US-KS
KICT,"Wichita/Eisenhower Arpt, KS, US",2025-09-12T21:53:00Z,2025-09-12 16:53:00,VFR,33.3,17.2,180,11,0,NA,1016.3,METAR KICT 122153Z 18011KT 10SM FEW190 FEW250 33/17 A3001 RMK AO2 SLP145 T03330172,2025-09-12T21:55:55Z,2025-09-12T17:55:55Z,Wichita Eisenhower National Airport,37.649899,-97.433098,US,US-KS
KIDA,"Idaho Falls Rgnl, ID, US",2025-09-12T20:53:00Z,2025-09-12 14:53:00,VFR,23.9,3.3,0,0,0,NA,1016.7,METAR KIDA 122053Z 00000KT 10SM CLR 24/03 A3002 RMK AO2 SLP135 T02390033 58019,2025-09-12T21:45:11Z,2025-09-12T17:45:11Z,Idaho Falls Regional Airport,43.514599,-112.070999,US,US-ID
KIDA,"Idaho Falls Rgnl, ID, US",2025-09-12T21:53:00Z,2025-09-12 15:53:00,VFR,24.4,2.2,240,5,0,NA,1015.7,METAR KIDA 122153Z 24005KT 10SM CLR 24/02 A2999 RMK AO2 SLP123 T02440022,2025-09-12T21:55:55Z,2025-09-12T17:55:55Z,Idaho Falls Regional Airport,43.514599,-112.070999,US,US-ID
KIDI,"Indiana/Stewart Arpt, PA, US",2025-09-12T21:35:00Z,2025-09-12 17:35:00,VFR,26,9,0,0,0,NA,1021.8,METAR KIDI 122135Z AUTO 00000KT 10SM CLR 26/09 A3017 RMK A01,2025-09-12T21:45:10Z,2025-09-12T17:45:10Z,Indiana County–Jimmy Stewart Airport,40.631119,-79.101884,US,US-PA
KIDP,"Independence Muni, KS, US",2025-09-12T21:35:00Z,2025-09-12 16:35:00,VFR,33,21,170,11,0,NA,1017.4,METAR KIDP 122135Z AUTO 17011KT 10SM CLR 33/21 A3004 RMK AO2,2025-09-12T21:45:10Z,2025-09-12T17:45:10Z,Independence Municipal Airport,37.1584014893,-95.7783966064,US,US-KS
KIEN,"Pine Ridge Strip, SD, US",2025-09-12T20:52:00Z,2025-09-12 14:52:00,VFR,32.2,9.4,20,5,0,NA,1012.6,METAR KIEN 122052Z AUTO 02005KT 10SM CLR 32/09 A2990 RMK AO2 SLP089 T03220094 56019 $,2025-09-12T21:45:11Z,2025-09-12T17:45:11Z,Pine Ridge Airport,43.020902,-102.506089,US,US-SD
KIEN,"Pine Ridge Strip, SD, US",2025-09-12T21:52:00Z,2025-09-12 15:52:00,VFR,33.3,7.8,310,5,0,NA,1012.3,METAR KIEN 122152Z AUTO 31005KT 10SM CLR 33/08 A2989 RMK AO2 SLP084 T03330078 $,2025-09-12T21:55:55Z,2025-09-12T17:55:55Z,Pine Ridge Airport,43.020902,-102.506089,US,US-SD
KIER,"Natchitoches Rgnl, LA, US",2025-09-12T21:35:00Z,2025-09-12 21:35:00,VFR,34.1,19.3,0,0,0,NA,1017,METAR KIER 122135Z AUTO 00000KT 10SM CLR 34/19 A3003 RMK AO2 T03410193,2025-09-12T21:45:10Z,2025-09-12T17:45:10Z,Natchitoches Regional Airport,31.735701,-93.099098,US,US-LA
KIFA,"Iowa Falls Muni, IA, US",2025-09-12T21:35:00Z,2025-09-12 16:35:00,VFR,27.3,16.8,140,14,21,NA,1014.6,METAR KIFA 122135Z AUTO 14014G21KT 10SM SCT110 27/17 A2996 RMK AO2 T02730168,2025-09-12T21:45:10Z,2025-09-12T17:45:10Z,Iowa Falls Municipal Airport,42.4707984924,-93.2699966431,US,US-IA
KIFP,"Bullhead City Intl, AZ, US",2025-09-12T20:47:00Z,2025-09-12 13:47:00,VFR,35,2,170,13,19,NA,1007.9,METAR KIFP 122047Z 17013G19KT 10SM CLR 35/02 A2976,2025-09-12T21:45:11Z,2025-09-12T17:45:11Z,Laughlin Bullhead International Airport,35.157398,-114.559998,US,US-AZ
KIGM,"Kingman Arpt, AZ, US",2025-09-12T20:51:00Z,2025-09-12 13:51:00,VFR,28.9,0.6,240,16,23,NA,1014,METAR KIGM 122051Z AUTO 24016G23KT 10SM CLR 29/01 A2994 RMK AO2 PK WND 23029/2004 SLP071 T02890006 58016,2025-09-12T21:45:11Z,2025-09-12T17:45:11Z,Kingman Airport,35.259499,-113.938004,US,US-AZ
KIGM,"Kingman Arpt, AZ, US",2025-09-12T21:51:00Z,2025-09-12 14:51:00,VFR,29.4,0,230,15,31,NA,1013.3,METAR KIGM 122151Z AUTO 23015G31KT 10SM CLR 29/00 A2992 RMK AO2 PK WND 23032/2106 SLP062 T02940000,2025-09-12T21:55:55Z,2025-09-12T17:55:55Z,Kingman Airport,35.259499,-113.938004,US,US-AZ
KIGQ,"Chicago/Lansing Muni, IL, US",2025-09-12T21:35:00Z,2025-09-12 21:35:00,NA,27.3,13.4,200,5,0,NA,1020.4,METAR KIGQ 122135Z AUTO 20005KT 10SM 27/13 A3013 RMK AO2 T02730134 TSNO,2025-09-12T21:45:11Z,2025-09-12T17:45:11Z,Lansing Municipal Airport,41.534901,-87.529503,US,US-IL
KIIB,"Independence Muni, IA, US",2025-09-12T21:35:00Z,2025-09-12 21:35:00,VFR,27.8,18,140,8,0,NA,1017,METAR KIIB 122135Z AUTO 14008KT 10SM CLR 28/18 A3003 RMK AO2 T02780180,2025-09-12T21:45:10Z,2025-09-12T17:45:10Z,Independence Municipal Airport,42.456836,-91.94767,US,US-IA
KIIY,"Washington/Wilkes Cnty, GA, US",2025-09-12T21:35:00Z,2025-09-12 21:35:00,VFR,28.5,14.4,40,3,0,NA,1019.7,METAR KIIY 122135Z AUTO 04003KT 10SM SCT060 28/14 A3011 RMK AO2 T02850144,2025-09-12T21:45:10Z,2025-09-12T17:45:10Z,Washington Wilkes County Airport,33.77939987,-82.81580353,US,US-GA
KIJD,"Willimantic/Windham Arpt, CT, US",2025-09-12T20:52:00Z,2025-09-12 20:52:00,VFR,23.3,8.3,10,3,0,NA,1022.1,METAR KIJD 122052Z AUTO 01003KT 10SM CLR 23/08 A3018 RMK AO2 SLP219 T02330083 56009,2025-09-12T21:45:11Z,2025-09-12T17:45:11Z,Windham Airport,41.743999,-72.180298,US,US-CT
KIJD,"Willimantic/Windham Arpt, CT, US",2025-09-12T21:52:00Z,2025-09-12 21:52:00,VFR,22.8,8.3,70,3,0,NA,1022.1,METAR KIJD 122152Z AUTO 07003KT 10SM CLR 23/08 A3018 RMK AO2 SLP219 T02280083,2025-09-12T21:55:55Z,2025-09-12T17:55:55Z,Windham Airport,41.743999,-72.180298,US,US-CT
KIJX,"Jacksonville Muni, IL, US",2025-09-12T21:35:00Z,2025-09-12 21:35:00,VFR,32,14.9,130,5,0,NA,1018,METAR KIJX 122135Z AUTO 13005KT 10SM CLR 32/15 A3006 RMK AO2 T03200149,2025-09-12T21:45:10Z,2025-09-12T17:45:10Z,Jacksonville Municipal Airport,39.774601,-90.238297,US,US-IL
KIKG,"Kingsville/Kleberg Cnty, TX, US",2025-09-12T21:35:00Z,2025-09-12 21:35:00,VFR,31.3,22,80,11,0,NA,1016,METAR KIKG 122135Z AUTO 08011KT 10SM SCT120 31/22 A3000 RMK AO2 T03130220,2025-09-12T21:45:10Z,2025-09-12T17:45:10Z,Kleberg County Airport,27.5509,-98.030899,US,US-TX
KIKK,"Kankakee Arpt, IL, US",2025-09-12T21:35:00Z,2025-09-12 16:35:00,VFR,29,12,190,5,0,NA,1020.4,METAR KIKK 122135Z AUTO 19005KT 10SM CLR 29/12 A3013 RMK AO2,2025-09-12T21:45:10Z,2025-09-12T17:45:10Z,Greater Kankakee Airport,41.07139968869999,-87.8462982178,US,US-IL
KIKV,"Ankeny Rgnl, IA, US",2025-09-12T21:35:00Z,2025-09-12 21:35:00,VFR,28,19,170,12,24,NA,1013.6,METAR KIKV 122135Z AUTO 17012G24KT 150V210 10SM CLR 28/19 A2993 RMK AO2,2025-09-12T21:45:10Z,2025-09-12T17:45:10Z,Ankeny Regional Airport,41.691399,-93.566399,US,US-IA
KILG,"Wilmington/New Castle Arpt, DE, US",2025-09-12T20:51:00Z,2025-09-12 16:51:00,VFR,27.8,11.7,VAR,NA,0,NA,1021.4,METAR KILG 122051Z 10SM OVC095 28/12 A3016 RMK AO2 SLP212 T02780117 56009,2025-09-12T21:45:11Z,2025-09-12T17:45:11Z,Wilmington Airport,39.678699,-75.606499,US,US-DE
KILG,"Wilmington/New Castle Arpt, DE, US",2025-09-12T21:51:00Z,2025-09-12 17:51:00,VFR,26.7,12.2,300,3,0,NA,1021.4,METAR KILG 122151Z 30003KT 10SM CLR 27/12 A3016 RMK AO2 SLP212 T02670122,2025-09-12T21:55:55Z,2025-09-12T17:55:55Z,Wilmington Airport,39.678699,-75.606499,US,US-DE
KILM,"Wilmington Intl, NC, US",2025-09-12T20:53:00Z,2025-09-12 16:53:00,VFR,26.1,16.1,30,15,0,NA,1018.4,METAR KILM 122053Z 03015KT 10SM BKN060 26/16 A3007 RMK AO2 SLP182 T02610161 56010,2025-09-12T21:45:11Z,2025-09-12T17:45:11Z,Wilmington International Airport,34.270599365234375,-77.90260314941406,US,US-NC
KILM,"Wilmington Intl, NC, US",2025-09-12T21:53:00Z,2025-09-12 17:53:00,VFR,25.6,16.7,30,12,0,NA,1018.7,METAR KILM 122153Z 03012KT 10SM BKN060 26/17 A3008 RMK AO2 SLP185 T02560167,2025-09-12T21:55:55Z,2025-09-12T17:55:55Z,Wilmington International Airport,34.270599365234375,-77.90260314941406,US,US-NC
KILN,"Wilmington Arpt, OH, US",2025-09-12T20:54:00Z,2025-09-12 16:54:00,VFR,27.2,8.3,130,3,0,NA,1021.4,METAR KILN 122054Z AUTO 13003KT 10SM CLR 27/08 A3016 RMK AO2 SLP208 T02720083 56020,2025-09-12T21:45:11Z,2025-09-12T17:45:11Z,Wilmington Airpark,39.427898407,-83.792098999,US,US-OH
KIML,"Imperial Muni, NE, US",2025-09-12T20:53:00Z,2025-09-12 14:53:00,VFR,34.4,11.7,VAR,NA,0,NA,1013.3,METAR KIML 122053Z AUTO 10SM CLR 34/12 A2992 RMK AO2 SLP093 T03440117 57022,2025-09-12T21:45:11Z,2025-09-12T17:45:11Z,Imperial Municipal Airport,40.50930023,-101.6210022,US,US-NE
KIML,"Imperial Muni, NE, US",2025-09-12T21:53:00Z,2025-09-12 15:53:00,VFR,34.4,10.6,200,8,17,NA,1012.6,METAR KIML 122153Z AUTO 20008G17KT 10SM CLR 34/11 A2990 RMK AO2 PK WND 25027/2106 SLP085 T03440106,2025-09-12T21:55:55Z,2025-09-12T17:55:55Z,Imperial Municipal Airport,40.50930023,-101.6210022,US,US-NE
KIMM,"Immokalee Rgnl, FL, US",2025-09-12T21:35:00Z,2025-09-12 17:35:00,VFR,31,25,90,6,0,NA,1012.6,METAR KIMM 122135Z AUTO 09006KT 10SM FEW041 31/25 A2990 RMK AO2 LTG DSNT N AND E,2025-09-12T21:45:10Z,2025-09-12T17:45:10Z,Immokalee Regional Airport,26.427933,-81.403531,US,US-FL
KIMS,"Madison Muni, IN, US",2025-09-12T21:07:00Z,2025-09-12 17:07:00,VFR,30,11,0,0,0,NA,1021.4,METAR KIMS 122107Z 00000KT 10SM CLR 30/11 A3016 RMK AO1,2025-09-12T21:45:11Z,2025-09-12T17:45:11Z,Madison Municipal Airport,38.75889969,-85.46549988,US,US-IN
KIMS,"Madison Muni, IN, US",2025-09-12T21:42:00Z,2025-09-12 17:42:00,VFR,29,12,140,4,0,NA,1021.1,METAR KIMS 122142Z 14004KT 10SM CLR 29/12 A3015 RMK AO1,2025-09-12T21:55:55Z,2025-09-12T17:55:55Z,Madison Municipal Airport,38.75889969,-85.46549988,US,US-IN
KIMT,"Iron Mountain/Ford Aprt, MI, US",2025-09-12T20:54:00Z,2025-09-12 15:54:00,VFR,24.4,16.7,170,5,0,NA,1020.1,METAR KIMT 122054Z AUTO 17005KT 10SM BKN045 24/17 A3012 RMK AO2 SLP199 T02440167 56021,2025-09-12T21:45:11Z,2025-09-12T17:45:11Z,Ford Airport,45.81911,-88.114557,US,US-MI
KIND,"Indianapolis Intl, IN, US",2025-09-12T20:54:00Z,2025-09-12 16:54:00,VFR,28.9,10,0,0,0,NA,1020.7,METAR KIND 122054Z 00000KT 10SM FEW250 29/10 A3014 RMK AO2 SLP200 T02890100 56020,2025-09-12T21:45:11Z,2025-09-12T17:45:11Z,Indianapolis International Airport,39.7173,-86.294403,US,US-IN
KINJ,"Hillsboro Muni, TX, US",2025-09-12T21:35:00Z,2025-09-12 21:35:00,VFR,33.7,18.8,140,9,0,NA,1017.7,METAR KINJ 122135Z AUTO 14009KT 10SM SCT060 34/19 A3005 RMK AO2 T03370188,2025-09-12T21:45:11Z,2025-09-12T17:45:11Z,Hillsboro Municipal Airport,32.0835,-97.097198,US,US-TX
KINL,"International Falls/Einarson Fld, MN, US",2025-09-12T20:54:00Z,2025-09-12 15:54:00,MVFR,18.9,16.7,70,8,0,NA,1016,METAR KINL 122054Z AUTO 07008KT 10SM OVC011 19/17 A3000 RMK AO2 SLP162 T01890167 56017,2025-09-12T21:45:11Z,2025-09-12T17:45:11Z,Falls International Airport,48.566200256347656,-93.4030990600586,US,US-MN
KINS,"Indian Springs/Creech AFB, NV, US",2025-09-12T20:55:00Z,2025-09-12 13:55:00,VFR,28.5,-1.6,110,4,0,NA,1012.6,METAR KINS 122055Z AUTO 11004KT 10SM CLR 29/M02 A2990 RMK AO2 SLP082 T02851016 57017 $,2025-09-12T21:45:11Z,2025-09-12T17:45:11Z,Creech Air Force Base,36.587200164799995,-115.672996521,US,US-NV
KINT,"Winston-Salem/Reynolds Arpt, NC, US",2025-09-12T20:54:00Z,2025-09-12 16:54:00,VFR,27.2,13.3,100,6,0,NA,1020.7,METAR KINT 122054Z 10006KT 10SM FEW060 27/13 A3014 RMK AO2 SLP197 T02720133 56015,2025-09-12T21:45:11Z,2025-09-12T17:45:11Z,Smith Reynolds Airport,36.13370132446289,-80.22200012207031,US,US-NC
KINW,"Winslow/Lindberg Rgnl, AZ, US",2025-09-12T20:56:00Z,2025-09-12 13:56:00,VFR,30.6,3.9,210,16,27,NA,1017,METAR KINW 122056Z AUTO 21016G27KT 10SM FEW100 31/04 A3003 RMK AO2 PK WND 22034/2012 SLP090 T03060039 56019,2025-09-12T21:45:11Z,2025-09-12T17:45:11Z,Winslow Lindbergh Regional Airport,35.021900177,-110.722999573,US,US-AZ
KIOB,"Mount Sterling/Montgomery Cnty, KY, US",2025-09-12T21:35:00Z,2025-09-12 21:35:00,VFR,28,12,0,0,0,NA,1021.4,METAR KIOB 122135Z AUTO 00000KT 10SM CLR 28/12 A3016 RMK AO2 PWINO,2025-09-12T21:45:10Z,2025-09-12T17:45:10Z,Mount Sterling Montgomery County Airport,38.058102,-83.979599,US,US-KY
KIOW,"Iowa City Muni, IA, US",2025-09-12T20:52:00Z,2025-09-12 15:52:00,VFR,31.7,16.7,150,13,0,9,1017.4,METAR KIOW 122052Z AUTO 15013KT 9SM CLR 32/17 A3004 RMK AO2 SLP168 T03170167 56021,2025-09-12T21:45:11Z,2025-09-12T17:45:11Z,Iowa City Municipal Airport,41.6391983032,-91.5465011597,US,US-IA
KIOW,"Iowa City Muni, IA, US",2025-09-12T21:52:00Z,2025-09-12 16:52:00,VFR,31.1,17.8,160,9,0,NA,1017.4,METAR KIOW 122152Z AUTO 16009KT 10SM CLR 31/18 A3004 RMK AO2 SLP167 T03110178,2025-09-12T21:55:55Z,2025-09-12T17:55:55Z,Iowa City Municipal Airport,41.6391983032,-91.5465011597,US,US-IA
KIPJ,"Lincolnton/Lincoln Cnty, NC, US",2025-09-12T21:35:00Z,2025-09-12 21:35:00,VFR,27.6,14,60,4,0,NA,1020.4,METAR KIPJ 122135Z AUTO 06004KT 10SM CLR 28/14 A3013 RMK AO2 T02760140,2025-09-12T21:45:10Z,2025-09-12T17:45:10Z,Lincolnton Lincoln County Regional Airport,35.483299,-81.161301,US,US-NC
KIPJ,"Lincolnton/Lincoln Cnty, NC, US",2025-09-12T21:45:00Z,2025-09-12 21:45:00,VFR,27.1,13.5,50,5,0,NA,1020.4,METAR KIPJ 122145Z AUTO 05005KT 10SM CLR 27/14 A3013 RMK AO2 T02710135,2025-09-12T21:55:55Z,2025-09-12T17:55:55Z,Lincolnton Lincoln County Regional Airport,35.483299,-81.161301,US,US-NC
KIPL,"Imperial Cnty Arpt, CA, US",2025-09-12T20:53:00Z,2025-09-12 13:53:00,VFR,35,1.7,VAR,4,0,NA,1007.9,METAR KIPL 122053Z AUTO VRB04KT 10SM CLR 35/02 A2976 RMK AO2 SLP077 T03500017 58024,2025-09-12T21:45:11Z,2025-09-12T17:45:11Z,Imperial County Airport,32.83539,-115.574026,US,US-CA
KIPL,"Imperial Cnty Arpt, CA, US",2025-09-12T21:53:00Z,2025-09-12 14:53:00,VFR,34.4,1.7,0,0,0,NA,1006.5,METAR KIPL 122153Z AUTO 00000KT 10SM CLR 34/02 A2972 RMK AO2 SLP066 T03440017,2025-09-12T21:55:55Z,2025-09-12T17:55:55Z,Imperial County Airport,32.83539,-115.574026,US,US-CA
KIPT,"Williamsport Rgnl, PA, US",2025-09-12T20:54:00Z,2025-09-12 16:54:00,VFR,27.2,10,VAR,3,0,NA,1020.7,METAR KIPT 122054Z VRB03KT 10SM SCT050 27/10 A3014 RMK AO2 SLP203 T02720100 56017,2025-09-12T21:45:11Z,2025-09-12T17:45:11Z,Williamsport Regional Airport,41.242126,-76.92245,US,US-PA
KIRK,"Kirksville Rgnl, MO, US",2025-09-12T20:55:00Z,2025-09-12 15:55:00,VFR,32.2,17.2,150,10,0,NA,1017.7,METAR KIRK 122055Z AUTO 15010KT 10SM CLR 32/17 A3005 RMK AO2 SLP171 T03220172 56017,2025-09-12T21:45:11Z,2025-09-12T17:45:11Z,Kirksville Regional Airport,40.09349822998047,-92.5448989868164,US,US-MO
KIRS,"Sturgis/Kirsh Muni, MI, US",2025-09-12T21:35:00Z,2025-09-12 17:35:00,VFR,27,11,VAR,2,0,NA,1021.4,METAR KIRS 122135Z AUTO VRB02KT 10SM FEW070 27/11 A3016 RMK AO2,2025-09-12T21:45:10Z,2025-09-12T17:45:10Z,Kirsch Municipal Airport,41.813301,-85.439003,US,US-MI
KISM,"Kissimmee Muni, FL, US",2025-09-12T20:56:00Z,2025-09-12 16:56:00,VFR,26.7,22.2,60,9,0,NA,1015.3,METAR KISM 122056Z 06009KT 10SM OVC032 27/22 A2998 RMK AO2 RAB32E51 SLP150 P0000 60000 T02670222 55007 $,2025-09-12T21:45:11Z,2025-09-12T17:45:11Z,Kissimmee Gateway Airport,28.2898006439,-81.4371032715,US,US-FL
KISO,"Kinston Rgnl, NC, US",2025-09-12T20:56:00Z,2025-09-12 16:56:00,VFR,25,17,40,8,0,NA,1020.1,METAR KISO 122056Z 04008KT 10SM BKN060 OVC065 25/17 A3012,2025-09-12T21:45:11Z,2025-09-12T17:45:11Z,Kinston Regional Jetport At Stallings Field,35.331401825,-77.60880279540001,US,US-NC
KISP,"Islip/Macarthur Arpt, NY, US",2025-09-12T20:56:00Z,2025-09-12 16:56:00,VFR,22.8,15,150,9,0,NA,1021.8,METAR KISP 122056Z 15009KT 10SM FEW055 SCT070 23/15 A3017 RMK SLP216 T02280150 56006,2025-09-12T21:45:11Z,2025-09-12T17:45:11Z,Long Island Mac Arthur Airport,40.79520035,-73.10019684,US,US-NY
KISQ,"Manistique/Schoolcraft Cnty, MI, US",2025-09-12T21:35:00Z,2025-09-12 17:35:00,NA,19.1,14.9,170,5,0,NA,1021.1,METAR KISQ 122135Z AUTO 17005KT 19/15 A3015 RMK AO2 T01910149 PWINO,2025-09-12T21:45:10Z,2025-09-12T17:45:10Z,Schoolcraft County Airport,45.974602,-86.171799,US,US-MI
KISW,"Wisconsin Rapids/S Wood Cnty, WI, US",2025-09-12T20:54:00Z,2025-09-12 15:54:00,VFR,26.1,14.4,190,5,0,NA,1019.4,METAR KISW 122054Z AUTO 19005KT 10SM CLR 26/14 A3010 RMK AO2 SLP191 T02610144 56023,2025-09-12T21:45:11Z,2025-09-12T17:45:11Z,Alexander Field South Wood County Airport,44.3602981567,-89.83899688720001,US,US-WI
KITH,"Ithaca/Tompkins Rgnl, NY, US",2025-09-12T20:55:00Z,2025-09-12 16:55:00,VFR,24,12,290,6,0,NA,1022.8,METAR KITH 122055Z 29006KT 10SM CLR 24/12 A3020,2025-09-12T21:45:11Z,2025-09-12T17:45:11Z,Ithaca Tompkins Regional Airport,42.49100112915039,-76.4583969116211,US,US-NY
KITH,"Ithaca/Tompkins Rgnl, NY, US",2025-09-12T21:55:00Z,2025-09-12 17:55:00,VFR,23,12,320,5,0,NA,1022.4,METAR KITH 122155Z 32005KT 10SM CLR 23/12 A3019,2025-09-12T21:55:55Z,2025-09-12T17:55:55Z,Ithaca Tompkins Regional Airport,42.49100112915039,-76.4583969116211,US,US-NY
KITR,"Burlington/Kit Carson Cnty, CO, US",2025-09-12T20:53:00Z,2025-09-12 20:53:00,VFR,32.2,9.4,190,15,25,NA,1016.3,METAR KITR 122053Z AUTO 19015G25KT 10SM CLR 32/09 A3001 RMK AO2 PK WND 21027/2042 SLP098 T03220094 58020,2025-09-12T21:45:11Z,2025-09-12T17:45:11Z,Kit Carson County Airport,39.2425,-102.285004,US,US-CO
KITR,"Burlington/Kit Carson Cnty, CO, US",2025-09-12T21:53:00Z,2025-09-12 21:53:00,VFR,32.8,9.4,210,16,25,NA,1016,METAR KITR 122153Z AUTO 21016G25KT 10SM CLR 33/09 A3000 RMK AO2 PK WND 19029/2123 SLP094 T03280094,2025-09-12T21:55:55Z,2025-09-12T17:55:55Z,Kit Carson County Airport,39.2425,-102.285004,US,US-CO
KIWA,"Phoenix/Mesa Gateway Arpt, AZ, US",2025-09-12T20:47:00Z,2025-09-12 13:47:00,VFR,35,17,VAR,6,0,NA,1009.9,METAR KIWA 122047Z VRB06KT 10SM BKN070 BKN110 35/17 A2982,2025-09-12T21:45:11Z,2025-09-12T17:45:11Z,Mesa Gateway Airport,33.3078,-111.654999,US,US-AZ
KIWD,"Ironwood/Iron Cnty, MI, US",2025-09-12T20:56:00Z,2025-09-12 15:56:00,VFR,22.2,16.1,120,4,0,NA,1017.7,METAR KIWD 122056Z AUTO 12004KT 10SM CLR 22/16 A3005 RMK AO2 SLP175 T02220161 58027,2025-09-12T21:45:11Z,2025-09-12T17:45:11Z,Gogebic Iron County Airport,46.525298,-90.131578,US,US-MI
KIWI,"Wiscasset Arpt, ME, US",2025-09-12T20:53:00Z,2025-09-12 16:53:00,VFR,20.6,8.3,210,5,0,NA,1022.8,METAR KIWI 122053Z AUTO 21005KT 10SM CLR 21/08 A3020 RMK AO2 SLP227 T02060083 56006,2025-09-12T21:45:11Z,2025-09-12T17:45:11Z,Wiscasset Airport,43.9613990784,-69.712600708,US,US-ME
KIWI,"Wiscasset Arpt, ME, US",2025-09-12T21:53:00Z,2025-09-12 17:53:00,VFR,19.4,8.3,220,6,0,NA,1022.8,METAR KIWI 122153Z AUTO 22006KT 10SM CLR 19/08 A3020 RMK AO2 SLP227 T01940083,2025-09-12T21:55:55Z,2025-09-12T17:55:55Z,Wiscasset Airport,43.9613990784,-69.712600708,US,US-ME
KIXA,"Halifax/Northampton Rgnl, NC, US",2025-09-12T21:35:00Z,2025-09-12 21:35:00,VFR,25,17,50,4,0,NA,1020.1,METAR KIXA 122135Z AUTO 05004KT 10SM CLR 25/17 A3012 RMK AO2,2025-09-12T21:45:11Z,2025-09-12T17:45:11Z,Halifax-Northampton Regional Airport,36.3298,-77.635231,US,US-NC
KIXA,"Halifax/Northampton Rgnl, NC, US",2025-09-12T21:45:00Z,2025-09-12 21:45:00,VFR,25,18,50,5,0,NA,1020.1,METAR KIXA 122145Z AUTO 05005KT 10SM CLR 25/18 A3012 RMK AO2,2025-09-12T21:55:55Z,2025-09-12T17:55:55Z,Halifax-Northampton Regional Airport,36.3298,-77.635231,US,US-NC
KIXD,"Olathe/New Century Arpt, KS, US",2025-09-12T20:53:00Z,2025-09-12 15:53:00,VFR,34.4,15.6,190,13,21,NA,1016.3,METAR KIXD 122053Z 19013G21KT 10SM CLR 34/16 A3001 RMK AO2 SLP150 T03440156 56019,2025-09-12T21:45:11Z,2025-09-12T17:45:11Z,New Century AirCenter Airport,38.830898,-94.890297,US,US-KS
KIXD,"Olathe/New Century Arpt, KS, US",2025-09-12T21:53:00Z,2025-09-12 16:53:00,VFR,33.9,16.7,190,11,21,NA,1016.3,METAR KIXD 122153Z 19011G21KT 10SM CLR 34/17 A3001 RMK AO2 SLP150 T03390167,2025-09-12T21:55:55Z,2025-09-12T17:55:55Z,New Century AirCenter Airport,38.830898,-94.890297,US,US-KS
KIZA,"Santa Ynez Arpt, CA, US",2025-09-12T21:35:00Z,2025-09-12 14:35:00,VFR,26,15,250,13,0,NA,1012.3,METAR KIZA 122135Z AUTO 25013KT 10SM CLR 26/15 A2989 RMK AO2,2025-09-12T21:45:10Z,2025-09-12T17:45:10Z,Santa Ynez Airport,34.60680008,-120.0759964,US,US-CA
KIZG,"Fryeburg/Eastern Slopes Rgnl, ME, US",2025-09-12T20:54:00Z,2025-09-12 16:54:00,VFR,22.8,5.6,90,5,0,NA,1021.8,METAR KIZG 122054Z AUTO 09005KT 10SM CLR 23/06 A3017 RMK AO2 SLP218 T02280056 56013,2025-09-12T21:45:11Z,2025-09-12T17:45:11Z,Eastern Slopes Regional Airport,43.991100311299995,-70.9478988647,US,US-ME
KJAC,"Jackson Hole Arpt, WY, US",2025-09-12T20:56:00Z,2025-09-12 14:56:00,VFR,19.4,0.6,320,7,0,NA,1019.4,METAR KJAC 122056Z 32007KT 10SM FEW060 19/01 A3010 RMK AO2 LTG DSNT W SLP154 T01940006 56014,2025-09-12T21:45:11Z,2025-09-12T17:45:11Z,Jackson Hole Airport,43.6072998046875,-110.73799896240234,US,US-WY
KJAN,"Jackson/Evers Intl, MS, US",2025-09-12T20:54:00Z,2025-09-12 15:54:00,VFR,35,17.2,30,7,0,NA,1017.7,METAR KJAN 122054Z 03007KT 10SM FEW080 35/17 A3005 RMK AO2 SLP171 T03500172 56022,2025-09-12T21:45:11Z,2025-09-12T17:45:11Z,Jackson-Medgar Wiley Evers International Airport,32.311199,-90.075897,US,US-MS
KJAS,"Jasper/Bell Fld, TX, US",2025-09-12T21:35:00Z,2025-09-12 16:35:00,VFR,33,20,140,5,0,NA,1017.4,METAR KJAS 122135Z AUTO 14005KT 10SM CLR 33/20 A3004 RMK AO2,2025-09-12T21:45:10Z,2025-09-12T17:45:10Z,Jasper County Airport Bell Field,30.8857,-94.034897,US,US-TX
KJAX,"Jacksonville Intl, FL, US",2025-09-12T20:56:00Z,2025-09-12 16:56:00,VFR,27.8,18.9,60,13,20,NA,1016.7,METAR KJAX 122056Z 06013G20KT 10SM SCT029 BKN250 28/19 A3002 RMK AO2 SLP165 T02780189 56009 $,2025-09-12T21:45:11Z,2025-09-12T17:45:11Z,Jacksonville International Airport,30.492469,-81.687813,US,US-FL
KJBR,"Jonesboro Muni, AR, US",2025-09-12T20:53:00Z,2025-09-12 15:53:00,VFR,34.4,16.7,VAR,3,0,NA,1017.7,METAR KJBR 122053Z AUTO VRB03KT 10SM SCT080 34/17 A3005 RMK AO2 SLP170 T03440167 56025 $,2025-09-12T21:45:11Z,2025-09-12T17:45:11Z,Jonesboro Municipal Airport,35.83169937133789,-90.64640045166016,US,US-AR
KJBR,"Jonesboro Muni, AR, US",2025-09-12T21:53:00Z,2025-09-12 16:53:00,VFR,35.6,16.7,230,9,0,NA,1017,METAR KJBR 122153Z AUTO 23009KT 10SM SCT080 36/17 A3003 RMK AO2 SLP167 T03560167 $,2025-09-12T21:55:55Z,2025-09-12T17:55:55Z,Jonesboro Municipal Airport,35.83169937133789,-90.64640045166016,US,US-AR
KJCT,"Junction/Kimble Cnty, TX, US",2025-09-12T20:51:00Z,2025-09-12 15:51:00,VFR,32.2,18.9,140,9,0,NA,1019,METAR KJCT 122051Z AUTO 14009KT 10SM FEW060 32/19 A3009 RMK AO2 SLP151 T03220189 56025,2025-09-12T21:45:11Z,2025-09-12T17:45:11Z,Kimble County Airport,30.5112991333,-99.7634963989,US,US-TX
KJCT,"Junction/Kimble Cnty, TX, US",2025-09-12T21:51:00Z,2025-09-12 16:51:00,VFR,32.8,16.7,120,12,0,NA,1018.4,METAR KJCT 122151Z AUTO 12012KT 10SM SCT070 33/17 A3007 RMK AO2 SLP143 T03280167,2025-09-12T21:55:55Z,2025-09-12T17:55:55Z,Kimble County Airport,30.5112991333,-99.7634963989,US,US-TX
KJDD,"Mineola/Wood Cnty, TX, US",2025-09-12T21:35:00Z,2025-09-12 21:35:00,VFR,32.6,19.3,0,0,0,NA,1017.4,METAR KJDD 122135Z AUTO 00000KT 10SM SCT090 BKN110 33/19 A3004 RMK AO2 T03260193 $,2025-09-12T21:45:11Z,2025-09-12T17:45:11Z,Wood County Airport - Collins Field,32.742199,-95.496498,US,US-TX
KJDN,"Jordan Arpt, MT, US",2025-09-12T20:48:00Z,2025-09-12 14:48:00,NA,27.2,10,10,8,0,NA,1014.3,METAR KJDN 122048Z AUTO 01008KT 27/10 A2995 RMK AO1 SLP128 T02720100 58009,2025-09-12T21:45:11Z,2025-09-12T17:45:11Z,Jordan Airport,47.3288,-106.953003,US,US-MT
KJDN,"Jordan Arpt, MT, US",2025-09-12T21:48:00Z,2025-09-12 15:48:00,NA,27.8,10.6,30,8,14,NA,1014,METAR KJDN 122148Z AUTO 03008G14KT 28/11 A2994 RMK AO1 SLP126 T02780106,2025-09-12T21:55:55Z,2025-09-12T17:55:55Z,Jordan Airport,47.3288,-106.953003,US,US-MT
KJEF,"Jefferson City Mem, MO, US",2025-09-12T20:53:00Z,2025-09-12 15:53:00,VFR,35,13.9,0,0,0,NA,1016.7,METAR KJEF 122053Z 00000KT 10SM CLR 35/14 A3002 RMK AO2 SLP152 T03500139 56022,2025-09-12T21:45:11Z,2025-09-12T17:45:11Z,Jefferson City Memorial Airport,38.5912017822,-92.1560974121,US,US-MO
KJEF,"Jefferson City Mem, MO, US",2025-09-12T21:53:00Z,2025-09-12 16:53:00,VFR,35.6,13.9,240,5,0,NA,1016.3,METAR KJEF 122153Z 24005KT 10SM CLR 36/14 A3001 RMK AO2 SLP147 T03560139,2025-09-12T21:55:55Z,2025-09-12T17:55:55Z,Jefferson City Memorial Airport,38.5912017822,-92.1560974121,US,US-MO
KJER,"Jerome Cnty Arpt, ID, US",2025-09-12T20:53:00Z,2025-09-12 20:53:00,VFR,22.2,5.6,290,7,0,NA,1017,METAR KJER 122053Z AUTO 29007KT 10SM CLR 22/06 A3003 RMK AO2 SLP139 T02220056 58017,2025-09-12T21:45:11Z,2025-09-12T17:45:11Z,Jerome County Airport,42.72669982910156,-114.45700073242188,US,US-ID
KJER,"Jerome Cnty Arpt, ID, US",2025-09-12T21:53:00Z,2025-09-12 21:53:00,VFR,23.9,5,290,9,15,NA,1016.3,METAR KJER 122153Z AUTO 29009G15KT 10SM CLR 24/05 A3001 RMK AO2 SLP131 T02390050,2025-09-12T21:55:55Z,2025-09-12T17:55:55Z,Jerome County Airport,42.72669982910156,-114.45700073242188,US,US-ID
KJES,"Jesup/Wayne Cnty, GA, US",2025-09-12T21:37:00Z,2025-09-12 21:37:00,VFR,30,17,60,6,0,NA,1018,METAR KJES 122137Z AUTO 06006KT 10SM CLR 30/17 A3006 RMK AO2,2025-09-12T21:45:10Z,2025-09-12T17:45:10Z,Jesup Wayne County Airport,31.554001,-81.8825,US,US-GA
KJFK,"New York/JF Kennedy Intl, NY, US",2025-09-12T20:51:00Z,2025-09-12 16:51:00,VFR,23.3,12.8,200,10,0,NA,1021.8,METAR KJFK 122051Z 20010KT 10SM FEW060 SCT075 SCT250 23/13 A3017 RMK AO2 SLP217 T02330128 56009 $,2025-09-12T21:45:11Z,2025-09-12T17:45:11Z,John F Kennedy International Airport,40.639447,-73.779317,US,US-NY
KJFK,"New York/JF Kennedy Intl, NY, US",2025-09-12T21:51:00Z,2025-09-12 17:51:00,VFR,22.2,13.9,180,8,0,NA,1021.8,METAR KJFK 122151Z 18008KT 10SM FEW050 SCT070 SCT250 22/14 A3017 RMK AO2 SLP217 T02220139 $,2025-09-12T21:55:55Z,2025-09-12T17:55:55Z,John F Kennedy International Airport,40.639447,-73.779317,US,US-NY
KJFX,"Jasper/Walker Cnty, AL, US",2025-09-12T21:35:00Z,2025-09-12 21:35:00,VFR,33,15,VAR,5,0,NA,1018.4,METAR KJFX 122135Z AUTO VRB05KT 10SM FEW070 33/15 A3007 RMK AO2,2025-09-12T21:45:10Z,2025-09-12T17:45:10Z,Walker County Airport Bevill Field,33.902,-87.314201,US,US-AL
KJFZ,"Tazewell Cnty, VA, US",2025-09-12T21:35:00Z,2025-09-12 21:35:00,VFR,23.1,9.3,0,0,0,NA,1023.5,METAR KJFZ 122135Z AUTO 00000KT 10SM CLR 23/09 A3022 RMK AO2 T02310093,2025-09-12T21:45:10Z,2025-09-12T17:45:10Z,Tazewell County Airport,37.063702,-81.798302,US,US-VA
KJGG,"Williamsburg-Jamestown Arpt, VA, US",2025-09-12T21:35:00Z,2025-09-12 21:35:00,VFR,NA,NA,VAR,4,0,NA,1020.7,METAR KJGG 122135Z AUTO VRB04KT 10SM CLR A3014 RMK AO2 $,2025-09-12T21:45:10Z,2025-09-12T17:45:10Z,Williamsburg Jamestown Airport,37.239201,-76.716103,US,US-VA
KJHW,"Jamestown/Chautauqua Cnty, NY, US",2025-09-12T20:56:00Z,2025-09-12 16:56:00,VFR,22.8,11.7,330,4,0,NA,1023.1,METAR KJHW 122056Z AUTO 33004KT 10SM CLR 23/12 A3021 RMK AO2 SLP232 T02280117 56015,2025-09-12T21:45:11Z,2025-09-12T17:45:11Z,Chautauqua County-Jamestown Airport,42.15425,-79.254008,US,US-NY
KJKA,"Gulf Shores/Edwards Arpt, AL, US",2025-09-12T20:55:00Z,2025-09-12 15:55:00,VFR,31,20,200,7,0,NA,1016.3,METAR KJKA 122055Z 20007KT 10SM CLR 31/20 A3001,2025-09-12T21:45:11Z,2025-09-12T17:45:11Z,Jack Edwards National Airport,30.290501,-87.671799,US,US-AL
KJKJ,"Moorhead Muni, MN, US",2025-09-12T21:35:00Z,2025-09-12 21:35:00,VFR,24,17,140,8,0,NA,1013.3,METAR KJKJ 122135Z AUTO 14008KT 10SM CLR 24/17 A2992 RMK AO2,2025-09-12T21:45:10Z,2025-09-12T17:45:10Z,Moorhead Municipal Airport,46.83917,-96.663703,US,US-MN
KJKL,"Jackson/Carroll Arpt, KY, US",2025-09-12T20:53:00Z,2025-09-12 20:53:00,VFR,25.6,12.2,0,0,0,NA,1021.8,METAR KJKL 122053Z AUTO 00000KT 10SM CLR 26/12 A3017 RMK AO2 SLP204 T02560122 58017,2025-09-12T21:45:11Z,2025-09-12T17:45:11Z,Julian Carroll Airport,37.59389877319336,-83.31729888916016,US,US-KY
KJKL,"Jackson/Carroll Arpt, KY, US",2025-09-12T21:53:00Z,2025-09-12 21:53:00,VFR,25.6,12.8,0,0,0,NA,1021.8,METAR KJKL 122153Z AUTO 00000KT 10SM CLR 26/13 A3017 RMK AO2 SLP205 T02560128,2025-09-12T21:55:55Z,2025-09-12T17:55:55Z,Julian Carroll Airport,37.59389877319336,-83.31729888916016,US,US-KY
KJLN,"Joplin Rgnl, MO, US",2025-09-12T20:53:00Z,2025-09-12 15:53:00,VFR,33.3,17.8,230,9,0,NA,1018.4,METAR KJLN 122053Z 23009KT 10SM CLR 33/18 A3007 RMK AO2 SLP171 T03330178 57018,2025-09-12T21:45:11Z,2025-09-12T17:45:11Z,Joplin Regional Airport,37.151798,-94.498299,US,US-MO
KJLN,"Joplin Rgnl, MO, US",2025-09-12T21:53:00Z,2025-09-12 16:53:00,VFR,32.8,18.3,200,9,0,NA,1018,METAR KJLN 122153Z 20009KT 10SM CLR 33/18 A3006 RMK AO2 SLP167 T03280183,2025-09-12T21:55:55Z,2025-09-12T17:55:55Z,Joplin Regional Airport,37.151798,-94.498299,US,US-MO
KJMR,"Mora Muni, MN, US",2025-09-12T21:35:00Z,2025-09-12 21:35:00,VFR,19,17,150,8,14,NA,1017.7,METAR KJMR 122135Z AUTO 15008G14KT 10SM -RA SCT050 SCT065 OVC110 19/17 A3005 RMK AO2 LTG DSNT E AND SE P0002,2025-09-12T21:45:10Z,2025-09-12T17:45:10Z,Mora Municipal Airport,45.886101,-93.271796,US,US-MN
KJMS,"Jamestown Rgnl, ND, US",2025-09-12T20:56:00Z,2025-09-12 15:56:00,VFR,26.7,20.6,100,8,0,NA,1012.6,METAR KJMS 122056Z AUTO 10008KT 10SM CLR 27/21 A2990 RMK AO2 SLP119 T02670206 55003,2025-09-12T21:45:11Z,2025-09-12T17:45:11Z,Jamestown Regional Airport,46.92969894,-98.67819977,US,US-ND
KJNX,"Smithfield/Johnston Rgnl, NC, US",2025-09-12T21:40:00Z,2025-09-12 21:40:00,VFR,27,16,70,5,0,NA,1019.7,METAR KJNX 122140Z AUTO 07005KT 10SM SCT080 27/16 A3011 RMK AO2,2025-09-12T21:45:10Z,2025-09-12T17:45:10Z,Johnston Regional Airport,35.540901,-78.390297,US,US-NC
KJNX,"Smithfield/Johnston Rgnl, NC, US",2025-09-12T21:50:00Z,2025-09-12 21:50:00,VFR,27,16,60,3,0,NA,1019.7,METAR KJNX 122150Z AUTO 06003KT 10SM CLR 27/16 A3011 RMK AO2,2025-09-12T21:55:55Z,2025-09-12T17:55:55Z,Johnston Regional Airport,35.540901,-78.390297,US,US-NC
KJOT,"Joliet Rgnl, IL, US",2025-09-12T21:35:00Z,2025-09-12 16:35:00,VFR,28.7,13.5,140,5,0,NA,1019.7,METAR KJOT 122135Z AUTO 14005KT 10SM CLR 29/14 A3011 RMK AO2 T02870135,2025-09-12T21:45:10Z,2025-09-12T17:45:10Z,Joliet Regional Airport,41.51779938,-88.17549896,US,US-IL
KJQF,"Concord Rgnl, NC, US",2025-09-12T20:55:00Z,2025-09-12 16:55:00,VFR,28,13,70,4,15,NA,1021.1,METAR KJQF 122055Z 07004G15KT 10SM SCT050 28/13 A3015,2025-09-12T21:45:11Z,2025-09-12T17:45:11Z,Concord-Padgett Regional Airport,35.387798,-80.709099,US,US-NC
KJQF,"Concord Rgnl, NC, US",2025-09-12T21:55:00Z,2025-09-12 17:55:00,VFR,28,13,50,4,15,NA,1020.7,METAR KJQF 122155Z 05004G15KT 10SM SCT060 SCT075 28/13 A3014,2025-09-12T21:55:55Z,2025-09-12T17:55:55Z,Concord-Padgett Regional Airport,35.387798,-80.709099,US,US-NC
KJSO,"Jacksonvil0e/Cherokee Cnty, TX, US",2025-09-12T21:35:00Z,2025-09-12 16:35:00,VFR,31.6,20.7,30,4,0,6,1017.4,METAR KJSO 122135Z AUTO 03004KT 6SM HZ FEW050 32/21 A3004 RMK AO2 T03160207,2025-09-12T21:45:10Z,2025-09-12T17:45:10Z,Cherokee County Airport,31.8693008423,-95.2173995972,US,US-TX
KJST,"Johnstown/Murtha Arpt, PA, US",2025-09-12T20:54:00Z,2025-09-12 16:54:00,VFR,25,7.8,0,0,0,NA,1022.8,METAR KJST 122054Z AUTO 00000KT 10SM BKN075 25/08 A3020 RMK AO2 SLP215 T02500078 56013,2025-09-12T21:45:11Z,2025-09-12T17:45:11Z,John Murtha Johnstown Cambria County Airport,40.31610107421875,-78.83390045166016,US,US-PA
KJSV,"Sallisaw Muni, OK, US",2025-09-12T21:35:00Z,2025-09-12 21:35:00,VFR,34,22,0,0,0,9,1018,METAR KJSV 122135Z AUTO 00000KT 9SM CLR 34/22 A3006 RMK AO2,2025-09-12T21:45:10Z,2025-09-12T17:45:10Z,Sallisaw Municipal Airport,35.438202,-94.802803,US,US-OK
KJVL,"Janesville/S Wisconsin Rgnl, WI, US",2025-09-12T20:45:00Z,2025-09-12 15:45:00,VFR,28,14,190,11,0,NA,1019.7,METAR KJVL 122045Z 19011KT 10SM CLR 28/14 A3011,2025-09-12T21:45:11Z,2025-09-12T17:45:11Z,Southern Wisconsin Regional Airport,42.620300293,-89.0416030884,US,US-WI
KJVL,"Janesville/S Wisconsin Rgnl, WI, US",2025-09-12T21:45:00Z,2025-09-12 16:45:00,VFR,28,14,130,8,0,NA,1019.4,METAR KJVL 122145Z 13008KT 10SM CLR 28/14 A3010,2025-09-12T21:55:55Z,2025-09-12T17:55:55Z,Southern Wisconsin Regional Airport,42.620300293,-89.0416030884,US,US-WI
KJVY,"Jeffersonville/Clark Rgnl, IN, US",2025-09-12T21:35:00Z,2025-09-12 21:35:00,VFR,32,13,0,0,0,NA,1019,METAR KJVY 122135Z AUTO 00000KT 10SM CLR 32/13 A3009 RMK AO2,2025-09-12T21:45:10Z,2025-09-12T17:45:10Z,Clark Regional Airport,38.365398,-85.738197,US,US-IN
KJWG,"Watonga Rgnl, OK, US",2025-09-12T21:35:00Z,2025-09-12 21:35:00,VFR,34.1,13.9,180,11,16,NA,1018.4,METAR KJWG 122135Z AUTO 18011G16KT 10SM CLR 34/14 A3007 RMK AO2 T03410139,2025-09-12T21:45:10Z,2025-09-12T17:45:10Z,Watonga Regional Airport,35.8647,-98.420799,US,US-OK
KJWN,"Nashville/Tune Arpt, TN, US",2025-09-12T21:50:00Z,2025-09-12 21:50:00,VFR,31,12,0,0,0,NA,1018.7,METAR KJWN 122150Z 00000KT 10SM CLR 31/12 A3008,2025-09-12T21:55:55Z,2025-09-12T17:55:55Z,John C Tune Airport,36.1824,-86.886703,US,US-TN
KJWY,"Midlothian/Mid-Way Rgnl, TX, US",2025-09-12T21:35:00Z,2025-09-12 21:35:00,VFR,33.9,18.6,190,9,0,NA,1018,METAR KJWY 122135Z AUTO 19009KT 10SM CLR 34/19 A3006 RMK AO2 T03390186 $,2025-09-12T21:45:10Z,2025-09-12T17:45:10Z,Mid-Way Regional Airport,32.4587,-96.912399,US,US-TX
KJXI,"Gilmer/Stephens Fld, TX, US",2025-09-12T20:55:00Z,2025-09-12 20:55:00,VFR,33.3,16.5,0,0,0,NA,1018.7,METAR KJXI 122055Z AUTO 00000KT 10SM CLR 33/17 A3008 RMK AO2 T03330165,2025-09-12T21:45:11Z,2025-09-12T17:45:11Z,Fox Stephens Field Gilmer Municipal Airport,32.699001,-94.948898,US,US-TX
KJXN,"Jackson Cnty, MI, US",2025-09-12T20:56:00Z,2025-09-12 16:56:00,VFR,26.7,10.6,0,0,0,NA,1022.1,METAR KJXN 122056Z 00000KT 10SM CLR 27/11 A3018 RMK AO2 SLP217 T02670106 56017,2025-09-12T21:45:11Z,2025-09-12T17:45:11Z,Jackson County Airport/Reynolds Field,42.260509,-84.463019,US,US-MI
KJYG,"St James Muni, MN, US",2025-09-12T21:35:00Z,2025-09-12 21:35:00,VFR,26,21,90,8,0,9,1014,METAR KJYG 122135Z AUTO 09008KT 9SM CLR 26/21 A2994 RMK AO2 LTG DSNT E,2025-09-12T21:45:10Z,2025-09-12T17:45:10Z,St James Municipal Airport,43.986301,-94.557899,US,US-MN
KJYL,"Sylvania/Plantation Arpk, GA, US",2025-09-12T21:35:00Z,2025-09-12 21:35:00,VFR,28.8,13.8,40,5,0,NA,1018,METAR KJYL 122135Z AUTO 04005KT 10SM SCT065 SCT075 29/14 A3006 RMK AO2 T02880138,2025-09-12T21:45:10Z,2025-09-12T17:45:10Z,Plantation Airpark,32.645302,-81.597099,US,US-GA
KJYO,"Leesburg Exec, VA, US",2025-09-12T21:35:00Z,2025-09-12 21:35:00,VFR,27,12,120,7,0,NA,1021.8,METAR KJYO 122135Z AUTO 12007KT 10SM CLR 27/12 A3017 RMK AO2,2025-09-12T21:45:10Z,2025-09-12T17:45:10Z,Leesburg Executive Airport,39.077999,-77.557503,US,US-VA
KJYR,"York Muni, NE, US",2025-09-12T21:35:00Z,2025-09-12 21:35:00,VFR,34,18,180,10,15,NA,1012.6,METAR KJYR 122135Z AUTO 18010G15KT 10SM CLR 34/18 A2990 RMK AO2,2025-09-12T21:45:10Z,2025-09-12T17:45:10Z,York Municipal Airport,40.896801,-97.622803,US,US-NE
KJZI,"Charleston Exec, SC, US",2025-09-12T21:35:00Z,2025-09-12 21:35:00,VFR,26,18,70,3,0,NA,1017.7,METAR KJZI 122135Z AUTO 07003KT 10SM BKN055 26/18 A3005 RMK AO2,2025-09-12T21:45:10Z,2025-09-12T17:45:10Z,Charleston Executive Airport,32.698238,-80.005675,US,US-SC
KK62,"Falmouth/Snyder Arpt, KY, US",2025-09-12T21:35:00Z,2025-09-12 21:35:00,VFR,30,10,0,0,0,NA,1020.7,METAR KK62 122135Z AUTO 00000KT 10SM CLR 30/10 A3014 RMK AO2,2025-09-12T21:45:16Z,2025-09-12T17:45:16Z,Gene Snyder Airport,38.704201,-84.391602,US,US-KY
KK82,"Smith Center Arpt, KS, US",2025-09-12T21:35:00Z,2025-09-12 21:35:00,VFR,37.5,13.3,180,18,0,NA,1013.3,METAR KK82 122135Z AUTO 18018KT 10SM CLR 37/13 A2992 RMK AO2 T03750133,2025-09-12T21:45:16Z,2025-09-12T17:45:16Z,Smith Center Municipal Airport,39.76236,-98.794493,US,US-KS
KK83,"Sabetha Muni, KS, US",2025-09-12T21:35:00Z,2025-09-12 21:35:00,VFR,32,18,200,12,17,NA,1015,METAR KK83 122135Z AUTO 20012G17KT 10SM CLR 32/18 A2997 RMK AO2 T03200180,2025-09-12T21:45:16Z,2025-09-12T17:45:16Z,Sabetha Municipal Airport,39.905962,-95.776263,US,US-KS
KK88,"Iola/Allen Cnty, KS, US",2025-09-12T21:35:00Z,2025-09-12 21:35:00,VFR,33,21,210,13,0,NA,1016.7,METAR KK88 122135Z AUTO 21013KT 10SM CLR 33/21 A3002 RMK AO2,2025-09-12T21:45:16Z,2025-09-12T17:45:16Z,Allen County Airport,37.870098,-95.386398,US,US-KS
KKLS,"Kelso/Longview Arpt, WA, US",2025-09-12T20:56:00Z,2025-09-12 13:56:00,MVFR,19.4,12.2,0,0,0,NA,1018,METAR KKLS 122056Z AUTO 00000KT 10SM OVC030 19/12 A3006 RMK AO2 SLP182 T01940122 58014,2025-09-12T21:45:16Z,2025-09-12T17:45:16Z,Southwest Washington Regional Airport,46.11800003049999,-122.898002625,US,US-WA
KL08,"Borrego Springs Arpt, CA, US",2025-09-12T21:35:00Z,2025-09-12 14:35:00,VFR,35,5,210,15,20,9,1007.5,METAR KL08 122135Z AUTO 21015G20KT 9SM CLR 35/05 A2975 RMK AO2,2025-09-12T21:45:15Z,2025-09-12T17:45:15Z,Borrego Valley Airport,33.2589988708,-116.320999146,US,US-CA
KL35,"Big Bear City Arpt, CA, US",2025-09-12T21:35:00Z,2025-09-12 14:35:00,VFR,17,0,80,8,0,NA,1020.1,METAR KL35 122135Z AUTO 08008KT 10SM CLR 17/00 A3012 RMK AO2,2025-09-12T21:45:15Z,2025-09-12T17:45:15Z,Big Bear City Airport,34.263802,-116.856003,US,US-CA
KLAA,"Lamar Muni, CO, US",2025-09-12T20:53:00Z,2025-09-12 14:53:00,VFR,34.4,8.9,200,17,26,NA,1014.6,METAR KLAA 122053Z AUTO 20017G26KT 10SM CLR 34/09 A2996 RMK AO2 PK WND 24031/2035 SLP093 T03440089 56027,2025-09-12T21:45:16Z,2025-09-12T17:45:16Z,Southeast Colorado Regional Airport,38.066407,-102.691373,US,US-CO
KLAA,"Lamar Muni, CO, US",2025-09-12T21:53:00Z,2025-09-12 15:53:00,VFR,33.9,8.9,170,18,28,NA,1014.3,METAR KLAA 122153Z AUTO 17018G28KT 10SM CLR 34/09 A2995 RMK AO2 PK WND 18029/2122 SLP088 T03390089,2025-09-12T21:55:57Z,2025-09-12T17:55:57Z,Southeast Colorado Regional Airport,38.066407,-102.691373,US,US-CO
KLAF,"Lafayette/Purdue Univ Arpt, IN, US",2025-09-12T20:54:00Z,2025-09-12 16:54:00,VFR,29.4,9.4,VAR,3,0,NA,1020.4,METAR KLAF 122054Z VRB03KT 10SM CLR 29/09 A3013 RMK AO2 SLP198 T02940094 56022,2025-09-12T21:45:16Z,2025-09-12T17:45:16Z,Purdue University Airport,40.412875,-86.939363,US,US-IN
KLAL,"Lakeland/Linder Intl, FL, US",2025-09-12T20:50:00Z,2025-09-12 16:50:00,VFR,28,22,100,11,0,NA,1014.3,METAR KLAL 122050Z 10011KT 10SM VCSH SCT041 28/22 A2995 RMK SH 4 MI NNW MOV W,2025-09-12T21:45:16Z,2025-09-12T17:45:16Z,Lakeland Linder International Airport,27.987656,-82.018776,US,US-FL
KLAL,"Lakeland/Linder Intl, FL, US",2025-09-12T21:50:00Z,2025-09-12 17:50:00,VFR,28,22,70,11,0,NA,1015,METAR KLAL 122150Z 07011KT 10SM VCTS SCT040 28/22 A2997 RMK TS 4 MI NE MOV SW,2025-09-12T21:55:57Z,2025-09-12T17:55:57Z,Lakeland Linder International Airport,27.987656,-82.018776,US,US-FL
KLAM,"Los Alamos Arpt, NM, US",2025-09-12T21:35:00Z,2025-09-12 15:35:00,VFR,24.1,4.5,190,14,22,9,1022.4,METAR KLAM 122135Z AUTO 19014G22KT 9SM FEW080 OVC110 24/04 A3019 RMK AO2 LTG DSNT NW T02410045 $,2025-09-12T21:45:16Z,2025-09-12T17:45:16Z,Los Alamos Airport,35.8797988892,-106.268997192,US,US-NM
KLAN,"Lansing/Capital City Arpt, MI, US",2025-09-12T20:53:00Z,2025-09-12 16:53:00,VFR,26.1,10.6,VAR,3,0,NA,1022.1,METAR KLAN 122053Z VRB03KT 10SM CLR 26/11 A3018 RMK AO2 SLP216 T02610106 58018,2025-09-12T21:45:16Z,2025-09-12T17:45:16Z,Capital City Airport,42.77870178222656,-84.58740234375,US,US-MI
KLAN,"Lansing/Capital City Arpt, MI, US",2025-09-12T21:53:00Z,2025-09-12 17:53:00,VFR,26.1,10.6,240,7,0,NA,1021.8,METAR KLAN 122153Z 24007KT 10SM CLR 26/11 A3017 RMK AO2 SLP215 T02610106,2025-09-12T21:55:57Z,2025-09-12T17:55:57Z,Capital City Airport,42.77870178222656,-84.58740234375,US,US-MI
KLAR,"Laramie Rgnl, WY, US",2025-09-12T21:40:00Z,2025-09-12 15:40:00,VFR,17.8,5,300,14,25,NA,1022.1,SPECI KLAR 122140Z AUTO 30014G25KT 10SM OVC090 18/05 A3018 RMK AO2 PK WND 15032/2102 WSHFT 2126 T01780050 $,2025-09-12T21:45:15Z,2025-09-12T17:45:15Z,Laramie Regional Airport,41.31209945678711,-105.6750030517578,US,US-WY
KLAR,"Laramie Rgnl, WY, US",2025-09-12T21:53:00Z,2025-09-12 15:53:00,VFR,17.2,6.1,300,19,27,NA,1021.8,METAR KLAR 122153Z AUTO 30019G27KT 10SM OVC085 17/06 A3017 RMK AO2 PK WND 15032/2102 WSHFT 2126 SLP124 T01720061 $,2025-09-12T21:55:57Z,2025-09-12T17:55:57Z,Laramie Regional Airport,41.31209945678711,-105.6750030517578,US,US-WY
KLAS,"Las Vegas/Reid Intl, NV, US",2025-09-12T20:56:00Z,2025-09-12 13:56:00,VFR,31.1,1.1,310,5,0,NA,1011.3,METAR KLAS 122056Z 31005KT 10SM FEW140 31/01 A2986 RMK AO2 SLP088 T03110011 58021,2025-09-12T21:45:16Z,2025-09-12T17:45:16Z,Harry Reid International Airport,36.083361,-115.151817,US,US-NV
KLAW,"Lawton-Fort Sill Rgnl, OK, US",2025-09-12T20:53:00Z,2025-09-12 15:53:00,VFR,36.1,13.9,170,9,0,NA,1017.4,METAR KLAW 122053Z 17009KT 10SM CLR 36/14 A3004 RMK AO2 SLP158 T03610139 58024,2025-09-12T21:45:16Z,2025-09-12T17:45:16Z,Lawton Fort Sill Regional Airport,34.567699,-98.416603,US,US-OK
KLAW,"Lawton-Fort Sill Rgnl, OK, US",2025-09-12T21:53:00Z,2025-09-12 16:53:00,VFR,36.1,12.8,160,12,20,NA,1016.7,METAR KLAW 122153Z 16012G20KT 10SM CLR 36/13 A3002 RMK AO2 SLP152 T03610128,2025-09-12T21:55:57Z,2025-09-12T17:55:57Z,Lawton Fort Sill Regional Airport,34.567699,-98.416603,US,US-OK
KLAX,"Los Angeles Intl, CA, US",2025-09-12T20:53:00Z,2025-09-12 13:53:00,VFR,25,15.6,250,13,20,NA,1013,METAR KLAX 122053Z 25013G20KT 10SM FEW018 FEW040 25/16 A2991 RMK AO2 SLP128 T02500156 56017 $,2025-09-12T21:45:16Z,2025-09-12T17:45:16Z,Los Angeles International Airport,33.942501,-118.407997,US,US-CA
KLAX,"Los Angeles Intl, CA, US",2025-09-12T21:53:00Z,2025-09-12 14:53:00,VFR,23.3,16.1,230,13,0,NA,1012.6,METAR KLAX 122153Z 23013KT 10SM FEW018 FEW040 23/16 A2990 RMK AO2 SLP123 T02330161 $,2025-09-12T21:55:57Z,2025-09-12T17:55:57Z,Los Angeles International Airport,33.942501,-118.407997,US,US-CA
KLBB,"Lubbock Intl Arpt, TX, US",2025-09-12T20:53:00Z,2025-09-12 15:53:00,VFR,32.2,14.4,190,17,33,NA,1020.1,METAR KLBB 122053Z 19017G33KT 160V220 10SM SCT060 32/14 A3012 RMK AO2 PK WND 17033/2053 SLP143 T03220144 58023,2025-09-12T21:45:16Z,2025-09-12T17:45:16Z,Lubbock Preston Smith International Airport,33.663601,-101.822998,US,US-TX
KLBB,"Lubbock Intl Arpt, TX, US",2025-09-12T21:53:00Z,2025-09-12 16:53:00,VFR,32.8,13.3,190,14,22,NA,1019.4,METAR KLBB 122153Z 19014G22KT 10SM SCT065 33/13 A3010 RMK AO2 PK WND 17026/2123 SLP134 T03280133,2025-09-12T21:55:57Z,2025-09-12T17:55:57Z,Lubbock Preston Smith International Airport,33.663601,-101.822998,US,US-TX
KLBE,"Latrobe/Palmer Rgnl, PA, US",2025-09-12T20:54:00Z,2025-09-12 16:54:00,VFR,27,11,VAR,4,0,NA,1021.8,METAR KLBE 122054Z VRB04KT 10SM CLR 27/11 A3017,2025-09-12T21:45:16Z,2025-09-12T17:45:16Z,Arnold Palmer Regional Airport,40.275902,-79.4048,US,US-PA
KLBE,"Latrobe/Palmer Rgnl, PA, US",2025-09-12T21:50:00Z,2025-09-12 17:50:00,VFR,27,11,VAR,5,0,NA,1021.8,METAR KLBE 122150Z VRB05KT 10SM CLR 27/11 A3017,2025-09-12T21:55:57Z,2025-09-12T17:55:57Z,Arnold Palmer Regional Airport,40.275902,-79.4048,US,US-PA
KLBF,"N Platte/Lee Bird Fld, NE, US",2025-09-12T20:53:00Z,2025-09-12 15:53:00,VFR,34.4,13.3,230,9,0,NA,1012.6,METAR KLBF 122053Z AUTO 23009KT 10SM CLR 34/13 A2990 RMK AO2 SLP091 T03440133 58014,2025-09-12T21:45:16Z,2025-09-12T17:45:16Z,North Platte Regional Airport Lee Bird Field,41.12620163,-100.6839981,US,US-NE
KLBF,"N Platte/Lee Bird Fld, NE, US",2025-09-12T21:53:00Z,2025-09-12 16:53:00,VFR,34.4,13.9,260,9,0,NA,1011.9,METAR KLBF 122153Z AUTO 26009KT 10SM CLR 34/14 A2988 RMK AO2 SLP086 T03440139,2025-09-12T21:55:57Z,2025-09-12T17:55:57Z,North Platte Regional Airport Lee Bird Field,41.12620163,-100.6839981,US,US-NE
KLBL,"Liberal/Mid America Rgnl, KS, US",2025-09-12T20:56:00Z,2025-09-12 15:56:00,VFR,33.3,10.6,190,21,24,NA,1017.7,METAR KLBL 122056Z AUTO 19021G24KT 10SM CLR 33/11 A3005 RMK AO2 PK WND 20027/2021 SLP139 6//// T03330106 58022 PNO $,2025-09-12T21:45:16Z,2025-09-12T17:45:16Z,Liberal Mid-America Regional Airport,37.0442009,-100.9599991,US,US-KS
KLBO,"Lebanon/Jones Arpt, MO, US",2025-09-12T21:35:00Z,2025-09-12 21:35:00,VFR,35,13,210,3,0,NA,1019,METAR KLBO 122135Z AUTO 21003KT 10SM CLR 35/13 A3009 RMK AO2,2025-09-12T21:45:15Z,2025-09-12T17:45:15Z,Floyd W. Jones Lebanon Airport,37.6483,-92.652397,US,US-MO
KLBT,"Lumberton Muni, NC, US",2025-09-12T20:56:00Z,2025-09-12 16:56:00,VFR,26.7,15.6,50,9,16,NA,1018.7,METAR KLBT 122056Z AUTO 05009G16KT 10SM FEW080 27/16 A3008 RMK AO2 SLP186 T02670156 56011,2025-09-12T21:45:16Z,2025-09-12T17:45:16Z,Lumberton Regional Airport,34.610773,-79.05943,US,US-NC
KLBX,"Angleton/Texas Gulf Coast Rgnl, TX, US",2025-09-12T20:53:00Z,2025-09-12 15:53:00,VFR,31.1,21.7,110,9,16,NA,1017.7,METAR KLBX 122053Z AUTO 11009G16KT 10SM FEW038 31/22 A3005 RMK AO2 SLP175 T03110217 58017,2025-09-12T21:45:16Z,2025-09-12T17:45:16Z,Texas Gulf Coast Regional Airport,29.108601,-95.462097,US,US-TX
KLBX,"Angleton/Texas Gulf Coast Rgnl, TX, US",2025-09-12T21:53:00Z,2025-09-12 16:53:00,VFR,31.7,21.7,100,10,0,NA,1017.4,METAR KLBX 122153Z AUTO 10010KT 10SM CLR 32/22 A3004 RMK AO2 SLP172 T03170217,2025-09-12T21:55:57Z,2025-09-12T17:55:57Z,Texas Gulf Coast Regional Airport,29.108601,-95.462097,US,US-TX
KLCG,"Wayne Muni, NE, US",2025-09-12T21:35:00Z,2025-09-12 21:35:00,VFR,29.8,21.7,180,8,0,NA,1011.6,METAR KLCG 122135Z AUTO 18008KT 10SM CLR 30/22 A2987 RMK AO2 T02980217,2025-09-12T21:45:16Z,2025-09-12T17:45:16Z,Wayne Municipal Airport / Stan Morris Field,42.241901,-96.9814,US,US-NE
KLCH,"Lake Charles Rgnl, LA, US",2025-09-12T20:53:00Z,2025-09-12 15:53:00,VFR,33.3,18.9,VAR,4,0,NA,1017.4,METAR KLCH 122053Z VRB04KT 10SM SCT060 33/19 A3004 RMK AO2 SLP180 T03330189 58019,2025-09-12T21:45:16Z,2025-09-12T17:45:16Z,Lake Charles Regional Airport,30.126100540161133,-93.223297119140625,US,US-LA
KLCH,"Lake Charles Rgnl, LA, US",2025-09-12T21:53:00Z,2025-09-12 16:53:00,VFR,32.8,18.9,VAR,3,0,NA,1017,METAR KLCH 122153Z VRB03KT 10SM CLR 33/19 A3003 RMK AO2 SLP176 T03280189,2025-09-12T21:55:57Z,2025-09-12T17:55:57Z,Lake Charles Regional Airport,30.126100540161133,-93.223297119140625,US,US-LA
KLCI,"Laconia Muni, NH, US",2025-09-12T20:56:00Z,2025-09-12 16:56:00,NA,22.8,8.3,50,5,0,NA,1021.8,METAR KLCI 122056Z AUTO 05005KT 10SM 23/08 A3017 RMK AO2 SLP218 T02280083 56014 $,2025-09-12T21:45:16Z,2025-09-12T17:45:16Z,Laconia Municipal Airport,43.572701,-71.4189,US,US-NH
KLCK,"Columbus/Rickenbacker Intl, OH, US",2025-09-12T20:55:00Z,2025-09-12 16:55:00,VFR,28.7,7.8,0,0,0,NA,1021.1,METAR KLCK 122055Z AUTO 00000KT 10SM CLR 29/08 A3015 RMK AO2 T02870078,2025-09-12T21:45:16Z,2025-09-12T17:45:16Z,Rickenbacker International Airport,39.813801,-82.927803,US,US-OH
KLCQ,"Lake City/Gateway Arpt, FL, US",2025-09-12T21:35:00Z,2025-09-12 17:35:00,VFR,29,15,50,6,0,NA,1016,METAR KLCQ 122135Z AUTO 05006KT 10SM CLR 29/15 A3000 RMK AO2,2025-09-12T21:45:16Z,2025-09-12T17:45:16Z,Lake City Gateway Airport,30.181999,-82.576897,US,US-FL
KLDJ,"Linden Arpt, NJ, US",2025-09-12T21:35:00Z,2025-09-12 17:35:00,VFR,25.2,9.2,180,4,0,NA,1021.4,METAR KLDJ 122135Z AUTO 18004KT 10SM SCT065 25/09 A3016 RMK AO2 T02520092,2025-09-12T21:45:15Z,2025-09-12T17:45:15Z,Linden Airport,40.617401123,-74.2445983887,US,US-NJ
KLDM,"Ludington/Mason Cnty, MI, US",2025-09-12T21:35:00Z,2025-09-12 17:35:00,VFR,24,12,270,3,0,NA,1021.4,METAR KLDM 122135Z AUTO 27003KT 10SM CLR 24/12 A3016 RMK AO2,2025-09-12T21:45:15Z,2025-09-12T17:45:15Z,Mason County Airport,43.96250153,-86.40789795,US,US-MI
KLEB,"Lebanon Muni, NH, US",2025-09-12T20:53:00Z,2025-09-12 16:53:00,VFR,24.4,6.1,0,0,0,NA,1021.4,METAR KLEB 122053Z 00000KT 10SM CLR 24/06 A3016 RMK AO2 SLP209 T02440061 56016,2025-09-12T21:45:16Z,2025-09-12T17:45:16Z,Lebanon Municipal Airport,43.626098632799994,-72.30419921880001,US,US-NH
KLEB,"Lebanon Muni, NH, US",2025-09-12T21:53:00Z,2025-09-12 17:53:00,VFR,23.3,8.3,40,7,0,NA,1021.4,METAR KLEB 122153Z 04007KT 10SM CLR 23/08 A3016 RMK AO2 SLP209 T02330083,2025-09-12T21:55:57Z,2025-09-12T17:55:57Z,Lebanon Municipal Airport,43.626098632799994,-72.30419921880001,US,US-NH
KLEE,"Leesburg Muni, FL, US",2025-09-12T20:53:00Z,2025-09-12 16:53:00,VFR,28.9,20.6,40,14,21,NA,1015,METAR KLEE 122053Z 04014G21KT 10SM CLR 29/21 A2997 RMK AO2 SLP148 T02890206 55009,2025-09-12T21:45:16Z,2025-09-12T17:45:16Z,Leesburg International Airport,28.82309914,-81.80870056,US,US-FL
KLEE,"Leesburg Muni, FL, US",2025-09-12T21:53:00Z,2025-09-12 17:53:00,VFR,27.8,20.6,40,13,0,NA,1015.7,METAR KLEE 122153Z 04013KT 10SM FEW032 SCT041 28/21 A2999 RMK AO2 SLP152 T02780206,2025-09-12T21:55:57Z,2025-09-12T17:55:57Z,Leesburg International Airport,28.82309914,-81.80870056,US,US-FL
KLEW,"Auburn-Lewiston Muni, ME, US",2025-09-12T20:56:00Z,2025-09-12 16:56:00,VFR,21.7,6.7,0,0,0,NA,1022.1,METAR KLEW 122056Z AUTO 00000KT 10SM CLR 22/07 A3018 RMK AO2 SLP228 6//// T02170067 58012 PNO $,2025-09-12T21:45:16Z,2025-09-12T17:45:16Z,Auburn Lewiston Municipal Airport,44.048500061,-70.2835006714,US,US-ME
KLEX,"Lexington/Blue Grass Aprt, KY, US",2025-09-12T20:54:00Z,2025-09-12 16:54:00,VFR,30,10,40,7,0,NA,1020.7,METAR KLEX 122054Z 04007KT 010V090 10SM CLR 30/10 A3014 RMK AO2 SLP198 T03000100 56020 $,2025-09-12T21:45:16Z,2025-09-12T17:45:16Z,Blue Grass Airport,38.036499,-84.605904,US,US-KY
KLFI,"Langley AFB, VA, US",2025-09-12T20:55:00Z,2025-09-12 16:55:00,VFR,24.3,12.9,110,10,0,NA,1020.7,METAR KLFI 122055Z 11010KT 10SM CLR 24/13 A3014 RMK AO2A SLP213 T02430129 55005 $,2025-09-12T21:45:16Z,2025-09-12T17:45:16Z,Langley Air Force Base,37.082901,-76.360497,US,US-VA
KLFK,"Lufkin/Angelina Cnty, TX, US",2025-09-12T20:53:00Z,2025-09-12 15:53:00,VFR,35,19.4,40,5,0,NA,1017.7,METAR KLFK 122053Z AUTO 04005KT 10SM CLR 35/19 A3005 RMK AO2 SLP170 T03500194 56023,2025-09-12T21:45:16Z,2025-09-12T17:45:16Z,Angelina County Airport,31.2339992523,-94.75,US,US-TX
KLFK,"Lufkin/Angelina Cnty, TX, US",2025-09-12T21:53:00Z,2025-09-12 16:53:00,VFR,33.3,20.6,70,6,0,NA,1017.4,METAR KLFK 122153Z AUTO 07006KT 10SM SCT060 BKN080 33/21 A3004 RMK AO2 SLP166 T03330206,2025-09-12T21:55:57Z,2025-09-12T17:55:57Z,Angelina County Airport,31.2339992523,-94.75,US,US-TX
KLFT,"Lafayette Rgnl, LA, US",2025-09-12T20:53:00Z,2025-09-12 15:53:00,VFR,33.3,16.7,0,0,0,NA,1017.4,METAR KLFT 122053Z 00000KT 10SM CLR 33/17 A3004 RMK AO2 SLP172 T03330167 56019,2025-09-12T21:45:16Z,2025-09-12T17:45:16Z,Lafayette Regional Airport,30.205299,-91.987602,US,US-LA
KLFT,"Lafayette Rgnl, LA, US",2025-09-12T21:53:00Z,2025-09-12 16:53:00,VFR,33.3,17.2,0,0,0,NA,1017,METAR KLFT 122153Z 00000KT 10SM FEW064 33/17 A3003 RMK AO2 SLP170 T03330172,2025-09-12T21:55:57Z,2025-09-12T17:55:57Z,Lafayette Regional Airport,30.205299,-91.987602,US,US-LA
KLGA,"New York/La Guardia Arpt, NY, US",2025-09-12T20:51:00Z,2025-09-12 16:51:00,VFR,25.6,9.4,VAR,4,0,NA,1021.1,METAR KLGA 122051Z VRB04KT 10SM FEW060 FEW090 SCT250 26/09 A3015 RMK AO2 SLP211 T02560094 56014 $,2025-09-12T21:45:16Z,2025-09-12T17:45:16Z,LaGuardia Airport,40.777199,-73.872597,US,US-NY
KLGA,"New York/La Guardia Arpt, NY, US",2025-09-12T21:51:00Z,2025-09-12 17:51:00,VFR,25.6,8.9,70,5,0,NA,1021.1,METAR KLGA 122151Z 07005KT 10SM FEW065 SCT090 SCT250 26/09 A3015 RMK AO2 SLP209 T02560089 $,2025-09-12T21:55:57Z,2025-09-12T17:55:57Z,LaGuardia Airport,40.777199,-73.872597,US,US-NY
KLGB,"Long Beach Arpt, CA, US",2025-09-12T20:53:00Z,2025-09-12 13:53:00,VFR,23.9,15.6,190,10,0,NA,1013,METAR KLGB 122053Z 19010KT 10SM CLR 24/16 A2991 RMK AO2 SLP126 T02390156 56020 $,2025-09-12T21:45:16Z,2025-09-12T17:45:16Z,Long Beach Airport (Daugherty Field),33.816523,-118.149891,US,US-CA
KLGB,"Long Beach Arpt, CA, US",2025-09-12T21:53:00Z,2025-09-12 14:53:00,VFR,24.4,15,190,7,0,NA,1012.3,METAR KLGB 122153Z 19007KT 10SM CLR 24/15 A2989 RMK AO2 SLP121 T02440150 $,2025-09-12T21:55:57Z,2025-09-12T17:55:57Z,Long Beach Airport (Daugherty Field),33.816523,-118.149891,US,US-CA
KLGD,"La Grande/Union Cnty, OR, US",2025-09-12T20:56:00Z,2025-09-12 13:56:00,VFR,25,9.4,330,7,0,NA,1016,METAR KLGD 122056Z AUTO 33007KT 300V020 10SM CLR 25/09 A3000 RMK AO2 SLP148 T02500094 58024 $,2025-09-12T21:45:16Z,2025-09-12T17:45:16Z,La Grande/Union County Airport,45.2901992798,-118.007003784,US,US-OR
KLGF,"Laguna(AAF), AZ, US",2025-09-12T20:55:00Z,2025-09-12 13:55:00,VFR,34.7,6,200,3,0,9,1008.2,METAR KLGF 122055Z AUTO 20003KT 9SM CLR 35/06 A2977 RMK AO2 SLP077 T03470060 57022 $,2025-09-12T21:45:16Z,2025-09-12T17:45:16Z,Laguna Army Airfield,32.86000061,-114.3970032,US,US-AZ
KLGU,"Logan/Cache Arpt, UT, US",2025-09-12T20:51:00Z,2025-09-12 14:51:00,VFR,25,5,VAR,4,0,NA,1015.3,METAR KLGU 122051Z AUTO VRB04KT 10SM CLR 25/05 A2998 RMK AO2 SLP111 T02500050 56020,2025-09-12T21:45:16Z,2025-09-12T17:45:16Z,Logan-Cache Airport,41.7911987305,-111.851997375,US,US-UT
KLGU,"Logan/Cache Arpt, UT, US",2025-09-12T21:51:00Z,2025-09-12 15:51:00,VFR,26.1,1.7,290,9,0,NA,1014.6,METAR KLGU 122151Z AUTO 29009KT 10SM FEW095 26/02 A2996 RMK AO2 SLP102 T02610017,2025-09-12T21:55:57Z,2025-09-12T17:55:57Z,Logan-Cache Airport,41.7911987305,-111.851997375,US,US-UT
KLHB,"Hearne Muni, TX, US",2025-09-12T21:35:00Z,2025-09-12 21:35:00,VFR,35,19,130,7,0,NA,1017,METAR KLHB 122135Z AUTO 13007KT 10SM FEW065 35/19 A3003 RMK AO2,2025-09-12T21:45:16Z,2025-09-12T17:45:16Z,Hearne Municipal Airport,30.871799,-96.6222,US,US-TX
KLHM,"Lincoln Rgnl, CA, US",2025-09-12T21:35:00Z,2025-09-12 21:35:00,VFR,30,12,270,6,0,NA,1011.6,METAR KLHM 122135Z AUTO 27006KT 10SM CLR 30/12 A2987 RMK AO1,2025-09-12T21:45:16Z,2025-09-12T17:45:16Z,Lincoln Regional Karl Harder Field,38.909199,-121.350998,US,US-CA
KLHQ,"Lancaster/Fairfield Cnty, OH, US",2025-09-12T20:53:00Z,2025-09-12 20:53:00,VFR,28.3,8.9,210,3,0,NA,1021.1,METAR KLHQ 122053Z AUTO 21003KT 10SM CLR 28/09 A3015 RMK AO2 SLP206 T02830089 56021,2025-09-12T21:45:16Z,2025-09-12T17:45:16Z,Fairfield County Airport,39.7556,-82.657097,US,US-OH
KLHQ,"Lancaster/Fairfield Cnty, OH, US",2025-09-12T21:53:00Z,2025-09-12 21:53:00,VFR,27.8,9.4,270,3,0,NA,1021.1,METAR KLHQ 122153Z AUTO 27003KT 10SM CLR 28/09 A3015 RMK AO2 SLP204 T02780094,2025-09-12T21:55:57Z,2025-09-12T17:55:57Z,Fairfield County Airport,39.7556,-82.657097,US,US-OH
KLHW,"Ft Stewart/Mid Coast Rgnl, GA, US",2025-09-12T20:55:00Z,2025-09-12 16:55:00,VFR,30.2,16.2,20,10,0,NA,1016,METAR KLHW 122055Z 02010KT 10SM SCT060 30/16 A3000 RMK AO2A SLP162 T03020162 56013 $,2025-09-12T21:45:16Z,2025-09-12T17:45:16Z,MidCoast Regional Airport at Wright Army Airfield,31.891237,-81.561003,US,US-GA
KLHZ,"Louisburg/Franklin Cnty, NC, US",2025-09-12T21:35:00Z,2025-09-12 17:35:00,MVFR,26,13,50,7,0,4,1020.7,METAR KLHZ 122135Z AUTO 05007KT 4SM HZ CLR 26/13 A3014 RMK AO2,2025-09-12T21:45:15Z,2025-09-12T17:45:15Z,Triangle North Executive Airport,36.0233,-78.330299,US,US-NC
KLHZ,"Louisburg/Franklin Cnty, NC, US",2025-09-12T21:45:00Z,2025-09-12 17:45:00,MVFR,26,13,20,6,0,5,1020.7,METAR KLHZ 122145Z AUTO 02006KT 5SM HZ CLR 26/13 A3014 RMK AO2,2025-09-12T21:55:57Z,2025-09-12T17:55:57Z,Triangle North Executive Airport,36.0233,-78.330299,US,US-NC
KLIC,"Limon Muni, CO, US",2025-09-12T20:55:00Z,2025-09-12 14:55:00,VFR,28.9,7.2,220,11,19,NA,1018,METAR KLIC 122055Z AUTO 22011G19KT 10SM SCT100 BKN120 29/07 A3006 RMK AO2 LTG DSNT NE SLP095 T02890072 56018,2025-09-12T21:45:16Z,2025-09-12T17:45:16Z,Limon Municipal Airport,39.2747993469,-103.666000366,US,US-CO
KLIT,"Little Rock/Clinton Natl, AR, US",2025-09-12T20:53:00Z,2025-09-12 15:53:00,VFR,33.3,18.9,170,7,0,NA,1018,METAR KLIT 122053Z 17007KT 10SM FEW070 33/19 A3006 RMK AO2 SLP179 T03330189 56021,2025-09-12T21:45:16Z,2025-09-12T17:45:16Z,Bill & Hillary Clinton National Airport/Adams Field,34.729582,-92.223728,US,US-AR
KLIT,"Little Rock/Clinton Natl, AR, US",2025-09-12T21:53:00Z,2025-09-12 16:53:00,VFR,33.3,18.9,170,6,0,NA,1017.7,METAR KLIT 122153Z 17006KT 10SM FEW070 33/19 A3005 RMK AO2 SLP175 T03330189,2025-09-12T21:55:57Z,2025-09-12T17:55:57Z,Bill & Hillary Clinton National Airport/Adams Field,34.729582,-92.223728,US,US-AR
KLJF,"Litchfield Muni, MN, US",2025-09-12T21:35:00Z,2025-09-12 21:35:00,VFR,21,18,60,7,0,NA,1015.7,METAR KLJF 122135Z AUTO 06007KT 10SM -RA CLR 21/18 A2999 RMK AO2,2025-09-12T21:45:15Z,2025-09-12T17:45:15Z,Litchfield Municipal Airport,45.097099,-94.507301,US,US-MN
KLKP,"Lake Placid Arpt, NY, US",2025-09-12T21:35:00Z,2025-09-12 17:35:00,VFR,20,4,310,7,0,NA,1023.1,METAR KLKP 122135Z AUTO 31007KT 10SM CLR 20/04 A3021 RMK AO2,2025-09-12T21:45:16Z,2025-09-12T17:45:16Z,Lake Placid Airport,44.2644996643,-73.96189880370001,US,US-NY
KLKR,"Lancaster Cnty, SC, US",2025-09-12T21:35:00Z,2025-09-12 21:35:00,VFR,29,15,60,6,0,NA,1019.7,METAR KLKR 122135Z AUTO 06006KT 10SM BKN055 BKN065 BKN080 29/15 A3011 RMK AO2,2025-09-12T21:45:16Z,2025-09-12T17:45:16Z,Lancaster County-Mc Whirter Field,34.7229,-80.854599,US,US-SC
KLKU,"Louisa/Freeman Fld, VA, US",2025-09-12T21:35:00Z,2025-09-12 17:35:00,VFR,26.8,10,70,6,0,NA,1021.4,METAR KLKU 122135Z AUTO 07006KT 10SM CLR 27/10 A3016 RMK AO2 T02680100,2025-09-12T21:45:15Z,2025-09-12T17:45:15Z,Louisa County Airport / Freeman Field,38.0098,-77.9701,US,US-VA
KLKV,"Lakeview/Lake Cnty, OR, US",2025-09-12T20:53:00Z,2025-09-12 13:53:00,VFR,18.9,8.9,20,3,0,NA,1019.7,METAR KLKV 122053Z AUTO 02003KT 10SM SCT042 BKN065 19/09 A3011 RMK AO2 SLP173 T01890089 57011,2025-09-12T21:45:16Z,2025-09-12T17:45:16Z,Lake County Airport,42.1610984802,-120.399002075,US,US-OR
KLKV,"Lakeview/Lake Cnty, OR, US",2025-09-12T21:53:00Z,2025-09-12 14:53:00,VFR,21.1,8.9,220,7,0,NA,1019.4,METAR KLKV 122153Z AUTO 22007KT 10SM SCT046 21/09 A3010 RMK AO2 SLP164 T02110089,2025-09-12T21:55:57Z,2025-09-12T17:55:57Z,Lake County Airport,42.1610984802,-120.399002075,US,US-OR
KLLJ,"Challis Arpt, ID, US",2025-09-12T20:55:00Z,2025-09-12 14:55:00,VFR,20,4.4,0,0,0,NA,1017.4,METAR KLLJ 122055Z AUTO 00000KT 10SM CLR 20/04 A3004 RMK AO2 SLP136 T02000044 56027,2025-09-12T21:45:16Z,2025-09-12T17:45:16Z,Challis Airport,44.522999,-114.218002,US,US-ID
KLLN,"Levelland Muni, TX, US",2025-09-12T21:35:00Z,2025-09-12 21:35:00,VFR,30,12,150,15,23,NA,1020.1,METAR KLLN 122135Z AUTO 15015G23KT 10SM CLR 30/12 A3012 RMK AO2,2025-09-12T21:45:16Z,2025-09-12T17:45:16Z,Levelland Municipal Airport,33.5525016784668,-102.37200164794922,US,US-TX
KLLQ,"Monticello/Ellis Fld, AR, US",2025-09-12T20:53:00Z,2025-09-12 20:53:00,VFR,36.1,12.2,90,5,0,NA,1017.4,METAR KLLQ 122053Z AUTO 09005KT 10SM FEW070 36/12 A3004 RMK AO2 SLP170 T03610122 56023,2025-09-12T21:45:16Z,2025-09-12T17:45:16Z,Monticello Municipal Ellis Field,33.638599,-91.750999,US,US-AR
KLLQ,"Monticello/Ellis Fld, AR, US",2025-09-12T21:53:00Z,2025-09-12 21:53:00,VFR,35.6,12.2,80,3,0,NA,1017,METAR KLLQ 122153Z AUTO 08003KT 10SM CLR 36/12 A3003 RMK AO2 SLP166 T03560122,2025-09-12T21:55:57Z,2025-09-12T17:55:57Z,Monticello Municipal Ellis Field,33.638599,-91.750999,US,US-AR
KLMO,"Longmont/Brand Arpt, CO, US",2025-09-12T21:35:00Z,2025-09-12 21:35:00,MVFR,24.9,10.4,300,14,18,5,1018.7,METAR KLMO 122135Z AUTO 30014G18KT 5SM HZ SCT029 SCT035 SCT045 25/10 A3008 RMK AO2 T02490104,2025-09-12T21:45:16Z,2025-09-12T17:45:16Z,Vance Brand Airport,40.1637,-105.163002,US,US-CO
KLMS,"Louisville/Winston Cnty, MS, US",2025-09-12T21:35:00Z,2025-09-12 16:35:00,VFR,33,15,50,7,0,9,1018.7,METAR KLMS 122135Z AUTO 05007KT 9SM CLR 33/15 A3008 RMK AO2,2025-09-12T21:45:16Z,2025-09-12T17:45:16Z,Louisville Winston County Airport,33.1461982727,-89.0625,US,US-MS
KLMT,"Klamath Falls Intl, OR, US",2025-09-12T20:53:00Z,2025-09-12 13:53:00,VFR,20.6,8.9,VAR,4,0,NA,1018.7,METAR KLMT 122053Z VRB04KT 10SM SCT040 21/09 A3008 RMK AO2 SLP160 T02060089 58013,2025-09-12T21:45:16Z,2025-09-12T17:45:16Z,Crater Lake-Klamath Regional Airport,42.156101,-121.733002,US,US-OR
KLMT,"Klamath Falls Intl, OR, US",2025-09-12T21:53:00Z,2025-09-12 14:53:00,VFR,20.6,8.3,VAR,4,0,NA,1018.7,METAR KLMT 122153Z VRB04KT 10SM CLR 21/08 A3008 RMK AO2 SLP161 T02060083,2025-09-12T21:55:57Z,2025-09-12T17:55:57Z,Crater Lake-Klamath Regional Airport,42.156101,-121.733002,US,US-OR
KLNA,"Lantana/Palm Beach Cnty, FL, US",2025-09-12T21:35:00Z,2025-09-12 17:35:00,MVFR,25.2,22,50,7,0,5,1014.3,METAR KLNA 122135Z AUTO 05007KT 5SM SCT008 BKN030 OVC050 25/22 A2995 RMK AO2 LTG DSNT SE T02520220,2025-09-12T21:45:16Z,2025-09-12T17:45:16Z,Palm Beach County Park Airport,26.59300041,-80.08509827,US,US-FL
KLNC,"Lancaster Arpt, TX, US",2025-09-12T21:35:00Z,2025-09-12 21:35:00,NA,34.6,17.8,200,7,0,NA,1018,METAR KLNC 122135Z AUTO 20007KT SCT075 35/18 A3006 RMK AO2 T03460178 PWINO,2025-09-12T21:45:16Z,2025-09-12T17:45:16Z,Lancaster Airport,32.577564,-96.717494,US,US-TX
KLND,"Lander/Hunt Fld, WY, US",2025-09-12T20:53:00Z,2025-09-12 14:53:00,VFR,22.2,4.4,VAR,3,0,NA,1017.7,METAR KLND 122053Z AUTO VRB03KT 10SM CLR 22/04 A3005 RMK AO2 SLP115 T02220044 58018,2025-09-12T21:45:16Z,2025-09-12T17:45:16Z,Hunt Field,42.815201,-108.730003,US,US-WY
KLND,"Lander/Hunt Fld, WY, US",2025-09-12T21:53:00Z,2025-09-12 15:53:00,VFR,22.8,4.4,0,0,0,NA,1017,METAR KLND 122153Z AUTO 00000KT 10SM CLR 23/04 A3003 RMK AO2 SLP107 T02280044,2025-09-12T21:55:57Z,2025-09-12T17:55:57Z,Hunt Field,42.815201,-108.730003,US,US-WY
KLNK,"Lincoln Arpt, NE, US",2025-09-12T20:54:00Z,2025-09-12 15:54:00,VFR,32.2,20,200,11,0,NA,1013,METAR KLNK 122054Z 20011KT 10SM CLR 32/20 A2991 RMK AO2 SLP114 T03220200 58018,2025-09-12T21:45:16Z,2025-09-12T17:45:16Z,Lincoln Airport,40.85100173950195,-96.75920104980467,US,US-NE
KLNL,"Land OLakes Arpt, WI, US",2025-09-12T21:35:00Z,2025-09-12 21:35:00,VFR,22.6,14,190,5,0,NA,1019.7,METAR KLNL 122135Z AUTO 19005KT 10SM CLR 23/14 A3011 RMK AO2 T02260140,2025-09-12T21:45:15Z,2025-09-12T17:45:15Z,Kings Land O' Lakes Airport,46.153999,-89.212097,US,US-WI
KLNN,"Willoughby/Lake Cnty Exec, OH, US",2025-09-12T21:35:00Z,2025-09-12 17:35:00,VFR,22,13.6,0,0,0,NA,1022.4,METAR KLNN 122135Z AUTO 00000KT 10SM CLR 22/14 A3019 RMK AO1 T02200136,2025-09-12T21:45:16Z,2025-09-12T17:45:16Z,Lake County Executive Airport,41.683998,-81.389702,US,US-OH
KLNP,"Wise/Lonesome Pine Arpt, VA, US",2025-09-12T21:35:00Z,2025-09-12 17:35:00,VFR,22,9,40,3,0,NA,1024.1,METAR KLNP 122135Z AUTO 04003KT 10SM CLR 22/09 A3024 RMK AO2,2025-09-12T21:45:16Z,2025-09-12T17:45:16Z,Lonesome Pine Airport,36.9874992371,-82.5299987793,US,US-VA
KLNR,"Lone Rock/Tri Cnty Rgnl, WI, US",2025-09-12T20:56:00Z,2025-09-12 15:56:00,VFR,28.9,14.4,150,8,15,NA,1018.4,METAR KLNR 122056Z AUTO 15008G15KT 10SM CLR 29/14 A3007 RMK AO2 SLP173 T02890144 56028,2025-09-12T21:45:16Z,2025-09-12T17:45:16Z,Tri-County Regional Airport,43.2099,-90.181332,US,US-WI
KLNS,"Lancaster Arpt, PA, US",2025-09-12T20:53:00Z,2025-09-12 16:53:00,VFR,25,12.8,130,3,0,NA,1021.4,METAR KLNS 122053Z 13003KT 10SM BKN080 25/13 A3016 RMK AO2 SLP210 T02500128 56011,2025-09-12T21:45:16Z,2025-09-12T17:45:16Z,Lancaster Airport,40.121700286865234,-76.29609680175781,US,US-PA
KLNS,"Lancaster Arpt, PA, US",2025-09-12T21:53:00Z,2025-09-12 17:53:00,VFR,25,12.2,190,5,0,NA,1021.4,METAR KLNS 122153Z 19005KT 10SM SCT080 25/12 A3016 RMK AO2 SLP210 T02500122,2025-09-12T21:55:57Z,2025-09-12T17:55:57Z,Lancaster Airport,40.121700286865234,-76.29609680175781,US,US-PA
KLOL,"Lovelock/Derby Fld, NV, US",2025-09-12T20:53:00Z,2025-09-12 13:53:00,VFR,22.8,5.6,VAR,4,0,NA,1017,METAR KLOL 122053Z AUTO VRB04KT 10SM CLR 23/06 A3003 RMK AO2 SLP140 T02280056 58017,2025-09-12T21:45:16Z,2025-09-12T17:45:16Z,Derby Field,40.0663986206,-118.565002441,US,US-NV
KLOL,"Lovelock/Derby Fld, NV, US",2025-09-12T21:53:00Z,2025-09-12 14:53:00,VFR,23.3,5,0,0,0,NA,1016.3,METAR KLOL 122153Z AUTO 00000KT 10SM CLR 23/05 A3001 RMK AO2 SLP133 T02330050,2025-09-12T21:55:57Z,2025-09-12T17:55:57Z,Derby Field,40.0663986206,-118.565002441,US,US-NV
KLOM,"Philadelphia/Wings Field Arpt, PA, US",2025-09-12T21:35:00Z,2025-09-12 17:35:00,VFR,23.8,14.2,90,4,0,NA,1021.8,METAR KLOM 122135Z AUTO 09004KT 10SM CLR 24/14 A3017 RMK AO2 T02380142,2025-09-12T21:45:16Z,2025-09-12T17:45:16Z,Wings Field,40.1375007629,-75.2650985718,US,US-PA
KLOT,"Romeoville/Lewis Univ Arpt, IL, US",2025-09-12T20:48:00Z,2025-09-12 15:48:00,VFR,29,14,VAR,6,0,NA,1020.1,METAR KLOT 122048Z VRB06KT 10SM CLR 29/14 A3012,2025-09-12T21:45:16Z,2025-09-12T17:45:16Z,Lewis University Airport,41.6073,-88.096199,US,US-IL
KLOU,"Louisville/Bowman Fld, KY, US",2025-09-12T20:53:00Z,2025-09-12 16:53:00,VFR,30.6,12.8,0,0,0,NA,1020.1,METAR KLOU 122053Z 00000KT 10SM CLR 31/13 A3012 RMK AO2 SLP193 T03060128 56020,2025-09-12T21:45:16Z,2025-09-12T17:45:16Z,Bowman Field,38.2280006409,-85.6636962891,US,US-KY
KLOU,"Louisville/Bowman Fld, KY, US",2025-09-12T21:53:00Z,2025-09-12 17:53:00,VFR,30,12.8,VAR,3,0,NA,1019.7,METAR KLOU 122153Z VRB03KT 10SM CLR 30/13 A3011 RMK AO2 SLP191 T03000128,2025-09-12T21:55:57Z,2025-09-12T17:55:57Z,Bowman Field,38.2280006409,-85.6636962891,US,US-KY
KLOZ,"London-Corbin Arpt, KY, US",2025-09-12T20:53:00Z,2025-09-12 16:53:00,VFR,27.2,11.1,360,4,0,NA,1021.4,METAR KLOZ 122053Z AUTO 36004KT 10SM CLR 27/11 A3016 RMK AO2 SLP202 T02720111 58018,2025-09-12T21:45:16Z,2025-09-12T17:45:16Z,London-Corbin Airport/Magee Field,37.0821990967,-84.08489990230001,US,US-KY
KLOZ,"London-Corbin Arpt, KY, US",2025-09-12T21:53:00Z,2025-09-12 17:53:00,VFR,26.7,11.1,350,3,0,NA,1021.4,METAR KLOZ 122153Z AUTO 35003KT 10SM CLR 27/11 A3016 RMK AO2 SLP204 T02670111,2025-09-12T21:55:57Z,2025-09-12T17:55:57Z,London-Corbin Airport/Magee Field,37.0821990967,-84.08489990230001,US,US-KY
KLPC,"Lompoc Arpt, CA, US",2025-09-12T20:51:00Z,2025-09-12 13:51:00,VFR,22.8,15,290,12,0,NA,1014,METAR KLPC 122051Z AUTO 29012KT 10SM CLR 23/15 A2994 RMK AO2 SLP138 T02280150 56019 $,2025-09-12T21:45:16Z,2025-09-12T17:45:16Z,Lompoc Airport,34.665599823,-120.46800231900001,US,US-CA
KLPC,"Lompoc Arpt, CA, US",2025-09-12T21:51:00Z,2025-09-12 14:51:00,VFR,23.3,15.6,280,16,20,NA,1013.3,METAR KLPC 122151Z AUTO 28016G20KT 10SM CLR 23/16 A2992 RMK AO2 SLP132 T02330156 $,2025-09-12T21:55:57Z,2025-09-12T17:55:57Z,Lompoc Airport,34.665599823,-120.46800231900001,US,US-CA
KLPR,"Elyria/Lorain Cnty, OH, US",2025-09-12T20:53:00Z,2025-09-12 20:53:00,VFR,24.4,13.3,20,12,0,NA,1022.4,METAR KLPR 122053Z AUTO 02012KT 10SM CLR 24/13 A3019 RMK AO2 SLP220 T02440133 56014,2025-09-12T21:45:16Z,2025-09-12T17:45:16Z,Lorain County Regional Airport,41.344299,-82.177597,US,US-OH
KLPR,"Elyria/Lorain Cnty, OH, US",2025-09-12T21:53:00Z,2025-09-12 21:53:00,VFR,23.3,12.8,30,9,0,NA,1022.4,METAR KLPR 122153Z AUTO 03009KT 10SM CLR 23/13 A3019 RMK AO2 SLP223 T02330128,2025-09-12T21:55:57Z,2025-09-12T17:55:57Z,Lorain County Regional Airport,41.344299,-82.177597,US,US-OH
KLQK,"Pickens Cnty, SC, US",2025-09-12T21:35:00Z,2025-09-12 17:35:00,VFR,28.7,10.2,90,4,0,NA,1020.1,METAR KLQK 122135Z AUTO 09004KT 10SM CLR 29/10 A3012 RMK AO2 T02870102,2025-09-12T21:45:16Z,2025-09-12T17:45:16Z,Pickens County Airport,34.8100013733,-82.70290374759999,US,US-SC
KLRD,"Laredo Intl, TX, US",2025-09-12T20:56:00Z,2025-09-12 15:56:00,VFR,35.6,20,VAR,5,16,NA,1015,METAR KLRD 122056Z VRB05G16KT 10SM FEW085 SCT100 36/20 A2997 RMK AO2 SLP142 T03560200 58032 $,2025-09-12T21:45:16Z,2025-09-12T17:45:16Z,Laredo International Airport,27.543800354003903,-99.46160125732422,US,US-TX
KLRF,"Little Rock AFB, AR, US",2025-09-12T20:55:00Z,2025-09-12 15:55:00,VFR,33,17.6,300,3,0,NA,1018,METAR KLRF 122055Z AUTO 30003KT 10SM CLR 33/18 A3006 RMK AO2 SLP179 T03300176 57021,2025-09-12T21:45:16Z,2025-09-12T17:45:16Z,Little Rock Air Force Base,34.916900634799994,-92.14969635010002,US,US-AR
KLRJ,"Le Mars Muni, IA, US",2025-09-12T21:35:00Z,2025-09-12 16:35:00,VFR,28,20,180,10,0,NA,1011.3,METAR KLRJ 122135Z AUTO 18010KT 10SM CLR 28/20 A2986 RMK AO2,2025-09-12T21:45:15Z,2025-09-12T17:45:15Z,Le Mars Municipal Airport,42.77799988,-96.1937027,US,US-IA
KLRO,"Mt Pleasant Rgnl, SC, US",2025-09-12T21:35:00Z,2025-09-12 21:35:00,VFR,26,18,0,0,0,NA,1017.7,METAR KLRO 122135Z AUTO 00000KT 10SM BKN055 BKN065 26/18 A3005 RMK AO2,2025-09-12T21:45:16Z,2025-09-12T17:45:16Z,Mount Pleasant Regional Airport Faison Field,32.8978,-79.782898,US,US-SC
KLRU,"Las Cruces Intl, NM, US",2025-09-12T21:35:00Z,2025-09-12 15:35:00,VFR,31.1,8.7,150,13,0,NA,1017.4,METAR KLRU 122135Z AUTO 15013KT 10SM SCT085 BKN110 31/09 A3004 RMK AO2 T03110087,2025-09-12T21:45:16Z,2025-09-12T17:45:16Z,Las Cruces International Airport,32.289398,-106.921997,US,US-NM
KLRY,"Harrisonville/Smith, MO, US",2025-09-12T21:35:00Z,2025-09-12 21:35:00,VFR,36,13,220,9,0,NA,1017.4,METAR KLRY 122135Z AUTO 22009KT 10SM CLR 36/13 A3004 RMK AO2,2025-09-12T21:45:15Z,2025-09-12T17:45:15Z,Lawrence Smith Memorial Airport,38.609863,-94.343548,US,US-MO
KLSB,"Lordsburg Muni, NM, US",2025-09-12T21:35:00Z,2025-09-12 15:35:00,IFR,18,15,180,13,26,2,1018,METAR KLSB 122135Z AUTO 18013G26KT 2SM +TSRA SCT029 BKN041 OVC070 18/15 A3006 RMK AO2 VIS 1V5 LTG DSNT ALQS P0044,2025-09-12T21:45:16Z,2025-09-12T17:45:16Z,Lordsburg Municipal Airport,32.3334999084,-108.692001343,US,US-NM
KLSE,"La Crosse Muni, WI, US",2025-09-12T20:53:00Z,2025-09-12 15:53:00,VFR,30,16.1,170,10,0,NA,1017,METAR KLSE 122053Z 17010KT 10SM CLR 30/16 A3003 RMK AO2 SLP160 T03000161 56026,2025-09-12T21:45:18Z,2025-09-12T17:45:18Z,La Crosse Regional Airport,43.879002,-91.256699,US,US-WI
KLSE,"La Crosse Muni, WI, US",2025-09-12T21:53:00Z,2025-09-12 16:53:00,VFR,28.3,16.1,190,8,0,NA,1017,METAR KLSE 122153Z 19008KT 10SM FEW095 28/16 A3003 RMK AO2 SLP160 T02830161,2025-09-12T21:55:59Z,2025-09-12T17:55:59Z,La Crosse Regional Airport,43.879002,-91.256699,US,US-WI
KLSF,"Fort Benning/Lawson AAF, GA, US",2025-09-12T20:55:00Z,2025-09-12 15:55:00,VFR,32.5,13.2,10,3,0,NA,1016.3,METAR KLSF 122055Z AUTO 01003KT 10SM FEW080 33/13 A3001 RMK AO2 SLP165 T03250132 57016 $,2025-09-12T21:45:18Z,2025-09-12T17:45:18Z,Lawson Army Air Field,32.332546,-84.988003,US,US-GA
KLSV,"Nellis AFB, NV, US",2025-09-12T20:55:00Z,2025-09-12 13:55:00,VFR,31.9,-4.9,0,0,0,NA,1009.6,METAR KLSV 122055Z 00000KT 10SM FEW180 32/M05 A2981 RMK AO2A SLP068 T03191049 57021 $,2025-09-12T21:45:18Z,2025-09-12T17:45:18Z,Nellis Air Force Base,36.2361984253,-115.033996582,US,US-NV
KLTS,"Altus AFB, OK, US",2025-09-12T20:55:00Z,2025-09-12 15:55:00,VFR,36.2,14.2,180,11,20,NA,1016.3,METAR KLTS 122055Z AUTO 18011G20KT 10SM CLR 36/14 A3001 RMK AO2 SLP143 T03620142 57025 $,2025-09-12T21:45:18Z,2025-09-12T17:45:18Z,Altus Air Force Base,34.667099,-99.266701,US,US-OK
KLUD,"Decatur Muni, TX, US",2025-09-12T21:35:00Z,2025-09-12 21:35:00,VFR,33.9,15.3,180,8,14,7,1018,METAR KLUD 122135Z AUTO 18008G14KT 7SM CLR 34/15 A3006 RMK AO2 T03390153,2025-09-12T21:45:18Z,2025-09-12T17:45:18Z,Decatur Municipal Airport,33.254601,-97.580597,US,US-TX
KLUF,"Phoenix/Luke AFB, AZ, US",2025-09-12T20:55:00Z,2025-09-12 13:55:00,VFR,36.2,10.4,220,11,0,NA,1008.5,METAR KLUF 122055Z AUTO 22011KT 10SM CLR 36/10 A2978 RMK AO2 SLP067 T03620104 57028,2025-09-12T21:45:18Z,2025-09-12T17:45:18Z,Luke Air Force Base,33.535,-112.383003,US,US-AZ
KLUG,"Lewisburg/Ellington Arpt, TN, US",2025-09-12T21:35:00Z,2025-09-12 21:35:00,VFR,30,13,VAR,4,0,NA,1019,METAR KLUG 122135Z AUTO VRB04KT 10SM CLR 30/13 A3009 RMK A01,2025-09-12T21:45:18Z,2025-09-12T17:45:18Z,Ellington Airport,35.507,-86.803902,US,US-TN
KLUK,"Cincinnati/Lunken Fld, OH, US",2025-09-12T20:53:00Z,2025-09-12 16:53:00,VFR,29.4,10,0,0,0,NA,1020.4,METAR KLUK 122053Z 00000KT 10SM CLR 29/10 A3013 RMK AO2 SLP199 T02940100 56020,2025-09-12T21:45:18Z,2025-09-12T17:45:18Z,Cincinnati Municipal Airport Lunken Field,39.102357,-84.418945,US,US-OH
KLUK,"Cincinnati/Lunken Fld, OH, US",2025-09-12T21:53:00Z,2025-09-12 17:53:00,VFR,29.4,10,0,0,0,NA,1020.1,METAR KLUK 122153Z 00000KT 10SM CLR 29/10 A3012 RMK AO2 SLP197 T02940100,2025-09-12T21:55:59Z,2025-09-12T17:55:59Z,Cincinnati Municipal Airport Lunken Field,39.102357,-84.418945,US,US-OH
KLUL,"Laurel/Hesler-Noble Fld, MS, US",2025-09-12T21:35:00Z,2025-09-12 16:35:00,VFR,33.2,16.4,20,8,0,NA,1017.4,METAR KLUL 122135Z AUTO 02008KT 10SM CLR 33/16 A3004 RMK A02 T03320164,2025-09-12T21:45:18Z,2025-09-12T17:45:18Z,Hesler Noble Field,31.6725997925,-89.172203064,US,US-MS
KLUM,"Menomenie Muni, WI, US",2025-09-12T21:35:00Z,2025-09-12 21:35:00,VFR,25.8,18.1,200,3,0,NA,1017.7,METAR KLUM 122135Z AUTO 20003KT 10SM VCTS OVC075 26/18 A3005 RMK AO2 LTG DSNT ALQDS T02580181,2025-09-12T21:45:18Z,2025-09-12T17:45:18Z,Menomonie Municipal Score Field,44.8923,-91.867897,US,US-WI
KLUX,"Laurens Cnty, SC, US",2025-09-12T21:35:00Z,2025-09-12 21:35:00,VFR,27,14,40,5,0,NA,1019.7,METAR KLUX 122135Z AUTO 04005KT 10SM CLR 27/14 A3011 RMK AO2,2025-09-12T21:45:18Z,2025-09-12T17:45:18Z,Laurens County Airport,34.507099,-81.947197,US,US-SC
KLVJ,"Houston/Pearland Rgnl, TX, US",2025-09-12T20:53:00Z,2025-09-12 20:53:00,VFR,33.3,17.8,120,5,16,9,1018,METAR KLVJ 122053Z AUTO 12005G16KT 9SM CLR 33/18 A3006 RMK AO2 SLP178 T03330178 58019,2025-09-12T21:45:18Z,2025-09-12T17:45:18Z,Pearland Regional Airport,29.521299,-95.242104,US,US-TX
KLVJ,"Houston/Pearland Rgnl, TX, US",2025-09-12T21:53:00Z,2025-09-12 21:53:00,VFR,32.8,17.8,130,7,15,9,1017.7,METAR KLVJ 122153Z AUTO 13007G15KT 9SM CLR 33/18 A3005 RMK AO2 SLP175 T03280178,2025-09-12T21:55:59Z,2025-09-12T17:55:59Z,Pearland Regional Airport,29.521299,-95.242104,US,US-TX
KLVK,"Livermore Muni, CA, US",2025-09-12T20:53:00Z,2025-09-12 13:53:00,VFR,26.7,14.4,290,13,0,NA,1013.6,METAR KLVK 122053Z 29013KT 10SM CLR 27/14 A2993 RMK AO2 SLP130 T02670144 58019,2025-09-12T21:45:18Z,2025-09-12T17:45:18Z,Livermore Municipal Airport,37.6934013367,-121.819999695,US,US-CA
KLVK,"Livermore Muni, CA, US",2025-09-12T21:53:00Z,2025-09-12 14:53:00,VFR,27.2,13.9,300,12,0,NA,1013,METAR KLVK 122153Z 30012KT 10SM CLR 27/14 A2991 RMK AO2 SLP124 T02720139,2025-09-12T21:55:59Z,2025-09-12T17:55:59Z,Livermore Municipal Airport,37.6934013367,-121.819999695,US,US-CA
KLVL,"Lawrenceville Muni, VA, US",2025-09-12T21:35:00Z,2025-09-12 17:35:00,VFR,26.7,13.2,40,5,0,NA,1020.7,METAR KLVL 122135Z AUTO 04005KT 10SM CLR 27/13 A3014 RMK AO1 T02670132,2025-09-12T21:45:18Z,2025-09-12T17:45:18Z,Brunswick Municipal Airport,36.774229,-77.793846,US,US-VA
KLVM,"Livingston/Mission Fld, MT, US",2025-09-12T20:53:00Z,2025-09-12 14:53:00,VFR,20,2.8,240,22,32,NA,1017,METAR KLVM 122053Z AUTO 24022G32KT 10SM BKN100 BKN120 20/03 A3003 RMK AO2 PK WND 25032/2038 SLP147 T02000028 55005,2025-09-12T21:45:18Z,2025-09-12T17:45:18Z,Mission Field,45.6994018555,-110.447998047,US,US-MT
KLVM,"Livingston/Mission Fld, MT, US",2025-09-12T21:53:00Z,2025-09-12 15:53:00,VFR,23.3,1.7,VAR,3,0,NA,1016.7,METAR KLVM 122153Z AUTO VRB03KT 10SM BKN110 23/02 A3002 RMK AO2 PK WND 26028/2100 SLP139 T02330017,2025-09-12T21:55:59Z,2025-09-12T17:55:59Z,Mission Field,45.6994018555,-110.447998047,US,US-MT
KLVN,"Lakeville/Airlake Arpt, MN, US",2025-09-12T21:35:00Z,2025-09-12 21:35:00,VFR,22,19,160,4,0,NA,1016.3,METAR KLVN 122135Z AUTO 16004KT 10SM -RA CLR 22/19 A3001 RMK AO2 LTG DSNT N AND NE,2025-09-12T21:45:18Z,2025-09-12T17:45:18Z,Airlake Airport,44.627899,-93.228104,US,US-MN
KLVS,"Las Vegas Muni, NM, US",2025-09-12T20:53:00Z,2025-09-12 14:53:00,VFR,25,7.2,140,18,27,NA,1024.1,METAR KLVS 122053Z AUTO 14018G27KT 10SM CLR 25/07 A3024 RMK AO2 PK WND 16027/2049 SLP130 T02500072 58020,2025-09-12T21:45:18Z,2025-09-12T17:45:18Z,Las Vegas Municipal Airport,35.654202,-105.141998,US,US-NM
KLVS,"Las Vegas Muni, NM, US",2025-09-12T21:53:00Z,2025-09-12 15:53:00,VFR,25,6.7,170,16,0,NA,1023.5,METAR KLVS 122153Z AUTO 17016KT 10SM CLR 25/07 A3022 RMK AO2 PK WND 14028/2116 SLP128 T02500067,2025-09-12T21:55:59Z,2025-09-12T17:55:59Z,Las Vegas Municipal Airport,35.654202,-105.141998,US,US-NM
KLWA,"South Haven Rgnl, MI, US",2025-09-12T21:35:00Z,2025-09-12 21:35:00,VFR,26,11,330,5,0,NA,1021.1,METAR KLWA 122135Z AUTO 33005KT 10SM CLR 26/11 A3015 RMK AO2,2025-09-12T21:45:18Z,2025-09-12T17:45:18Z,South Haven Area Regional Airport,42.3512,-86.255699,US,US-MI
KLWB,"Lewisburg/Greenbrier Valley Arpt, WV, US",2025-09-12T20:45:00Z,2025-09-12 16:45:00,VFR,26,8,360,5,0,NA,1022.8,METAR KLWB 122045Z 36005KT 10SM OVC080 26/08 A3020,2025-09-12T21:45:18Z,2025-09-12T17:45:18Z,Greenbrier Valley Airport,37.857914,-80.400438,US,US-WV
KLWB,"Lewisburg/Greenbrier Valley Arpt, WV, US",2025-09-12T21:45:00Z,2025-09-12 17:45:00,VFR,26,8,80,3,0,NA,1022.4,METAR KLWB 122145Z 08003KT 10SM SCT080 BKN090 26/08 A3019,2025-09-12T21:55:59Z,2025-09-12T17:55:59Z,Greenbrier Valley Airport,37.857914,-80.400438,US,US-WV
KLWC,"Lawrence Muni, KS, US",2025-09-12T20:52:00Z,2025-09-12 15:52:00,VFR,35.6,17.8,190,14,21,NA,1015.3,METAR KLWC 122052Z AUTO 19014G21KT 10SM CLR 36/18 A2998 RMK AO1 SLP143 T03560178 56018,2025-09-12T21:45:18Z,2025-09-12T17:45:18Z,Lawrence Municipal Airport,39.01119995,-95.21659851,US,US-KS
KLWC,"Lawrence Muni, KS, US",2025-09-12T21:52:00Z,2025-09-12 16:52:00,VFR,34.4,18.3,220,11,19,NA,1015.3,METAR KLWC 122152Z AUTO 22011G19KT 10SM CLR 34/18 A2998 RMK AO1 SLP143 T03440183,2025-09-12T21:55:59Z,2025-09-12T17:55:59Z,Lawrence Municipal Airport,39.01119995,-95.21659851,US,US-KS
KLWM,"Lawrence Muni, MA, US",2025-09-12T20:54:00Z,2025-09-12 16:54:00,VFR,20.6,11.1,130,7,0,NA,1023.1,METAR KLWM 122054Z 13007KT 110V190 10SM SCT050 21/11 A3021 RMK AO2 SLP229 T02060111 55010,2025-09-12T21:45:18Z,2025-09-12T17:45:18Z,Lawrence Municipal Airport,42.717201232899995,-71.1233978271,US,US-MA
KLWS,"Lewiston/Nez Perce Cnty, ID, US",2025-09-12T20:56:00Z,2025-09-12 13:56:00,VFR,22.8,13.9,0,0,0,NA,1015.3,METAR KLWS 122056Z 00000KT 10SM CLR 23/14 A2998 RMK AO2 SLP145 60000 T02280139 58019,2025-09-12T21:45:18Z,2025-09-12T17:45:18Z,Lewiston Nez Perce County Airport,46.3745002746582,-117.01499938964844,US,US-ID
KLWT,"Lewistown Muni, MT, US",2025-09-12T21:40:00Z,2025-09-12 15:40:00,IFR,16.7,8.9,0,0,0,1.5,1017.7,SPECI KLWT 122140Z AUTO 00000KT 1 1/2SM +TSRA SCT048 BKN060 OVC085 17/09 A3005 RMK AO2 LTG DSNT NW-NE TSB40 P0011 T01670089,2025-09-12T21:45:18Z,2025-09-12T17:45:18Z,Lewistown Municipal Airport,47.048429,-109.466143,US,US-MT
KLWV,"Lawrenceville-Vincennes Intl, IL, US",2025-09-12T20:53:00Z,2025-09-12 15:53:00,VFR,30.6,13.9,140,3,0,NA,1019.7,METAR KLWV 122053Z AUTO 14003KT 10SM CLR 31/14 A3011 RMK AO2 SLP194 T03060139 56020,2025-09-12T21:45:18Z,2025-09-12T17:45:18Z,Lawrenceville Vincennes International Airport,38.7643013,-87.6054992676,US,US-IL
KLWV,"Lawrenceville-Vincennes Intl, IL, US",2025-09-12T21:53:00Z,2025-09-12 16:53:00,VFR,30,15,100,6,0,NA,1019.4,METAR KLWV 122153Z AUTO 10006KT 10SM CLR 30/15 A3010 RMK AO2 SLP190 T03000150,2025-09-12T21:55:59Z,2025-09-12T17:55:59Z,Lawrenceville Vincennes International Airport,38.7643013,-87.6054992676,US,US-IL
KLXL,"Little Falls/Morrison Cnty, MN, US",2025-09-12T21:35:00Z,2025-09-12 21:35:00,VFR,18,17,150,16,0,7,1013.6,METAR KLXL 122135Z AUTO 15016KT 7SM RA SCT009 BKN048 OVC110 18/17 A2993 RMK AO2 P0004 LTG DSNT E,2025-09-12T21:45:18Z,2025-09-12T17:45:18Z,Little Falls-Morrison County-Lindbergh field,45.949699,-94.347397,US,US-MN
KLXN,"Lexington/Kelly Fld, NE, US",2025-09-12T21:35:00Z,2025-09-12 16:35:00,VFR,37.4,4.9,220,14,21,NA,1011.9,METAR KLXN 122135Z AUTO 22014G21KT 10SM CLR 37/05 A2988 RMK AO2 T03740049,2025-09-12T21:45:18Z,2025-09-12T17:45:18Z,Jim Kelly Field,40.791,-99.777298,US,US-NE
KLXV,"Leadville/Lake Cnty, CO, US",2025-09-12T20:53:00Z,2025-09-12 14:53:00,VFR,10.6,6.1,200,5,0,NA,1030.6,METAR KLXV 122053Z AUTO 20005KT 10SM FEW060 BKN080 OVC090 11/06 A3043 RMK AO2 SLP176 60002 T01060061 56020,2025-09-12T21:45:18Z,2025-09-12T17:45:18Z,Lake County Airport,39.220298767100005,-106.317001343,US,US-CO
KLXV,"Leadville/Lake Cnty, CO, US",2025-09-12T21:53:00Z,2025-09-12 15:53:00,VFR,10,6.7,200,11,0,NA,1030.2,METAR KLXV 122153Z AUTO 20011KT 10SM -RA SCT047 BKN055 OVC070 10/07 A3042 RMK AO2 RAB01 SLP176 P0001 T01000067,2025-09-12T21:55:59Z,2025-09-12T17:55:59Z,Lake County Airport,39.220298767100005,-106.317001343,US,US-CO
KLXY,"Mexia/Limestone Cnty, TX, US",2025-09-12T21:35:00Z,2025-09-12 21:35:00,VFR,32.4,18.7,100,5,0,NA,1018.4,METAR KLXY 122135Z AUTO 10005KT 10SM SCT060 32/19 A3007 RMK AO2 T03240187 TSNO,2025-09-12T21:45:18Z,2025-09-12T17:45:18Z,Mexia Limestone County Airport,31.639799118041992,-96.51470184326172,US,US-TX
KLYH,"Lynchburg/Glenn Fld, VA, US",2025-09-12T20:54:00Z,2025-09-12 16:54:00,VFR,27.2,9.4,60,6,0,NA,1021.1,METAR KLYH 122054Z 06006KT 10SM FEW070 27/09 A3015 RMK AO2 SLP202 T02720094 56011,2025-09-12T21:45:18Z,2025-09-12T17:45:18Z,Lynchburg Regional Airport - Preston Glenn Field,37.326698,-79.200401,US,US-VA
KLYO,"Lyons/Rice Cnty, KS, US",2025-09-12T21:35:00Z,2025-09-12 16:35:00,VFR,33.2,16.3,190,16,24,NA,1016,METAR KLYO 122135Z AUTO 19016G24KT 10SM CLR 33/16 A3000 RMK AO2 T03320163,2025-09-12T21:45:18Z,2025-09-12T17:45:18Z,Lyons-Rice County Municipal Airport,38.339481,-98.228702,US,US-KS
KLYV,"Luverne Muni, MN, US",2025-09-12T21:35:00Z,2025-09-12 21:35:00,VFR,30,18,150,9,14,NA,1012.6,METAR KLYV 122135Z AUTO 15009G14KT 10SM CLR 30/18 A2990 RMK AO2,2025-09-12T21:45:18Z,2025-09-12T17:45:18Z,Quentin Aanenson Airfield - Luverne Municipal Airport,43.616217,-96.217946,US,US-MN
KLZU,"Lawrenceville/Gwinnett Cnty, GA, US",2025-09-12T20:56:00Z,2025-09-12 16:56:00,VFR,NA,NA,10,5,0,NA,1019.7,METAR KLZU 122056Z 01005KT 10SM CLR A3011 RMK AO2 SLPNO $,2025-09-12T21:45:18Z,2025-09-12T17:45:18Z,Gwinnett County Briscoe Field,33.97809982,-83.96240234,US,US-GA
KM02,"Dickson Muni, TN, US",2025-09-12T21:35:00Z,2025-09-12 21:35:00,VFR,29,13,0,0,0,NA,1019.4,METAR KM02 122135Z AUTO 00000KT 10SM CLR 29/13 A3010 RMK A01,2025-09-12T21:45:18Z,2025-09-12T17:45:18Z,Dickson County Municipal Airport,36.127998,-87.429802,US,US-TN
KM04,"Covington Muni, TN, US",2025-09-12T21:25:00Z,2025-09-12 21:25:00,VFR,34,17,VAR,6,0,NA,1017.4,METAR KM04 122125Z AUTO VRB06KT 10SM SCT070 BKN080 34/17 A3004 RMK A01,2025-09-12T21:45:18Z,2025-09-12T17:45:18Z,Covington Municipal Airport,35.583401,-89.587196,US,US-TN
KM08,"Bolivar/Whitehurst Fld, TN, US",2025-09-12T21:40:00Z,2025-09-12 21:40:00,NA,34,14,0,0,0,NA,1017.7,METAR KM08 122140Z AUTO 00000KT 10SM 34/14 A3005 RMK A01,2025-09-12T21:45:18Z,2025-09-12T17:45:18Z,William L. Whitehurst Field,35.2145,-89.043404,US,US-TN
KM19,"Newport Muni, AR, US",2025-09-12T20:56:00Z,2025-09-12 20:56:00,VFR,35,16.7,220,5,0,NA,1017.7,METAR KM19 122056Z AUTO 22005KT 10SM CLR 35/17 A3005 RMK AO2 SLP188 T03500167 58023 $,2025-09-12T21:45:18Z,2025-09-12T17:45:18Z,Newport Regional Airport,35.637699,-91.176397,US,US-AR
KM21,"Greenville/Muhlenberg Cnty, KY, US",2025-09-12T21:35:00Z,2025-09-12 21:35:00,VFR,31.5,13.4,70,3,0,NA,1019.4,METAR KM21 122135Z AUTO 07003KT 10SM SCT075 32/13 A3010 RMK AO2 T03150134,2025-09-12T21:45:18Z,2025-09-12T17:45:18Z,Muhlenberg County Airport,37.225966,-87.156987,US,US-KY
KM25,"Mayfield/Grave Cnty, KY, US",2025-09-12T21:35:00Z,2025-09-12 21:35:00,VFR,33.3,13.8,20,7,0,NA,1018.4,METAR KM25 122135Z AUTO 02007KT 10SM CLR 33/14 A3007 RMK AO2 T03330138,2025-09-12T21:45:18Z,2025-09-12T17:45:18Z,Mayfield Graves County Airport,36.7691,-88.584702,US,US-KY
KM30,"Metropolis Muni, IL, US",2025-09-12T21:35:00Z,2025-09-12 21:35:00,VFR,32,11.9,0,0,0,NA,1019,METAR KM30 122135Z AUTO 00000KT 10SM CLR 32/12 A3009 RMK AO2 T03200119,2025-09-12T21:45:18Z,2025-09-12T17:45:18Z,Metropolis Municipal Airport,37.182382,-88.750688,US,US-IL
KM40,"Aberdeen/Monroe Cnty, MS, US",2025-09-12T21:35:00Z,2025-09-12 21:35:00,VFR,33,16,360,8,0,NA,1018,METAR KM40 122135Z AUTO 36008KT 10SM CLR 33/16 A3006 RMK AO2,2025-09-12T21:45:18Z,2025-09-12T17:45:18Z,Monroe County Airport,33.873699,-88.4897,US,US-MS
KM54,"Lebanon Muni, TN, US",2025-09-12T21:30:00Z,2025-09-12 21:30:00,VFR,31,13,60,7,0,NA,1018.7,METAR KM54 122130Z AUTO 06007KT 10SM CLR 31/13 A3008 RMK A01,2025-09-12T21:45:18Z,2025-09-12T17:45:18Z,Lebanon Municipal Airport,36.190399,-86.315697,US,US-TN
KM75,"Malta Arpt, MT, US",2025-09-12T21:35:00Z,2025-09-12 15:35:00,VFR,27,11,360,9,0,NA,1013,METAR KM75 122135Z AUTO 36009KT 10SM CLR 27/11 A2991 RMK A01,2025-09-12T21:45:18Z,2025-09-12T17:45:18Z,Malta Airport,48.366901,-107.918999,US,US-MT
KM91,"Springfield/Robertson Cnty, TN, US",2025-09-12T21:35:00Z,2025-09-12 21:35:00,VFR,31,12,VAR,4,0,NA,1018.7,METAR KM91 122135Z AUTO VRB04KT 10SM CLR 31/12 A3008 RMK A01,2025-09-12T21:45:18Z,2025-09-12T17:45:18Z,Springfield Robertson County Airport,36.536801,-86.921182,US,US-TN
KMAE,"Madera Muni, CA, US",2025-09-12T20:53:00Z,2025-09-12 13:53:00,VFR,29.4,13.3,330,7,0,NA,1013,METAR KMAE 122053Z AUTO 33007KT 10SM CLR 29/13 A2991 RMK AO2 SLP126 T02940133 58020,2025-09-12T21:45:18Z,2025-09-12T17:45:18Z,Madera Municipal Airport,36.9886016846,-120.111999512,US,US-CA
KMAE,"Madera Muni, CA, US",2025-09-12T21:53:00Z,2025-09-12 14:53:00,VFR,30,11.7,300,10,0,NA,1012.3,METAR KMAE 122153Z AUTO 30010KT 10SM CLR 30/12 A2989 RMK AO2 SLP117 T03000117,2025-09-12T21:55:59Z,2025-09-12T17:55:59Z,Madera Municipal Airport,36.9886016846,-120.111999512,US,US-CA
KMAF,"Midland Intl, TX, US",2025-09-12T20:53:00Z,2025-09-12 15:53:00,VFR,32.8,13.9,190,17,23,NA,1019,METAR KMAF 122053Z 19017G23KT 10SM SCT075 33/14 A3009 RMK AO2 PK WND 19033/2031 SLP139 T03280139 58023,2025-09-12T21:45:18Z,2025-09-12T17:45:18Z,Midland International Air and Space Port,31.942499,-102.202003,US,US-TX
KMAF,"Midland Intl, TX, US",2025-09-12T21:53:00Z,2025-09-12 16:53:00,VFR,32.8,13.3,180,15,0,NA,1018,METAR KMAF 122153Z 18015KT 10SM FEW080 33/13 A3006 RMK AO2 PK WND 18026/2140 SLP130 T03280133,2025-09-12T21:55:59Z,2025-09-12T17:55:59Z,Midland International Air and Space Port,31.942499,-102.202003,US,US-TX
KMAI,"Marianna Muni, FL, US",2025-09-12T20:53:00Z,2025-09-12 20:53:00,VFR,32.8,13.3,10,12,20,NA,1016.3,METAR KMAI 122053Z AUTO 01012G20KT 10SM SCT075 33/13 A3001 RMK AO2 SLP160 T03280133 56015 $,2025-09-12T21:45:18Z,2025-09-12T17:45:18Z,Marianna Municipal Airport,30.837799,-85.1819,US,US-FL
KMAI,"Marianna Muni, FL, US",2025-09-12T21:53:00Z,2025-09-12 21:53:00,VFR,32.2,13.9,20,11,0,NA,1016.3,METAR KMAI 122153Z AUTO 02011KT 10SM FEW075 32/14 A3001 RMK AO2 SLP161 T03220139 $,2025-09-12T21:55:59Z,2025-09-12T17:55:59Z,Marianna Municipal Airport,30.837799,-85.1819,US,US-FL
KMAO,"Marion Cnty Arpt, SC, US",2025-09-12T21:35:00Z,2025-09-12 21:35:00,VFR,26,16,60,8,14,NA,1018.7,METAR KMAO 122135Z AUTO 06008G14KT 10SM CLR 26/16 A3008 RMK AO2,2025-09-12T21:45:18Z,2025-09-12T17:45:18Z,Marion County Airport,34.181198,-79.334702,US,US-SC
KMAW,"Malden Rgnl, MO, US",2025-09-12T21:35:00Z,2025-09-12 16:35:00,VFR,36,13,120,5,0,NA,1017.7,METAR KMAW 122135Z AUTO 12005KT 10SM BKN090 BKN110 36/13 A3005 RMK AO1,2025-09-12T21:45:18Z,2025-09-12T17:45:18Z,Malden Regional Airport,36.6006012,-89.99220276,US,US-MO
KMBG,"Mobridge Muni, SD, US",2025-09-12T20:52:00Z,2025-09-12 15:52:00,VFR,32.2,18.3,110,9,0,NA,1010.2,METAR KMBG 122052Z AUTO 11009KT 10SM FEW050 32/18 A2983 RMK AO2 SLP085 T03220183 56010,2025-09-12T21:45:18Z,2025-09-12T17:45:18Z,Mobridge Municipal Airport,45.54650116,-100.4079971,US,US-SD
KMBG,"Mobridge Muni, SD, US",2025-09-12T21:52:00Z,2025-09-12 16:52:00,VFR,31.7,19.4,100,8,0,NA,1010.2,METAR KMBG 122152Z AUTO 10008KT 10SM CLR 32/19 A2983 RMK AO2 SLP087 T03170194,2025-09-12T21:55:59Z,2025-09-12T17:55:59Z,Mobridge Municipal Airport,45.54650116,-100.4079971,US,US-SD
KMBL,"Manistee/Blacker Arpt, MI, US",2025-09-12T20:56:00Z,2025-09-12 16:56:00,VFR,23.3,12.8,260,6,0,NA,1021.4,METAR KMBL 122056Z AUTO 26006KT 10SM CLR 23/13 A3016 RMK AO2 SLP214 T02330128 56016,2025-09-12T21:45:18Z,2025-09-12T17:45:18Z,Manistee County Blacker Airport,44.272707,-86.246495,US,US-MI
KMBS,"Saginaw Intl, MI, US",2025-09-12T20:53:00Z,2025-09-12 16:53:00,VFR,25.6,11.7,230,3,0,NA,1021.8,METAR KMBS 122053Z 23003KT 10SM SCT070 26/12 A3017 RMK AO2 SLP216 T02560117 56019,2025-09-12T21:45:18Z,2025-09-12T17:45:18Z,MBS International Airport,43.531913,-84.082275,US,US-MI
KMBS,"Saginaw Intl, MI, US",2025-09-12T21:53:00Z,2025-09-12 17:53:00,VFR,25.6,12.2,220,6,0,NA,1021.8,METAR KMBS 122153Z 22006KT 10SM CLR 26/12 A3017 RMK AO2 SLP214 T02560122,2025-09-12T21:55:59Z,2025-09-12T17:55:59Z,MBS International Airport,43.531913,-84.082275,US,US-MI
KMBT,"Murfreesboro Muni, TN, US",2025-09-12T21:35:00Z,2025-09-12 21:35:00,VFR,30,13,VAR,4,0,NA,1018.7,METAR KMBT 122135Z AUTO VRB04KT 10SM CLR 30/13 A3008 RMK A01,2025-09-12T21:45:18Z,2025-09-12T17:45:18Z,City of Murfreesboro Airport,35.877499,-86.377502,US,US-TN
KMBY,"Moberly/Bradley Arpt, MO, US",2025-09-12T21:35:00Z,2025-09-12 16:35:00,VFR,34,13,180,6,0,NA,1017.4,METAR KMBY 122135Z AUTO 18006KT 10SM CLR 34/13 A3004 RMK AO2,2025-09-12T21:45:18Z,2025-09-12T17:45:18Z,Omar N Bradley Airport,39.464393,-92.428365,US,US-MO
KMCB,"McComb/Lewis Fld, MS, US",2025-09-12T20:53:00Z,2025-09-12 15:53:00,VFR,32.8,16.7,0,0,0,NA,1017.4,METAR KMCB 122053Z AUTO 00000KT 10SM FEW065 FEW080 33/17 A3004 RMK AO2 SLP168 T03280167 58023,2025-09-12T21:45:18Z,2025-09-12T17:45:18Z,McComb-Pike County Airport / John E Lewis Field,31.178499,-90.471901,US,US-MS
KMCB,"McComb/Lewis Fld, MS, US",2025-09-12T21:53:00Z,2025-09-12 16:53:00,VFR,33.3,16.1,340,6,0,NA,1017.4,METAR KMCB 122153Z AUTO 34006KT 10SM FEW075 SCT120 33/16 A3004 RMK AO2 SLP165 T03330161,2025-09-12T21:55:59Z,2025-09-12T17:55:59Z,McComb-Pike County Airport / John E Lewis Field,31.178499,-90.471901,US,US-MS
KMCC,"McClellan AFB, CA, US",2025-09-12T21:35:00Z,2025-09-12 14:35:00,VFR,30,11,VAR,6,11,NA,1011.6,METAR KMCC 122135Z AUTO VRB06G11KT 10SM CLR 30/11 A2987 RMK AO2,2025-09-12T21:45:18Z,2025-09-12T17:45:18Z,McClellan Airfield,38.667599,-121.401001,US,US-CA
KMCD,"Mackinac Isl Arpt, MI, US",2025-09-12T21:35:00Z,2025-09-12 17:35:00,VFR,19,15,160,5,0,NA,1021.4,METAR KMCD 122135Z AUTO 16005KT 10SM FEW120 19/15 A3016 RMK AO2,2025-09-12T21:45:18Z,2025-09-12T17:45:18Z,Mackinac Island Airport,45.86489868,-84.63729858,US,US-MI
KMCE,"Merced/Macready Fld, CA, US",2025-09-12T20:53:00Z,2025-09-12 13:53:00,VFR,28.3,12.8,VAR,6,0,NA,1012.3,METAR KMCE 122053Z AUTO VRB06KT 10SM CLR 28/13 A2989 RMK AO2 SLP122 T02830128 58020,2025-09-12T21:45:18Z,2025-09-12T17:45:18Z,Merced Regional Macready Field,37.284698,-120.514,US,US-CA
KMCE,"Merced/Macready Fld, CA, US",2025-09-12T21:53:00Z,2025-09-12 14:53:00,VFR,29.4,12.2,310,8,0,NA,1011.6,METAR KMCE 122153Z AUTO 31008KT 10SM CLR 29/12 A2987 RMK AO2 SLP114 T02940122,2025-09-12T21:55:59Z,2025-09-12T17:55:59Z,Merced Regional Macready Field,37.284698,-120.514,US,US-CA
KMCF,"Tampa/MacDill AFB, FL, US",2025-09-12T20:55:00Z,2025-09-12 16:55:00,VFR,31.5,21,40,6,0,NA,1014,METAR KMCF 122055Z AUTO 04006KT 10SM FEW200 32/21 A2994 RMK AO2 SLP141 T03150210 57016,2025-09-12T21:45:18Z,2025-09-12T17:45:18Z,MacDill Air Force Base,27.8493,-82.521202,US,US-FL
KMCI,"Kansas City Intl, MO, US",2025-09-12T20:53:00Z,2025-09-12 15:53:00,VFR,35.6,16.1,190,15,25,NA,1015.7,METAR KMCI 122053Z 19015G25KT 10SM FEW250 36/16 A2999 RMK AO2 SLP142 T03560161 56018 $,2025-09-12T21:45:18Z,2025-09-12T17:45:18Z,Kansas City International Airport,39.2976,-94.713898,US,US-MO
KMCI,"Kansas City Intl, MO, US",2025-09-12T21:53:00Z,2025-09-12 16:53:00,VFR,35.6,16.7,210,10,0,NA,1015.3,METAR KMCI 122153Z 21010KT 10SM SCT250 36/17 A2998 RMK AO2 SLP140 T03560167 $,2025-09-12T21:55:59Z,2025-09-12T17:55:59Z,Kansas City International Airport,39.2976,-94.713898,US,US-MO
KMCK,"McCook Muni, NE, US",2025-09-12T20:53:00Z,2025-09-12 15:53:00,VFR,37.8,6.7,200,16,24,NA,1012.3,METAR KMCK 122053Z AUTO 20016G24KT 10SM -RA CLR 38/07 A2989 RMK AO2 PK WND 21031/2040 SLP090 P0000 60000 T03780067 56020,2025-09-12T21:45:18Z,2025-09-12T17:45:18Z,McCook Ben Nelson Regional Airport,40.207787,-100.592794,US,US-NE
KMCK,"McCook Muni, NE, US",2025-09-12T21:53:00Z,2025-09-12 16:53:00,VFR,37.2,7.8,200,18,28,NA,1011.9,METAR KMCK 122153Z AUTO 20018G28KT 10SM -RA CLR 37/08 A2988 RMK AO2 PK WND 20028/2148 SLP087 P0000 T03720078,2025-09-12T21:55:59Z,2025-09-12T17:55:59Z,McCook Ben Nelson Regional Airport,40.207787,-100.592794,US,US-NE
KMCN,"Macon/Middle Georgia Rgnl, GA, US",2025-09-12T20:53:00Z,2025-09-12 16:53:00,VFR,28.3,16.1,80,8,0,NA,1018.4,METAR KMCN 122053Z AUTO 08008KT 10SM FEW060 28/16 A3007 RMK AO2 SLP178 T02830161 56012,2025-09-12T21:45:18Z,2025-09-12T17:45:18Z,Middle Georgia Regional Airport,32.69279861450195,-83.649200439453125,US,US-GA
KMCN,"Macon/Middle Georgia Rgnl, GA, US",2025-09-12T21:53:00Z,2025-09-12 17:53:00,VFR,28.3,15.6,70,10,0,NA,1018.4,METAR KMCN 122153Z AUTO 07010KT 10SM CLR 28/16 A3007 RMK AO2 SLP178 T02830156,2025-09-12T21:55:59Z,2025-09-12T17:55:59Z,Middle Georgia Regional Airport,32.69279861450195,-83.649200439453125,US,US-GA
KMCO,"Orlando Intl, FL, US",2025-09-12T20:53:00Z,2025-09-12 16:53:00,VFR,27.2,21.7,40,15,23,NA,1014.6,METAR KMCO 122053Z 04015G23KT 10SM FEW030 SCT055 SCT150 OVC240 27/22 A2996 RMK AO2 WSHFT 1941 SLP145 T02720217 56007,2025-09-12T21:45:18Z,2025-09-12T17:45:18Z,Orlando International Airport,28.429399490356445,-81.30899810791016,US,US-FL
KMCO,"Orlando Intl, FL, US",2025-09-12T21:53:00Z,2025-09-12 17:53:00,VFR,26.7,22.2,50,18,24,NA,1015,METAR KMCO 122153Z 05018G24KT 10SM FEW020 SCT100 SCT220 OVC300 27/22 A2997 RMK AO2 SLP148 T02670222,2025-09-12T21:55:59Z,2025-09-12T17:55:59Z,Orlando International Airport,28.429399490356445,-81.30899810791016,US,US-FL
KMCW,"Mason City Muni, IA, US",2025-09-12T20:53:00Z,2025-09-12 15:53:00,VFR,27.8,15.6,160,13,22,NA,1014.3,METAR KMCW 122053Z AUTO 16013G22KT 10SM CLR 28/16 A2995 RMK AO2 PK WND 14026/2022 SLP129 T02780156 58023,2025-09-12T21:45:18Z,2025-09-12T17:45:18Z,Mason City Municipal Airport,43.159801,-93.329716,US,US-IA
KMCW,"Mason City Muni, IA, US",2025-09-12T21:53:00Z,2025-09-12 16:53:00,VFR,26.1,17.2,160,9,0,NA,1015.3,METAR KMCW 122153Z AUTO 16009KT 10SM -RA FEW120 26/17 A2998 RMK AO2 RAB48 SLP141 P0000 T02610172,2025-09-12T21:55:59Z,2025-09-12T17:55:59Z,Mason City Municipal Airport,43.159801,-93.329716,US,US-IA
KMCX,"Monticello/White Cnty, IN, US",2025-09-12T21:35:00Z,2025-09-12 21:35:00,VFR,28.7,7.8,90,4,0,NA,1020.4,METAR KMCX 122135Z AUTO 09004KT 10SM CLR 29/08 A3013 RMK AO2 T02870078,2025-09-12T21:45:18Z,2025-09-12T17:45:18Z,White County Airport,40.708801,-86.7668,US,US-IN
KMCX,"Monticello/White Cnty, IN, US",2025-09-12T21:55:00Z,2025-09-12 21:55:00,VFR,28.4,7.6,0,0,0,NA,1020.4,METAR KMCX 122155Z AUTO 00000KT 10SM CLR 28/08 A3013 RMK AO2 T02840076,2025-09-12T21:55:59Z,2025-09-12T17:55:59Z,White County Airport,40.708801,-86.7668,US,US-IN
KMCZ,"Williamston/Martin Cnty, NC, US",2025-09-12T21:35:00Z,2025-09-12 21:35:00,VFR,26.1,16.1,50,3,0,NA,1019.7,METAR KMCZ 122135Z AUTO 05003KT 10SM SCT046 SCT050 26/16 A3011 RMK AO2 T02610161,2025-09-12T21:45:18Z,2025-09-12T17:45:18Z,Martin County Airport,35.86220169067383,-77.1781997680664,US,US-NC
KMCZ,"Williamston/Martin Cnty, NC, US",2025-09-12T21:45:00Z,2025-09-12 21:45:00,VFR,25.6,16.2,80,3,0,NA,1020.1,METAR KMCZ 122145Z AUTO 08003KT 10SM SCT046 BKN050 26/16 A3012 RMK AO2 T02560162,2025-09-12T21:55:59Z,2025-09-12T17:55:59Z,Martin County Airport,35.86220169067383,-77.1781997680664,US,US-NC
KMDD,"Midland Airpark, TX, US",2025-09-12T21:35:00Z,2025-09-12 16:35:00,VFR,31.9,12.1,170,14,19,NA,1018.7,METAR KMDD 122135Z AUTO 17014G19KT 10SM CLR 32/12 A3008 RMK AO2 T03190121,2025-09-12T21:45:18Z,2025-09-12T17:45:18Z,Midland Airpark,32.0364990234,-102.100997925,US,US-TX
KMDH,"Murphysboro/S Illinois Arpt, IL, US",2025-09-12T20:52:00Z,2025-09-12 15:52:00,VFR,33.3,15,VAR,NA,0,NA,1018.7,METAR KMDH 122052Z 10SM CLR 33/15 A3008 RMK AO2 SLP180 T03330150 56020 $,2025-09-12T21:45:18Z,2025-09-12T17:45:18Z,Southern Illinois Airport,37.778099,-89.251999,US,US-IL
KMDH,"Murphysboro/S Illinois Arpt, IL, US",2025-09-12T21:52:00Z,2025-09-12 16:52:00,VFR,32.8,15,150,5,0,NA,1018,METAR KMDH 122152Z 15005KT 10SM CLR 33/15 A3006 RMK AO2 SLP177 T03280150 $,2025-09-12T21:55:59Z,2025-09-12T17:55:59Z,Southern Illinois Airport,37.778099,-89.251999,US,US-IL
KMDQ,"Huntsville/Sharp Fld, AL, US",2025-09-12T21:35:00Z,2025-09-12 21:35:00,VFR,30.6,10.4,20,5,0,NA,1019.4,METAR KMDQ 122135Z AUTO 02005KT 10SM CLR 31/10 A3010 RMK A02 T03060104,2025-09-12T21:45:18Z,2025-09-12T17:45:18Z,Madison County Executive Airport-Tom Sharp Jr Field,34.8614006,-86.55750275,US,US-AL
KMDS,"Madison Muni, SD, US",2025-09-12T21:35:00Z,2025-09-12 16:35:00,VFR,29,21,VAR,4,0,NA,1012.3,METAR KMDS 122135Z AUTO VRB04KT 10SM CLR 29/21 A2989 RMK AO2 TSNO,2025-09-12T21:45:18Z,2025-09-12T17:45:18Z,Madison Municipal Airport,44.01599884,-97.08589935,US,US-SD
KMDT,"Harrisburg Intl, PA, US",2025-09-12T20:56:00Z,2025-09-12 16:56:00,VFR,27.2,10.6,170,4,0,NA,1021.1,METAR KMDT 122056Z 17004KT 10SM SCT060 27/11 A3015 RMK AO2 SLP207 T02720106 56013,2025-09-12T21:45:18Z,2025-09-12T17:45:18Z,Harrisburg International Airport,40.193501,-76.763397,US,US-PA
KMDW,"Chicago/Midway Intl, IL, US",2025-09-12T20:53:00Z,2025-09-12 15:53:00,VFR,28.9,11.7,210,9,0,NA,1019.7,METAR KMDW 122053Z 21009KT 10SM FEW070 FEW200 BKN250 29/12 A3011 RMK AO2 SLP189 T02890117 58024 $,2025-09-12T21:45:18Z,2025-09-12T17:45:18Z,Chicago Midway International Airport,41.785999,-87.752403,US,US-IL
KMDW,"Chicago/Midway Intl, IL, US",2025-09-12T21:53:00Z,2025-09-12 16:53:00,VFR,28.9,11.1,180,8,0,NA,1020.1,METAR KMDW 122153Z 18008KT 10SM FEW070 FEW200 BKN250 29/11 A3012 RMK AO2 SLP190 T02890111 $,2025-09-12T21:55:59Z,2025-09-12T17:55:59Z,Chicago Midway International Airport,41.785999,-87.752403,US,US-IL
KMDZ,"Medford/Taylor Cnty, WI, US",2025-09-12T21:35:00Z,2025-09-12 16:35:00,VFR,22.3,15.1,140,4,0,NA,1019.4,METAR KMDZ 122135Z AUTO 14004KT 10SM CLR 22/15 A3010 RMK AO2 LTG DSNT NW T02230151 PWINO,2025-09-12T21:45:18Z,2025-09-12T17:45:18Z,Taylor County Airport,45.10100174,-90.30329895,US,US-WI
KMEB,"Laurinberg/Maxton Arpt, NC, US",2025-09-12T20:52:00Z,2025-09-12 16:52:00,VFR,28.3,14.4,40,8,0,NA,1019,METAR KMEB 122052Z AUTO 04008KT 10SM FEW060 FEW075 28/14 A3009 RMK AO2 SLP188 T02830144 56014,2025-09-12T21:45:18Z,2025-09-12T17:45:18Z,Laurinburg Maxton Airport,34.791901,-79.365799,US,US-NC
KMEB,"Laurinberg/Maxton Arpt, NC, US",2025-09-12T21:52:00Z,2025-09-12 17:52:00,VFR,27.2,14.4,60,8,0,NA,1019.4,METAR KMEB 122152Z AUTO 06008KT 10SM CLR 27/14 A3010 RMK AO2 SLP190 T02720144,2025-09-12T21:55:59Z,2025-09-12T17:55:59Z,Laurinburg Maxton Airport,34.791901,-79.365799,US,US-NC
KMEI,"Meridian/Key Fld, MS, US",2025-09-12T20:58:00Z,2025-09-12 15:58:00,VFR,33.9,14.4,10,12,20,NA,1017,METAR KMEI 122058Z 01012G20KT 10SM SCT075 34/14 A3003 RMK AO2 SLP165 T03390144 56021 $,2025-09-12T21:45:18Z,2025-09-12T17:45:18Z,Key Field / Meridian Regional Airport,32.3326,-88.7519,US,US-MS
KMEM,"Memphis Intl, TN, US",2025-09-12T20:54:00Z,2025-09-12 15:54:00,VFR,35,14.4,10,5,0,NA,1018,METAR KMEM 122054Z 01005KT 10SM SCT075 BKN120 35/14 A3006 RMK AO2 SLP173 T03500144 57022 $,2025-09-12T21:45:18Z,2025-09-12T17:45:18Z,Memphis International Airport,35.0424,-89.9767,US,US-TN
KMEV,"Minden-Tahoe Arpt, NV, US",2025-09-12T21:35:00Z,2025-09-12 14:35:00,VFR,22,6,240,4,0,9,1017.4,METAR KMEV 122135Z AUTO 24004KT 9SM CLR 22/06 A3004 RMK AO2,2025-09-12T21:45:18Z,2025-09-12T17:45:18Z,Minden-Tahoe Airport,39.00030136,-119.7509995,US,US-NV
KMEZ,"Mena Intermountain Muni, AR, US",2025-09-12T21:35:00Z,2025-09-12 21:35:00,VFR,31.5,18.4,0,0,0,NA,1018.7,METAR KMEZ 122135Z AUTO 00000KT 10SM CLR 31/18 A3008 RMK AO2 T03150184,2025-09-12T21:45:18Z,2025-09-12T17:45:18Z,Mena Intermountain Municipal Airport,34.545399,-94.202698,US,US-AR
KMFD,"Mansfield/Lahm Rgnl, OH, US",2025-09-12T20:52:00Z,2025-09-12 16:52:00,VFR,26.1,8.3,330,6,0,NA,1022.1,METAR KMFD 122052Z 33006KT 10SM CLR 26/08 A3018 RMK AO2 SLP215 T02610083 56019,2025-09-12T21:45:18Z,2025-09-12T17:45:18Z,Mansfield Lahm Regional Airport,40.82139968869999,-82.5166015625,US,US-OH
KMFD,"Mansfield/Lahm Rgnl, OH, US",2025-09-12T21:52:00Z,2025-09-12 17:52:00,VFR,25.6,8.9,350,6,0,NA,1022.1,METAR KMFD 122152Z 35006KT 10SM CLR 26/09 A3018 RMK AO2 SLP216 T02560089,2025-09-12T21:55:59Z,2025-09-12T17:55:59Z,Mansfield Lahm Regional Airport,40.82139968869999,-82.5166015625,US,US-OH
KMFE,"McAllen/Miller Intl, TX, US",2025-09-12T20:53:00Z,2025-09-12 15:53:00,VFR,33.3,22.8,100,14,23,NA,1014.6,METAR KMFE 122053Z 10014G23KT 10SM FEW045 SCT049 SCT065 33/23 A2996 RMK AO2 PK WND 10027/2041 SLP145 T03330228 56024 $,2025-09-12T21:45:18Z,2025-09-12T17:45:18Z,McAllen Miller International Airport,26.176141,-98.237965,US,US-TX
KMFE,"McAllen/Miller Intl, TX, US",2025-09-12T21:53:00Z,2025-09-12 16:53:00,VFR,33.3,22.8,70,11,20,NA,1014.6,METAR KMFE 122153Z 07011G20KT 10SM CLR 33/23 A2996 RMK AO2 PK WND 06026/2108 LTG DSNT SE SLP144 T03330228 $,2025-09-12T21:55:59Z,2025-09-12T17:55:59Z,McAllen Miller International Airport,26.176141,-98.237965,US,US-TX
KMFI,"Marshfield Muni, WI, US",2025-09-12T20:54:00Z,2025-09-12 15:54:00,VFR,25,14.4,140,7,0,NA,1019.4,METAR KMFI 122054Z AUTO 14007KT 10SM CLR 25/14 A3010 RMK AO2 SLP190 T02500144 56020,2025-09-12T21:45:18Z,2025-09-12T17:45:18Z,Marshfield Municipal Airport,44.6369018555,-90.1893005371,US,US-WI
KMFR,"Medford/Rogue Valley Intl, OR, US",2025-09-12T20:53:00Z,2025-09-12 13:53:00,VFR,25,12.8,0,0,0,NA,1015.3,METAR KMFR 122053Z 00000KT 10SM CLR 25/13 A2998 RMK AO2 SLP143 T02500128 58023 $,2025-09-12T21:45:18Z,2025-09-12T17:45:18Z,Rogue Valley International Medford Airport,42.37419891357422,-122.8730010986328,US,US-OR
KMFR,"Medford/Rogue Valley Intl, OR, US",2025-09-12T21:53:00Z,2025-09-12 14:53:00,VFR,26.7,12.2,10,5,0,NA,1014.3,METAR KMFR 122153Z 01005KT 10SM CLR 27/12 A2995 RMK AO2 SLP132 T02670122 $,2025-09-12T21:55:59Z,2025-09-12T17:55:59Z,Rogue Valley International Medford Airport,42.37419891357422,-122.8730010986328,US,US-OR
KMFV,"Melfa/Accomack Cnty, VA, US",2025-09-12T20:35:00Z,2025-09-12 16:35:00,VFR,23.3,9.7,80,8,0,NA,1021.4,METAR KMFV 122035Z AUTO 08008KT 10SM CLR 23/10 A3016 RMK AO2 T02330097,2025-09-12T21:45:18Z,2025-09-12T17:45:18Z,Accomack County Airport,37.646900177,-75.761100769,US,US-VA
KMFV,"Melfa/Accomack Cnty, VA, US",2025-09-12T21:55:00Z,2025-09-12 17:55:00,VFR,22.1,11.1,60,9,0,NA,1021.4,METAR KMFV 122155Z AUTO 06009KT 10SM CLR 22/11 A3016 RMK AO2 T02210111,2025-09-12T21:55:59Z,2025-09-12T17:55:59Z,Accomack County Airport,37.646900177,-75.761100769,US,US-VA
KMGC,"Michigan City Muni, IN, US",2025-09-12T21:35:00Z,2025-09-12 16:35:00,VFR,27,10,0,0,0,NA,1021.1,METAR KMGC 122135Z AUTO 00000KT 10SM CLR 27/10 A3015 RMK AO2,2025-09-12T21:45:18Z,2025-09-12T17:45:18Z,Michigan City Municipal Airport,41.7033004761,-86.8211975098,US,US-IN
KMGE,"Marietta/Dobbins AFB, GA, US",2025-09-12T20:55:00Z,2025-09-12 16:55:00,VFR,30,12.8,0,0,0,NA,1018.7,METAR KMGE 122055Z 00000KT 10SM SCT060 30/13 A3008 RMK AO2A SLP177 T03000128 57016 $,2025-09-12T21:45:21Z,2025-09-12T17:45:21Z,Dobbins Air Reserve Base,33.915401,-84.516296,US,US-GA
KMGG,"Maple Lake Muni, MN, US",2025-09-12T21:35:00Z,2025-09-12 21:35:00,MVFR,20.1,18,50,14,19,4,1017,METAR KMGG 122135Z AUTO 05014G19KT 4SM RA SCT049 BKN060 OVC110 20/18 A3003 RMK AO2 LTG DSNT NE THRU SE P0003 T02010180,2025-09-12T21:45:21Z,2025-09-12T17:45:21Z,Maple Lake Municipal Airport,45.236,-93.985603,US,US-MN
KMGJ,"Montgomery/Orange Cnty, NY, US",2025-09-12T20:54:00Z,2025-09-12 16:54:00,VFR,23.9,11.7,270,3,0,NA,1021.4,METAR KMGJ 122054Z AUTO 27003KT 10SM CLR 24/12 A3016 RMK AO2 SLP211 T02390117 56014,2025-09-12T21:45:21Z,2025-09-12T17:45:21Z,Orange County Airport,41.50999832,-74.26460266,US,US-NY
KMGM,"Montgomery Rgnl, AL, US",2025-09-12T20:53:00Z,2025-09-12 15:53:00,VFR,33.3,15.6,20,10,19,NA,1017,METAR KMGM 122053Z 02010G19KT 360V070 10SM SCT075 33/16 A3003 RMK AO2 SLP165 T03330156 56020,2025-09-12T21:45:21Z,2025-09-12T17:45:21Z,Montgomery Regional (Dannelly Field) Airport,32.300598,-86.393997,US,US-AL
KMGM,"Montgomery Rgnl, AL, US",2025-09-12T21:53:00Z,2025-09-12 16:53:00,VFR,32.8,13.9,30,8,16,NA,1017,METAR KMGM 122153Z 03008G16KT 10SM CLR 33/14 A3003 RMK AO2 SLP164 T03280139,2025-09-12T21:56:02Z,2025-09-12T17:56:02Z,Montgomery Regional (Dannelly Field) Airport,32.300598,-86.393997,US,US-AL
KMGN,"Harbor Springs Arpt, MI, US",2025-09-12T21:35:00Z,2025-09-12 21:35:00,VFR,20,16.8,220,5,0,NA,1022.1,METAR KMGN 122135Z AUTO 22005KT 10SM CLR 20/16 A3018 RMK AO2 T02000168,2025-09-12T21:45:21Z,2025-09-12T17:45:21Z,Harbor Springs Airport,45.42559814453125,-84.91339874267578,US,US-MI
KMGR,"Moultrie Muni, GA, US",2025-09-12T21:35:00Z,2025-09-12 17:35:00,VFR,29.6,15.5,40,8,0,9,1017,METAR KMGR 122135Z AUTO 04008KT 9SM FEW080 30/16 A3003 RMK AO2 T02960155 $,2025-09-12T21:45:21Z,2025-09-12T17:45:21Z,Moultrie Municipal Airport,31.0848999023,-83.8032989502,US,US-GA
KMGW,"Morgantown Muni, WV, US",2025-09-12T20:53:00Z,2025-09-12 16:53:00,VFR,26.7,9.4,0,0,0,NA,1022.1,METAR KMGW 122053Z 00000KT 10SM CLR 27/09 A3018 RMK AO2 SLP212 T02670094 56015,2025-09-12T21:45:21Z,2025-09-12T17:45:21Z,Morgantown Municipal Airport Walter L. (Bill) Hart Field,39.643305,-79.917598,US,US-WV
KMGW,"Morgantown Muni, WV, US",2025-09-12T21:53:00Z,2025-09-12 17:53:00,VFR,26.7,9.4,0,0,0,NA,1021.8,METAR KMGW 122153Z 00000KT 10SM CLR 27/09 A3017 RMK AO2 SLP211 T02670094,2025-09-12T21:56:02Z,2025-09-12T17:56:02Z,Morgantown Municipal Airport Walter L. (Bill) Hart Field,39.643305,-79.917598,US,US-WV
KMGY,"Dayton/Wright Brothers Arpt, OH, US",2025-09-12T20:53:00Z,2025-09-12 16:53:00,VFR,27.8,6.7,60,3,0,NA,1021.1,METAR KMGY 122053Z AUTO 06003KT 10SM CLR 28/07 A3015 RMK AO2 SLP204 T02780067 56019,2025-09-12T21:45:21Z,2025-09-12T17:45:21Z,Dayton-Wright Brothers Airport,39.5890007019,-84.224899292,US,US-OH
KMGY,"Dayton/Wright Brothers Arpt, OH, US",2025-09-12T21:53:00Z,2025-09-12 17:53:00,VFR,27.8,6.7,VAR,NA,0,NA,1020.7,METAR KMGY 122153Z AUTO 10SM CLR 28/07 A3014 RMK AO2 SLP202 T02780067,2025-09-12T21:56:02Z,2025-09-12T17:56:02Z,Dayton-Wright Brothers Airport,39.5890007019,-84.224899292,US,US-OH
KMHE,"Mitchell Muni, SD, US",2025-09-12T20:53:00Z,2025-09-12 15:53:00,VFR,29.4,20,170,3,0,NA,1010.6,METAR KMHE 122053Z AUTO 17003KT 10SM CLR 29/20 A2984 RMK AO2 SLP095 T02940200 55007,2025-09-12T21:45:21Z,2025-09-12T17:45:21Z,Mitchell Municipal Airport,43.7747993469,-98.0385971069,US,US-SD
KMHE,"Mitchell Muni, SD, US",2025-09-12T21:53:00Z,2025-09-12 16:53:00,VFR,30.6,20,80,5,0,NA,1010.6,METAR KMHE 122153Z AUTO 08005KT 10SM CLR 31/20 A2984 RMK AO2 SLP095 T03060200,2025-09-12T21:56:02Z,2025-09-12T17:56:02Z,Mitchell Municipal Airport,43.7747993469,-98.0385971069,US,US-SD
KMHK,"Manhattan Rgnl, KS, US",2025-09-12T20:52:00Z,2025-09-12 15:52:00,VFR,33.3,20,210,11,0,NA,1014.6,METAR KMHK 122052Z 21011KT 10SM CLR 33/20 A2996 RMK AO2 SLP134 T03330200 58015,2025-09-12T21:45:21Z,2025-09-12T17:45:21Z,Manhattan Regional Airport,39.14099884033203,-96.6707992553711,US,US-KS
KMHK,"Manhattan Rgnl, KS, US",2025-09-12T21:52:00Z,2025-09-12 16:52:00,VFR,33.3,19.4,200,9,0,NA,1014.3,METAR KMHK 122152Z 20009KT 10SM CLR 33/19 A2995 RMK AO2 SLP131 T03330194,2025-09-12T21:56:02Z,2025-09-12T17:56:02Z,Manhattan Regional Airport,39.14099884033203,-96.6707992553711,US,US-KS
KMHL,"Marshall Muni, MO, US",2025-09-12T21:35:00Z,2025-09-12 16:35:00,VFR,34,16,210,6,0,NA,1017,METAR KMHL 122135Z AUTO 21006KT 10SM CLR 34/16 A3003 RMK AO2,2025-09-12T21:45:21Z,2025-09-12T17:45:21Z,Marshall Memorial Municipal Airport,39.0957984924,-93.2029037476,US,US-MO
KMHP,"Metter Muni, GA, US",2025-09-12T21:35:00Z,2025-09-12 21:35:00,VFR,29.5,14.5,40,8,15,NA,1017.7,METAR KMHP 122135Z AUTO 04008G15KT 10SM SCT060 BKN085 BKN090 29/15 A3005 RMK AO2 T02950145,2025-09-12T21:45:21Z,2025-09-12T17:45:21Z,Metter Municipal Airport,32.373885,-82.081775,US,US-GA
KMHR,"Sacramento/Mather Fld, CA, US",2025-09-12T21:35:00Z,2025-09-12 14:35:00,VFR,30,13,300,7,13,NA,1011.6,METAR KMHR 122135Z AUTO 30007G13KT 10SM CLR 30/13 A2987 RMK AO2,2025-09-12T21:45:21Z,2025-09-12T17:45:21Z,Sacramento Mather Airport,38.554744,-121.297989,US,US-CA
KMHT,"Manchester Rgnl, NH, US",2025-09-12T20:53:00Z,2025-09-12 16:53:00,VFR,23.3,7.2,VAR,3,0,NA,1021.8,METAR KMHT 122053Z VRB03KT 10SM FEW060 23/07 A3017 RMK AO2 SLP226 T02330072 56014,2025-09-12T21:45:21Z,2025-09-12T17:45:21Z,Manchester-Boston Regional Airport,42.932598,-71.435699,US,US-NH
KMHT,"Manchester Rgnl, NH, US",2025-09-12T21:53:00Z,2025-09-12 17:53:00,VFR,22.8,7.2,140,4,0,NA,1021.4,METAR KMHT 122153Z 14004KT 10SM CLR 23/07 A3016 RMK AO2 SLP226 T02280072,2025-09-12T21:56:02Z,2025-09-12T17:56:02Z,Manchester-Boston Regional Airport,42.932598,-71.435699,US,US-NH
KMHV,"Mojave Arpt, CA, US",2025-09-12T21:20:00Z,2025-09-12 14:20:00,VFR,27,9,290,15,21,NA,1013.3,METAR KMHV 122120Z AUTO 29015G21KT 10SM CLR 27/09 A2992 RMK AO2,2025-09-12T21:45:21Z,2025-09-12T17:45:21Z,Mojave Airport,35.05939865,-118.1520004,US,US-CA
KMIA,"Miami Intl, FL, US",2025-09-12T20:53:00Z,2025-09-12 16:53:00,VFR,25,23.3,360,5,0,NA,1013,METAR KMIA 122053Z 36005KT 10SM -RA SCT020 BKN050 BKN090 OVC180 25/23 A2991 RMK AO2 TSE46 SLP129 CB DSNT NE-SE AND NW MOV E P0011 60174 T02500233 58005 $,2025-09-12T21:45:21Z,2025-09-12T17:45:21Z,Miami International Airport,25.79319953918457,-80.29060363769531,US,US-FL
KMIA,"Miami Intl, FL, US",2025-09-12T21:53:00Z,2025-09-12 17:53:00,VFR,26.7,23.9,VAR,5,0,NA,1013.3,METAR KMIA 122153Z VRB05KT 10SM FEW025 FEW100 BKN200 BKN250 27/24 A2992 RMK AO2 RAE03 SLP132 CB DSNT NE-SE MOV E P0000 T02670239 $,2025-09-12T21:56:02Z,2025-09-12T17:56:02Z,Miami International Airport,25.79319953918457,-80.29060363769531,US,US-FL
KMIB,"Minot AFB, ND, US",2025-09-12T20:55:00Z,2025-09-12 15:55:00,VFR,29.1,16.3,70,6,0,NA,1012.3,METAR KMIB 122055Z 07006KT 10SM SCT200 29/16 A2989 RMK AO2A SLP117 T02910163 56011,2025-09-12T21:45:21Z,2025-09-12T17:45:21Z,Minot Air Force Base,48.4156,-101.358002,US,US-ND
KMIC,"Minneapolis/Crystal Arpt, MN, US",2025-09-12T20:53:00Z,2025-09-12 20:53:00,VFR,27.8,17.8,0,0,0,NA,1015.7,METAR KMIC 122053Z 00000KT 10SM CLR 28/18 A2999 RMK AO2 SLP150 T02780178 55002,2025-09-12T21:45:21Z,2025-09-12T17:45:21Z,Crystal Airport,45.062,-93.353897,US,US-MN
KMIC,"Minneapolis/Crystal Arpt, MN, US",2025-09-12T21:53:00Z,2025-09-12 21:53:00,VFR,23.3,19.4,10,11,16,NA,1016.3,METAR KMIC 122153Z 01011G16KT 10SM FEW048 SCT070 BKN100 23/19 A3001 RMK AO2 RAB32E53 SLP158 P0000 T02330194,2025-09-12T21:56:02Z,2025-09-12T17:56:02Z,Crystal Airport,45.062,-93.353897,US,US-MN
KMIE,"Muncie/Johnson Fld, IN, US",2025-09-12T20:53:00Z,2025-09-12 16:53:00,VFR,28.9,9.4,320,5,0,NA,1021.4,METAR KMIE 122053Z 32005KT 10SM CLR 29/09 A3016 RMK AO2 SLP205 T02890094 56019,2025-09-12T21:45:21Z,2025-09-12T17:45:21Z,Delaware County Johnson Field,40.242298,-85.395897,US,US-IN
KMIE,"Muncie/Johnson Fld, IN, US",2025-09-12T21:53:00Z,2025-09-12 17:53:00,VFR,28.9,9.4,VAR,3,0,NA,1021.1,METAR KMIE 122153Z VRB03KT 10SM CLR 29/09 A3015 RMK AO2 SLP202 T02890094,2025-09-12T21:56:01Z,2025-09-12T17:56:01Z,Delaware County Johnson Field,40.242298,-85.395897,US,US-IN
KMIO,"Miami Muni, OK, US",2025-09-12T21:35:00Z,2025-09-12 21:35:00,VFR,NA,NA,190,8,0,NA,1017.7,METAR KMIO 122135Z AUTO 19008KT 10SM CLR A3005 RMK A01,2025-09-12T21:45:21Z,2025-09-12T17:45:21Z,Miami Municipal Airport,36.909199,-94.887497,US,US-OK
KMIV,"Millville Muni, NJ, US",2025-09-12T20:54:00Z,2025-09-12 16:54:00,VFR,23.9,14.4,150,3,0,NA,1021.4,METAR KMIV 122054Z AUTO 15003KT 10SM BKN060 OVC090 24/14 A3016 RMK AO2 SLP211 T02390144 56005 $,2025-09-12T21:45:21Z,2025-09-12T17:45:21Z,Millville Municipal Airport,39.367802,-75.072197,US,US-NJ
KMIW,"Marshalltown Muni, IA, US",2025-09-12T20:53:00Z,2025-09-12 20:53:00,VFR,28.3,16.1,150,14,0,NA,1015.3,METAR KMIW 122053Z AUTO 15014KT 10SM FEW090 SCT110 28/16 A2998 RMK AO2 SLP147 T02830161 58019,2025-09-12T21:45:21Z,2025-09-12T17:45:21Z,Marshalltown Municipal Airport,42.112701,-92.917801,US,US-IA
KMIW,"Marshalltown Muni, IA, US",2025-09-12T21:53:00Z,2025-09-12 21:53:00,VFR,28.3,16.7,150,11,0,NA,1014.6,METAR KMIW 122153Z AUTO 15011KT 10SM FEW075 BKN110 28/17 A2996 RMK AO2 SLP141 T02830167,2025-09-12T21:56:01Z,2025-09-12T17:56:01Z,Marshalltown Municipal Airport,42.112701,-92.917801,US,US-IA
KMJD,"Picayune Muni, MS, US",2025-09-12T21:35:00Z,2025-09-12 21:35:00,VFR,33,18,0,0,0,NA,1016,METAR KMJD 122135Z AUTO 00000KT 10SM CLR 33/18 A3000 RMK AO2,2025-09-12T21:45:21Z,2025-09-12T17:45:21Z,Picayune Municipal Airport,30.487499239999998,-89.65119934,US,US-MS
KMJQ,"Jackson Muni, MN, US",2025-09-12T21:35:00Z,2025-09-12 21:35:00,VFR,28,18,150,8,0,NA,1014,METAR KMJQ 122135Z AUTO 15008KT 10SM CLR 28/18 A2994 RMK AO2,2025-09-12T21:45:21Z,2025-09-12T17:45:21Z,Jackson Municipal Airport,43.650002,-94.986504,US,US-MN
KMJX,"Toms River/Miller Arpt, NJ, US",2025-09-12T20:56:00Z,2025-09-12 16:56:00,VFR,23.3,12.8,100,5,0,NA,1022.1,METAR KMJX 122056Z AUTO 10005KT 10SM CLR 23/13 A3018 RMK AO2 SLP224 T02330128 58007 $,2025-09-12T21:45:21Z,2025-09-12T17:45:21Z,Ocean County Airport,39.92750168,-74.29239655,US,US-NJ
KMKC,"Kansas City/Wheeler Downtown Arpt, MO, US",2025-09-12T20:54:00Z,2025-09-12 15:54:00,VFR,36.1,16.1,210,14,0,NA,1015.3,METAR KMKC 122054Z 21014KT 10SM CLR 36/16 A2998 RMK AO2 SLP143 T03610161 56018,2025-09-12T21:45:21Z,2025-09-12T17:45:21Z,Charles B. Wheeler Downtown Airport,39.123199,-94.592796,US,US-MO
KMKE,"Milwaukee/Mitchell Intl, WI, US",2025-09-12T20:52:00Z,2025-09-12 15:52:00,VFR,22.2,16.7,120,9,0,NA,1020.4,METAR KMKE 122052Z 12009KT 10SM BKN250 22/17 A3013 RMK AO2 SLP201 T02220167 56023,2025-09-12T21:45:21Z,2025-09-12T17:45:21Z,General Mitchell International Airport,42.947201,-87.896599,US,US-WI
KMKE,"Milwaukee/Mitchell Intl, WI, US",2025-09-12T21:52:00Z,2025-09-12 16:52:00,VFR,22.2,16.1,130,7,0,NA,1020.4,METAR KMKE 122152Z 13007KT 10SM BKN250 22/16 A3013 RMK AO2 SLP200 T02220161,2025-09-12T21:56:02Z,2025-09-12T17:56:02Z,General Mitchell International Airport,42.947201,-87.896599,US,US-WI
KMKG,"Muskegon Cnty Arpt, MI, US",2025-09-12T20:55:00Z,2025-09-12 16:55:00,VFR,23.9,15,220,5,0,NA,1021.8,METAR KMKG 122055Z 22005KT 10SM FEW035 SCT250 24/15 A3017 RMK AO2 SLP216 T02390150 56018,2025-09-12T21:45:21Z,2025-09-12T17:45:21Z,Muskegon County Airport,43.169498,-86.238197,US,US-MI
KMKJ,"Marion/Mountain Empire Arpt, VA, US",2025-09-12T21:35:00Z,2025-09-12 21:35:00,VFR,24.3,5.5,0,0,0,NA,1023.5,METAR KMKJ 122135Z AUTO 00000KT 10SM SCT065 SCT080 24/06 A3022 RMK AO2 T02430055,2025-09-12T21:45:21Z,2025-09-12T17:45:21Z,Mountain Empire Airport,36.894901,-81.349899,US,US-VA
KMKL,"Jackson/McKellar Rgnl, TN, US",2025-09-12T20:53:00Z,2025-09-12 15:53:00,VFR,33.3,15.6,VAR,4,0,NA,1018.7,METAR KMKL 122053Z VRB04KT 10SM FEW075 33/16 A3008 RMK AO1 SLP179 T03330156 56021,2025-09-12T21:45:21Z,2025-09-12T17:45:21Z,McKellar-Sipes Regional Airport,35.599899,-88.915604,US,US-TN
KMKL,"Jackson/McKellar Rgnl, TN, US",2025-09-12T21:53:00Z,2025-09-12 16:53:00,VFR,33.3,16.7,120,6,0,NA,1018.4,METAR KMKL 122153Z 12006KT 10SM CLR 33/17 A3007 RMK AO1 SLP176 T03330167,2025-09-12T21:56:02Z,2025-09-12T17:56:02Z,McKellar-Sipes Regional Airport,35.599899,-88.915604,US,US-TN
KMKN,"Comanche Cnty, TX, US",2025-09-12T21:35:00Z,2025-09-12 21:35:00,VFR,37,15.5,150,6,0,NA,1018.4,METAR KMKN 122135Z AUTO 15006KT 10SM CLR 37/16 A3007 RMK AO2 T03700155,2025-09-12T21:45:21Z,2025-09-12T17:45:21Z,Comanche County City Airport,31.9168,-98.600304,US,US-TX
KMKO,"Muskogee/Davis Fld, OK, US",2025-09-12T20:53:00Z,2025-09-12 20:53:00,VFR,32.8,20,150,5,0,NA,1019,METAR KMKO 122053Z AUTO 15005KT 10SM CLR 33/20 A3009 RMK AO2 SLP181 T03280200 58019,2025-09-12T21:45:21Z,2025-09-12T17:45:21Z,Muskogee-Davis Regional Airport,35.656502,-95.366699,US,US-OK
KMKO,"Muskogee/Davis Fld, OK, US",2025-09-12T21:53:00Z,2025-09-12 21:53:00,VFR,33.3,20,VAR,6,0,NA,1018.7,METAR KMKO 122153Z AUTO VRB06KT 10SM CLR 33/20 A3008 RMK AO2 SLP176 T03330200,2025-09-12T21:56:02Z,2025-09-12T17:56:02Z,Muskogee-Davis Regional Airport,35.656502,-95.366699,US,US-OK
KMKS,"Moncks Corner/Berkeley Cnty, SC, US",2025-09-12T21:35:00Z,2025-09-12 21:35:00,VFR,28,2,70,7,0,NA,1018,METAR KMKS 122135Z AUTO 07007KT 10SM OVC055 28/02 A3006 RMK AO2,2025-09-12T21:45:21Z,2025-09-12T17:45:21Z,Berkeley County Airport,33.185501,-80.036301,US,US-SC
KMKT,"Mankato Rgnl, MN, US",2025-09-12T21:10:00Z,2025-09-12 21:10:00,VFR,23,20,130,3,0,NA,1015.3,SPECI KMKT 122110Z AUTO 13003KT 10SM -RA FEW049 SCT065 BKN090 23/20 A2998 RMK AO2 TSE04 PRESRR P0000 $,2025-09-12T21:45:21Z,2025-09-12T17:45:21Z,Mankato Regional Airport,44.224781,-93.919128,US,US-MN
KMKY,"Marco Island Arpt, FL, US",2025-09-12T20:56:00Z,2025-09-12 16:56:00,VFR,30,22.8,20,5,0,NA,NA,METAR KMKY 122056Z AUTO 02005KT 10SM CLR 30/23 RMK AO2 SLPNO 6//// T03000228 PNO $,2025-09-12T21:45:21Z,2025-09-12T17:45:21Z,Marco Island Executive Airport,25.995001,-81.672501,US,US-FL
KMLB,"Melbourne Intl, FL, US",2025-09-12T20:53:00Z,2025-09-12 16:53:00,VFR,27.2,22.2,80,7,0,NA,1014,METAR KMLB 122053Z 08007KT 10SM FEW023 27/22 A2994 RMK AO2 SLP138 60000 T02720222 56013,2025-09-12T21:45:21Z,2025-09-12T17:45:21Z,Melbourne Orlando International Airport,28.1028,-80.645302,US,US-FL
KMLB,"Melbourne Intl, FL, US",2025-09-12T21:53:00Z,2025-09-12 17:53:00,VFR,27.2,22.2,40,9,0,NA,1014.3,METAR KMLB 122153Z 04009KT 10SM SCT023 BKN032 BKN060 27/22 A2995 RMK AO2 SLP142 T02720222,2025-09-12T21:56:02Z,2025-09-12T17:56:02Z,Melbourne Orlando International Airport,28.1028,-80.645302,US,US-FL
KMLC,"McAlester Rgnl, OK, US",2025-09-12T20:53:00Z,2025-09-12 15:53:00,VFR,33.9,20,VAR,NA,0,NA,1018.4,METAR KMLC 122053Z AUTO 10SM CLR 34/20 A3007 RMK AO2 SLP174 T03390200 56020,2025-09-12T21:45:21Z,2025-09-12T17:45:21Z,Mc Alester Regional Airport,34.882401,-95.783501,US,US-OK
KMLC,"McAlester Rgnl, OK, US",2025-09-12T21:53:00Z,2025-09-12 16:53:00,VFR,33.9,21.1,VAR,4,0,NA,1018,METAR KMLC 122153Z AUTO VRB04KT 10SM FEW060 34/21 A3006 RMK AO2 SLP167 T03390211,2025-09-12T21:56:02Z,2025-09-12T17:56:02Z,Mc Alester Regional Airport,34.882401,-95.783501,US,US-OK
KMLE,"Omaha/Millard Arpt, NE, US",2025-09-12T21:35:00Z,2025-09-12 21:35:00,VFR,32.2,18.1,190,10,14,NA,1012.6,METAR KMLE 122135Z AUTO 19010G14KT 10SM CLR 32/18 A2990 RMK AO2 T03220181,2025-09-12T21:45:21Z,2025-09-12T17:45:21Z,Millard Airport,41.195877,-96.112107,US,US-NE
KMLF,"Milford Muni, UT, US",2025-09-12T20:52:00Z,2025-09-12 20:52:00,VFR,26.1,-2.2,190,12,23,NA,1015.7,METAR KMLF 122052Z AUTO 19012G23KT 10SM CLR 26/M02 A2999 RMK AO2 PK WND 21027/2017 SLP103 T02611022 56016,2025-09-12T21:45:21Z,2025-09-12T17:45:21Z,Milford Municipal-Ben and Judy Briscoe Field,38.426601,-113.012001,US,US-UT
KMLF,"Milford Muni, UT, US",2025-09-12T21:52:00Z,2025-09-12 21:52:00,VFR,26.7,-6.7,230,16,30,NA,1015.3,METAR KMLF 122152Z AUTO 23016G30KT 10SM CLR 27/M07 A2998 RMK AO2 PK WND 22032/2109 SLP098 T02671067,2025-09-12T21:56:02Z,2025-09-12T17:56:02Z,Milford Municipal-Ben and Judy Briscoe Field,38.426601,-113.012001,US,US-UT
KMLI,"Moline/Quad City Intl, IL, US",2025-09-12T20:52:00Z,2025-09-12 15:52:00,VFR,30.6,15.6,140,7,0,NA,1017.7,METAR KMLI 122052Z 14007KT 10SM CLR 31/16 A3005 RMK AO2 SLP173 T03060156 56023,2025-09-12T21:45:21Z,2025-09-12T17:45:21Z,Quad City International Airport,41.448502,-90.5075,US,US-IL
KMLI,"Moline/Quad City Intl, IL, US",2025-09-12T21:52:00Z,2025-09-12 16:52:00,VFR,31.1,16.1,160,7,0,NA,1017.7,METAR KMLI 122152Z 16007KT 10SM CLR 31/16 A3005 RMK AO2 SLP173 T03110161 $,2025-09-12T21:56:02Z,2025-09-12T17:56:02Z,Quad City International Airport,41.448502,-90.5075,US,US-IL
KMLJ,"Milledgeville/Baldwin Cnty, GA, US",2025-09-12T21:35:00Z,2025-09-12 21:35:00,VFR,29,15,70,8,0,NA,1018.4,METAR KMLJ 122135Z AUTO 07008KT 10SM FEW060 SCT080 29/15 A3007 RMK AO2,2025-09-12T21:45:21Z,2025-09-12T17:45:21Z,Baldwin County Regional Airport,33.154202,-83.240701,US,US-GA
KMLS,"Miles City/Wiley Fld, MT, US",2025-09-12T20:53:00Z,2025-09-12 14:53:00,VFR,27.2,7.8,140,7,0,NA,1014.6,METAR KMLS 122053Z AUTO 14007KT 10SM CLR 27/08 A2996 RMK AO2 SLP128 T02720078 58007,2025-09-12T21:45:21Z,2025-09-12T17:45:21Z,Miles City Airport - Frank Wiley Field,46.427268,-105.885372,US,US-MT
KMLS,"Miles City/Wiley Fld, MT, US",2025-09-12T21:53:00Z,2025-09-12 15:53:00,VFR,27.8,7.8,120,8,0,NA,1014,METAR KMLS 122153Z AUTO 12008KT 100V190 10SM CLR 28/08 A2994 RMK AO2 SLP122 T02780078,2025-09-12T21:56:01Z,2025-09-12T17:56:01Z,Miles City Airport - Frank Wiley Field,46.427268,-105.885372,US,US-MT
KMLT,"Millinocket Muni, ME, US",2025-09-12T20:53:00Z,2025-09-12 20:53:00,VFR,20.6,3.3,VAR,3,0,NA,1022.4,METAR KMLT 122053Z AUTO VRB03KT 10SM CLR 21/03 A3019 RMK AO2 SLP227 T02060033 56007,2025-09-12T21:45:21Z,2025-09-12T17:45:21Z,Millinocket Municipal Airport,45.6478,-68.6856,US,US-ME
KMLT,"Millinocket Muni, ME, US",2025-09-12T21:53:00Z,2025-09-12 21:53:00,VFR,18.9,5.6,0,0,0,NA,1022.4,METAR KMLT 122153Z AUTO 00000KT 10SM CLR 19/06 A3019 RMK AO2 SLP228 T01890056,2025-09-12T21:56:01Z,2025-09-12T17:56:01Z,Millinocket Municipal Airport,45.6478,-68.6856,US,US-ME
KMLU,"Monroe Rgnl, LA, US",2025-09-12T20:53:00Z,2025-09-12 15:53:00,VFR,34.4,19.4,0,0,0,NA,1017.7,METAR KMLU 122053Z 00000KT 10SM BKN054 34/19 A3005 RMK AO2 SLP174 T03440194 56023,2025-09-12T21:45:21Z,2025-09-12T17:45:21Z,Monroe Regional Airport,32.510899,-92.037697,US,US-LA
KMLU,"Monroe Rgnl, LA, US",2025-09-12T21:53:00Z,2025-09-12 16:53:00,VFR,33.3,21.1,0,0,0,NA,1017.4,METAR KMLU 122153Z 00000KT 10SM CLR 33/21 A3004 RMK AO2 SLP171 T03330211,2025-09-12T21:56:01Z,2025-09-12T17:56:01Z,Monroe Regional Airport,32.510899,-92.037697,US,US-LA
KMMH,"Mammoth/Yosemite Arpt, CA, US",2025-09-12T21:35:00Z,2025-09-12 14:35:00,VFR,16,2,90,11,0,NA,1021.4,METAR KMMH 122135Z AUTO 09011KT 10SM CLR 16/02 A3016 RMK AO2,2025-09-12T21:45:21Z,2025-09-12T17:45:21Z,Mammoth Yosemite Airport,37.625381,-118.84306,US,US-CA
KMMI,"Athens/McMinn Cnty, TN, US",2025-09-12T21:35:00Z,2025-09-12 17:35:00,VFR,28,10,40,7,0,NA,1020.4,METAR KMMI 122135Z AUTO 04007KT 10SM CLR 28/10 A3013 RMK A01,2025-09-12T21:45:21Z,2025-09-12T17:45:21Z,McMinn County Airport,35.39730072,-84.56259918,US,US-TN
KMMK,"Meriden/Markham Muni, CT, US",2025-09-12T20:53:00Z,2025-09-12 20:53:00,VFR,25,10.6,30,5,0,NA,1021.8,METAR KMMK 122053Z AUTO 03005KT 10SM FEW060 25/11 A3017 RMK AO2 SLP214 T02500106 56012,2025-09-12T21:45:21Z,2025-09-12T17:45:21Z,Meriden Markham Municipal Airport,41.50870132446289,-72.829498291015625,US,US-CT
KMMK,"Meriden/Markham Muni, CT, US",2025-09-12T21:53:00Z,2025-09-12 21:53:00,VFR,23.9,10,140,3,0,NA,1021.8,METAR KMMK 122153Z AUTO 14003KT 10SM CLR 24/10 A3017 RMK AO2 SLP213 T02390100,2025-09-12T21:56:01Z,2025-09-12T17:56:01Z,Meriden Markham Municipal Airport,41.50870132446289,-72.829498291015625,US,US-CT
KMML,"Marshall Muni, MN, US",2025-09-12T20:56:00Z,2025-09-12 15:56:00,VFR,27.2,20,90,14,0,NA,1013.3,METAR KMML 122056Z AUTO 09014KT 10SM CLR 27/20 A2992 RMK AO2 SLP126 60000 T02720200 55004,2025-09-12T21:45:21Z,2025-09-12T17:45:21Z,Southwest Minnesota Regional Airport - Marshall/Ryan Field,44.45050049,-95.82189941,US,US-MN
KMMT,"Columbia/McEntire JNGB, SC, US",2025-09-12T20:55:00Z,2025-09-12 16:55:00,VFR,31.3,11.6,60,10,0,NA,1017.7,METAR KMMT 122055Z 06010KT 10SM FEW060 31/12 A3005 RMK AO2A SLP177 T03130116 57016 $,2025-09-12T21:45:21Z,2025-09-12T17:45:21Z,Mc Entire Joint National Guard Base,33.92079926,-80.80130005,US,US-SC
KMMU,"Morristown Muni, NJ, US",2025-09-12T20:50:00Z,2025-09-12 16:50:00,VFR,25,13,0,0,0,NA,1021.8,METAR KMMU 122050Z 00000KT 10SM SCT075 25/13 A3017,2025-09-12T21:45:21Z,2025-09-12T17:45:21Z,Morristown Municipal Airport,40.799062,-74.414949,US,US-NJ
KMMU,"Morristown Muni, NJ, US",2025-09-12T21:50:00Z,2025-09-12 17:50:00,VFR,23,17,0,0,0,NA,1021.4,METAR KMMU 122150Z 00000KT 10SM FEW050 23/17 A3016,2025-09-12T21:56:02Z,2025-09-12T17:56:02Z,Morristown Municipal Airport,40.799062,-74.414949,US,US-NJ
KMMV,"McMinnville Muni, OR, US",2025-09-12T20:53:00Z,2025-09-12 20:53:00,VFR,21.7,11.1,VAR,NA,0,NA,1017,METAR KMMV 122053Z AUTO 10SM FEW036 22/11 A3003 RMK AO2 SLP168 T02170111 58015,2025-09-12T21:45:21Z,2025-09-12T17:45:21Z,Mc Minnville Municipal Airport,45.19440079,-123.1360016,US,US-OR
KMMV,"McMinnville Muni, OR, US",2025-09-12T21:53:00Z,2025-09-12 21:53:00,VFR,22.8,11.7,310,5,0,NA,1016.3,METAR KMMV 122153Z AUTO 31005KT 10SM CLR 23/12 A3001 RMK AO2 SLP161 T02280117,2025-09-12T21:56:01Z,2025-09-12T17:56:01Z,Mc Minnville Municipal Airport,45.19440079,-123.1360016,US,US-OR
KMNI,"Manning/Cooper Rgnl, SC, US",2025-09-12T21:35:00Z,2025-09-12 21:35:00,VFR,27,13,80,5,0,NA,1018,METAR KMNI 122135Z AUTO 08005KT 10SM SCT075 27/13 A3006 RMK AO2,2025-09-12T21:45:21Z,2025-09-12T17:45:21Z,Santee Cooper Regional Airport,33.587101,-80.208702,US,US-SC
KMNM,"Menominee/Twin Cnty, MI, US",2025-09-12T20:57:00Z,2025-09-12 15:57:00,VFR,23.9,15,150,6,0,8,1021.1,METAR KMNM 122057Z AUTO 15006KT 8SM CLR 24/15 A3015 RMK AO2 SLP210 T02390150 56017 $,2025-09-12T21:45:21Z,2025-09-12T17:45:21Z,Menominee–Marinette Twin County Airport,45.126701,-87.638397,US,US-MI
KMNN,"Marion Muni, OH, US",2025-09-12T20:53:00Z,2025-09-12 16:53:00,VFR,28.3,5,330,6,0,NA,1021.8,METAR KMNN 122053Z AUTO 33006KT 10SM CLR 28/05 A3017 RMK AO2 SLP214 T02830050 56019,2025-09-12T21:45:21Z,2025-09-12T17:45:21Z,Marion Municipal Airport,40.6161994934,-83.06349945070001,US,US-OH
KMNN,"Marion Muni, OH, US",2025-09-12T21:53:00Z,2025-09-12 17:53:00,VFR,28.3,5.6,10,4,0,NA,1021.8,METAR KMNN 122153Z AUTO 01004KT 10SM CLR 28/06 A3017 RMK AO2 SLP214 T02830056,2025-09-12T21:56:01Z,2025-09-12T17:56:01Z,Marion Municipal Airport,40.6161994934,-83.06349945070001,US,US-OH
KMNV,"Madisonville/Monroe Cnty, TN, US",2025-09-12T21:35:00Z,2025-09-12 21:35:00,VFR,28,12,50,6,11,NA,1020.1,METAR KMNV 122135Z AUTO 05006G11KT 10SM CLR 28/12 A3012 RMK A01,2025-09-12T21:45:21Z,2025-09-12T17:45:21Z,Monroe County Airport,35.545399,-84.380203,US,US-TN
KMNZ,"Hamilton Muni, TX, US",2025-09-12T21:35:00Z,2025-09-12 21:35:00,VFR,33,18,140,8,0,NA,1018.4,METAR KMNZ 122135Z AUTO 14008KT 10SM CLR 33/18 A3007 RMK AO2,2025-09-12T21:45:21Z,2025-09-12T17:45:21Z,Hamilton Municipal Airport,31.665899,-98.148598,US,US-TX
KMOB,"Mobile Rgnl, AL, US",2025-09-12T20:56:00Z,2025-09-12 15:56:00,VFR,33.3,17.8,VAR,3,0,NA,1017,METAR KMOB 122056Z VRB03KT 10SM FEW030 SCT065 SCT090 33/18 A3003 RMK AO2 SLP166 T03330178 56018,2025-09-12T21:45:21Z,2025-09-12T17:45:21Z,Mobile Regional Airport,30.6912,-88.242798,US,US-AL
KMOD,"Modesto/Sham Fld, CA, US",2025-09-12T20:53:00Z,2025-09-12 13:53:00,VFR,28.9,13.9,290,7,0,NA,1012.3,METAR KMOD 122053Z 29007KT 10SM CLR 29/14 A2989 RMK AO2 SLP121 T02890139 58021,2025-09-12T21:45:21Z,2025-09-12T17:45:21Z,Modesto City Co-Harry Sham Field,37.625801,-120.954002,US,US-CA
KMOD,"Modesto/Sham Fld, CA, US",2025-09-12T21:53:00Z,2025-09-12 14:53:00,VFR,29.4,13.3,310,8,0,NA,1011.6,METAR KMOD 122153Z 31008KT 10SM CLR 29/13 A2987 RMK AO2 SLP113 T02940133,2025-09-12T21:56:01Z,2025-09-12T17:56:01Z,Modesto City Co-Harry Sham Field,37.625801,-120.954002,US,US-CA
KMOP,"Mount Pleasant Muni, MI, US",2025-09-12T21:35:00Z,2025-09-12 21:35:00,VFR,26.8,8.5,260,6,0,NA,1021.1,METAR KMOP 122135Z AUTO 26006KT 10SM BKN065 27/09 A3015 RMK AO2 T02680085,2025-09-12T21:45:21Z,2025-09-12T17:45:21Z,Mount Pleasant Municipal Airport,43.6217,-84.737503,US,US-MI
KMOR,"Morristown/Moore Arpt, TN, US",2025-09-12T21:35:00Z,2025-09-12 21:35:00,VFR,27,12,30,4,0,NA,1020.7,METAR KMOR 122135Z AUTO 03004KT 10SM CLR 27/12 A3014 RMK A01,2025-09-12T21:45:21Z,2025-09-12T17:45:21Z,Morristown Regional Airport,36.179401,-83.375504,US,US-TN
KMOT,"Minot Intl, ND, US",2025-09-12T20:54:00Z,2025-09-12 15:54:00,VFR,27.8,18.3,50,8,0,NA,1013.6,METAR KMOT 122054Z 05008KT 10SM CLR 28/18 A2993 RMK AO2 SLP126 T02780183 56006,2025-09-12T21:45:21Z,2025-09-12T17:45:21Z,Minot International Airport,48.2593994140625,-101.27999877929688,US,US-ND
KMOX,"Morris Muni, MN, US",2025-09-12T21:35:00Z,2025-09-12 21:35:00,VFR,22,20,140,18,25,NA,1011.3,METAR KMOX 122135Z AUTO 14018G25KT 10SM OVC120 22/20 A2986 RMK AO2,2025-09-12T21:45:21Z,2025-09-12T17:45:21Z,Morris Municipal Airport Charlie Schmidt Field,45.566002,-95.967201,US,US-MN
KMPE,"Philadelphia Muni, MS, US",2025-09-12T20:55:00Z,2025-09-12 20:55:00,VFR,NA,NA,30,7,0,NA,1017,METAR KMPE 122055Z AUTO 03007KT 10SM CLR A3003 RMK AO2,2025-09-12T21:45:21Z,2025-09-12T17:45:21Z,Philadelphia Municipal Airport,32.7994,-89.125999,US,US-MS
KMPO,"Mount Pocono Muni, PA, US",2025-09-12T20:53:00Z,2025-09-12 16:53:00,VFR,20.6,10.6,VAR,NA,0,NA,1023.1,METAR KMPO 122053Z AUTO 10SM FEW050 OVC075 21/11 A3021 RMK AO2 SLP229 T02060106 56011,2025-09-12T21:45:21Z,2025-09-12T17:45:21Z,Pocono Mountains Municipal Airport,41.136025,-75.379572,US,US-PA
KMPO,"Mount Pocono Muni, PA, US",2025-09-12T21:53:00Z,2025-09-12 17:53:00,VFR,21.1,10.6,150,5,0,NA,1023.1,METAR KMPO 122153Z AUTO 15005KT 10SM OVC080 21/11 A3021 RMK AO2 SLP227 T02110106,2025-09-12T21:56:01Z,2025-09-12T17:56:01Z,Pocono Mountains Municipal Airport,41.136025,-75.379572,US,US-PA
KMPR,"McPherson Arpt, KS, US",2025-09-12T21:35:00Z,2025-09-12 21:35:00,VFR,32.9,19.1,180,15,19,NA,1016,METAR KMPR 122135Z AUTO 18015G19KT 10SM CLR 33/19 A3000 RMK AO2 T03290191,2025-09-12T21:45:21Z,2025-09-12T17:45:21Z,Mc Pherson Airport,38.352402,-97.691299,US,US-KS
KMPV,"Montpelier/Knapp Arpt, VT, US",2025-09-12T20:51:00Z,2025-09-12 16:51:00,VFR,20.6,6.1,360,6,0,NA,1024.1,METAR KMPV 122051Z AUTO 36006KT 10SM CLR 21/06 A3024 RMK AO2 SLP241 T02060061 56014,2025-09-12T21:45:21Z,2025-09-12T17:45:21Z,Edward F Knapp State Airport,44.20349884,-72.56230164,US,US-VT
KMPV,"Montpelier/Knapp Arpt, VT, US",2025-09-12T21:51:00Z,2025-09-12 17:51:00,VFR,20,3.3,310,5,0,NA,1024.1,METAR KMPV 122151Z AUTO 31005KT 10SM CLR 20/03 A3024 RMK AO2 SLP241 T02000033,2025-09-12T21:56:02Z,2025-09-12T17:56:02Z,Edward F Knapp State Airport,44.20349884,-72.56230164,US,US-VT
KMPZ,"Mount Pleasant Muni, IA, US",2025-09-12T21:35:00Z,2025-09-12 16:35:00,VFR,32,17,170,9,0,NA,1017.4,METAR KMPZ 122135Z AUTO 17009KT 10SM CLR 32/17 A3004 RMK AO2,2025-09-12T21:45:21Z,2025-09-12T17:45:21Z,Mount Pleasant Municipal Airport,40.94660187,-91.51110077,US,US-IA
KMQB,"Macomb Muni, IL, US",2025-09-12T21:35:00Z,2025-09-12 16:35:00,VFR,32.5,17,140,8,0,NA,1018.7,METAR KMQB 122135Z AUTO 14008KT 10SM CLR 33/17 A3008 RMK AO2 T03250170,2025-09-12T21:45:21Z,2025-09-12T17:45:21Z,Macomb Municipal Airport,40.5200996399,-90.6523971558,US,US-IL
KMQI,"Manteo/Dare Cnty, NC, US",2025-09-12T21:35:00Z,2025-09-12 17:35:00,VFR,23,14.1,60,10,16,NA,1020.1,METAR KMQI 122135Z AUTO 06010G16KT 10SM CLR 23/14 A3012 RMK AO2 T02300141,2025-09-12T21:45:21Z,2025-09-12T17:45:21Z,Dare County Regional Airport,35.91879,-75.695662,US,US-NC
KMQI,"Manteo/Dare Cnty, NC, US",2025-09-12T21:45:00Z,2025-09-12 17:45:00,VFR,22.9,13.8,50,9,16,NA,1020.4,METAR KMQI 122145Z AUTO 05009G16KT 10SM CLR 23/14 A3013 RMK AO2 T02290138,2025-09-12T21:56:02Z,2025-09-12T17:56:02Z,Dare County Regional Airport,35.91879,-75.695662,US,US-NC
KMQJ,"Indianapolis Rgnl, IN, US",2025-09-12T21:35:00Z,2025-09-12 21:35:00,VFR,29.1,10.7,180,4,0,NA,1020.4,METAR KMQJ 122135Z AUTO 18004KT 10SM CLR 29/11 A3013 RMK AO2 T02910107 $,2025-09-12T21:45:21Z,2025-09-12T17:45:21Z,Indianapolis Regional Airport,39.843498,-85.8971,US,US-IN
KMQS,"Coatesville/Chester Cnty, PA, US",2025-09-12T21:35:00Z,2025-09-12 17:35:00,VFR,25,12,0,0,0,NA,1022.1,METAR KMQS 122135Z AUTO 00000KT 10SM FEW075 FEW090 25/12 A3018 RMK AO2,2025-09-12T21:45:21Z,2025-09-12T17:45:21Z,Chester County G O Carlson Airport,39.97900009,-75.8655014,US,US-PA
KMQY,"Smyrna Arpt, TN, US",2025-09-12T20:56:00Z,2025-09-12 15:56:00,VFR,31.1,13.3,110,4,0,NA,1020.1,METAR KMQY 122056Z 11004KT 10SM CLR 31/13 A3012 RMK AO2 SLP200 T03110133 56018,2025-09-12T21:45:21Z,2025-09-12T17:45:21Z,Smyrna Airport,36.0089988708,-86.5201034546,US,US-TN
KMRB,"Martinsburg/E West Virginia Rgnl, WV, US",2025-09-12T20:53:00Z,2025-09-12 16:53:00,VFR,27.2,10,0,0,0,NA,1021.1,METAR KMRB 122053Z 00000KT 10SM FEW075 27/10 A3015 RMK AO2 SLP205 T02720100 56012,2025-09-12T21:45:21Z,2025-09-12T17:45:21Z,Eastern WV Regional Airport/Shepherd Field,39.40190125,-77.98459625,US,US-WV
KMRB,"Martinsburg/E West Virginia Rgnl, WV, US",2025-09-12T21:53:00Z,2025-09-12 17:53:00,VFR,27.2,11.1,140,5,0,NA,1020.7,METAR KMRB 122153Z 14005KT 10SM SCT085 27/11 A3014 RMK AO2 SLP204 T02720111,2025-09-12T21:56:01Z,2025-09-12T17:56:01Z,Eastern WV Regional Airport/Shepherd Field,39.40190125,-77.98459625,US,US-WV
KMRC,"Columbia/Maury Cnty, TN, US",2025-09-12T21:30:00Z,2025-09-12 16:30:00,VFR,31,11,330,4,10,NA,1018.4,METAR KMRC 122130Z AUTO 33004G10KT 10SM CLR 31/11 A3007 RMK A01,2025-09-12T21:45:21Z,2025-09-12T17:45:21Z,Maury County Airport,35.5541000366,-87.17890167239999,US,US-TN
KMRF,"Marfa Muni, TX, US",2025-09-12T21:01:00Z,2025-09-12 16:01:00,VFR,29.4,11.1,140,8,0,NA,1022.1,METAR KMRF 122101Z AUTO 14008KT 10SM FEW070 29/11 A3018 RMK AO2 SLP150 T02940111 58021 $,2025-09-12T21:45:21Z,2025-09-12T17:45:21Z,Marfa Municipal Airport,30.369593,-104.015893,US,US-TX
KMRH,"Beaufort/Smith Fld, NC, US",2025-09-12T20:58:00Z,2025-09-12 20:58:00,VFR,25,15.6,40,9,24,NA,1018.7,METAR KMRH 122058Z AUTO 04009G24KT 10SM CLR 25/16 A3008 RMK AO2 PK WND 02026/2025 SLP186 T02500156 55007,2025-09-12T21:45:21Z,2025-09-12T17:45:21Z,Michael J. Smith Field,34.73360062,-76.66059875,US,US-NC
KMRN,"Morganton/Foothills Rgnl, NC, US",2025-09-12T21:45:00Z,2025-09-12 17:45:00,VFR,28.1,14,0,0,0,NA,1021.8,METAR KMRN 122145Z AUTO 00000KT 10SM CLR 28/14 A3017 RMK AO2 T02810140,2025-09-12T21:45:21Z,2025-09-12T17:45:21Z,Foothills Regional Airport,35.820202,-81.611397,US,US-NC
KMRN,"Morganton/Foothills Rgnl, NC, US",2025-09-12T21:55:00Z,2025-09-12 17:55:00,VFR,28,14.4,0,0,0,NA,1022.1,METAR KMRN 122155Z AUTO 00000KT 10SM SCT060 28/14 A3018 RMK AO2 T02800144,2025-09-12T21:56:01Z,2025-09-12T17:56:01Z,Foothills Regional Airport,35.820202,-81.611397,US,US-NC
KMRT,"Marysville/Union Cnty, OH, US",2025-09-12T21:32:00Z,2025-09-12 21:32:00,VFR,27,7,0,0,0,NA,1021.8,METAR KMRT 122132Z 00000KT 10SM CLR 27/07 A3017 RMK AO2,2025-09-12T21:45:21Z,2025-09-12T17:45:21Z,Union County Airport,40.224701,-83.351601,US,US-OH
KMRT,"Marysville/Union Cnty, OH, US",2025-09-12T21:50:00Z,2025-09-12 21:50:00,VFR,27,7,20,5,0,NA,1021.8,METAR KMRT 122150Z 02005KT 10SM CLR 27/07 A3017 RMK AO2,2025-09-12T21:56:02Z,2025-09-12T17:56:02Z,Union County Airport,40.224701,-83.351601,US,US-OH
KMRY,"Monterey Rgnl, CA, US",2025-09-12T20:54:00Z,2025-09-12 13:54:00,IFR,17.2,13.9,270,7,0,NA,1016.3,METAR KMRY 122054Z 27007KT 10SM OVC007 17/14 A3001 RMK AO2 SLP173 T01720139 56007,2025-09-12T21:45:21Z,2025-09-12T17:45:21Z,Monterey Peninsula Airport,36.58700180053711,-121.84300231933594,US,US-CA
KMSL,"Muscle Shoals/NW Alabama Rgnl, AL, US",2025-09-12T20:53:00Z,2025-09-12 15:53:00,VFR,32.2,15,20,3,0,NA,1018.7,METAR KMSL 122053Z AUTO 02003KT 10SM CLR 32/15 A3008 RMK AO2 SLP179 T03220150 56021 $,2025-09-12T21:45:21Z,2025-09-12T17:45:21Z,Northwest Alabama Regional Airport,34.745123,-87.612981,US,US-AL
KMSL,"Muscle Shoals/NW Alabama Rgnl, AL, US",2025-09-12T21:53:00Z,2025-09-12 16:53:00,VFR,31.7,14.4,80,6,0,NA,1018.7,METAR KMSL 122153Z AUTO 08006KT 10SM CLR 32/14 A3008 RMK AO2 SLP178 T03170144 $,2025-09-12T21:56:01Z,2025-09-12T17:56:01Z,Northwest Alabama Regional Airport,34.745123,-87.612981,US,US-AL
KMSN,"Madison/Dane Cnty Rgnl, WI, US",2025-09-12T20:53:00Z,2025-09-12 15:53:00,VFR,27.8,12.8,190,8,0,NA,1019.4,METAR KMSN 122053Z 19008KT 10SM SCT250 28/13 A3010 RMK AO2 SLP188 T02780128 56027,2025-09-12T21:45:21Z,2025-09-12T17:45:21Z,Dane County Regional Truax Field,43.1399,-89.337502,US,US-WI
KMSN,"Madison/Dane Cnty Rgnl, WI, US",2025-09-12T21:53:00Z,2025-09-12 16:53:00,VFR,27.2,13.9,190,8,0,NA,1019,METAR KMSN 122153Z 19008KT 10SM FEW250 27/14 A3009 RMK AO2 SLP186 T02720139,2025-09-12T21:56:01Z,2025-09-12T17:56:01Z,Dane County Regional Truax Field,43.1399,-89.337502,US,US-WI
KMSO,"Missoula Intl, MT, US",2025-09-12T20:53:00Z,2025-09-12 14:53:00,VFR,23.3,7.8,VAR,3,0,NA,1016,METAR KMSO 122053Z VRB03KT 10SM CLR 23/08 A3000 RMK AO2 SLP144 T02330078 58025,2025-09-12T21:45:21Z,2025-09-12T17:45:21Z,Missoula International Airport,46.91630173,-114.0910034,US,US-MT
KMSO,"Missoula Intl, MT, US",2025-09-12T21:53:00Z,2025-09-12 15:53:00,VFR,25,6.1,VAR,4,0,NA,1015,METAR KMSO 122153Z VRB04KT 10SM CLR 25/06 A2997 RMK AO2 SLP134 T02500061,2025-09-12T21:56:01Z,2025-09-12T17:56:01Z,Missoula International Airport,46.91630173,-114.0910034,US,US-MT
KMSP,"Minneapolis-St Paul Intl, MN, US",2025-09-12T20:53:00Z,2025-09-12 15:53:00,VFR,26.7,18.3,140,4,0,NA,1015.3,METAR KMSP 122053Z 14004KT 10SM -RA FEW043 FEW070 SCT110 BKN180 OVC250 27/18 A2998 RMK AO2 RAB50 SLP148 P0000 60000 T02670183 55008,2025-09-12T21:45:21Z,2025-09-12T17:45:21Z,Minneapolis–Saint Paul International Airport / Wold–Chamberlain Field,44.880081,-93.221741,US,US-MN
KMSP,"Minneapolis-St Paul Intl, MN, US",2025-09-12T21:53:00Z,2025-09-12 16:53:00,VFR,25,19.4,60,3,0,7,1016.7,METAR KMSP 122153Z 06003KT 7SM -RA FEW049 BKN090 BKN110 OVC140 25/19 A3002 RMK AO2 SLP164 P0001 T02500194,2025-09-12T21:56:01Z,2025-09-12T17:56:01Z,Minneapolis–Saint Paul International Airport / Wold–Chamberlain Field,44.880081,-93.221741,US,US-MN
KMSS,"Massena Intl, NY, US",2025-09-12T20:53:00Z,2025-09-12 16:53:00,VFR,21.1,6.1,0,0,0,NA,1022.4,METAR KMSS 122053Z AUTO 00000KT 10SM CLR 21/06 A3019 RMK AO2 SLP226 T02110061 56019,2025-09-12T21:45:21Z,2025-09-12T17:45:21Z,Massena International Airport Richards Field,44.936157,-74.844304,US,US-NY
KMSS,"Massena Intl, NY, US",2025-09-12T21:53:00Z,2025-09-12 17:53:00,VFR,20,7.8,300,3,0,NA,1022.8,METAR KMSS 122153Z AUTO 30003KT 10SM CLR 20/08 A3020 RMK AO2 SLP227 T02000078,2025-09-12T21:56:01Z,2025-09-12T17:56:01Z,Massena International Airport Richards Field,44.936157,-74.844304,US,US-NY
KMSY,"New Orleans/Armstrong Intl, LA, US",2025-09-12T20:53:00Z,2025-09-12 15:53:00,VFR,34.4,16.7,0,0,0,NA,1017,METAR KMSY 122053Z 00000KT 10SM FEW065 34/17 A3003 RMK AO2 SLP172 T03440167 56019,2025-09-12T21:45:21Z,2025-09-12T17:45:21Z,Louis Armstrong New Orleans International Airport,29.993401,-90.258003,US,US-LA
KMSY,"New Orleans/Armstrong Intl, LA, US",2025-09-12T21:53:00Z,2025-09-12 16:53:00,VFR,35,17.2,340,4,0,NA,1016.7,METAR KMSY 122153Z 34004KT 10SM FEW070 35/17 A3002 RMK AO2 SLP168 T03500172,2025-09-12T21:56:01Z,2025-09-12T17:56:01Z,Louis Armstrong New Orleans International Airport,29.993401,-90.258003,US,US-LA
KMTC,"Selfridge ANGB, MI, US",2025-09-12T20:56:00Z,2025-09-12 16:56:00,VFR,25.5,10.1,170,5,0,NA,1021.1,METAR KMTC 122056Z 17005KT 10SM FEW060 FEW250 26/10 A3015 RMK AO2A SLPNO T02550101 57017,2025-09-12T21:45:21Z,2025-09-12T17:45:21Z,Selfridge Air National Guard Base Airport,42.613463,-82.836919,US,US-MI
KMTH,"Marathon Arpt, FL, US",2025-09-12T20:53:00Z,2025-09-12 16:53:00,VFR,30.6,24.4,VAR,4,0,NA,1012.6,METAR KMTH 122053Z AUTO VRB04KT 10SM FEW021 31/24 A2990 RMK AO2 SLP126 60000 T03060244 56015,2025-09-12T21:45:21Z,2025-09-12T17:45:21Z,The Florida Keys Marathon Airport,24.726101,-81.051399,US,US-FL
KMTH,"Marathon Arpt, FL, US",2025-09-12T21:53:00Z,2025-09-12 17:53:00,VFR,30,24.4,VAR,3,0,NA,1013,METAR KMTH 122153Z AUTO VRB03KT 10SM FEW019 30/24 A2991 RMK AO2 SLP126 T03000244,2025-09-12T21:56:01Z,2025-09-12T17:56:01Z,The Florida Keys Marathon Airport,24.726101,-81.051399,US,US-FL
KMTJ,"Montrose Rgnl, CO, US",2025-09-12T20:53:00Z,2025-09-12 14:53:00,VFR,20.6,10.6,150,13,0,NA,1021.1,METAR KMTJ 122053Z AUTO 15013KT 10SM FEW060 SCT080 OVC100 21/11 A3015 RMK AO2 SLP141 60002 T02060106 58025,2025-09-12T21:45:21Z,2025-09-12T17:45:21Z,Montrose Regional Airport,38.5098,-107.893997,US,US-CO
KMTJ,"Montrose Rgnl, CO, US",2025-09-12T21:53:00Z,2025-09-12 15:53:00,VFR,22.2,9.4,120,11,0,NA,1020.1,METAR KMTJ 122153Z AUTO 12011KT 10SM FEW110 22/09 A3012 RMK AO2 LTG DSNT W SLP124 T02220094,2025-09-12T21:56:01Z,2025-09-12T17:56:01Z,Montrose Regional Airport,38.5098,-107.893997,US,US-CO
KMTN,"Baltimore/Martin State Arpt, MD, US",2025-09-12T20:46:00Z,2025-09-12 16:46:00,VFR,27,12,200,3,0,NA,1022.1,METAR KMTN 122046Z 20003KT 10SM CLR 27/12 A3018,2025-09-12T21:45:21Z,2025-09-12T17:45:21Z,Martin State Airport,39.325699,-76.413803,US,US-MD
KMTN,"Baltimore/Martin State Arpt, MD, US",2025-09-12T21:51:00Z,2025-09-12 17:51:00,VFR,26,12,0,0,0,NA,1022.1,METAR KMTN 122151Z 00000KT 10SM CLR 26/12 A3018,2025-09-12T21:56:02Z,2025-09-12T17:56:02Z,Martin State Airport,39.325699,-76.413803,US,US-MD
KMTO,"Mattoon/Coles Cnty, IL, US",2025-09-12T20:53:00Z,2025-09-12 15:53:00,VFR,30.6,12.8,120,5,0,NA,1019.7,METAR KMTO 122053Z AUTO 12005KT 10SM CLR 31/13 A3011 RMK AO2 SLP189 T03060128 58022,2025-09-12T21:45:21Z,2025-09-12T17:45:21Z,Coles County Memorial Airport,39.477901,-88.279198,US,US-IL
KMTO,"Mattoon/Coles Cnty, IL, US",2025-09-12T21:53:00Z,2025-09-12 16:53:00,VFR,29.4,13.9,140,7,0,NA,1019.4,METAR KMTO 122153Z AUTO 14007KT 10SM CLR 29/14 A3010 RMK AO2 SLP187 T02940139,2025-09-12T21:56:01Z,2025-09-12T17:56:01Z,Coles County Memorial Airport,39.477901,-88.279198,US,US-IL
KMTP,"Montauk Arpt, NY, US",2025-09-12T20:54:00Z,2025-09-12 16:54:00,NA,22.2,13.3,VAR,6,0,NA,1022.8,METAR KMTP 122054Z AUTO VRB06KT 22/13 A3020 RMK AO1 SLP226 T02220133 56001,2025-09-12T21:45:21Z,2025-09-12T17:45:21Z,Montauk Airport,41.0765,-71.920797,US,US-NY
KMTV,"Martinsville/Blue Ridge Arpt, VA, US",2025-09-12T21:35:00Z,2025-09-12 21:35:00,VFR,27.3,9.1,10,7,0,NA,1021.8,METAR KMTV 122135Z AUTO 01007KT 10SM CLR 27/09 A3017 RMK AO2 T02730091,2025-09-12T21:45:21Z,2025-09-12T17:45:21Z,Blue Ridge Airport,36.630699,-80.018303,US,US-VA
KMTV,"Martinsville/Blue Ridge Arpt, VA, US",2025-09-12T21:55:00Z,2025-09-12 21:55:00,VFR,26.6,9.4,20,5,0,NA,1021.8,METAR KMTV 122155Z AUTO 02005KT 10SM CLR 27/09 A3017 RMK AO2 T02660094,2025-09-12T21:56:01Z,2025-09-12T17:56:01Z,Blue Ridge Airport,36.630699,-80.018303,US,US-VA
KMTW,"Manitowoc Muni, WI, US",2025-09-12T20:56:00Z,2025-09-12 15:56:00,VFR,18.9,16.1,130,8,0,NA,1021.1,METAR KMTW 122056Z AUTO 13008KT 10SM CLR 19/16 A3015 RMK AO2 SLP211 T01890161 56021,2025-09-12T21:45:21Z,2025-09-12T17:45:21Z,Manitowoc County Airport,44.127116,-87.681983,US,US-WI
KMUI,"Fort Indiantown Gap/Muir AAF, PA, US",2025-09-12T20:55:00Z,2025-09-12 16:55:00,VFR,27.1,10.7,60,5,0,NA,1020.7,METAR KMUI 122055Z 06005KT 10SM FEW050 SCT080 27/11 A3014 RMK AO2A SLP207 T02710107 57012,2025-09-12T21:45:21Z,2025-09-12T17:45:21Z,Muir Army Air Field (Fort Indiantown Gap) Airport,40.435214,-76.568661,US,US-PA
KMUO,"Mountain Home AFB, ID, US",2025-09-12T20:55:00Z,2025-09-12 14:55:00,VFR,25.9,6.5,300,8,19,8,1015,METAR KMUO 122055Z 30008G19KT 8SM FEW080 26/07 A2997 RMK AO2A SLP130 T02590065 57022 $,2025-09-12T21:45:21Z,2025-09-12T17:45:21Z,Mountain Home Air Force Base,43.043598,-115.872002,US,US-ID
KMUT,"Muscatine Muni, IA, US",2025-09-12T21:35:00Z,2025-09-12 16:35:00,VFR,32,16,170,9,15,NA,1017.4,METAR KMUT 122135Z AUTO 17009G15KT 140V200 10SM CLR 32/16 A3004 RMK AO2,2025-09-12T21:45:21Z,2025-09-12T17:45:21Z,Muscatine Municipal Airport,41.367803,-91.148201,US,US-IA
KMVE,"Montevideo/Chippewa Cnty, MN, US",2025-09-12T21:35:00Z,2025-09-12 16:35:00,VFR,26,18,100,17,20,NA,1014.3,METAR KMVE 122135Z AUTO 10017G20KT 10SM CLR 26/18 A2995 RMK AO2,2025-09-12T21:45:21Z,2025-09-12T17:45:21Z,Montevideo Chippewa County Airport,44.969101,-95.710297,US,US-MN
KMVL,"Morrisville-Stowe State Arpt, VT, US",2025-09-12T20:54:00Z,2025-09-12 16:54:00,VFR,21.7,7.2,360,5,0,NA,1022.8,METAR KMVL 122054Z AUTO 36005KT 10SM CLR 22/07 A3020 RMK AO2 SLP230 T02170072 56014,2025-09-12T21:45:21Z,2025-09-12T17:45:21Z,Morrisville-Stowe State Airport,44.534599,-72.613998,US,US-VT
KMVN,"Mount Vernon Arpt, IL, US",2025-09-12T20:56:00Z,2025-09-12 20:56:00,VFR,32.8,14.4,130,4,0,NA,1019.4,METAR KMVN 122056Z AUTO 13004KT 10SM FEW080 33/14 A3010 RMK AO2 SLP191 6//// T03280144 56019 PNO $,2025-09-12T21:45:21Z,2025-09-12T17:45:21Z,Mount Vernon Outland Airport,38.322774,-88.859257,US,US-IL
KMVY,"Marthas Vineyard Arpt, MA, US",2025-09-12T20:53:00Z,2025-09-12 16:53:00,VFR,20,10.6,80,7,0,NA,1022.4,METAR KMVY 122053Z 08007KT 10SM CLR 20/11 A3019 RMK AO2 SLP224 T02000106 56003,2025-09-12T21:45:21Z,2025-09-12T17:45:21Z,Martha's Vineyard Airport,41.3931007385,-70.6143035889,US,US-MA
KMVY,"Marthas Vineyard Arpt, MA, US",2025-09-12T21:53:00Z,2025-09-12 17:53:00,VFR,18.3,11.1,80,8,0,NA,1022.8,METAR KMVY 122153Z 08008KT 10SM CLR 18/11 A3020 RMK AO2 SLP225 T01830111,2025-09-12T21:56:01Z,2025-09-12T17:56:01Z,Martha's Vineyard Airport,41.3931007385,-70.6143035889,US,US-MA
KMWA,"Marion Rgnl, IL, US",2025-09-12T20:45:00Z,2025-09-12 15:45:00,VFR,33,16,70,5,0,NA,1019,METAR KMWA 122045Z 07005KT 10SM SCT075 33/16 A3009,2025-09-12T21:45:21Z,2025-09-12T17:45:21Z,Veterans Airport of Southern Illinois,37.751208,-89.016568,US,US-IL
KMWC,"Milwaukee/Timmerman Arpt, WI, US",2025-09-12T20:45:00Z,2025-09-12 15:45:00,VFR,23,17,120,9,0,NA,1021.4,METAR KMWC 122045Z 12009KT 10SM CLR 23/17 A3016,2025-09-12T21:45:21Z,2025-09-12T17:45:21Z,Lawrence J Timmerman Airport,43.110401,-88.034401,US,US-WI
KMWC,"Milwaukee/Timmerman Arpt, WI, US",2025-09-12T21:45:00Z,2025-09-12 16:45:00,VFR,23,16,120,7,0,NA,1021.1,METAR KMWC 122145Z 12007KT 10SM CLR 23/16 A3015,2025-09-12T21:56:02Z,2025-09-12T17:56:02Z,Lawrence J Timmerman Airport,43.110401,-88.034401,US,US-WI
KMWH,"Moses Lake/Grant Cnty, WA, US",2025-09-12T20:52:00Z,2025-09-12 13:52:00,VFR,25,13.3,VAR,3,0,NA,1014.6,METAR KMWH 122052Z VRB03KT 10SM CLR 25/13 A2996 RMK AO2 SLP139 T02500133 58011,2025-09-12T21:45:21Z,2025-09-12T17:45:21Z,Grant County International Airport,47.20769882,-119.3199997,US,US-WA
KMWH,"Moses Lake/Grant Cnty, WA, US",2025-09-12T21:52:00Z,2025-09-12 14:52:00,VFR,26.1,13.3,180,8,0,NA,1014,METAR KMWH 122152Z 18008KT 10SM CLR 26/13 A2994 RMK AO2 SLP133 T02610133,2025-09-12T21:56:02Z,2025-09-12T17:56:02Z,Grant County International Airport,47.20769882,-119.3199997,US,US-WA
KMWK,"Mt Airy/Surry Cnty, NC, US",2025-09-12T21:35:00Z,2025-09-12 21:35:00,VFR,25.5,13.4,70,5,0,NA,1021.8,METAR KMWK 122135Z AUTO 07005KT 10SM BKN070 BKN085 26/13 A3017 RMK AO2 T02550134,2025-09-12T21:45:21Z,2025-09-12T17:45:21Z,Mount Airy Surry County Airport,36.45970154,-80.5530014,US,US-NC
KMWK,"Mt Airy/Surry Cnty, NC, US",2025-09-12T21:45:00Z,2025-09-12 21:45:00,VFR,25.5,13.3,50,4,0,NA,1021.8,METAR KMWK 122145Z AUTO 05004KT 10SM BKN070 OVC085 26/13 A3017 RMK AO2 T02550133,2025-09-12T21:56:02Z,2025-09-12T17:56:02Z,Mount Airy Surry County Airport,36.45970154,-80.5530014,US,US-NC
KMWL,"Mineral Wells Arpt, TX, US",2025-09-12T20:53:00Z,2025-09-12 15:53:00,VFR,36.1,16.1,170,10,17,NA,1017.7,METAR KMWL 122053Z AUTO 17010G17KT 10SM CLR 36/16 A3005 RMK AO2 SLP159 T03610161 56022,2025-09-12T21:45:21Z,2025-09-12T17:45:21Z,Mineral Wells Regional Airport,32.781601,-98.060204,US,US-TX
KMWL,"Mineral Wells Arpt, TX, US",2025-09-12T21:53:00Z,2025-09-12 16:53:00,VFR,35,16.1,140,10,0,NA,1017,METAR KMWL 122153Z AUTO 14010KT 10SM CLR 35/16 A3003 RMK AO2 SLP153 T03500161,2025-09-12T21:56:01Z,2025-09-12T17:56:01Z,Mineral Wells Regional Airport,32.781601,-98.060204,US,US-TX
KMWM,"Windom Muni, MN, US",2025-09-12T21:35:00Z,2025-09-12 21:35:00,VFR,28,18,120,9,0,NA,1013.6,METAR KMWM 122135Z AUTO 12009KT 10SM CLR 28/18 A2993 RMK AO2,2025-09-12T21:45:21Z,2025-09-12T17:45:21Z,Windom Municipal Airport,43.913399,-95.109398,US,US-MN
KMWN,"Mount Washington(OBS), NH, US",2025-09-12T20:56:00Z,2025-09-12 20:56:00,VFR,8,1,250,4,0,NA,NA,METAR KMWN 122056Z 25004KT 110SM FEW005 FEW015 SCT180 SCT200 08/01 RMK,2025-09-12T21:45:21Z,2025-09-12T17:45:21Z,Mount Washington Observatory,44.270278,-71.303333,US,US-NH
KMWO,"Middletown/Hook Fld, OH, US",2025-09-12T21:35:00Z,2025-09-12 17:35:00,VFR,30,9,40,7,0,NA,1021.1,METAR KMWO 122135Z AUTO 04007KT 10SM CLR 30/09 A3015 RMK AO2,2025-09-12T21:45:21Z,2025-09-12T17:45:21Z,Middletown Regional Airport,39.530998,-84.395302,US,US-OH
KMXF,"Maxwell AFB, AL, US",2025-09-12T20:55:00Z,2025-09-12 15:55:00,VFR,34.3,12.6,340,8,0,NA,1016,METAR KMXF 122055Z AUTO 34008KT 10SM CLR 34/13 A3000 RMK AO2 SLP160 T03430126 57019,2025-09-12T21:45:21Z,2025-09-12T17:45:21Z,Maxwell Air Force Base,32.3829,-86.365799,US,US-AL
KMXO,"Monticello Rgnl, IA, US",2025-09-12T21:35:00Z,2025-09-12 21:35:00,VFR,30,18,170,9,0,NA,1017.4,METAR KMXO 122135Z AUTO 17009KT 10SM CLR 30/18 A3004 RMK AO2,2025-09-12T21:45:21Z,2025-09-12T17:45:21Z,Monticello Regional Airport,42.220402,-91.1633,US,US-IA
KMYF,"San Diego/Montgomery Arpt, CA, US",2025-09-12T20:53:00Z,2025-09-12 13:53:00,VFR,22.8,15,230,7,0,NA,1013.3,METAR KMYF 122053Z 23007KT 200V260 10SM FEW027 23/15 A2992 RMK AO2 SLP128 T02280150 56020,2025-09-12T21:45:21Z,2025-09-12T17:45:21Z,Montgomery-Gibbs Executive Airport,32.8157,-117.139999,US,US-CA
KMYF,"San Diego/Montgomery Arpt, CA, US",2025-09-12T21:53:00Z,2025-09-12 14:53:00,VFR,22.2,15,220,7,0,NA,1013,METAR KMYF 122153Z 22007KT 10SM CLR 22/15 A2991 RMK AO2 SLP124 T02220150,2025-09-12T21:56:01Z,2025-09-12T17:56:01Z,Montgomery-Gibbs Executive Airport,32.8157,-117.139999,US,US-CA
KMYJ,"Mexico Mem, MO, US",2025-09-12T21:35:00Z,2025-09-12 21:35:00,VFR,32,17,0,0,0,NA,1017.7,METAR KMYJ 122135Z AUTO 00000KT 10SM CLR 32/17 A3005 RMK AO2,2025-09-12T21:45:21Z,2025-09-12T17:45:21Z,Mexico Memorial Airport,39.157501,-91.818298,US,US-MO
KMYL,"McCall Muni, ID, US",2025-09-12T20:51:00Z,2025-09-12 14:51:00,VFR,17.2,7.2,160,4,0,NA,1019,METAR KMYL 122051Z AUTO 16004KT 10SM CLR 17/07 A3009 RMK AO2 SLP164 T01720072 56012,2025-09-12T21:45:21Z,2025-09-12T17:45:21Z,McCall Municipal Airport,44.888837,-116.101112,US,US-ID
KMYL,"McCall Muni, ID, US",2025-09-12T21:51:00Z,2025-09-12 15:51:00,MVFR,13.9,7.8,140,8,0,4,1019,METAR KMYL 122151Z AUTO 14008KT 4SM RA BKN050 OVC065 14/08 A3009 RMK AO2 RAB17 SLP174 P0007 T01390078,2025-09-12T21:56:02Z,2025-09-12T17:56:02Z,McCall Municipal Airport,44.888837,-116.101112,US,US-ID
KMYR,"Myrtle Beach Intl, SC, US",2025-09-12T20:53:00Z,2025-09-12 16:53:00,VFR,27.8,16.7,360,12,0,NA,1018.4,METAR KMYR 122053Z 36012KT 10SM BKN060 28/17 A3007 RMK AO2 SLP181 T02780167 56010 $,2025-09-12T21:45:21Z,2025-09-12T17:45:21Z,Myrtle Beach International Airport,33.679699,-78.928299,US,US-SC
KMYR,"Myrtle Beach Intl, SC, US",2025-09-12T21:53:00Z,2025-09-12 17:53:00,VFR,27.2,16.7,40,11,16,NA,1018.4,METAR KMYR 122153Z 04011G16KT 10SM OVC060 27/17 A3007 RMK AO2 SLP183 T02720167 $,2025-09-12T21:56:02Z,2025-09-12T17:56:02Z,Myrtle Beach International Airport,33.679699,-78.928299,US,US-SC
KMYV,"Marysville/Yuba Cnty, CA, US",2025-09-12T20:53:00Z,2025-09-12 13:53:00,VFR,28.9,14.4,240,5,0,NA,1012.3,METAR KMYV 122053Z AUTO 24005KT 10SM CLR 29/14 A2989 RMK AO2 SLP123 T02890144 58020,2025-09-12T21:45:21Z,2025-09-12T17:45:21Z,Yuba County Airport,39.09780121,-121.5699997,US,US-CA
KMYV,"Marysville/Yuba Cnty, CA, US",2025-09-12T21:53:00Z,2025-09-12 14:53:00,VFR,29.4,13.9,VAR,4,0,NA,1011.6,METAR KMYV 122153Z AUTO VRB04KT 10SM CLR 29/14 A2987 RMK AO2 SLP117 T02940139,2025-09-12T21:56:01Z,2025-09-12T17:56:01Z,Yuba County Airport,39.09780121,-121.5699997,US,US-CA
KMYZ,"Marysville Muni, KS, US",2025-09-12T21:35:00Z,2025-09-12 21:35:00,VFR,32,16,180,9,16,NA,1014,METAR KMYZ 122135Z AUTO 18009G16KT 10SM CLR 32/16 A2994 RMK AO2,2025-09-12T21:45:21Z,2025-09-12T17:45:21Z,Marysville Municipal Airport,39.856417,-96.630688,US,US-KS
KMZH,"Moose Lake/Carlton C, MN, US",2025-09-12T21:35:00Z,2025-09-12 21:35:00,LIFR,15,14,0,0,0,7,1017,METAR KMZH 122135Z AUTO 00000KT 7SM OVC003 15/14 A3003 RMK AO2 LTG DSNT S,2025-09-12T21:45:21Z,2025-09-12T17:45:21Z,Moose Lake Carlton County Airport,46.418800354003906,-92.80470275878906,US,US-MN
KMZJ,"Marana/Pinal Aprk, AZ, US",2025-09-12T21:35:00Z,2025-09-12 14:35:00,VFR,38,12,220,15,21,NA,1010.2,METAR KMZJ 122135Z AUTO 22015G21KT 10SM FEW120 38/12 A2983 RMK AO2,2025-09-12T21:45:21Z,2025-09-12T17:45:21Z,Pinal Airpark,32.5106010437,-111.32800293,US,US-AZ
KMZZ,"Marion Muni, IN, US",2025-09-12T21:35:00Z,2025-09-12 17:35:00,VFR,27.5,7,150,3,0,7,1021.4,METAR KMZZ 122135Z AUTO 15003KT 7SM CLR 28/07 A3016 RMK AO2 T02750070,2025-09-12T21:45:21Z,2025-09-12T17:45:21Z,Marion Municipal Airport,40.4898986816,-85.6797027588,US,US-IN
KN03,"Cortland/Cortland Cnty, NY, US",2025-09-12T21:35:00Z,2025-09-12 17:35:00,VFR,22,10,30,3,0,NA,1022.4,METAR KN03 122135Z AUTO 03003KT 10SM CLR 22/10 A3019 RMK AO2,2025-09-12T21:45:21Z,2025-09-12T17:45:21Z,Cortland County Chase Field,42.59260178,-76.21489716,US,US-NY
KN79,"Shamokin/Northumberland Cnty, PA, US",2025-09-12T21:35:00Z,2025-09-12 21:35:00,VFR,26.1,10.6,220,5,0,8,1021.1,METAR KN79 122135Z AUTO 22005KT 8SM FEW060 26/11 A3015 RMK AO2 T02610106,2025-09-12T21:45:23Z,2025-09-12T17:45:23Z,Northumberland County Airport,40.836899,-76.552498,US,US-PA
KNBC,"Beaufort(MCAS), SC, US",2025-09-12T20:56:00Z,2025-09-12 20:56:00,VFR,28.9,16.1,60,9,0,7,1017.4,METAR KNBC 122056Z 06009KT 7SM FEW030 SCT200 29/16 A3004 RMK AO2 SLP174 T02890161 56012,2025-09-12T21:45:23Z,2025-09-12T17:45:23Z,Beaufort MCAS - Merritt Field,32.4774017334,-80.723197937,US,US-SC
KNBG,"New Orleans (NAS), LA, US",2025-09-12T20:55:00Z,2025-09-12 15:55:00,VFR,32.8,18.9,VAR,4,0,NA,1017,METAR KNBG 122055Z VRB04KT 10SM FEW045 FEW065 33/19 A3003 RMK AO2 SLP169 T03280189 57018 $,2025-09-12T21:45:23Z,2025-09-12T17:45:23Z,New Orleans NAS JRB/Alvin Callender Field,29.82530022,-90.03500366,US,US-LA
KNCA,"New River MCAS, NC, US",2025-09-12T20:56:00Z,2025-09-12 20:56:00,VFR,25.6,15.6,30,11,0,NA,1018.7,METAR KNCA 122056Z 03011KT 10SM SCT040 BKN055 26/16 A3008 RMK AO2 SLP188 T02560156 56008,2025-09-12T21:45:23Z,2025-09-12T17:45:23Z,MCAS New River / McCutcheon Field,34.708401,-77.439697,US,US-NC
KNDZ,"Milton/Whiting-S(NAS, FL, US",2025-09-12T20:56:00Z,2025-09-12 20:56:00,VFR,33.9,15,30,7,0,NA,1016.3,METAR KNDZ 122056Z 03007KT 10SM SCT048 SCT110 34/15 A3001 RMK AO2 SLP147 T03390150 56019 $,2025-09-12T21:45:23Z,2025-09-12T17:45:23Z,Whiting Field Naval Air Station South Airport,30.704399,-87.023003,US,US-FL
KNEL,"Lakehurst(NAS), NJ, US",2025-09-12T21:00:00Z,2025-09-12 17:00:00,NA,24.4,11.1,90,9,0,NA,1021.1,METAR KNEL 122100Z AUTO 09009KT CLR 24/11 A3015 RMK AO2 SLP209 6//// T02440111 58009 PNO $,2025-09-12T21:45:23Z,2025-09-12T17:45:23Z,Lakehurst Maxfield Field Airport,40.03329849,-74.353302,US,US-NJ
KNEW,"New Orleans/Lakefront Arpt, LA, US",2025-09-12T20:53:00Z,2025-09-12 15:53:00,VFR,32.8,20.6,310,5,0,NA,1017.4,METAR KNEW 122053Z 31005KT 10SM CLR 33/21 A3004 RMK AO1 SLP166 T03280206 56019,2025-09-12T21:45:23Z,2025-09-12T17:45:23Z,Lakefront Airport,30.042400360107,-90.028297424316,US,US-LA
KNEW,"New Orleans/Lakefront Arpt, LA, US",2025-09-12T21:53:00Z,2025-09-12 16:53:00,VFR,32.8,20,300,5,0,NA,1017,METAR KNEW 122153Z 30005KT 10SM CLR 33/20 A3003 RMK AO1 SLP162 T03280200,2025-09-12T21:56:04Z,2025-09-12T17:56:04Z,Lakefront Airport,30.042400360107,-90.028297424316,US,US-LA
KNFE,"Fentress(NALF), VA, US",2025-09-12T20:58:00Z,2025-09-12 20:58:00,VFR,23.9,14.4,60,6,0,NA,1020.7,METAR KNFE 122058Z AUTO 06006KT 10SM FEW039 24/14 A3014 RMK AO2 SLP208 T02390144 57005,2025-09-12T21:45:23Z,2025-09-12T17:45:23Z,Fentress Naval Auxiliary Landing Field,36.691641,-76.134996,US,US-VA
KNFG,"Camp Pendleton(MCB), CA, US",2025-09-12T20:52:00Z,2025-09-12 20:52:00,VFR,24.4,16.1,250,10,15,NA,1013,METAR KNFG 122052Z 25010G15KT 10SM SCT040 24/16 A2991 RMK AO2 SLP126 T02440161 56021 $,2025-09-12T21:45:24Z,2025-09-12T17:45:24Z,Camp Pendleton MCAS (Munn Field) Airport,33.30130005,-117.3550034,US,US-CA
KNFG,"Camp Pendleton(MCB), CA, US",2025-09-12T21:52:00Z,2025-09-12 21:52:00,VFR,23.9,16.1,250,10,0,NA,1012.6,METAR KNFG 122152Z 25010KT 10SM FEW040 24/16 A2990 RMK AO2 SLP123 T02390161 $,2025-09-12T21:56:04Z,2025-09-12T17:56:04Z,Camp Pendleton MCAS (Munn Field) Airport,33.30130005,-117.3550034,US,US-CA
KNFL,"Fallon (NAS), NV, US",2025-09-12T20:57:00Z,2025-09-12 13:57:00,VFR,23.9,6.7,20,7,0,NA,1016.7,METAR KNFL 122057Z 02007KT 10SM SCT060 SCT120 SCT250 24/07 A3002 RMK AO2 SLP135 T02390067 58017,2025-09-12T21:45:23Z,2025-09-12T17:45:23Z,Fallon Naval Air Station,39.41659927,-118.7009964,US,US-NV
KNFW,"Fort Worth/Carswell NAS, TX, US",2025-09-12T20:52:00Z,2025-09-12 15:52:00,VFR,34.4,16.1,210,6,16,NA,1017.7,METAR KNFW 122052Z 21006G16KT 10SM FEW060 34/16 A3005 RMK AO2 SLP159 T03440161 56022 $,2025-09-12T21:45:24Z,2025-09-12T17:45:24Z,NAS Fort Worth JRB / Carswell Field,32.769199,-97.441498,US,US-TX
KNFW,"Fort Worth/Carswell NAS, TX, US",2025-09-12T21:52:00Z,2025-09-12 16:52:00,VFR,35,16.7,150,6,0,NA,1017.4,METAR KNFW 122152Z 15006KT 10SM FEW060 SCT250 35/17 A3004 RMK AO2 SLP155 T03500167 $,2025-09-12T21:56:04Z,2025-09-12T17:56:04Z,NAS Fort Worth JRB / Carswell Field,32.769199,-97.441498,US,US-TX
KNGP,"Corpus Christi/Truax Fld NAS, TX, US",2025-09-12T20:56:00Z,2025-09-12 20:56:00,VFR,29.4,24.4,100,12,0,NA,1016.3,METAR KNGP 122056Z 10012KT 10SM SCT027 SCT160 BKN250 29/24 A3001 RMK AO2 RAE10 SLP162 TCU DSNT SE T2 SET P0000 60038 T02940244 56020,2025-09-12T21:45:23Z,2025-09-12T17:45:23Z,Naval Air Station Corpus Christi Truax Field,27.6926,-97.2911,US,US-TX
KNGU,"Norfolk NAS, VA, US",2025-09-12T20:59:00Z,2025-09-12 16:59:00,VFR,23.9,14.4,80,10,0,NA,1021.4,METAR KNGU 122059Z 08010KT 10SM FEW025 FEW060 SCT260 24/14 A3016 RMK AO2 SLP212 T02390144 55006,2025-09-12T21:45:23Z,2025-09-12T17:45:23Z,Norfolk Naval Station (Chambers Field),36.937599,-76.289299,US,US-VA
KNHK,"Patuxent River NAS, MD, US",2025-09-12T20:52:00Z,2025-09-12 16:52:00,VFR,25.6,13.3,80,3,0,NA,1021.4,METAR KNHK 122052Z 08003KT 10SM FEW040 26/13 A3016 RMK AO2 SLP212 T02560133 56008 $,2025-09-12T21:45:24Z,2025-09-12T17:45:24Z,Patuxent River Naval Air Station (Trapnell Field),38.285999,-76.411797000000007,US,US-MD
KNHK,"Patuxent River NAS, MD, US",2025-09-12T21:52:00Z,2025-09-12 17:52:00,VFR,24.4,13.9,110,3,0,NA,1021.4,METAR KNHK 122152Z 11003KT 10SM FEW070 24/14 A3016 RMK AO2 SLP212 T02440139 $,2025-09-12T21:56:04Z,2025-09-12T17:56:04Z,Patuxent River Naval Air Station (Trapnell Field),38.285999,-76.411797000000007,US,US-MD
KNID,"China Lake (NAF), CA, US",2025-09-12T20:56:00Z,2025-09-12 20:56:00,VFR,30,3.9,VAR,NA,0,NA,1013.3,METAR KNID 122056Z AUTO 10SM CLR 30/04 A2992 RMK AO2 SLP115 T03000039 58020 $,2025-09-12T21:45:23Z,2025-09-12T17:45:23Z,China Lake Naws (Armitage Field) Airport,35.6853981,-117.6920013,US,US-CA
KNIP,"Jacksonville (NAS), FL, US",2025-09-12T20:53:00Z,2025-09-12 16:53:00,VFR,27.2,20,50,14,0,NA,1017,METAR KNIP 122053Z 05014KT 10SM SCT030 BKN250 27/20 A3003 RMK AO2 SLP164 T02720200 55009,2025-09-12T21:45:23Z,2025-09-12T17:45:23Z,Jacksonville Naval Air Station (Towers Field),30.2358,-81.680603,US,US-FL
KNIP,"Jacksonville (NAS), FL, US",2025-09-12T21:53:00Z,2025-09-12 17:53:00,VFR,26.1,20,40,13,0,NA,1017,METAR KNIP 122153Z 04013KT 10SM SCT030 BKN250 26/20 A3003 RMK AO2 SLP164 T02610200,2025-09-12T21:56:04Z,2025-09-12T17:56:04Z,Jacksonville Naval Air Station (Towers Field),30.2358,-81.680603,US,US-FL
KNJK,"El Centro(NAF), CA, US",2025-09-12T20:56:00Z,2025-09-12 13:56:00,VFR,35,1.7,280,7,0,NA,1008.2,METAR KNJK 122056Z 28007KT 10SM CLR 35/02 A2977 RMK AO2 SLP096 T03500017 58025 $,2025-09-12T21:45:23Z,2025-09-12T17:45:23Z,El Centro NAF Airport (Vraciu Field),32.829201,-115.671996,US,US-CA
KNJM,"Swansboro/Bogue Fld, NC, US",2025-09-12T20:51:00Z,2025-09-12 20:51:00,VFR,25.6,15,50,11,18,8,1018.7,METAR KNJM 122051Z AUTO 05011G18KT 8SM FEW075 26/15 A3008 RMK AO2 SLP190 T02560150 56008,2025-09-12T21:45:24Z,2025-09-12T17:45:24Z,Marine Corps Auxiliary Landing Field Bogue,34.690399,-77.029701,US,US-NC
KNJM,"Swansboro/Bogue Fld, NC, US",2025-09-12T21:51:00Z,2025-09-12 21:51:00,VFR,25,15,40,10,19,8,1019,METAR KNJM 122151Z AUTO 04010G19KT 8SM BKN080 25/15 A3009 RMK AO2 SLP194 T02500150,2025-09-12T21:56:04Z,2025-09-12T17:56:04Z,Marine Corps Auxiliary Landing Field Bogue,34.690399,-77.029701,US,US-NC
KNJW,"Meridian Range B, MS, US",2025-09-12T20:57:00Z,2025-09-12 20:57:00,VFR,33.3,13.9,360,8,0,NA,1018.7,METAR KNJW 122057Z AUTO 36008KT 330V040 10SM CLR 33/14 A3008 RMK AO2 SLP098 T03330139 56019,2025-09-12T21:45:23Z,2025-09-12T17:45:23Z,Joe Williams Naval Outlying Field,32.798529,-88.834333,US,US-MS
KNKT,"Cherry Point MCAS, NC, US",2025-09-12T20:55:00Z,2025-09-12 20:55:00,VFR,26.1,13.9,50,13,22,NA,1019,METAR KNKT 122055Z 05013G22KT 10SM CLR 26/14 A3009 RMK AO2 SLP187 T02610139 56008 $,2025-09-12T21:45:23Z,2025-09-12T17:45:23Z,Cherry Point MCAS / Cunningham Field/,34.900902,-76.880699,US,US-NC
KNKX,"Miramar (MCAS), CA, US",2025-09-12T21:14:00Z,2025-09-12 14:14:00,VFR,23.9,15,230,9,15,NA,1013.3,SPECI KNKX 122114Z 23009G15KT 10SM FEW027 24/15 A2992 RMK AO2 T02390150,2025-09-12T21:45:23Z,2025-09-12T17:45:23Z,Miramar Marine Corps Air Station - Mitscher Field,32.86840057,-117.1429977,US,US-CA
KNLC,"Lemoore (NAS), CA, US",2025-09-12T20:56:00Z,2025-09-12 13:56:00,VFR,28.3,11.7,360,6,0,NA,1013,METAR KNLC 122056Z 36006KT 10SM FEW034 BKN140 BKN220 28/12 A2991 RMK AO2 SLP125 FU BKN140 RH/34 T02830117 58022,2025-09-12T21:45:23Z,2025-09-12T17:45:23Z,Lemoore Naval Air Station (Reeves Field) Airport,36.33300018,-119.9520035,US,US-CA
KNMM,"Meridian/MCCain(NAS), MS, US",2025-09-12T20:56:00Z,2025-09-12 20:56:00,VFR,35,13.9,30,9,0,NA,1017.4,METAR KNMM 122056Z 03009KT 10SM SCT065 35/14 A3004 RMK AO2 SLP179 T03500139 56020,2025-09-12T21:45:23Z,2025-09-12T17:45:23Z,Naval Air Station Meridian / McCain Field,32.5531,-88.55406,US,US-MS
KNOG,"Orange Grove(NAS), TX, US",2025-09-12T20:56:00Z,2025-09-12 20:56:00,VFR,31.7,21.7,80,11,0,NA,1017,METAR KNOG 122056Z AUTO 08011KT 10SM -RA BKN110 32/22 A3003 RMK AO2 PK WND 07031/2000 RAB09 SLP147 P0000 60000 T03170217 56020 $,2025-09-12T21:45:23Z,2025-09-12T17:45:23Z,Orange Grove Naval Auxiliary Landing Field,27.9011,-98.051697,US,US-TX
KNOW,"Port Angeles(CGAS), WA, US",2025-09-12T21:35:00Z,2025-09-12 21:35:00,LIFR,NA,NA,290,5,0,NA,1017.7,METAR KNOW 122135Z AUTO 29005KT 10SM BKN004 OVC034 A3005 RMK AO2,2025-09-12T21:45:23Z,2025-09-12T17:45:23Z,Port Angeles Cgas Airport,48.141499,-123.414001,US,US-WA
KNPA,"Pensacola (NAS), FL, US",2025-09-12T20:56:00Z,2025-09-12 15:56:00,VFR,31.1,19.4,210,9,0,NA,1016.3,METAR KNPA 122056Z 21009KT 10SM SCT065 BKN085 BKN110 31/19 A3001 RMK AO2 SLP164 T03110194 56016,2025-09-12T21:45:23Z,2025-09-12T17:45:23Z,Naval Air Station Pensacola Forrest Sherman Field,30.352699,-87.318604,US,US-FL
KNQA,"Millington Rgnl, TN, US",2025-09-12T20:50:00Z,2025-09-12 15:50:00,VFR,31,19,30,6,0,NA,1017.7,METAR KNQA 122050Z 03006KT 10SM BKN100 31/19 A3005,2025-09-12T21:45:24Z,2025-09-12T17:45:24Z,Millington-Memphis Airport,35.356701,-89.8703,US,US-TN
KNQA,"Millington Rgnl, TN, US",2025-09-12T21:50:00Z,2025-09-12 16:50:00,VFR,30,19,340,6,0,NA,1017.4,METAR KNQA 122150Z 34006KT 10SM CLR 30/19 A3004,2025-09-12T21:56:04Z,2025-09-12T17:56:04Z,Millington-Memphis Airport,35.356701,-89.8703,US,US-TN
KNQI,"Kingsville(NAS), TX, US",2025-09-12T20:56:00Z,2025-09-12 15:56:00,VFR,25.6,23.3,250,3,0,9,1016.7,METAR KNQI 122056Z COR 25003KT 9SM -RA SCT031 BKN080 BKN120 BKN250 26/23 A3002 RMK AO2 RAB1958 SLP162 CB DSNT SW AND NW TCU DSNT W T2 SET 60052 P0052 T02560233 56020 $,2025-09-12T21:45:23Z,2025-09-12T17:45:23Z,Kingsville Naval Air Station,27.5072002411,-97.8097000122,US,US-TX
KNQX,"Key West (NAS), FL, US",2025-09-12T20:53:00Z,2025-09-12 16:53:00,VFR,30,23.3,350,6,0,NA,1013.3,METAR KNQX 122053Z 35006KT 10SM FEW022 BKN160 BKN250 30/23 A2992 RMK AO2 SLP130 CB DSNT W T2 SET T03000233 $,2025-09-12T21:45:23Z,2025-09-12T17:45:23Z,Naval Air Station Key West/Boca Chica Field,24.57579994,-81.68890381,US,US-FL
KNRA,"Coupeville, Out, WA, US",2025-09-12T21:18:00Z,2025-09-12 21:18:00,VFR,20.6,13.3,240,7,0,NA,1017.7,SPECI KNRA 122118Z AUTO 24007KT 10SM SCT023 21/13 A3005 RMK AO2 T02060133 TSNO $,2025-09-12T21:45:23Z,2025-09-12T17:45:23Z,Coupeville Nolf Airport,48.18830108642578,-122.63200378417967,US,US-WA
KNRA,"Coupeville, Out, WA, US",2025-09-12T21:46:00Z,2025-09-12 21:46:00,VFR,20.6,13.3,0,0,0,NA,1017.7,METAR KNRA 122146Z AUTO 00000KT 10SM CLR 21/13 A3005 RMK AO2 SLP118 T02060133 TSNO $,2025-09-12T21:56:04Z,2025-09-12T17:56:04Z,Coupeville Nolf Airport,48.18830108642578,-122.63200378417967,US,US-WA
KNRB,"Mayport (NS), FL, US",2025-09-12T20:52:00Z,2025-09-12 16:52:00,VFR,26.1,20.6,30,14,23,NA,1017,METAR KNRB 122052Z 03014G23KT 10SM SCT025 BKN250 26/21 A3003 RMK AO2 SLP167 T02610206 56009,2025-09-12T21:45:24Z,2025-09-12T17:45:24Z,Naval Station Mayport / Admiral David L McDonald Field,30.3911,-81.424698,US,US-FL
KNRB,"Mayport (NS), FL, US",2025-09-12T21:52:00Z,2025-09-12 17:52:00,VFR,25.6,20,20,14,0,NA,1016.7,METAR KNRB 122152Z 02014KT 10SM SCT025 BKN250 26/20 A3002 RMK AO2 SLP166 T02560200,2025-09-12T21:56:04Z,2025-09-12T17:56:04Z,Naval Station Mayport / Admiral David L McDonald Field,30.3911,-81.424698,US,US-FL
KNRN,"Norton Muni, KS, US",2025-09-12T21:35:00Z,2025-09-12 21:35:00,VFR,37,8,190,20,26,NA,1012.6,METAR KNRN 122135Z AUTO 19020G26KT 10SM CLR 37/08 A2990 RMK AO2 PK WND 20028/53,2025-09-12T21:45:23Z,2025-09-12T17:45:23Z,Norton Municipal Airport,39.850399017333984,-99.89469909667967,US,US-KS
KNRS,"Imperial Beach(NAS), CA, US",2025-09-12T20:53:00Z,2025-09-12 13:53:00,VFR,22.2,15.6,230,11,0,NA,1014,METAR KNRS 122053Z 23011KT 10SM SCT031 22/16 A2994 RMK AO2 SLP137 T02220156 56017 $,2025-09-12T21:45:23Z,2025-09-12T17:45:23Z,Naval Outlying Field Imperial Beach (Ream Field),32.5667,-117.116997,US,US-CA
KNSE,"Milton/Whiting N(NAS, FL, US",2025-09-12T20:56:00Z,2025-09-12 15:56:00,VFR,33.3,15,VAR,5,0,NA,1016.3,METAR KNSE 122056Z VRB05KT 10SM FEW070 SCT100 33/15 A3001 RMK AO2 SLP146 T03330150 56020 $,2025-09-12T21:45:23Z,2025-09-12T17:45:23Z,Whiting Field Naval Air Station - North,30.7241993,-87.02189636,US,US-FL
KNSI,"San Nicholas Island Arpt, CA, US",2025-09-12T20:53:00Z,2025-09-12 20:53:00,VFR,22.2,15,330,11,0,NA,1014,METAR KNSI 122053Z 33011KT 10SM CLR 22/15 A2994 RMK AO2 SLP131 T02220150 58014 $,2025-09-12T21:45:23Z,2025-09-12T17:45:23Z,San Nicolas Island Nolf Airport,33.23979949951172,-119.45800018310548,US,US-CA
KNTD,"Pt Mugu (NAS), CA, US",2025-09-12T20:55:00Z,2025-09-12 13:55:00,VFR,23.3,17.2,220,10,0,NA,1013.3,METAR KNTD 122055Z 22010KT 10SM FEW015 FEW025 23/17 A2992 RMK AO2 SLP133 T02330172 58015 $,2025-09-12T21:45:23Z,2025-09-12T17:45:23Z,Point Mugu Naval Air Station (Naval Base Ventura Co),34.120300293,-119.121002197,US,US-CA
KNTU,"Oceana(NAS), VA, US",2025-09-12T20:56:00Z,2025-09-12 16:56:00,VFR,23.3,15,70,12,0,NA,1020.7,METAR KNTU 122056Z 07012KT 10SM FEW030 FEW055 23/15 A3014 RMK AO2 SLP208 T02330150 56005,2025-09-12T21:45:23Z,2025-09-12T17:45:23Z,Oceana Naval Air Station,36.820702,-76.033501,US,US-VA
KNUC,"San Clemente(NALF), CA, US",2025-09-12T20:56:00Z,2025-09-12 20:56:00,VFR,22.2,15.6,220,8,0,NA,1014.3,METAR KNUC 122056Z 22008KT 10SM FEW011 SCT016 22/16 A2995 RMK SLP137 T02220156 57015,2025-09-12T21:45:23Z,2025-09-12T17:45:23Z,San Clemente Island Naval Auxiliary Landing Field,33.02270126,-118.5879974,US,US-CA
KNUI,"St Inigoes/Webster Fld, MD, US",2025-09-12T20:53:00Z,2025-09-12 20:53:00,VFR,25,15.6,200,6,0,NA,1021.1,METAR KNUI 122053Z AUTO 20006KT 10SM CLR 25/16 A3015 RMK AO2 SLP208 T02500156 56009,2025-09-12T21:45:23Z,2025-09-12T17:45:23Z,Naval Outlying Landing Field Webster,38.144222,-76.426892,US,US-MD
KNUQ,"Moffett Fed Airfld, CA, US",2025-09-12T21:35:00Z,2025-09-12 14:35:00,VFR,22,15,360,14,0,NA,1014,METAR KNUQ 122135Z AUTO 36014KT 10SM CLR 22/15 A2994 RMK AO2,2025-09-12T21:45:23Z,2025-09-12T17:45:23Z,Moffett Federal Airfield,37.4161,-122.049004,US,US-CA
KNUW,"Whidbey Island(NAS), WA, US",2025-09-12T20:53:00Z,2025-09-12 13:53:00,MVFR,18.3,13.3,270,6,0,NA,1017.7,METAR KNUW 122053Z 27006KT 10SM BKN020 BKN040 18/13 A3005 RMK AO2 SLP180 T01830133 58014 $,2025-09-12T21:45:23Z,2025-09-12T17:45:23Z,Whidbey Island Naval Air Station (Ault Field),48.351799,-122.655998,US,US-WA
KNXP,"Twentynine Palms/Self Arpt, CA, US",2025-09-12T20:54:00Z,2025-09-12 20:54:00,VFR,31.1,3.3,320,3,0,NA,1013.6,METAR KNXP 122054Z AUTO 32003KT 10SM CLR 31/03 A2993 RMK AO2 SLP101 T03110033 57022 PWINO $,2025-09-12T21:45:23Z,2025-09-12T17:45:23Z,Twentynine Palms Strategic Expeditionary Landing Field,34.2962,-116.162003,US,US-CA
KNY0,"Johnstown/Fulton Cnty, NY, US",2025-09-12T21:35:00Z,2025-09-12 21:35:00,VFR,21.5,8.8,0,0,0,NA,1022.1,METAR KNY0 122135Z AUTO 00000KT 10SM CLR 22/09 A3018 RMK AO2 T02150088,2025-09-12T21:45:23Z,2025-09-12T17:45:23Z,Fulton County Airport,42.998199,-74.329597,US,US-NY
KNYG,"Quantico (MCAF), VA, US",2025-09-12T20:56:00Z,2025-09-12 20:56:00,VFR,26.7,13.3,40,7,0,NA,1021.4,METAR KNYG 122056Z AUTO 04007KT 10SM CLR 27/13 A3016 RMK AO2 SLP213 T02670133 56009,2025-09-12T21:45:23Z,2025-09-12T17:45:23Z,Quantico Marine Corps Airfield / Turner Field,38.501701,-77.305298,US,US-VA
KNYL,"Yuma (MCAS), AZ, US",2025-09-12T20:57:00Z,2025-09-12 13:57:00,VFR,33.3,2.8,VAR,3,0,NA,1008.2,METAR KNYL 122057Z VRB03KT 10SM CLR 33/03 A2977 RMK AO2 SLP078 T03330028 58022,2025-09-12T21:45:23Z,2025-09-12T17:45:23Z,Yuma International Airport / Marine Corps Air Station Yuma,32.650938,-114.609375,US,US-AZ
KNZY,"San Diego/North Island NAS, CA, US",2025-09-12T20:52:00Z,2025-09-12 13:52:00,VFR,22.8,15.6,230,9,0,NA,1013.3,METAR KNZY 122052Z 23009KT 10SM FEW030 23/16 A2992 RMK AO2 SLP131 T02280156 56019,2025-09-12T21:45:24Z,2025-09-12T17:45:24Z,North Island Naval Air Station-Halsey Field,32.69919968,-117.2149963,US,US-CA
KNZY,"San Diego/North Island NAS, CA, US",2025-09-12T21:52:00Z,2025-09-12 14:52:00,VFR,22.2,15.6,220,8,0,NA,1012.6,METAR KNZY 122152Z AUTO 22008KT 10SM CLR 22/16 A2990 RMK AO2 SLP125 T02220156,2025-09-12T21:56:04Z,2025-09-12T17:56:04Z,North Island Naval Air Station-Halsey Field,32.69919968,-117.2149963,US,US-CA
KO05,"Chester/Rogers Fld, CA, US",2025-09-12T21:35:00Z,2025-09-12 21:35:00,VFR,22,5,VAR,5,0,NA,1018.4,METAR KO05 122135Z AUTO VRB05KT 10SM BKN070 22/05 A3007 RMK A01,2025-09-12T21:45:23Z,2025-09-12T17:45:23Z,Rogers Field,40.28239822387695,-121.24099731445312,US,US-CA
KO22,"Columbia Arpt, CA, US",2025-09-12T20:35:00Z,2025-09-12 13:35:00,VFR,27,11,210,6,14,NA,1015,METAR KO22 122035Z AUTO 21006G14KT 10SM CLR 27/11 A2997 RMK A01,2025-09-12T21:45:24Z,2025-09-12T17:45:24Z,Columbia Airport,38.0303993225,-120.415000916,US,US-CA
KO32,"Reedley Muni, CA, US",2025-09-12T21:35:00Z,2025-09-12 21:35:00,VFR,29.1,10.9,330,4,0,NA,1011.6,METAR KO32 122135Z AUTO 33004KT 10SM CLR 29/11 A2987 RMK AO2 T02910109 $,2025-09-12T21:45:23Z,2025-09-12T17:45:23Z,Reedley Municipal Airport,36.66630172729492,-119.4499969482422,US,US-CA
KO54,"Weaverville Arpt, CA, US",2025-09-12T21:35:00Z,2025-09-12 21:35:00,VFR,26,11,VAR,4,0,NA,1015.3,METAR KO54 122135Z AUTO VRB04KT 10SM CLR 26/11 A2998 RMK A01,2025-09-12T21:45:23Z,2025-09-12T17:45:23Z,Lonnie Pool Field Weaverville Airport,40.74570083618164,-122.9219970703125,US,US-CA
KO69,"Petaluma Muni, CA, US",2025-09-12T21:35:00Z,2025-09-12 21:35:00,VFR,26,14,180,4,0,NA,1013.6,METAR KO69 122135Z AUTO 18004KT 10SM CLR 26/14 A2993 RMK A01,2025-09-12T21:45:23Z,2025-09-12T17:45:23Z,Petaluma Municipal Airport,38.25780106,-122.6060028,US,US-CA
KO86,"Trinity Center Arpt, CA, US",2025-09-12T21:30:00Z,2025-09-12 21:30:00,VFR,27,12,VAR,5,0,NA,1015,METAR KO86 122130Z AUTO VRB05KT 10SM CLR 27/12 A2997 RMK A01,2025-09-12T21:45:23Z,2025-09-12T17:45:23Z,Trinity Center Airport,40.98320007324219,-122.69400024414062,US,US-CA
KOAJ,"Jacksonville/Ellis Arpt, NC, US",2025-09-12T20:56:00Z,2025-09-12 16:56:00,VFR,25.6,16.7,40,11,0,NA,1019.4,METAR KOAJ 122056Z 04011KT 10SM SCT060 26/17 A3010 RMK AO2 SLP194 T02560167 56009 $,2025-09-12T21:45:23Z,2025-09-12T17:45:23Z,Albert J Ellis Airport,34.829201,-77.612099,US,US-NC
KOAK,"Oakland Intl, CA, US",2025-09-12T20:53:00Z,2025-09-12 13:53:00,VFR,20.6,14.4,270,9,0,NA,1015,METAR KOAK 122053Z 27009KT 10SM FEW008 FEW016 21/14 A2997 RMK AO2 SLP149 T02060144 58011,2025-09-12T21:45:23Z,2025-09-12T17:45:23Z,San Francisco Bay Oakland International Airport,37.720085,-122.221184,US,US-CA
KOAK,"Oakland Intl, CA, US",2025-09-12T21:53:00Z,2025-09-12 14:53:00,VFR,20,13.9,280,9,0,NA,1014.6,METAR KOAK 122153Z 28009KT 10SM FEW007 FEW015 20/14 A2996 RMK AO2 SLP144 T02000139,2025-09-12T21:56:04Z,2025-09-12T17:56:04Z,San Francisco Bay Oakland International Airport,37.720085,-122.221184,US,US-CA
KOAR,"Marina Muni, CA, US",2025-09-12T21:35:00Z,2025-09-12 14:35:00,IFR,17,14,270,11,15,NA,1015.7,METAR KOAR 122135Z AUTO 27011G15KT 10SM OVC007 17/14 A2999 RMK AO2,2025-09-12T21:45:23Z,2025-09-12T17:45:23Z,Marina Municipal Airport,36.68190002,-121.762001,US,US-CA
KOBE,"Okeechobee Cnty Arpt, FL, US",2025-09-12T21:35:00Z,2025-09-12 17:35:00,VFR,28,25,60,8,0,NA,1013,METAR KOBE 122135Z AUTO 06008KT 030V090 10SM CLR 28/25 A2991 RMK AO2 LTG DSNT SE AND W,2025-09-12T21:45:23Z,2025-09-12T17:45:23Z,Okeechobee County Airport,27.262800216699997,-80.8498001099,US,US-FL
KOCF,"Ocala Rgnl, FL, US",2025-09-12T20:51:00Z,2025-09-12 16:51:00,VFR,29.4,20,20,9,15,NA,1015.7,METAR KOCF 122051Z 02009G15KT 340V060 10SM SCT043 29/20 A2999 RMK AO2 SLP154 T02940200 56013,2025-09-12T21:45:24Z,2025-09-12T17:45:24Z,Ocala International Airport - Jim Taylor Field,29.17259979,-82.22419739,US,US-FL
KOCF,"Ocala Rgnl, FL, US",2025-09-12T21:51:00Z,2025-09-12 17:51:00,VFR,28.9,18.9,30,8,0,NA,1015.7,METAR KOCF 122151Z 03008KT 10SM FEW047 29/19 A2999 RMK AO2 SLP155 T02890189,2025-09-12T21:56:04Z,2025-09-12T17:56:04Z,Ocala International Airport - Jim Taylor Field,29.17259979,-82.22419739,US,US-FL
KOCH,"Nacogdoches Rgnl, TX, US",2025-09-12T20:56:00Z,2025-09-12 15:56:00,VFR,32.8,18.9,0,0,0,NA,1018,METAR KOCH 122056Z AUTO 00000KT 10SM CLR 33/19 A3006 RMK AO2 SLP181 T03280189 58021,2025-09-12T21:45:23Z,2025-09-12T17:45:23Z,A L Mangham Jr. Regional Airport,31.57799911,-94.70950317,US,US-TX
KOCQ,"Oconto/Blake Mem, WI, US",2025-09-12T21:35:00Z,2025-09-12 21:35:00,VFR,23.2,15.8,120,5,0,NA,1020.1,METAR KOCQ 122135Z AUTO 12005KT 10SM CLR 23/16 A3012 RMK AO1 T02320158,2025-09-12T21:45:23Z,2025-09-12T17:45:23Z,J. Douglas Bake Memorial Airport,44.874286,-87.91171,US,US-WI
KOCW,"Washington/Warren Arpt, NC, US",2025-09-12T21:35:00Z,2025-09-12 17:35:00,VFR,25.2,14.1,50,7,0,NA,1020.1,METAR KOCW 122135Z AUTO 05007KT 10SM SCT080 25/14 A3012 RMK AO2 T02520141,2025-09-12T21:45:23Z,2025-09-12T17:45:23Z,Warren Field,35.570499420166,-77.049797058105,US,US-NC
KOCW,"Washington/Warren Arpt, NC, US",2025-09-12T21:45:00Z,2025-09-12 17:45:00,VFR,25.2,14,40,9,0,NA,1020.1,METAR KOCW 122145Z AUTO 04009KT 10SM SCT080 25/14 A3012 RMK AO2 T02520140,2025-09-12T21:56:04Z,2025-09-12T17:56:04Z,Warren Field,35.570499420166,-77.049797058105,US,US-NC
KODO,"Odessa/Schlemeyer Fld, TX, US",2025-09-12T20:53:00Z,2025-09-12 20:53:00,VFR,31.7,12.8,170,13,22,NA,1019.4,METAR KODO 122053Z AUTO 17013G22KT 10SM FEW065 32/13 A3010 RMK AO2 PK WND 17026/2016 SLP144 T03170128 58023,2025-09-12T21:45:23Z,2025-09-12T17:45:23Z,Odessa Schlemeyer Field,31.920601,-102.387001,US,US-TX
KODO,"Odessa/Schlemeyer Fld, TX, US",2025-09-12T21:53:00Z,2025-09-12 21:53:00,VFR,32.2,11.7,160,15,23,NA,1018.4,METAR KODO 122153Z AUTO 16015G23KT 10SM CLR 32/12 A3007 RMK AO2 SLP135 T03220117,2025-09-12T21:56:04Z,2025-09-12T17:56:04Z,Odessa Schlemeyer Field,31.920601,-102.387001,US,US-TX
KODX,"Ord/Sharp Fld, NE, US",2025-09-12T20:53:00Z,2025-09-12 20:53:00,VFR,33.9,18.3,140,11,20,NA,1011.3,METAR KODX 122053Z AUTO 14011G20KT 10SM CLR 34/18 A2986 RMK AO2 SLP098 T03390183 56018,2025-09-12T21:45:23Z,2025-09-12T17:45:23Z,Evelyn Sharp Field,41.62419891357422,-98.95240020751952,US,US-NE
KODX,"Ord/Sharp Fld, NE, US",2025-09-12T21:53:00Z,2025-09-12 21:53:00,VFR,33.9,17.8,170,13,0,NA,1011.3,METAR KODX 122153Z AUTO 17013KT 10SM CLR 34/18 A2986 RMK AO2 SLP096 T03390178,2025-09-12T21:56:04Z,2025-09-12T17:56:04Z,Evelyn Sharp Field,41.62419891357422,-98.95240020751952,US,US-NE
KOEB,"Coldwater/Branch Cnty, MI, US",2025-09-12T21:35:00Z,2025-09-12 21:35:00,MVFR,27,11,VAR,2,0,5,1021.8,METAR KOEB 122135Z AUTO VRB02KT 5SM HZ OVC065 27/11 A3017 RMK AO2,2025-09-12T21:45:23Z,2025-09-12T17:45:23Z,Branch County Memorial Airport,41.933399,-85.052597,US,US-MI
KOEL,"Oakley Muni, KS, US",2025-09-12T21:35:00Z,2025-09-12 21:35:00,VFR,34.5,4.8,220,23,28,NA,1014.6,METAR KOEL 122135Z AUTO 22023G28KT 10SM CLR 35/05 A2996 RMK AO1 T03450048,2025-09-12T21:45:23Z,2025-09-12T17:45:23Z,Oakley Municipal Airport,39.109901428222656,-100.81600189208984,US,US-KS
KOEO,"Osceola/Simenstad Muni, WI, US",2025-09-12T21:35:00Z,2025-09-12 16:35:00,VFR,21,18.5,20,8,0,NA,1019.4,METAR KOEO 122135Z AUTO 02008KT 10SM OVC045 21/19 A3010 RMK AO2 T02100185 PWINO,2025-09-12T21:45:23Z,2025-09-12T17:45:23Z,L O Simenstad Municipal Airport,45.310001373291,-92.691902160645,US,US-WI
KOFF,"Bellevue/Offutt AFB, NE, US",2025-09-12T20:55:00Z,2025-09-12 15:55:00,VFR,33.7,18.2,170,12,0,NA,1012.6,METAR KOFF 122055Z 17012KT 10SM FEW150 SCT250 34/18 A2990 RMK AO2A SLP117 T03370182 57020 $,2025-09-12T21:45:23Z,2025-09-12T17:45:23Z,Offutt Air Force Base,41.119307,-95.90851,US,US-NE
KOFK,"Norfolk/Stefan Mem, NE, US",2025-09-12T20:56:00Z,2025-09-12 15:56:00,VFR,31.1,20.6,160,9,0,NA,1011.6,METAR KOFK 122056Z AUTO 16009KT 10SM CLR 31/21 A2987 RMK AO2 SLP099 T03110206 58016,2025-09-12T21:45:23Z,2025-09-12T17:45:23Z,Karl Stefan Memorial Airport,41.985500335693,-97.435096740723,US,US-NE
KOFP,"Richmond/Hanover Cnty, VA, US",2025-09-12T20:54:00Z,2025-09-12 20:54:00,VFR,26.7,12.8,VAR,5,0,NA,1021.1,METAR KOFP 122054Z AUTO VRB05KT 10SM FEW065 27/13 A3015 RMK AO2 SLP209 T02670128 55009,2025-09-12T21:45:23Z,2025-09-12T17:45:23Z,Hanover County Municipal Airport,37.709,-77.436699,US,US-VA
KOGA,"Ogalla/Searle Fld, NE, US",2025-09-12T21:35:00Z,2025-09-12 15:35:00,VFR,33.5,10.8,190,7,0,NA,1013,METAR KOGA 122135Z AUTO 19007KT 10SM CLR 34/11 A2991 RMK AO2 T03350108,2025-09-12T21:45:23Z,2025-09-12T17:45:23Z,Ogallala Municipal Airport Searle Field,41.119499,-101.769997,US,US-NE
KOGB,"Orangeburg Muni, SC, US",2025-09-12T20:53:00Z,2025-09-12 16:53:00,VFR,28.9,13.9,30,9,15,NA,1018.4,METAR KOGB 122053Z AUTO 03009G15KT 10SM FEW075 29/14 A3007 RMK AO2 SLP180 T02890139 56013,2025-09-12T21:45:23Z,2025-09-12T17:45:23Z,Orangeburg Municipal Airport,33.456798553467,-80.859497070312,US,US-SC
KOGB,"Orangeburg Muni, SC, US",2025-09-12T21:53:00Z,2025-09-12 17:53:00,VFR,28.9,13.3,10,9,0,NA,1018.4,METAR KOGB 122153Z AUTO 01009KT 10SM SCT065 SCT080 29/13 A3007 RMK AO2 SLP178 T02890133,2025-09-12T21:56:04Z,2025-09-12T17:56:04Z,Orangeburg Municipal Airport,33.456798553467,-80.859497070312,US,US-SC
KOGD,"Ogden/Hinckley Arpt, UT, US",2025-09-12T20:53:00Z,2025-09-12 14:53:00,VFR,23.3,1.7,200,5,0,NA,1015.7,METAR KOGD 122053Z 20005KT 10SM SCT110 23/02 A2999 RMK AO2 SLP102 T02330017 56009,2025-09-12T21:45:23Z,2025-09-12T17:45:23Z,Ogden Hinckley Airport,41.195899963379,-112.0120010376,US,US-UT
KOGD,"Ogden/Hinckley Arpt, UT, US",2025-09-12T21:53:00Z,2025-09-12 15:53:00,VFR,24.4,0,VAR,3,0,NA,1015,METAR KOGD 122153Z VRB03KT 10SM FEW110 24/00 A2997 RMK AO2 SLP096 T02440000,2025-09-12T21:56:04Z,2025-09-12T17:56:04Z,Ogden Hinckley Airport,41.195899963379,-112.0120010376,US,US-UT
KOGS,"Ogdensburg Intl, NY, US",2025-09-12T21:35:00Z,2025-09-12 17:35:00,VFR,22,8,0,0,0,NA,1021.4,METAR KOGS 122135Z AUTO 00000KT 10SM CLR 22/08 A3016 RMK AO2,2025-09-12T21:45:23Z,2025-09-12T17:45:23Z,Ogdensburg International Airport,44.6819,-75.4655,US,US-NY
KOIC,"Norwich/Eaton Arpt, NY, US",2025-09-12T21:35:00Z,2025-09-12 17:35:00,VFR,22,12,340,4,0,NA,1022.4,METAR KOIC 122135Z AUTO 34004KT 10SM CLR 22/12 A3019 RMK AO2,2025-09-12T21:45:23Z,2025-09-12T17:45:23Z,Lt Warren Eaton Airport,42.566600799561,-75.524101257324,US,US-NY
KOIN,"Oberlin Muni, KS, US",2025-09-12T21:35:00Z,2025-09-12 21:35:00,VFR,37,9,200,17,27,NA,1012.6,METAR KOIN 122135Z AUTO 20017G27KT 10SM CLR 37/09 A2990 RMK AO2 PK WND 21031/35,2025-09-12T21:45:23Z,2025-09-12T17:45:23Z,Oberlin Municipal Airport,39.83390045166016,-100.53900146484376,US,US-KS
KOJA,"Weatherford/Stafford Arpt, OK, US",2025-09-12T21:30:00Z,2025-09-12 21:30:00,VFR,34.5,13.8,170,15,0,NA,1017.7,METAR KOJA 122130Z AUTO 17015KT 10SM CLR 34/14 A3005 RMK AO2 T03450138,2025-09-12T21:45:23Z,2025-09-12T17:45:23Z,Thomas P Stafford Airport,35.5448,-98.668503,US,US-OK
KOJC,"Olathe/Johnson Cnty, KS, US",2025-09-12T20:53:00Z,2025-09-12 15:53:00,VFR,33.9,16.1,200,11,19,NA,1016.7,METAR KOJC 122053Z 20011G19KT 10SM CLR 34/16 A3002 RMK AO2 SLP151 T03390161 56018,2025-09-12T21:45:23Z,2025-09-12T17:45:23Z,Johnson County Executive Airport,38.84759903,-94.73760223,US,US-KS
KOJC,"Olathe/Johnson Cnty, KS, US",2025-09-12T21:53:00Z,2025-09-12 16:53:00,VFR,32.8,17.2,190,8,0,NA,1016.3,METAR KOJC 122153Z 19008KT 10SM CLR 33/17 A3001 RMK AO2 SLP149 T03280172,2025-09-12T21:56:04Z,2025-09-12T17:56:04Z,Johnson County Executive Airport,38.84759903,-94.73760223,US,US-KS
KOKB,"Oceanside Muni, CA, US",2025-09-12T20:52:00Z,2025-09-12 13:52:00,VFR,24.4,15.6,250,8,0,8,1013,METAR KOKB 122052Z AUTO 25008KT 8SM CLR 24/16 A2991 RMK AO2 SLP126 T02440156 56019,2025-09-12T21:45:24Z,2025-09-12T17:45:24Z,Oceanside Municipal Airport,33.217947,-117.351683,US,US-CA
KOKB,"Oceanside Muni, CA, US",2025-09-12T21:52:00Z,2025-09-12 14:52:00,VFR,23.9,16.1,260,10,0,8,1012.6,METAR KOKB 122152Z AUTO 26010KT 8SM CLR 24/16 A2990 RMK AO2 SLP123 T02390161,2025-09-12T21:56:04Z,2025-09-12T17:56:04Z,Oceanside Municipal Airport,33.217947,-117.351683,US,US-CA
KOKC,"Oklahoma City/Will Rogers Intl, OK, US",2025-09-12T20:52:00Z,2025-09-12 15:52:00,VFR,33.3,17.2,VAR,4,17,NA,1018.4,METAR KOKC 122052Z VRB04G17KT 10SM FEW060 FEW150 SCT250 33/17 A3007 RMK AO2 SLP166 T03330172 58018,2025-09-12T21:45:24Z,2025-09-12T17:45:24Z,Will Rogers World Airport,35.393388,-97.598248,US,US-OK
KOKC,"Oklahoma City/Will Rogers Intl, OK, US",2025-09-12T21:52:00Z,2025-09-12 16:52:00,VFR,33.3,17.2,160,12,17,NA,1017.7,METAR KOKC 122152Z 16012G17KT 10SM FEW060 FEW250 33/17 A3005 RMK AO2 SLP160 T03330172,2025-09-12T21:56:04Z,2025-09-12T17:56:04Z,Will Rogers World Airport,35.393388,-97.598248,US,US-OK
KOKK,"Kokomo Muni, IN, US",2025-09-12T20:56:00Z,2025-09-12 16:56:00,VFR,28.3,11.1,VAR,5,0,NA,1021.8,METAR KOKK 122056Z AUTO VRB05KT 10SM CLR 28/11 A3017 RMK AO2 SLP211 T02830111 56020 $,2025-09-12T21:45:27Z,2025-09-12T17:45:27Z,Kokomo Municipal Airport,40.528198242188,-86.05899810791,US,US-IN
KOKM,"Okmulgee Rgnl, OK, US",2025-09-12T21:35:00Z,2025-09-12 16:35:00,VFR,34,19,180,6,0,NA,1018,METAR KOKM 122135Z AUTO 18006KT 10SM CLR 34/19 A3006 RMK AO2 T03400190,2025-09-12T21:45:26Z,2025-09-12T17:45:26Z,Okmulgee Regional Airport,35.668098449707,-95.948699951172,US,US-OK
KOKV,"Winchester Rgnl, VA, US",2025-09-12T21:35:00Z,2025-09-12 17:35:00,VFR,26,9,140,8,0,NA,1021.1,METAR KOKV 122135Z AUTO 14008KT 10SM CLR 26/09 A3015 RMK AO2,2025-09-12T21:45:26Z,2025-09-12T17:45:26Z,Winchester Regional Airport,39.14350128,-78.14440155,US,US-VA
KOLE,"Olean/Cattaraugus Cnty, NY, US",2025-09-12T21:35:00Z,2025-09-12 21:35:00,VFR,21,8,0,0,0,NA,1023.8,METAR KOLE 122135Z AUTO 00000KT 10SM SCT070 21/08 A3023 RMK AO2,2025-09-12T21:45:26Z,2025-09-12T17:45:26Z,Cattaraugus County-Olean Airport,42.241199,-78.371399,US,US-NY
KOLF,"Wolf Point/Clayton Arpt, MT, US",2025-09-12T20:53:00Z,2025-09-12 14:53:00,VFR,29.4,11.7,220,7,0,NA,1013.3,METAR KOLF 122053Z AUTO 22007KT 10SM CLR 29/12 A2992 RMK AO2 SLP122 T02940117 56014,2025-09-12T21:45:27Z,2025-09-12T17:45:27Z,L M Clayton Airport,48.094501,-105.574997,US,US-MT
KOLF,"Wolf Point/Clayton Arpt, MT, US",2025-09-12T21:53:00Z,2025-09-12 15:53:00,VFR,30,12.2,230,8,0,NA,1012.6,METAR KOLF 122153Z AUTO 23008KT 10SM CLR 30/12 A2990 RMK AO2 SLP117 T03000122,2025-09-12T21:56:06Z,2025-09-12T17:56:06Z,L M Clayton Airport,48.094501,-105.574997,US,US-MT
KOLG,"Solon Springs Muni, WI, US",2025-09-12T21:35:00Z,2025-09-12 21:35:00,VFR,17,16,300,5,0,NA,1017.4,METAR KOLG 122135Z AUTO 30005KT 10SM CLR 17/16 A3004 RMK AO1,2025-09-12T21:45:27Z,2025-09-12T17:45:27Z,Solon Springs Municipal Airport,46.3148,-91.816399,US,US-WI
KOLM,"Olympia Rgnl, WA, US",2025-09-12T20:54:00Z,2025-09-12 13:54:00,MVFR,20,12.2,VAR,NA,0,NA,1017.7,METAR KOLM 122054Z 10SM OVC030 20/12 A3005 RMK AO2 SLP177 T02000122 56014,2025-09-12T21:45:27Z,2025-09-12T17:45:27Z,Olympia Regional Airport,46.969399,-122.903,US,US-WA
KOLS,"Nogales Intl, AZ, US",2025-09-12T20:54:00Z,2025-09-12 13:54:00,VFR,31.7,16.1,230,12,17,NA,1016.3,METAR KOLS 122054Z AUTO 23012G17KT 10SM FEW070 32/16 A3001 RMK AO2 SLP087 T03170161 56021,2025-09-12T21:45:27Z,2025-09-12T17:45:27Z,Nogales International Airport,31.4177,-110.848,US,US-AZ
KOLU,"Columbus Muni, NE, US",2025-09-12T20:56:00Z,2025-09-12 20:56:00,VFR,32.8,21.1,180,12,0,NA,1012.3,METAR KOLU 122056Z AUTO 18012KT 10SM CLR 33/21 A2989 RMK AO2 SLP109 T03280211 56017,2025-09-12T21:45:27Z,2025-09-12T17:45:27Z,Columbus Municipal Airport,41.448145,-97.340174,US,US-NE
KOLV,"Olive Branch Arpt, MS, US",2025-09-12T20:50:00Z,2025-09-12 15:50:00,VFR,35,13,30,8,0,NA,1017.7,METAR KOLV 122050Z 03008KT 10SM SCT085 35/13 A3005,2025-09-12T21:45:27Z,2025-09-12T17:45:27Z,Olive Branch Airport,34.9786987305,-89.78690338130001,US,US-MS
KOLV,"Olive Branch Arpt, MS, US",2025-09-12T21:50:00Z,2025-09-12 16:50:00,VFR,34,15,360,6,0,NA,1017.4,METAR KOLV 122150Z 36006KT 10SM SCT085 34/15 A3004,2025-09-12T21:56:06Z,2025-09-12T17:56:06Z,Olive Branch Airport,34.9786987305,-89.78690338130001,US,US-MS
KOLY,"Olney/Noble Arpt, IL, US",2025-09-12T21:35:00Z,2025-09-12 21:35:00,VFR,31.3,16.2,90,4,0,NA,1019.7,METAR KOLY 122135Z AUTO 09004KT 10SM BKN070 31/16 A3011 RMK AO2 T03130162,2025-09-12T21:45:26Z,2025-09-12T17:45:26Z,Olney Noble Airport,38.721802,-88.176399,US,US-IL
KOLZ,"Oelwein Muni, IA, US",2025-09-12T21:35:00Z,2025-09-12 21:35:00,VFR,27,18,150,12,0,NA,1016.3,METAR KOLZ 122135Z AUTO 15012KT 10SM CLR 27/18 A3001 RMK A01,2025-09-12T21:45:26Z,2025-09-12T17:45:26Z,Oelwein Municipal Airport,42.680889,-91.97372,US,US-IA
KOMA,"Omaha/Eppley Fld, NE, US",2025-09-12T20:52:00Z,2025-09-12 15:52:00,VFR,32.2,17.8,190,16,21,NA,1012.6,METAR KOMA 122052Z 19016G21KT 10SM SCT150 SCT250 32/18 A2990 RMK AO2 SLP113 T03220178 58015,2025-09-12T21:45:27Z,2025-09-12T17:45:27Z,Eppley Airfield,41.3032,-95.894096,US,US-NE
KOMA,"Omaha/Eppley Fld, NE, US",2025-09-12T21:52:00Z,2025-09-12 16:52:00,VFR,32.8,18.3,180,15,0,NA,1011.9,METAR KOMA 122152Z 18015KT 10SM FEW150 SCT250 33/18 A2988 RMK AO2 SLP108 T03280183,2025-09-12T21:56:06Z,2025-09-12T17:56:06Z,Eppley Airfield,41.3032,-95.894096,US,US-NE
KOMH,"Orange Cnty Arpt, VA, US",2025-09-12T21:35:00Z,2025-09-12 21:35:00,VFR,26,9,80,6,0,NA,1020.7,METAR KOMH 122135Z AUTO 08006KT 10SM CLR 26/09 A3014 RMK AO2,2025-09-12T21:45:27Z,2025-09-12T17:45:27Z,Orange County Airport,38.2472,-78.045601,US,US-VA
KOMK,"Omak Arpt, WA, US",2025-09-12T20:53:00Z,2025-09-12 13:53:00,VFR,27.8,12.8,200,7,0,NA,1013.3,METAR KOMK 122053Z AUTO 20007KT 10SM CLR 28/13 A2992 RMK AO2 SLP126 T02780128 58020,2025-09-12T21:45:27Z,2025-09-12T17:45:27Z,Omak Airport,48.4644012451,-119.517997742,US,US-WA
KOMK,"Omak Arpt, WA, US",2025-09-12T21:53:00Z,2025-09-12 14:53:00,VFR,28.3,12.8,200,11,0,NA,1012.6,METAR KOMK 122153Z AUTO 20011KT 10SM CLR 28/13 A2990 RMK AO2 SLP117 T02830128,2025-09-12T21:56:06Z,2025-09-12T17:56:06Z,Omak Airport,48.4644012451,-119.517997742,US,US-WA
KOMN,"Ormond Beach Muni, FL, US",2025-09-12T20:50:00Z,2025-09-12 20:50:00,VFR,28,24,20,14,23,7,1015.7,METAR KOMN 122050Z 02014G23KT 7SM SCT026 28/24 A2999,2025-09-12T21:45:27Z,2025-09-12T17:45:27Z,Ormond Beach Municipal Airport,29.300600051879883,-81.11360168457031,US,US-FL
KOMN,"Ormond Beach Muni, FL, US",2025-09-12T21:50:00Z,2025-09-12 21:50:00,VFR,27,24,10,14,20,7,1015.3,METAR KOMN 122150Z 01014G20KT 7SM SCT026 27/24 A2998,2025-09-12T21:56:06Z,2025-09-12T17:56:06Z,Ormond Beach Municipal Airport,29.300600051879883,-81.11360168457031,US,US-FL
KONA,"Winona Muni, MN, US",2025-09-12T21:35:00Z,2025-09-12 21:35:00,VFR,27,17,130,9,0,NA,1016.7,METAR KONA 122135Z AUTO 13009KT 10SM BKN090 27/17 A3002 RMK AO2 TSNO,2025-09-12T21:45:27Z,2025-09-12T17:45:27Z,Winona Municipal Airport Max Conrad Field,44.077202,-91.708298,US,US-MN
KONL,"O'Neill Muni, NE, US",2025-09-12T21:35:00Z,2025-09-12 16:35:00,VFR,32.3,19.1,180,9,0,NA,1011.6,METAR KONL 122135Z AUTO 18009KT 10SM CLR 32/19 A2987 RMK AO2 T03230191,2025-09-12T21:45:26Z,2025-09-12T17:45:26Z,O'Neill Municipal Airport–John L Baker Field,42.468916,-98.686989,US,US-NE
KONM,"Socorro Muni, NM, US",2025-09-12T21:35:00Z,2025-09-12 21:35:00,VFR,30.6,8.6,150,15,21,NA,1017.4,METAR KONM 122135Z AUTO 15015G21KT 10SM BKN090 31/09 A3004 RMK AO2 LTG DSNT W T03060086,2025-09-12T21:45:26Z,2025-09-12T17:45:26Z,Socorro Municipal Airport,34.022499,-106.903,US,US-NM
KONM,"Socorro Muni, NM, US",2025-09-12T21:55:00Z,2025-09-12 21:55:00,VFR,30.1,9.2,150,14,22,NA,1017.4,METAR KONM 122155Z AUTO 15014G22KT 10SM SCT090 SCT120 30/09 A3004 RMK AO2 LTG DSNT W THRU N T03010092,2025-09-12T21:56:06Z,2025-09-12T17:56:06Z,Socorro Municipal Airport,34.022499,-106.903,US,US-NM
KONO,"Ontario Muni, OR, US",2025-09-12T20:53:00Z,2025-09-12 14:53:00,VFR,23.9,10.6,VAR,3,0,NA,1016,METAR KONO 122053Z AUTO VRB03KT 10SM CLR 24/11 A3000 RMK AO2 SLP149 60000 T02390106 58020,2025-09-12T21:45:27Z,2025-09-12T17:45:27Z,Ontario Municipal Airport,44.0198,-117.013289,US,US-OR
KONO,"Ontario Muni, OR, US",2025-09-12T21:53:00Z,2025-09-12 15:53:00,VFR,25,10.6,210,4,0,NA,1015,METAR KONO 122153Z AUTO 21004KT 10SM CLR 25/11 A2997 RMK AO2 SLP139 T02500106,2025-09-12T21:56:06Z,2025-09-12T17:56:06Z,Ontario Municipal Airport,44.0198,-117.013289,US,US-OR
KONP,"Newport Muni, OR, US",2025-09-12T21:35:00Z,2025-09-12 14:35:00,VFR,17,13,330,12,0,NA,1018.4,METAR KONP 122135Z AUTO 33012KT 10SM CLR 17/13 A3007 RMK AO2,2025-09-12T21:45:26Z,2025-09-12T17:45:26Z,Newport Municipal Airport,44.580399,-124.057999,US,US-OR
KONT,"Ontario Intl, CA, US",2025-09-12T20:53:00Z,2025-09-12 13:53:00,VFR,24.4,12.8,260,5,0,NA,1013,METAR KONT 122053Z 26005KT 10SM FEW060 24/13 A2991 RMK AO2 SLP116 T02440128 58025 $,2025-09-12T21:45:27Z,2025-09-12T17:45:27Z,Ontario International Airport,34.056,-117.600998,US,US-CA
KONT,"Ontario Intl, CA, US",2025-09-12T21:53:00Z,2025-09-12 14:53:00,VFR,26.7,12.8,240,9,0,NA,1012.3,METAR KONT 122153Z 24009KT 10SM FEW060 27/13 A2989 RMK AO2 SLP107 T02670128 $,2025-09-12T21:56:06Z,2025-09-12T17:56:06Z,Ontario International Airport,34.056,-117.600998,US,US-CA
KONX,"Currituck Cnty, NC, US",2025-09-12T21:35:00Z,2025-09-12 21:35:00,VFR,23.1,15.6,30,8,0,NA,1020.4,METAR KONX 122135Z AUTO 03008KT 10SM CLR 23/16 A3013 RMK AO2 T02310156,2025-09-12T21:45:26Z,2025-09-12T17:45:26Z,Currituck County Regional Airport,36.398899,-76.016296,US,US-NC
KONX,"Currituck Cnty, NC, US",2025-09-12T21:45:00Z,2025-09-12 21:45:00,VFR,23,15.5,50,8,0,NA,1020.4,METAR KONX 122145Z AUTO 05008KT 10SM CLR 23/16 A3013 RMK AO2 T02300155,2025-09-12T21:56:06Z,2025-09-12T17:56:06Z,Currituck County Regional Airport,36.398899,-76.016296,US,US-NC
KOOA,"Oskaloosa Muni, IA, US",2025-09-12T21:35:00Z,2025-09-12 21:35:00,MVFR,31.7,16.5,170,7,0,5,1017,METAR KOOA 122135Z AUTO 17007KT 5SM CLR 32/17 A3003 RMK AO2 T03170165,2025-09-12T21:45:26Z,2025-09-12T17:45:26Z,Oskaloosa Municipal Airport,41.2262,-92.493896,US,US-IA
KOPF,"Miami/Opa Locka Arpt, FL, US",2025-09-12T20:53:00Z,2025-09-12 16:53:00,VFR,26.1,23.3,330,10,0,NA,1013.3,METAR KOPF 122053Z 33010KT 10SM -RA FEW065 BKN090 BKN110 26/23 A2992 RMK AO2 LTG DSNT ALQDS TSE20B22E37 SLP134 P0000 60002 T02610233 58004,2025-09-12T21:45:27Z,2025-09-12T17:45:27Z,Miami-Opa Locka Executive Airport,25.907,-80.278397,US,US-FL
KOPF,"Miami/Opa Locka Arpt, FL, US",2025-09-12T21:53:00Z,2025-09-12 17:53:00,VFR,27.2,23.9,20,7,0,NA,1013.3,METAR KOPF 122153Z 02007KT 10SM CLR 27/24 A2992 RMK AO2 LTG DSNT E RAE27 SLP134 P0001 T02720239,2025-09-12T21:56:06Z,2025-09-12T17:56:06Z,Miami-Opa Locka Executive Airport,25.907,-80.278397,US,US-FL
KOPL,"Opelousas/St Landry, LA, US",2025-09-12T21:35:00Z,2025-09-12 21:35:00,VFR,33.4,16.6,0,0,0,NA,1017.4,METAR KOPL 122135Z AUTO 00000KT 10SM CLR 33/17 A3004 RMK AO2 T03340166,2025-09-12T21:45:26Z,2025-09-12T17:45:26Z,St Landry Parish Ahart Field,30.558399,-92.099403,US,US-LA
KOPN,"Thomaston/Upson Cnty, GA, US",2025-09-12T21:35:00Z,2025-09-12 21:35:00,VFR,29,15,40,5,0,NA,1019.7,METAR KOPN 122135Z AUTO 04005KT 10SM CLR 29/15 A3011 RMK AO2,2025-09-12T21:45:27Z,2025-09-12T17:45:27Z,Thomaston Upson County Airport,32.95460129,-84.26319885,US,US-GA
KOQN,"West Chester/Brandywine Rgnl, PA, US",2025-09-12T21:35:00Z,2025-09-12 21:35:00,VFR,25,11,0,0,0,NA,1021.8,METAR KOQN 122135Z AUTO 00000KT 10SM CLR 25/11 A3017 RMK AO2,2025-09-12T21:45:27Z,2025-09-12T17:45:27Z,Brandywine Regional Airport,39.990101,-75.581902,US,US-PA
KOQU,"N Kingston/Quonset Arpt, RI, US",2025-09-12T20:50:00Z,2025-09-12 16:50:00,VFR,21,15,160,10,0,NA,1022.1,METAR KOQU 122050Z AUTO 16010KT 10SM CLR 21/15 A3018 RMK AO2,2025-09-12T21:45:27Z,2025-09-12T17:45:27Z,Quonset State Airport,41.597099304199,-71.412101745605,US,US-RI
KORB,"Orr Rgnl, MN, US",2025-09-12T21:33:00Z,2025-09-12 21:33:00,VFR,NA,NA,140,3,0,NA,1016.3,METAR KORB 122133Z 14003KT 10SM SCT010 BKN075 BKN085 A3001 RMK AO2 LTG DSNT SW,2025-09-12T21:45:27Z,2025-09-12T17:45:27Z,Orr Regional Airport,48.0159,-92.856102,US,US-MN
KORB,"Orr Rgnl, MN, US",2025-09-12T21:53:00Z,2025-09-12 21:53:00,VFR,NA,NA,150,4,0,NA,1016.7,METAR KORB 122153Z 15004KT 10SM SCT010 BKN075 A3002 RMK AO2 LTG DSNT S AND SW,2025-09-12T21:56:06Z,2025-09-12T17:56:06Z,Orr Regional Airport,48.0159,-92.856102,US,US-MN
KORD,"Chicago/O'Hare Intl, IL, US",2025-09-12T20:51:00Z,2025-09-12 15:51:00,VFR,28.3,11.1,170,9,0,NA,1019.7,METAR KORD 122051Z 17009KT 10SM FEW070 BKN250 28/11 A3011 RMK AO2 SLP191 T02830111 58025 $,2025-09-12T21:45:27Z,2025-09-12T17:45:27Z,Chicago O'Hare International Airport,41.9786,-87.9048,US,US-IL
KORD,"Chicago/O'Hare Intl, IL, US",2025-09-12T21:51:00Z,2025-09-12 16:51:00,VFR,28.3,11.7,160,8,0,NA,1019.7,METAR KORD 122151Z 16008KT 10SM SCT250 28/12 A3011 RMK AO2 SLP191 T02830117 $,2025-09-12T21:56:06Z,2025-09-12T17:56:06Z,Chicago O'Hare International Airport,41.9786,-87.9048,US,US-IL
KORE,"Orange Muni, MA, US",2025-09-12T20:52:00Z,2025-09-12 20:52:00,VFR,23.3,6.1,0,0,0,NA,1022.1,METAR KORE 122052Z AUTO 00000KT 10SM CLR 23/06 A3018 RMK AO2 SLP220 T02330061 56013,2025-09-12T21:45:27Z,2025-09-12T17:45:27Z,Orange Municipal Airport,42.570098877,-72.2885971069,US,US-MA
KORE,"Orange Muni, MA, US",2025-09-12T21:52:00Z,2025-09-12 21:52:00,VFR,23.3,6.7,0,0,0,NA,1022.1,METAR KORE 122152Z AUTO 00000KT 10SM CLR 23/07 A3018 RMK AO2 SLP220 T02330067,2025-09-12T21:56:06Z,2025-09-12T17:56:06Z,Orange Municipal Airport,42.570098877,-72.2885971069,US,US-MA
KORF,"Norfolk Intl, VA, US",2025-09-12T20:51:00Z,2025-09-12 16:51:00,VFR,23.9,14.4,70,6,0,NA,1020.7,METAR KORF 122051Z 07006KT 10SM CLR 24/14 A3014 RMK AO2 SLP207 T02390144 56006,2025-09-12T21:45:27Z,2025-09-12T17:45:27Z,Norfolk International Airport,36.895341,-76.201,US,US-VA
KORF,"Norfolk Intl, VA, US",2025-09-12T21:51:00Z,2025-09-12 17:51:00,VFR,23.3,13.3,50,9,0,NA,1020.7,METAR KORF 122151Z 05009KT 10SM CLR 23/13 A3014 RMK AO2 SLP207 T02330133,2025-09-12T21:56:06Z,2025-09-12T17:56:06Z,Norfolk International Airport,36.895341,-76.201,US,US-VA
KORG,"Orange/Orange Cnty, TX, US",2025-09-12T21:35:00Z,2025-09-12 21:35:00,VFR,34.9,20.4,150,3,0,NA,1017.7,METAR KORG 122135Z AUTO 15003KT 10SM SCT055 BKN075 35/20 A3005 RMK AO2 T03490204 PWINO,2025-09-12T21:45:26Z,2025-09-12T17:45:26Z,Orange County Airport,30.069201,-93.800903,US,US-TX
KORH,"Worcester Muni, MA, US",2025-09-12T20:54:00Z,2025-09-12 16:54:00,VFR,20.6,8.3,VAR,3,0,NA,1022.8,METAR KORH 122054Z VRB03KT 10SM FEW050 21/08 A3020 RMK AO2 SLP225 T02060083 56010,2025-09-12T21:45:27Z,2025-09-12T17:45:27Z,Worcester Regional Airport,42.2673,-71.875702,US,US-MA
KORL,"Orlando/Executive, FL, US",2025-09-12T20:53:00Z,2025-09-12 16:53:00,VFR,27.2,22.2,50,13,19,NA,1015,METAR KORL 122053Z 05013G19KT 10SM FEW019 27/22 A2997 RMK AO2 SLP150 T02720222 55007,2025-09-12T21:45:27Z,2025-09-12T17:45:27Z,Orlando Executive Airport,28.5455,-81.332901,US,US-FL
KORL,"Orlando/Executive, FL, US",2025-09-12T21:53:00Z,2025-09-12 17:53:00,VFR,26.1,21.7,60,15,20,NA,1015.3,METAR KORL 122153Z 06015G20KT 10SM FEW016 SCT037 BKN050 26/22 A2998 RMK AO2 SLP155 T02610217,2025-09-12T21:56:06Z,2025-09-12T17:56:06Z,Orlando Executive Airport,28.5455,-81.332901,US,US-FL
KORS,"Eastsound/Orcas Island Arpt, WA, US",2025-09-12T21:35:00Z,2025-09-12 14:35:00,VFR,19,16,170,6,0,NA,1017,METAR KORS 122135Z AUTO 17006KT 10SM CLR 19/16 A3003 RMK AO2,2025-09-12T21:45:26Z,2025-09-12T17:45:26Z,Orcas Island Airport,48.708199,-122.910004,US,US-WA
KOSA,"Mount Pleasant Rgnl, TX, US",2025-09-12T21:35:00Z,2025-09-12 21:35:00,VFR,33.6,20,220,3,0,NA,1018,METAR KOSA 122135Z AUTO 22003KT 10SM BKN060 34/20 A3006 RMK AO2 T03360200,2025-09-12T21:45:26Z,2025-09-12T17:45:26Z,Mount Pleasant Regional Airport,33.095501,-94.961502,US,US-TX
KOSC,"Wurtsmith(AFB), MI, US",2025-09-12T21:35:00Z,2025-09-12 17:35:00,VFR,21,15,130,8,0,NA,1021.8,METAR KOSC 122135Z AUTO 13008KT 10SM CLR 21/15 A3017 RMK AO2,2025-09-12T21:45:27Z,2025-09-12T17:45:27Z,Oscoda Wurtsmith Airport,44.451599,-83.394096,US,US-MI
KOSH,"Oshkosh/Wittman Rgnl, WI, US",2025-09-12T20:53:00Z,2025-09-12 15:53:00,VFR,25.6,15.6,130,10,0,NA,1019.7,METAR KOSH 122053Z 13010KT 10SM CLR 26/16 A3011 RMK AO2 SLP191 T02560156 56025,2025-09-12T21:45:27Z,2025-09-12T17:45:27Z,Wittman Regional Airport,43.98440170288086,-88.55699920654297,US,US-WI
KOSH,"Oshkosh/Wittman Rgnl, WI, US",2025-09-12T21:53:00Z,2025-09-12 16:53:00,VFR,25,15.6,90,9,0,NA,1019.4,METAR KOSH 122153Z 09009KT 10SM CLR 25/16 A3010 RMK AO2 SLP185 T02500156,2025-09-12T21:56:06Z,2025-09-12T17:56:06Z,Wittman Regional Airport,43.98440170288086,-88.55699920654297,US,US-WI
KOSU,"Columbus/Ohio State Univ Arpt, OH, US",2025-09-12T20:53:00Z,2025-09-12 16:53:00,VFR,27.8,7.2,350,5,0,NA,1021.1,METAR KOSU 122053Z 35005KT 10SM CLR 28/07 A3015 RMK AO2 SLP204 T02780072 56022,2025-09-12T21:45:27Z,2025-09-12T17:45:27Z,The Ohio State University Airport - Don Scott Field,40.0798,-83.072998,US,US-OH
KOSU,"Columbus/Ohio State Univ Arpt, OH, US",2025-09-12T21:53:00Z,2025-09-12 17:53:00,VFR,27.8,7.2,0,0,0,NA,1020.7,METAR KOSU 122153Z 00000KT 10SM CLR 28/07 A3014 RMK AO2 SLP203 T02780072,2025-09-12T21:56:06Z,2025-09-12T17:56:06Z,The Ohio State University Airport - Don Scott Field,40.0798,-83.072998,US,US-OH
KOTG,"Worthington Muni, MN, US",2025-09-12T20:56:00Z,2025-09-12 20:56:00,VFR,28.3,18.3,190,6,0,NA,1013.6,METAR KOTG 122056Z AUTO 19006KT 10SM CLR 28/18 A2993 RMK AO2 SLP127 T02830183 55005,2025-09-12T21:45:27Z,2025-09-12T17:45:27Z,Worthington Municipal Airport,43.65477,-95.577364,US,US-MN
KOTH,"North Bend/SW Oregon Rgnl, OR, US",2025-09-12T20:56:00Z,2025-09-12 13:56:00,VFR,18.3,13.3,330,10,0,NA,1017.7,METAR KOTH 122056Z 33010KT 10SM CLR 18/13 A3005 RMK AO2 SLP175 T01830133 58010,2025-09-12T21:45:27Z,2025-09-12T17:45:27Z,Southwest Oregon Regional Airport,43.41709899902344,-124.24600219726562,US,US-OR
KOTM,"Ottumwa Rgnl, IA, US",2025-09-12T20:53:00Z,2025-09-12 15:53:00,VFR,30.6,16.7,190,6,0,NA,1016.7,METAR KOTM 122053Z AUTO 19006KT 10SM CLR 31/17 A3002 RMK AO2 SLP161 T03060167 56008,2025-09-12T21:45:27Z,2025-09-12T17:45:27Z,Ottumwa Regional Airport,41.106368,-92.449837,US,US-IA
KOTM,"Ottumwa Rgnl, IA, US",2025-09-12T21:53:00Z,2025-09-12 16:53:00,VFR,30,17.2,170,4,0,NA,1016,METAR KOTM 122153Z AUTO 17004KT 10SM CLR 30/17 A3000 RMK AO2 PRESFR SLP153 T03000172,2025-09-12T21:56:06Z,2025-09-12T17:56:06Z,Ottumwa Regional Airport,41.106368,-92.449837,US,US-IA
KOUN,"Norman/Univ Oklahoma Arpt, OK, US",2025-09-12T20:46:00Z,2025-09-12 15:46:00,VFR,33,18,160,8,0,NA,1017.7,METAR KOUN 122046Z 16008KT 10SM CLR 33/18 A3005,2025-09-12T21:45:27Z,2025-09-12T17:45:27Z,University of Oklahoma Westheimer Airport,35.2456,-97.472099,US,US-OK
KOUN,"Norman/Univ Oklahoma Arpt, OK, US",2025-09-12T21:46:00Z,2025-09-12 16:46:00,VFR,34,17,150,5,0,NA,1017.4,METAR KOUN 122146Z 15005KT 10SM CLR 34/17 A3004,2025-09-12T21:56:06Z,2025-09-12T17:56:06Z,University of Oklahoma Westheimer Airport,35.2456,-97.472099,US,US-OK
KOVE,"Oroville Muni, CA, US",2025-09-12T20:53:00Z,2025-09-12 13:53:00,VFR,28.3,15,VAR,5,0,NA,1012.6,METAR KOVE 122053Z AUTO VRB05KT 10SM CLR 28/15 A2990 RMK AO2 SLP126 T02830150 57017,2025-09-12T21:45:27Z,2025-09-12T17:45:27Z,Oroville Municipal Airport,39.487800598145,-121.62200164795,US,US-CA
KOVE,"Oroville Muni, CA, US",2025-09-12T21:53:00Z,2025-09-12 14:53:00,VFR,29.4,14.4,250,4,0,NA,1011.9,METAR KOVE 122153Z AUTO 25004KT 10SM CLR 29/14 A2988 RMK AO2 SLP120 T02940144,2025-09-12T21:56:06Z,2025-09-12T17:56:06Z,Oroville Municipal Airport,39.487800598145,-121.62200164795,US,US-CA
KOVL,"Olivia Rgnl, MN, US",2025-09-12T21:35:00Z,2025-09-12 21:35:00,VFR,25,18,60,11,14,NA,1014.6,METAR KOVL 122135Z AUTO 06011G14KT 10SM CLR 25/18 A2996 RMK AO2,2025-09-12T21:45:27Z,2025-09-12T17:45:27Z,Olivia Regional Airport,44.778599,-95.032799,US,US-MN
KOVS,"Boscobel Arpt, WI, US",2025-09-12T20:53:00Z,2025-09-12 20:53:00,VFR,28.9,15.6,VAR,NA,0,NA,1018,METAR KOVS 122053Z AUTO 10SM CLR 29/16 A3006 RMK AO2 SLP179 T02890156 56025,2025-09-12T21:45:27Z,2025-09-12T17:45:27Z,Boscobel Airport,43.160198,-90.675499,US,US-WI
KOVS,"Boscobel Arpt, WI, US",2025-09-12T21:53:00Z,2025-09-12 21:53:00,VFR,28.3,16.1,VAR,6,0,NA,1018,METAR KOVS 122153Z AUTO VRB06KT 10SM CLR 28/16 A3006 RMK AO2 SLP177 T02830161,2025-09-12T21:56:06Z,2025-09-12T17:56:06Z,Boscobel Airport,43.160198,-90.675499,US,US-WI
KOWA,"Owatonna/Degner Rgnl, MN, US",2025-09-12T21:35:00Z,2025-09-12 16:35:00,VFR,23.2,19.6,120,8,0,8,1015,METAR KOWA 122135Z AUTO 12008KT 8SM OVC130 23/20 A2997 RMK AO2 LTG DSNT NE AND E RAE2119 P0000 T02320196,2025-09-12T21:45:26Z,2025-09-12T17:45:26Z,Owatonna Degner Regional Airport,44.123402,-93.260597,US,US-MN
KOWB,"Owensboro/Daviess Cnty, KY, US",2025-09-12T20:56:00Z,2025-09-12 15:56:00,VFR,31.1,12.2,10,4,0,NA,1020.1,METAR KOWB 122056Z 01004KT 10SM FEW070 31/12 A3012 RMK AO2 SLP195 T03110122 56017,2025-09-12T21:45:27Z,2025-09-12T17:45:27Z,Owensboro Daviess County Airport,37.74010086,-87.16680145,US,US-KY
KOWD,"Norwood Mem, MA, US",2025-09-12T20:53:00Z,2025-09-12 16:53:00,VFR,21.7,11.7,50,7,0,NA,1022.4,METAR KOWD 122053Z 05007KT 10SM CLR 22/12 A3019 RMK AO2 SLP223 T02170117 56010,2025-09-12T21:45:27Z,2025-09-12T17:45:27Z,Norwood Memorial Airport,42.1904983521,-71.1728973389,US,US-MA
KOWD,"Norwood Mem, MA, US",2025-09-12T21:53:00Z,2025-09-12 17:53:00,VFR,20,12.2,90,7,0,NA,1022.4,METAR KOWD 122153Z 09007KT 10SM CLR 20/12 A3019 RMK AO2 SLP224 T02000122,2025-09-12T21:56:06Z,2025-09-12T17:56:06Z,Norwood Memorial Airport,42.1904983521,-71.1728973389,US,US-MA
KOWI,"Ottawa Muni, KS, US",2025-09-12T21:30:00Z,2025-09-12 21:30:00,MVFR,34,22,210,12,0,4,1015.7,METAR KOWI 122130Z AUTO 21012KT 4SM HZ CLR 34/22 A2999 RMK AO2 PWINO,2025-09-12T21:45:27Z,2025-09-12T17:45:27Z,Ottawa Municipal Airport,38.5387,-95.252998,US,US-KS
KOWP,"Sand Springs/Pogue Mem, OK, US",2025-09-12T21:35:00Z,2025-09-12 21:35:00,VFR,35.8,14.4,160,4,0,NA,1018.4,METAR KOWP 122135Z AUTO 16004KT 10SM CLR 36/14 A3007 RMK AO2 T03580144,2025-09-12T21:45:26Z,2025-09-12T17:45:26Z,William R. Pogue Municipal Airport,36.175301,-96.151802,US,US-OK
KOWX,"Ottawa/Putnam Cnty, OH, US",2025-09-12T21:35:00Z,2025-09-12 21:35:00,VFR,28,12,50,5,0,NA,1022.1,METAR KOWX 122135Z AUTO 05005KT 10SM CLR 28/12 A3018 RMK AO2,2025-09-12T21:45:27Z,2025-09-12T17:45:27Z,Putnam County Airport,41.035599,-83.982002,US,US-OH
KOXB,"Ocean City Muni, MD, US",2025-09-12T20:53:00Z,2025-09-12 16:53:00,VFR,23.3,16.1,60,7,0,NA,1021.8,METAR KOXB 122053Z AUTO 06007KT 10SM CLR 23/16 A3017 RMK AO2 SLP217 T02330161 55006,2025-09-12T21:45:27Z,2025-09-12T17:45:27Z,Ocean City Municipal Airport,38.310398101807,-75.124000549316,US,US-MD
KOXB,"Ocean City Muni, MD, US",2025-09-12T21:53:00Z,2025-09-12 17:53:00,VFR,22.8,15,80,6,0,NA,1021.8,METAR KOXB 122153Z AUTO 08006KT 10SM CLR 23/15 A3017 RMK AO2 SLP216 T02280150,2025-09-12T21:56:06Z,2025-09-12T17:56:06Z,Ocean City Municipal Airport,38.310398101807,-75.124000549316,US,US-MD
KOXC,"Oxford Arpt, CT, US",2025-09-12T20:56:00Z,2025-09-12 16:56:00,VFR,22.8,13.9,100,4,0,NA,1022.4,METAR KOXC 122056Z 10004KT 10SM FEW065 23/14 A3019 RMK AO2 SLP232 T02280139 56012 $,2025-09-12T21:45:27Z,2025-09-12T17:45:27Z,Waterbury Oxford Airport,41.47859954834,-73.135200500488,US,US-CT
KOXD,"Oxford/Miami Univ Arpt, OH, US",2025-09-12T21:35:00Z,2025-09-12 17:35:00,VFR,28.5,8,360,4,0,NA,1021.1,METAR KOXD 122135Z AUTO 36004KT 10SM CLR 29/08 A3015 RMK AO2 T02850080,2025-09-12T21:45:26Z,2025-09-12T17:45:26Z,Miami University Airport,39.50230026,-84.78440094,US,US-OH
KOXI,"Knox/Starke Cnty, IN, US",2025-09-12T21:35:00Z,2025-09-12 21:35:00,VFR,27,12,10,4,0,NA,1020.4,METAR KOXI 122135Z AUTO 01004KT 10SM CLR 27/12 A3013 RMK AO2,2025-09-12T21:45:27Z,2025-09-12T17:45:27Z,Starke County Airport,41.330098,-86.662302,US,US-IN
KOXR,"Oxnard Arpt, CA, US",2025-09-12T20:51:00Z,2025-09-12 13:51:00,VFR,22.8,16.7,210,8,0,NA,1013,METAR KOXR 122051Z 21008KT 10SM CLR 23/17 A2991 RMK AO2 SLP129 T02280167 58014,2025-09-12T21:45:27Z,2025-09-12T17:45:27Z,Oxnard Airport,34.200801849365,-119.20700073242,US,US-CA
KOXR,"Oxnard Arpt, CA, US",2025-09-12T21:51:00Z,2025-09-12 14:51:00,VFR,22.8,16.7,260,10,0,NA,1012.6,METAR KOXR 122151Z 26010KT 10SM FEW020 23/17 A2990 RMK AO2 SLP123 T02280167,2025-09-12T21:56:06Z,2025-09-12T17:56:06Z,Oxnard Airport,34.200801849365,-119.20700073242,US,US-CA
KOXV,"Knoxville Muni, IA, US",2025-09-12T21:35:00Z,2025-09-12 21:35:00,VFR,28,19,130,5,0,9,1016.3,METAR KOXV 122135Z AUTO 13005KT 9SM FEW120 28/19 A3001 RMK AO2,2025-09-12T21:45:26Z,2025-09-12T17:45:26Z,Knoxville Municipal Airport,41.298901,-93.1138,US,US-IA
KOYM,"St Marys Muni, PA, US",2025-09-12T21:35:00Z,2025-09-12 17:35:00,VFR,25,7,0,0,0,NA,1023.5,METAR KOYM 122135Z AUTO 00000KT 10SM BKN095 OVC110 25/07 A3022 RMK AO2 PWINO,2025-09-12T21:45:26Z,2025-09-12T17:45:26Z,St Marys Municipal Airport,41.412498474121,-78.502601623535,US,US-PA
KOZA,"Ozona Muni, TX, US",2025-09-12T21:35:00Z,2025-09-12 16:35:00,VFR,32,13,170,8,11,NA,1019.4,METAR KOZA 122135Z AUTO 17008G11KT 10SM CLR 32/13 A3010 RMK AO2,2025-09-12T21:45:26Z,2025-09-12T17:45:26Z,Ozona Municipal Airport,30.735300064087,-101.20300292969,US,US-TX
KOZR,"Ozark/Cairns AAF, AL, US",2025-09-12T20:55:00Z,2025-09-12 15:55:00,VFR,31.8,15.3,40,7,0,NA,1016.3,METAR KOZR 122055Z AUTO 04007KT 10SM SCT065 32/15 A3001 RMK AO2 SLP161 T03180153 57022,2025-09-12T21:45:27Z,2025-09-12T17:45:27Z,Cairns AAF (Fort Rucker) Air Field,31.27569962,-85.71340179,US,US-AL
KOZW,"Howell/Hardy Arpt, MI, US",2025-09-12T21:35:00Z,2025-09-12 21:35:00,VFR,27,10,260,5,0,NA,1022.1,METAR KOZW 122135Z AUTO 26005KT 10SM CLR 27/10 A3018 RMK AO2,2025-09-12T21:45:26Z,2025-09-12T17:45:26Z,Livingston County Spencer J. Hardy Airport,42.62919998,-83.98210144,US,US-MI
KP08,"Coolidge Muni, AZ, US",2025-09-12T21:35:00Z,2025-09-12 21:35:00,VFR,37,13,250,9,18,NA,1008.9,METAR KP08 122135Z AUTO 25009G18KT 10SM CLR 37/13 A2979 RMK AO2,2025-09-12T21:45:27Z,2025-09-12T17:45:27Z,Coolidge Municipal Airport,32.935902,-111.427002,US,US-AZ
KP33,"Wilcox/Chocise Cnty, AZ, US",2025-09-12T21:36:00Z,2025-09-12 14:36:00,VFR,32,15,270,10,19,NA,1015.7,METAR KP33 122136Z AUTO 27010G19KT 10SM CLR 32/15 A2999 RMK AO2,2025-09-12T21:45:26Z,2025-09-12T17:45:26Z,Cochise County Airport,32.245399,-109.894997,US,US-AZ
KP52,"Cottonwood Arpt, AZ, US",2025-09-12T21:35:00Z,2025-09-12 21:35:00,VFR,32,2,170,9,18,NA,1013.3,METAR KP52 122135Z AUTO 17009G18KT 110V210 10SM CLR 32/02 A2992 RMK AO2,2025-09-12T21:45:26Z,2025-09-12T17:45:26Z,Cottonwood Airport,34.73,-112.035004,US,US-AZ
KPAE,"Everett/Paine Fld, WA, US",2025-09-12T21:11:00Z,2025-09-12 14:11:00,VFR,19.4,11.7,80,4,0,NA,1018.4,SPECI KPAE 122111Z 08004KT 10SM FEW025 19/12 A3007 RMK AO2 T01940117,2025-09-12T21:45:27Z,2025-09-12T17:45:27Z,Seattle Paine Field International Airport,47.9063,-122.281998,US,US-WA
KPAE,"Everett/Paine Fld, WA, US",2025-09-12T21:53:00Z,2025-09-12 14:53:00,VFR,20,11.7,VAR,4,0,NA,1017.7,METAR KPAE 122153Z VRB04KT 10SM FEW029 20/12 A3005 RMK AO2 SLP175 T02000117,2025-09-12T21:56:06Z,2025-09-12T17:56:06Z,Seattle Paine Field International Airport,47.9063,-122.281998,US,US-WA
KPAH,"Paducah/Barkley Rgnl, KY, US",2025-09-12T20:53:00Z,2025-09-12 15:53:00,VFR,32.8,14.4,0,0,0,NA,1018.4,METAR KPAH 122053Z 00000KT 10SM CLR 33/14 A3007 RMK AO2 SLP179 T03280144 56019,2025-09-12T21:45:27Z,2025-09-12T17:45:27Z,Barkley Regional Airport,37.06079864501953,-88.7738037109375,US,US-KY
KPAH,"Paducah/Barkley Rgnl, KY, US",2025-09-12T21:53:00Z,2025-09-12 16:53:00,VFR,32.8,13.9,10,5,0,NA,1018.4,METAR KPAH 122153Z 01005KT 10SM CLR 33/14 A3007 RMK AO2 SLP176 T03280139,2025-09-12T21:56:06Z,2025-09-12T17:56:06Z,Barkley Regional Airport,37.06079864501953,-88.7738037109375,US,US-KY
KPAM,"Tyndall AFB, FL, US",2025-09-12T20:55:00Z,2025-09-12 15:55:00,VFR,31.9,14.5,60,6,0,NA,1015.7,METAR KPAM 122055Z 06006KT 10SM SCT085 32/15 A2999 RMK AO2A SLP159 T03190145 57018,2025-09-12T21:45:27Z,2025-09-12T17:45:27Z,Tyndall Air Force Base,30.069599,-85.575401,US,US-FL
KPAN,"Payson Arpt, AZ, US",2025-09-12T21:35:00Z,2025-09-12 14:35:00,VFR,27,10,170,9,15,NA,1018.7,METAR KPAN 122135Z AUTO 17009G15KT 140V210 10SM FEW070 FEW080 FEW090 27/10 A3008 RMK AO2,2025-09-12T21:45:26Z,2025-09-12T17:45:26Z,Payson Airport,34.256801605225,-111.33899688721,US,US-AZ
KPAO,"Palo Alto Arpt, CA, US",2025-09-12T20:47:00Z,2025-09-12 13:47:00,VFR,22,17,350,10,0,NA,1014.6,METAR KPAO 122047Z 35010KT 10SM SKC 22/17 A2996,2025-09-12T21:45:27Z,2025-09-12T17:45:27Z,Palo Alto Airport,37.461102,-122.114998,US,US-CA
KPAO,"Palo Alto Arpt, CA, US",2025-09-12T21:47:00Z,2025-09-12 14:47:00,VFR,23,15,340,12,0,NA,1014.3,METAR KPAO 122147Z 34012KT 10SM SKC 23/15 A2995,2025-09-12T21:56:06Z,2025-09-12T17:56:06Z,Palo Alto Airport,37.461102,-122.114998,US,US-CA
KPBF,"Pine Bluff/Grider Fld, AR, US",2025-09-12T20:53:00Z,2025-09-12 15:53:00,VFR,35.6,16.7,30,6,0,NA,1018,METAR KPBF 122053Z AUTO 03006KT 10SM CLR 36/17 A3006 RMK AO2 SLP175 T03560167 57022 $,2025-09-12T21:45:27Z,2025-09-12T17:45:27Z,"Pine Bluff Regional Airport, Grider Field",34.174121,-91.935643,US,US-AR
KPBF,"Pine Bluff/Grider Fld, AR, US",2025-09-12T21:53:00Z,2025-09-12 16:53:00,VFR,35.6,16.1,50,5,0,NA,1017.4,METAR KPBF 122153Z AUTO 05005KT 10SM CLR 36/16 A3004 RMK AO2 SLP171 T03560161 $,2025-09-12T21:56:06Z,2025-09-12T17:56:06Z,"Pine Bluff Regional Airport, Grider Field",34.174121,-91.935643,US,US-AR
KPBG,"Plattsburgh Intl, NY, US",2025-09-12T20:53:00Z,2025-09-12 16:53:00,VFR,19.4,7.8,70,4,0,NA,1022.4,METAR KPBG 122053Z AUTO 07004KT 10SM CLR 19/08 A3019 RMK AO2 SLP225 T01940078 56018,2025-09-12T21:45:27Z,2025-09-12T17:45:27Z,Plattsburgh International Airport,44.650901794433594,-73.46810150146484,US,US-NY
KPBG,"Plattsburgh Intl, NY, US",2025-09-12T21:53:00Z,2025-09-12 17:53:00,VFR,19.4,7.2,30,3,0,NA,1022.4,METAR KPBG 122153Z AUTO 03003KT 10SM CLR 19/07 A3019 RMK AO2 SLP223 T01940072,2025-09-12T21:56:06Z,2025-09-12T17:56:06Z,Plattsburgh International Airport,44.650901794433594,-73.46810150146484,US,US-NY
KPBH,"Phillips/Price Cnty, WI, US",2025-09-12T21:35:00Z,2025-09-12 21:35:00,VFR,21.9,16.7,180,8,0,NA,1018,METAR KPBH 122135Z AUTO 18008KT 10SM CLR 22/17 A3006 RMK AO2 T02190167,2025-09-12T21:45:26Z,2025-09-12T17:45:26Z,Price County Airport,45.709,-90.402496,US,US-WI
KPBI,"Palm Beach Intl, FL, US",2025-09-12T20:53:00Z,2025-09-12 16:53:00,MVFR,25.6,23.9,80,4,0,5,1014.3,METAR KPBI 122053Z 08004KT 5SM -RA SCT020 BKN055 BKN110 26/24 A2995 RMK AO2 SLP140 OCNL LTGIC DSNT NE-SW CB DSNT NE-SW P0016 60030 T02560239 55001 $,2025-09-12T21:45:27Z,2025-09-12T17:45:27Z,Palm Beach International Airport,26.683201,-80.095596,US,US-FL
KPBI,"Palm Beach Intl, FL, US",2025-09-12T21:53:00Z,2025-09-12 17:53:00,MVFR,25,23.3,70,6,0,8,1014,METAR KPBI 122153Z 07006KT 8SM -RA FEW010 BKN017 OVC033 25/23 A2994 RMK AO2 SLP137 P0007 T02500233 $,2025-09-12T21:56:06Z,2025-09-12T17:56:06Z,Palm Beach International Airport,26.683201,-80.095596,US,US-FL
KPBX,"Pikeville/Pike Cnty, KY, US",2025-09-12T21:35:00Z,2025-09-12 17:35:00,VFR,26.3,10.6,360,3,0,NA,1021.8,METAR KPBX 122135Z AUTO 36003KT 10SM CLR 26/11 A3017 RMK AO2 T02630106,2025-09-12T21:45:26Z,2025-09-12T17:45:26Z,Pike County Airport Hatcher Field,37.560795,-82.570051,US,US-KY
KPCM,"Plant City Arpt, FL, US",2025-09-12T21:35:00Z,2025-09-12 21:35:00,VFR,28,22,120,3,0,NA,1015,METAR KPCM 122135Z AUTO 12003KT 10SM -RA SCT031 SCT049 BKN070 28/22 A2997 RMK AO2,2025-09-12T21:45:26Z,2025-09-12T17:45:26Z,Plant City Municipal Airport,28.0002,-82.1642,US,US-FL
KPCW,"Port Clinton/Erie-Ottawa Arpt, OH, US",2025-09-12T21:35:00Z,2025-09-12 21:35:00,VFR,24,13,40,5,0,NA,1022.1,METAR KPCW 122135Z AUTO 04005KT 10SM CLR 24/13 A3018 RMK AO2,2025-09-12T21:45:27Z,2025-09-12T17:45:27Z,Carl R Keller Field,41.515647,-82.868328,US,US-OH
KPCZ,"Waupaca Muni, WI, US",2025-09-12T21:35:00Z,2025-09-12 21:35:00,VFR,26.8,13.9,90,7,0,NA,1020.4,METAR KPCZ 122135Z AUTO 09007KT 10SM CLR 27/14 A3013 RMK AO2 T02680139,2025-09-12T21:45:26Z,2025-09-12T17:45:26Z,Waupaca Municipal Airport,44.333302,-89.019798,US,US-WI
KPDC,"Prairie Du Chien Muni, WI, US",2025-09-12T21:35:00Z,2025-09-12 16:35:00,VFR,28.6,16.6,130,6,0,NA,1017.4,METAR KPDC 122135Z AUTO 13006KT 10SM CLR 29/17 A3004 RMK AO2 T02860166,2025-09-12T21:45:26Z,2025-09-12T17:45:26Z,Prairie Du Chien Municipal Airport,43.019298553467,-91.12370300293,US,US-WI
KPDK,"Atlanta/Dekalb-Peachtree Arpt, GA, US",2025-09-12T20:53:00Z,2025-09-12 16:53:00,VFR,29.4,12.8,VAR,4,0,NA,1019.4,METAR KPDK 122053Z AUTO VRB04KT 10SM FEW065 FEW085 29/13 A3010 RMK AO2 SLP177 T02940128 56016,2025-09-12T21:45:27Z,2025-09-12T17:45:27Z,DeKalb Peachtree Airport,33.87633,-84.30213,US,US-GA
KPDK,"Atlanta/Dekalb-Peachtree Arpt, GA, US",2025-09-12T21:53:00Z,2025-09-12 17:53:00,VFR,30,13.3,0,0,0,NA,1019,METAR KPDK 122153Z AUTO 00000KT 10SM SCT065 BKN080 30/13 A3009 RMK AO2 SLP176 T03000133,2025-09-12T21:56:06Z,2025-09-12T17:56:06Z,DeKalb Peachtree Airport,33.87633,-84.30213,US,US-GA
KPDT,"Pendleton/E Oregon Rgnl, OR, US",2025-09-12T20:53:00Z,2025-09-12 13:53:00,VFR,26.1,12.2,0,0,0,NA,1015,METAR KPDT 122053Z 00000KT 10SM CLR 26/12 A2997 RMK AO2 SLP134 T02610122 58021,2025-09-12T21:45:27Z,2025-09-12T17:45:27Z,Eastern Oregon Regional Airport at Pendleton,45.695099,-118.841003,US,US-OR
KPDT,"Pendleton/E Oregon Rgnl, OR, US",2025-09-12T21:53:00Z,2025-09-12 14:53:00,VFR,26.7,11.7,VAR,5,0,NA,1014.3,METAR KPDT 122153Z VRB05KT 10SM CLR 27/12 A2995 RMK AO2 SLP127 T02670117,2025-09-12T21:56:06Z,2025-09-12T17:56:06Z,Eastern Oregon Regional Airport at Pendleton,45.695099,-118.841003,US,US-OR
KPDX,"Portland Intl, OR, US",2025-09-12T20:53:00Z,2025-09-12 13:53:00,VFR,19.4,11.1,290,6,0,NA,1017.7,METAR KPDX 122053Z 29006KT 10SM SCT030 SCT250 19/11 A3005 RMK AO2 SLP176 T01940111 58013,2025-09-12T21:45:27Z,2025-09-12T17:45:27Z,Portland International Airport,45.588699,-122.598,US,US-OR
KPDX,"Portland Intl, OR, US",2025-09-12T21:53:00Z,2025-09-12 14:53:00,VFR,20.6,10.6,0,0,0,NA,1017,METAR KPDX 122153Z 00000KT 10SM FEW030 FEW250 21/11 A3003 RMK AO2 SLP168 T02060106,2025-09-12T21:56:06Z,2025-09-12T17:56:06Z,Portland International Airport,45.588699,-122.598,US,US-OR
KPEA,"Pella Muni, IA, US",2025-09-12T21:35:00Z,2025-09-12 21:35:00,VFR,28.3,18.5,140,6,0,NA,1016.7,METAR KPEA 122135Z AUTO 14006KT 10SM SCT070 SCT100 BKN120 28/19 A3002 RMK AO2 T02830185,2025-09-12T21:45:26Z,2025-09-12T17:45:26Z,Pella Municipal Airport,41.40010070800781,-92.9458999633789,US,US-IA
KPEO,"Penn Yan Arpt, NY, US",2025-09-12T20:53:00Z,2025-09-12 20:53:00,VFR,23.9,12.2,VAR,3,0,NA,1022.4,METAR KPEO 122053Z AUTO VRB03KT 10SM SCT055 24/12 A3019 RMK AO2 SLP218 T02390122 58018,2025-09-12T21:45:27Z,2025-09-12T17:45:27Z,Penn Yan Airport,42.6371,-77.052902,US,US-NY
KPEO,"Penn Yan Arpt, NY, US",2025-09-12T21:53:00Z,2025-09-12 21:53:00,VFR,23.3,11.7,0,0,0,NA,1022.4,METAR KPEO 122153Z AUTO 00000KT 10SM CLR 23/12 A3019 RMK AO2 SLP219 T02330117,2025-09-12T21:56:06Z,2025-09-12T17:56:06Z,Penn Yan Airport,42.6371,-77.052902,US,US-NY
KPEQ,"Pecos Muni, TX, US",2025-09-12T21:35:00Z,2025-09-12 16:35:00,VFR,34.5,14,90,16,23,NA,1015.7,METAR KPEQ 122135Z AUTO 09016G23KT 10SM SCT080 SCT090 35/14 A2999 RMK AO2 T03450140 PWINO,2025-09-12T21:45:26Z,2025-09-12T17:45:26Z,Pecos Municipal Airport,31.382400512695,-103.51100158691,US,US-TX
KPEX,"Paynesville Muni, MN, US",2025-09-12T21:35:00Z,2025-09-12 21:35:00,VFR,20,19,120,5,0,7,1015.7,METAR KPEX 122135Z AUTO 12005KT 7SM RA SCT050 SCT075 OVC110 20/19 A2999 RMK AO2 P0001,2025-09-12T21:45:26Z,2025-09-12T17:45:26Z,Paynesville Municipal Airport,45.372061,-94.744742,US,US-MN
KPEZ,"Pleasanton Muni, TX, US",2025-09-12T21:35:00Z,2025-09-12 21:35:00,VFR,35.9,13.2,190,7,15,NA,1016.3,METAR KPEZ 122135Z AUTO 19007G15KT 070V340 10SM CLR 36/13 A3001 RMK AO2 T03590132,2025-09-12T21:45:26Z,2025-09-12T17:45:26Z,Pleasanton Municipal Airport,28.954200744628903,-98.5199966430664,US,US-TX
KPGA,"Page Muni, AZ, US",2025-09-12T20:53:00Z,2025-09-12 13:53:00,VFR,30,-3.9,VAR,NA,0,NA,1014.3,METAR KPGA 122053Z AUTO 10SM CLR 30/M04 A2995 RMK AO2 PK WND 26026/2015 SLP072 T03001039 56024,2025-09-12T21:45:27Z,2025-09-12T17:45:27Z,Page Municipal Airport,36.924234,-111.447716,US,US-AZ
KPGA,"Page Muni, AZ, US",2025-09-12T21:53:00Z,2025-09-12 14:53:00,VFR,30.6,-6.1,210,11,29,NA,1013.6,METAR KPGA 122153Z AUTO 21011G29KT 180V250 10SM CLR 31/M06 A2993 RMK AO2 PK WND 20029/2147 SLP064 T03061061,2025-09-12T21:56:06Z,2025-09-12T17:56:06Z,Page Municipal Airport,36.924234,-111.447716,US,US-AZ
KPGD,"Punta Gorda Arpt, FL, US",2025-09-12T21:35:00Z,2025-09-12 17:35:00,VFR,26.1,21.7,70,8,0,NA,1014,SPECI KPGD 122135Z 07008KT 10SM FEW045 26/22 A2994 RMK AO2 LTG DSNT ALQDS TSB14E29 T02610217,2025-09-12T21:45:26Z,2025-09-12T17:45:26Z,Punta Gorda Airport,26.9202,-81.990501,US,US-FL
KPGD,"Punta Gorda Arpt, FL, US",2025-09-12T21:53:00Z,2025-09-12 17:53:00,VFR,26.7,22.8,50,5,0,NA,1014.3,METAR KPGD 122153Z 05005KT 10SM FEW045 27/23 A2995 RMK AO2 LTG DSNT E AND S AND W TSB14E29 SLP140 T02670228,2025-09-12T21:56:06Z,2025-09-12T17:56:06Z,Punta Gorda Airport,26.9202,-81.990501,US,US-FL
KPGV,"Greenville/Pitt Arpt, NC, US",2025-09-12T21:35:00Z,2025-09-12 17:35:00,VFR,26,15,60,7,0,NA,1019.7,METAR KPGV 122135Z AUTO 06007KT 10SM SCT040 26/15 A3011 RMK AO2,2025-09-12T21:45:26Z,2025-09-12T17:45:26Z,Pitt-Greenville Airport,35.635535,-77.384262,US,US-NC
KPGV,"Greenville/Pitt Arpt, NC, US",2025-09-12T21:45:00Z,2025-09-12 17:45:00,VFR,25,15,70,6,0,NA,1019.7,METAR KPGV 122145Z AUTO 07006KT 10SM CLR 25/15 A3011 RMK AO2,2025-09-12T21:56:06Z,2025-09-12T17:56:06Z,Pitt-Greenville Airport,35.635535,-77.384262,US,US-NC
KPHD,"New Philadelphia/Clever Fld, OH, US",2025-09-12T20:53:00Z,2025-09-12 16:53:00,VFR,28.3,7.8,10,3,0,NA,1021.4,METAR KPHD 122053Z AUTO 01003KT 10SM CLR 28/08 A3016 RMK AO2 SLP209 T02830078 56019,2025-09-12T21:45:27Z,2025-09-12T17:45:27Z,Harry Clever Field,40.470901489258,-81.419700622559,US,US-OH
KPHD,"New Philadelphia/Clever Fld, OH, US",2025-09-12T21:53:00Z,2025-09-12 17:53:00,VFR,27.8,8.9,200,3,0,NA,1021.1,METAR KPHD 122153Z AUTO 20003KT 10SM CLR 28/09 A3015 RMK AO2 SLP207 T02780089,2025-09-12T21:56:06Z,2025-09-12T17:56:06Z,Harry Clever Field,40.470901489258,-81.419700622559,US,US-OH
KPHF,"Newport News/Williamsburg Intl, VA, US",2025-09-12T20:54:00Z,2025-09-12 16:54:00,VFR,23.9,12.8,60,10,0,NA,1021.4,METAR KPHF 122054Z 06010KT 10SM CLR 24/13 A3016 RMK AO2 SLP211 T02390128 55004,2025-09-12T21:45:27Z,2025-09-12T17:45:27Z,Newport News Williamsburg International Airport,37.131901,-76.492996,US,US-VA
KPHG,"Phillipsburg Muni, KS, US",2025-09-12T21:35:00Z,2025-09-12 21:35:00,VFR,37,12,200,15,21,NA,1012.6,METAR KPHG 122135Z AUTO 20015G21KT 10SM CLR 37/12 A2990 RMK AO2,2025-09-12T21:45:26Z,2025-09-12T17:45:26Z,Phillipsburg Municipal Airport,39.735802,-99.317101,US,US-KS
KPHL,"Philadelphia Intl, PA, US",2025-09-12T20:54:00Z,2025-09-12 16:54:00,VFR,27.2,12.8,90,5,0,NA,1021.1,METAR KPHL 122054Z 09005KT 10SM BKN095 27/13 A3015 RMK AO2 SLP209 T02720128 56009 $,2025-09-12T21:45:27Z,2025-09-12T17:45:27Z,Philadelphia International Airport,39.871899,-75.241096,US,US-PA
KPHN,"Port Huron/St Clair Cnty, MI, US",2025-09-12T21:36:00Z,2025-09-12 17:36:00,VFR,22,14,40,4,0,NA,1022.1,METAR KPHN 122136Z AUTO 04004KT 10SM CLR 22/14 A3018 RMK AO2,2025-09-12T21:45:26Z,2025-09-12T17:45:26Z,St Clair County International Airport,42.9109993,-82.52890015,US,US-MI
KPHP,"Philip Muni, SD, US",2025-09-12T20:55:00Z,2025-09-12 14:55:00,VFR,32.8,16.1,0,0,0,NA,1010.9,METAR KPHP 122055Z AUTO 00000KT 10SM CLR 33/16 A2985 RMK AO2 SLP085 T03280161 56015,2025-09-12T21:45:27Z,2025-09-12T17:45:27Z,Philip Airport,44.048527,-101.600933,US,US-SD
KPHT,"Paris/Henry Cnty, TN, US",2025-09-12T21:35:00Z,2025-09-12 16:35:00,VFR,32,13,VAR,6,0,NA,1018.4,METAR KPHT 122135Z AUTO VRB06KT 10SM SCT080 32/13 A3007 RMK A01,2025-09-12T21:45:26Z,2025-09-12T17:45:26Z,Henry County Airport,36.338199615499995,-88.38289642330001,US,US-TN
KPHX,"Phoenix/Sky Harbor Intl, AZ, US",2025-09-12T20:51:00Z,2025-09-12 13:51:00,VFR,36.7,16.1,220,9,14,NA,1008.2,METAR KPHX 122051Z 22009G14KT 10SM FEW080 FEW110 37/16 A2977 RMK AO2 SLP060 T03670161 58029,2025-09-12T21:45:27Z,2025-09-12T17:45:27Z,Phoenix Sky Harbor International Airport,33.435302,-112.005905,US,US-AZ
KPHX,"Phoenix/Sky Harbor Intl, AZ, US",2025-09-12T21:51:00Z,2025-09-12 14:51:00,VFR,36.7,15.6,VAR,5,0,NA,1007.5,METAR KPHX 122151Z VRB05KT 10SM SCT080 37/16 A2975 RMK AO2 SLP051 T03670156,2025-09-12T21:56:06Z,2025-09-12T17:56:06Z,Phoenix Sky Harbor International Airport,33.435302,-112.005905,US,US-AZ
KPIA,"Peoria Intl, IL, US",2025-09-12T20:54:00Z,2025-09-12 15:54:00,VFR,31.1,12.8,120,6,0,NA,1018.4,METAR KPIA 122054Z 12006KT 10SM CLR 31/13 A3007 RMK AO2 SLP177 T03110128 58027,2025-09-12T21:45:27Z,2025-09-12T17:45:27Z,General Wayne A. Downing Peoria International Airport,40.6642,-89.693298,US,US-IL
KPIB,"Hattiesburg/Laurel Rgnl, MS, US",2025-09-12T20:56:00Z,2025-09-12 15:56:00,VFR,34.4,16.1,10,9,0,NA,1017.7,METAR KPIB 122056Z AUTO 01009KT 10SM CLR 34/16 A3005 RMK AO2 SLP172 T03440161 56023,2025-09-12T21:45:27Z,2025-09-12T17:45:27Z,Hattiesburg Laurel Regional Airport,31.4671,-89.337097,US,US-MS
KPIE,"St Petersburg-Clearwater Intl, FL, US",2025-09-12T20:53:00Z,2025-09-12 16:53:00,VFR,31.1,21.1,VAR,3,0,NA,1014,METAR KPIE 122053Z VRB03KT 10SM FEW045 SCT050 31/21 A2994 RMK AO2 SLP139 T03110211 56016,2025-09-12T21:45:27Z,2025-09-12T17:45:27Z,St. Petersburg Clearwater International Airport,27.9102,-82.687401,US,US-FL
KPIE,"St Petersburg-Clearwater Intl, FL, US",2025-09-12T21:53:00Z,2025-09-12 17:53:00,VFR,30.6,21.1,0,0,0,NA,1014,METAR KPIE 122153Z 00000KT 10SM CLR 31/21 A2994 RMK AO2 SLP138 T03060211,2025-09-12T21:56:06Z,2025-09-12T17:56:06Z,St. Petersburg Clearwater International Airport,27.9102,-82.687401,US,US-FL
KPIH,"Pocatello Rgnl, ID, US",2025-09-12T20:53:00Z,2025-09-12 14:53:00,VFR,23.3,2.8,290,4,0,NA,1016.3,METAR KPIH 122053Z 29004KT 10SM CLR 23/03 A3001 RMK AO2 SLP128 T02330028 58017,2025-09-12T21:45:27Z,2025-09-12T17:45:27Z,Pocatello Regional Airport,42.9098014831543,-112.59600067138672,US,US-ID
KPIH,"Pocatello Rgnl, ID, US",2025-09-12T21:53:00Z,2025-09-12 15:53:00,VFR,23.9,1.7,300,5,0,NA,1015.7,METAR KPIH 122153Z 30005KT 10SM SCT110 24/02 A2999 RMK AO2 LTG DSNT S SLP122 T02390017,2025-09-12T21:56:06Z,2025-09-12T17:56:06Z,Pocatello Regional Airport,42.9098014831543,-112.59600067138672,US,US-ID
KPIL,"Port Isabel/Cameron Cnty, TX, US",2025-09-12T20:53:00Z,2025-09-12 20:53:00,VFR,31.7,24.4,90,14,0,NA,1015.3,METAR KPIL 122053Z AUTO 09014KT 10SM CLR 32/24 A2998 RMK AO2 RAB16E30 SLP151 P0000 60000 T03170244 58022,2025-09-12T21:45:27Z,2025-09-12T17:45:27Z,Port Isabel Cameron County Airport,26.166201,-97.345901,US,US-TX
KPIL,"Port Isabel/Cameron Cnty, TX, US",2025-09-12T21:53:00Z,2025-09-12 21:53:00,VFR,31.1,24.4,80,14,0,NA,1015.3,METAR KPIL 122153Z AUTO 08014KT 10SM FEW024 31/24 A2998 RMK AO2 SLP150 T03110244,2025-09-12T21:56:06Z,2025-09-12T17:56:06Z,Port Isabel Cameron County Airport,26.166201,-97.345901,US,US-TX
KPIR,"Pierre Muni, SD, US",2025-09-12T20:53:00Z,2025-09-12 15:53:00,VFR,31.1,19.4,0,0,0,NA,1009.9,METAR KPIR 122053Z AUTO 00000KT 10SM CLR 31/19 A2982 RMK AO2 SLP079 T03110194 56015,2025-09-12T21:45:27Z,2025-09-12T17:45:27Z,Pierre Regional Airport,44.38270187,-100.2860031,US,US-SD
KPIR,"Pierre Muni, SD, US",2025-09-12T21:53:00Z,2025-09-12 16:53:00,VFR,32.2,20,70,3,0,NA,1009.6,METAR KPIR 122153Z AUTO 07003KT 10SM CLR 32/20 A2981 RMK AO2 SLP077 T03220200,2025-09-12T21:56:06Z,2025-09-12T17:56:06Z,Pierre Regional Airport,44.38270187,-100.2860031,US,US-SD
KPIT,"Pittsburgh Intl, PA, US",2025-09-12T20:51:00Z,2025-09-12 16:51:00,VFR,27.8,8.3,0,0,0,NA,1021.1,METAR KPIT 122051Z 00000KT 10SM FEW055 FEW250 28/08 A3015 RMK AO2 SLP210 T02780083 56017 $,2025-09-12T21:45:27Z,2025-09-12T17:45:27Z,Pittsburgh International Airport,40.491501,-80.232903,US,US-PA
KPIT,"Pittsburgh Intl, PA, US",2025-09-12T21:51:00Z,2025-09-12 17:51:00,VFR,27.8,8.3,VAR,3,0,NA,1020.7,METAR KPIT 122151Z VRB03KT 10SM FEW055 FEW250 28/08 A3014 RMK AO2 SLP208 T02780083 $,2025-09-12T21:56:06Z,2025-09-12T17:56:06Z,Pittsburgh International Airport,40.491501,-80.232903,US,US-PA
KPJC,"Zelienople Muni, PA, US",2025-09-12T21:35:00Z,2025-09-12 21:35:00,VFR,27,6,0,0,0,NA,1020.7,METAR KPJC 122135Z AUTO 00000KT 10SM CLR 27/06 A3014 RMK AO2,2025-09-12T21:45:27Z,2025-09-12T17:45:27Z,Zelienople Municipal Airport,40.801601,-80.160698,US,US-PA
KPKB,"Parkersburg/Mid Ohio Valley Rgnl, WV, US",2025-09-12T20:53:00Z,2025-09-12 16:53:00,VFR,28.3,7.2,0,0,0,NA,1021.1,METAR KPKB 122053Z 00000KT 10SM CLR 28/07 A3015 RMK AO2 SLP205 T02830072 56017,2025-09-12T21:45:27Z,2025-09-12T17:45:27Z,Mid Ohio Valley Regional Airport,39.3451,-81.439201,US,US-WV
KPKB,"Parkersburg/Mid Ohio Valley Rgnl, WV, US",2025-09-12T21:53:00Z,2025-09-12 17:53:00,VFR,27.8,7.2,0,0,0,NA,1020.7,METAR KPKB 122153Z 00000KT 10SM CLR 28/07 A3014 RMK AO2 SLP201 T02780072,2025-09-12T21:56:06Z,2025-09-12T17:56:06Z,Mid Ohio Valley Regional Airport,39.3451,-81.439201,US,US-WV
KPKD,"Park Rapids/Konshok Fld, MN, US",2025-09-12T20:53:00Z,2025-09-12 15:53:00,VFR,20,16.7,130,6,0,NA,1015.3,METAR KPKD 122053Z AUTO 13006KT 10SM FEW019 20/17 A2998 RMK AO2 SLP151 T02000167 56006,2025-09-12T21:45:27Z,2025-09-12T17:45:27Z,Park Rapids Municipal Airport Konshok Field,46.9006,-95.073095,US,US-MN
KPKD,"Park Rapids/Konshok Fld, MN, US",2025-09-12T21:53:00Z,2025-09-12 16:53:00,VFR,20,17.2,100,8,0,NA,1015,METAR KPKD 122153Z AUTO 10008KT 10SM CLR 20/17 A2997 RMK AO2 SLP148 T02000172,2025-09-12T21:56:06Z,2025-09-12T17:56:06Z,Park Rapids Municipal Airport Konshok Field,46.9006,-95.073095,US,US-MN
KPKV,"Port Lavaca/Calhoun Cnty, TX, US",2025-09-12T21:35:00Z,2025-09-12 21:35:00,VFR,33.6,23.1,110,14,21,NA,1017.4,METAR KPKV 122135Z AUTO 11014G21KT 10SM CLR 34/23 A3004 RMK AO2 T03360231,2025-09-12T21:45:27Z,2025-09-12T17:45:27Z,Calhoun County Airport,28.653999,-96.681297,US,US-TX
KPLN,"Pellston Rgnl, MI, US",2025-09-12T20:54:00Z,2025-09-12 16:54:00,VFR,22.2,13.3,300,5,0,NA,1022.4,METAR KPLN 122054Z AUTO 30005KT 10SM CLR 22/13 A3019 RMK AO2 SLP222 T02220133 56006,2025-09-12T21:45:27Z,2025-09-12T17:45:27Z,Pellston Regional Airport of Emmet County Airport,45.57089996,-84.79669952,US,US-MI
KPLR,"Pell City/St Clair Cnty, AL, US",2025-09-12T21:35:00Z,2025-09-12 16:35:00,VFR,32,14,20,8,0,NA,1018.4,METAR KPLR 122135Z AUTO 02008KT 10SM CLR 32/14 A3007 RMK A01,2025-09-12T21:45:26Z,2025-09-12T17:45:26Z,St Clair County Airport,33.558799743652,-86.249099731445,US,US-AL
KPLU,"Tacoma/Pierce Cnty, WA, US",2025-09-12T21:35:00Z,2025-09-12 21:35:00,MVFR,20,14,0,0,0,NA,1018,METAR KPLU 122135Z AUTO 00000KT 10SM OVC027 20/14 A3006 RMK AO2,2025-09-12T21:45:27Z,2025-09-12T17:45:27Z,Pierce County-Thun Field,47.103901,-122.287003,US,US-WA
KPMD,"Palmdale Rgnl, CA, US",2025-09-12T20:53:00Z,2025-09-12 13:53:00,VFR,27.2,7.8,310,4,19,NA,1013.3,METAR KPMD 122053Z 31004G19KT 10SM CLR 27/08 A2992 RMK AO2 SLP109 T02720078 58021 $,2025-09-12T21:45:27Z,2025-09-12T17:45:27Z,Palmdale Regional Airport / USAF Plant 42 Airport,34.629398,-118.084999,US,US-CA
KPMD,"Palmdale Rgnl, CA, US",2025-09-12T21:53:00Z,2025-09-12 14:53:00,VFR,27.2,7.8,240,5,15,NA,1013,METAR KPMD 122153Z 24005G15KT 10SM FEW070 27/08 A2991 RMK AO2 SLP104 T02720078 $,2025-09-12T21:56:06Z,2025-09-12T17:56:06Z,Palmdale Regional Airport / USAF Plant 42 Airport,34.629398,-118.084999,US,US-CA
KPMH,"Portsmouth Rgnl, OH, US",2025-09-12T21:39:00Z,2025-09-12 17:39:00,VFR,30,9,310,3,0,NA,1020.1,METAR KPMH 122139Z 31003KT 10SM CLR 30/09 A3012 RMK AO2,2025-09-12T21:45:26Z,2025-09-12T17:45:26Z,Greater Portsmouth Regional Airport,38.8404998779,-82.84729766850002,US,US-OH
KPMP,"Pompano Beach Arpt, FL, US",2025-09-12T21:36:00Z,2025-09-12 17:36:00,VFR,25.6,25,30,8,0,NA,1013.3,SPECI KPMP 122136Z 03008KT 10SM -RA SCT016 SCT055 OVC095 26/25 A2992 RMK AO2 LTG DSNT E AND SE RAE02B21 P0003 T02560250,2025-09-12T21:45:26Z,2025-09-12T17:45:26Z,Pompano Beach Airpark,26.247100830078,-80.111099243164,US,US-FL
KPMP,"Pompano Beach Arpt, FL, US",2025-09-12T21:53:00Z,2025-09-12 17:53:00,VFR,25.6,24.4,20,6,0,NA,1013.3,METAR KPMP 122153Z 02006KT 10SM -RA SCT016 SCT045 OVC100 26/24 A2992 RMK AO2 LTG DSNT E AND SE RAE02B21 SLP134 P0004 T02560244,2025-09-12T21:56:06Z,2025-09-12T17:56:06Z,Pompano Beach Airpark,26.247100830078,-80.111099243164,US,US-FL
KPMU,"Panola Cnty, MS, US",2025-09-12T21:35:00Z,2025-09-12 21:35:00,VFR,35,15,180,5,0,NA,1017,METAR KPMU 122135Z AUTO 18005KT 10SM CLR 35/15 A3003 RMK AO2,2025-09-12T21:45:26Z,2025-09-12T17:45:26Z,Panola County Airport,34.36349869,-89.89260101,US,US-MS
KPMV,"Plattsmouth Muni, NE, US",2025-09-12T21:35:00Z,2025-09-12 21:35:00,VFR,32.3,17.6,190,11,0,NA,1013,METAR KPMV 122135Z AUTO 19011KT 10SM CLR 32/18 A2991 RMK AO2 T03230176,2025-09-12T21:45:29Z,2025-09-12T17:45:29Z,Plattsmouth Municipal Airport,40.947882,-95.917254,US,US-NE
KPNA,"Pinedale/Wentz Fld, WY, US",2025-09-12T21:35:00Z,2025-09-12 15:35:00,VFR,17,2,140,10,15,NA,1019.7,METAR KPNA 122135Z AUTO 14010G15KT 10SM -RA OVC095 17/02 A3011 RMK AO2,2025-09-12T21:45:29Z,2025-09-12T17:45:29Z,Ralph Wenz Field,42.79550171,-109.8069992,US,US-WY
KPNC,"Ponca City Rgnl, OK, US",2025-09-12T20:53:00Z,2025-09-12 15:53:00,VFR,35,16.1,200,7,14,NA,1016.7,METAR KPNC 122053Z AUTO 20007G14KT 10SM CLR 35/16 A3002 RMK AO2 SLP152 T03500161 58018,2025-09-12T21:45:29Z,2025-09-12T17:45:29Z,Ponca City Regional Airport,36.73199844,-97.09980011,US,US-OK
KPNC,"Ponca City Rgnl, OK, US",2025-09-12T21:53:00Z,2025-09-12 16:53:00,VFR,35,15.6,200,10,17,NA,1016.3,METAR KPNC 122153Z AUTO 20010G17KT 10SM CLR 35/16 A3001 RMK AO2 SLP149 T03500156,2025-09-12T21:56:09Z,2025-09-12T17:56:09Z,Ponca City Regional Airport,36.73199844,-97.09980011,US,US-OK
KPNE,"Philadelphia/NE Arpt, PA, US",2025-09-12T20:54:00Z,2025-09-12 16:54:00,VFR,25.6,13.9,50,5,0,NA,1021.8,METAR KPNE 122054Z AUTO 05005KT 10SM SCT095 26/14 A3017 RMK AO2 SLP217 T02560139 56007 TSNO,2025-09-12T21:45:29Z,2025-09-12T17:45:29Z,Northeast Philadelphia Airport,40.082406,-75.010614,US,US-PA
KPNE,"Philadelphia/NE Arpt, PA, US",2025-09-12T21:54:00Z,2025-09-12 17:54:00,VFR,25,13.9,60,8,0,NA,1021.8,METAR KPNE 122154Z AUTO 06008KT 10SM BKN090 25/14 A3017 RMK AO2 SLP217 T02500139 TSNO,2025-09-12T21:56:08Z,2025-09-12T17:56:08Z,Northeast Philadelphia Airport,40.082406,-75.010614,US,US-PA
KPNM,"Princeton Arpt, MN, US",2025-09-12T20:22:00Z,2025-09-12 20:22:00,VFR,18,17,40,7,0,NA,NA,METAR KPNM 122022Z 04007KT 10SM VCTS RA BKN080 18/17 RMK AO2,2025-09-12T21:45:29Z,2025-09-12T17:45:29Z,Princeton Municipal Airport,45.559898,-93.6082,US,US-MN
KPNS,"Pensacola Intl, FL, US",2025-09-12T20:53:00Z,2025-09-12 15:53:00,VFR,30,20,190,9,0,NA,1016.3,METAR KPNS 122053Z AUTO 19009KT 10SM CLR 30/20 A3001 RMK AO2 SLP163 T03000200 56017,2025-09-12T21:45:29Z,2025-09-12T17:45:29Z,Pensacola International Airport,30.4734,-87.1866,US,US-FL
KPNS,"Pensacola Intl, FL, US",2025-09-12T21:53:00Z,2025-09-12 16:53:00,VFR,30,18.9,210,8,0,NA,1016,METAR KPNS 122153Z AUTO 21008KT 10SM FEW120 30/19 A3000 RMK AO2 SLP161 T03000189,2025-09-12T21:56:09Z,2025-09-12T17:56:09Z,Pensacola International Airport,30.4734,-87.1866,US,US-FL
KPNT,"Pontiac Muni, IL, US",2025-09-12T21:35:00Z,2025-09-12 21:35:00,VFR,30.2,11.2,170,5,0,NA,1019.4,METAR KPNT 122135Z AUTO 17005KT 10SM CLR 30/11 A3010 RMK AO2 T03020112,2025-09-12T21:45:29Z,2025-09-12T17:45:29Z,Pontiac Municipal Airport,40.924255,-88.62447,US,US-IL
KPOB,"Pope AAF, NC, US",2025-09-12T20:55:00Z,2025-09-12 16:55:00,VFR,28.4,13.9,30,14,0,NA,1019,METAR KPOB 122055Z AUTO 03014KT 10SM SCT055 28/14 A3009 RMK AO2 SLP191 T02840139 56013 $,2025-09-12T21:45:29Z,2025-09-12T17:45:29Z,Pope Field,35.170898,-79.014503,US,US-NC
KPOC,"La Verne/Brackett Fld, CA, US",2025-09-12T20:47:00Z,2025-09-12 13:47:00,VFR,27,13,260,8,0,NA,1013.3,METAR KPOC 122047Z 26008KT 10SM FEW035 27/13 A2992,2025-09-12T21:45:29Z,2025-09-12T17:45:29Z,Brackett Field,34.091598510742,-117.78199768066,US,US-CA
KPOE,"Fort Polk AAF, LA, US",2025-09-12T20:55:00Z,2025-09-12 15:55:00,VFR,34.8,18.8,40,3,0,NA,1017,METAR KPOE 122055Z AUTO 04003KT 10SM CLR 35/19 A3003 RMK AO2 SLP168 T03480188 57023,2025-09-12T21:45:29Z,2025-09-12T17:45:29Z,Polk Army Air Field,31.0447998,-93.1917038,US,US-LA
KPOF,"Poplar Bluff Muni, MO, US",2025-09-12T20:53:00Z,2025-09-12 15:53:00,VFR,35,17.2,VAR,4,0,NA,1017.4,METAR KPOF 122053Z AUTO VRB04KT 10SM SCT100 35/17 A3004 RMK AO2 SLP165 T03500172 56024,2025-09-12T21:45:29Z,2025-09-12T17:45:29Z,Poplar Bluff Municipal Airport,36.773899,-90.324898,US,US-MO
KPOF,"Poplar Bluff Muni, MO, US",2025-09-12T21:53:00Z,2025-09-12 16:53:00,VFR,34.4,16.1,VAR,3,0,NA,1017,METAR KPOF 122153Z AUTO VRB03KT 10SM FEW120 34/16 A3003 RMK AO2 SLP162 T03440161,2025-09-12T21:56:09Z,2025-09-12T17:56:09Z,Poplar Bluff Municipal Airport,36.773899,-90.324898,US,US-MO
KPOU,"Poughkeepsie/Hudson Valley Rgnl, NY, US",2025-09-12T20:53:00Z,2025-09-12 16:53:00,VFR,25,11.1,40,5,0,NA,1021.1,METAR KPOU 122053Z 04005KT 10SM CLR 25/11 A3015 RMK AO2 SLP206 T02500111 56013,2025-09-12T21:45:29Z,2025-09-12T17:45:29Z,Dutchess County Airport,41.6265983581543,-73.88420104980469,US,US-NY
KPOU,"Poughkeepsie/Hudson Valley Rgnl, NY, US",2025-09-12T21:53:00Z,2025-09-12 17:53:00,VFR,24.4,11.7,80,3,0,NA,1021.1,METAR KPOU 122153Z 08003KT 10SM CLR 24/12 A3015 RMK AO2 SLP205 T02440117,2025-09-12T21:56:09Z,2025-09-12T17:56:09Z,Dutchess County Airport,41.6265983581543,-73.88420104980469,US,US-NY
KPOV,"Ravenna/Portage Cnty, OH, US",2025-09-12T21:35:00Z,2025-09-12 21:35:00,VFR,25.9,8.1,90,3,0,NA,1022.1,METAR KPOV 122135Z AUTO 09003KT 10SM CLR 26/08 A3018 RMK AO2 T02590081 PWINO,2025-09-12T21:45:29Z,2025-09-12T17:45:29Z,Portage County Regional Airport,41.210201,-81.251602,US,US-OH
KPOY,"Powell Muni, WY, US",2025-09-12T21:35:00Z,2025-09-12 15:35:00,VFR,23,2,110,5,0,NA,1017,METAR KPOY 122135Z AUTO 11005KT 10SM CLR 23/02 A3003 RMK AO2,2025-09-12T21:45:28Z,2025-09-12T17:45:28Z,Powell Municipal Airport,44.867198944092,-108.79299926758,US,US-WY
KPPA,"Pampa/Lefors Fld, TX, US",2025-09-12T21:35:00Z,2025-09-12 16:35:00,VFR,34,11,190,19,22,NA,1019.4,METAR KPPA 122135Z AUTO 19019G22KT 10SM CLR 34/11 A3010 RMK AO2 T03400110,2025-09-12T21:45:29Z,2025-09-12T17:45:29Z,Perry Lefors Field,35.612998962402,-100.99600219727,US,US-TX
KPPF,"Parsons/Tri City Arpt, KS, US",2025-09-12T20:52:00Z,2025-09-12 15:52:00,VFR,32.8,20.6,210,9,0,NA,1017.7,METAR KPPF 122052Z AUTO 21009KT 10SM CLR 33/21 A3005 RMK AO2 SLP166 T03280206 58017 PWINO,2025-09-12T21:45:29Z,2025-09-12T17:45:29Z,Tri-City Airport,37.32989883,-95.5062027,US,US-KS
KPPF,"Parsons/Tri City Arpt, KS, US",2025-09-12T21:52:00Z,2025-09-12 16:52:00,VFR,32.8,20.6,220,10,17,NA,1017.4,METAR KPPF 122152Z AUTO 22010G17KT 10SM CLR 33/21 A3004 RMK AO2 SLP162 T03280206 PWINO,2025-09-12T21:56:09Z,2025-09-12T17:56:09Z,Tri-City Airport,37.32989883,-95.5062027,US,US-KS
KPPO,"La Porte Muni, IN, US",2025-09-12T21:35:00Z,2025-09-12 16:35:00,VFR,28,13,110,3,0,NA,1021.1,METAR KPPO 122135Z AUTO 11003KT 10SM CLR 28/13 A3015 RMK AO2,2025-09-12T21:45:29Z,2025-09-12T17:45:29Z,La Porte Municipal Airport,41.5724983215,-86.73449707030001,US,US-IN
KPPQ,"Pittsfield/Penstone Muni, IL, US",2025-09-12T21:35:00Z,2025-09-12 21:35:00,VFR,32.5,16.8,170,4,0,NA,1018.4,METAR KPPQ 122135Z AUTO 17004KT 10SM CLR 33/17 A3007 RMK AO2 T03250168,2025-09-12T21:45:29Z,2025-09-12T17:45:29Z,Pittsfield Penstone Municipal Airport,39.638901,-90.778397,US,US-IL
KPQI,"Presque Isle Intl, ME, US",2025-09-12T20:56:00Z,2025-09-12 16:56:00,VFR,18.9,5.6,330,5,0,NA,1022.4,METAR KPQI 122056Z AUTO 33005KT 10SM CLR 19/06 A3019 RMK AO2 SLP250 T01890056 55005,2025-09-12T21:45:29Z,2025-09-12T17:45:29Z,Presque Isle International Airport,46.688999,-68.0448,US,US-ME
KPQL,"Pascagoula/Lott Intl, MS, US",2025-09-12T20:53:00Z,2025-09-12 15:53:00,VFR,31.7,20.6,190,4,0,NA,1016.7,METAR KPQL 122053Z AUTO 19004KT 10SM CLR 32/21 A3002 RMK AO2 SLP167 T03170206 56016,2025-09-12T21:45:29Z,2025-09-12T17:45:29Z,Trent Lott International Airport,30.462799072266,-88.529197692871,US,US-MS
KPQL,"Pascagoula/Lott Intl, MS, US",2025-09-12T21:53:00Z,2025-09-12 16:53:00,VFR,30,21.1,180,3,0,NA,1016.7,METAR KPQL 122153Z AUTO 18003KT 10SM FEW065 SCT080 30/21 A3002 RMK AO2 SLP167 T03000211,2025-09-12T21:56:09Z,2025-09-12T17:56:09Z,Trent Lott International Airport,30.462799072266,-88.529197692871,US,US-MS
KPRB,"Paso Robles Muni, CA, US",2025-09-12T20:53:00Z,2025-09-12 13:53:00,VFR,27.2,10,VAR,3,0,NA,1014.6,METAR KPRB 122053Z AUTO VRB03KT 10SM CLR 27/10 A2996 RMK AO2 SLP137 T02720100 58027,2025-09-12T21:45:29Z,2025-09-12T17:45:29Z,Paso Robles Municipal Airport,35.67290115,-120.6269989,US,US-CA
KPRB,"Paso Robles Muni, CA, US",2025-09-12T21:53:00Z,2025-09-12 14:53:00,VFR,28.3,10,0,0,0,NA,1013.6,METAR KPRB 122153Z AUTO 00000KT 10SM CLR 28/10 A2993 RMK AO2 SLP127 T02830100,2025-09-12T21:56:08Z,2025-09-12T17:56:08Z,Paso Robles Municipal Airport,35.67290115,-120.6269989,US,US-CA
KPRC,"Prescott/Love Fld, AZ, US",2025-09-12T20:53:00Z,2025-09-12 13:53:00,VFR,27.2,-0.6,190,16,26,NA,1017.7,METAR KPRC 122053Z 19016G26KT 10SM CLR 27/M01 A3005 RMK AO2 PK WND 21029/2043 SLP096 T02721006 56018,2025-09-12T21:45:29Z,2025-09-12T17:45:29Z,Prescott International Airport - Ernest A. Love Field,34.654499,-112.419998,US,US-AZ
KPRC,"Prescott/Love Fld, AZ, US",2025-09-12T21:53:00Z,2025-09-12 14:53:00,VFR,26.7,-3.3,190,18,29,NA,1017,METAR KPRC 122153Z 19018G29KT 10SM CLR 27/M03 A3003 RMK AO2 PK WND 17029/2148 SLP093 T02671033,2025-09-12T21:56:09Z,2025-09-12T17:56:09Z,Prescott International Airport - Ernest A. Love Field,34.654499,-112.419998,US,US-AZ
KPRN,"Greenville/Crenshaw Mem, AL, US",2025-09-12T21:00:00Z,2025-09-12 21:00:00,VFR,32.2,15.6,70,9,20,NA,1017,METAR KPRN 122100Z AUTO 07009G20KT 10SM BKN070 BKN100 32/16 A3003 RMK AO2 SLP114 T03220156 58020,2025-09-12T21:45:29Z,2025-09-12T17:45:29Z,Mac Crenshaw Memorial Airport,31.845699,-86.610703,US,US-AL
KPRO,"Perry Muni, IA, US",2025-09-12T21:35:00Z,2025-09-12 16:35:00,VFR,28.8,19.7,160,10,18,NA,1012.6,METAR KPRO 122135Z AUTO 16010G18KT 10SM BKN180 OVC210 29/20 A2990 RMK AO2 T02880197,2025-09-12T21:45:29Z,2025-09-12T17:45:29Z,Perry Municipal Airport,41.82799911,-94.15989685,US,US-IA
KPRS,"Presidio/Lely Intl, TX, US",2025-09-12T21:35:00Z,2025-09-12 21:35:00,VFR,35.5,12.8,70,7,16,NA,1016,METAR KPRS 122135Z AUTO 07007G16KT 10SM SCT090 36/13 A3000 RMK AO2 LTG DSNT SW T03550128,2025-09-12T21:45:29Z,2025-09-12T17:45:29Z,Presidio Lely International Airport,29.634212,-104.361493,US,US-TX
KPRX,"Paris/Cox Fld, TX, US",2025-09-12T20:56:00Z,2025-09-12 15:56:00,VFR,35,18.9,VAR,4,0,NA,1018.4,METAR KPRX 122056Z AUTO VRB04KT 10SM SCT065 35/19 A3007 RMK AO2 SLP178 T03500189 58020,2025-09-12T21:45:29Z,2025-09-12T17:45:29Z,Cox Field,33.636600494385,-95.450798034668,US,US-TX
KPSC,"Pasco/Tri Cities Arpt, WA, US",2025-09-12T20:53:00Z,2025-09-12 13:53:00,VFR,26.7,12.2,VAR,5,0,NA,1013.6,METAR KPSC 122053Z VRB05KT 10SM CLR 27/12 A2993 RMK AO2 SLP132 T02670122 58020,2025-09-12T21:45:29Z,2025-09-12T17:45:29Z,Tri Cities Airport,46.264702,-119.119003,US,US-WA
KPSC,"Pasco/Tri Cities Arpt, WA, US",2025-09-12T21:53:00Z,2025-09-12 14:53:00,VFR,28.3,12.2,260,5,0,NA,1013,METAR KPSC 122153Z 26005KT 10SM CLR 28/12 A2991 RMK AO2 SLP125 T02830122,2025-09-12T21:56:08Z,2025-09-12T17:56:08Z,Tri Cities Airport,46.264702,-119.119003,US,US-WA
KPSF,"Pittsfield Muni, MA, US",2025-09-12T20:54:00Z,2025-09-12 16:54:00,VFR,22.2,5.6,320,5,0,NA,1022.1,METAR KPSF 122054Z AUTO 32005KT 10SM CLR 22/06 A3018 RMK AO2 SLP203 T02220056 56011,2025-09-12T21:45:29Z,2025-09-12T17:45:29Z,Pittsfield Municipal Airport,42.4268,-73.2929,US,US-MA
KPSK,"Dublin/New River Valley Arpt, VA, US",2025-09-12T21:35:00Z,2025-09-12 17:35:00,VFR,23.5,9.6,10,4,0,NA,1022.4,METAR KPSK 122135Z AUTO 01004KT 10SM SCT070 BKN075 24/10 A3019 RMK AO2 T02350096,2025-09-12T21:45:29Z,2025-09-12T17:45:29Z,New River Valley Airport,37.137298583984,-80.678497314453,US,US-VA
KPSK,"Dublin/New River Valley Arpt, VA, US",2025-09-12T21:55:00Z,2025-09-12 17:55:00,VFR,22.8,11,0,0,0,NA,1022.4,METAR KPSK 122155Z AUTO 00000KT 10SM SCT065 SCT075 23/11 A3019 RMK AO2 T02280110,2025-09-12T21:56:08Z,2025-09-12T17:56:08Z,New River Valley Airport,37.137298583984,-80.678497314453,US,US-VA
KPSM,"Portsmouth Intl, NH, US",2025-09-12T20:55:00Z,2025-09-12 16:55:00,VFR,18.4,8.6,130,9,0,NA,1022.4,METAR KPSM 122055Z 13009KT 10SM FEW050 18/09 A3019 RMK AO2A SLP226 T01840086 56010,2025-09-12T21:45:29Z,2025-09-12T17:45:29Z,Portsmouth International at Pease Airport,43.0778999329,-70.8233032227,US,US-NH
KPSN,"Palestine Muni, TX, US",2025-09-12T21:35:00Z,2025-09-12 16:35:00,VFR,34,19,0,0,0,NA,1017.7,METAR KPSN 122135Z AUTO 00000KT 10SM CLR 34/19 A3005 RMK AO2,2025-09-12T21:45:29Z,2025-09-12T17:45:29Z,Palestine Municipal Airport,31.779699325562,-95.706298828125,US,US-TX
KPSO,"Pagosa Springs/Stevens Fld, CO, US",2025-09-12T21:35:00Z,2025-09-12 15:35:00,IFR,12,10,210,9,24,1.5,1028.5,METAR KPSO 122135Z AUTO 21009G24KT 1 1/2SM VCTS RA BR SCT039 SCT045 BKN060 12/10 A3037 RMK AO2 LTG DSNT ALQDS PRESRR,2025-09-12T21:45:29Z,2025-09-12T17:45:29Z,Stevens Field,37.28630066,-107.0559998,US,US-CO
KPSP,"Palm Springs Intl, CA, US",2025-09-12T20:53:00Z,2025-09-12 13:53:00,VFR,33.9,8.3,320,13,25,NA,1008.9,METAR KPSP 122053Z 32013G25KT 10SM CLR 34/08 A2979 RMK AO2 SLP085 T03390083 58024 $,2025-09-12T21:45:29Z,2025-09-12T17:45:29Z,Palm Springs International Airport,33.8297,-116.507004,US,US-CA
KPSP,"Palm Springs Intl, CA, US",2025-09-12T21:53:00Z,2025-09-12 14:53:00,VFR,34.4,8.9,320,17,22,NA,1008.5,METAR KPSP 122153Z 32017G22KT 10SM CLR 34/09 A2978 RMK AO2 SLP081 T03440089 $,2025-09-12T21:56:08Z,2025-09-12T17:56:08Z,Palm Springs International Airport,33.8297,-116.507004,US,US-CA
KPSX,"Palacios Muni, TX, US",2025-09-12T20:53:00Z,2025-09-12 15:53:00,VFR,32.2,20.6,110,13,20,NA,1017,METAR KPSX 122053Z AUTO 11013G20KT 10SM FEW044 32/21 A3003 RMK AO2 SLP168 60000 T03220206 58018,2025-09-12T21:45:29Z,2025-09-12T17:45:29Z,Palacios Municipal Airport,28.727500915527,-96.250999450684,US,US-TX
KPSX,"Palacios Muni, TX, US",2025-09-12T21:53:00Z,2025-09-12 16:53:00,VFR,31.7,20.6,110,13,21,NA,1017,METAR KPSX 122153Z AUTO 11013G21KT 10SM CLR 32/21 A3003 RMK AO2 SLP167 T03170206,2025-09-12T21:56:08Z,2025-09-12T17:56:08Z,Palacios Municipal Airport,28.727500915527,-96.250999450684,US,US-TX
KPTB,"Petersburg/Dinwiddie Cnty, VA, US",2025-09-12T21:35:00Z,2025-09-12 17:35:00,VFR,26.2,11.7,50,4,0,NA,1020.7,METAR KPTB 122135Z AUTO 05004KT 10SM SCT060 26/12 A3014 RMK AO2 T02620117,2025-09-12T21:45:29Z,2025-09-12T17:45:29Z,Dinwiddie County Airport,37.183799743652,-77.507400512695,US,US-VA
KPTD,"Potsdam Muni, NY, US",2025-09-12T21:35:00Z,2025-09-12 21:35:00,VFR,21,8,290,4,0,NA,1022.4,METAR KPTD 122135Z AUTO 29004KT 10SM CLR 21/08 A3019 RMK AO2 PNO,2025-09-12T21:45:29Z,2025-09-12T17:45:29Z,Potsdam Municipal Airport Damon Field,44.67657,-74.948583,US,US-NY
KPTK,"Pontiac/Oakland Intl, MI, US",2025-09-12T20:53:00Z,2025-09-12 16:53:00,VFR,26.7,8.9,160,4,0,NA,1022.1,METAR KPTK 122053Z 16004KT 10SM SCT065 SCT250 27/09 A3018 RMK AO2 SLP216 T02670089 58018,2025-09-12T21:45:29Z,2025-09-12T17:45:29Z,Oakland County International Airport,42.665500640869,-83.420097351074,US,US-MI
KPTK,"Pontiac/Oakland Intl, MI, US",2025-09-12T21:53:00Z,2025-09-12 17:53:00,VFR,26.1,8.9,160,5,0,NA,1022.1,METAR KPTK 122153Z 16005KT 10SM SCT070 SCT250 26/09 A3018 RMK AO2 SLP217 T02610089,2025-09-12T21:56:09Z,2025-09-12T17:56:09Z,Oakland County International Airport,42.665500640869,-83.420097351074,US,US-MI
KPTN,"Patterson/Williams Mem, LA, US",2025-09-12T20:56:00Z,2025-09-12 15:56:00,VFR,32.8,18.9,50,5,0,7,1017.7,METAR KPTN 122056Z AUTO 05005KT 7SM CLR 33/19 A3005 RMK AO2 SLP177 T03280189 56017 $,2025-09-12T21:45:29Z,2025-09-12T17:45:29Z,Harry P Williams Memorial Airport,29.709499359131,-91.338996887207,US,US-LA
KPTS,"Pittsburg/Atkinson Muni, KS, US",2025-09-12T21:35:00Z,2025-09-12 21:35:00,VFR,34,20,210,7,0,NA,1017.4,METAR KPTS 122135Z AUTO 21007KT 10SM CLR 34/20 A3004 RMK AO2,2025-09-12T21:45:29Z,2025-09-12T17:45:29Z,Atkinson Municipal Airport,37.449501,-94.731102,US,US-KS
KPTT,"Pratt Rgnl, KS, US",2025-09-12T21:35:00Z,2025-09-12 16:35:00,VFR,33.7,15.4,190,15,19,NA,1016.7,METAR KPTT 122135Z AUTO 19015G19KT 10SM CLR 34/15 A3002 RMK AO2 T03370154,2025-09-12T21:45:29Z,2025-09-12T17:45:29Z,Pratt Regional Airport,37.70159912,-98.74690247,US,US-KS
KPTV,"Porterville Muni, CA, US",2025-09-12T20:56:00Z,2025-09-12 13:56:00,VFR,29.4,14.4,290,7,0,NA,1013.3,METAR KPTV 122056Z AUTO 29007KT 250V330 10SM CLR 29/14 A2992 RMK AO2 SLP128 T02940144 58023 $,2025-09-12T21:45:29Z,2025-09-12T17:45:29Z,Porterville Municipal Airport,36.029598236084,-119.06300354004,US,US-CA
KPTW,"Pottstown/Heritage Fld, PA, US",2025-09-12T20:54:00Z,2025-09-12 16:54:00,VFR,25,12.2,0,0,0,NA,1022.1,METAR KPTW 122054Z AUTO 00000KT 10SM SCT090 25/12 A3018 RMK AO2 SLP217 T02500122 56008,2025-09-12T21:45:29Z,2025-09-12T17:45:29Z,Heritage Field,40.239601,-75.556702,US,US-PA
KPUB,"Pueblo Mem Arpt, CO, US",2025-09-12T20:53:00Z,2025-09-12 14:53:00,VFR,30,7.2,260,4,0,NA,1017,METAR KPUB 122053Z AUTO 26004KT 10SM BKN110 30/07 A3003 RMK AO2 SLP100 T03000072 56021,2025-09-12T21:45:29Z,2025-09-12T17:45:29Z,Pueblo Memorial Airport,38.289101,-104.497002,US,US-CO
KPUB,"Pueblo Mem Arpt, CO, US",2025-09-12T21:53:00Z,2025-09-12 15:53:00,VFR,30.6,7.8,310,15,21,NA,1016.3,METAR KPUB 122153Z 31015G21KT 10SM SCT110 31/08 A3001 RMK AO2 SLP094 T03060078,2025-09-12T21:56:08Z,2025-09-12T17:56:08Z,Pueblo Memorial Airport,38.289101,-104.497002,US,US-CO
KPUC,"Price/Buck Fld, UT, US",2025-09-12T21:34:00Z,2025-09-12 15:34:00,VFR,15.6,7.8,30,11,21,NA,1017.7,SPECI KPUC 122134Z AUTO 03011G21KT 10SM TS FEW048 BKN090 BKN120 16/08 A3005 RMK AO2 PK WND 30032/2059 WSHFT 2109 LTG DSNT NE TSB2054E25B28 T01560078,2025-09-12T21:45:29Z,2025-09-12T17:45:29Z,Carbon County Regional Airport / Buck Davis Field,39.613899,-110.751,US,US-UT
KPUC,"Price/Buck Fld, UT, US",2025-09-12T21:53:00Z,2025-09-12 15:53:00,VFR,17.2,8.9,70,17,24,NA,1017.4,METAR KPUC 122153Z AUTO 07017G24KT 10SM VCTS BKN085 17/09 A3004 RMK AO2 PK WND 30032/2059 WSHFT 2109 LTG DSNT NE TSB2054E25B28E46 SLP130 T01720089,2025-09-12T21:56:09Z,2025-09-12T17:56:09Z,Carbon County Regional Airport / Buck Davis Field,39.613899,-110.751,US,US-UT
KPUJ,"Dallas/Paulding Cnty, GA, US",2025-09-12T21:35:00Z,2025-09-12 21:35:00,VFR,29,13,0,0,0,NA,1019.7,METAR KPUJ 122135Z AUTO 00000KT 10SM CLR 29/13 A3011 RMK AO2,2025-09-12T21:45:29Z,2025-09-12T17:45:29Z,Silver Comet Field at Paulding Northwest Atlanta Airport,33.913306,-84.942083,US,US-GA
KPUW,"Pullman/Moscow Rgnl, WA, US",2025-09-12T20:53:00Z,2025-09-12 13:53:00,VFR,21.1,11.7,140,4,0,NA,1017.4,METAR KPUW 122053Z AUTO 14004KT 10SM CLR 21/12 A3004 RMK AO2 SLP163 T02110117 58013,2025-09-12T21:45:29Z,2025-09-12T17:45:29Z,Pullman-Moscow Regional Airport,46.741601,-117.11163,US,US-WA
KPUW,"Pullman/Moscow Rgnl, WA, US",2025-09-12T21:53:00Z,2025-09-12 14:53:00,VFR,22.2,10,150,4,0,NA,1016.7,METAR KPUW 122153Z AUTO 15004KT 10SM CLR 22/10 A3002 RMK AO2 SLP156 T02220100,2025-09-12T21:56:09Z,2025-09-12T17:56:09Z,Pullman-Moscow Regional Airport,46.741601,-117.11163,US,US-WA
KPVB,"Platteville Muni, WI, US",2025-09-12T21:35:00Z,2025-09-12 21:35:00,VFR,28,14.9,150,9,0,NA,1019,METAR KPVB 122135Z AUTO 15009KT 10SM CLR 28/15 A3009 RMK AO1 T02800149,2025-09-12T21:45:29Z,2025-09-12T17:45:29Z,Platteville Municipal Airport,42.6894,-90.444397,US,US-WI
KPVC,"Provincetown Muni, MA, US",2025-09-12T20:56:00Z,2025-09-12 16:56:00,VFR,19.4,12.8,70,6,0,NA,1023.5,METAR KPVC 122056Z AUTO 07006KT 10SM CLR 19/13 A3022 RMK AO2 SLP233 6//// T01940128 56004 PNO $,2025-09-12T21:45:29Z,2025-09-12T17:45:29Z,Provincetown Municipal Airport,42.0718994141,-70.2213973999,US,US-MA
KPVD,"Providence/Green Mem, RI, US",2025-09-12T20:51:00Z,2025-09-12 16:51:00,VFR,21.7,13.3,170,12,0,NA,1022.4,METAR KPVD 122051Z 17012KT 10SM BKN060 22/13 A3019 RMK AO2 SLP222 T02170133 55006,2025-09-12T21:45:29Z,2025-09-12T17:45:29Z,Theodore Francis Green State Airport,41.725038,-71.425668,US,US-RI
KPVD,"Providence/Green Mem, RI, US",2025-09-12T21:51:00Z,2025-09-12 17:51:00,VFR,20.6,13.3,170,7,0,NA,1022.4,METAR KPVD 122151Z 17007KT 10SM FEW043 BKN065 21/13 A3019 RMK AO2 SLP225 T02060133,2025-09-12T21:56:09Z,2025-09-12T17:56:09Z,Theodore Francis Green State Airport,41.725038,-71.425668,US,US-RI
KPVF,"Placerville Arpt, CA, US",2025-09-12T21:35:00Z,2025-09-12 14:35:00,VFR,25,9,240,5,0,NA,1016,METAR KPVF 122135Z AUTO 24005KT 10SM CLR 25/09 A3000 RMK AO1,2025-09-12T21:45:29Z,2025-09-12T17:45:29Z,Placerville Airport,38.724201202393,-120.75299835205,US,US-CA
KPVG,"Portsmouth/Hampton Roads Exec, VA, US",2025-09-12T20:56:00Z,2025-09-12 20:56:00,VFR,25.6,12.2,50,7,0,NA,1020.7,METAR KPVG 122056Z AUTO 05007KT 10SM CLR 26/12 A3014 RMK AO2 SLP209 T02560122 55006 $,2025-09-12T21:45:29Z,2025-09-12T17:45:29Z,Hampton Roads Executive Airport,36.780391,-76.44881,US,US-VA
KPVJ,"Pauls Valley Muni, OK, US",2025-09-12T21:35:00Z,2025-09-12 21:35:00,VFR,33.6,17.4,160,6,0,NA,1018.7,METAR KPVJ 122135Z AUTO 16006KT 10SM CLR 34/17 A3008 RMK AO2 T03360174,2025-09-12T21:45:29Z,2025-09-12T17:45:29Z,Pauls Valley Municipal Airport,34.71110153,-97.22319794,US,US-OK
KPVU,"Provo Muni, UT, US",2025-09-12T20:56:00Z,2025-09-12 14:56:00,NA,26.7,1.7,VAR,6,0,NA,1014.6,METAR KPVU 122056Z VRB06KT 10SM 27/02 A2996 RMK AO2 SLP096 T02670017 58016 $,2025-09-12T21:45:29Z,2025-09-12T17:45:29Z,Provo-Utah Lake International Airport,40.2192,-111.723,US,US-UT
KPVW,"Plainview/Hale Cnty, TX, US",2025-09-12T21:35:00Z,2025-09-12 16:35:00,VFR,30.1,12.3,180,16,22,NA,1019.7,METAR KPVW 122135Z AUTO 18016G22KT 10SM CLR 30/12 A3011 RMK AO2 T03010123,2025-09-12T21:45:28Z,2025-09-12T17:45:28Z,Hale County Airport,34.168098,-101.717003,US,US-TX
KPWA,"Oklahoma City/Wiley Post Arpt, OK, US",2025-09-12T20:53:00Z,2025-09-12 15:53:00,VFR,33.3,17.8,180,12,19,NA,1018,METAR KPWA 122053Z 18012G19KT 10SM CLR 33/18 A3006 RMK AO2 SLP161 T03330178 58017,2025-09-12T21:45:29Z,2025-09-12T17:45:29Z,Wiley Post Airport,35.53419876,-97.64710236,US,US-OK
KPWA,"Oklahoma City/Wiley Post Arpt, OK, US",2025-09-12T21:53:00Z,2025-09-12 16:53:00,VFR,32.8,17.8,180,9,0,NA,1017.4,METAR KPWA 122153Z 18009KT 10SM CLR 33/18 A3004 RMK AO2 SLP154 T03280178,2025-09-12T21:56:08Z,2025-09-12T17:56:08Z,Wiley Post Airport,35.53419876,-97.64710236,US,US-OK
KPWC,"Pine River Rgnl, MN, US",2025-09-12T21:35:00Z,2025-09-12 21:35:00,VFR,19,17,90,3,0,NA,1016.3,METAR KPWC 122135Z AUTO 09003KT 10SM CLR 19/17 A3001 RMK AO2 LTG DSNT SE,2025-09-12T21:45:29Z,2025-09-12T17:45:29Z,Pine River Regional Airport,46.72480010986328,-94.38169860839844,US,US-MN
KPWD,"Plentywood/Sher-Wood Arpt, MT, US",2025-09-12T21:35:00Z,2025-09-12 15:35:00,VFR,21,19,80,11,0,8,1013.3,METAR KPWD 122135Z AUTO 08011KT 8SM VCTS CLR 21/19 A2992 RMK AO2 LTG DSNT W-N,2025-09-12T21:45:29Z,2025-09-12T17:45:29Z,Sher-Wood Airport,48.790298461914,-104.53399658203,US,US-MT
KPWG,"Mc Gregor Exec, TX, US",2025-09-12T20:56:00Z,2025-09-12 20:56:00,VFR,35,19.4,180,7,0,NA,1018.4,METAR KPWG 122056Z AUTO 18007KT 10SM SCT060 35/19 A3007 RMK AO2 SLP174 T03500194 56022,2025-09-12T21:45:29Z,2025-09-12T17:45:29Z,McGregor Executive Airport,31.48489952,-97.3164978,US,US-TX
KPWK,"Chicago Exec, IL, US",2025-09-12T20:52:00Z,2025-09-12 15:52:00,VFR,28.9,11.1,200,8,0,NA,1020.4,METAR KPWK 122052Z 20008KT 10SM CLR 29/11 A3013 RMK AO2 SLP198 T02890111 58025,2025-09-12T21:45:29Z,2025-09-12T17:45:29Z,Chicago Executive Airport,42.114222,-87.901494,US,US-IL
KPWK,"Chicago Exec, IL, US",2025-09-12T21:52:00Z,2025-09-12 16:52:00,VFR,28.3,12.8,120,6,0,NA,1020.4,METAR KPWK 122152Z 12006KT 10SM CLR 28/13 A3013 RMK AO2 SLP200 T02830128,2025-09-12T21:56:09Z,2025-09-12T17:56:09Z,Chicago Executive Airport,42.114222,-87.901494,US,US-IL
KPWM,"Portland Intl, ME, US",2025-09-12T20:51:00Z,2025-09-12 16:51:00,VFR,18.3,8.9,190,8,0,NA,1022.8,METAR KPWM 122051Z 19008KT 10SM CLR 18/09 A3020 RMK AO2 SLP225 T01830089 56009 $,2025-09-12T21:45:29Z,2025-09-12T17:45:29Z,Portland International Jetport,43.646198,-70.309303,US,US-ME
KPWM,"Portland Intl, ME, US",2025-09-12T21:51:00Z,2025-09-12 17:51:00,VFR,17.8,9.4,210,7,0,NA,1022.4,METAR KPWM 122151Z 21007KT 10SM CLR 18/09 A3019 RMK AO2 SLP224 T01780094 $,2025-09-12T21:56:09Z,2025-09-12T17:56:09Z,Portland International Jetport,43.646198,-70.309303,US,US-ME
KPWT,"Bremerton Arpt, WA, US",2025-09-12T20:56:00Z,2025-09-12 13:56:00,MVFR,20,13.3,VAR,3,0,NA,1018,METAR KPWT 122056Z AUTO VRB03KT 10SM OVC030 20/13 A3006 RMK AO2 SLP182 T02000133 58012,2025-09-12T21:45:29Z,2025-09-12T17:45:29Z,Bremerton National Airport,47.490200042725,-122.76499938965,US,US-WA
KPYM,"Plymouth Muni, MA, US",2025-09-12T20:52:00Z,2025-09-12 16:52:00,VFR,18.9,12.8,50,9,0,NA,1022.8,METAR KPYM 122052Z AUTO 05009KT 10SM CLR 19/13 A3020 RMK AO2 SLP229 T01890128 56005,2025-09-12T21:45:29Z,2025-09-12T17:45:29Z,Plymouth Municipal Airport,41.909,-70.728798,US,US-MA
KPYM,"Plymouth Muni, MA, US",2025-09-12T21:52:00Z,2025-09-12 17:52:00,VFR,18.3,11.7,100,7,0,NA,1022.8,METAR KPYM 122152Z AUTO 10007KT 10SM CLR 18/12 A3020 RMK AO2 SLP229 T01830117,2025-09-12T21:56:09Z,2025-09-12T17:56:09Z,Plymouth Municipal Airport,41.909,-70.728798,US,US-MA
KPYX,"Perryton/Ochiltree Cnty, TX, US",2025-09-12T21:35:00Z,2025-09-12 21:35:00,NA,32.9,10,170,18,25,NA,1017.7,METAR KPYX 122135Z AUTO 17018G25KT 10SM 33/10 A3005 RMK AO2 T03290100,2025-09-12T21:45:29Z,2025-09-12T17:45:29Z,Perryton Ochiltree County Airport,36.412899017333984,-100.7519989013672,US,US-TX
KPZQ,"Rogers City/Presque Isle Arpt, MI, US",2025-09-12T21:35:00Z,2025-09-12 21:35:00,VFR,20,16,60,2,0,NA,1021.4,METAR KPZQ 122135Z AUTO 06002KT 10SM CLR 20/16 A3016 RMK AO2,2025-09-12T21:45:29Z,2025-09-12T17:45:29Z,Presque Isle County Airport,45.407101,-83.812897,US,US-MI
KRAC,"Racine/Batten Intl, WI, US",2025-09-12T20:53:00Z,2025-09-12 15:53:00,VFR,22.8,17.8,120,7,0,NA,1021.4,METAR KRAC 122053Z AUTO 12007KT 10SM CLR 23/18 A3016 RMK AO2 SLP210 T02280178 56023,2025-09-12T21:45:29Z,2025-09-12T17:45:29Z,John H Batten Airport,42.7606010437,-87.8152008057,US,US-WI
KRAC,"Racine/Batten Intl, WI, US",2025-09-12T21:53:00Z,2025-09-12 16:53:00,VFR,22.8,15.6,150,6,0,NA,1021.1,METAR KRAC 122153Z AUTO 15006KT 10SM CLR 23/16 A3015 RMK AO2 SLP210 T02280156,2025-09-12T21:56:08Z,2025-09-12T17:56:08Z,John H Batten Airport,42.7606010437,-87.8152008057,US,US-WI
KRAL,"Riverside Muni, CA, US",2025-09-12T20:53:00Z,2025-09-12 13:53:00,VFR,25.6,13.9,VAR,4,0,NA,1012.6,METAR KRAL 122053Z VRB04KT 10SM CLR 26/14 A2990 RMK AO2 SLP111 T02560139 58026 $,2025-09-12T21:45:29Z,2025-09-12T17:45:29Z,Riverside Municipal Airport,33.9519,-117.445,US,US-CA
KRAL,"Riverside Muni, CA, US",2025-09-12T21:53:00Z,2025-09-12 14:53:00,VFR,27.2,12.8,240,6,0,NA,1011.9,METAR KRAL 122153Z 24006KT 10SM CLR 27/13 A2988 RMK AO2 SLP104 T02720128 $,2025-09-12T21:56:08Z,2025-09-12T17:56:08Z,Riverside Municipal Airport,33.9519,-117.445,US,US-CA
KRAP,"Rapid City Rgnl, SD, US",2025-09-12T20:52:00Z,2025-09-12 14:52:00,VFR,32.2,10,350,9,17,NA,1013.6,METAR KRAP 122052Z 35009G17KT 10SM CLR 32/10 A2993 RMK AO2 LTG DSNT W SLP103 T03220100 58011,2025-09-12T21:45:29Z,2025-09-12T17:45:29Z,Rapid City Regional Airport,44.0452995300293,-103.05699920654295,US,US-SD
KRAP,"Rapid City Rgnl, SD, US",2025-09-12T21:52:00Z,2025-09-12 15:52:00,VFR,31.7,9.4,360,10,0,NA,1013.3,METAR KRAP 122152Z 36010KT 10SM CLR 32/09 A2992 RMK AO2 SLP100 T03170094,2025-09-12T21:56:09Z,2025-09-12T17:56:09Z,Rapid City Regional Airport,44.0452995300293,-103.05699920654295,US,US-SD
KRAS,"Port Aransas/Mustang Beach Arpt, TX, US",2025-09-12T21:35:00Z,2025-09-12 21:35:00,NA,NA,NA,90,13,18,NA,1017,METAR KRAS 122135Z AUTO 09013G18KT A3003 RMK AO2 PWINO,2025-09-12T21:45:29Z,2025-09-12T17:45:29Z,Mustang Beach Airport,27.8118,-97.088799,US,US-TX
KRAW,"Warsaw Muni, MO, US",2025-09-12T21:35:00Z,2025-09-12 21:35:00,VFR,34.7,14.8,220,9,0,NA,1017.7,METAR KRAW 122135Z AUTO 22009KT 10SM CLR 35/15 A3005 RMK AO2 T03470148,2025-09-12T21:45:29Z,2025-09-12T17:45:29Z,Warsaw Municipal Airport,38.346901,-93.345398,US,US-MO
KRBD,"Dallas/Executive Arpt, TX, US",2025-09-12T20:53:00Z,2025-09-12 15:53:00,VFR,33.9,17.8,VAR,NA,0,NA,1018,METAR KRBD 122053Z 10SM FEW065 34/18 A3006 RMK AO2 SLP169 T03390178 56021,2025-09-12T21:45:29Z,2025-09-12T17:45:29Z,Dallas Executive Airport,32.6809005737,-96.8682022095,US,US-TX
KRBD,"Dallas/Executive Arpt, TX, US",2025-09-12T21:53:00Z,2025-09-12 16:53:00,VFR,33.9,17.2,VAR,5,0,NA,1017.4,METAR KRBD 122153Z VRB05KT 10SM SCT070 34/17 A3004 RMK AO2 SLP165 T03390172,2025-09-12T21:56:08Z,2025-09-12T17:56:08Z,Dallas Executive Airport,32.6809005737,-96.8682022095,US,US-TX
KRBG,"Roseburg Rgnl, OR, US",2025-09-12T20:53:00Z,2025-09-12 13:53:00,VFR,20.6,13.3,VAR,3,0,NA,1016.7,METAR KRBG 122053Z AUTO VRB03KT 10SM CLR 21/13 A3002 RMK AO2 SLP163 T02060133 58020,2025-09-12T21:45:29Z,2025-09-12T17:45:29Z,Roseburg Regional Airport,43.238800048799995,-123.356002808,US,US-OR
KRBG,"Roseburg Rgnl, OR, US",2025-09-12T21:53:00Z,2025-09-12 14:53:00,VFR,23.3,13.3,30,6,0,NA,1015.7,METAR KRBG 122153Z AUTO 03006KT 10SM CLR 23/13 A2999 RMK AO2 SLP154 T02330133,2025-09-12T21:56:09Z,2025-09-12T17:56:09Z,Roseburg Regional Airport,43.238800048799995,-123.356002808,US,US-OR
KRBL,"Red Bluff Muni, CA, US",2025-09-12T20:54:00Z,2025-09-12 13:54:00,VFR,31.1,10.6,VAR,4,0,NA,1011.9,METAR KRBL 122054Z AUTO VRB04KT 10SM CLR 31/11 A2988 RMK AO2 SLP112 T03110106 56018,2025-09-12T21:45:29Z,2025-09-12T17:45:29Z,Red Bluff Municipal Airport,40.1506996155,-122.251998901,US,US-CA
KRBL,"Red Bluff Muni, CA, US",2025-09-12T21:54:00Z,2025-09-12 14:54:00,VFR,32.2,8.9,VAR,NA,0,NA,1010.9,METAR KRBL 122154Z AUTO 10SM CLR 32/09 A2985 RMK AO2 SLP105 T03220089,2025-09-12T21:56:08Z,2025-09-12T17:56:08Z,Red Bluff Municipal Airport,40.1506996155,-122.251998901,US,US-CA
KRBO,"Robstown/Nueces Cnty, TX, US",2025-09-12T21:35:00Z,2025-09-12 21:35:00,VFR,31.2,23,110,13,16,NA,1016.3,METAR KRBO 122135Z AUTO 11013G16KT 10SM SCT034 SCT048 BKN060 31/23 A3001 RMK AO2 T03120230,2025-09-12T21:45:28Z,2025-09-12T17:45:28Z,Nueces County Airport,27.778103,-97.690098,US,US-TX
KRBW,"Walterboro/Lowcountry Rgnl, SC, US",2025-09-12T21:35:00Z,2025-09-12 17:35:00,VFR,28,14,350,8,0,NA,1018,METAR KRBW 122135Z AUTO 35008KT 10SM CLR 28/14 A3006 RMK AO2,2025-09-12T21:45:29Z,2025-09-12T17:45:29Z,Lowcountry Regional Airport,32.921001434299995,-80.6406021118,US,US-SC
KRCA,"Ellsworth AFB, SD, US",2025-09-12T20:55:00Z,2025-09-12 14:55:00,VFR,29.2,10.3,10,13,0,NA,1013.3,METAR KRCA 122055Z AUTO 01013KT 10SM FEW170 FEW200 29/10 A2992 RMK AO2 LTG DSNT SW-W SLP106 T02920103 57009 PWINO $,2025-09-12T21:45:29Z,2025-09-12T17:45:29Z,Ellsworth Air Force Base,44.14500046,-103.1039963,US,US-SD
KRCM,"Warrensburg Arpt, MO, US",2025-09-12T21:35:00Z,2025-09-12 21:35:00,VFR,35,14,190,8,0,NA,1016.7,METAR KRCM 122135Z AUTO 19008KT 10SM CLR 35/14 A3002 RMK AO2,2025-09-12T21:45:29Z,2025-09-12T17:45:29Z,Skyhaven Airport,38.784199,-93.802902,US,US-MO
KRCM,"Warrensburg Arpt, MO, US",2025-09-12T21:55:00Z,2025-09-12 21:55:00,VFR,35,15,210,8,14,NA,1016.7,METAR KRCM 122155Z AUTO 21008G14KT 10SM CLR 35/15 A3002 RMK AO2,2025-09-12T21:56:08Z,2025-09-12T17:56:08Z,Skyhaven Airport,38.784199,-93.802902,US,US-MO
KRCR,"Rochester/Fulton Cnty, IN, US",2025-09-12T21:35:00Z,2025-09-12 17:35:00,VFR,28,15,VAR,6,0,NA,1020.7,METAR KRCR 122135Z AUTO VRB06KT 10SM CLR 28/15 A3014 RMK AO2,2025-09-12T21:45:29Z,2025-09-12T17:45:29Z,Fulton County Airport,41.0656013489,-86.18170166019999,US,US-IN
KRCX,"Ladysmith/Rusk Cnty, WI, US",2025-09-12T21:35:00Z,2025-09-12 21:35:00,VFR,22.5,16.5,170,5,0,NA,1019,METAR KRCX 122135Z AUTO 17005KT 10SM CLR 23/17 A3009 RMK AO2 LTG DSNT SW AND W T02250165,2025-09-12T21:45:29Z,2025-09-12T17:45:29Z,Rusk County Airport,45.496799,-91.000504,US,US-WI
KRCZ,"Rockingham/Richmond Cnty, NC, US",2025-09-12T21:40:00Z,2025-09-12 21:40:00,VFR,27.6,11.8,30,5,0,NA,1019.4,METAR KRCZ 122140Z AUTO 03005KT 10SM CLR 28/12 A3010 RMK AO2 T02760118,2025-09-12T21:45:28Z,2025-09-12T17:45:28Z,Richmond County Airport,34.8913,-79.759598,US,US-NC
KRCZ,"Rockingham/Richmond Cnty, NC, US",2025-09-12T21:50:00Z,2025-09-12 21:50:00,VFR,27.6,12,40,7,0,NA,1019.4,METAR KRCZ 122150Z AUTO 04007KT 10SM CLR 28/12 A3010 RMK AO2 T02760120,2025-09-12T21:56:09Z,2025-09-12T17:56:09Z,Richmond County Airport,34.8913,-79.759598,US,US-NC
KRDD,"Redding Muni, CA, US",2025-09-12T20:53:00Z,2025-09-12 13:53:00,VFR,31.1,9.4,20,11,18,NA,1011.3,METAR KRDD 122053Z 02011G18KT 10SM CLR 31/09 A2986 RMK AO2 SLP107 T03110094 58018,2025-09-12T21:45:29Z,2025-09-12T17:45:29Z,Redding Municipal Airport,40.50899887,-122.2929993,US,US-CA
KRDD,"Redding Muni, CA, US",2025-09-12T21:53:00Z,2025-09-12 14:53:00,VFR,31.7,9.4,10,9,19,NA,1010.9,METAR KRDD 122153Z 01009G19KT 10SM CLR 32/09 A2985 RMK AO2 SLP101 T03170094,2025-09-12T21:56:09Z,2025-09-12T17:56:09Z,Redding Municipal Airport,40.50899887,-122.2929993,US,US-CA
KRDG,"Reading/Spaatz Fld, PA, US",2025-09-12T20:54:00Z,2025-09-12 16:54:00,VFR,27.2,11.7,0,0,0,NA,1021.1,METAR KRDG 122054Z 00000KT 10SM SCT085 27/12 A3015 RMK AO2 SLP213 T02720117 56013 $,2025-09-12T21:45:29Z,2025-09-12T17:45:29Z,Reading Regional Airport (Carl A Spaatz Field),40.378502,-75.965202,US,US-PA
KRDM,"Redmond Muni, OR, US",2025-09-12T20:56:00Z,2025-09-12 13:56:00,VFR,25,9.4,VAR,4,0,NA,1016.7,METAR KRDM 122056Z VRB04KT 10SM FU CLR 25/09 A3002 RMK AO2 SLP146 T02500094 56018,2025-09-12T21:45:29Z,2025-09-12T17:45:29Z,Roberts Field,44.254101,-121.150002,US,US-OR
KRDR,"Grand Forks AFB, ND, US",2025-09-12T20:55:00Z,2025-09-12 15:55:00,VFR,26.6,19.2,150,7,0,NA,1012.3,METAR KRDR 122055Z 15007KT 10SM SCT030 BKN200 27/19 A2989 RMK AO2A SLP123 T02660192 56005 $,2025-09-12T21:45:29Z,2025-09-12T17:45:29Z,Grand Forks Air Force Base,47.961101532,-97.4011993408,US,US-ND
KRDU,"Raleigh-Durham Intl, NC, US",2025-09-12T20:51:00Z,2025-09-12 16:51:00,VFR,26.7,13.3,50,8,16,NA,1020.4,METAR KRDU 122051Z 05008G16KT 10SM FEW055 SCT250 27/13 A3013 RMK AO2 SLP198 T02670133 56013,2025-09-12T21:45:29Z,2025-09-12T17:45:29Z,Raleigh Durham International Airport,35.877602,-78.787498,US,US-NC
KRDU,"Raleigh-Durham Intl, NC, US",2025-09-12T21:51:00Z,2025-09-12 17:51:00,VFR,26.1,12.8,40,8,0,NA,1020.1,METAR KRDU 122151Z 04008KT 10SM FEW055 SCT250 26/13 A3012 RMK AO2 SLP197 T02610128,2025-09-12T21:56:09Z,2025-09-12T17:56:09Z,Raleigh Durham International Airport,35.877602,-78.787498,US,US-NC
KREO,"Rome/State Arpt, OR, US",2025-09-12T20:52:00Z,2025-09-12 14:52:00,NA,23.3,3.9,VAR,5,0,NA,1017.4,METAR KREO 122052Z AUTO VRB05KT 23/04 A3004 RMK AO1 SLP151 T02330039 58018,2025-09-12T21:45:29Z,2025-09-12T17:45:29Z,Rome State Airport,42.5777015686,-117.885002136,US,US-OR
KREO,"Rome/State Arpt, OR, US",2025-09-12T21:52:00Z,2025-09-12 15:52:00,NA,23.3,3.3,VAR,5,0,NA,1016.7,METAR KREO 122152Z AUTO VRB05KT 23/03 A3002 RMK AO1 SLP145 T02330033,2025-09-12T21:56:09Z,2025-09-12T17:56:09Z,Rome State Airport,42.5777015686,-117.885002136,US,US-OR
KRFD,"Rockford Intl, IL, US",2025-09-12T20:54:00Z,2025-09-12 15:54:00,VFR,28.9,13.9,170,12,16,NA,1019.7,METAR KRFD 122054Z 17012G16KT 10SM FEW060 BKN250 29/14 A3011 RMK AO2 SLP192 T02890139 56027,2025-09-12T21:45:29Z,2025-09-12T17:45:29Z,Chicago Rockford International Airport,42.1954,-89.097198,US,US-IL
KRFD,"Rockford Intl, IL, US",2025-09-12T21:54:00Z,2025-09-12 16:54:00,VFR,28.9,13.3,140,6,0,NA,1019.4,METAR KRFD 122154Z 14006KT 10SM FEW250 29/13 A3010 RMK AO2 SLP190 T02890133,2025-09-12T21:56:08Z,2025-09-12T17:56:08Z,Chicago Rockford International Airport,42.1954,-89.097198,US,US-IL
KRFI,"Henderson/Rusk Cnty, TX, US",2025-09-12T21:35:00Z,2025-09-12 21:35:00,VFR,34.2,20.5,310,4,0,NA,1018.4,METAR KRFI 122135Z AUTO 31004KT 10SM SCT065 SCT120 34/21 A3007 RMK AO2 T03420205,2025-09-12T21:45:29Z,2025-09-12T17:45:29Z,Rusk County Airport,32.141701,-94.8517,US,US-TX
KRGK,"Red Wing Rgnl, WI, US",2025-09-12T21:35:00Z,2025-09-12 21:35:00,VFR,25,17,120,7,0,NA,1015.3,METAR KRGK 122135Z AUTO 12007KT 10SM SCT110 25/17 A2998 RMK AO2 LTG DSNT N NE AND S,2025-09-12T21:45:29Z,2025-09-12T17:45:29Z,Red Wing Regional Airport,44.589401,-92.485001,US,US-MN
KRHI,"Rhinelander/Oneida Cnty, WI, US",2025-09-12T20:53:00Z,2025-09-12 15:53:00,VFR,23.3,13.9,200,8,0,NA,1019.7,METAR KRHI 122053Z AUTO 20008KT 10SM CLR 23/14 A3011 RMK AO2 SLP196 T02330139 58023,2025-09-12T21:45:29Z,2025-09-12T17:45:29Z,Rhinelander Oneida County Airport,45.63119888305664,-89.467498779296875,US,US-WI
KRHI,"Rhinelander/Oneida Cnty, WI, US",2025-09-12T21:53:00Z,2025-09-12 16:53:00,VFR,21.7,15,180,8,0,NA,1019.4,METAR KRHI 122153Z AUTO 18008KT 10SM CLR 22/15 A3010 RMK AO2 SLP193 T02170150,2025-09-12T21:56:09Z,2025-09-12T17:56:09Z,Rhinelander Oneida County Airport,45.63119888305664,-89.467498779296875,US,US-WI
KRHP,"Andrews/W Carolina Rgnl, NC, US",2025-09-12T21:31:00Z,2025-09-12 21:31:00,VFR,25.7,13.3,340,3,0,NA,1020.7,METAR KRHP 122131Z AUTO 34003KT 10SM CLR 26/13 A3014 RMK AO2 T02570133,2025-09-12T21:45:29Z,2025-09-12T17:45:29Z,Western Carolina Regional Airport,35.195202,-83.862999,US,US-NC
KRHP,"Andrews/W Carolina Rgnl, NC, US",2025-09-12T21:41:00Z,2025-09-12 21:41:00,VFR,26,13.2,10,4,0,NA,1020.7,METAR KRHP 122141Z AUTO 01004KT 10SM CLR 26/13 A3014 RMK AO2 T02600132,2025-09-12T21:56:09Z,2025-09-12T17:56:09Z,Western Carolina Regional Airport,35.195202,-83.862999,US,US-NC
KRHV,"San Jose/Reid-Hillview Arpt, CA, US",2025-09-12T20:47:00Z,2025-09-12 13:47:00,VFR,26,14,310,5,14,NA,1014.3,METAR KRHV 122047Z 31005G14KT 10SM SKC 26/14 A2995,2025-09-12T21:45:29Z,2025-09-12T17:45:29Z,Reid-Hillview Airport of Santa Clara County,37.332901001,-121.819000244,US,US-CA
KRHV,"San Jose/Reid-Hillview Arpt, CA, US",2025-09-12T21:55:00Z,2025-09-12 14:55:00,VFR,26,14,320,9,0,NA,1014,METAR KRHV 122155Z 32009KT 10SM SKC 26/14 A2994,2025-09-12T21:56:08Z,2025-09-12T17:56:08Z,Reid-Hillview Airport of Santa Clara County,37.332901001,-121.819000244,US,US-CA
KRIC,"Richmond Intl, VA, US",2025-09-12T20:54:00Z,2025-09-12 16:54:00,VFR,26.1,12.8,60,9,17,NA,1020.7,METAR KRIC 122054Z 06009G17KT 10SM SCT070 26/13 A3014 RMK AO2 SLP209 T02610128 56008,2025-09-12T21:45:29Z,2025-09-12T17:45:29Z,Richmond International Airport,37.505199,-77.319702,US,US-VA
KRID,"Richmond Muni, IN, US",2025-09-12T21:35:00Z,2025-09-12 21:35:00,VFR,27,10,150,3,0,NA,1021.8,METAR KRID 122135Z AUTO 15003KT 10SM CLR 27/10 A3017 RMK AO2,2025-09-12T21:45:29Z,2025-09-12T17:45:29Z,Richmond Municipal Airport,39.757198,-84.842796,US,US-IN
KRID,"Richmond Muni, IN, US",2025-09-12T21:55:00Z,2025-09-12 21:55:00,VFR,27,9,0,0,0,NA,1021.8,METAR KRID 122155Z AUTO 00000KT 10SM CLR 27/09 A3017 RMK AO2,2025-09-12T21:56:08Z,2025-09-12T17:56:08Z,Richmond Municipal Airport,39.757198,-84.842796,US,US-IN
KRIL,"Rifle/Garfield Cnty, CO, US",2025-09-12T20:53:00Z,2025-09-12 14:53:00,VFR,22.2,8.3,130,12,22,NA,1019,METAR KRIL 122053Z AUTO 13012G22KT 10SM CLR 22/08 A3009 RMK AO2 SLP132 60000 T02220083 58023,2025-09-12T21:45:29Z,2025-09-12T17:45:29Z,Garfield County Regional Airport,39.526299,-107.726997,US,US-CO
KRIL,"Rifle/Garfield Cnty, CO, US",2025-09-12T21:53:00Z,2025-09-12 15:53:00,VFR,22.8,7.8,140,19,26,NA,1018,METAR KRIL 122153Z AUTO 14019G26KT 10SM CLR 23/08 A3006 RMK AO2 PK WND 15026/2153 LTG DSNT W SLP119 T02280078,2025-09-12T21:56:09Z,2025-09-12T17:56:09Z,Garfield County Regional Airport,39.526299,-107.726997,US,US-CO
KRIV,"Riverside/March ARB, CA, US",2025-09-12T20:55:00Z,2025-09-12 13:55:00,VFR,25.3,11.4,290,6,0,NA,1012.6,METAR KRIV 122055Z AUTO 29006KT 10SM CLR 25/11 A2990 RMK AO2 SLP114 T02530114 57023,2025-09-12T21:45:29Z,2025-09-12T17:45:29Z,March Air Reserve Base,33.880699,-117.259003,US,US-CA
KRIW,"Riverton Rgnl, WY, US",2025-09-12T20:53:00Z,2025-09-12 14:53:00,VFR,23.3,6.1,360,10,0,NA,1017.7,METAR KRIW 122053Z AUTO 36010KT 330V030 10SM CLR 23/06 A3005 RMK AO2 SLP113 T02330061 58020,2025-09-12T21:45:29Z,2025-09-12T17:45:29Z,Central Wyoming Regional Airport,43.064201,-108.459999,US,US-WY
KRIW,"Riverton Rgnl, WY, US",2025-09-12T21:53:00Z,2025-09-12 15:53:00,VFR,23.3,5,VAR,NA,0,NA,1017,METAR KRIW 122153Z AUTO 10SM CLR 23/05 A3003 RMK AO2 SLP111 T02330050,2025-09-12T21:56:08Z,2025-09-12T17:56:08Z,Central Wyoming Regional Airport,43.064201,-108.459999,US,US-WY
KRKD,"Rockland/Knox Cnty, ME, US",2025-09-12T20:56:00Z,2025-09-12 16:56:00,VFR,18.9,9.4,230,7,0,NA,1022.4,METAR KRKD 122056Z AUTO 23007KT 10SM CLR 19/09 A3019 RMK AO2 SLP222 6//// T01890094 56007 PNO $,2025-09-12T21:45:29Z,2025-09-12T17:45:29Z,Knox County Regional Airport,44.060101,-69.099197,US,US-ME
KRKP,"Rockport/Aransas Cnty, TX, US",2025-09-12T20:53:00Z,2025-09-12 15:53:00,VFR,32.2,21.7,110,13,20,9,1016.3,METAR KRKP 122053Z AUTO 11013G20KT 9SM CLR 32/22 A3001 RMK AO2 SLP164 T03220217 58020 $,2025-09-12T21:45:29Z,2025-09-12T17:45:29Z,Aransas County Airport,28.0867996216,-97.0446014404,US,US-TX
KRKP,"Rockport/Aransas Cnty, TX, US",2025-09-12T21:53:00Z,2025-09-12 16:53:00,VFR,32.2,22.2,110,11,0,9,1016.3,METAR KRKP 122153Z AUTO 11011KT 9SM CLR 32/22 A3001 RMK AO2 SLP162 T03220222,2025-09-12T21:56:08Z,2025-09-12T17:56:08Z,Aransas County Airport,28.0867996216,-97.0446014404,US,US-TX
KRKR,"Poteau/Kerr Arpt, OK, US",2025-09-12T21:35:00Z,2025-09-12 21:35:00,VFR,33,20,0,0,0,NA,1018,METAR KRKR 122135Z AUTO 00000KT 10SM CLR 33/20 A3006 RMK AO2,2025-09-12T21:45:29Z,2025-09-12T17:45:29Z,Robert S Kerr Airport,35.021599,-94.6213,US,US-OK
KRKS,"Rock Springs/SW Wyoming Rgnl, WY, US",2025-09-12T20:54:00Z,2025-09-12 14:54:00,VFR,20,2.8,150,19,25,NA,1019.7,METAR KRKS 122054Z AUTO 15019G25KT 10SM CLR 20/03 A3011 RMK AO2 PK WND 17028/1956 SLP122 T02000028 57014,2025-09-12T21:45:29Z,2025-09-12T17:45:29Z,Southwest Wyoming Regional Airport,41.5942,-109.065001,US,US-WY
KRKW,"Rockwood Muni, TN, US",2025-09-12T21:35:00Z,2025-09-12 16:35:00,VFR,27,13,0,0,0,NA,1021.1,METAR KRKW 122135Z AUTO 00000KT 10SM CLR 27/13 A3015 RMK A01,2025-09-12T21:45:29Z,2025-09-12T17:45:29Z,Rockwood Municipal Airport,35.9222984314,-84.6896972656,US,US-TN
KRLD,"Richland Arpt, WA, US",2025-09-12T21:35:00Z,2025-09-12 21:35:00,VFR,28.7,11.4,220,6,0,NA,1013,METAR KRLD 122135Z AUTO 22006KT 10SM CLR 29/11 A2991 RMK AO2 T02870114,2025-09-12T21:45:29Z,2025-09-12T17:45:29Z,Richland Airport,46.305599,-119.304001,US,US-WA
KRME,"Rome/Griffiss Intl, NY, US",2025-09-12T20:53:00Z,2025-09-12 16:53:00,VFR,22.8,11.1,360,4,0,NA,1022.1,METAR KRME 122053Z 36004KT 10SM CLR 23/11 A3018 RMK AO2 SLP216 T02280111 56019,2025-09-12T21:45:29Z,2025-09-12T17:45:29Z,Griffiss International Airport,43.23379898,-75.40699768,US,US-NY
KRME,"Rome/Griffiss Intl, NY, US",2025-09-12T21:53:00Z,2025-09-12 17:53:00,VFR,23.9,10.6,310,6,0,NA,1022.1,METAR KRME 122153Z 31006KT 10SM CLR 24/11 A3018 RMK AO2 SLP215 T02390106,2025-09-12T21:56:09Z,2025-09-12T17:56:09Z,Griffiss International Airport,43.23379898,-75.40699768,US,US-NY
KRMG,"Rome/Russell Arpt, GA, US",2025-09-12T20:53:00Z,2025-09-12 16:53:00,VFR,32.8,13.3,10,5,0,NA,1018.7,METAR KRMG 122053Z AUTO 01005KT 10SM CLR 33/13 A3008 RMK AO2 SLP174 T03280133 56019,2025-09-12T21:45:29Z,2025-09-12T17:45:29Z,Richard B Russell Airport,34.3506011963,-85.15799713130001,US,US-GA
KRMG,"Rome/Russell Arpt, GA, US",2025-09-12T21:53:00Z,2025-09-12 17:53:00,VFR,32.2,14.4,340,6,0,NA,1018.4,METAR KRMG 122153Z AUTO 34006KT 10SM CLR 32/14 A3007 RMK AO2 SLP172 T03220144,2025-09-12T21:56:09Z,2025-09-12T17:56:09Z,Richard B Russell Airport,34.3506011963,-85.15799713130001,US,US-GA
KRMN,"Stafford Rgnl, VA, US",2025-09-12T21:35:00Z,2025-09-12 21:35:00,VFR,27.1,8.2,90,10,0,NA,1021.4,METAR KRMN 122135Z AUTO 09010KT 10SM CLR 27/08 A3016 RMK AO2 T02710082 PWINO TSNO,2025-09-12T21:45:28Z,2025-09-12T17:45:28Z,Stafford Regional Airport,38.398102,-77.455498,US,US-VA
KRMY,"Marshall/Brooks Fld, MI, US",2025-09-12T21:35:00Z,2025-09-12 21:35:00,VFR,27,10.8,0,0,0,NA,1021.8,METAR KRMY 122135Z AUTO 00000KT 10SM CLR 27/11 A3017 RMK AO2 T02700108,2025-09-12T21:45:29Z,2025-09-12T17:45:29Z,Brooks Field,42.251202,-84.955498,US,US-MI
KRNC,"McMinnville/Warren Cnty, TN, US",2025-09-12T21:35:00Z,2025-09-12 16:35:00,VFR,29,13,70,5,11,NA,1019.7,METAR KRNC 122135Z AUTO 07005G11KT 10SM CLR 29/13 A3011 RMK A01,2025-09-12T21:45:29Z,2025-09-12T17:45:29Z,Warren County Memorial Airport,35.69869995,-85.84380341,US,US-TN
KRND,"Randolph AFB, TX, US",2025-09-12T20:55:00Z,2025-09-12 15:55:00,VFR,36.1,11.7,80,9,0,NA,1016.7,METAR KRND 122055Z AUTO 08009KT 10SM CLR 36/12 A3002 RMK AO2 SLP156 T03610117 57026,2025-09-12T21:45:29Z,2025-09-12T17:45:29Z,Randolph Air Force Base,29.529699,-98.2789,US,US-TX
KRNH,"New Richmond Muni, WI, US",2025-09-12T21:15:00Z,2025-09-12 21:15:00,NA,23,19,350,5,0,NA,1018.4,METAR KRNH 122115Z AUTO 35005KT OVC075 23/19 A3007 RMK AO2 T02300190 PWINO,2025-09-12T21:45:29Z,2025-09-12T17:45:29Z,New Richmond Regional Airport,45.1483,-92.538101,US,US-WI
KRNH,"New Richmond Muni, WI, US",2025-09-12T21:30:00Z,2025-09-12 21:30:00,VFR,21.6,19.1,10,8,14,NA,1018.4,METAR KRNH 122130Z AUTO 01008G14KT 10SM BKN050 OVC075 22/19 A3007 RMK AO2 T02160191,2025-09-12T21:56:09Z,2025-09-12T17:56:09Z,New Richmond Regional Airport,45.1483,-92.538101,US,US-WI
KRNM,"Ramona Arpt, CA, US",2025-09-12T20:53:00Z,2025-09-12 20:53:00,VFR,25.6,12.8,240,13,0,NA,1013.3,METAR KRNM 122053Z 24013KT 10SM SCT040 26/13 A2992 RMK AO2 WSHFT 2015 SLP117 T02560128 58016,2025-09-12T21:45:29Z,2025-09-12T17:45:29Z,Ramona Airport,33.0392,-116.915001,US,US-CA
KRNM,"Ramona Arpt, CA, US",2025-09-12T21:53:00Z,2025-09-12 21:53:00,VFR,25.6,14.4,260,13,18,NA,1013,METAR KRNM 122153Z 26013G18KT 10SM SCT040 26/14 A2991 RMK AO2 SLP115 T02560144,2025-09-12T21:56:09Z,2025-09-12T17:56:09Z,Ramona Airport,33.0392,-116.915001,US,US-CA
KRNO,"Reno/Tahoe Intl, NV, US",2025-09-12T20:55:00Z,2025-09-12 13:55:00,VFR,22.2,5,100,6,0,NA,1017.7,METAR KRNO 122055Z 10006KT 10SM BKN080 22/05 A3005 RMK AO2 SLP134 T02220050 58016,2025-09-12T21:45:29Z,2025-09-12T17:45:29Z,Reno Tahoe International Airport,39.4991,-119.767998,US,US-NV
KRNP,"Owosso Community Arpt, MI, US",2025-09-12T21:35:00Z,2025-09-12 21:35:00,VFR,26.7,11.4,150,3,0,NA,1021.8,METAR KRNP 122135Z AUTO 15003KT 10SM SCT065 27/11 A3017 RMK AO2 T02670114,2025-09-12T21:45:29Z,2025-09-12T17:45:29Z,Owosso Community Airport,42.993000030518,-84.138900756836,US,US-MI
KRNT,"Renton Muni, WA, US",2025-09-12T20:53:00Z,2025-09-12 13:53:00,VFR,20,12.8,340,3,0,NA,1017.7,METAR KRNT 122053Z 34003KT 10SM OVC033 20/13 A3005 RMK AO2 SLP182 T02000128 56010,2025-09-12T21:45:29Z,2025-09-12T17:45:29Z,Renton Municipal Airport,47.4930992126,-122.216003418,US,US-WA
KRNT,"Renton Muni, WA, US",2025-09-12T21:53:00Z,2025-09-12 14:53:00,VFR,20.6,12.8,VAR,3,0,NA,1017,METAR KRNT 122153Z VRB03KT 10SM OVC037 21/13 A3003 RMK AO2 SLP174 T02060128,2025-09-12T21:56:08Z,2025-09-12T17:56:08Z,Renton Municipal Airport,47.4930992126,-122.216003418,US,US-WA
KRNV,"Cleveland Muni, MS, US",2025-09-12T21:35:00Z,2025-09-12 21:35:00,VFR,32.1,19.3,330,8,17,NA,1016.7,METAR KRNV 122135Z AUTO 33008G17KT 10SM BKN075 32/19 A3002 RMK AO2 T03210193,2025-09-12T21:45:28Z,2025-09-12T17:45:28Z,Cleveland Municipal Airport,33.761101,-90.757896,US,US-MS
KROA,"Roanoke Rgnl, VA, US",2025-09-12T20:54:00Z,2025-09-12 16:54:00,VFR,27.8,10,350,7,0,NA,1021.8,METAR KROA 122054Z 35007KT 10SM FEW065 28/10 A3017 RMK AO2 SLP207 T02780100 56015,2025-09-12T21:45:29Z,2025-09-12T17:45:29Z,Roanoke–Blacksburg Regional Airport,37.3255,-79.975403,US,US-VA
KROC,"Rochester Intl Arpt, NY, US",2025-09-12T20:54:00Z,2025-09-12 16:54:00,VFR,22.8,12.8,40,7,0,NA,1022.4,METAR KROC 122054Z 04007KT 10SM FEW030 BKN250 23/13 A3019 RMK AO2 SLP225 T02280128 56014 $,2025-09-12T21:45:29Z,2025-09-12T17:45:29Z,Frederick Douglass Greater Rochester International Airport,43.1189,-77.672401,US,US-NY
KROG,"Rogers Muni/Carter Fld, AR, US",2025-09-12T20:58:00Z,2025-09-12 15:58:00,VFR,32.2,18.3,220,3,0,NA,1020.1,METAR KROG 122058Z 22003KT 10SM CLR 32/18 A3012 RMK AO2 SLP184 T03220183 56019,2025-09-12T21:45:29Z,2025-09-12T17:45:29Z,Rogers Municipal Airport-Carter Field,36.37229919,-94.10690308,US,US-AR
KROS,"Rush City Rgnl, MN, US",2025-09-12T21:12:00Z,2025-09-12 21:12:00,VFR,18,17,60,3,0,7,1018.7,METAR KROS 122112Z 06003KT 7SM -TSRA SCT015 SCT026 OVC046 18/17 A3008 RMK AO2,2025-09-12T21:45:29Z,2025-09-12T17:45:29Z,Rush City Regional Airport,45.698002,-92.953003,US,US-MN
KROS,"Rush City Rgnl, MN, US",2025-09-12T21:47:00Z,2025-09-12 21:47:00,MVFR,18,17,100,6,0,5,1017.4,METAR KROS 122147Z 10006KT 5SM VCTSRA BKN041 BKN050 OVC080 18/17 A3004 RMK AO2,2025-09-12T21:56:09Z,2025-09-12T17:56:09Z,Rush City Regional Airport,45.698002,-92.953003,US,US-MN
KROW,"Roswell/Ind Arpt, NM, US",2025-09-12T20:51:00Z,2025-09-12 14:51:00,VFR,33.3,9.4,160,11,19,NA,1018,METAR KROW 122051Z AUTO 16011G19KT 130V190 10SM CLR 33/09 A3006 RMK AO2 SLP109 T03330094 57029 $,2025-09-12T21:45:29Z,2025-09-12T17:45:29Z,Roswell Air Center Airport,33.301601,-104.530998,US,US-NM
KROW,"Roswell/Ind Arpt, NM, US",2025-09-12T21:51:00Z,2025-09-12 15:51:00,VFR,33.3,7.8,180,13,21,NA,1017,METAR KROW 122151Z 18013G21KT 10SM CLR 33/08 A3003 RMK AO2 SLP099 T03330078 $,2025-09-12T21:56:09Z,2025-09-12T17:56:09Z,Roswell Air Center Airport,33.301601,-104.530998,US,US-NM
KRPD,"Rice Lake Rgnl, WI, US",2025-09-12T21:35:00Z,2025-09-12 16:35:00,VFR,23,16.2,150,3,0,NA,1018.7,METAR KRPD 122135Z AUTO 15003KT 10SM TS SCT070 BKN085 23/16 A3008 RMK AO2 LTG DSNT S THRU NW T02300162,2025-09-12T21:45:28Z,2025-09-12T17:45:28Z,Rice Lake Regional Airport - Carl's Field,45.423024,-91.773127,US,US-WI
KRPH,"Graham Muni, TX, US",2025-09-12T21:35:00Z,2025-09-12 21:35:00,VFR,35.5,13.8,120,7,15,NA,1016.7,METAR KRPH 122135Z AUTO 12007G15KT 080V180 10SM CLR 36/14 A3002 RMK AO2 T03550138,2025-09-12T21:45:32Z,2025-09-12T17:45:32Z,Graham Municipal Airport,33.110198974609,-98.555297851562,US,US-TX
KRPJ,"Rochelle/Kontz Fld, IL, US",2025-09-12T21:35:00Z,2025-09-12 21:35:00,VFR,29.2,11.3,170,8,0,NA,1019.4,METAR KRPJ 122135Z AUTO 17008KT 10SM CLR 29/11 A3010 RMK AO2 T02920113,2025-09-12T21:45:32Z,2025-09-12T17:45:32Z,Rochelle Municipal Airport - Koritz Field,41.893002,-89.0783,US,US-IL
KRQB,"Big Rapids/Roben Hood Arpt, MI, US",2025-09-12T21:35:00Z,2025-09-12 17:35:00,VFR,25,12,310,2,0,NA,1021.1,METAR KRQB 122135Z AUTO 31002KT 10SM FEW055 25/12 A3015 RMK AO2,2025-09-12T21:45:32Z,2025-09-12T17:45:32Z,Roben Hood Airport,43.7225990295,-85.50409698490002,US,US-MI
KRQE,"Window Rock Arpt, AZ, US",2025-09-12T21:17:00Z,2025-09-12 21:17:00,VFR,20,12.2,210,10,18,NA,1023.1,SPECI KRQE 122117Z AUTO 21010G18KT 10SM FEW037 SCT075 SCT090 20/12 A3021 RMK AO2 LTG DSNT N AND NW RAE09 TSB2059E14 P0000 T02000122,2025-09-12T21:45:32Z,2025-09-12T17:45:32Z,Window Rock Airport,35.652099609375,-109.06700134277344,US,US-AZ
KRQE,"Window Rock Arpt, AZ, US",2025-09-12T21:53:00Z,2025-09-12 21:53:00,VFR,21.7,9.4,180,13,23,NA,1022.4,METAR KRQE 122153Z AUTO 18013G23KT 10SM FEW065 22/09 A3019 RMK AO2 RAE09 TSB2059E14 SLP119 P0000 T02170094,2025-09-12T21:56:11Z,2025-09-12T17:56:11Z,Window Rock Airport,35.652099609375,-109.06700134277344,US,US-AZ
KRQO,"El Reno Rgnl, OK, US",2025-09-12T21:35:00Z,2025-09-12 16:35:00,VFR,33,17,190,10,15,NA,1017.7,METAR KRQO 122135Z AUTO 19010G15KT 10SM CLR 33/17 A3005 RMK AO2,2025-09-12T21:45:32Z,2025-09-12T17:45:32Z,El Reno Regional Airport,35.472698,-98.005798,US,US-OK
KRRL,"Merrill Muni, WI, US",2025-09-12T21:35:00Z,2025-09-12 16:35:00,VFR,22.2,15.9,170,5,0,NA,1019.7,METAR KRRL 122135Z AUTO 17005KT 10SM CLR 22/16 A3011 RMK AO2 T02220159 TSNO,2025-09-12T21:45:32Z,2025-09-12T17:45:32Z,Merrill Municipal Airport,45.1988983154,-89.7128982544,US,US-WI
KRRT,"Warroad Intl, MN, US",2025-09-12T21:35:00Z,2025-09-12 16:35:00,VFR,20,17,50,9,16,NA,1015,METAR KRRT 122135Z AUTO 05009G16KT 10SM SCT110 20/17 A2997 RMK AO2,2025-09-12T21:45:32Z,2025-09-12T17:45:32Z,Warroad International Memorial Airport,48.94139862,-95.3483963,US,US-MN
KRSL,"Russell Muni, KS, US",2025-09-12T20:53:00Z,2025-09-12 15:53:00,VFR,35,13.9,190,18,30,NA,1014.3,METAR KRSL 122053Z AUTO 19018G30KT 10SM CLR 35/14 A2995 RMK AO2 PK WND 21030/2047 SLP122 T03500139 58015 $,2025-09-12T21:45:32Z,2025-09-12T17:45:32Z,Russell Municipal Airport,38.872100830078,-98.811798095703,US,US-KS
KRSL,"Russell Muni, KS, US",2025-09-12T21:53:00Z,2025-09-12 16:53:00,VFR,34.4,14.4,200,19,31,NA,1014,METAR KRSL 122153Z AUTO 20019G31KT 10SM CLR 34/14 A2994 RMK AO2 PK WND 17031/2149 SLP119 T03440144 $,2025-09-12T21:56:11Z,2025-09-12T17:56:11Z,Russell Municipal Airport,38.872100830078,-98.811798095703,US,US-KS
KRSN,"Ruston Rgnl, LA, US",2025-09-12T21:35:00Z,2025-09-12 16:35:00,VFR,33.3,19.3,0,0,0,NA,1017.7,METAR KRSN 122135Z AUTO 00000KT 10SM CLR 33/19 A3005 RMK AO2 T03330193 $,2025-09-12T21:45:32Z,2025-09-12T17:45:32Z,Ruston Regional Airport,32.514187,-92.588517,US,US-LA
KRST,"Rochester Intl, MN, US",2025-09-12T21:29:00Z,2025-09-12 16:29:00,VFR,24.4,18.3,160,6,0,NA,1017,SPECI KRST 122129Z 16006KT 10SM TS OVC110 24/18 A3003 RMK AO2 RAB16E29 TSB23 P0000 T02440183 $,2025-09-12T21:45:32Z,2025-09-12T17:45:32Z,Rochester International Airport,43.908298,-92.5,US,US-MN
KRSV,"Robinson Muni, IL, US",2025-09-12T21:35:00Z,2025-09-12 21:35:00,VFR,31,14,130,6,0,NA,1019.4,METAR KRSV 122135Z AUTO 13006KT 10SM CLR 31/14 A3010 RMK AO2,2025-09-12T21:45:32Z,2025-09-12T17:45:32Z,Robinson Municipal Airport,39.015999,-87.649803,US,US-IL
KRSW,"Ft Myers/SW Florida Intl, FL, US",2025-09-12T21:27:00Z,2025-09-12 17:27:00,VFR,30.6,22.8,80,3,0,NA,1013,SPECI KRSW 122127Z 08003KT 10SM VCTS SCT037 31/23 A2991 RMK AO1 LTG DSNT N AND NW T03060228 $,2025-09-12T21:45:32Z,2025-09-12T17:45:32Z,Southwest Florida International Airport,26.53619956970215,-81.75520324707031,US,US-FL
KRSW,"Ft Myers/SW Florida Intl, FL, US",2025-09-12T21:53:00Z,2025-09-12 17:53:00,VFR,30.6,22.8,20,5,0,NA,1013.3,METAR KRSW 122153Z 02005KT 10SM VCTS SCT037 31/23 A2992 RMK AO1 LTG DSNT NE AND SW AND W SLP128 T03060228 $,2025-09-12T21:56:11Z,2025-09-12T17:56:11Z,Southwest Florida International Airport,26.53619956970215,-81.75520324707031,US,US-FL
KRTN,"Raton/Crews Fld, NM, US",2025-09-12T20:53:00Z,2025-09-12 14:53:00,VFR,27.2,6.7,170,19,27,NA,1021.4,METAR KRTN 122053Z AUTO 17019G27KT 10SM CLR 27/07 A3016 RMK AO2 PK WND 17032/2037 SLP126 T02720067 56028,2025-09-12T21:45:32Z,2025-09-12T17:45:32Z,Raton Municipal Airport / Crews Field,36.741501,-104.501999,US,US-NM
KRTN,"Raton/Crews Fld, NM, US",2025-09-12T21:53:00Z,2025-09-12 15:53:00,VFR,26.1,7.8,180,20,30,NA,1021.1,METAR KRTN 122153Z AUTO 18020G30KT 10SM CLR 26/08 A3015 RMK AO2 PK WND 19032/2140 SLP122 T02610078,2025-09-12T21:56:11Z,2025-09-12T17:56:11Z,Raton Municipal Airport / Crews Field,36.741501,-104.501999,US,US-NM
KRUG,"Rugby Muni, ND, US",2025-09-12T21:35:00Z,2025-09-12 21:35:00,VFR,26,19,70,8,0,NA,1013.6,METAR KRUG 122135Z AUTO 07008KT 10SM CLR 26/19 A2993 RMK AO2,2025-09-12T21:45:32Z,2025-09-12T17:45:32Z,Rugby Municipal Airport,48.3904,-100.024002,US,US-ND
KRUQ,"Salisbury/Rowan Cnty, NC, US",2025-09-12T21:35:00Z,2025-09-12 17:35:00,NA,26.9,12.2,0,0,0,NA,1020.4,METAR KRUQ 122135Z AUTO 00000KT 10SM 27/12 A3013 RMK AO2 T02690122,2025-09-12T21:45:32Z,2025-09-12T17:45:32Z,Mid-Carolina Regional Airport,35.645901,-80.520302,US,US-NC
KRUQ,"Salisbury/Rowan Cnty, NC, US",2025-09-12T21:45:00Z,2025-09-12 17:45:00,NA,27,13.3,60,5,0,NA,1020.1,METAR KRUQ 122145Z AUTO 06005KT 10SM 27/13 A3012 RMK AO2 T02700133,2025-09-12T21:56:11Z,2025-09-12T17:56:11Z,Mid-Carolina Regional Airport,35.645901,-80.520302,US,US-NC
KRUT,"Rutland/S Vermont Rgnl, VT, US",2025-09-12T20:56:00Z,2025-09-12 16:56:00,VFR,21.7,3.9,10,6,0,NA,1022.8,METAR KRUT 122056Z AUTO 01006KT 10SM CLR 22/04 A3020 RMK AO2 SLP220 T02170039 56010 $,2025-09-12T21:45:32Z,2025-09-12T17:45:32Z,Rutland - Southern Vermont Regional Airport,43.5294,-72.9496,US,US-VT
KRVJ,"Reidsville/Smith Fld, GA, US",2025-09-12T21:35:00Z,2025-09-12 21:35:00,VFR,30.2,15,40,6,0,NA,1017.7,METAR KRVJ 122135Z AUTO 04006KT 10SM SCT065 BKN080 30/15 A3005 RMK AO2 T03020150,2025-09-12T21:45:32Z,2025-09-12T17:45:32Z,Swinton Smith Field at Reidsville Municipal Airport,32.0595,-82.153777,US,US-GA
KRVL,"Reedsville/Mifflin Cnty, PA, US",2025-09-12T21:35:00Z,2025-09-12 17:35:00,VFR,27,11,0,0,0,9,1021.1,METAR KRVL 122135Z AUTO 00000KT 9SM CLR 27/11 A3015 RMK AO2,2025-09-12T21:45:32Z,2025-09-12T17:45:32Z,Mifflin County Airport,40.6773986816,-77.6268005371,US,US-PA
KRVS,"Tulsa/Jones Arpt, OK, US",2025-09-12T20:53:00Z,2025-09-12 15:53:00,VFR,34.4,20,220,7,15,NA,1017.7,METAR KRVS 122053Z 22007G15KT 10SM CLR 34/20 A3005 RMK AO2 SLP178 T03440200 56019,2025-09-12T21:45:32Z,2025-09-12T17:45:32Z,Tulsa Riverside Airport,36.0396,-95.984596,US,US-OK
KRVS,"Tulsa/Jones Arpt, OK, US",2025-09-12T21:53:00Z,2025-09-12 16:53:00,VFR,33.9,20,190,7,0,NA,1017,METAR KRVS 122153Z 19007KT 10SM CLR 34/20 A3003 RMK AO2 SLP173 T03390200,2025-09-12T21:56:11Z,2025-09-12T17:56:11Z,Tulsa Riverside Airport,36.0396,-95.984596,US,US-OK
KRWF,"Redwood Falls Muni, MN, US",2025-09-12T20:53:00Z,2025-09-12 15:53:00,VFR,22.8,20.6,50,8,0,NA,1014.3,METAR KRWF 122053Z AUTO 05008KT 10SM CLR 23/21 A2995 RMK AO2 RAE32 SLP138 P0006 60010 T02280206 55001,2025-09-12T21:45:32Z,2025-09-12T17:45:32Z,Redwood Falls Municipal Airport,44.547199,-95.082298,US,US-MN
KRWF,"Redwood Falls Muni, MN, US",2025-09-12T21:53:00Z,2025-09-12 16:53:00,VFR,24.4,20.6,60,7,0,NA,1014,METAR KRWF 122153Z AUTO 06007KT 10SM CLR 24/21 A2994 RMK AO2 SLP135 T02440206,2025-09-12T21:56:11Z,2025-09-12T17:56:11Z,Redwood Falls Municipal Airport,44.547199,-95.082298,US,US-MN
KRWI,"Rocky Mount/Wilson Rgnl, NC, US",2025-09-12T20:53:00Z,2025-09-12 16:53:00,VFR,26.7,15.6,VAR,4,0,NA,1020.1,METAR KRWI 122053Z AUTO VRB04KT 10SM FEW075 27/16 A3012 RMK AO2 SLP197 T02670156 56012,2025-09-12T21:45:32Z,2025-09-12T17:45:32Z,Rocky Mount Wilson Regional Airport,35.8563,-77.891899,US,US-NC
KRWI,"Rocky Mount/Wilson Rgnl, NC, US",2025-09-12T21:53:00Z,2025-09-12 17:53:00,VFR,24.4,15.6,0,0,0,NA,1020.1,METAR KRWI 122153Z AUTO 00000KT 10SM FEW055 SCT080 24/16 A3012 RMK AO2 SLP199 T02440156,2025-09-12T21:56:11Z,2025-09-12T17:56:11Z,Rocky Mount Wilson Regional Airport,35.8563,-77.891899,US,US-NC
KRWL,"Rawlins Muni, WY, US",2025-09-12T20:53:00Z,2025-09-12 14:53:00,VFR,13.3,7.2,190,16,26,NA,1023.1,METAR KRWL 122053Z AUTO 19016G26KT 10SM BKN070 OVC095 13/07 A3021 RMK AO2 PK WND 21039/2008 RAB36E50 SLP163 P0000 60000 T01330072 53012,2025-09-12T21:45:32Z,2025-09-12T17:45:32Z,Rawlins Municipal Airport/Harvey Field,41.80559921,-107.1999969,US,US-WY
KRWL,"Rawlins Muni, WY, US",2025-09-12T21:53:00Z,2025-09-12 15:53:00,VFR,14.4,5.6,150,9,0,NA,1022.8,METAR KRWL 122153Z AUTO 15009KT 10SM FEW075 OVC090 14/06 A3020 RMK AO2 SLP155 T01440056,2025-09-12T21:56:11Z,2025-09-12T17:56:11Z,Rawlins Municipal Airport/Harvey Field,41.80559921,-107.1999969,US,US-WY
KRWV,"Caldwell Muni, TX, US",2025-09-12T21:35:00Z,2025-09-12 21:35:00,VFR,NA,NA,70,7,0,NA,1017.7,METAR KRWV 122135Z AUTO 07007KT 10SM SCT060 A3005 RMK AO2 PWINO,2025-09-12T21:45:32Z,2025-09-12T17:45:32Z,Caldwell Municipal Airport,30.515499,-96.704102,US,US-TX
KRXE,"Rexburg/Madison Cnty, ID, US",2025-09-12T20:53:00Z,2025-09-12 14:53:00,VFR,23.9,1.7,250,5,0,NA,1016.7,METAR KRXE 122053Z AUTO 25005KT 10SM CLR 24/02 A3002 RMK AO2 LTG DSNT SE SLP128 T02390017 56019,2025-09-12T21:45:32Z,2025-09-12T17:45:32Z,Rexburg Madison County Airport,43.8339,-111.805002,US,US-ID
KRXE,"Rexburg/Madison Cnty, ID, US",2025-09-12T21:53:00Z,2025-09-12 15:53:00,VFR,24.4,0.6,250,6,0,NA,1015.7,METAR KRXE 122153Z AUTO 25006KT 10SM CLR 24/01 A2999 RMK AO2 SLP120 T02440006,2025-09-12T21:56:11Z,2025-09-12T17:56:11Z,Rexburg Madison County Airport,43.8339,-111.805002,US,US-ID
KRYM,"Camp Ripley/Miller AAF, MN, US",2025-09-12T20:55:00Z,2025-09-12 20:55:00,VFR,19.1,17,120,5,0,NA,1014.6,METAR KRYM 122055Z AUTO 12005KT 10SM -RA OVC140 19/17 A2996 RMK AO2 LTG DSNT E AND W-NW RAB06E24DZB24E35RAB47 SLP147 P0000 60000 T01910170 55009 $,2025-09-12T21:45:32Z,2025-09-12T17:45:32Z,Ray S Miller Army Air Field,46.091202,-94.360497,US,US-MN
KRYN,"Tucson/Ryan Fld, AZ, US",2025-09-12T20:45:00Z,2025-09-12 20:45:00,VFR,37,10,230,11,18,NA,1011.6,METAR KRYN 122045Z 23011G18KT 10SM CLR 37/10 A2987,2025-09-12T21:45:32Z,2025-09-12T17:45:32Z,Ryan Field,32.1422004699707,-111.1750030517578,US,US-AZ
KRYN,"Tucson/Ryan Fld, AZ, US",2025-09-12T21:45:00Z,2025-09-12 21:45:00,VFR,37,12,200,10,16,NA,1010.6,METAR KRYN 122145Z 20010G16KT 10SM CLR 37/12 A2984,2025-09-12T21:56:11Z,2025-09-12T17:56:11Z,Ryan Field,32.1422004699707,-111.1750030517578,US,US-AZ
KRYW,"Lago Vista/Allen Arpt, TX, US",2025-09-12T21:35:00Z,2025-09-12 21:35:00,VFR,33.6,15.5,120,5,0,NA,1019,METAR KRYW 122135Z AUTO 12005KT 10SM SCT070 34/16 A3009 RMK AO2 T03360155,2025-09-12T21:45:32Z,2025-09-12T17:45:32Z,Lago Vista Texas Rusty Allen Airport,30.4986,-97.969498,US,US-TX
KRYY,"Marietta/Cobb Cnty, GA, US",2025-09-12T20:50:00Z,2025-09-12 20:50:00,VFR,30,13.3,VAR,3,0,NA,1019.7,METAR KRYY 122050Z VRB03KT 10SM SCT060 30/13 A3011 RMK AO2 SLP926 T03000133 56017 $,2025-09-12T21:45:32Z,2025-09-12T17:45:32Z,Cobb County International Airport-McCollum Field,34.01316,-84.59721,US,US-GA
KRYY,"Marietta/Cobb Cnty, GA, US",2025-09-12T21:50:00Z,2025-09-12 21:50:00,VFR,30,12.8,0,0,0,NA,1019.7,METAR KRYY 122150Z COR 00000KT 10SM SCT055 30/13 A3011 RMK AO2 SLP926 T03000128 $,2025-09-12T21:56:11Z,2025-09-12T17:56:11Z,Cobb County International Airport-McCollum Field,34.01316,-84.59721,US,US-GA
KRZL,"Rensselaer/Jasper Cnty, IN, US",2025-09-12T21:35:00Z,2025-09-12 16:35:00,VFR,27,11,50,6,0,NA,1020.7,METAR KRZL 122135Z AUTO 05006KT 10SM CLR 27/11 A3014 RMK AO2,2025-09-12T21:45:32Z,2025-09-12T17:45:32Z,Jasper County Airport,40.9478988647,-87.1826019287,US,US-IN
KRZN,"Siren/Burnett Cnty, WI, US",2025-09-12T21:35:00Z,2025-09-12 21:35:00,MVFR,20,18,200,12,18,NA,1017.7,METAR KRZN 122135Z AUTO 20012G18KT 10SM -RA BKN015 BKN020 BKN025 20/18 A3005 RMK AO2 T02000180,2025-09-12T21:45:32Z,2025-09-12T17:45:32Z,Burnett County Airport,45.822701,-92.372498,US,US-WI
KRZR,"Cleveland Rgnl, TN, US",2025-09-12T21:35:00Z,2025-09-12 21:35:00,VFR,29,10,30,8,0,NA,1019,METAR KRZR 122135Z AUTO 03008KT 10SM CLR 29/10 A3009 RMK A01,2025-09-12T21:45:32Z,2025-09-12T17:45:32Z,Cleveland Regional Jetport,35.211497,-84.799769,US,US-TN
KRZT,"Chillicothe/Ross Cnty, OH, US",2025-09-12T21:35:00Z,2025-09-12 21:35:00,VFR,28,5,0,0,0,NA,1021.1,METAR KRZT 122135Z AUTO 00000KT 10SM CLR 28/05 A3015 RMK AO2 PWINO,2025-09-12T21:45:32Z,2025-09-12T17:45:32Z,Ross County Airport,39.440399,-83.023102,US,US-OH
KS12,"Albany Muni, OR, US",2025-09-12T21:35:00Z,2025-09-12 21:35:00,VFR,21,13,VAR,5,0,NA,1016.7,METAR KS12 122135Z AUTO VRB05KT 10SM CLR 21/13 A3002 RMK AO2,2025-09-12T21:45:32Z,2025-09-12T17:45:32Z,Albany Municipal Airport,44.637798309326,-123.05899810791,US,US-OR
KS21,"Sunriver Arpt, OR, US",2025-09-12T21:30:00Z,2025-09-12 14:30:00,VFR,22,10,30,3,0,8,1019.7,METAR KS21 122130Z AUTO 03003KT 8SM CLR 22/10 A3011 RMK AO2,2025-09-12T21:45:32Z,2025-09-12T17:45:32Z,Sunriver Airport,43.876301,-121.453003,US,US-OR
KS24,"Fremont/Sandusky Cnty, OH, US",2025-09-12T21:35:00Z,2025-09-12 21:35:00,VFR,25,16,30,7,0,NA,1022.1,METAR KS24 122135Z AUTO 03007KT 10SM CLR 25/16 A3018 RMK AO2,2025-09-12T21:45:32Z,2025-09-12T17:45:32Z,Sandusky County Regional Airport,41.2957,-83.037201,US,US-OH
KS25,"Watford City Muni, ND, US",2025-09-12T21:35:00Z,2025-09-12 21:35:00,VFR,30,17,0,0,0,NA,1013,METAR KS25 122135Z AUTO 00000KT 10SM CLR 30/17 A2991 RMK AO2,2025-09-12T21:45:32Z,2025-09-12T17:45:32Z,Watford City Municipal Airport,47.79570007,-103.2539978,US,US-ND
KS32,"Cooperstown Muni, ND, US",2025-09-12T21:35:00Z,2025-09-12 21:35:00,NA,27,21,120,10,0,7,1013.3,METAR KS32 122135Z AUTO 12010KT 7SM 27/21 A2992 RMK AO2 TSNO,2025-09-12T21:45:32Z,2025-09-12T17:45:32Z,Cooperstown Municipal Airport,47.422798,-98.105904,US,US-ND
KS33,"Madras Muni, OR, US",2025-09-12T21:35:00Z,2025-09-12 14:35:00,VFR,26,8,250,4,0,NA,1016.3,METAR KS33 122135Z AUTO 25004KT 10SM CLR 26/08 A3001 RMK AO2,2025-09-12T21:45:32Z,2025-09-12T17:45:32Z,Madras Municipal Airport,44.67020035,-121.1549988,US,US-OR
KS34,"Plains Arpt, MT, US",2025-09-12T21:35:00Z,2025-09-12 21:35:00,VFR,23,14,310,10,0,NA,1014.6,METAR KS34 122135Z AUTO 31010KT 10SM FEW095 23/14 A2996 RMK AO2,2025-09-12T21:45:32Z,2025-09-12T17:45:32Z,Plains Airport,47.473475,-114.907122,US,US-MT
KS39,"Prineville Arpt, OR, US",2025-09-12T21:35:00Z,2025-09-12 14:35:00,VFR,25,7,0,0,0,NA,1016.7,METAR KS39 122135Z AUTO 00000KT 10SM CLR 25/07 A3002 RMK AO2,2025-09-12T21:45:32Z,2025-09-12T17:45:32Z,Prineville Airport,44.286998748779,-120.90399932861,US,US-OR
KS52,"Methow Valley State Arpt, WA, US",2025-09-12T21:30:00Z,2025-09-12 21:30:00,VFR,29.1,11.6,160,11,0,NA,1012.6,METAR KS52 122130Z AUTO 16011KT 10SM CLR 29/12 A2990 RMK AO2 T02910116,2025-09-12T21:45:32Z,2025-09-12T17:45:32Z,Methow Valley State Airport,48.42490005493164,-120.14600372314452,US,US-WA
KSAA,"Saratoga/Shively Fld, WY, US",2025-09-12T21:35:00Z,2025-09-12 15:35:00,NA,12,8,350,3,0,NA,1025.1,METAR KSAA 122135Z AUTO 35003KT 10SM 12/08 A3027 RMK AO2 LTG DSNT SW,2025-09-12T21:45:32Z,2025-09-12T17:45:32Z,Shively Field,41.444901,-106.823997,US,US-WY
KSAC,"Sacramento Exec, CA, US",2025-09-12T20:53:00Z,2025-09-12 13:53:00,VFR,28.9,20,VAR,6,0,NA,1012.6,METAR KSAC 122053Z VRB06KT 10SM CLR 29/20 A2990 RMK AO2 SLP123 T02890200 58018,2025-09-12T21:45:32Z,2025-09-12T17:45:32Z,Sacramento Executive Airport,38.5125007629,-121.492996216,US,US-CA
KSAC,"Sacramento Exec, CA, US",2025-09-12T21:53:00Z,2025-09-12 14:53:00,VFR,30,20,220,6,0,NA,1011.6,METAR KSAC 122153Z AUTO 22006KT 10SM CLR 30/20 A2987 RMK AO2 SLP115 T03000200,2025-09-12T21:56:11Z,2025-09-12T17:56:11Z,Sacramento Executive Airport,38.5125007629,-121.492996216,US,US-CA
KSAD,"Safford Rgnl, AZ, US",2025-09-12T20:51:00Z,2025-09-12 13:51:00,VFR,29.4,16.1,290,16,0,NA,1014.3,METAR KSAD 122051Z AUTO 29016KT 10SM CLR 29/16 A2995 RMK AO2 PK WND 29041/2018 LTG DSNT E SLP093 T02940161 56019,2025-09-12T21:45:32Z,2025-09-12T17:45:32Z,Safford Regional Airport,32.85480118,-109.6350021,US,US-AZ
KSAD,"Safford Rgnl, AZ, US",2025-09-12T21:51:00Z,2025-09-12 14:51:00,VFR,27.8,17.2,280,17,25,NA,1013.3,METAR KSAD 122151Z AUTO 28017G25KT 10SM CLR 28/17 A2992 RMK AO2 PK WND 28027/2124 LTG DSNT SW SLP084 T02780172,2025-09-12T21:56:11Z,2025-09-12T17:56:11Z,Safford Regional Airport,32.85480118,-109.6350021,US,US-AZ
KSAF,"Santa Fe Cnty Muni, NM, US",2025-09-12T20:53:00Z,2025-09-12 14:53:00,VFR,27.2,5,180,14,32,NA,1021.4,METAR KSAF 122053Z 18014G32KT 10SM CLR 27/05 A3016 RMK AO2 PK WND 16032/2045 SLP103 T02720050 56030,2025-09-12T21:45:32Z,2025-09-12T17:45:32Z,Santa Fe Municipal Airport,35.6171,-106.088997,US,US-NM
KSAF,"Santa Fe Cnty Muni, NM, US",2025-09-12T21:53:00Z,2025-09-12 15:53:00,VFR,26.7,4.4,150,19,26,NA,1020.7,METAR KSAF 122153Z AUTO 15019G26KT 10SM FEW120 27/04 A3014 RMK AO2 PK WND 16026/2152 RAB19E29 SLP098 P0000 T02670044,2025-09-12T21:56:11Z,2025-09-12T17:56:11Z,Santa Fe Municipal Airport,35.6171,-106.088997,US,US-NM
KSAN,"San Diego Intl Arpt, CA, US",2025-09-12T20:51:00Z,2025-09-12 13:51:00,VFR,22.8,15,210,8,15,NA,1014,METAR KSAN 122051Z 21008G15KT 10SM FEW010 SCT026 23/15 A2994 RMK AO2 SLP137 T02280150 56020,2025-09-12T21:45:32Z,2025-09-12T17:45:32Z,San Diego International Airport,32.7336006165,-117.190002441,US,US-CA
KSAN,"San Diego Intl Arpt, CA, US",2025-09-12T21:51:00Z,2025-09-12 14:51:00,VFR,23.3,15,230,9,16,NA,1013.3,METAR KSAN 122151Z 23009G16KT 200V290 10SM FEW026 23/15 A2992 RMK AO2 SLP132 T02330150,2025-09-12T21:56:11Z,2025-09-12T17:56:11Z,San Diego International Airport,32.7336006165,-117.190002441,US,US-CA
KSAR,"Sparta/Hunter Fld, IL, US",2025-09-12T21:35:00Z,2025-09-12 16:35:00,VFR,34.2,14.4,100,4,0,NA,1018.4,METAR KSAR 122135Z AUTO 10004KT 10SM CLR 34/14 A3007 RMK AO2 T03420144,2025-09-12T21:45:32Z,2025-09-12T17:45:32Z,Sparta Community Airport - Hunter Field,38.148899,-89.6987,US,US-IL
KSAT,"San Antonio Intl, TX, US",2025-09-12T20:51:00Z,2025-09-12 15:51:00,VFR,33.9,13.9,VAR,6,0,NA,1017.4,METAR KSAT 122051Z VRB06KT 10SM FEW060 FEW250 34/14 A3004 RMK AO2 SLP152 T03390139 58026,2025-09-12T21:45:32Z,2025-09-12T17:45:32Z,San Antonio International Airport,29.533701,-98.469803,US,US-TX
KSAT,"San Antonio Intl, TX, US",2025-09-12T21:51:00Z,2025-09-12 16:51:00,VFR,33.9,13.9,130,10,16,NA,1016.7,METAR KSAT 122151Z 13010G16KT 10SM FEW070 FEW250 34/14 A3002 RMK AO2 SLP146 T03390139,2025-09-12T21:56:11Z,2025-09-12T17:56:11Z,San Antonio International Airport,29.533701,-98.469803,US,US-TX
KSAV,"Savannah Intl, GA, US",2025-09-12T20:53:00Z,2025-09-12 16:53:00,VFR,27.8,16.1,50,10,0,NA,1017.4,METAR KSAV 122053Z 05010KT 10SM FEW050 BKN080 BKN250 28/16 A3004 RMK AO2 SLP172 T02780161 56012,2025-09-12T21:45:32Z,2025-09-12T17:45:32Z,Savannah Hilton Head International Airport,32.127602,-81.202103,US,US-GA
KSAV,"Savannah Intl, GA, US",2025-09-12T21:53:00Z,2025-09-12 17:53:00,VFR,28.3,16.1,20,8,0,NA,1017.4,METAR KSAV 122153Z 02008KT 10SM SCT080 BKN250 28/16 A3004 RMK AO2 SLP172 T02830161,2025-09-12T21:56:11Z,2025-09-12T17:56:11Z,Savannah Hilton Head International Airport,32.127602,-81.202103,US,US-GA
KSAW,"Marquette/Sawyer Intl, MI, US",2025-09-12T20:46:00Z,2025-09-12 16:46:00,VFR,23,15,190,6,0,NA,1020.4,METAR KSAW 122046Z 19006KT 10SM SCT040 BKN050 23/15 A3013,2025-09-12T21:45:32Z,2025-09-12T17:45:32Z,Marquette/Sawyer International Airport,46.3536,-87.395401,US,US-MI
KSAW,"Marquette/Sawyer Intl, MI, US",2025-09-12T21:45:00Z,2025-09-12 17:45:00,VFR,22,16,190,7,0,NA,1019.7,METAR KSAW 122145Z 19007KT 10SM CLR 22/16 A3011,2025-09-12T21:56:11Z,2025-09-12T17:56:11Z,Marquette/Sawyer International Airport,46.3536,-87.395401,US,US-MI
KSAZ,"Staples Muni, MN, US",2025-09-12T21:35:00Z,2025-09-12 21:35:00,VFR,20,16,100,4,0,NA,1014.6,METAR KSAZ 122135Z AUTO 10004KT 10SM CLR 20/16 A2996 RMK AO2,2025-09-12T21:45:32Z,2025-09-12T17:45:32Z,Staples Municipal Airport,46.380901,-94.806602,US,US-MN
KSBA,"Santa Barbara Muni, CA, US",2025-09-12T20:53:00Z,2025-09-12 13:53:00,VFR,22.8,16.7,160,8,0,NA,1013,METAR KSBA 122053Z 16008KT 10SM SCT030 23/17 A2991 RMK AO2 SLP129 T02280167 58014 $,2025-09-12T21:45:32Z,2025-09-12T17:45:32Z,Santa Barbara Municipal Airport,34.426201,-119.839996,US,US-CA
KSBA,"Santa Barbara Muni, CA, US",2025-09-12T21:53:00Z,2025-09-12 14:53:00,VFR,22.8,15.6,190,5,0,NA,1012.3,METAR KSBA 122153Z 19005KT 10SM CLR 23/16 A2989 RMK AO2 SLP123 T02280156 $,2025-09-12T21:56:11Z,2025-09-12T17:56:11Z,Santa Barbara Municipal Airport,34.426201,-119.839996,US,US-CA
KSBD,"San Bernardino Intl, CA, US",2025-09-12T20:53:00Z,2025-09-12 13:53:00,VFR,25,9,220,5,0,7,1013.3,METAR KSBD 122053Z 22005KT 7SM CLR 25/09 A2992,2025-09-12T21:45:32Z,2025-09-12T17:45:32Z,San Bernardino International Airport,34.095402,-117.235001,US,US-CA
KSBD,"San Bernardino Intl, CA, US",2025-09-12T21:49:00Z,2025-09-12 14:49:00,VFR,27,9,260,4,0,NA,1012.6,METAR KSBD 122149Z 26004KT 10SM CLR 27/09 A2990,2025-09-12T21:56:11Z,2025-09-12T17:56:11Z,San Bernardino International Airport,34.095402,-117.235001,US,US-CA
KSBM,"Sheboygan Cnty Mem, WI, US",2025-09-12T20:53:00Z,2025-09-12 15:53:00,VFR,22.2,13.3,130,8,0,NA,1021.1,METAR KSBM 122053Z AUTO 13008KT 10SM CLR 22/13 A3015 RMK AO2 SLP209 T02220133 56020,2025-09-12T21:45:32Z,2025-09-12T17:45:32Z,Sheboygan County Memorial Airport,43.76959991,-87.85140228,US,US-WI
KSBM,"Sheboygan Cnty Mem, WI, US",2025-09-12T21:53:00Z,2025-09-12 16:53:00,VFR,19.4,15.6,150,6,0,NA,1020.7,METAR KSBM 122153Z AUTO 15006KT 10SM CLR 19/16 A3014 RMK AO2 SLP206 T01940156,2025-09-12T21:56:11Z,2025-09-12T17:56:11Z,Sheboygan County Memorial Airport,43.76959991,-87.85140228,US,US-WI
KSBN,"South Bend Rgnl, IN, US",2025-09-12T20:54:00Z,2025-09-12 16:54:00,VFR,27.2,11.1,200,6,0,NA,1021.8,METAR KSBN 122054Z 20006KT 10SM BKN065 27/11 A3017 RMK AO2 SLP212 T02720111 58018,2025-09-12T21:45:32Z,2025-09-12T17:45:32Z,South Bend Regional Airport,41.708698,-86.317299,US,US-IN
KSBO,"Swainsboro/E Georgia Rgnl, GA, US",2025-09-12T21:35:00Z,2025-09-12 21:35:00,VFR,28,15,60,8,0,NA,1018.7,METAR KSBO 122135Z AUTO 06008KT 10SM SCT060 SCT090 28/15 A3008 RMK AO2,2025-09-12T21:45:32Z,2025-09-12T17:45:32Z,Emanuel County Airport,32.6091,-82.369904,US,US-GA
KSBP,"San Luis Obispo/San Luis Cnty, CA, US",2025-09-12T20:56:00Z,2025-09-12 13:56:00,VFR,23.9,13.9,310,18,0,NA,1013.3,METAR KSBP 122056Z 31018KT 10SM CLR 24/14 A2992 RMK AO2 SLP128 T02390139 58022,2025-09-12T21:45:32Z,2025-09-12T17:45:32Z,San Luis County Regional Airport,35.236801147499996,-120.641998291,US,US-CA
KSBS,"Steamboat Springs/Adams Fld, CO, US",2025-09-12T21:35:00Z,2025-09-12 15:35:00,VFR,12.8,8.7,0,0,0,NA,1024.8,METAR KSBS 122135Z AUTO 00000KT 10SM SCT034 BKN043 OVC055 13/09 A3026 RMK AO1 T01280087,2025-09-12T21:45:32Z,2025-09-12T17:45:32Z,Steamboat Springs Bob Adams Field,40.5163002,-106.8659973,US,US-CO
KSBX,"Shelby/Toole Cnty Arpt, MT, US",2025-09-12T21:35:00Z,2025-09-12 15:35:00,VFR,25,9,VAR,5,0,NA,1016,METAR KSBX 122135Z AUTO VRB05KT 10SM CLR 25/09 A3000 RMK AO2 LTG DSNT SE AND SW,2025-09-12T21:45:32Z,2025-09-12T17:45:32Z,Shelby Airport,48.5406990051,-111.871002197,US,US-MT
KSBY,"Salisbury/Ocean City, MD, US",2025-09-12T20:54:00Z,2025-09-12 16:54:00,VFR,25.6,11.1,70,9,0,NA,1021.8,METAR KSBY 122054Z 07009KT 10SM CLR 26/11 A3017 RMK AO2 SLP217 T02560111 55006,2025-09-12T21:45:32Z,2025-09-12T17:45:32Z,Salisbury Ocean City Wicomico Regional Airport,38.34049987792969,-75.51029968261719,US,US-MD
KSCD,"Sylacauga Muni, AL, US",2025-09-12T21:35:00Z,2025-09-12 21:35:00,NA,31.2,14.3,80,4,0,NA,1018.4,METAR KSCD 122135Z AUTO 08004KT SCT080 BKN100 OVC120 31/14 A3007 RMK AO2 T03120143 PWINO,2025-09-12T21:45:32Z,2025-09-12T17:45:32Z,Merkel Field Sylacauga Municipal Airport,33.171799,-86.305496,US,US-AL
KSCH,"Schenectady Cnty, NY, US",2025-09-12T20:59:00Z,2025-09-12 16:59:00,VFR,27,9,10,5,0,NA,1021.8,METAR KSCH 122059Z 01005KT 10SM BKN065 27/09 A3017,2025-09-12T21:45:32Z,2025-09-12T17:45:32Z,Schenectady County Airport,42.852500915527,-73.928901672363,US,US-NY
KSCH,"Schenectady Cnty, NY, US",2025-09-12T21:51:00Z,2025-09-12 17:51:00,VFR,27,9,0,0,0,NA,1021.4,METAR KSCH 122151Z 00000KT 10SM BKN065 OVC070 27/09 A3016,2025-09-12T21:56:11Z,2025-09-12T17:56:11Z,Schenectady County Airport,42.852500915527,-73.928901672363,US,US-NY
KSCK,"Stockton Metro, CA, US",2025-09-12T20:55:00Z,2025-09-12 13:55:00,VFR,29.4,13.9,VAR,5,0,NA,1012.6,METAR KSCK 122055Z VRB05KT 10SM CLR 29/14 A2990 RMK AO2 SLP125 T02940139 58020,2025-09-12T21:45:32Z,2025-09-12T17:45:32Z,Stockton Metropolitan Airport,37.893279,-121.238079,US,US-CA
KSCX,"Oneida/Scott Muni, TN, US",2025-09-12T21:35:00Z,2025-09-12 21:35:00,VFR,26,12,70,5,0,NA,1021.1,METAR KSCX 122135Z AUTO 07005KT 10SM CLR 26/12 A3015 RMK A01,2025-09-12T21:45:32Z,2025-09-12T17:45:32Z,Scott Municipal Airport,36.455505,-84.586008,US,US-TN
KSDA,"Shenandoah Muni, IA, US",2025-09-12T21:35:00Z,2025-09-12 21:35:00,VFR,34,19,190,14,0,NA,1012.6,METAR KSDA 122135Z AUTO 19014KT 10SM CLR 34/19 A2990 RMK AO2,2025-09-12T21:45:32Z,2025-09-12T17:45:32Z,Shenandoah Municipal Airport,40.7515983581543,-95.4136962890625,US,US-IA
KSDC,"Williamson-Sodus Arpt, NY, US",2025-09-12T21:35:00Z,2025-09-12 21:35:00,VFR,22,11,70,3,0,NA,1022.8,METAR KSDC 122135Z AUTO 07003KT 10SM CLR 22/11 A3020 RMK AO2,2025-09-12T21:45:32Z,2025-09-12T17:45:32Z,Williamson Sodus Airport,43.234573,-77.119403,US,US-NY
KSDC,"Williamson-Sodus Arpt, NY, US",2025-09-12T21:55:00Z,2025-09-12 21:55:00,VFR,22,12,0,0,0,NA,1022.8,METAR KSDC 122155Z AUTO 00000KT 10SM CLR 22/12 A3020 RMK AO2,2025-09-12T21:56:11Z,2025-09-12T17:56:11Z,Williamson Sodus Airport,43.234573,-77.119403,US,US-NY
KSDF,"Louisville Intl, KY, US",2025-09-12T20:56:00Z,2025-09-12 16:56:00,VFR,30.6,11.7,0,0,0,NA,1019.7,METAR KSDF 122056Z 00000KT 10SM FEW070 FEW350 31/12 A3011 RMK AO2 SLP192 T03060117 56019,2025-09-12T21:45:32Z,2025-09-12T17:45:32Z,Louisville Muhammad Ali International Airport,38.1744,-85.736,US,US-KY
KSDL,"Scottsdale Muni, AZ, US",2025-09-12T20:53:00Z,2025-09-12 13:53:00,VFR,35.6,15,VAR,4,0,NA,1010.2,METAR KSDL 122053Z VRB04KT 10SM CLR 36/15 A2983 RMK AO2 SLP070 T03560150 58026,2025-09-12T21:45:32Z,2025-09-12T17:45:32Z,Scottsdale Airport,33.622898101807,-111.91100311279,US,US-AZ
KSDL,"Scottsdale Muni, AZ, US",2025-09-12T21:53:00Z,2025-09-12 14:53:00,VFR,35.6,15.6,VAR,4,0,NA,1009.2,METAR KSDL 122153Z VRB04KT 10SM FEW080 36/16 A2980 RMK AO2 SLP060 T03560156,2025-09-12T21:56:11Z,2025-09-12T17:56:11Z,Scottsdale Airport,33.622898101807,-111.91100311279,US,US-AZ
KSDM,"San Diego/Brown Fld, CA, US",2025-09-12T20:53:00Z,2025-09-12 13:53:00,VFR,25,14.4,280,7,0,NA,1013.3,METAR KSDM 122053Z 28007KT 10SM CLR 25/14 A2992 RMK AO2 SLP127 T02500144 58013,2025-09-12T21:45:32Z,2025-09-12T17:45:32Z,Brown Field Municipal Airport,32.572639,-116.980019,US,US-CA
KSDM,"San Diego/Brown Fld, CA, US",2025-09-12T21:53:00Z,2025-09-12 14:53:00,VFR,24.4,15,270,9,0,NA,1013,METAR KSDM 122153Z 27009KT 10SM CLR 24/15 A2991 RMK AO2 SLP123 T02440150,2025-09-12T21:56:11Z,2025-09-12T17:56:11Z,Brown Field Municipal Airport,32.572639,-116.980019,US,US-CA
KSEA,"Seattle-Tacoma Intl, WA, US",2025-09-12T21:25:00Z,2025-09-12 14:25:00,VFR,20,12.2,VAR,4,0,NA,1018,SPECI KSEA 122125Z VRB04KT 10SM BKN031 20/12 A3006 RMK AO2 T02000122 $,2025-09-12T21:45:32Z,2025-09-12T17:45:32Z,Seattle–Tacoma International Airport,47.447943,-122.310276,US,US-WA
KSEA,"Seattle-Tacoma Intl, WA, US",2025-09-12T21:53:00Z,2025-09-12 14:53:00,VFR,20.6,12.2,270,7,0,NA,1017.7,METAR KSEA 122153Z 27007KT 10SM BKN031 21/12 A3005 RMK AO2 SLP179 T02060122 $,2025-09-12T21:56:11Z,2025-09-12T17:56:11Z,Seattle–Tacoma International Airport,47.447943,-122.310276,US,US-WA
KSEE,"San Diego/Gillespie Fld, CA, US",2025-09-12T20:47:00Z,2025-09-12 13:47:00,VFR,26,15,250,5,0,NA,1013.3,METAR KSEE 122047Z 25005KT 10SM SKC 26/15 A2992,2025-09-12T21:45:32Z,2025-09-12T17:45:32Z,Gillespie Field,32.826198577881,-116.97200012207,US,US-CA
KSEE,"San Diego/Gillespie Fld, CA, US",2025-09-12T21:47:00Z,2025-09-12 14:47:00,VFR,26,15,240,10,0,NA,1013.3,METAR KSEE 122147Z 24010KT 10SM SKC 26/15 A2992,2025-09-12T21:56:11Z,2025-09-12T17:56:11Z,Gillespie Field,32.826198577881,-116.97200012207,US,US-CA
KSEF,"Sebring Rgnl, FL, US",2025-09-12T21:35:00Z,2025-09-12 17:35:00,VFR,27.7,22.4,40,3,0,NA,1014,METAR KSEF 122135Z AUTO 04003KT 10SM BKN037 BKN050 28/22 A2994 RMK AO2 LTG DSNT SE AND SW T02770224,2025-09-12T21:45:32Z,2025-09-12T17:45:32Z,Sebring Regional Airport,27.45639992,-81.3423996,US,US-FL
KSEG,"Selinsgrove/Penn Valley Arpt, PA, US",2025-09-12T20:53:00Z,2025-09-12 16:53:00,VFR,26.1,10.6,140,3,0,NA,1021.4,METAR KSEG 122053Z AUTO 14003KT 10SM CLR 26/11 A3016 RMK AO2 SLP211 T02610106 56013,2025-09-12T21:45:32Z,2025-09-12T17:45:32Z,Penn Valley Airport,40.820598602295,-76.863899230957,US,US-PA
KSEG,"Selinsgrove/Penn Valley Arpt, PA, US",2025-09-12T21:53:00Z,2025-09-12 17:53:00,VFR,24.4,12.8,0,0,0,NA,1021.1,METAR KSEG 122153Z AUTO 00000KT 10SM CLR 24/13 A3015 RMK AO2 SLP208 T02440128,2025-09-12T21:56:11Z,2025-09-12T17:56:11Z,Penn Valley Airport,40.820598602295,-76.863899230957,US,US-PA
KSEM,"Selma/Craig Fld, AL, US",2025-09-12T21:35:00Z,2025-09-12 16:35:00,VFR,34,14,40,9,0,NA,1016.7,METAR KSEM 122135Z AUTO 04009KT 10SM CLR 34/14 A3002 RMK AO2,2025-09-12T21:45:32Z,2025-09-12T17:45:32Z,Craig Field,32.343898773193,-86.987800598145,US,US-AL
KSEP,"Stephenville/Clark Rgnl, TX, US",2025-09-12T21:35:00Z,2025-09-12 16:35:00,VFR,33.6,14.6,160,8,14,NA,1019.4,METAR KSEP 122135Z AUTO 16008G14KT 10SM CLR 34/15 A3010 RMK AO2 T03360146,2025-09-12T21:45:32Z,2025-09-12T17:45:32Z,Stephenville Clark Regional Airport,32.215302,-98.177696,US,US-TX
KSEQ,"Seguin/Randolph AUX, TX, US",2025-09-12T20:55:00Z,2025-09-12 20:55:00,VFR,36.4,13.8,150,6,0,NA,1015.3,METAR KSEQ 122055Z AUTO 15006KT 10SM CLR 36/14 A2998 RMK AO2 SLP147 T03640138 57025,2025-09-12T21:45:32Z,2025-09-12T17:45:32Z,Randolph Air Force Base Auxiliary Airport,29.564499,-97.902517,US,US-TX
KSET,"St Charles/Smartt Arpt, MO, US",2025-09-12T20:54:00Z,2025-09-12 20:54:00,VFR,33.3,16.1,100,7,0,NA,1017.7,METAR KSET 122054Z AUTO 10007KT 10SM CLR 33/16 A3005 RMK AO2 SLP170 T03330161 56023,2025-09-12T21:45:32Z,2025-09-12T17:45:32Z,St Charles County Regional Airport/Smartt Field,38.929699,-90.43,US,US-MO
KSFB,"Sanford Intl, FL, US",2025-09-12T20:53:00Z,2025-09-12 16:53:00,VFR,28.3,21.1,30,12,23,NA,1014.6,METAR KSFB 122053Z 03012G23KT 10SM SCT033 BKN040 BKN050 28/21 A2996 RMK AO1 SLP145 T02830211 55008,2025-09-12T21:45:32Z,2025-09-12T17:45:32Z,Orlando Sanford International Airport,28.777599334716797,-81.23750305175781,US,US-FL
KSFB,"Sanford Intl, FL, US",2025-09-12T21:53:00Z,2025-09-12 17:53:00,VFR,26.1,22.2,60,12,0,NA,1015.3,METAR KSFB 122153Z 06012KT 10SM SCT030 BKN039 OVC055 26/22 A2998 RMK AO1 SLP150 T02610222,2025-09-12T21:56:11Z,2025-09-12T17:56:11Z,Orlando Sanford International Airport,28.777599334716797,-81.23750305175781,US,US-FL
KSFF,"Spokane/Felts Fld, WA, US",2025-09-12T20:53:00Z,2025-09-12 13:53:00,VFR,25.6,13.3,240,9,0,NA,1015.7,METAR KSFF 122053Z 24009KT 10SM FEW042 26/13 A2999 RMK AO2 SLP141 T02560133 58015,2025-09-12T21:45:32Z,2025-09-12T17:45:32Z,Felts Field,47.682899,-117.321925,US,US-WA
KSFF,"Spokane/Felts Fld, WA, US",2025-09-12T21:53:00Z,2025-09-12 14:53:00,VFR,26.1,12.8,VAR,3,0,NA,1015,METAR KSFF 122153Z VRB03KT 10SM CLR 26/13 A2997 RMK AO2 SLP134 T02610128,2025-09-12T21:56:11Z,2025-09-12T17:56:11Z,Felts Field,47.682899,-117.321925,US,US-WA
KSFM,"Sanford Rgnl, ME, US",2025-09-12T20:56:00Z,2025-09-12 16:56:00,VFR,19.4,9.4,VAR,5,0,NA,1022.8,METAR KSFM 122056Z AUTO VRB05KT 10SM CLR 19/09 A3020 RMK AO2 SLP229 T01940094 56010,2025-09-12T21:45:32Z,2025-09-12T17:45:32Z,Sanford Seacoast Regional Airport,43.393901824951,-70.708000183105,US,US-ME
KSFO,"San Francisco Intl, CA, US",2025-09-12T20:56:00Z,2025-09-12 13:56:00,VFR,21.1,13.9,280,18,0,NA,1015,METAR KSFO 122056Z 28018KT 10SM FEW005 FEW016 21/14 A2997 RMK AO2 SLP149 T02110139 58008,2025-09-12T21:45:32Z,2025-09-12T17:45:32Z,San Francisco International Airport,37.619806,-122.374821,US,US-CA
KSFQ,"Suffolk Muni, VA, US",2025-09-12T21:35:00Z,2025-09-12 21:35:00,NA,24.8,12.2,VAR,NA,0,NA,1021.1,METAR KSFQ 122135Z AUTO CLR 25/12 A3015 RMK AO2 T02480122 PWINO TSNO,2025-09-12T21:45:32Z,2025-09-12T17:45:32Z,Suffolk Executive Airport,36.6824,-76.601898,US,US-VA
KSFZ,"Pawtucket/N Central State Arpt, RI, US",2025-09-12T20:56:00Z,2025-09-12 16:56:00,VFR,20.6,13.9,150,3,0,NA,1022.8,METAR KSFZ 122056Z AUTO 15003KT 10SM CLR 21/14 A3020 RMK AO2 SLP224 T02060139 56006 $,2025-09-12T21:45:32Z,2025-09-12T17:45:32Z,North Central State Airport,41.9207992554,-71.49140167239999,US,US-RI
KSGF,"Springfield Muni, MO, US",2025-09-12T20:52:00Z,2025-09-12 15:52:00,VFR,34.4,15,190,10,16,NA,1018.4,METAR KSGF 122052Z 19010G16KT 10SM CLR 34/15 A3007 RMK AO2 SLP167 T03440150 56022,2025-09-12T21:45:32Z,2025-09-12T17:45:32Z,Springfield Branson National Airport,37.245701,-93.388603,US,US-MO
KSGF,"Springfield Muni, MO, US",2025-09-12T21:52:00Z,2025-09-12 16:52:00,VFR,33.9,15.6,220,7,0,NA,1018,METAR KSGF 122152Z 22007KT 10SM CLR 34/16 A3006 RMK AO2 SLP165 T03390156,2025-09-12T21:56:11Z,2025-09-12T17:56:11Z,Springfield Branson National Airport,37.245701,-93.388603,US,US-MO
KSGH,"Springfield Muni, OH, US",2025-09-12T20:56:00Z,2025-09-12 16:56:00,VFR,27.2,7.2,VAR,3,0,NA,1021.8,METAR KSGH 122056Z AUTO VRB03KT 10SM CLR 27/07 A3017 RMK AO2 SLP212 T02720072 56018,2025-09-12T21:45:32Z,2025-09-12T17:45:32Z,Springfield-Beckley Municipal Airport,39.840301513672,-83.840202331543,US,US-OH
KSGJ,"St Augustine Arpt, FL, US",2025-09-12T20:56:00Z,2025-09-12 16:56:00,VFR,NA,NA,10,12,0,NA,1017,METAR KSGJ 122056Z 01012KT 10SM SCT022 A3003 RMK AO2 SLPNO 53000 $,2025-09-12T21:45:32Z,2025-09-12T17:45:32Z,Northeast Florida Regional Airport,29.9592,-81.339798,US,US-FL
KSGR,"Houston/Sugar Land Rgnl, TX, US",2025-09-12T20:53:00Z,2025-09-12 15:53:00,VFR,33.9,19.4,140,10,0,NA,1017.4,METAR KSGR 122053Z 14010KT 10SM SCT060 34/19 A3004 RMK AO2 SLP172 T03390194 56020,2025-09-12T21:45:32Z,2025-09-12T17:45:32Z,Sugar Land Regional Airport,29.622299194336,-95.65650177002,US,US-TX
KSGR,"Houston/Sugar Land Rgnl, TX, US",2025-09-12T21:53:00Z,2025-09-12 16:53:00,VFR,33.3,18.9,120,6,0,NA,1017,METAR KSGR 122153Z 12006KT 10SM CLR 33/19 A3003 RMK AO2 SLP169 T03330189,2025-09-12T21:56:11Z,2025-09-12T17:56:11Z,Sugar Land Regional Airport,29.622299194336,-95.65650177002,US,US-TX
KSGS,"South St Paul Muni, MN, US",2025-09-12T21:35:00Z,2025-09-12 21:35:00,VFR,25.7,18,70,4,0,7,1016,METAR KSGS 122135Z AUTO 07004KT 7SM -RA SCT038 SCT050 BKN075 26/18 A3000 RMK AO2 LTG DSNT NE T02570180,2025-09-12T21:45:32Z,2025-09-12T17:45:32Z,South St Paul Municipal Airport/Richard E Fleming Field,44.857101,-93.032898,US,US-MN
KSGT,"Stuttgart Muni, AR, US",2025-09-12T20:56:00Z,2025-09-12 15:56:00,VFR,33.3,17.8,0,0,0,NA,1018.4,METAR KSGT 122056Z AUTO 00000KT 10SM CLR 33/18 A3007 RMK AO2 SLP182 T03330178 56021,2025-09-12T21:45:32Z,2025-09-12T17:45:32Z,Stuttgart Municipal Airport / Carl Humphrey Field,34.599499,-91.574997,US,US-AR
KSGU,"Saint George Muni, UT, US",2025-09-12T20:56:00Z,2025-09-12 14:56:00,VFR,30.6,0,260,11,21,NA,1011.9,METAR KSGU 122056Z AUTO 26011G21KT 10SM CLR 31/00 A2988 RMK AO2 WSHFT 2021 SLP086 T03060000 56023,2025-09-12T21:45:32Z,2025-09-12T17:45:32Z,St George Regional Airport,37.036389,-113.510306,US,US-UT
KSHD,"Staunton/Shenandoah Valley Rgnl, VA, US",2025-09-12T21:35:00Z,2025-09-12 17:35:00,VFR,26.3,8,0,0,0,NA,1022.4,METAR KSHD 122135Z AUTO 00000KT 10SM CLR 26/08 A3019 RMK AO2 T02630080,2025-09-12T21:45:32Z,2025-09-12T17:45:32Z,Shenandoah Valley Regional Airport,38.263802,-78.8964,US,US-VA
KSHL,"Sheldon Muni, IA, US",2025-09-12T21:35:00Z,2025-09-12 21:35:00,VFR,28,19,150,11,0,NA,1011.9,METAR KSHL 122135Z AUTO 15011KT 10SM CLR 28/19 A2988 RMK AO2,2025-09-12T21:45:32Z,2025-09-12T17:45:32Z,Sheldon Regional Airport,43.208401,-95.833396,US,US-IA
KSHN,"Shelton/Sanderson Fld, WA, US",2025-09-12T20:53:00Z,2025-09-12 13:53:00,VFR,22.2,13.3,160,4,0,NA,1016.7,METAR KSHN 122053Z AUTO 16004KT 10SM SCT027 22/13 A3002 RMK AO2 SLP166 T02220133 58016,2025-09-12T21:45:32Z,2025-09-12T17:45:32Z,Sanderson Field,47.233600616455,-123.14800262451,US,US-WA
KSHN,"Shelton/Sanderson Fld, WA, US",2025-09-12T21:53:00Z,2025-09-12 14:53:00,VFR,21.1,12.8,110,3,0,NA,1016.3,METAR KSHN 122153Z AUTO 11003KT 10SM BKN035 21/13 A3001 RMK AO2 SLP162 T02110128,2025-09-12T21:56:11Z,2025-09-12T17:56:11Z,Sanderson Field,47.233600616455,-123.14800262451,US,US-WA
KSHR,"Sheridan Cnty Arpt, WY, US",2025-09-12T20:53:00Z,2025-09-12 14:53:00,VFR,22.2,11.7,160,12,0,NA,1017,METAR KSHR 122053Z AUTO 16012KT 10SM CLR 22/12 A3003 RMK AO2 SLP145 60000 T02220117 56011,2025-09-12T21:45:32Z,2025-09-12T17:45:32Z,Sheridan County Airport,44.76919937133789,-106.9800033569336,US,US-WY
KSHR,"Sheridan Cnty Arpt, WY, US",2025-09-12T21:53:00Z,2025-09-12 15:53:00,VFR,21.1,10.6,160,9,20,NA,1016.7,METAR KSHR 122153Z AUTO 16009G20KT 10SM SCT120 21/11 A3002 RMK AO2 LTG DSNT SE SLP143 T02110106,2025-09-12T21:56:11Z,2025-09-12T17:56:11Z,Sheridan County Airport,44.76919937133789,-106.9800033569336,US,US-WY
KSHV,"Shreveport Rgnl, LA, US",2025-09-12T20:56:00Z,2025-09-12 15:56:00,VFR,36,20,0,0,0,NA,1017.7,METAR KSHV 122056Z 00000KT 10SM FEW060 36/20 A3005 RMK SLPNO,2025-09-12T21:45:32Z,2025-09-12T17:45:32Z,Shreveport Regional Airport,32.446602,-93.8256,US,US-LA
KSHV,"Shreveport Rgnl, LA, US",2025-09-12T21:56:00Z,2025-09-12 16:56:00,VFR,36,20,0,0,0,NA,1017.4,METAR KSHV 122156Z 00000KT 10SM FEW060 FEW270 36/20 A3004 RMK SLPNO,2025-09-12T21:56:11Z,2025-09-12T17:56:11Z,Shreveport Regional Airport,32.446602,-93.8256,US,US-LA
KSIF,"Eden/Shiloh Arpt, NC, US",2025-09-12T21:35:00Z,2025-09-12 21:35:00,VFR,27.6,13.3,0,0,0,NA,1020.4,METAR KSIF 122135Z AUTO 00000KT 10SM SCT065 SCT075 28/13 A3013 RMK AO2 T02760133,2025-09-12T21:45:32Z,2025-09-12T17:45:32Z,Rockingham County NC Shiloh Airport,36.437199,-79.850998,US,US-NC
KSIF,"Eden/Shiloh Arpt, NC, US",2025-09-12T21:45:00Z,2025-09-12 21:45:00,VFR,27.7,13.5,80,7,0,NA,1020.4,METAR KSIF 122145Z AUTO 08007KT 10SM SCT065 SCT075 28/14 A3013 RMK AO2 T02770135,2025-09-12T21:56:11Z,2025-09-12T17:56:11Z,Rockingham County NC Shiloh Airport,36.437199,-79.850998,US,US-NC
KSIK,"Sikeston Arpt, MO, US",2025-09-12T21:35:00Z,2025-09-12 16:35:00,NA,34.8,16.2,80,8,0,NA,1017.7,METAR KSIK 122135Z AUTO 08008KT BKN075 35/16 A3005 RMK AO2 T03480162 PWINO $,2025-09-12T21:45:32Z,2025-09-12T17:45:32Z,Sikeston Memorial Municipal Airport,36.898899078369,-89.561798095703,US,US-MO
KSIY,"Montague/Siskiyou Cnty, CA, US",2025-09-12T20:53:00Z,2025-09-12 20:53:00,VFR,25,9.4,VAR,5,0,NA,1016.7,METAR KSIY 122053Z AUTO VRB05KT 10SM CLR 25/09 A3002 RMK AO2 SLP159 T02500094 56016,2025-09-12T21:45:32Z,2025-09-12T17:45:32Z,Siskiyou County Airport,41.781399,-122.468002,US,US-CA
KSIY,"Montague/Siskiyou Cnty, CA, US",2025-09-12T21:53:00Z,2025-09-12 21:53:00,VFR,26.1,9.4,VAR,3,0,NA,1016,METAR KSIY 122153Z AUTO VRB03KT 10SM CLR 26/09 A3000 RMK AO2 SLP150 T02610094,2025-09-12T21:56:11Z,2025-09-12T17:56:11Z,Siskiyou County Airport,41.781399,-122.468002,US,US-CA
KSJC,"San Jose Intl Arpt, CA, US",2025-09-12T20:53:00Z,2025-09-12 13:53:00,VFR,24.4,15.6,330,10,0,NA,1014.3,METAR KSJC 122053Z 33010KT 10SM FEW020 FEW060 24/16 A2995 RMK AO2 SLP139 T02440156 56017,2025-09-12T21:45:32Z,2025-09-12T17:45:32Z,Norman Y. Mineta San Jose International Airport,37.362452,-121.929188,US,US-CA
KSJC,"San Jose Intl Arpt, CA, US",2025-09-12T21:53:00Z,2025-09-12 14:53:00,VFR,23.9,15.6,310,12,0,NA,1013.6,METAR KSJC 122153Z 31012KT 10SM FEW020 FEW060 24/16 A2993 RMK AO2 SLP136 T02390156,2025-09-12T21:56:11Z,2025-09-12T17:56:11Z,Norman Y. Mineta San Jose International Airport,37.362452,-121.929188,US,US-CA
KSJN,"St Johns Ind Arpt, AZ, US",2025-09-12T20:54:00Z,2025-09-12 13:54:00,VFR,23.9,9.4,150,9,16,NA,1020.4,METAR KSJN 122054Z AUTO 15009G16KT 10SM CLR 24/09 A3013 RMK AO2 SLP119 60007 T02390094 58017,2025-09-12T21:45:32Z,2025-09-12T17:45:32Z,St Johns Industrial Air Park,34.51860046,-109.3789978,US,US-AZ
KSJT,"San Angelo/Mathis Fld, TX, US",2025-09-12T20:51:00Z,2025-09-12 15:51:00,VFR,32.2,15.6,160,8,0,NA,1018.4,METAR KSJT 122051Z 16008KT 10SM CLR 32/16 A3007 RMK AO2 SLP159 T03220156 58024,2025-09-12T21:45:32Z,2025-09-12T17:45:32Z,San Angelo Regional Mathis Field,31.35770034790039,-100.49600219726562,US,US-TX
KSJT,"San Angelo/Mathis Fld, TX, US",2025-09-12T21:51:00Z,2025-09-12 16:51:00,VFR,32.8,15,180,11,17,NA,1017.7,METAR KSJT 122151Z 18011G17KT 10SM SCT075 33/15 A3005 RMK AO2 SLP152 T03280150,2025-09-12T21:56:11Z,2025-09-12T17:56:11Z,San Angelo Regional Mathis Field,31.35770034790039,-100.49600219726562,US,US-TX
KSJX,"Beaver Island Arpt, MI, US",2025-09-12T21:35:00Z,2025-09-12 21:35:00,VFR,21,14,0,0,0,NA,1021.4,METAR KSJX 122135Z AUTO 00000KT 10SM CLR 21/14 A3016 RMK AO2,2025-09-12T21:45:32Z,2025-09-12T17:45:32Z,Beaver Island Airport,45.692299,-85.566597,US,US-MI
KSKA,"Spokane/Fairchild AFB, WA, US",2025-09-12T20:55:00Z,2025-09-12 13:55:00,VFR,24,12,190,8,0,NA,1016,METAR KSKA 122055Z 19008KT 10SM CLR 24/12 A3000 RMK AO2A SLP142 T02400120 57012 $,2025-09-12T21:45:32Z,2025-09-12T17:45:32Z,Fairchild Air Force Base,47.615101,-117.655998,US,US-WA
KSKF,"Lackland AFB/Kelly Fld, TX, US",2025-09-12T20:55:00Z,2025-09-12 15:55:00,VFR,35.4,13.5,70,8,0,NA,1015.7,METAR KSKF 122055Z AUTO 07008KT 10SM CLR 35/14 A2999 RMK AO2 SLP146 T03540135 57028 $,2025-09-12T21:45:32Z,2025-09-12T17:45:32Z,Lackland Air Force Base,29.38419914,-98.58110046,US,US-TX
KSLB,"Storm Lake Muni, IA, US",2025-09-12T21:35:00Z,2025-09-12 16:35:00,VFR,31,19,190,13,23,NA,1012.6,METAR KSLB 122135Z AUTO 19013G23KT 10SM CLR 31/19 A2990 RMK AO2,2025-09-12T21:45:34Z,2025-09-12T17:45:34Z,Storm Lake Municipal Airport,42.5973014832,-95.2406997681,US,US-IA
KSLC,"Salt Lake City Intl, UT, US",2025-09-12T20:54:00Z,2025-09-12 14:54:00,VFR,24.4,7.2,320,10,17,NA,1015,METAR KSLC 122054Z 32010G17KT 290V350 10SM FEW080 SCT120 SCT200 24/07 A2997 RMK AO2 RAB00E16 SLP102 SH DSNT N P0000 60000 T02440072 58011,2025-09-12T21:45:34Z,2025-09-12T17:45:34Z,Salt Lake City International Airport,40.78886,-111.979866,US,US-UT
KSLE,"Salem Muni, OR, US",2025-09-12T20:56:00Z,2025-09-12 13:56:00,VFR,20,11.7,360,4,0,NA,1017,METAR KSLE 122056Z 36004KT 10SM SCT027 20/12 A3003 RMK AO2 SLP170 T02000117 56012,2025-09-12T21:45:34Z,2025-09-12T17:45:34Z,Salem-Willamette Valley Airport/McNary Field,44.9095,-123.002998,US,US-OR
KSLG,"Siloam Springs/Smith Fld, AR, US",2025-09-12T20:56:00Z,2025-09-12 15:56:00,VFR,31.1,20,200,5,0,NA,1020.1,METAR KSLG 122056Z AUTO 20005KT 10SM FEW048 31/20 A3012 RMK AO2 SLP188 T03110200 56018,2025-09-12T21:45:34Z,2025-09-12T17:45:34Z,Smith Field,36.191898,-94.489998,US,US-AR
KSLH,"Cheboygan Cnty Arpt, MI, US",2025-09-12T21:35:00Z,2025-09-12 21:35:00,VFR,18,15,50,5,0,NA,1021.8,METAR KSLH 122135Z AUTO 05005KT 10SM CLR 18/15 A3017 RMK AO2,2025-09-12T21:45:34Z,2025-09-12T17:45:34Z,Cheboygan County Airport,45.653702,-84.519302,US,US-MI
KSLI,"Los Alamitos AAF, CA, US",2025-09-12T20:55:00Z,2025-09-12 20:55:00,VFR,25.6,15.3,200,9,0,NA,1011.6,METAR KSLI 122055Z 20009KT 10SM FEW025 26/15 A2987 RMK AO2A SLP118 T02560153 57019,2025-09-12T21:45:34Z,2025-09-12T17:45:34Z,Los Alamitos Army Air Field,33.79000092,-118.052002,US,US-CA
KSLK,"Saranac Lake/Adirondack Rgnl, NY, US",2025-09-12T20:51:00Z,2025-09-12 16:51:00,VFR,19.4,3.3,230,5,0,NA,1022.8,METAR KSLK 122051Z AUTO 23005KT 10SM CLR 19/03 A3020 RMK AO2 SLP233 T01940033 56013,2025-09-12T21:45:35Z,2025-09-12T17:45:35Z,Adirondack Regional Airport,44.38691,-74.204629,US,US-NY
KSLK,"Saranac Lake/Adirondack Rgnl, NY, US",2025-09-12T21:51:00Z,2025-09-12 17:51:00,VFR,18.9,5.6,280,3,0,NA,1022.8,METAR KSLK 122151Z AUTO 28003KT 10SM CLR 19/06 A3020 RMK AO2 SLP234 T01890056,2025-09-12T21:56:13Z,2025-09-12T17:56:13Z,Adirondack Regional Airport,44.38691,-74.204629,US,US-NY
KSLN,"Salina Rgnl, KS, US",2025-09-12T20:53:00Z,2025-09-12 15:53:00,VFR,33.3,18.9,190,13,22,NA,1015.3,METAR KSLN 122053Z 19013G22KT 10SM CLR 33/19 A2998 RMK AO2 SLP135 T03330189 56014,2025-09-12T21:45:34Z,2025-09-12T17:45:34Z,Salina Municipal Airport,38.79100036621094,-97.6521987915039,US,US-KS
KSLN,"Salina Rgnl, KS, US",2025-09-12T21:53:00Z,2025-09-12 16:53:00,VFR,32.8,18.9,190,14,0,NA,1015,METAR KSLN 122153Z 19014KT 10SM CLR 33/19 A2997 RMK AO2 SLP133 T03280189 $,2025-09-12T21:56:13Z,2025-09-12T17:56:13Z,Salina Municipal Airport,38.79100036621094,-97.6521987915039,US,US-KS
KSLO,"Salem/Leckrone Arpt, IL, US",2025-09-12T21:35:00Z,2025-09-12 16:35:00,VFR,32.5,13.3,120,4,0,NA,1018.7,METAR KSLO 122135Z AUTO 12004KT 10SM CLR 33/13 A3008 RMK AO2 T03250133,2025-09-12T21:45:34Z,2025-09-12T17:45:34Z,Salem–Leckrone Airport,38.642899,-88.964203,US,US-IL
KSLR,"Sulphur Springs Muni, TX, US",2025-09-12T21:35:00Z,2025-09-12 16:35:00,VFR,34.3,15.5,170,3,0,NA,1018.7,METAR KSLR 122135Z AUTO 17003KT 10SM SCT060 34/16 A3008 RMK AO2 T03430155 PWINO,2025-09-12T21:45:34Z,2025-09-12T17:45:34Z,Sulphur Springs Municipal Airport,33.159801483154,-95.621101379395,US,US-TX
KSMD,"Fort Wayne/Smith Fld, IN, US",2025-09-12T21:35:00Z,2025-09-12 17:35:00,VFR,28,11,0,0,0,NA,1021.8,METAR KSMD 122135Z AUTO 00000KT 10SM CLR 28/11 A3017 RMK A01,2025-09-12T21:45:34Z,2025-09-12T17:45:34Z,Smith Field,41.14339828,-85.15280151,US,US-IN
KSME,"Somerset/Lake Cumberland Rgnl, KY, US",2025-09-12T21:35:00Z,2025-09-12 17:35:00,VFR,29,13,50,5,0,NA,1020.1,METAR KSME 122135Z AUTO 05005KT 10SM CLR 29/13 A3012 RMK AO2,2025-09-12T21:45:34Z,2025-09-12T17:45:34Z,Lake Cumberland Regional Airport,37.0533981323,-84.6158981323,US,US-KY
KSMF,"Sacramento Intl, CA, US",2025-09-12T20:53:00Z,2025-09-12 13:53:00,VFR,29.4,12.8,10,7,0,NA,1012.3,METAR KSMF 122053Z 01007KT 10SM CLR 29/13 A2989 RMK AO2 SLP120 T02940128 58018,2025-09-12T21:45:34Z,2025-09-12T17:45:34Z,Sacramento International Airport,38.6954,-121.591003,US,US-CA
KSMF,"Sacramento Intl, CA, US",2025-09-12T21:53:00Z,2025-09-12 14:53:00,VFR,30,13.3,VAR,3,0,NA,1011.3,METAR KSMF 122153Z VRB03KT 10SM CLR 30/13 A2986 RMK AO2 SLP112 T03000133,2025-09-12T21:56:13Z,2025-09-12T17:56:13Z,Sacramento International Airport,38.6954,-121.591003,US,US-CA
KSMN,"Salmon/Lemhi Cnty, ID, US",2025-09-12T20:56:00Z,2025-09-12 14:56:00,VFR,20,7.2,0,0,0,8,1017.4,METAR KSMN 122056Z AUTO 00000KT 8SM CLR 20/07 A3004 RMK AO2 SLP155 T02000072 56027,2025-09-12T21:45:34Z,2025-09-12T17:45:34Z,Lemhi County Airport,45.122233,-113.88196,US,US-ID
KSMO,"Santa Monica Muni, CA, US",2025-09-12T20:51:00Z,2025-09-12 13:51:00,VFR,23.3,16.7,230,10,16,NA,1013,METAR KSMO 122051Z 23010G16KT 10SM CLR 23/17 A2991 RMK AO2 SLP127 T02330167 56018,2025-09-12T21:45:35Z,2025-09-12T17:45:35Z,Santa Monica Municipal Airport,34.0158,-118.450996,US,US-CA
KSMO,"Santa Monica Muni, CA, US",2025-09-12T21:51:00Z,2025-09-12 14:51:00,VFR,23.3,16.7,220,9,16,NA,1012.6,METAR KSMO 122151Z 22009G16KT 10SM FEW017 23/17 A2990 RMK AO2 SLP124 T02330167,2025-09-12T21:56:13Z,2025-09-12T17:56:13Z,Santa Monica Municipal Airport,34.0158,-118.450996,US,US-CA
KSMQ,"Somerville/Somerset Arpt, NJ, US",2025-09-12T20:53:00Z,2025-09-12 20:53:00,VFR,26.1,13.9,0,0,0,NA,1020.7,METAR KSMQ 122053Z AUTO 00000KT 10SM CLR 26/14 A3014 RMK AO2 SLP207 T02610139 58013,2025-09-12T21:45:34Z,2025-09-12T17:45:34Z,Somerset Airport,40.625999450683594,-74.670196533203125,US,US-NJ
KSMQ,"Somerville/Somerset Arpt, NJ, US",2025-09-12T21:53:00Z,2025-09-12 21:53:00,VFR,25,13.9,0,0,0,NA,1020.7,METAR KSMQ 122153Z AUTO 00000KT 10SM CLR 25/14 A3014 RMK AO2 SLP205 T02500139,2025-09-12T21:56:13Z,2025-09-12T17:56:13Z,Somerset Airport,40.625999450683594,-74.670196533203125,US,US-NJ
KSMS,"Sumter Muni, SC, US",2025-09-12T21:35:00Z,2025-09-12 17:35:00,VFR,28,14,0,0,0,NA,1018.7,METAR KSMS 122135Z AUTO 00000KT 10SM FEW080 28/14 A3008 RMK AO2,2025-09-12T21:45:34Z,2025-09-12T17:45:34Z,Sumter Airport,33.994998931885,-80.361297607422,US,US-SC
KSMX,"Santa Maria/Hancock Fld, CA, US",2025-09-12T20:51:00Z,2025-09-12 13:51:00,VFR,21.7,15,290,16,0,9,1014,METAR KSMX 122051Z 29016KT 9SM CLR 22/15 A2994 RMK AO2 SLP138 T02170150 57021,2025-09-12T21:45:35Z,2025-09-12T17:45:35Z,Santa Maria Public Airport Captain G Allan Hancock Field,34.898899,-120.457001,US,US-CA
KSMX,"Santa Maria/Hancock Fld, CA, US",2025-09-12T21:51:00Z,2025-09-12 14:51:00,VFR,22.2,15,300,16,0,9,1013.3,METAR KSMX 122151Z 30016KT 9SM CLR 22/15 A2992 RMK AO2 SLP132 T02220150,2025-09-12T21:56:13Z,2025-09-12T17:56:13Z,Santa Maria Public Airport Captain G Allan Hancock Field,34.898899,-120.457001,US,US-CA
KSNA,"Santa Ana/Wayne Arpt, CA, US",2025-09-12T20:53:00Z,2025-09-12 13:53:00,VFR,23.3,16.1,200,12,0,NA,1013,METAR KSNA 122053Z 20012KT 10SM FEW034 23/16 A2991 RMK AO2 SLP126 T02330161 58017,2025-09-12T21:45:34Z,2025-09-12T17:45:34Z,John Wayne Orange County International Airport,33.675701,-117.867996,US,US-CA
KSNA,"Santa Ana/Wayne Arpt, CA, US",2025-09-12T21:53:00Z,2025-09-12 14:53:00,VFR,23.3,15.6,190,11,0,NA,1012.3,METAR KSNA 122153Z 19011KT 10SM FEW035 23/16 A2989 RMK AO2 SLP121 T02330156,2025-09-12T21:56:13Z,2025-09-12T17:56:13Z,John Wayne Orange County International Airport,33.675701,-117.867996,US,US-CA
KSNC,"Chester Arpt, CT, US",2025-09-12T21:35:00Z,2025-09-12 21:35:00,VFR,21,15,0,0,0,NA,1022.4,METAR KSNC 122135Z AUTO 00000KT 10SM CLR 21/15 A3019 RMK AO2,2025-09-12T21:45:34Z,2025-09-12T17:45:34Z,Chester Airport,41.384177,-72.506011,US,US-CT
KSNH,"Savannah/Hardin Cnty, TN, US",2025-09-12T21:30:00Z,2025-09-12 21:30:00,VFR,31,19,0,0,0,NA,1017.7,METAR KSNH 122130Z AUTO 00000KT 10SM FEW070 SCT085 31/19 A3005 RMK A01,2025-09-12T21:45:34Z,2025-09-12T17:45:34Z,Savannah Hardin County Airport,35.1703987121582,-88.21589660644531,US,US-TN
KSNK,"Snyder/Winston Fld, TX, US",2025-09-12T21:35:00Z,2025-09-12 16:35:00,VFR,32.6,12.2,150,8,15,NA,1018.7,METAR KSNK 122135Z AUTO 15008G15KT 10SM SCT070 33/12 A3008 RMK AO2 T03260122,2025-09-12T21:45:34Z,2025-09-12T17:45:34Z,Winston Field,32.690212,-100.948918,US,US-TX
KSNK,"Snyder/Winston Fld, TX, US",2025-09-12T21:55:00Z,2025-09-12 16:55:00,VFR,32.6,12.1,170,10,16,NA,1018.7,METAR KSNK 122155Z AUTO 17010G16KT 10SM SCT070 33/12 A3008 RMK AO2 T03260121,2025-09-12T21:56:13Z,2025-09-12T17:56:13Z,Winston Field,32.690212,-100.948918,US,US-TX
KSNL,"Shawnee Rgnl, OK, US",2025-09-12T21:35:00Z,2025-09-12 16:35:00,VFR,34.7,15.9,200,9,0,NA,1018,METAR KSNL 122135Z AUTO 20009KT 10SM CLR 35/16 A3006 RMK AO2 T03470159,2025-09-12T21:45:34Z,2025-09-12T17:45:34Z,Shawnee Regional Airport,35.357898712158,-96.942802429199,US,US-OK
KSNS,"Salinas Muni, CA, US",2025-09-12T21:15:00Z,2025-09-12 14:15:00,MVFR,18.9,13.9,290,13,0,NA,1015.3,SPECI KSNS 122115Z 29013KT 10SM BKN014 19/14 A2998 RMK AO2 T01890139,2025-09-12T21:45:34Z,2025-09-12T17:45:34Z,Salinas Municipal Airport,36.662799835205,-121.60600280762,US,US-CA
KSNS,"Salinas Muni, CA, US",2025-09-12T21:53:00Z,2025-09-12 14:53:00,MVFR,18.3,14.4,300,11,0,NA,1015,METAR KSNS 122153Z 30011KT 10SM OVC011 18/14 A2997 RMK AO2 SLP156 T01830144,2025-09-12T21:56:13Z,2025-09-12T17:56:13Z,Salinas Municipal Airport,36.662799835205,-121.60600280762,US,US-CA
KSNY,"Sidney/Carr Fld, NE, US",2025-09-12T20:53:00Z,2025-09-12 14:53:00,VFR,31.7,5.6,VAR,5,0,NA,1014.6,METAR KSNY 122053Z AUTO VRB05KT 10SM CLR 32/06 A2996 RMK AO2 SLP092 T03170056 58019,2025-09-12T21:45:34Z,2025-09-12T17:45:34Z,Sidney Municipal Airport Lloyd W Carr Field,41.101299,-102.985001,US,US-NE
KSNY,"Sidney/Carr Fld, NE, US",2025-09-12T21:53:00Z,2025-09-12 15:53:00,VFR,32.8,4.4,180,9,20,NA,1014.6,METAR KSNY 122153Z AUTO 18009G20KT 10SM CLR 33/04 A2996 RMK AO2 SLP090 T03280044,2025-09-12T21:56:13Z,2025-09-12T17:56:13Z,Sidney Municipal Airport Lloyd W Carr Field,41.101299,-102.985001,US,US-NE
KSOA,"Sonora Muni, TX, US",2025-09-12T21:35:00Z,2025-09-12 21:35:00,VFR,31,17,130,6,13,NA,1020.1,METAR KSOA 122135Z AUTO 13006G13KT 10SM CLR 31/17 A3012 RMK AO2,2025-09-12T21:45:34Z,2025-09-12T17:45:34Z,Sonora Municipal Airport,30.585699081421,-100.6490020752,US,US-TX
KSOP,"Southern Pines/Moore Cnty, NC, US",2025-09-12T20:56:00Z,2025-09-12 16:56:00,VFR,27.2,13.3,50,11,0,NA,1020.1,METAR KSOP 122056Z AUTO 05011KT 10SM CLR 27/13 A3012 RMK AO2 SLP202 T02720133 56014 $,2025-09-12T21:45:34Z,2025-09-12T17:45:34Z,Moore County Airport,35.237184,-79.389381,US,US-NC
KSOW,"Show Low Muni, AZ, US",2025-09-12T21:35:00Z,2025-09-12 14:35:00,VFR,24,12,190,16,23,NA,1021.4,METAR KSOW 122135Z AUTO 19016G23KT 10SM FEW049 FEW100 FEW120 24/12 A3016 RMK AO2,2025-09-12T21:45:34Z,2025-09-12T17:45:34Z,Show Low Regional Airport,34.264062,-110.007091,US,US-AZ
KSPA,"Spartanburg/Downtown Arpt, SC, US",2025-09-12T21:35:00Z,2025-09-12 17:35:00,VFR,28,11,60,3,0,NA,1020.1,METAR KSPA 122135Z AUTO 06003KT 10SM CLR 28/11 A3012 RMK AO2,2025-09-12T21:45:34Z,2025-09-12T17:45:34Z,Spartanburg Downtown Memorial Airport,34.915699005127,-81.956497192383,US,US-SC
KSPB,"Scappoose Ind Arpk, OR, US",2025-09-12T20:53:00Z,2025-09-12 20:53:00,VFR,20.6,11.7,0,0,0,NA,1017.4,METAR KSPB 122053Z AUTO 00000KT 10SM BKN031 21/12 A3004 RMK AO2 SLP171 T02060117 58015,2025-09-12T21:45:34Z,2025-09-12T17:45:34Z,Scappoose Industrial Airpark,45.771,-122.862,US,US-OR
KSPB,"Scappoose Ind Arpk, OR, US",2025-09-12T21:53:00Z,2025-09-12 21:53:00,VFR,21.7,11.7,0,0,0,NA,1016.7,METAR KSPB 122153Z AUTO 00000KT 10SM BKN033 22/12 A3002 RMK AO2 SLP164 T02170117,2025-09-12T21:56:13Z,2025-09-12T17:56:13Z,Scappoose Industrial Airpark,45.771,-122.862,US,US-OR
KSPF,"Spearfish/Clyde Fld, SD, US",2025-09-12T21:35:00Z,2025-09-12 15:35:00,VFR,26,12,100,9,0,NA,1016,METAR KSPF 122135Z AUTO 10009KT 10SM CLR 26/12 A3000 RMK AO2,2025-09-12T21:45:34Z,2025-09-12T17:45:34Z,Black Hills Airport-Clyde Ice Field,44.48030090332,-103.78299713135,US,US-SD
KSPG,"St Petersburg/Whitted Arpt, FL, US",2025-09-12T20:53:00Z,2025-09-12 16:53:00,NA,29.4,22.2,60,6,0,NA,1013.6,METAR KSPG 122053Z 06006KT 10SM 29/22 A2993 RMK AO2 SLP133 T02940222 56017,2025-09-12T21:45:34Z,2025-09-12T17:45:34Z,Albert Whitted Airport,27.7651,-82.626999,US,US-FL
KSPG,"St Petersburg/Whitted Arpt, FL, US",2025-09-12T21:53:00Z,2025-09-12 17:53:00,NA,29.4,21.7,30,5,0,NA,1013.6,METAR KSPG 122153Z 03005KT 10SM 29/22 A2993 RMK AO2 SLP133 T02940217,2025-09-12T21:56:13Z,2025-09-12T17:56:13Z,Albert Whitted Airport,27.7651,-82.626999,US,US-FL
KSPI,"Springfield/Lincoln Capital Arpt, IL, US",2025-09-12T20:52:00Z,2025-09-12 15:52:00,VFR,32.2,13.9,40,4,0,NA,1018.4,METAR KSPI 122052Z 04004KT 10SM CLR 32/14 A3007 RMK AO2 SLP179 T03220139 56025,2025-09-12T21:45:35Z,2025-09-12T17:45:35Z,Abraham Lincoln Capital Airport,39.844101,-89.677902,US,US-IL
KSPI,"Springfield/Lincoln Capital Arpt, IL, US",2025-09-12T21:52:00Z,2025-09-12 16:52:00,VFR,31.7,13.9,110,5,0,NA,1018,METAR KSPI 122152Z 11005KT 10SM CLR 32/14 A3006 RMK AO2 SLP176 T03170139,2025-09-12T21:56:13Z,2025-09-12T17:56:13Z,Abraham Lincoln Capital Airport,39.844101,-89.677902,US,US-IL
KSPK,"Spanish Fork Muni, UT, US",2025-09-12T21:35:00Z,2025-09-12 21:35:00,VFR,25,2,350,5,0,NA,1014.3,METAR KSPK 122135Z AUTO 35005KT 10SM CLR 25/02 A2995 RMK AO2 LTG DSNT SE,2025-09-12T21:45:34Z,2025-09-12T17:45:34Z,Spanish Fork Municipal Airport/Woodhouse Field,40.145027,-111.667694,US,US-UT
KSPS,"Wichita Falls Rgnl, TX, US",2025-09-12T20:52:00Z,2025-09-12 15:52:00,VFR,35,16.1,200,7,0,NA,1017,METAR KSPS 122052Z 20007KT 10SM FEW070 FEW250 35/16 A3003 RMK AO2 SLP156 T03500161 56023,2025-09-12T21:45:35Z,2025-09-12T17:45:35Z,Wichita Falls Municipal Airport / Sheppard Air Force Base,33.9888,-98.491898,US,US-TX
KSPS,"Wichita Falls Rgnl, TX, US",2025-09-12T21:52:00Z,2025-09-12 16:52:00,VFR,35,15.6,140,10,0,NA,1016.7,METAR KSPS 122152Z 14010KT 10SM FEW070 FEW250 35/16 A3002 RMK AO2 SLP151 T03500156,2025-09-12T21:56:13Z,2025-09-12T17:56:13Z,Wichita Falls Municipal Airport / Sheppard Air Force Base,33.9888,-98.491898,US,US-TX
KSPW,"Spencer Muni, IA, US",2025-09-12T20:53:00Z,2025-09-12 15:53:00,VFR,28.9,17.2,170,10,0,NA,1013.3,METAR KSPW 122053Z AUTO 17010KT 10SM CLR 29/17 A2992 RMK AO2 SLP121 60000 T02890172 52001,2025-09-12T21:45:34Z,2025-09-12T17:45:34Z,Spencer Municipal Airport,43.165500640869,-95.202796936035,US,US-IA
KSPW,"Spencer Muni, IA, US",2025-09-12T21:53:00Z,2025-09-12 16:53:00,VFR,29.4,17.8,190,13,0,NA,1013,METAR KSPW 122153Z AUTO 19013KT 10SM CLR 29/18 A2991 RMK AO2 SLP120 T02940178,2025-09-12T21:56:13Z,2025-09-12T17:56:13Z,Spencer Municipal Airport,43.165500640869,-95.202796936035,US,US-IA
KSQI,"Sterling-Rock Falls Arpt, IL, US",2025-09-12T20:56:00Z,2025-09-12 15:56:00,VFR,30,12.2,150,7,0,NA,1019,METAR KSQI 122056Z AUTO 15007KT 10SM CLR 30/12 A3009 RMK AO2 SLP184 60000 T03000122 56025,2025-09-12T21:45:34Z,2025-09-12T17:45:34Z,Whiteside County Airport - Joseph H Bittorf Field,41.742175,-89.673629,US,US-IL
KSQL,"San Carlos Arpt, CA, US",2025-09-12T20:47:00Z,2025-09-12 13:47:00,VFR,22,14,290,14,0,NA,1014.6,METAR KSQL 122047Z 29014KT 10SM SKC 22/14 A2996,2025-09-12T21:45:35Z,2025-09-12T17:45:35Z,San Carlos Airport,37.51313,-122.250838,US,US-CA
KSRB,"Sparta/Upper Cumberland Rgnl, TN, US",2025-09-12T21:35:00Z,2025-09-12 21:35:00,VFR,29,13,0,0,0,NA,1020.1,METAR KSRB 122135Z AUTO 00000KT 10SM CLR 29/13 A3012 RMK A01,2025-09-12T21:45:34Z,2025-09-12T17:45:34Z,Upper Cumberland Regional Airport,36.055901,-85.530701,US,US-TN
KSRC,"Searcy Muni, AR, US",2025-09-12T20:56:00Z,2025-09-12 20:56:00,VFR,34.4,18.9,0,0,0,NA,1018.4,METAR KSRC 122056Z AUTO 00000KT 10SM CLR 34/19 A3007 RMK AO2 SLP179 T03440189 56022 $,2025-09-12T21:45:34Z,2025-09-12T17:45:34Z,Searcy Municipal Airport,35.210602,-91.737503,US,US-AR
KSRE,"Seminole Muni, OK, US",2025-09-12T21:35:00Z,2025-09-12 21:35:00,VFR,34,18,0,0,0,NA,1017.7,METAR KSRE 122135Z AUTO 00000KT 10SM CLR 34/18 A3005 RMK AO2,2025-09-12T21:45:34Z,2025-09-12T17:45:34Z,Seminole Municipal Airport,35.2747,-96.675201,US,US-OK
KSRQ,"Sarasota-Bradenton Intl, FL, US",2025-09-12T20:53:00Z,2025-09-12 16:53:00,VFR,30.6,22.8,340,6,0,NA,1013.6,METAR KSRQ 122053Z 34006KT 10SM FEW033 31/23 A2993 RMK AO2 LTG DSNT E AND SE SLP135 T03060228 56017,2025-09-12T21:45:35Z,2025-09-12T17:45:35Z,Sarasota Bradenton International Airport,27.394631,-82.554359,US,US-FL
KSRQ,"Sarasota-Bradenton Intl, FL, US",2025-09-12T21:53:00Z,2025-09-12 17:53:00,VFR,30,22.8,350,5,0,NA,1014,METAR KSRQ 122153Z 35005KT 10SM FEW055 30/23 A2994 RMK AO2 LTG DSNT S SLP137 T03000228,2025-09-12T21:56:13Z,2025-09-12T17:56:13Z,Sarasota Bradenton International Airport,27.394631,-82.554359,US,US-FL
KSRR,"Ruidoso Rgnl, NM, US",2025-09-12T21:35:00Z,2025-09-12 15:35:00,VFR,24,8,110,12,0,NA,1024.5,METAR KSRR 122135Z AUTO 11012KT 10SM SCT080 BKN090 24/08 A3025 RMK AO2,2025-09-12T21:45:34Z,2025-09-12T17:45:34Z,Sierra Blanca Regional Airport,33.462799,-105.535004,US,US-NM
KSSC,"Shaw AFB, SC, US",2025-09-12T20:55:00Z,2025-09-12 16:55:00,VFR,28.6,13.7,50,10,0,NA,1018,METAR KSSC 122055Z 05010KT 10SM SCT060 SCT075 29/14 A3006 RMK AO2A SLP179 T02860137 56014 $,2025-09-12T21:45:34Z,2025-09-12T17:45:34Z,Shaw Air Force Base,33.972698,-80.470596,US,US-SC
KSSF,"San Antonio/Stinson Muni, TX, US",2025-09-12T20:53:00Z,2025-09-12 15:53:00,VFR,35,14.4,100,10,0,NA,1016,METAR KSSF 122053Z 10010KT 10SM CLR 35/14 A3000 RMK AO2 SLP145 T03500144 56029,2025-09-12T21:45:34Z,2025-09-12T17:45:34Z,Stinson Municipal Airport,29.336999893188,-98.471099853516,US,US-TX
KSSF,"San Antonio/Stinson Muni, TX, US",2025-09-12T21:53:00Z,2025-09-12 16:53:00,VFR,35.6,13.3,130,8,17,NA,1015.3,METAR KSSF 122153Z 13008G17KT 10SM CLR 36/13 A2998 RMK AO2 SLP139 T03560133,2025-09-12T21:56:13Z,2025-09-12T17:56:13Z,Stinson Municipal Airport,29.336999893188,-98.471099853516,US,US-TX
KSSI,"Brunswick/McKinnon St Simons Arpt, GA, US",2025-09-12T21:35:00Z,2025-09-12 17:35:00,VFR,28,17,60,10,20,NA,1016.7,METAR KSSI 122135Z AUTO 06010G20KT 10SM CLR 28/17 A3002 RMK AO2,2025-09-12T21:45:34Z,2025-09-12T17:45:34Z,St Simons Island Airport,31.1518,-81.391296,US,US-GA
KSTC,"St Cloud Rgnl, MN, US",2025-09-12T21:28:00Z,2025-09-12 16:28:00,VFR,18.3,17.8,120,9,0,6,1016.3,SPECI KSTC 122128Z 12009KT 6SM -RA BR FEW039 SCT090 BKN110 18/18 A3001 RMK AO2 P0008 T01830178,2025-09-12T21:45:34Z,2025-09-12T17:45:34Z,Saint Cloud Regional Airport,45.5466,-94.059898,US,US-MN
KSTC,"St Cloud Rgnl, MN, US",2025-09-12T21:53:00Z,2025-09-12 16:53:00,VFR,18.9,17.8,120,10,0,7,1016.3,METAR KSTC 122153Z 12010KT 7SM -RA OVC110 19/18 A3001 RMK AO2 SLP168 P0011 T01890178,2025-09-12T21:56:13Z,2025-09-12T17:56:13Z,Saint Cloud Regional Airport,45.5466,-94.059898,US,US-MN
KSTF,"Starkville/Bryan Arpt, MS, US",2025-09-12T21:35:00Z,2025-09-12 21:35:00,VFR,33,15,VAR,4,0,NA,1017,METAR KSTF 122135Z AUTO VRB04KT 10SM FEW100 33/15 A3003 RMK AO2,2025-09-12T21:45:34Z,2025-09-12T17:45:34Z,George M Bryan Airport,33.43310165,-88.84860229,US,US-MS
KSTJ,"St Joseph/Rosecrans Mem, MO, US",2025-09-12T20:53:00Z,2025-09-12 15:53:00,VFR,33.3,18.3,190,13,0,NA,1014.6,METAR KSTJ 122053Z 19013KT 10SM CLR 33/18 A2996 RMK AO2 SLP134 T03330183 56018,2025-09-12T21:45:34Z,2025-09-12T17:45:34Z,Rosecrans Memorial Airport,39.771900177002,-94.909698486328,US,US-MO
KSTJ,"St Joseph/Rosecrans Mem, MO, US",2025-09-12T21:53:00Z,2025-09-12 16:53:00,VFR,34.4,18.3,200,10,19,NA,1014.3,METAR KSTJ 122153Z 20010G19KT 10SM CLR 34/18 A2995 RMK AO2 SLP134 T03440183,2025-09-12T21:56:13Z,2025-09-12T17:56:13Z,Rosecrans Memorial Airport,39.771900177002,-94.909698486328,US,US-MO
KSTL,"St Louis/Lambert Intl, MO, US",2025-09-12T20:51:00Z,2025-09-12 15:51:00,VFR,33.3,15.6,110,9,0,NA,1018.4,METAR KSTL 122051Z 11009KT 10SM FEW070 SCT250 33/16 A3007 RMK AO2 SLP170 T03330156 56023 $,2025-09-12T21:45:35Z,2025-09-12T17:45:35Z,St. Louis Lambert International Airport,38.748697,-90.370003,US,US-MO
KSTL,"St Louis/Lambert Intl, MO, US",2025-09-12T21:51:00Z,2025-09-12 16:51:00,VFR,33.3,15.6,100,7,0,NA,1018,METAR KSTL 122151Z 10007KT 10SM FEW070 BKN250 33/16 A3006 RMK AO2 SLP167 T03330156 $,2025-09-12T21:56:13Z,2025-09-12T17:56:13Z,St. Louis Lambert International Airport,38.748697,-90.370003,US,US-MO
KSTP,"Saint Paul/Downtown Arpt, MN, US",2025-09-12T20:53:00Z,2025-09-12 15:53:00,VFR,26.7,18.3,150,9,0,NA,1015.3,METAR KSTP 122053Z 15009KT 10SM FEW100 27/18 A2998 RMK AO2 LTG DSNT NE SLP147 T02670183 55012,2025-09-12T21:45:34Z,2025-09-12T17:45:34Z,Saint Paul Downtown Holman Field,44.93479,-93.060036,US,US-MN
KSTP,"Saint Paul/Downtown Arpt, MN, US",2025-09-12T21:53:00Z,2025-09-12 16:53:00,VFR,25.6,18.9,70,7,0,NA,1016.3,METAR KSTP 122153Z 07007KT 10SM SCT110 26/19 A3001 RMK AO2 RAB06E48 SLP159 P0000 T02560189,2025-09-12T21:56:13Z,2025-09-12T17:56:13Z,Saint Paul Downtown Holman Field,44.93479,-93.060036,US,US-MN
KSTS,"Santa Rosa/Schulz Arpt, CA, US",2025-09-12T20:53:00Z,2025-09-12 13:53:00,VFR,26.7,15,210,8,0,NA,1013.3,METAR KSTS 122053Z 21008KT 10SM FEW050 27/15 A2992 RMK AO2 SLP126 T02670150 58017,2025-09-12T21:45:34Z,2025-09-12T17:45:34Z,Charles M. Schulz Sonoma County Airport,38.50899887,-122.8130035,US,US-CA
KSTS,"Santa Rosa/Schulz Arpt, CA, US",2025-09-12T21:53:00Z,2025-09-12 14:53:00,VFR,27.2,14.4,200,8,0,NA,1013,METAR KSTS 122153Z 20008KT 10SM FEW050 27/14 A2991 RMK AO2 SLP120 T02720144,2025-09-12T21:56:13Z,2025-09-12T17:56:13Z,Charles M. Schulz Sonoma County Airport,38.50899887,-122.8130035,US,US-CA
KSUA,"Stuart/Witham Fld, FL, US",2025-09-12T20:47:00Z,2025-09-12 16:47:00,VFR,28,24,360,8,0,7,1013.6,METAR KSUA 122047Z 36008KT 7SM FEW024 28/24 A2993,2025-09-12T21:45:35Z,2025-09-12T17:45:35Z,Witham Field,27.18169975,-80.22109985,US,US-FL
KSUA,"Stuart/Witham Fld, FL, US",2025-09-12T21:47:00Z,2025-09-12 17:47:00,VFR,28,24,90,10,0,7,1013.3,METAR KSUA 122147Z 09010KT 7SM SCT025 28/24 A2992,2025-09-12T21:56:13Z,2025-09-12T17:56:13Z,Witham Field,27.18169975,-80.22109985,US,US-FL
KSUE,"Sturgeon Bay/Door Cnty, WI, US",2025-09-12T20:57:00Z,2025-09-12 15:57:00,VFR,22.2,13.3,180,7,0,NA,1021.4,METAR KSUE 122057Z AUTO 18007KT 10SM CLR 22/13 A3016 RMK AO2 SLP212 T02220133 56017,2025-09-12T21:45:34Z,2025-09-12T17:45:34Z,Door County Cherryland Airport,44.84370041,-87.42150116,US,US-WI
KSUN,"Hailey/Friedman Mem, ID, US",2025-09-12T20:47:00Z,2025-09-12 14:47:00,VFR,23,3,130,6,0,NA,1018,METAR KSUN 122047Z 13006KT 10SM SCT080 23/03 A3006 RMK TCU DSNT N-NE,2025-09-12T21:45:35Z,2025-09-12T17:45:35Z,Friedman Memorial Airport,43.50439835,-114.2959976,US,US-ID
KSUN,"Hailey/Friedman Mem, ID, US",2025-09-12T21:47:00Z,2025-09-12 15:47:00,VFR,22,1,180,10,16,NA,1017.7,METAR KSUN 122147Z 18010G16KT 10SM SCT080 22/01 A3005 RMK TCU DSNT N-NE,2025-09-12T21:56:13Z,2025-09-12T17:56:13Z,Friedman Memorial Airport,43.50439835,-114.2959976,US,US-ID
KSUO,"Rosebud/Sioux Tribal Arpt, SD, US",2025-09-12T21:35:00Z,2025-09-12 21:35:00,VFR,33,15,VAR,4,0,NA,1010.6,METAR KSUO 122135Z AUTO VRB04KT 10SM CLR 33/15 A2984 RMK AO2,2025-09-12T21:45:34Z,2025-09-12T17:45:34Z,Rosebud Sioux Tribal Airport,43.2585,-100.85952,US,US-SD
KSUS,"St Louis/Spirit of St Louis Arpt, MO, US",2025-09-12T20:54:00Z,2025-09-12 15:54:00,VFR,33.9,16.1,100,6,0,NA,1017,METAR KSUS 122054Z 10006KT 10SM CLR 34/16 A3003 RMK AO2 SLP162 T03390161 56023,2025-09-12T21:45:34Z,2025-09-12T17:45:34Z,Spirit of St Louis Airport,38.662102,-90.652,US,US-MO
KSUT,"Southport/Cape Fear Rgnl, NC, US",2025-09-12T21:35:00Z,2025-09-12 21:35:00,VFR,26,18,40,9,14,NA,1017.7,METAR KSUT 122135Z AUTO 04009G14KT 10SM SCT042 SCT070 26/18 A3005 RMK AO2,2025-09-12T21:45:34Z,2025-09-12T17:45:34Z,Cape Fear Regional Jetport / Howie Franklin Field Airport,33.929298,-78.074997,US,US-NC
KSUT,"Southport/Cape Fear Rgnl, NC, US",2025-09-12T21:45:00Z,2025-09-12 21:45:00,VFR,26,18,50,11,0,NA,1018,METAR KSUT 122145Z AUTO 05011KT 020V080 10SM SCT042 SCT047 SCT070 26/18 A3006 RMK AO2,2025-09-12T21:56:13Z,2025-09-12T17:56:13Z,Cape Fear Regional Jetport / Howie Franklin Field Airport,33.929298,-78.074997,US,US-NC
KSUU,"Fairfield/Travis AFB, CA, US",2025-09-12T20:55:00Z,2025-09-12 13:55:00,VFR,28.7,14.1,240,14,0,NA,1012.3,METAR KSUU 122055Z AUTO 24014KT 10SM CLR 29/14 A2989 RMK AO2 SLP128 T02870141 57015 $,2025-09-12T21:45:34Z,2025-09-12T17:45:34Z,Travis Air Force Base,38.262699,-121.927002,US,US-CA
KSUW,"Superior/Bong Arpt, WI, US",2025-09-12T21:35:00Z,2025-09-12 16:35:00,IFR,14.6,13.5,20,9,0,NA,1018.7,METAR KSUW 122135Z AUTO 02009KT 10SM BKN007 15/14 A3008 RMK AO2 T01460135,2025-09-12T21:45:34Z,2025-09-12T17:45:34Z,Richard I Bong Memorial Airport,46.688612,-92.095041,US,US-WI
KSUX,"Sioux City/Day Fld, IA, US",2025-09-12T20:52:00Z,2025-09-12 15:52:00,VFR,28.9,20,180,11,0,NA,1011.6,METAR KSUX 122052Z 18011KT 10SM CLR 29/20 A2987 RMK AO2 SLP107 T02890200 56015,2025-09-12T21:45:35Z,2025-09-12T17:45:35Z,Sioux Gateway Airport / Brigadier General Bud Day Field,42.397605,-96.382237,US,US-IA
KSUX,"Sioux City/Day Fld, IA, US",2025-09-12T21:52:00Z,2025-09-12 16:52:00,VFR,27.8,20.6,170,7,0,NA,1011.3,METAR KSUX 122152Z 17007KT 10SM CLR 28/21 A2986 RMK AO2 SLP104 T02780206,2025-09-12T21:56:13Z,2025-09-12T17:56:13Z,Sioux Gateway Airport / Brigadier General Bud Day Field,42.397605,-96.382237,US,US-IA
KSUZ,"Benton/Saline Cnty, AR, US",2025-09-12T21:35:00Z,2025-09-12 21:35:00,MVFR,34,19,230,4,0,5,1018,METAR KSUZ 122135Z AUTO 23004KT 5SM HZ CLR 34/19 A3006 RMK A01,2025-09-12T21:45:34Z,2025-09-12T17:45:34Z,Saline County Regional Airport,34.590599,-92.479401,US,US-AR
KSVC,"Silver City/Grant Cnty, NM, US",2025-09-12T21:35:00Z,2025-09-12 15:35:00,VFR,26.7,9.7,160,11,0,NA,1020.1,METAR KSVC 122135Z AUTO 16011KT 10SM SCT100 27/10 A3012 RMK AO2 LTG DSNT SW T02670097,2025-09-12T21:45:34Z,2025-09-12T17:45:34Z,Grant County Airport,32.636701,-108.154736,US,US-NM
KSVE,"Susanville Muni, CA, US",2025-09-12T21:35:00Z,2025-09-12 14:35:00,VFR,25,7,100,3,0,NA,1018,METAR KSVE 122135Z AUTO 10003KT 10SM CLR 25/07 A3006 RMK A01 P000,2025-09-12T21:45:34Z,2025-09-12T17:45:34Z,Susanville Municipal Airport,40.375702,-120.572998,US,US-CA
KSVH,"Statesville Muni, NC, US",2025-09-12T21:35:00Z,2025-09-12 17:35:00,VFR,27.6,12.3,60,4,0,NA,1020.7,METAR KSVH 122135Z AUTO 06004KT 10SM SCT065 28/12 A3014 RMK AO2 T02760123,2025-09-12T21:45:34Z,2025-09-12T17:45:34Z,Statesville Regional Airport,35.765301,-80.953903,US,US-NC
KSVH,"Statesville Muni, NC, US",2025-09-12T21:45:00Z,2025-09-12 17:45:00,VFR,27.7,12.2,30,4,0,NA,1020.7,METAR KSVH 122145Z AUTO 03004KT 10SM SCT065 28/12 A3014 RMK AO2 T02770122,2025-09-12T21:56:13Z,2025-09-12T17:56:13Z,Statesville Regional Airport,35.765301,-80.953903,US,US-NC
KSVN,"Savannah/Hunter AAF, GA, US",2025-09-12T20:55:00Z,2025-09-12 16:55:00,VFR,30.3,17.7,50,8,16,NA,1016.3,METAR KSVN 122055Z 05008G16KT 10SM FEW050 30/18 A3001 RMK AO2A SLP165 T03030177 57010 $,2025-09-12T21:45:34Z,2025-09-12T17:45:34Z,Hunter Army Air Field,32.00999832,-81.14569855,US,US-GA
KSWF,"Newburgh/Stewart Intl, NY, US",2025-09-12T21:45:00Z,2025-09-12 17:45:00,VFR,24,14,VAR,5,0,NA,1021.4,METAR KSWF 122145Z VRB05KT 10SM FEW050 24/14 A3016,2025-09-12T21:45:34Z,2025-09-12T17:45:34Z,New York Stewart International Airport,41.504101,-74.104797,US,US-NY
KSWO,"Stillwater Muni, OK, US",2025-09-12T20:53:00Z,2025-09-12 15:53:00,VFR,34.4,18.3,170,8,0,NA,1017.7,METAR KSWO 122053Z 17008KT 10SM CLR 34/18 A3005 RMK AO2 SLP160 T03440183 58017 $,2025-09-12T21:45:34Z,2025-09-12T17:45:34Z,Stillwater Regional Airport,36.162132,-97.085581,US,US-OK
KSWO,"Stillwater Muni, OK, US",2025-09-12T21:53:00Z,2025-09-12 16:53:00,VFR,33.9,16.7,200,9,0,NA,1017,METAR KSWO 122153Z 20009KT 10SM CLR 34/17 A3003 RMK AO2 SLP156 T03390167 $,2025-09-12T21:56:13Z,2025-09-12T17:56:13Z,Stillwater Regional Airport,36.162132,-97.085581,US,US-OK
KSWW,"Sweetwater/Avenger Fld, TX, US",2025-09-12T21:35:00Z,2025-09-12 16:35:00,NA,34.5,9.8,150,15,18,NA,1019.7,METAR KSWW 122135Z AUTO 15015G18KT 10SM 35/10 A3011 RMK AO2 T03450098,2025-09-12T21:45:34Z,2025-09-12T17:45:34Z,Avenger Field,32.467399597168,-100.46700286865,US,US-TX
KSXK,"Maurice/Sioux Cnty Rgnl, IA, US",2025-09-12T21:35:00Z,2025-09-12 21:35:00,VFR,29,21,170,11,0,NA,1010.9,METAR KSXK 122135Z AUTO 17011KT 10SM CLR 29/21 A2985 RMK AO2,2025-09-12T21:45:34Z,2025-09-12T17:45:34Z,Sioux County Regional Airport,42.9858275,-96.1614,US,US-IA
KSYF,"St Francis/Cheyenne Cnty, KS, US",2025-09-12T21:35:00Z,2025-09-12 21:35:00,VFR,35,10,220,18,24,NA,1013.6,METAR KSYF 122135Z AUTO 22018G24KT 10SM CLR 35/10 A2993 RMK AO2,2025-09-12T21:45:34Z,2025-09-12T17:45:34Z,Cheyenne County Municipal Airport,39.76110077,-101.7959976,US,US-KS
KSYI,"Shelbyville/Bomar Fld, TN, US",2025-09-12T21:35:00Z,2025-09-12 16:35:00,VFR,29,13,90,7,0,NA,1019.4,METAR KSYI 122135Z AUTO 09007KT 10SM CLR 29/13 A3010 RMK A01,2025-09-12T21:45:34Z,2025-09-12T17:45:34Z,Bomar Field / Shelbyville Municipal Airport,35.560101,-86.442497,US,US-TN
KSYN,"Stanton Arpt, MN, US",2025-09-12T21:35:00Z,2025-09-12 16:35:00,VFR,23.7,19.5,140,5,0,NA,1015.3,METAR KSYN 122135Z AUTO 14005KT 10SM -RA SCT040 BKN050 BKN065 24/20 A2998 RMK AO2 LTG DSNT NE AND SE P0001 T02370195,2025-09-12T21:45:34Z,2025-09-12T17:45:34Z,Stanton Airfield,44.475579,-93.016756,US,US-MN
KSYR,"Syracuse/Hancock Intl, NY, US",2025-09-12T20:54:00Z,2025-09-12 16:54:00,VFR,23.9,12.2,360,7,0,NA,1021.8,METAR KSYR 122054Z 36007KT 10SM SCT048 SCT200 24/12 A3017 RMK AO2 SLP213 T02390122 56018,2025-09-12T21:45:34Z,2025-09-12T17:45:34Z,Syracuse Hancock International Airport,43.11119842529297,-76.1063003540039,US,US-NY
KSZL,"Whiteman AFB, MO, US",2025-09-12T20:55:00Z,2025-09-12 15:55:00,VFR,36.9,15.3,190,13,17,NA,1016.7,METAR KSZL 122055Z 19013G17KT 10SM FEW060 FEW250 37/15 A3002 RMK AO2A SLP159 T03690153 57022 VISNO RWY01 CHINO RWY01 $,2025-09-12T21:45:34Z,2025-09-12T17:45:34Z,Whiteman Air Force Base,38.730301,-93.547897,US,US-MO
KSZT,"Sandpoint Arpt, ID, US",2025-09-12T21:30:00Z,2025-09-12 21:30:00,VFR,25,11,120,4,0,NA,1014.6,METAR KSZT 122130Z AUTO 12004KT 10SM CLR 25/11 A2996 RMK AO2,2025-09-12T21:45:34Z,2025-09-12T17:45:34Z,Sandpoint Airport,48.299499511719,-116.55999755859,US,US-ID
KT20,"Gonzales Muni, TX, US",2025-09-12T21:35:00Z,2025-09-12 21:35:00,VFR,36.5,16,150,8,14,NA,1016.3,METAR KT20 122135Z AUTO 15008G14KT 10SM BKN080 37/16 A3001 RMK AO2 T03650160,2025-09-12T21:45:34Z,2025-09-12T17:45:34Z,Roger M Dreyer Memorial Airport,29.52915,-97.464345,US,US-TX
KT35,"Cameron Muni, TX, US",2025-09-12T21:35:00Z,2025-09-12 21:35:00,VFR,34.3,18.1,130,5,0,NA,1017.4,METAR KT35 122135Z AUTO 13005KT 10SM SCT065 34/18 A3004 RMK AO2 T03430181,2025-09-12T21:45:34Z,2025-09-12T17:45:34Z,Cameron Municipal Airpark,30.8794002532959,-96.971099853515625,US,US-TX
KT41,"La Porte Muni, TX, US",2025-09-12T21:30:00Z,2025-09-12 21:30:00,VFR,31.8,19.5,150,8,0,NA,1017.7,METAR KT41 122130Z AUTO 15008KT 120V180 10SM CLR 32/20 A3005 RMK AO2 TSNO T03180195,2025-09-12T21:45:34Z,2025-09-12T17:45:34Z,La Porte Municipal Airport,29.6693,-95.064201,US,US-TX
KT69,"Sinton/Thomas Arpt, TX, US",2025-09-12T21:35:00Z,2025-09-12 21:35:00,VFR,32,24,110,12,0,9,1016.3,METAR KT69 122135Z AUTO 11012KT 9SM CLR 32/24 A3001 RMK A01,2025-09-12T21:45:34Z,2025-09-12T17:45:34Z,Alfred C 'Bubba' Thomas Airport,28.0392,-97.542397,US,US-TX
KT74,"Taylor Muni, TX, US",2025-09-12T21:35:00Z,2025-09-12 21:35:00,VFR,34,16,90,7,15,NA,1018.7,METAR KT74 122135Z AUTO 09007G15KT 10SM SCT065 34/16 A3008 RMK AO2,2025-09-12T21:45:34Z,2025-09-12T17:45:34Z,Taylor Municipal Airport,30.572599,-97.443199,US,US-TX
KT78,"Liberty Muni, TX, US",2025-09-12T21:35:00Z,2025-09-12 21:35:00,VFR,33,15,0,0,0,8,1016.7,METAR KT78 122135Z AUTO 00000KT 8SM FEW060 FEW070 33/15 A3002 RMK AO2,2025-09-12T21:45:34Z,2025-09-12T17:45:34Z,Liberty Municipal Airport,30.077801,-94.698601,US,US-TX
KT82,"Fredericksburg/Gillespie Cnty, TX, US",2025-09-12T21:35:00Z,2025-09-12 21:35:00,VFR,31.3,15.1,130,10,0,NA,1019,METAR KT82 122135Z AUTO 13010KT 10SM CLR 31/15 A3009 RMK AO2 T03130151,2025-09-12T21:45:34Z,2025-09-12T17:45:34Z,Gillespie County Airport,30.2432,-98.909203,US,US-TX
KTAD,"Trinidad/Stokes Arpt, CO, US",2025-09-12T20:54:00Z,2025-09-12 14:54:00,VFR,31.1,6.1,200,15,27,NA,1019.4,METAR KTAD 122054Z AUTO 20015G27KT 10SM FEW090 31/06 A3010 RMK AO2 PK WND 20029/2004 SLP106 T03110061 58026,2025-09-12T21:45:34Z,2025-09-12T17:45:34Z,Perry Stokes Airport,37.2593994141,-104.341003418,US,US-CO
KTAN,"Taunton Muni, MA, US",2025-09-12T20:52:00Z,2025-09-12 20:52:00,VFR,21.7,11.1,VAR,4,0,NA,1022.4,METAR KTAN 122052Z AUTO VRB04KT 10SM CLR 22/11 A3019 RMK AO2 SLP223 T02170111 56006,2025-09-12T21:45:35Z,2025-09-12T17:45:35Z,Taunton Municipal King Field,41.874401,-71.016602,US,US-MA
KTAN,"Taunton Muni, MA, US",2025-09-12T21:52:00Z,2025-09-12 21:52:00,VFR,20,12.2,80,5,0,NA,1022.4,METAR KTAN 122152Z AUTO 08005KT 10SM CLR 20/12 A3019 RMK AO2 SLP224 T02000122,2025-09-12T21:56:13Z,2025-09-12T17:56:13Z,Taunton Municipal King Field,41.874401,-71.016602,US,US-MA
KTAZ,"Taylorville Muni, IL, US",2025-09-12T21:37:00Z,2025-09-12 21:37:00,VFR,32,13,VAR,NA,0,NA,1018.4,METAR KTAZ 122137Z AUTO 10SM CLR 32/13 A3007 RMK AO2,2025-09-12T21:45:34Z,2025-09-12T17:45:34Z,Taylorville Municipal Airport,39.534199,-89.327797,US,US-IL
KTBN,"Waynesville-St Robert Rgnl, MO, US",2025-09-12T20:55:00Z,2025-09-12 15:55:00,VFR,34.9,15.2,0,0,0,NA,1017.4,METAR KTBN 122055Z AUTO 00000KT 10SM SCT100 35/15 A3004 RMK AO2 SLP163 T03490152 57022,2025-09-12T21:45:34Z,2025-09-12T17:45:34Z,Waynesville-St. Robert Regional Airport-Forney Field,37.7416,-92.140701,US,US-MO
KTBR,"Statesboro Muni, GA, US",2025-09-12T21:35:00Z,2025-09-12 17:35:00,VFR,29,15,50,8,0,NA,1017,METAR KTBR 122135Z AUTO 05008KT 10SM CLR 29/15 A3003 RMK AO2,2025-09-12T21:45:34Z,2025-09-12T17:45:34Z,Statesboro Bulloch County Airport,32.4827003479,-81.73690032959999,US,US-GA
KTCC,"Tucumcari Muni, NM, US",2025-09-12T20:53:00Z,2025-09-12 14:53:00,VFR,30.6,NA,190,8,21,NA,1018.4,METAR KTCC 122053Z AUTO 19008G21KT 160V220 10SM FEW085 31/ A3007 RMK AO2 SLP120 T0306 58029 $,2025-09-12T21:45:34Z,2025-09-12T17:45:34Z,Tucumcari Municipal Airport,35.182800293,-103.602996826,US,US-NM
KTCC,"Tucumcari Muni, NM, US",2025-09-12T21:53:00Z,2025-09-12 15:53:00,VFR,30,NA,180,12,24,NA,1017.4,METAR KTCC 122153Z AUTO 18012G24KT 10SM FEW090 30/ A3004 RMK AO2 SLP113 T0300 $,2025-09-12T21:56:13Z,2025-09-12T17:56:13Z,Tucumcari Municipal Airport,35.182800293,-103.602996826,US,US-NM
KTCL,"Tuscaloosa Rgnl, AL, US",2025-09-12T20:53:00Z,2025-09-12 15:53:00,VFR,33.9,16.1,50,5,0,9,1017,METAR KTCL 122053Z 05005KT 9SM FEW100 FEW120 34/16 A3003 RMK AO2 SLP168 T03390161 56021,2025-09-12T21:45:34Z,2025-09-12T17:45:34Z,Tuscaloosa National Airport,33.2206,-87.611397,US,US-AL
KTCL,"Tuscaloosa Rgnl, AL, US",2025-09-12T21:53:00Z,2025-09-12 16:53:00,VFR,32.8,15.6,20,6,0,9,1017,METAR KTCL 122153Z 02006KT 9SM SCT075 BKN100 33/16 A3003 RMK AO2 SLP166 T03280156,2025-09-12T21:56:13Z,2025-09-12T17:56:13Z,Tuscaloosa National Airport,33.2206,-87.611397,US,US-AL
KTCM,"Tacoma/McChord AFB, WA, US",2025-09-12T21:15:00Z,2025-09-12 14:15:00,VFR,21,13,360,3,0,NA,1017.4,SPECI KTCM 122115Z AUTO 36003KT 10SM SCT029 21/13 A3004 RMK AO2 SLP175 $,2025-09-12T21:45:34Z,2025-09-12T17:45:34Z,McChord Air Force Base,47.137699,-122.475998,US,US-WA
KTCS,"Truth or Consequence Muni, NM, US",2025-09-12T20:53:00Z,2025-09-12 14:53:00,VFR,31.1,11.1,190,14,23,NA,1017.7,METAR KTCS 122053Z AUTO 19014G23KT 10SM CLR 31/11 A3005 RMK AO2 PK WND 20026/2038 LTG DSNT NW SLP082 T03110111 58031,2025-09-12T21:45:34Z,2025-09-12T17:45:34Z,Truth or Consequences Municipal Airport,33.2369,-107.272003,US,US-NM
KTCS,"Truth or Consequence Muni, NM, US",2025-09-12T21:53:00Z,2025-09-12 15:53:00,VFR,30,11.1,180,16,28,NA,1017.4,METAR KTCS 122153Z AUTO 18016G28KT 10SM FEW080 SCT100 BKN120 30/11 A3004 RMK AO2 PK WND 20028/2150 LTG DSNT NW RAB42E51 SLP079 P0000 T03000111,2025-09-12T21:56:13Z,2025-09-12T17:56:13Z,Truth or Consequences Municipal Airport,33.2369,-107.272003,US,US-NM
KTCY,"Tracy Muni, CA, US",2025-09-12T21:35:00Z,2025-09-12 21:35:00,VFR,30,12,360,7,0,NA,1012.3,METAR KTCY 122135Z AUTO 36007KT 10SM CLR 30/12 A2989 RMK A01,2025-09-12T21:45:34Z,2025-09-12T17:45:34Z,Tracy Municipal Airport,37.68899917602539,-121.44200134277344,US,US-CA
KTDF,"Roxboro/Person Cnty, NC, US",2025-09-12T21:35:00Z,2025-09-12 21:35:00,VFR,26,13,70,8,0,NA,1021.4,METAR KTDF 122135Z AUTO 07008KT 10SM CLR 26/13 A3016 RMK AO2,2025-09-12T21:45:34Z,2025-09-12T17:45:34Z,Raleigh Regional Airport at Person County,36.284901,-78.9842,US,US-NC
KTDF,"Roxboro/Person Cnty, NC, US",2025-09-12T21:45:00Z,2025-09-12 21:45:00,VFR,26,13,60,7,0,NA,1021.4,METAR KTDF 122145Z AUTO 06007KT 10SM CLR 26/13 A3016 RMK AO2,2025-09-12T21:56:13Z,2025-09-12T17:56:13Z,Raleigh Regional Airport at Person County,36.284901,-78.9842,US,US-NC
KTEB,"Teterboro Arpt, NJ, US",2025-09-12T20:51:00Z,2025-09-12 16:51:00,VFR,26.1,11.1,VAR,3,0,NA,1021.1,METAR KTEB 122051Z VRB03KT 10SM SCT060 26/11 A3015 RMK AO2 SLP209 T02610111 56014 $,2025-09-12T21:45:35Z,2025-09-12T17:45:35Z,Teterboro Airport,40.850101,-74.060799,US,US-NJ
KTEB,"Teterboro Arpt, NJ, US",2025-09-12T21:51:00Z,2025-09-12 17:51:00,VFR,25.6,11.1,VAR,4,0,NA,1020.7,METAR KTEB 122151Z VRB04KT 10SM SCT060 26/11 A3014 RMK AO2 SLP207 T02560111 $,2025-09-12T21:56:13Z,2025-09-12T17:56:13Z,Teterboro Airport,40.850101,-74.060799,US,US-NJ
KTEW,"Mason/Jewett Fld, MI, US",2025-09-12T21:39:00Z,2025-09-12 21:39:00,VFR,27,12,280,3,0,NA,1021.8,METAR KTEW 122139Z 28003KT 10SM CLR 27/12 A3017 RMK AO2,2025-09-12T21:45:34Z,2025-09-12T17:45:34Z,Mason Jewett Field,42.5658,-84.423203,US,US-MI
KTEX,"Telluride Rgnl, CO, US",2025-09-12T21:35:00Z,2025-09-12 15:35:00,VFR,13,7,0,0,0,NA,1027.9,METAR KTEX 122135Z AUTO 00000KT 10SM SCT038 BKN046 OVC060 13/07 A3035 RMK AO2,2025-09-12T21:45:34Z,2025-09-12T17:45:34Z,Telluride Regional Airport,37.9538,-107.907997,US,US-CO
KTFP,"Aransas Pass/McCampbell-Porter Arpt, TX, US",2025-09-12T21:15:00Z,2025-09-12 21:15:00,VFR,33.1,22.1,130,12,0,NA,1016,METAR KTFP 122115Z AUTO 13012KT 10SM CLR 33/22 A3000 RMK AO1 T03310221,2025-09-12T21:45:34Z,2025-09-12T17:45:34Z,Ingleside Regional Airport,27.913,-97.211502,US,US-TX
KTFP,"Aransas Pass/McCampbell-Porter Arpt, TX, US",2025-09-12T21:35:00Z,2025-09-12 21:35:00,VFR,32.6,21.8,130,13,19,NA,1016,METAR KTFP 122135Z AUTO 13013G19KT 10SM CLR 33/22 A3000 RMK AO1 T03260218,2025-09-12T21:56:14Z,2025-09-12T17:56:14Z,Ingleside Regional Airport,27.913,-97.211502,US,US-TX
KTGI,"Tangier Island Arpt, VA, US",2025-09-12T21:15:00Z,2025-09-12 21:15:00,VFR,25.7,13,VAR,NA,0,NA,1021.4,METAR KTGI 122115Z AUTO 10SM CLR 26/13 A3016 RMK AO1 T02570130,2025-09-12T21:45:34Z,2025-09-12T17:45:34Z,Tangier Island Airport,37.8251,-75.997803,US,US-VA
KTHA,"Tullahoma Rgnl, TN, US",2025-09-12T21:35:00Z,2025-09-12 16:35:00,VFR,28,13,60,6,0,NA,1019.4,METAR KTHA 122135Z AUTO 06006KT 10SM CLR 28/13 A3010 RMK A01,2025-09-12T21:45:37Z,2025-09-12T17:45:37Z,Tullahoma Regional Airport William Northern Field,35.3801,-86.246399,US,US-TN
KTHV,"York Arpt, PA, US",2025-09-12T20:53:00Z,2025-09-12 16:53:00,VFR,26.7,11.1,100,5,0,NA,1021.4,METAR KTHV 122053Z AUTO 10005KT 10SM OVC065 27/11 A3016 RMK AO2 SLP214 T02670111 56010,2025-09-12T21:45:37Z,2025-09-12T17:45:37Z,York Airport,39.917,-76.873001,US,US-PA
KTHV,"York Arpt, PA, US",2025-09-12T21:53:00Z,2025-09-12 17:53:00,VFR,25.6,11.7,100,6,0,NA,1021.4,METAR KTHV 122153Z AUTO 10006KT 10SM OVC075 26/12 A3016 RMK AO2 SLP214 T02560117,2025-09-12T21:56:16Z,2025-09-12T17:56:16Z,York Airport,39.917,-76.873001,US,US-PA
KTIF,"Thedford/Thomas Cnty, NE, US",2025-09-12T21:35:00Z,2025-09-12 21:35:00,VFR,34.8,9.4,200,12,16,NA,1012.6,METAR KTIF 122135Z AUTO 20012G16KT 10SM CLR 35/09 A2990 RMK AO2 T03480094,2025-09-12T21:45:37Z,2025-09-12T17:45:37Z,Thomas County Airport,41.962682,-100.57038,US,US-NE
KTIK,"Tinker AFB, OK, US",2025-09-12T20:55:00Z,2025-09-12 15:55:00,VFR,33.7,17.8,180,9,0,NA,1016.7,METAR KTIK 122055Z AUTO 18009KT 10SM CLR 34/18 A3002 RMK AO2 SLP153 T03370178 57018,2025-09-12T21:45:37Z,2025-09-12T17:45:37Z,Tinker Air Force Base,35.4147,-97.386597,US,US-OK
KTIP,"Rantoul/Chanute AFB, IL, US",2025-09-12T21:35:00Z,2025-09-12 21:35:00,VFR,30.1,11.5,150,4,0,NA,1019.7,METAR KTIP 122135Z AUTO 15004KT 10SM CLR 30/12 A3011 RMK AO2 T03010115,2025-09-12T21:45:37Z,2025-09-12T17:45:37Z,Rantoul National Aviation Center - Frank Elliot field,40.293598,-88.142403,US,US-IL
KTIW,"Tacoma Narrows Arpt, WA, US",2025-09-12T21:32:00Z,2025-09-12 14:32:00,MVFR,20,12.2,0,0,0,NA,1017.7,SPECI KTIW 122132Z 00000KT 10SM BKN028 20/12 A3005 RMK AO2 T02000122,2025-09-12T21:45:37Z,2025-09-12T17:45:37Z,Tacoma Narrows Airport,47.267407,-122.577295,US,US-WA
KTIW,"Tacoma Narrows Arpt, WA, US",2025-09-12T21:53:00Z,2025-09-12 14:53:00,MVFR,20,11.7,VAR,3,0,NA,1017.4,METAR KTIW 122153Z VRB03KT 10SM BKN028 20/12 A3004 RMK AO2 SLP172 T02000117,2025-09-12T21:56:16Z,2025-09-12T17:56:16Z,Tacoma Narrows Airport,47.267407,-122.577295,US,US-WA
KTIX,"Titusville/Space Coast Rgnl, FL, US",2025-09-12T21:30:00Z,2025-09-12 17:30:00,IFR,26,23,20,14,22,4,1015.3,SPECI KTIX 122130Z 02014G22KT 4SM RA BKN008 BKN014 26/23 A2998,2025-09-12T21:45:37Z,2025-09-12T17:45:37Z,Space Coast Regional Airport,28.514799118042,-80.799201965332,US,US-FL
KTIX,"Titusville/Space Coast Rgnl, FL, US",2025-09-12T21:47:00Z,2025-09-12 17:47:00,IFR,25,23,20,12,17,3,1015.7,METAR KTIX 122147Z 02012G17KT 3SM RA BKN008 BKN015 25/23 A2999,2025-09-12T21:56:16Z,2025-09-12T17:56:16Z,Space Coast Regional Airport,28.514799118042,-80.799201965332,US,US-FL
KTKC,"Tracy Muni, MN, US",2025-09-12T21:35:00Z,2025-09-12 21:35:00,VFR,27,21,110,12,0,NA,1013.3,METAR KTKC 122135Z AUTO 11012KT 10SM CLR 27/21 A2992 RMK AO2,2025-09-12T21:45:37Z,2025-09-12T17:45:37Z,Tracy Municipal Airport,44.2491,-95.6073,US,US-MN
KTKI,"McKinney Muni, TX, US",2025-09-12T20:53:00Z,2025-09-12 20:53:00,VFR,33.3,20,120,8,0,NA,1018.4,METAR KTKI 122053Z 12008KT 10SM CLR 33/20 A3007 RMK AO2 SLP176 T03330200 56020,2025-09-12T21:45:37Z,2025-09-12T17:45:37Z,McKinney National Airport,33.177898,-96.5905,US,US-TX
KTKI,"McKinney Muni, TX, US",2025-09-12T21:53:00Z,2025-09-12 21:53:00,VFR,33.3,18.9,110,8,0,NA,1017.7,METAR KTKI 122153Z 11008KT 10SM CLR 33/19 A3005 RMK AO2 SLP171 T03330189,2025-09-12T21:56:16Z,2025-09-12T17:56:16Z,McKinney National Airport,33.177898,-96.5905,US,US-TX
KTKV,"Tomahawk Rgnl, WI, US",2025-09-12T21:35:00Z,2025-09-12 21:35:00,VFR,22.9,13.1,160,5,0,NA,1019.7,METAR KTKV 122135Z AUTO 16005KT 10SM CLR 23/13 A3011 RMK AO2 T02290131 PWINO,2025-09-12T21:45:37Z,2025-09-12T17:45:37Z,Tomahawk Regional Airport,45.469101,-89.805702,US,US-WI
KTKX,"Kennett Arpt, MO, US",2025-09-12T21:35:00Z,2025-09-12 16:35:00,VFR,36,16,VAR,4,0,NA,1017,METAR KTKX 122135Z AUTO VRB04KT 10SM SCT090 36/16 A3003 RMK AO2,2025-09-12T21:45:37Z,2025-09-12T17:45:37Z,Kennett Memorial Airport,36.2258987427,-90.0365982056,US,US-MO
KTLH,"Tallahassee Intl, FL, US",2025-09-12T20:53:00Z,2025-09-12 16:53:00,VFR,33.3,13.9,360,11,0,NA,1015.7,METAR KTLH 122053Z 36011KT 10SM SCT070 33/14 A2999 RMK AO2 SLP155 T03330139 56016,2025-09-12T21:45:37Z,2025-09-12T17:45:37Z,Tallahassee Regional Airport,30.3965,-84.350304,US,US-FL
KTLH,"Tallahassee Intl, FL, US",2025-09-12T21:53:00Z,2025-09-12 17:53:00,VFR,32.8,14.4,360,11,0,NA,1015.7,METAR KTLH 122153Z 36011KT 10SM SCT070 33/14 A2999 RMK AO2 SLP155 T03280144,2025-09-12T21:56:15Z,2025-09-12T17:56:15Z,Tallahassee Regional Airport,30.3965,-84.350304,US,US-FL
KTMA,"Tifton/Myers Arpt, GA, US",2025-09-12T21:35:00Z,2025-09-12 17:35:00,VFR,29.8,15.4,70,8,0,NA,1017.7,METAR KTMA 122135Z AUTO 07008KT 10SM SCT060 30/15 A3005 RMK AO2 T02980154,2025-09-12T21:45:37Z,2025-09-12T17:45:37Z,Henry Tift Myers Airport,31.4290008545,-83.4885025024,US,US-GA
KTMB,"Miami Exec Arpt, FL, US",2025-09-12T20:53:00Z,2025-09-12 16:53:00,NA,NA,NA,VAR,NA,0,NA,1013,METAR KTMB 122053Z AUTO A2991 RMK AO2 LTG DSNT ALQDS TSE03 SLP129 58003 PWINO $,2025-09-12T21:45:37Z,2025-09-12T17:45:37Z,Miami Executive Airport,25.6479,-80.4328,US,US-FL
KTMB,"Miami Exec Arpt, FL, US",2025-09-12T21:53:00Z,2025-09-12 17:53:00,NA,NA,NA,VAR,NA,0,NA,1013.6,METAR KTMB 122153Z AUTO A2993 RMK AO2 SLP136 PWINO $,2025-09-12T21:56:16Z,2025-09-12T17:56:16Z,Miami Executive Airport,25.6479,-80.4328,US,US-FL
KTME,"Houston/Executive Arpt, TX, US",2025-09-12T21:35:00Z,2025-09-12 21:35:00,VFR,34,19,120,8,0,NA,1017.7,METAR KTME 122135Z AUTO 12008KT 10SM CLR 34/19 A3005 RMK AO2,2025-09-12T21:45:37Z,2025-09-12T17:45:37Z,Houston Executive Airport,29.807199,-95.897903,US,US-TX
KTMK,"Tillamook Arpt, OR, US",2025-09-12T21:35:00Z,2025-09-12 14:35:00,VFR,19,16,340,9,0,9,1017.7,METAR KTMK 122135Z AUTO 34009KT 9SM OVC033 19/16 A3005 RMK AO2,2025-09-12T21:45:37Z,2025-09-12T17:45:37Z,Tillamook Airport,45.4182014465,-123.814002991,US,US-OR
KTNU,"Newton Muni, IA, US",2025-09-12T21:35:00Z,2025-09-12 16:35:00,VFR,28,18,160,15,23,9,1014,METAR KTNU 122135Z AUTO 16015G23KT 9SM CLR 28/18 A2994 RMK A01,2025-09-12T21:45:37Z,2025-09-12T17:45:37Z,Newton Municipal Airport,41.6744,-93.021698,US,US-IA
KTOA,"Torrance Muni, CA, US",2025-09-12T20:47:00Z,2025-09-12 13:47:00,VFR,27,16,130,5,0,NA,1013,METAR KTOA 122047Z 13005KT 10SM FEW020 27/16 A2991,2025-09-12T21:45:37Z,2025-09-12T17:45:37Z,Zamperini Field,33.803398132324,-118.33999633789,US,US-CA
KTOA,"Torrance Muni, CA, US",2025-09-12T21:47:00Z,2025-09-12 14:47:00,VFR,27,16,160,6,0,NA,1012.3,METAR KTOA 122147Z 16006KT 10SM FEW020 27/16 A2989,2025-09-12T21:56:16Z,2025-09-12T17:56:16Z,Zamperini Field,33.803398132324,-118.33999633789,US,US-CA
KTOC,"Toccoa/Lefourneau Fld, GA, US",2025-09-12T21:35:00Z,2025-09-12 17:35:00,VFR,27.7,15.5,110,5,0,NA,1020.1,METAR KTOC 122135Z AUTO 11005KT 10SM CLR 28/15 A3012 RMK AO2 T02770155,2025-09-12T21:45:37Z,2025-09-12T17:45:37Z,Toccoa Airport - R.G. Letourneau Field,34.5938,-83.295799,US,US-GA
KTOI,"Troy Muni, AL, US",2025-09-12T20:53:00Z,2025-09-12 15:53:00,VFR,32.2,15.6,30,8,0,NA,1017.4,METAR KTOI 122053Z AUTO 03008KT 10SM SCT070 32/16 A3004 RMK AO2 SLP169 T03220156 56016,2025-09-12T21:45:37Z,2025-09-12T17:45:37Z,Troy Municipal Airport at N Kenneth Campbell Field,31.860399,-86.012101,US,US-AL
KTOI,"Troy Muni, AL, US",2025-09-12T21:53:00Z,2025-09-12 16:53:00,VFR,31.7,15.6,360,6,0,NA,1017.4,METAR KTOI 122153Z AUTO 36006KT 10SM FEW100 32/16 A3004 RMK AO2 SLP167 T03170156,2025-09-12T21:56:15Z,2025-09-12T17:56:15Z,Troy Municipal Airport at N Kenneth Campbell Field,31.860399,-86.012101,US,US-AL
KTOL,"Toledo/Express Arpt, OH, US",2025-09-12T20:52:00Z,2025-09-12 16:52:00,VFR,26.7,10.6,0,0,0,NA,1021.8,METAR KTOL 122052Z 00000KT 10SM FEW065 27/11 A3017 RMK AO2 SLP213 T02670106 56018 $,2025-09-12T21:45:37Z,2025-09-12T17:45:37Z,Eugene F. Kranz Toledo Express Airport,41.5868,-83.8078,US,US-OH
KTOL,"Toledo/Express Arpt, OH, US",2025-09-12T21:52:00Z,2025-09-12 17:52:00,VFR,26.7,10,80,6,0,NA,1021.4,METAR KTOL 122152Z 08006KT 10SM CLR 27/10 A3016 RMK AO2 SLP211 T02670100 $,2025-09-12T21:56:16Z,2025-09-12T17:56:16Z,Eugene F. Kranz Toledo Express Airport,41.5868,-83.8078,US,US-OH
KTOP,"Topeka/Billard Muni, KS, US",2025-09-12T20:53:00Z,2025-09-12 15:53:00,VFR,33.3,20.6,180,12,19,NA,1015.3,METAR KTOP 122053Z 18012G19KT 10SM CLR 33/21 A2998 RMK AO2 SLP141 T03330206 56016,2025-09-12T21:45:37Z,2025-09-12T17:45:37Z,Philip Billard Municipal Airport,39.069899,-95.622606,US,US-KS
KTOP,"Topeka/Billard Muni, KS, US",2025-09-12T21:53:00Z,2025-09-12 16:53:00,VFR,33.3,20,200,10,18,NA,1015,METAR KTOP 122153Z 20010G18KT 10SM CLR 33/20 A2997 RMK AO2 SLP139 T03330200,2025-09-12T21:56:16Z,2025-09-12T17:56:16Z,Philip Billard Municipal Airport,39.069899,-95.622606,US,US-KS
KTOR,"Torrington Muni, WY, US",2025-09-12T20:53:00Z,2025-09-12 14:53:00,VFR,30,7.8,0,0,0,NA,1014.3,METAR KTOR 122053Z AUTO 00000KT 10SM CLR 30/08 A2995 RMK AO2 SLP093 T03000078 56021,2025-09-12T21:45:37Z,2025-09-12T17:45:37Z,Torrington Municipal Airport,42.0644989,-104.1529999,US,US-WY
KTOR,"Torrington Muni, WY, US",2025-09-12T21:53:00Z,2025-09-12 15:53:00,VFR,30,8.3,180,7,0,NA,1014.3,METAR KTOR 122153Z AUTO 18007KT 10SM CLR 30/08 A2995 RMK AO2 SLP093 T03000083,2025-09-12T21:56:16Z,2025-09-12T17:56:16Z,Torrington Municipal Airport,42.0644989,-104.1529999,US,US-WY
KTPA,"Tampa Intl Arpt, FL, US",2025-09-12T20:53:00Z,2025-09-12 16:53:00,VFR,31.7,20.6,0,0,0,NA,1014.3,METAR KTPA 122053Z 00000KT 10SM SCT045 BKN055 OVC220 32/21 A2995 RMK AO2 SLP139 T03170206 56017,2025-09-12T21:45:37Z,2025-09-12T17:45:37Z,Tampa International Airport,27.9755,-82.533203,US,US-FL
KTPA,"Tampa Intl Arpt, FL, US",2025-09-12T21:53:00Z,2025-09-12 17:53:00,VFR,31.7,20.6,VAR,4,0,NA,1014,METAR KTPA 122153Z VRB04KT 10SM FEW045 SCT055 SCT120 BKN220 32/21 A2994 RMK AO2 SLP139 OCNL LTGIC DSNT E AND SE CB DSNT E AND SE T03170206,2025-09-12T21:56:16Z,2025-09-12T17:56:16Z,Tampa International Airport,27.9755,-82.533203,US,US-FL
KTPH,"Tonopah Arpt, NV, US",2025-09-12T20:56:00Z,2025-09-12 13:56:00,VFR,22.2,-2.8,240,4,0,NA,1017.7,METAR KTPH 122056Z AUTO 24004KT 10SM CLR 22/M03 A3005 RMK AO2 SLP114 T02221028 58012,2025-09-12T21:45:37Z,2025-09-12T17:45:37Z,Tonopah Airport,38.06019974,-117.086998,US,US-NV
KTPL,"Temple/Miller Rgnl, TX, US",2025-09-12T20:51:00Z,2025-09-12 15:51:00,NA,33.3,18.9,180,7,0,NA,1018.4,METAR KTPL 122051Z AUTO 18007KT CLR 33/19 A3007 RMK AO2 SLP172 T03330189 56022 PWINO RVRNO $,2025-09-12T21:45:37Z,2025-09-12T17:45:37Z,Draughon Miller Central Texas Regional Airport,31.1525,-97.407799,US,US-TX
KTPL,"Temple/Miller Rgnl, TX, US",2025-09-12T21:51:00Z,2025-09-12 16:51:00,NA,33.3,18.9,140,8,0,NA,1017.7,METAR KTPL 122151Z AUTO 14008KT FEW065 33/19 A3005 RMK AO2 SLP166 T03330189 PWINO RVRNO $,2025-09-12T21:56:16Z,2025-09-12T17:56:16Z,Draughon Miller Central Texas Regional Airport,31.1525,-97.407799,US,US-TX
KTQE,"Tekamah Muni, NE, US",2025-09-12T20:54:00Z,2025-09-12 20:54:00,VFR,32.2,18.3,180,11,20,NA,1011.6,METAR KTQE 122054Z AUTO 18011G20KT 10SM CLR 32/18 A2987 RMK AO2 SLP101 T03220183 58017,2025-09-12T21:45:37Z,2025-09-12T17:45:37Z,Tekamah Municipal Airport,41.76350021362305,-96.17790222167967,US,US-NE
KTQH,"Tahlequah Muni, OK, US",2025-09-12T21:35:00Z,2025-09-12 21:35:00,NA,34,18,180,3,0,NA,NA,METAR KTQH 122135Z AUTO 18003KT 10SM 34/18 RMK AO2,2025-09-12T21:45:37Z,2025-09-12T17:45:37Z,Tahlequah Municipal Airport,35.928902,-95.004501,US,US-OK
KTQK,"Scott City Muni, KS, US",2025-09-12T21:35:00Z,2025-09-12 21:35:00,VFR,32.2,12.7,200,18,26,NA,1016,METAR KTQK 122135Z AUTO 20018G26KT 10SM CLR 32/13 A3000 RMK AO2 T03220127,2025-09-12T21:45:37Z,2025-09-12T17:45:37Z,Scott City Municipal Airport,38.47430038452149,-100.88500213623048,US,US-KS
KTRI,"Bristol/Tri-Cities Arpt, TN, US",2025-09-12T20:53:00Z,2025-09-12 16:53:00,VFR,26.7,10.6,40,3,0,NA,1021.1,METAR KTRI 122053Z 04003KT 10SM FEW060 27/11 A3015 RMK AO2 SLP190 T02670106 56014,2025-09-12T21:45:37Z,2025-09-12T17:45:37Z,Tri-Cities Regional TN/VA Airport,36.475201,-82.407401,US,US-TN
KTRI,"Bristol/Tri-Cities Arpt, TN, US",2025-09-12T21:53:00Z,2025-09-12 17:53:00,VFR,26.1,11.1,350,5,0,NA,1021.1,METAR KTRI 122153Z 35005KT 10SM FEW060 26/11 A3015 RMK AO2 SLP191 T02610111,2025-09-12T21:56:16Z,2025-09-12T17:56:16Z,Tri-Cities Regional TN/VA Airport,36.475201,-82.407401,US,US-TN
KTRK,"Truckee/Tahoe Arpt, CA, US",2025-09-12T20:47:00Z,2025-09-12 13:47:00,VFR,19,4,VAR,5,0,NA,1019.7,METAR KTRK 122047Z VRB05KT 10SM BKN080 19/04 A3011,2025-09-12T21:45:37Z,2025-09-12T17:45:37Z,Truckee Tahoe Airport,39.318628,-120.140562,US,US-CA
KTRK,"Truckee/Tahoe Arpt, CA, US",2025-09-12T21:50:00Z,2025-09-12 14:50:00,VFR,20,4,VAR,5,0,NA,1019.4,METAR KTRK 122150Z VRB05KT 10SM BKN100 20/04 A3010,2025-09-12T21:56:16Z,2025-09-12T17:56:16Z,Truckee Tahoe Airport,39.318628,-120.140562,US,US-CA
KTRL,"Terrell Muni, TX, US",2025-09-12T20:53:00Z,2025-09-12 15:53:00,VFR,33.3,19.4,140,9,0,NA,1018.4,METAR KTRL 122053Z AUTO 14009KT 10SM CLR 33/19 A3007 RMK AO2 SLP175 T03330194 56021,2025-09-12T21:45:37Z,2025-09-12T17:45:37Z,Terrell Municipal Airport,32.709202,-96.267403,US,US-TX
KTRL,"Terrell Muni, TX, US",2025-09-12T21:53:00Z,2025-09-12 16:53:00,VFR,32.8,18.3,130,6,0,NA,1018,METAR KTRL 122153Z AUTO 13006KT 10SM CLR 33/18 A3006 RMK AO2 SLP172 T03280183,2025-09-12T21:56:16Z,2025-09-12T17:56:16Z,Terrell Municipal Airport,32.709202,-96.267403,US,US-TX
KTRM,"Thermal Arpt, CA, US",2025-09-12T20:52:00Z,2025-09-12 13:52:00,VFR,36.1,7.8,360,5,0,NA,1007.2,METAR KTRM 122052Z AUTO 36005KT 10SM CLR 36/08 A2974 RMK AO2 SLP082 T03610078 58026 TSNO,2025-09-12T21:45:37Z,2025-09-12T17:45:37Z,Jacqueline Cochran Regional Airport,33.62670135498,-116.16000366211,US,US-CA
KTRM,"Thermal Arpt, CA, US",2025-09-12T21:52:00Z,2025-09-12 14:52:00,VFR,36.1,6.7,VAR,5,0,NA,1006.5,METAR KTRM 122152Z AUTO VRB05KT 10SM CLR 36/07 A2972 RMK AO2 SLP074 T03610067 TSNO,2025-09-12T21:56:16Z,2025-09-12T17:56:16Z,Jacqueline Cochran Regional Airport,33.62670135498,-116.16000366211,US,US-CA
KTSP,"Tehachapi Muni, CA, US",2025-09-12T21:35:00Z,2025-09-12 14:35:00,VFR,21,10,310,15,0,NA,1017.4,METAR KTSP 122135Z AUTO 31015KT 10SM CLR 21/10 A3004 RMK AO2,2025-09-12T21:45:37Z,2025-09-12T17:45:37Z,Tehachapi Municipal Airport,35.134998321533,-118.43900299072,US,US-CA
KTTA,"Sanford/Lee Cnty, NC, US",2025-09-12T21:35:00Z,2025-09-12 21:35:00,VFR,26.6,12.6,70,5,0,NA,1019.7,METAR KTTA 122135Z AUTO 07005KT 10SM SCT060 27/13 A3011 RMK AO2 T02660126,2025-09-12T21:45:37Z,2025-09-12T17:45:37Z,Raleigh Executive Jetport,35.583698,-79.1008,US,US-NC
KTTA,"Sanford/Lee Cnty, NC, US",2025-09-12T21:45:00Z,2025-09-12 21:45:00,VFR,26.5,13.4,60,5,0,NA,1019.7,METAR KTTA 122145Z AUTO 06005KT 10SM CLR 27/13 A3011 RMK AO2 T02650134,2025-09-12T21:56:16Z,2025-09-12T17:56:16Z,Raleigh Executive Jetport,35.583698,-79.1008,US,US-NC
KTTD,"Portland/Troutdale Arpt, OR, US",2025-09-12T20:53:00Z,2025-09-12 13:53:00,VFR,21.1,11.1,VAR,4,0,NA,1017.4,METAR KTTD 122053Z VRB04KT 10SM CLR 21/11 A3004 RMK AO2 SLP172 T02110111 56016,2025-09-12T21:45:37Z,2025-09-12T17:45:37Z,Portland Troutdale Airport,45.54940032959,-122.40100097656,US,US-OR
KTTD,"Portland/Troutdale Arpt, OR, US",2025-09-12T21:53:00Z,2025-09-12 14:53:00,VFR,21.1,11.1,0,0,0,NA,1016.7,METAR KTTD 122153Z 00000KT 10SM CLR 21/11 A3002 RMK AO2 SLP165 T02110111,2025-09-12T21:56:15Z,2025-09-12T17:56:15Z,Portland Troutdale Airport,45.54940032959,-122.40100097656,US,US-OR
KTTF,"Monroe/Custer Arpt, MI, US",2025-09-12T21:35:00Z,2025-09-12 21:35:00,VFR,25,11,150,7,0,NA,1021.8,METAR KTTF 122135Z AUTO 15007KT 10SM CLR 25/11 A3017 RMK AO2,2025-09-12T21:45:37Z,2025-09-12T17:45:37Z,Custer Airport,41.939899,-83.4347,US,US-MI
KTTN,"Trenton/Mercer Arpt, NJ, US",2025-09-12T20:53:00Z,2025-09-12 16:53:00,VFR,25,13.9,100,7,0,NA,1021.4,METAR KTTN 122053Z 10007KT 070V140 10SM CLR 25/14 A3016 RMK AO2 SLP206 T02500139 58009,2025-09-12T21:45:37Z,2025-09-12T17:45:37Z,Trenton Mercer Airport,40.276699,-74.813499,US,US-NJ
KTTN,"Trenton/Mercer Arpt, NJ, US",2025-09-12T21:53:00Z,2025-09-12 17:53:00,VFR,24.4,13.3,130,5,0,NA,1021.4,METAR KTTN 122153Z 13005KT 10SM CLR 24/13 A3016 RMK AO2 SLP205 T02440133,2025-09-12T21:56:16Z,2025-09-12T17:56:16Z,Trenton Mercer Airport,40.276699,-74.813499,US,US-NJ
KTTS,"NASA Shuttle Landing Arpt, FL, US",2025-09-12T21:24:00Z,2025-09-12 21:24:00,MVFR,25,23,20,6,0,NA,1014,SPECI KTTS 122124Z AUTO 02006KT 10SM -RA SCT014 BKN018 BKN032 OVC046 25/23 A2994 RMK AO2 LTG DSNT N RAE02RAB19 CIG 018V034 BKN018 V SCT CIG 014 RWY15/33 SLP143 FZRANO $,2025-09-12T21:45:37Z,2025-09-12T17:45:37Z,Space Florida Launch and Landing Facility,28.615,-80.694504,US,US-FL
KTUL,"Tulsa Intl Arpt, OK, US",2025-09-12T20:53:00Z,2025-09-12 15:53:00,VFR,33.9,18.9,170,13,17,NA,1017.7,METAR KTUL 122053Z 17013G17KT 10SM FEW055 SCT250 34/19 A3005 RMK AO2 SLP167 T03390189 57020,2025-09-12T21:45:37Z,2025-09-12T17:45:37Z,Tulsa International Airport,36.19839859008789,-95.88809967041016,US,US-OK
KTUL,"Tulsa Intl Arpt, OK, US",2025-09-12T21:53:00Z,2025-09-12 16:53:00,VFR,34.4,18.3,180,8,0,NA,1017.4,METAR KTUL 122153Z 18008KT 10SM FEW050 SCT250 34/18 A3004 RMK AO2 SLP162 T03440183,2025-09-12T21:56:16Z,2025-09-12T17:56:16Z,Tulsa International Airport,36.19839859008789,-95.88809967041016,US,US-OK
KTUP,"Tupelo Rgnl, MS, US",2025-09-12T20:53:00Z,2025-09-12 15:53:00,VFR,32.2,16.1,340,3,0,NA,1018,METAR KTUP 122053Z 34003KT 10SM CLR 32/16 A3006 RMK AO2 SLP174 T03220161 56020 $,2025-09-12T21:45:37Z,2025-09-12T17:45:37Z,Tupelo Regional Airport,34.26810073852539,-88.7698974609375,US,US-MS
KTUP,"Tupelo Rgnl, MS, US",2025-09-12T21:53:00Z,2025-09-12 16:53:00,VFR,31.1,15.6,50,7,0,NA,1018,METAR KTUP 122153Z 05007KT 10SM SCT080 31/16 A3006 RMK AO2 SLP174 T03110156 $,2025-09-12T21:56:16Z,2025-09-12T17:56:16Z,Tupelo Regional Airport,34.26810073852539,-88.7698974609375,US,US-MS
KTUS,"Tucson Intl Arpt, AZ, US",2025-09-12T20:53:00Z,2025-09-12 13:53:00,VFR,35,12.2,250,10,20,NA,1013,METAR KTUS 122053Z 25010G20KT 10SM FEW100 35/12 A2991 RMK AO2 SLP073 T03500122 56026,2025-09-12T21:45:37Z,2025-09-12T17:45:37Z,Tucson International Airport / Morris Air National Guard Base,32.115004,-110.938053,US,US-AZ
KTUS,"Tucson Intl Arpt, AZ, US",2025-09-12T21:53:00Z,2025-09-12 14:53:00,VFR,35.6,12.8,230,16,0,NA,1012.3,METAR KTUS 122153Z 23016KT 10SM FEW090 36/13 A2989 RMK AO2 SLP066 T03560128,2025-09-12T21:56:16Z,2025-09-12T17:56:16Z,Tucson International Airport / Morris Air National Guard Base,32.115004,-110.938053,US,US-AZ
KTVC,"Traverse City/Cherry Capital Arpt, MI, US",2025-09-12T20:53:00Z,2025-09-12 16:53:00,VFR,22.8,15.6,30,7,0,NA,1021.1,METAR KTVC 122053Z 03007KT 10SM FEW055 SCT250 23/16 A3015 RMK AO2 SLP208 T02280156 56014,2025-09-12T21:45:37Z,2025-09-12T17:45:37Z,Cherry Capital Airport,44.74140167236328,-85.58219909667969,US,US-MI
KTVC,"Traverse City/Cherry Capital Arpt, MI, US",2025-09-12T21:53:00Z,2025-09-12 17:53:00,VFR,21.7,15.6,50,7,0,NA,1021.1,METAR KTVC 122153Z 05007KT 10SM FEW055 SCT250 22/16 A3015 RMK AO2 SLP209 T02170156,2025-09-12T21:56:15Z,2025-09-12T17:56:15Z,Cherry Capital Airport,44.74140167236328,-85.58219909667969,US,US-MI
KTVF,"Thief River Rgnl, MN, US",2025-09-12T20:56:00Z,2025-09-12 15:56:00,VFR,25,18.9,90,5,0,NA,1014,METAR KTVF 122056Z AUTO 09005KT 10SM CLR 25/19 A2994 RMK AO2 SLP139 T02500189 56012,2025-09-12T21:45:37Z,2025-09-12T17:45:37Z,Thief River Falls Regional Airport,48.065701,-96.184998,US,US-MN
KTVI,"Thomasville Rgnl, GA, US",2025-09-12T21:35:00Z,2025-09-12 17:35:00,VFR,30,15,20,7,0,NA,1017.4,METAR KTVI 122135Z AUTO 02007KT 10SM SCT065 SCT075 BKN110 30/15 A3004 RMK AO2,2025-09-12T21:45:37Z,2025-09-12T17:45:37Z,Thomasville Regional Airport,30.901599884033,-83.881301879883,US,US-GA
KTVK,"Centerville Muni, IA, US",2025-09-12T21:35:00Z,2025-09-12 21:35:00,NA,29,17,120,6,0,NA,1017.4,METAR KTVK 122135Z AUTO 12006KT 10SM -DZ 29/17 A3004 RMK AO2,2025-09-12T21:45:37Z,2025-09-12T17:45:37Z,Centerville Municipal Airport,40.683899,-92.901001,US,US-IA
KTVL,"Lake Tahoe Arpt, CA, US",2025-09-12T20:53:00Z,2025-09-12 13:53:00,VFR,17.8,4.4,VAR,5,0,NA,1020.1,METAR KTVL 122053Z AUTO VRB05KT 10SM FEW060 18/04 A3012 RMK AO2 SLP150 T01780044 58005,2025-09-12T21:45:37Z,2025-09-12T17:45:37Z,Lake Tahoe Airport,38.89390182495117,-119.99500274658205,US,US-CA
KTVL,"Lake Tahoe Arpt, CA, US",2025-09-12T21:53:00Z,2025-09-12 14:53:00,VFR,18.3,4.4,20,8,0,NA,1019.7,METAR KTVL 122153Z AUTO 02008KT 340V050 10SM CLR 18/04 A3011 RMK AO2 SLP146 T01830044,2025-09-12T21:56:16Z,2025-09-12T17:56:16Z,Lake Tahoe Airport,38.89390182495117,-119.99500274658205,US,US-CA
KTVR,"Vicksburg/Tallulah Rgnl, LA, US",2025-09-12T20:53:00Z,2025-09-12 20:53:00,VFR,35.6,18.3,40,3,0,NA,1017.7,METAR KTVR 122053Z AUTO 04003KT 10SM CLR 36/18 A3005 RMK AO2 SLP181 T03560183 56021,2025-09-12T21:45:37Z,2025-09-12T17:45:37Z,Vicksburg Tallulah Regional Airport,32.351601,-91.027702,US,US-LA
KTVR,"Vicksburg/Tallulah Rgnl, LA, US",2025-09-12T21:53:00Z,2025-09-12 21:53:00,VFR,34.4,19.4,0,0,0,NA,1017.4,METAR KTVR 122153Z AUTO 00000KT 10SM CLR 34/19 A3004 RMK AO2 SLP177 T03440194,2025-09-12T21:56:16Z,2025-09-12T17:56:16Z,Vicksburg Tallulah Regional Airport,32.351601,-91.027702,US,US-LA
KTVY,"Tooele Valley Arpt, UT, US",2025-09-12T21:35:00Z,2025-09-12 21:35:00,VFR,26,3,10,8,0,NA,1014.6,METAR KTVY 122135Z AUTO 01008KT 10SM CLR 26/03 A2996 RMK AO2,2025-09-12T21:45:37Z,2025-09-12T17:45:37Z,Bolinder Field Tooele Valley Airport,40.612301,-112.350998,US,US-UT
KTWF,"Twin Falls/Joslin Fld, ID, US",2025-09-12T20:53:00Z,2025-09-12 14:53:00,VFR,22.2,5,310,9,0,NA,1017,METAR KTWF 122053Z 31009KT 270V330 10SM CLR 22/05 A3003 RMK AO2 SLP125 T02220050 58016,2025-09-12T21:45:37Z,2025-09-12T17:45:37Z,Joslin Field Magic Valley Regional Airport,42.4818,-114.487999,US,US-ID
KTWF,"Twin Falls/Joslin Fld, ID, US",2025-09-12T21:53:00Z,2025-09-12 15:53:00,VFR,23.3,5,310,7,0,NA,1016.7,METAR KTWF 122153Z 31007KT 260V340 10SM CLR 23/05 A3002 RMK AO2 SLP119 T02330050,2025-09-12T21:56:15Z,2025-09-12T17:56:15Z,Joslin Field Magic Valley Regional Airport,42.4818,-114.487999,US,US-ID
KTWM,"Two Harbors/Helgeson Arpt, MN, US",2025-09-12T21:35:00Z,2025-09-12 21:35:00,VFR,15,13,60,6,0,NA,1018.7,METAR KTWM 122135Z AUTO 06006KT 10SM SCT008 BKN050 15/13 A3008 RMK AO2 LTG DSNT N AND SE,2025-09-12T21:45:37Z,2025-09-12T17:45:37Z,Richard B Helgeson Airport,47.04919815,-91.74510193,US,US-MN
KTWT,"Sturgis Muni, KY, US",2025-09-12T21:35:00Z,2025-09-12 21:35:00,NA,NA,NA,50,3,0,NA,1019,METAR KTWT 122135Z AUTO 05003KT 10SM A3009 RMK AO2,2025-09-12T21:45:37Z,2025-09-12T17:45:37Z,Sturgis Municipal Airport,37.540798,-87.951797,US,US-KY
KTWT,"Sturgis Muni, KY, US",2025-09-12T21:55:00Z,2025-09-12 21:55:00,NA,NA,NA,0,0,0,NA,1019,METAR KTWT 122155Z AUTO 00000KT 10SM A3009 RMK AO2,2025-09-12T21:56:15Z,2025-09-12T17:56:15Z,Sturgis Municipal Airport,37.540798,-87.951797,US,US-KY
KTXK,"Texarkana Rgnl, AR, US",2025-09-12T20:53:00Z,2025-09-12 15:53:00,VFR,33.9,20.6,60,6,0,NA,1018.4,METAR KTXK 122053Z 06006KT 10SM BKN065 BKN080 34/21 A3007 RMK AO2 SLP175 T03390206 56019,2025-09-12T21:45:37Z,2025-09-12T17:45:37Z,Texarkana Regional Airport (Webb Field),33.453701,-93.990997,US,US-AR
KTXK,"Texarkana Rgnl, AR, US",2025-09-12T21:53:00Z,2025-09-12 16:53:00,VFR,35,20.6,110,4,0,NA,1017.7,METAR KTXK 122153Z 11004KT 10SM CLR 35/21 A3005 RMK AO2 SLP171 T03500206,2025-09-12T21:56:16Z,2025-09-12T17:56:16Z,Texarkana Regional Airport (Webb Field),33.453701,-93.990997,US,US-AR
KTYL,"Taylor Arpt, AZ, US",2025-09-12T21:35:00Z,2025-09-12 14:35:00,VFR,27,10,190,22,28,NA,1019.7,METAR KTYL 122135Z AUTO 19022G28KT 10SM SCT065 27/10 A3011 RMK AO2,2025-09-12T21:45:37Z,2025-09-12T17:45:37Z,Taylor Airport,34.45280075,-110.1149979,US,US-AZ
KTYQ,"Indianapolis Exec, IN, US",2025-09-12T21:35:00Z,2025-09-12 21:35:00,VFR,28.2,8.9,0,0,0,NA,1020.7,METAR KTYQ 122135Z AUTO 00000KT 10SM CLR 28/09 A3014 RMK AO2 T02820089,2025-09-12T21:45:37Z,2025-09-12T17:45:37Z,Indianapolis Executive Airport,40.030701,-86.251404,US,US-IN
KTYR,"Tyler/Pounds Fld, TX, US",2025-09-12T20:53:00Z,2025-09-12 15:53:00,VFR,33.3,21.1,VAR,4,0,NA,1018.7,METAR KTYR 122053Z VRB04KT 10SM CLR 33/21 A3008 RMK AO2 SLP177 T03330211 58022,2025-09-12T21:45:37Z,2025-09-12T17:45:37Z,Tyler Pounds Regional Airport,32.35409927368164,-95.40239715576172,US,US-TX
KTYR,"Tyler/Pounds Fld, TX, US",2025-09-12T21:53:00Z,2025-09-12 16:53:00,VFR,33.3,20,210,4,0,NA,1018.4,METAR KTYR 122153Z 21004KT 10SM OVC055 33/20 A3007 RMK AO2 SLP172 T03330200,2025-09-12T21:56:16Z,2025-09-12T17:56:16Z,Tyler Pounds Regional Airport,32.35409927368164,-95.40239715576172,US,US-TX
KTYS,"Knoxville/Tyson Arpt, TN, US",2025-09-12T20:53:00Z,2025-09-12 16:53:00,VFR,27.8,10.6,50,7,0,NA,1019.7,METAR KTYS 122053Z 05007KT 10SM FEW065 28/11 A3011 RMK AO2 SLP187 T02780106 56017 $,2025-09-12T21:45:37Z,2025-09-12T17:45:37Z,McGhee Tyson Airport,35.811001,-83.994003,US,US-TN
KTYS,"Knoxville/Tyson Arpt, TN, US",2025-09-12T21:53:00Z,2025-09-12 17:53:00,VFR,27.8,11.1,40,7,0,NA,1019.7,METAR KTYS 122153Z 04007KT 10SM FEW065 28/11 A3011 RMK AO2 SLP186 T02780111 $,2025-09-12T21:56:16Z,2025-09-12T17:56:16Z,McGhee Tyson Airport,35.811001,-83.994003,US,US-TN
KTZR,"Columbus/Bolton Fld, OH, US",2025-09-12T20:50:00Z,2025-09-12 20:50:00,VFR,28,9,210,3,0,NA,1021.4,METAR KTZR 122050Z 21003KT 10SM CLR 28/09 A3016,2025-09-12T21:45:37Z,2025-09-12T17:45:37Z,Bolton Field,39.901199,-83.136902,US,US-OH
KTZR,"Columbus/Bolton Fld, OH, US",2025-09-12T21:50:00Z,2025-09-12 21:50:00,VFR,28,10,0,0,0,NA,1021.1,METAR KTZR 122150Z 00000KT 10SM CLR 28/10 A3015,2025-09-12T21:56:16Z,2025-09-12T17:56:16Z,Bolton Field,39.901199,-83.136902,US,US-OH
KU52,"Beaver Muni, UT, US",2025-09-12T21:35:00Z,2025-09-12 21:35:00,VFR,25,-7,240,13,20,NA,1017.4,METAR KU52 122135Z AUTO 24013G20KT 10SM RA CLR 25/M07 A3004 RMK AO2,2025-09-12T21:45:37Z,2025-09-12T17:45:37Z,Beaver Municipal Airport,38.230701,-112.675003,US,US-UT
KU55,"Panguitch Muni, UT, US",2025-09-12T21:35:00Z,2025-09-12 15:35:00,VFR,23,-5,200,7,17,NA,1020.1,METAR KU55 122135Z AUTO 20007G17KT 10SM FEW100 23/M05 A3012 RMK A01,2025-09-12T21:45:37Z,2025-09-12T17:45:37Z,Panguitch Municipal Airport,37.84519958,-112.3919983,US,US-UT
KU69,"Duchesne Muni, UT, US",2025-09-12T21:35:00Z,2025-09-12 21:35:00,VFR,20,6,80,15,0,NA,1017.4,METAR KU69 122135Z AUTO 08015KT 10SM SCT090 SCT110 20/06 A3004 RMK A01,2025-09-12T21:45:37Z,2025-09-12T17:45:37Z,Duchesne Municipal Airport,40.191898,-110.380997,US,US-UT
KUAO,"Aurora State Arpt, OR, US",2025-09-12T20:53:00Z,2025-09-12 20:53:00,VFR,21.1,11.1,VAR,4,0,NA,1017.7,METAR KUAO 122053Z VRB04KT 10SM FEW033 21/11 A3005 RMK AO2 SLP174 T02110111 58017 $,2025-09-12T21:45:37Z,2025-09-12T17:45:37Z,Aurora State Airport,45.247100830078125,-122.7699966430664,US,US-OR
KUAO,"Aurora State Arpt, OR, US",2025-09-12T21:53:00Z,2025-09-12 21:53:00,VFR,22.2,11.1,310,5,0,NA,1017,METAR KUAO 122153Z 31005KT 10SM CLR 22/11 A3003 RMK AO2 SLP166 T02220111 $,2025-09-12T21:56:15Z,2025-09-12T17:56:15Z,Aurora State Airport,45.247100830078125,-122.7699966430664,US,US-OR
KUBE,"Cumberland Muni, WI, US",2025-09-12T21:35:00Z,2025-09-12 21:35:00,VFR,22,17,250,5,0,NA,1019,METAR KUBE 122135Z AUTO 25005KT 10SM VCTS OVC065 22/17 A3009 RMK AO2 LTG DSNT ALQS,2025-09-12T21:45:37Z,2025-09-12T17:45:37Z,Cumberland Municipal Airport,45.505969,-91.98012,US,US-WI
KUCP,"New Castle Muni, PA, US",2025-09-12T20:56:00Z,2025-09-12 20:56:00,VFR,27.2,7.8,VAR,4,0,NA,1021.4,METAR KUCP 122056Z AUTO VRB04KT 10SM CLR 27/08 A3016 RMK AO2 SLP225 T02720078 56019,2025-09-12T21:45:37Z,2025-09-12T17:45:37Z,New Castle Municipal Airport,41.02529907,-80.41339874,US,US-PA
KUCY,"Union City/Everett-Stewart Rgnl, TN, US",2025-09-12T20:40:00Z,2025-09-12 15:40:00,VFR,34,15,20,6,0,NA,1017.7,METAR KUCY 122040Z AUTO 02006KT 10SM CLR 34/15 A3005 RMK A01,2025-09-12T21:45:37Z,2025-09-12T17:45:37Z,Everett-Stewart Regional Airport,36.38180161,-88.98539734,US,US-TN
KUDG,"Darlington Cnty, SC, US",2025-09-12T20:56:00Z,2025-09-12 20:56:00,VFR,29.4,16.1,80,9,0,NA,1019,METAR KUDG 122056Z AUTO 08009KT 10SM CLR 29/16 A3009 RMK AO2 SLP189 6//// T02940161 56015 PNO $,2025-09-12T21:45:37Z,2025-09-12T17:45:37Z,Darlington County Airport,34.449401,-79.890098,US,US-SC
KUES,"Waukesha Cnty, WI, US",2025-09-12T21:45:00Z,2025-09-12 16:45:00,VFR,25,17,120,8,0,NA,1020.7,METAR KUES 122145Z 12008KT 10SM SCT050 25/17 A3014,2025-09-12T21:45:36Z,2025-09-12T17:45:36Z,Waukesha County Airport,43.041000366211,-88.237098693848,US,US-WI
KUGN,"Waukegan Rgnl, IL, US",2025-09-12T20:51:00Z,2025-09-12 15:51:00,VFR,26.1,13.9,110,8,0,NA,1020.1,METAR KUGN 122051Z 11008KT 10SM CLR 26/14 A3012 RMK AO2 SLP192 T02610139 58025,2025-09-12T21:45:37Z,2025-09-12T17:45:37Z,Waukegan National Airport,42.422199249268,-87.867897033691,US,US-IL
KUGN,"Waukegan Rgnl, IL, US",2025-09-12T21:51:00Z,2025-09-12 16:51:00,VFR,26.1,14.4,130,7,0,NA,1020.4,METAR KUGN 122151Z 13007KT 10SM CLR 26/14 A3013 RMK AO2 SLP194 T02610144,2025-09-12T21:56:16Z,2025-09-12T17:56:16Z,Waukegan National Airport,42.422199249268,-87.867897033691,US,US-IL
KUIL,"Quillayute State Arpt, WA, US",2025-09-12T21:13:00Z,2025-09-12 14:13:00,VFR,18.9,15.6,280,4,0,NA,1017.7,SPECI KUIL 122113Z AUTO 28004KT 10SM FEW010 SCT028 OVC040 19/16 A3005 RMK AO2 T01890156,2025-09-12T21:45:37Z,2025-09-12T17:45:37Z,Quillayute Airport,47.936599731445,-124.56300354004,US,US-WA
KUIL,"Quillayute State Arpt, WA, US",2025-09-12T21:53:00Z,2025-09-12 14:53:00,MVFR,18.9,15,260,6,0,NA,1017.7,METAR KUIL 122153Z AUTO 26006KT 10SM FEW013 OVC027 19/15 A3005 RMK AO2 SLP175 T01890150,2025-09-12T21:56:16Z,2025-09-12T17:56:16Z,Quillayute Airport,47.936599731445,-124.56300354004,US,US-WA
KUIN,"Quincy/Baldwin Fld, IL, US",2025-09-12T20:54:00Z,2025-09-12 15:54:00,VFR,32.2,16.1,120,6,0,NA,1017.7,METAR KUIN 122054Z AUTO 12006KT 10SM CLR 32/16 A3005 RMK AO2 SLP168 T03220161 56020,2025-09-12T21:45:37Z,2025-09-12T17:45:37Z,Quincy Regional Airport Baldwin Field,39.942699,-91.194603,US,US-IL
KUKF,"Wilkesboro/Wilkes Cnty, NC, US",2025-09-12T21:40:00Z,2025-09-12 17:40:00,VFR,26,13,90,3,0,NA,1022.8,METAR KUKF 122140Z AUTO 09003KT 10SM CLR 26/13 A3020 RMK AO2,2025-09-12T21:45:37Z,2025-09-12T17:45:37Z,Wilkes County Airport,36.2228012085,-81.09829711910001,US,US-NC
KUKF,"Wilkesboro/Wilkes Cnty, NC, US",2025-09-12T21:50:00Z,2025-09-12 17:50:00,VFR,26,13,70,3,0,NA,1022.8,METAR KUKF 122150Z AUTO 07003KT 10SM SCT090 26/13 A3020 RMK AO2,2025-09-12T21:56:16Z,2025-09-12T17:56:16Z,Wilkes County Airport,36.2228012085,-81.09829711910001,US,US-NC
KUKI,"Ukiah Muni, CA, US",2025-09-12T20:56:00Z,2025-09-12 13:56:00,VFR,30,13.9,130,6,0,NA,1013,METAR KUKI 122056Z AUTO 13006KT 10SM CLR 30/14 A2991 RMK AO2 SLP120 T03000139 56019,2025-09-12T21:45:37Z,2025-09-12T17:45:37Z,Ukiah Municipal Airport,39.125999,-123.200996,US,US-CA
KUKL,"Burlington/Coffey Cnty, KS, US",2025-09-12T21:35:00Z,2025-09-12 21:35:00,VFR,32,20,210,14,0,NA,1017,METAR KUKL 122135Z AUTO 21014KT 10SM CLR 32/20 A3003 RMK AO2 T03200200,2025-09-12T21:45:37Z,2025-09-12T17:45:37Z,Coffey County Airport,38.302502,-95.724998,US,US-KS
KUKT,"Quakertown Arpt, PA, US",2025-09-12T21:35:00Z,2025-09-12 17:35:00,VFR,25,14,100,4,0,NA,1021.8,METAR KUKT 122135Z AUTO 10004KT 10SM CLR 25/14 A3017 RMK AO2,2025-09-12T21:45:37Z,2025-09-12T17:45:37Z,Quakertown Airport,40.4352,-75.381897,US,US-PA
KULM,"New Ulm Muni, MN, US",2025-09-12T21:35:00Z,2025-09-12 16:35:00,NA,22,19,110,11,0,NA,1014.6,METAR KULM 122135Z AUTO 11011KT 10SM RA 22/19 A2996 RMK AO2 LTG DSNT E,2025-09-12T21:45:37Z,2025-09-12T17:45:37Z,New Ulm Municipal Airport,44.319599151611,-94.502296447754,US,US-MN
KULS,"Ulysses Arpt, KS, US",2025-09-12T21:35:00Z,2025-09-12 21:35:00,VFR,33,9,190,21,0,NA,1016,METAR KULS 122135Z AUTO 19021KT 10SM CLR 33/09 A3000 RMK AO2,2025-09-12T21:45:37Z,2025-09-12T17:45:37Z,Ulysses Airport,37.60400009,-101.3740005,US,US-KS
KUMP,"Indianapolis Metro, IN, US",2025-09-12T21:35:00Z,2025-09-12 21:35:00,VFR,28.8,10.6,0,0,0,NA,1020.7,METAR KUMP 122135Z AUTO 00000KT 10SM CLR 29/11 A3014 RMK AO2 T02880106 $,2025-09-12T21:45:37Z,2025-09-12T17:45:37Z,Indianapolis Metropolitan Airport,39.9352,-86.044998,US,US-IN
KUNI,"Albany/Ohio Univ Arpt, OH, US",2025-09-12T21:35:00Z,2025-09-12 17:35:00,VFR,28.3,9.7,0,0,0,9,1020.4,METAR KUNI 122135Z AUTO 00000KT 9SM CLR 28/10 A3013 RMK AO2 T02830097,2025-09-12T21:45:37Z,2025-09-12T17:45:37Z,Ohio University Airport,39.211839,-82.22949,US,US-OH
KUNO,"West Plains Rgnl, MO, US",2025-09-12T20:53:00Z,2025-09-12 20:53:00,VFR,33.9,14.4,250,5,0,NA,1019.4,METAR KUNO 122053Z AUTO 25005KT 10SM SCT080 34/14 A3010 RMK AO2 SLP177 T03390144 56021,2025-09-12T21:45:37Z,2025-09-12T17:45:37Z,West Plains Regional Airport,36.878399,-91.902702,US,US-MO
KUNU,"Juneau/Dodge Cnty, WI, US",2025-09-12T21:37:00Z,2025-09-12 16:37:00,VFR,26.4,12.5,170,8,0,NA,1020.1,METAR KUNU 122137Z AUTO 17008KT 10SM CLR 26/13 A3012 RMK AO2 T02640125 TSNO,2025-09-12T21:45:37Z,2025-09-12T17:45:37Z,Dodge County Airport,43.42660141,-88.70320129,US,US-WI
KUNV,"State College/Univ Park Arpt, PA, US",2025-09-12T20:53:00Z,2025-09-12 16:53:00,VFR,26,9,0,0,0,NA,1022.1,METAR KUNV 122053Z 00000KT 10SM SCT065 26/09 A3018,2025-09-12T21:45:37Z,2025-09-12T17:45:37Z,State College Regional Airport,40.849374,-77.84852,US,US-PA
KUOX,"Oxford/University Arpt, MS, US",2025-09-12T21:35:00Z,2025-09-12 16:35:00,VFR,34,17,70,8,0,NA,1018,METAR KUOX 122135Z AUTO 07008KT 10SM FEW070 34/17 A3006 RMK AO2 PWINO TSNO,2025-09-12T21:45:37Z,2025-09-12T17:45:37Z,University Oxford Airport,34.384300231934,-89.536796569824,US,US-MS
KUSE,"Wauseon/Fulton Cnty, OH, US",2025-09-12T21:35:00Z,2025-09-12 21:35:00,VFR,27,11,80,3,0,NA,1021.4,METAR KUSE 122135Z AUTO 08003KT 10SM CLR 27/11 A3016 RMK AO2,2025-09-12T21:45:37Z,2025-09-12T17:45:37Z,Fulton County Airport,41.6101,-84.127197,US,US-OH
KUTA,"Tunica Muni, MS, US",2025-09-12T21:35:00Z,2025-09-12 16:35:00,VFR,35.1,16.3,0,0,0,NA,1017,METAR KUTA 122135Z AUTO 00000KT 10SM FEW090 35/16 A3003 RMK AO2 T03510163 $,2025-09-12T21:45:37Z,2025-09-12T17:45:37Z,Tunica Municipal Airport,34.68505,-90.347757,US,US-MS
KUTS,"Huntsville Muni, TX, US",2025-09-12T20:53:00Z,2025-09-12 15:53:00,VFR,33.3,20,100,4,0,NA,1018,METAR KUTS 122053Z AUTO 10004KT 10SM FEW055 33/20 A3006 RMK AO2 SLP174 T03330200 56021,2025-09-12T21:45:37Z,2025-09-12T17:45:37Z,Huntsville Regional Airport,30.7469005585,-95.5871963501,US,US-TX
KUTS,"Huntsville Muni, TX, US",2025-09-12T21:53:00Z,2025-09-12 16:53:00,VFR,33.9,20,150,5,0,NA,1017.4,METAR KUTS 122153Z AUTO 15005KT 10SM CLR 34/20 A3004 RMK AO2 SLP168 T03390200,2025-09-12T21:56:15Z,2025-09-12T17:56:15Z,Huntsville Regional Airport,30.7469005585,-95.5871963501,US,US-TX
KUUU,"Newport State Arpt, RI, US",2025-09-12T20:53:00Z,2025-09-12 16:53:00,VFR,20.6,13.3,120,7,0,NA,1022.4,METAR KUUU 122053Z AUTO 12007KT 090V160 10SM CLR 21/13 A3019 RMK AO2 SLP222 T02060133 56004,2025-09-12T21:45:37Z,2025-09-12T17:45:37Z,Newport State Airport,41.532398,-71.281502,US,US-RI
KUUU,"Newport State Arpt, RI, US",2025-09-12T21:53:00Z,2025-09-12 17:53:00,VFR,19.4,12.8,110,5,0,NA,1022.4,METAR KUUU 122153Z AUTO 11005KT 10SM CLR 19/13 A3019 RMK AO2 SLP222 T01940128,2025-09-12T21:56:15Z,2025-09-12T17:56:15Z,Newport State Airport,41.532398,-71.281502,US,US-RI
KUUV,"Sullivan Rgnl, MO, US",2025-09-12T21:35:00Z,2025-09-12 21:35:00,VFR,35,14,200,4,0,NA,1018.7,METAR KUUV 122135Z AUTO 20004KT 10SM SCT100 35/14 A3008 RMK AO2,2025-09-12T21:45:37Z,2025-09-12T17:45:37Z,Sullivan Regional Airport,38.233501,-91.164299,US,US-MO
KUVA,"Uvalde/Garner Fld, TX, US",2025-09-12T21:35:00Z,2025-09-12 16:35:00,VFR,33.6,18.6,100,7,0,NA,1017.4,METAR KUVA 122135Z AUTO 10007KT 10SM SCT070 SCT080 SCT090 34/19 A3004 RMK AO2 T03360186,2025-09-12T21:45:37Z,2025-09-12T17:45:37Z,Garner Field,29.2112998962,-99.743598938,US,US-TX
KUWL,"New Castle/Henry Cnty, IN, US",2025-09-12T21:35:00Z,2025-09-12 21:35:00,VFR,29,8,90,4,11,NA,1021.1,METAR KUWL 122135Z AUTO 09004G11KT 10SM CLR 29/08 A3015 RMK A01,2025-09-12T21:45:37Z,2025-09-12T17:45:37Z,New Castle-Henry County Municipal Airport,39.8759,-85.3265,US,US-IN
KUXL,"Sulphur/Southland Fld, LA, US",2025-09-12T21:35:00Z,2025-09-12 21:35:00,VFR,33.7,19.4,140,7,0,NA,1017.7,METAR KUXL 122135Z AUTO 14007KT 10SM SCT080 34/19 A3005 RMK AO2 T03370194,2025-09-12T21:45:37Z,2025-09-12T17:45:37Z,Southland Field,30.131399,-93.376099,US,US-LA
KUYF,"London/Madison Cnty, OH, US",2025-09-12T21:55:00Z,2025-09-12 21:55:00,VFR,27,-1,0,0,0,NA,1021.8,METAR KUYF 122155Z AUTO 00000KT 10SM CLR 27/M01 A3017 RMK AO2,2025-09-12T21:56:15Z,2025-09-12T17:56:15Z,Madison County Airport,39.932701,-83.461998,US,US-OH
KUZA,"Rock Hill/Bryant Fld, SC, US",2025-09-12T20:54:00Z,2025-09-12 16:54:00,VFR,27.8,15,VAR,5,0,NA,1020.1,METAR KUZA 122054Z AUTO VRB05KT 10SM CLR 28/15 A3012 RMK AO2 SLP189 T02780150 56015,2025-09-12T21:45:37Z,2025-09-12T17:45:37Z,Rock Hill - York County Airport,34.9878006,-81.05719757,US,US-SC
KVAD,"Valdosta/Moody AFB, GA, US",2025-09-12T20:55:00Z,2025-09-12 16:55:00,VFR,31.3,14.4,40,7,0,NA,1016,METAR KVAD 122055Z AUTO 04007KT 10SM FEW065 31/14 A3000 RMK AO2 SLP159 T03130144 57014 $,2025-09-12T21:45:37Z,2025-09-12T17:45:37Z,Moody Air Force Base,30.9678001404,-83.1930007935,US,US-GA
KVAY,"Mount Holly/S Jersey Rgnl, NJ, US",2025-09-12T20:54:00Z,2025-09-12 16:54:00,VFR,24.4,15.6,0,0,0,NA,1021.4,METAR KVAY 122054Z AUTO 00000KT 10SM BKN046 BKN065 24/16 A3016 RMK AO2 SLP211 T02440156 56006,2025-09-12T21:45:37Z,2025-09-12T17:45:37Z,South Jersey Regional Airport,39.942902,-74.845703,US,US-NJ
KVBG,"Vandenberg AFB, CA, US",2025-09-12T20:55:00Z,2025-09-12 13:55:00,VFR,21.6,15.9,330,16,0,NA,1014.3,METAR KVBG 122055Z 33016KT 10SM FEW010 FEW030 22/16 A2995 RMK AO2A SLP143 T02160159 57017,2025-09-12T21:45:37Z,2025-09-12T17:45:37Z,Vandenberg Space Force Base,34.737301,-120.584,US,US-CA
KVBT,"Bentonville Muni, AR, US",2025-09-12T20:56:00Z,2025-09-12 20:56:00,VFR,31.7,20,190,6,0,NA,1020.4,METAR KVBT 122056Z AUTO 19006KT 10SM CLR 32/20 A3013 RMK AO2 SLP192 T03170200 56018,2025-09-12T21:45:37Z,2025-09-12T17:45:37Z,Bentonville Municipal-Louise M Thaden Field,36.345699,-94.219299,US,US-AR
KVCB,"Vacaville/Nut Tree Arpt, CA, US",2025-09-12T20:53:00Z,2025-09-12 20:53:00,VFR,28.9,13.3,190,9,0,NA,1013,METAR KVCB 122053Z AUTO 19009KT 10SM CLR 29/13 A2991 RMK AO2 SLP127 T02890133 58014,2025-09-12T21:45:37Z,2025-09-12T17:45:37Z,Nut Tree Airport,38.376801,-121.961998,US,US-CA
KVCB,"Vacaville/Nut Tree Arpt, CA, US",2025-09-12T21:53:00Z,2025-09-12 21:53:00,VFR,29.4,13.9,190,8,17,NA,1012.3,METAR KVCB 122153Z AUTO 19008G17KT 10SM CLR 29/14 A2989 RMK AO2 SLP119 T02940139,2025-09-12T21:56:16Z,2025-09-12T17:56:16Z,Nut Tree Airport,38.376801,-121.961998,US,US-CA
KVCT,"Victoria Rgnl, TX, US",2025-09-12T20:51:00Z,2025-09-12 15:51:00,VFR,32.2,20,140,15,21,NA,1017.4,METAR KVCT 122051Z 14015G21KT 10SM CLR 32/20 A3004 RMK AO2 SLP169 T03220200 58018,2025-09-12T21:45:37Z,2025-09-12T17:45:37Z,Victoria Regional Airport,28.85260009765625,-96.9185028076172,US,US-TX
KVCT,"Victoria Rgnl, TX, US",2025-09-12T21:51:00Z,2025-09-12 16:51:00,VFR,32.2,20.6,130,12,20,NA,1016.7,METAR KVCT 122151Z 13012G20KT 10SM CLR 32/21 A3002 RMK AO2 SLP165 T03220206,2025-09-12T21:56:16Z,2025-09-12T17:56:16Z,Victoria Regional Airport,28.85260009765625,-96.9185028076172,US,US-TX
KVCV,"Victorville/S California Arpt, CA, US",2025-09-12T21:35:00Z,2025-09-12 14:35:00,VFR,28,5,VAR,4,15,NA,1014.3,METAR KVCV 122135Z AUTO VRB04G15KT 10SM CLR 28/05 A2995 RMK AO2,2025-09-12T21:45:37Z,2025-09-12T17:45:37Z,Southern California Logistics Airport,34.597499847399995,-117.383003235,US,US-CA
KVDF,"Tampa/Executive Arpt, FL, US",2025-09-12T21:35:00Z,2025-09-12 21:35:00,VFR,30,23,20,3,0,NA,1014.3,METAR KVDF 122135Z AUTO 02003KT 10SM CLR 30/23 A2995 RMK AO2,2025-09-12T21:45:37Z,2025-09-12T17:45:37Z,Tampa Executive Airport,28.013999939,-82.3452987671,US,US-FL
KVDI,"Vidalia Rgnl, GA, US",2025-09-12T21:35:00Z,2025-09-12 17:35:00,VFR,30,13,20,8,0,NA,1017.4,METAR KVDI 122135Z AUTO 02008KT 10SM CLR 30/13 A3004 RMK AO2,2025-09-12T21:45:37Z,2025-09-12T17:45:37Z,Vidalia Regional Airport,32.192699432373,-82.371200561523,US,US-GA
KVEL,"Vernal Rgnl, UT, US",2025-09-12T20:53:00Z,2025-09-12 14:53:00,VFR,20.6,9.4,140,7,0,NA,1018.4,METAR KVEL 122053Z AUTO 14007KT 10SM CLR 21/09 A3007 RMK AO2 SLP129 T02060094 56022,2025-09-12T21:45:37Z,2025-09-12T17:45:37Z,Vernal Regional Airport,40.436214,-109.511661,US,US-UT
KVEL,"Vernal Rgnl, UT, US",2025-09-12T21:53:00Z,2025-09-12 15:53:00,VFR,21.7,7.2,120,12,19,NA,1017.4,METAR KVEL 122153Z AUTO 12012G19KT 10SM CLR 22/07 A3004 RMK AO2 SLP113 T02170072,2025-09-12T21:56:16Z,2025-09-12T17:56:16Z,Vernal Regional Airport,40.436214,-109.511661,US,US-UT
KVER,"Boonville/Vertel Mem, MO, US",2025-09-12T21:35:00Z,2025-09-12 21:35:00,VFR,34.8,15.8,220,4,0,NA,1017,METAR KVER 122135Z AUTO 22004KT 10SM CLR 35/16 A3003 RMK AO2 T03480158,2025-09-12T21:45:39Z,2025-09-12T17:45:39Z,Jesse Viertel Memorial Airport,38.946701,-92.682701,US,US-MO
KVER,"Boonville/Vertel Mem, MO, US",2025-09-12T21:55:00Z,2025-09-12 21:55:00,VFR,34.6,15.8,230,3,0,NA,1017,METAR KVER 122155Z AUTO 23003KT 10SM CLR 35/16 A3003 RMK AO2 T03460158,2025-09-12T21:56:18Z,2025-09-12T17:56:18Z,Jesse Viertel Memorial Airport,38.946701,-92.682701,US,US-MO
KVES,"Versailles/Darke Cnty, OH, US",2025-09-12T21:35:00Z,2025-09-12 21:35:00,VFR,27,9,80,4,0,NA,1021.4,METAR KVES 122135Z AUTO 08004KT 10SM CLR 27/09 A3016 RMK AO2,2025-09-12T21:45:39Z,2025-09-12T17:45:39Z,Darke County Airport,40.204399,-84.531898,US,US-OH
KVGC,"Hamilton Muni, NY, US",2025-09-12T21:35:00Z,2025-09-12 21:35:00,VFR,22,10,330,6,0,NA,1022.4,METAR KVGC 122135Z AUTO 33006KT 10SM CLR 22/10 A3019 RMK AO2,2025-09-12T21:45:39Z,2025-09-12T17:45:39Z,Hamilton Municipal Airport,42.8438,-75.561401,US,US-NY
KVGC,"Hamilton Muni, NY, US",2025-09-12T21:55:00Z,2025-09-12 21:55:00,VFR,21,10,340,4,0,NA,1022.4,METAR KVGC 122155Z AUTO 34004KT 10SM CLR 21/10 A3019 RMK AO2,2025-09-12T21:56:18Z,2025-09-12T17:56:18Z,Hamilton Municipal Airport,42.8438,-75.561401,US,US-NY
KVGT,"Las Vegas/North Arpt, NV, US",2025-09-12T20:53:00Z,2025-09-12 13:53:00,VFR,31.1,-0.6,100,6,0,NA,1010.9,METAR KVGT 122053Z 10006KT 10SM CLR 31/M01 A2985 RMK AO2 SLP100 T03111006 58021,2025-09-12T21:45:39Z,2025-09-12T17:45:39Z,North Las Vegas Metropolitan International Airport,36.210701,-115.194,US,US-NV
KVGT,"Las Vegas/North Arpt, NV, US",2025-09-12T21:53:00Z,2025-09-12 14:53:00,VFR,31.1,0,130,7,0,NA,1010.2,METAR KVGT 122153Z 13007KT 10SM CLR 31/00 A2983 RMK AO2 SLP095 T03110000,2025-09-12T21:56:18Z,2025-09-12T17:56:18Z,North Las Vegas Metropolitan International Airport,36.210701,-115.194,US,US-NV
KVHN,"Van Horn/Culberson Cnty, TX, US",2025-09-12T21:35:00Z,2025-09-12 16:35:00,VFR,33.7,10.2,170,9,14,NA,1018.7,METAR KVHN 122135Z AUTO 17009G14KT 140V210 10SM CLR 34/10 A3008 RMK AO2 LTG DSNT S T03370102,2025-09-12T21:45:39Z,2025-09-12T17:45:39Z,Culberson County Airport,31.057800292969,-104.78399658203,US,US-TX
KVIH,"Vichy/Rolla Arpt, MO, US",2025-09-12T20:53:00Z,2025-09-12 15:53:00,VFR,35,13.9,VAR,5,0,NA,1018.7,METAR KVIH 122053Z AUTO VRB05KT 10SM SCT100 35/14 A3008 RMK AO2 SLP171 T03500139 56020,2025-09-12T21:45:39Z,2025-09-12T17:45:39Z,Rolla National Airport,38.127399,-91.769501,US,US-MO
KVIH,"Vichy/Rolla Arpt, MO, US",2025-09-12T21:53:00Z,2025-09-12 16:53:00,VFR,35,13.3,190,6,0,NA,1018,METAR KVIH 122153Z AUTO 19006KT 10SM FEW100 35/13 A3006 RMK AO2 SLP166 T03500133,2025-09-12T21:56:18Z,2025-09-12T17:56:18Z,Rolla National Airport,38.127399,-91.769501,US,US-MO
KVIS,"Visalia Muni, CA, US",2025-09-12T20:56:00Z,2025-09-12 13:56:00,VFR,28.9,13.9,300,8,0,NA,1013,METAR KVIS 122056Z AUTO 30008KT 10SM CLR 29/14 A2991 RMK AO2 SLP127 T02890139 58023 $,2025-09-12T21:45:39Z,2025-09-12T17:45:39Z,Visalia Municipal Airport,36.318699,-119.392998,US,US-CA
KVJI,"Abingdon/Virginia Highlands Arpt, VA, US",2025-09-12T21:35:00Z,2025-09-12 17:35:00,VFR,25,9,30,5,0,NA,1022.1,METAR KVJI 122135Z AUTO 03005KT 10SM CLR 25/09 A3018 RMK AO2,2025-09-12T21:45:39Z,2025-09-12T17:45:39Z,Virginia Highlands Airport,36.687099,-82.033302,US,US-VA
KVKS,"Vicksburg Arpt, MS, US",2025-09-12T21:35:00Z,2025-09-12 16:35:00,VFR,33,20,340,4,0,NA,1016.7,METAR KVKS 122135Z AUTO 34004KT 10SM CLR 33/20 A3002 RMK A01,2025-09-12T21:45:39Z,2025-09-12T17:45:39Z,Vicksburg Municipal Airport,32.23929977417,-90.928398132324,US,US-MS
KVLD,"Valdosta Rgnl, GA, US",2025-09-12T20:53:00Z,2025-09-12 16:53:00,VFR,30.6,15,20,12,21,NA,1016.3,METAR KVLD 122053Z 02012G21KT 10SM FEW065 31/15 A3001 RMK AO2 SLP169 T03060150 56013,2025-09-12T21:45:39Z,2025-09-12T17:45:39Z,Valdosta Regional Airport,30.782499313354492,-83.276702880859375,US,US-GA
KVLD,"Valdosta Rgnl, GA, US",2025-09-12T21:53:00Z,2025-09-12 17:53:00,VFR,30,14.4,50,7,0,NA,1016.7,METAR KVLD 122153Z 05007KT 10SM CLR 30/14 A3002 RMK AO2 SLP170 T03000144,2025-09-12T21:56:18Z,2025-09-12T17:56:18Z,Valdosta Regional Airport,30.782499313354492,-83.276702880859375,US,US-GA
KVLL,"Oakland-Troy Arpt, MI, US",2025-09-12T21:35:00Z,2025-09-12 21:35:00,VFR,26,9,90,5,0,NA,1021.8,METAR KVLL 122135Z AUTO 09005KT 10SM CLR 26/09 A3017 RMK AO2,2025-09-12T21:45:39Z,2025-09-12T17:45:39Z,Oakland Troy Airport,42.5429,-83.177902,US,US-MI
KVMR,"Vermillion/Davidson Fld, SD, US",2025-09-12T21:35:00Z,2025-09-12 21:35:00,VFR,28,22,80,4,0,9,1010.9,METAR KVMR 122135Z AUTO 08004KT 9SM CLR 28/22 A2985 RMK AO2,2025-09-12T21:45:39Z,2025-09-12T17:45:39Z,Harold Davidson Field,42.76530075,-96.93430328,US,US-SD
KVNW,"Van Wert Cnty Arpt, OH, US",2025-09-12T21:35:00Z,2025-09-12 21:35:00,VFR,27,8,0,0,0,NA,1022.1,METAR KVNW 122135Z AUTO 00000KT 10SM SCT070 27/08 A3018 RMK AO2,2025-09-12T21:45:39Z,2025-09-12T17:45:39Z,Van Wert County Airport,40.8647,-84.609398,US,US-OH
KVNW,"Van Wert Cnty Arpt, OH, US",2025-09-12T21:55:00Z,2025-09-12 21:55:00,VFR,27,9,50,3,0,NA,1021.8,METAR KVNW 122155Z AUTO 05003KT 10SM CLR 27/09 A3017 RMK AO2,2025-09-12T21:56:18Z,2025-09-12T17:56:18Z,Van Wert County Airport,40.8647,-84.609398,US,US-OH
KVNY,"Van Nuys Arpt, CA, US",2025-09-12T20:51:00Z,2025-09-12 13:51:00,VFR,25.6,14.4,VAR,4,0,NA,1012.3,METAR KVNY 122051Z VRB04KT 10SM CLR 26/14 A2989 RMK AO2 SLP115 T02560144 58023,2025-09-12T21:45:39Z,2025-09-12T17:45:39Z,Van Nuys Airport,34.209800720215,-118.48999786377,US,US-CA
KVNY,"Van Nuys Arpt, CA, US",2025-09-12T21:51:00Z,2025-09-12 14:51:00,VFR,26.1,15.6,170,10,19,NA,1011.9,METAR KVNY 122151Z 17010G19KT 10SM CLR 26/16 A2988 RMK AO2 SLP109 T02610156,2025-09-12T21:56:18Z,2025-09-12T17:56:18Z,Van Nuys Airport,34.209800720215,-118.48999786377,US,US-CA
KVOK,"Camp Douglas/Volk Fld, WI, US",2025-09-12T20:55:00Z,2025-09-12 15:55:00,VFR,27.7,16,160,11,0,NA,1017.7,METAR KVOK 122055Z 16011KT 10SM CLR 28/16 A3005 RMK AO2A SLP176 T02770160 57027,2025-09-12T21:45:39Z,2025-09-12T17:45:39Z,Volk Field,43.938999176025,-90.253402709961,US,US-WI
KVPC,"Cartersville Arpt, GA, US",2025-09-12T21:35:00Z,2025-09-12 21:35:00,VFR,31,15,VAR,4,0,NA,1019,METAR KVPC 122135Z AUTO VRB04KT 10SM CLR 31/15 A3009 RMK AO2,2025-09-12T21:45:39Z,2025-09-12T17:45:39Z,Cartersville Airport,34.1231,-84.848701,US,US-GA
KVPS,"Valparaiso/Eglin AFB, FL, US",2025-09-12T20:55:00Z,2025-09-12 15:55:00,VFR,31.2,17.1,210,6,0,NA,1016,METAR KVPS 122055Z AUTO 21006KT 10SM FEW100 31/17 A3000 RMK AO2 SLP165 60000 T03120171 56016 $,2025-09-12T21:45:39Z,2025-09-12T17:45:39Z,Destin-Fort Walton Beach Airport,30.4832,-86.525398,US,US-FL
KVPZ,"Valparaiso/Port Cnty, IN, US",2025-09-12T20:56:00Z,2025-09-12 15:56:00,VFR,28.3,11.7,VAR,3,0,NA,1021.1,METAR KVPZ 122056Z AUTO VRB03KT 10SM CLR 28/12 A3015 RMK AO2 SLP207 T02830117 58020,2025-09-12T21:45:39Z,2025-09-12T17:45:39Z,Porter County Municipal Airport,41.45399857,-87.00710297,US,US-IN
KVQQ,"Jacksonville/Cecil Arpt, FL, US",2025-09-12T20:50:00Z,2025-09-12 16:50:00,VFR,28,20,50,10,16,NA,1016.3,METAR KVQQ 122050Z 05010G16KT 10SM SCT037 28/20 A3001,2025-09-12T21:45:39Z,2025-09-12T17:45:39Z,Cecil Airport,30.2187,-81.876701,US,US-FL
KVQQ,"Jacksonville/Cecil Arpt, FL, US",2025-09-12T21:50:00Z,2025-09-12 17:50:00,VFR,27,20,50,10,18,NA,1016.7,METAR KVQQ 122150Z 05010G18KT 10SM SCT034 27/20 A3002,2025-09-12T21:56:18Z,2025-09-12T17:56:18Z,Cecil Airport,30.2187,-81.876701,US,US-FL
KVRB,"Vero Beach Muni, FL, US",2025-09-12T20:53:00Z,2025-09-12 16:53:00,VFR,27.8,21.7,50,10,0,NA,1014.3,METAR KVRB 122053Z 05010KT 10SM FEW026 28/22 A2995 RMK AO2 SLP140 T02780217 55013,2025-09-12T21:45:39Z,2025-09-12T17:45:39Z,Vero Beach Regional Airport,27.6556,-80.417901,US,US-FL
KVRB,"Vero Beach Muni, FL, US",2025-09-12T21:53:00Z,2025-09-12 17:53:00,VFR,28.3,22.2,60,8,0,NA,1014,METAR KVRB 122153Z 06008KT 10SM SCT029 SCT035 28/22 A2994 RMK AO2 SLP138 T02830222,2025-09-12T21:56:18Z,2025-09-12T17:56:18Z,Vero Beach Regional Airport,27.6556,-80.417901,US,US-FL
KVSF,"Springfield/Hartness State Arpt, VT, US",2025-09-12T20:54:00Z,2025-09-12 16:54:00,VFR,24.4,5,VAR,3,0,NA,1021.8,METAR KVSF 122054Z AUTO VRB03KT 10SM CLR 24/05 A3017 RMK AO2 SLP216 T02440050 56014,2025-09-12T21:45:39Z,2025-09-12T17:45:39Z,Hartness State Airport,43.343601,-72.517303,US,US-VT
KVTA,"Newark/Heath Arpt, OH, US",2025-09-12T20:54:00Z,2025-09-12 20:54:00,VFR,27.2,7.8,0,0,0,NA,1021.1,METAR KVTA 122054Z AUTO 00000KT 10SM CLR 27/08 A3015 RMK AO2 SLP205 T02720078 56020,2025-09-12T21:45:39Z,2025-09-12T17:45:39Z,Newark Heath Airport,40.024700164799995,-82.46179962160001,US,US-OH
KVTI,"Vinton/Veterans Mem, IA, US",2025-09-12T21:35:00Z,2025-09-12 21:35:00,VFR,29.6,16,140,7,0,NA,1016.3,METAR KVTI 122135Z AUTO 14007KT 10SM CLR 30/16 A3001 RMK AO2 T02960160,2025-09-12T21:45:39Z,2025-09-12T17:45:39Z,Vinton Veterans Memorial Airpark,42.218221,-92.025905,US,US-IA
KVTN,"Valentine/Miller Fld, NE, US",2025-09-12T20:52:00Z,2025-09-12 15:52:00,VFR,32.2,15.6,80,3,0,NA,1011.9,METAR KVTN 122052Z AUTO 08003KT 10SM CLR 32/16 A2988 RMK AO2 SLP094 T03220156 58013,2025-09-12T21:45:39Z,2025-09-12T17:45:39Z,Miller Field,42.856211,-100.549192,US,US-NE
KVTN,"Valentine/Miller Fld, NE, US",2025-09-12T21:52:00Z,2025-09-12 16:52:00,VFR,33.3,15.6,60,6,0,NA,1011.6,METAR KVTN 122152Z AUTO 06006KT 10SM CLR 33/16 A2987 RMK AO2 SLP090 T03330156,2025-09-12T21:56:18Z,2025-09-12T17:56:18Z,Miller Field,42.856211,-100.549192,US,US-NE
KVUJ,"Albemarle/Stanly Cnty, NC, US",2025-09-12T21:35:00Z,2025-09-12 21:35:00,VFR,27.5,12.7,60,7,0,NA,1021.4,METAR KVUJ 122135Z AUTO 06007KT 10SM SCT065 28/13 A3016 RMK AO2 T02750127,2025-09-12T21:45:39Z,2025-09-12T17:45:39Z,Stanly County Airport,35.416698455811,-80.150802612305,US,US-NC
KVUJ,"Albemarle/Stanly Cnty, NC, US",2025-09-12T21:45:00Z,2025-09-12 21:45:00,VFR,27.4,13.3,30,5,0,NA,1021.4,METAR KVUJ 122145Z AUTO 03005KT 10SM SCT065 SCT070 27/13 A3016 RMK AO2 T02740133,2025-09-12T21:56:18Z,2025-09-12T17:56:18Z,Stanly County Airport,35.416698455811,-80.150802612305,US,US-NC
KVUO,"Vancouver/Pearson Fld, WA, US",2025-09-12T20:53:00Z,2025-09-12 20:53:00,VFR,20,11.1,VAR,5,0,NA,1018.4,METAR KVUO 122053Z AUTO VRB05KT 10SM FEW031 20/11 A3007 RMK AO2 SLP181 T02000111 58013,2025-09-12T21:45:39Z,2025-09-12T17:45:39Z,Pearson Field,45.620499,-122.655998,US,US-WA
KVUO,"Vancouver/Pearson Fld, WA, US",2025-09-12T21:53:00Z,2025-09-12 21:53:00,VFR,20.6,11.1,VAR,3,0,NA,1017.4,METAR KVUO 122153Z AUTO VRB03KT 10SM CLR 21/11 A3004 RMK AO2 SLP174 T02060111,2025-09-12T21:56:18Z,2025-09-12T17:56:18Z,Pearson Field,45.620499,-122.655998,US,US-WA
KVVS,"Connellsville/Hardy Aprt, PA, US",2025-09-12T21:35:00Z,2025-09-12 21:35:00,VFR,27.3,9,240,4,0,NA,1021.8,METAR KVVS 122135Z AUTO 24004KT 10SM SCT075 27/09 A3017 RMK AO2 T02730090,2025-09-12T21:45:39Z,2025-09-12T17:45:39Z,Joseph A. Hardy Connellsville Airport,39.960872,-79.657745,US,US-PA
KVVV,"Ortonville Muni, MN, US",2025-09-12T21:35:00Z,2025-09-12 21:35:00,VFR,26,20,140,9,18,NA,1013,METAR KVVV 122135Z AUTO 14009G18KT 10SM CLR 26/20 A2991 RMK AO2,2025-09-12T21:45:39Z,2025-09-12T17:45:39Z,Ortonville Municipal Airport/Martinson Field,45.305698,-96.4244,US,US-MN
KVWU,"Waskish Muni, MN, US",2025-09-12T21:35:00Z,2025-09-12 21:35:00,VFR,25,24,80,3,0,NA,1014.6,METAR KVWU 122135Z AUTO 08003KT 10SM CLR 25/24 A2996 RMK AO2,2025-09-12T21:45:39Z,2025-09-12T17:45:39Z,Waskish Municipal Airport,48.15409851074219,-94.51689910888672,US,US-MN
KVYS,"Peru/Illinois Valley Rgnl, IL, US",2025-09-12T21:35:00Z,2025-09-12 16:35:00,VFR,30.7,14.3,190,6,0,NA,1019,METAR KVYS 122135Z AUTO 19006KT 10SM CLR 31/14 A3009 RMK AO2 T03070143 TSNO,2025-09-12T21:45:39Z,2025-09-12T17:45:39Z,Illinois Valley Regional Airport Walter A Duncan Field,41.351898,-89.153099,US,US-IL
KW22,"Buckhannon/Upshur Cnty, WV, US",2025-09-12T21:35:00Z,2025-09-12 21:35:00,VFR,28,11,VAR,5,10,NA,1022.1,METAR KW22 122135Z AUTO VRB05G10KT 10SM CLR 28/11 A3018 RMK AO2,2025-09-12T21:45:39Z,2025-09-12T17:45:39Z,Upshur County Regional Airport,39.00049973,-80.2736969,US,US-WV
KW31,"Kenbridge/Lunenburg Cnty, VA, US",2025-09-12T21:35:00Z,2025-09-12 21:35:00,VFR,26.5,14.5,60,3,0,NA,1020.7,METAR KW31 122135Z AUTO 06003KT 10SM CLR 27/15 A3014 RMK AO1 T02650145,2025-09-12T21:45:39Z,2025-09-12T17:45:39Z,Lunenburg County Airport,36.960201263427734,-78.18499755859375,US,US-VA
KW31,"Kenbridge/Lunenburg Cnty, VA, US",2025-09-12T21:55:00Z,2025-09-12 21:55:00,VFR,26,15,0,0,0,NA,1020.7,METAR KW31 122155Z AUTO 00000KT 10SM CLR 26/15 A3014 RMK AO1 T02600150,2025-09-12T21:56:18Z,2025-09-12T17:56:18Z,Lunenburg County Airport,36.960201263427734,-78.18499755859375,US,US-VA
KW40,"Mt Olive Muni, NC, US",2025-09-12T21:35:00Z,2025-09-12 21:35:00,VFR,24.4,16.7,40,10,0,NA,1019.7,METAR KW40 122135Z AUTO 04010KT 10SM CLR 24/17 A3011 RMK AO2 T02440167,2025-09-12T21:45:39Z,2025-09-12T17:45:39Z,Mount Olive Municipal Airport,35.221409,-78.038678,US,US-NC
KW40,"Mt Olive Muni, NC, US",2025-09-12T21:45:00Z,2025-09-12 21:45:00,VFR,24.3,16.8,50,10,0,NA,1020.1,METAR KW40 122145Z AUTO 05010KT 10SM CLR 24/17 A3012 RMK AO2 T02430168,2025-09-12T21:56:18Z,2025-09-12T17:56:18Z,Mount Olive Municipal Airport,35.221409,-78.038678,US,US-NC
KW63,"Clarksville/Lake Country Arpt, VA, US",2025-09-12T21:55:00Z,2025-09-12 21:55:00,NA,27,13,70,5,0,NA,1020.4,METAR KW63 122155Z AUTO 07005KT SCT055 SCT070 SCT085 27/13 A3013 RMK AO1,2025-09-12T21:56:18Z,2025-09-12T17:56:18Z,Lake Country Regional Airport,36.595798,-78.560097,US,US-VA
KW78,"South Boston/Tuck Arpr, VA, US",2025-09-12T21:35:00Z,2025-09-12 21:35:00,VFR,26.3,12.6,100,3,0,NA,1020.4,METAR KW78 122135Z AUTO 10003KT 10SM SCT070 26/13 A3013 RMK AO1 T02630126,2025-09-12T21:45:39Z,2025-09-12T17:45:39Z,William M Tuck Airport,36.709999,-78.848,US,US-VA
KW81,"Crewe Muni, VA, US",2025-09-12T21:35:00Z,2025-09-12 21:35:00,VFR,24.5,10,40,4,0,NA,1020.7,METAR KW81 122135Z AUTO 04004KT 10SM SCT085 25/10 A3014 RMK AO1 T02450100,2025-09-12T21:45:39Z,2025-09-12T17:45:39Z,Crewe Municipal Airport,37.181,-78.098297,US,US-VA
KW96,"Quinton/New Kent Cnty, VA, US",2025-09-12T21:35:00Z,2025-09-12 21:35:00,VFR,25.2,12.4,50,7,0,NA,1021.1,METAR KW96 122135Z AUTO 05007KT 10SM CLR 25/12 A3015 RMK AO1 T02520124,2025-09-12T21:45:39Z,2025-09-12T17:45:39Z,New Kent County Airport,37.5032,-77.125501,US,US-VA
KW96,"Quinton/New Kent Cnty, VA, US",2025-09-12T21:55:00Z,2025-09-12 21:55:00,VFR,24.9,12.6,70,5,0,NA,1021.1,METAR KW96 122155Z AUTO 07005KT 10SM CLR 25/13 A3015 RMK AO1 T02490126,2025-09-12T21:56:18Z,2025-09-12T17:56:18Z,New Kent County Airport,37.5032,-77.125501,US,US-VA
KWAL,"Wallops Island Facility Arpt, VA, US",2025-09-12T20:54:00Z,2025-09-12 16:54:00,VFR,23.9,13.9,50,10,0,NA,1021.8,METAR KWAL 122054Z 05010KT 10SM CLR 24/14 A3017 RMK AO2 SLP213 T02390139 55007,2025-09-12T21:45:39Z,2025-09-12T17:45:39Z,Wallops Flight Facility Airport,37.940813,-75.462255,US,US-VA
KWDG,"Enid/Woodring Arpt, OK, US",2025-09-12T20:50:00Z,2025-09-12 15:50:00,VFR,36,16,190,13,16,NA,1017,METAR KWDG 122050Z 19013G16KT 10SM CLR 36/16 A3003,2025-09-12T21:45:39Z,2025-09-12T17:45:39Z,Enid Woodring Regional Airport,36.3791999817,-97.7910995483,US,US-OK
KWDG,"Enid/Woodring Arpt, OK, US",2025-09-12T21:48:00Z,2025-09-12 16:48:00,VFR,35,15,190,10,15,NA,1016.3,METAR KWDG 122148Z 19010G15KT 10SM CLR 35/15 A3001,2025-09-12T21:56:18Z,2025-09-12T17:56:18Z,Enid Woodring Regional Airport,36.3791999817,-97.7910995483,US,US-OK
KWDR,"Winder/Barrow Cnty, GA, US",2025-09-12T21:35:00Z,2025-09-12 17:35:00,VFR,27,16,VAR,NA,0,NA,1020.4,METAR KWDR 122135Z 10SM CLR 27/16 A3013 RMK AO2,2025-09-12T21:45:39Z,2025-09-12T17:45:39Z,Barrow County Airport,33.98289871,-83.66739655,US,US-GA
KWHP,"Los Angeles/Whiteman Arpt, CA, US",2025-09-12T20:55:00Z,2025-09-12 13:55:00,VFR,25,14,130,4,10,NA,1013.6,METAR KWHP 122055Z 13004G10KT 10SM SKC 25/14 A2993,2025-09-12T21:45:39Z,2025-09-12T17:45:39Z,Whiteman Airport,34.2593,-118.413002,US,US-CA
KWJF,"Lancaster/Fox Arfld, CA, US",2025-09-12T20:56:00Z,2025-09-12 13:56:00,VFR,27.2,8.3,VAR,4,0,NA,1013.3,METAR KWJF 122056Z VRB04KT 10SM CLR 27/08 A2992 RMK AO2 SLP115 T02720083 58019,2025-09-12T21:45:39Z,2025-09-12T17:45:39Z,General William J Fox Airfield,34.7411,-118.219002,US,US-CA
KWLD,"Winfield/Strother Fld, KS, US",2025-09-12T21:16:00Z,2025-09-12 16:16:00,VFR,33.3,16.7,190,10,0,NA,1017.4,SPECI KWLD 122116Z AUTO 19010KT 10SM FEW003 33/17 A3004 RMK AO2 T03330167 $,2025-09-12T21:45:39Z,2025-09-12T17:45:39Z,Strother Field,37.168598,-97.037598,US,US-KS
KWMC,"Winnemucca Muni, NV, US",2025-09-12T20:56:00Z,2025-09-12 13:56:00,VFR,22.8,2.8,VAR,3,0,NA,1017.4,METAR KWMC 122056Z AUTO VRB03KT 10SM CLR 23/03 A3004 RMK AO2 SLP142 T02280028 58020,2025-09-12T21:45:39Z,2025-09-12T17:45:39Z,Winnemucca Municipal Airport,40.8965988159,-117.805999756,US,US-NV
KWRI,"McGuire AFB, NJ, US",2025-09-12T20:55:00Z,2025-09-12 16:55:00,VFR,25.6,13.8,50,7,0,NA,1021.4,METAR KWRI 122055Z 05007KT 10SM CLR 26/14 A3016 RMK AO2A SLPNO T02560138 ALSTG ESTMD $,2025-09-12T21:45:39Z,2025-09-12T17:45:39Z,Mc Guire Air Force Base,40.0155983,-74.59169769,US,US-NJ
KWRL,"Worland Muni, WY, US",2025-09-12T20:53:00Z,2025-09-12 14:53:00,VFR,25.6,5.6,360,6,0,NA,1015.3,METAR KWRL 122053Z AUTO 36006KT 10SM CLR 26/06 A2998 RMK AO2 SLP114 T02560056 56020,2025-09-12T21:45:39Z,2025-09-12T17:45:39Z,Worland Municipal Airport,43.965698,-107.950996,US,US-WY
KWRL,"Worland Muni, WY, US",2025-09-12T21:53:00Z,2025-09-12 15:53:00,VFR,26.1,5.6,10,6,0,NA,1014.3,METAR KWRL 122153Z AUTO 01006KT 10SM CLR 26/06 A2995 RMK AO2 SLP103 T02610056,2025-09-12T21:56:18Z,2025-09-12T17:56:18Z,Worland Municipal Airport,43.965698,-107.950996,US,US-WY
KWST,"Westerly State Arpt, RI, US",2025-09-12T20:53:00Z,2025-09-12 16:53:00,VFR,20.6,12.8,120,8,0,NA,1022.4,METAR KWST 122053Z AUTO 12008KT 10SM FEW065 21/13 A3019 RMK AO2 SLP224 T02060128 55001,2025-09-12T21:45:39Z,2025-09-12T17:45:39Z,Westerly State Airport,41.349602,-71.803398,US,US-RI
KWST,"Westerly State Arpt, RI, US",2025-09-12T21:53:00Z,2025-09-12 17:53:00,VFR,19.4,12.2,110,6,0,NA,1022.4,METAR KWST 122153Z AUTO 11006KT 10SM CLR 19/12 A3019 RMK AO2 SLP223 T01940122,2025-09-12T21:56:18Z,2025-09-12T17:56:18Z,Westerly State Airport,41.349602,-71.803398,US,US-RI
KWVI,"Watsonville Muni, CA, US",2025-09-12T21:12:00Z,2025-09-12 14:12:00,VFR,20.6,14.4,220,6,0,6,1015.3,SPECI KWVI 122112Z AUTO 22006KT 6SM HZ SCT014 21/14 A2998 RMK AO2 T02060144,2025-09-12T21:45:39Z,2025-09-12T17:45:39Z,Watsonville Municipal Airport,36.9356994629,-121.790000916,US,US-CA
KWVI,"Watsonville Muni, CA, US",2025-09-12T21:53:00Z,2025-09-12 14:53:00,VFR,20.6,13.9,210,9,0,6,1015,METAR KWVI 122153Z AUTO 21009KT 6SM HZ CLR 21/14 A2997 RMK AO2 SLP147 T02060139,2025-09-12T21:56:18Z,2025-09-12T17:56:18Z,Watsonville Municipal Airport,36.9356994629,-121.790000916,US,US-CA
KWVL,"Waterville/Lafleur Arpt, ME, US",2025-09-12T20:56:00Z,2025-09-12 16:56:00,VFR,20.6,5,360,3,0,NA,1021.8,METAR KWVL 122056Z AUTO 36003KT 10SM CLR 21/05 A3017 RMK AO2 SLP242 T02060050 56010,2025-09-12T21:45:39Z,2025-09-12T17:45:39Z,Waterville Robert Lafleur Airport,44.5331993103,-69.6754989624,US,US-ME
KWWD,"Wildwood/Cape May Cnty, NJ, US",2025-09-12T20:56:00Z,2025-09-12 16:56:00,VFR,24.4,16.1,100,7,0,NA,1022.1,METAR KWWD 122056Z AUTO 10007KT 10SM FEW075 24/16 A3018 RMK AO2 SLP220 6//// T02440161 55007 PNO $,2025-09-12T21:45:39Z,2025-09-12T17:45:39Z,Cape May County Airport,39.0084991455,-74.9083023071,US,US-NJ
KWWR,"Woodward Arpt, OK, US",2025-09-12T21:35:00Z,2025-09-12 16:35:00,VFR,33,11,190,11,17,NA,1018.4,METAR KWWR 122135Z AUTO 19011G17KT 10SM CLR 33/11 A3007 RMK AO2,2025-09-12T21:45:39Z,2025-09-12T17:45:39Z,West Woodward Airport,36.438,-99.5226667,US,US-OK
KWYS,"West Yellowstone Arpt, MT, US",2025-09-12T21:35:00Z,2025-09-12 15:35:00,VFR,20,-3,180,4,11,NA,1019.4,METAR KWYS 122135Z AUTO 18004G11KT 10SM FEW095 FEW110 20/M03 A3010 RMK AO2,2025-09-12T21:45:39Z,2025-09-12T17:45:39Z,Yellowstone Airport,44.6884,-111.117996,US,US-MT
KX26,"Sabastian Arpt, FL, US",2025-09-12T21:35:00Z,2025-09-12 21:35:00,VFR,28,23,70,9,0,NA,1014,METAR KX26 122135Z AUTO 07009KT 10SM CLR 28/23 A2994 RMK AO2,2025-09-12T21:45:39Z,2025-09-12T17:45:39Z,Sebastian Municipal Airport,27.812599,-80.495903,US,US-FL
KX60,"Williston Muni, FL, US",2025-09-12T21:35:00Z,2025-09-12 21:35:00,VFR,29.3,18.7,40,10,0,NA,1015.7,METAR KX60 122135Z AUTO 04010KT 10SM SCT070 29/19 A2999 RMK AO2 T02930187,2025-09-12T21:45:39Z,2025-09-12T17:45:39Z,Williston Municipal Airport,29.35420036315918,-82.472900390625,US,US-FL
KXBP,"Bridgeport Muni, TX, US",2025-09-12T21:35:00Z,2025-09-12 21:35:00,VFR,35.2,13.8,VAR,NA,0,NA,1018,METAR KXBP 122135Z AUTO 10SM CLR 35/14 A3006 RMK AO2 T03520138,2025-09-12T21:45:39Z,2025-09-12T17:45:39Z,Bridgeport Municipal Airport,33.175301,-97.8284,US,US-TX
KXLL,"Allentown/Queen City, PA, US",2025-09-12T21:35:00Z,2025-09-12 21:35:00,VFR,24,13,150,4,0,NA,1021.8,METAR KXLL 122135Z AUTO 15004KT 10SM CLR 24/13 A3017 RMK AO2 TSNO,2025-09-12T21:45:39Z,2025-09-12T17:45:39Z,Allentown Queen City Municipal Airport,40.570105,-75.486763,US,US-PA
KXMR,"Cape Kennedy AF Skid, FL, US",2025-09-12T20:55:00Z,2025-09-12 20:55:00,VFR,26.9,23.9,360,6,0,NA,1013.3,METAR KXMR 122055Z AUTO 36006KT 10SM SCT048 27/24 A2992 RMK AO2 RAB15E19RAB19E19RAB21E30DZB30E34DZB38E43 TSB15E28 SLP135 P0000 60002 T02690239 55007 $,2025-09-12T21:45:39Z,2025-09-12T17:45:39Z,Cape Canaveral SFS Skid Strip,28.4676,-80.566597,US,US-FL
KXMR,"Cape Kennedy AF Skid, FL, US",2025-09-12T21:46:00Z,2025-09-12 21:46:00,VFR,25,23,70,12,0,NA,1013.6,SPECI KXMR 122146Z AUTO 07012KT 10SM FEW015 SCT019 SCT028 25/23 A2993 RMK AO2 WSHFT 34 SLP138 $,2025-09-12T21:56:18Z,2025-09-12T17:56:18Z,Cape Canaveral SFS Skid Strip,28.4676,-80.566597,US,US-FL
KXNA,"Fayetteville/NW Arkansas Rgnl, AR, US",2025-09-12T20:53:00Z,2025-09-12 15:53:00,VFR,31.1,18.9,210,5,0,NA,1020.1,METAR KXNA 122053Z 21005KT 10SM CLR 31/19 A3012 RMK AO2 SLP184 T03110189 57018,2025-09-12T21:45:39Z,2025-09-12T17:45:39Z,Northwest Arkansas National Airport,36.281898,-94.306801,US,US-AR
KXNA,"Fayetteville/NW Arkansas Rgnl, AR, US",2025-09-12T21:53:00Z,2025-09-12 16:53:00,VFR,31.1,18.9,210,5,0,NA,1019.4,METAR KXNA 122153Z 21005KT 10SM CLR 31/19 A3010 RMK AO2 SLP179 T03110189,2025-09-12T21:56:18Z,2025-09-12T17:56:18Z,Northwest Arkansas National Airport,36.281898,-94.306801,US,US-AR
KXNO,"North/Aux Arfd, SC, US",2025-09-12T21:06:00Z,2025-09-12 21:06:00,VFR,30,13,50,10,16,NA,1018,SPECI KXNO 122106Z AUTO 05010G16KT 10SM FEW065 30/13 A3006 RMK AO2 WSHFT 04 SLP179 $,2025-09-12T21:45:39Z,2025-09-12T17:45:39Z,North Air Force Auxillary Airfield,33.609355,-81.08328,US,US-SC
KXSA,"Tappahannock/Essex Cnty, VA, US",2025-09-12T21:35:00Z,2025-09-12 21:35:00,VFR,25,12.1,50,3,0,NA,1021.8,METAR KXSA 122135Z AUTO 05003KT 10SM CLR 25/12 A3017 RMK AO2 T02500121,2025-09-12T21:45:39Z,2025-09-12T17:45:39Z,Tappahannock-Essex County Airport,37.8596,-76.894096,US,US-VA
KXVG,"Longville Muni, MN, US",2025-09-12T21:33:00Z,2025-09-12 21:33:00,VFR,19,17,0,0,0,NA,1015.3,METAR KXVG 122133Z AUTO 00000KT 10SM CLR 19/17 A2998 RMK AO2 LTG DSNT SE,2025-09-12T21:45:39Z,2025-09-12T17:45:39Z,Longville Municipal Airport,46.9902,-94.204002,US,US-MN
KXVG,"Longville Muni, MN, US",2025-09-12T21:53:00Z,2025-09-12 21:53:00,VFR,19,17,0,0,0,NA,1015.7,METAR KXVG 122153Z AUTO 00000KT 10SM CLR 19/17 A2999 RMK AO2 LTG DSNT NE AND SE,2025-09-12T21:56:18Z,2025-09-12T17:56:18Z,Longville Municipal Airport,46.9902,-94.204002,US,US-MN
KXWA,"Williston/Basin Intl, ND, US",2025-09-12T20:51:00Z,2025-09-12 15:51:00,VFR,26.7,17.2,110,4,0,NA,1014.3,METAR KXWA 122051Z AUTO 11004KT 10SM SCT041 27/17 A2995 RMK AO2 SLP135 T02670172 56009 $,2025-09-12T21:45:39Z,2025-09-12T17:45:39Z,Williston Basin International Airport,48.258387,-103.748797,US,US-ND
KXWA,"Williston/Basin Intl, ND, US",2025-09-12T21:51:00Z,2025-09-12 16:51:00,VFR,27.8,17.8,VAR,4,0,NA,1013.6,METAR KXWA 122151Z AUTO VRB04KT 10SM CLR 28/18 A2993 RMK AO2 SLP129 T02780178 $,2025-09-12T21:56:18Z,2025-09-12T17:56:18Z,Williston Basin International Airport,48.258387,-103.748797,US,US-ND
KY19,"Mandan Muni, ND, US",2025-09-12T21:35:00Z,2025-09-12 21:35:00,NA,31,21,80,8,0,NA,1011.9,METAR KY19 122135Z AUTO 08008KT 10SM 31/21 A2988 RMK AO2,2025-09-12T21:45:39Z,2025-09-12T17:45:39Z,Mandan Municipal Airport,46.7681999206543,-100.8939971923828,US,US-ND
KY19,"Mandan Muni, ND, US",2025-09-12T21:55:00Z,2025-09-12 21:55:00,NA,31,21,50,4,0,NA,1012.3,METAR KY19 122155Z AUTO 05004KT 10SM 31/21 A2989 RMK AO2,2025-09-12T21:56:18Z,2025-09-12T17:56:18Z,Mandan Municipal Airport,46.7681999206543,-100.8939971923828,US,US-ND
KY23,"Chetek Muni, WI, US",2025-09-12T21:35:00Z,2025-09-12 21:35:00,VFR,25.3,16.8,150,3,0,NA,1018.4,METAR KY23 122135Z AUTO 15003KT 10SM SCT070 25/17 A3007 RMK AO2 T02530168,2025-09-12T21:45:39Z,2025-09-12T17:45:39Z,Chetek Municipal Southworth Airport,45.306198,-91.6362,US,US-WI
KY31,"West Branch Arpt, MI, US",2025-09-12T21:35:00Z,2025-09-12 17:35:00,VFR,26.1,12.7,230,5,0,NA,1021.1,METAR KY31 122135Z AUTO 23005KT 10SM SCT060 BKN070 26/13 A3015 RMK AO2 T02610127,2025-09-12T21:45:39Z,2025-09-12T17:45:39Z,West Branch Community Airport,44.244801,-84.179802,US,US-MI
KY50,"Wautoma Muni, WI, US",2025-09-12T20:56:00Z,2025-09-12 20:56:00,VFR,26.7,14.4,200,5,0,NA,1019.4,METAR KY50 122056Z AUTO 20005KT 10SM CLR 27/14 A3010 RMK AO2 SLP189 T02670144 $,2025-09-12T21:45:39Z,2025-09-12T17:45:39Z,Wautoma Municipal Airport,44.041599,-89.304497,US,US-WI
KY51,"Viroqua Muni, WI, US",2025-09-12T21:35:00Z,2025-09-12 21:35:00,VFR,27.1,15.5,160,9,0,NA,1019,METAR KY51 122135Z AUTO 16009KT 10SM CLR 27/16 A3009 RMK AO1 T02710155,2025-09-12T21:45:39Z,2025-09-12T17:45:39Z,Viroqua Municipal Airport,43.5801,-90.900196,US,US-WI
KY70,"Ionia Cnty Arpt, MI, US",2025-09-12T21:35:00Z,2025-09-12 21:35:00,VFR,27,11,240,5,0,NA,1021.4,METAR KY70 122135Z AUTO 24005KT 10SM SCT060 SCT070 27/11 A3016 RMK AO2,2025-09-12T21:45:39Z,2025-09-12T17:45:39Z,Ionia County Airport,42.938,-85.060501,US,US-MI
KYIP,"Detroit/Willow Run Arpt, MI, US",2025-09-12T20:53:00Z,2025-09-12 16:53:00,VFR,26.1,9.4,110,5,0,NA,1022.1,METAR KYIP 122053Z 11005KT 10SM SCT075 26/09 A3018 RMK AO2 SLP215 T02610094 56019,2025-09-12T21:45:39Z,2025-09-12T17:45:39Z,Willow Run Airport,42.2379,-83.530403,US,US-MI
KYIP,"Detroit/Willow Run Arpt, MI, US",2025-09-12T21:53:00Z,2025-09-12 17:53:00,VFR,26.7,9.4,0,0,0,NA,1021.8,METAR KYIP 122153Z 00000KT 10SM CLR 27/09 A3017 RMK AO2 SLP212 T02670094,2025-09-12T21:56:18Z,2025-09-12T17:56:18Z,Willow Run Airport,42.2379,-83.530403,US,US-MI
KYKM,"Yakima/McAllister Fld, WA, US",2025-09-12T20:53:00Z,2025-09-12 13:53:00,VFR,26.7,12.2,130,9,0,NA,1014,METAR KYKM 122053Z 13009KT 10SM CLR 27/12 A2994 RMK AO2 SLP133 T02670122 58015 $,2025-09-12T21:45:39Z,2025-09-12T17:45:39Z,Yakima Air Terminal McAllister Field,46.56819916,-120.5439987,US,US-WA
KYKM,"Yakima/McAllister Fld, WA, US",2025-09-12T21:53:00Z,2025-09-12 14:53:00,VFR,27.2,12.2,VAR,5,0,NA,1013.3,METAR KYKM 122153Z VRB05KT 10SM CLR 27/12 A2992 RMK AO2 SLP126 T02720122 $,2025-09-12T21:56:18Z,2025-09-12T17:56:18Z,Yakima Air Terminal McAllister Field,46.56819916,-120.5439987,US,US-WA
KYKN,"Yankton/Gurney Muni, SD, US",2025-09-12T20:56:00Z,2025-09-12 15:56:00,VFR,28.9,20.6,180,11,0,NA,1010.9,METAR KYKN 122056Z AUTO 18011KT 10SM CLR 29/21 A2985 RMK AO2 SLP109 T02890206 56009,2025-09-12T21:45:39Z,2025-09-12T17:45:39Z,Chan Gurney Municipal Airport,42.916698455811,-97.385902404785,US,US-SD
KYNG,"Youngstown-Warren Rgnl, OH, US",2025-09-12T20:51:00Z,2025-09-12 16:51:00,VFR,26.7,10,300,5,0,NA,1021.8,METAR KYNG 122051Z 30005KT 10SM FEW065 FEW250 27/10 A3017 RMK AO2 SLP212 T02670100 56018 $,2025-09-12T21:45:39Z,2025-09-12T17:45:39Z,Youngstown Warren Regional Airport,41.26070023,-80.67910004,US,US-OH
KYNG,"Youngstown-Warren Rgnl, OH, US",2025-09-12T21:51:00Z,2025-09-12 17:51:00,VFR,26.1,10,300,7,0,NA,1021.8,METAR KYNG 122151Z 30007KT 10SM FEW060 FEW250 26/10 A3017 RMK AO2 SLP212 T02610100 $,2025-09-12T21:56:18Z,2025-09-12T17:56:18Z,Youngstown Warren Regional Airport,41.26070023,-80.67910004,US,US-OH
KZER,"Pottsville/Schuylkill Cnty, PA, US",2025-09-12T21:35:00Z,2025-09-12 21:35:00,VFR,22,10,230,3,0,NA,1023.5,METAR KZER 122135Z AUTO 23003KT 10SM SCT055 BKN090 22/10 A3022 RMK AO2,2025-09-12T21:45:39Z,2025-09-12T17:45:39Z,Schuylkill County Joe Zerbey Airport,40.706501,-76.3731,US,US-PA
KZPH,"Zephyrhills Muni, FL, US",2025-09-12T21:35:00Z,2025-09-12 17:35:00,VFR,28.3,21.3,60,11,0,NA,1015,METAR KZPH 122135Z AUTO 06011KT 10SM SCT038 SCT048 SCT055 28/21 A2997 RMK A02 T02830213,2025-09-12T21:45:39Z,2025-09-12T17:45:39Z,Zephyrhills Municipal Airport,28.228201,-82.155899,US,US-FL
KZZV,"Zanesville Muni, OH, US",2025-09-12T20:53:00Z,2025-09-12 16:53:00,VFR,27.8,8.9,290,6,0,NA,1021.1,METAR KZZV 122053Z AUTO 29006KT 10SM CLR 28/09 A3015 RMK AO2 SLP204 T02780089 56021,2025-09-12T21:45:39Z,2025-09-12T17:45:39Z,Zanesville Municipal Airport,39.9444007874,-81.89209747310001,US,US-OH
KZZV,"Zanesville Muni, OH, US",2025-09-12T21:53:00Z,2025-09-12 17:53:00,VFR,27.8,8.3,0,0,0,NA,1020.7,METAR KZZV 122153Z AUTO 00000KT 10SM CLR 28/08 A3014 RMK AO2 SLP203 T02780083,2025-09-12T21:56:18Z,2025-09-12T17:56:18Z,Zanesville Municipal Airport,39.9444007874,-81.89209747310001,US,US-OH
PAAD,"Point Thomson Arpt, AK, US",2025-09-12T21:35:00Z,2025-09-12 21:35:00,IFR,1.1,0,260,10,0,7,1006.9,METAR PAAD 122135Z AUTO 26010KT 7SM -RA BKN009 OVC014 01/00 A2973 RMK AO2 T00110000 FZRANO,2025-09-12T21:45:40Z,2025-09-12T17:45:40Z,Point Thomson Airstrip,70.136,-146.290028,US,US-AK
PAAK,"Atka Arpt, AK, US",2025-09-12T21:28:00Z,2025-09-12 12:28:00,IFR,9,9,70,5,0,NA,1012.6,SPECI PAAK 122128Z AUTO 07005KT 10SM OVC007 09/09 A2990 RMK AO2 CIG 003V010 TSNO PNO $,2025-09-12T21:45:40Z,2025-09-12T17:45:40Z,Atka Airport,52.220299,-174.205994,US,US-AK
PAAQ,"Palmer Muni, AK, US",2025-09-12T20:53:00Z,2025-09-12 12:53:00,LIFR,7.2,6.7,0,0,0,3,1004.1,METAR PAAQ 122053Z 00000KT 3SM BR OVC004 07/07 A2965 RMK AO2 CIG 003V008 SLP042 T00720067 51009 $,2025-09-12T21:45:41Z,2025-09-12T17:45:41Z,"Warren ""Bud"" Woods Palmer Municipal Airport",61.594898,-149.08901,US,US-AK
PAAQ,"Palmer Muni, AK, US",2025-09-12T21:53:00Z,2025-09-12 13:53:00,IFR,7.8,7.2,100,3,0,NA,1004.1,METAR PAAQ 122153Z 10003KT 10SM OVC006 08/07 A2965 RMK AO2 RAB02E33 CIG 004V008 SLP041 P0000 T00780072 $,2025-09-12T21:56:20Z,2025-09-12T17:56:20Z,"Warren ""Bud"" Woods Palmer Municipal Airport",61.594898,-149.08901,US,US-AK
PABA,"Barter Island Arpt, AK, US",2025-09-12T21:05:00Z,2025-09-12 13:05:00,VFR,3,1,270,11,0,NA,1005.5,SPECI PABA 122105Z AUTO 27011KT 10SM SCT010 OVC040 03/01 A2969 RMK AO2 TSNO,2025-09-12T21:45:40Z,2025-09-12T17:45:40Z,Barter Island Long Range Radar Station Airport,70.134003,-143.582001,US,US-AK
PABE,"Bethel Arpt, AK, US",2025-09-12T20:53:00Z,2025-09-12 12:53:00,NA,7.8,2.8,360,5,0,NA,1011.9,METAR PABE 122053Z 36005KT FEW028 OVC039 08/03 A2988 RMK AO2 SLP119 60000 T00780028 50003 $,2025-09-12T21:45:41Z,2025-09-12T17:45:41Z,Bethel Airport,60.77980042,-161.8379974,US,US-AK
PABE,"Bethel Arpt, AK, US",2025-09-12T21:53:00Z,2025-09-12 13:53:00,NA,7.2,3.3,330,9,14,NA,1011.9,METAR PABE 122153Z 33009G14KT -RA BKN023 OVC043 07/03 A2988 RMK AO2 RAB51 SLP120 P0000 T00720033 $,2025-09-12T21:56:20Z,2025-09-12T17:56:20Z,Bethel Airport,60.77980042,-161.8379974,US,US-AK
PABI,"Ft Greely/Allen Fld, AK, US",2025-09-12T20:53:00Z,2025-09-12 12:53:00,MVFR,5.6,0,270,5,0,NA,1008.9,METAR PABI 122053Z 27005KT 10SM BKN024 OVC060 06/00 A2979 RMK AO2 SLP101 T00560000 51006 $,2025-09-12T21:45:41Z,2025-09-12T17:45:41Z,Allen Army Airfield,63.9944992065,-145.722000122,US,US-AK
PABI,"Ft Greely/Allen Fld, AK, US",2025-09-12T21:53:00Z,2025-09-12 13:53:00,MVFR,5.6,-0.6,290,5,0,NA,1008.9,METAR PABI 122153Z 29005KT 10SM BKN023 OVC060 06/M01 A2979 RMK AO2 SLP103 WATERFOWL VC T00561006 $,2025-09-12T21:56:20Z,2025-09-12T17:56:20Z,Allen Army Airfield,63.9944992065,-145.722000122,US,US-AK
PABL,"Buckland Arpt, AK, US",2025-09-12T21:44:00Z,2025-09-12 13:44:00,MVFR,5,1,270,10,0,NA,1009.2,SPECI PABL 122144Z AUTO 27010KT 10SM BKN029 OVC035 05/01 A2980 RMK AO2,2025-09-12T21:45:40Z,2025-09-12T17:45:40Z,Buckland Airport,65.981598,-161.149002,US,US-AK
PABR,"Utqiaġvik/Wiley Post-Will Rogers Mem, AK, US",2025-09-12T21:11:00Z,2025-09-12 13:11:00,VFR,1.7,0.6,60,3,0,NA,1003.5,SPECI PABR 122111Z 06003KT 10SM FEW010 SCT029 OVC037 02/01 A2963 RMK AO2 T00170006 $,2025-09-12T21:45:40Z,2025-09-12T17:45:40Z,Wiley Post Will Rogers Memorial Airport,71.285402,-156.766008,US,US-AK
PABR,"Utqiaġvik/Wiley Post-Will Rogers Mem, AK, US",2025-09-12T21:53:00Z,2025-09-12 13:53:00,VFR,1.7,0.6,100,5,0,NA,1003.5,METAR PABR 122153Z 10005KT 10SM SCT028 OVC037 02/01 A2963 RMK AO2 SLP035 T00170006 $,2025-09-12T21:56:20Z,2025-09-12T17:56:20Z,Wiley Post Will Rogers Memorial Airport,71.285402,-156.766008,US,US-AK
PABT,"Bettles Arpt, AK, US",2025-09-12T20:53:00Z,2025-09-12 12:53:00,VFR,5.6,1.7,VAR,4,0,NA,1007.2,METAR PABT 122053Z VRB04KT 10SM SCT012 BKN040 BKN060 06/02 A2974 RMK AO2 RAB50E52 SLP082 P0000 60000 T00560017 51010 $,2025-09-12T21:45:41Z,2025-09-12T17:45:41Z,Bettles Airport,66.913902,-151.529007,US,US-AK
PABT,"Bettles Arpt, AK, US",2025-09-12T21:53:00Z,2025-09-12 13:53:00,MVFR,4.4,1.7,290,6,0,6,1007.5,METAR PABT 122153Z 29006KT 6SM -RA BR FEW012 BKN030 BKN060 04/02 A2975 RMK AO2 RAB35GSB42E44SNB44E46 SLP085 P0003 T00440017 $,2025-09-12T21:56:20Z,2025-09-12T17:56:20Z,Bettles Airport,66.913902,-151.529007,US,US-AK
PABV,"Birchwood Arpt, AK, US",2025-09-12T20:56:00Z,2025-09-12 20:56:00,IFR,7.8,6.7,260,3,0,NA,1005.5,METAR PABV 122056Z AUTO 26003KT 10SM BKN009 OVC019 08/07 A2969 RMK AO2 RAE09 CIG 007V011 SLP053 P0000 60005 T00780067 51009,2025-09-12T21:45:40Z,2025-09-12T17:45:40Z,Birchwood Airport,61.4165,-149.507004,US,US-AK
PACD,"Cold Bay Arpt, AK, US",2025-09-12T21:26:00Z,2025-09-12 13:26:00,VFR,10.6,5.6,310,7,0,NA,1012.6,SPECI PACD 122126Z 31007KT 10SM SCT026 11/06 A2990 RMK AO2 T01060056 $,2025-09-12T21:45:40Z,2025-09-12T17:45:40Z,Cold Bay Airport,55.207871,-162.725029,US,US-AK
PACD,"Cold Bay Arpt, AK, US",2025-09-12T21:53:00Z,2025-09-12 13:53:00,VFR,10.6,5.6,280,9,0,NA,1012.6,METAR PACD 122153Z 28009KT 10SM FEW025 11/06 A2990 RMK AO2 SLP126 T01060056 $,2025-09-12T21:56:20Z,2025-09-12T17:56:20Z,Cold Bay Airport,55.207871,-162.725029,US,US-AK
PACV,"Cordova/Smith Arpt, AK, US",2025-09-12T20:53:00Z,2025-09-12 12:53:00,MVFR,11.7,10.6,70,6,0,NA,1004.1,METAR PACV 122053Z 07006KT 10SM -RA BKN021 OVC033 12/11 A2965 RMK AO2 SLP042 60003 T01170106 53009 PNO,2025-09-12T21:45:41Z,2025-09-12T17:45:41Z,Merle K (Mudhole) Smith Airport,60.491798,-145.477997,US,US-AK
PACV,"Cordova/Smith Arpt, AK, US",2025-09-12T21:53:00Z,2025-09-12 13:53:00,MVFR,13.3,11.1,110,5,0,NA,1004.5,METAR PACV 122153Z 11005KT 10SM BKN020 OVC034 13/11 A2966 RMK AO2 RAE28 SLP044 T01330111 PNO,2025-09-12T21:56:20Z,2025-09-12T17:56:20Z,Merle K (Mudhole) Smith Airport,60.491798,-145.477997,US,US-AK
PACX,"Coldfoot Arpt, AK, US",2025-09-12T20:56:00Z,2025-09-12 12:56:00,VFR,4.4,1.1,230,5,0,NA,1006.9,METAR PACX 122056Z AUTO 23005KT 10SM OVC055 04/01 A2973 RMK AO2 SLP697 T00440011 53009,2025-09-12T21:45:40Z,2025-09-12T17:45:40Z,Coldfoot Airport,67.25219726559999,-150.203994751,US,US-AK
PADG,"Red Dog Arpt, AK, US",2025-09-12T20:46:00Z,2025-09-12 12:46:00,VFR,2,-3,330,7,0,NA,1007.2,METAR PADG 122046Z 33007KT 10SM SCT042 OVC050 02/M03 A2974,2025-09-12T21:45:41Z,2025-09-12T17:45:41Z,Red Dog Airport,68.032097,-162.899002,US,US-AK
PADK,"Adak (NAS), AK, US",2025-09-12T21:26:00Z,2025-09-12 12:26:00,VFR,11,8,250,4,0,NA,1011.3,SPECI PADK 122126Z AUTO 25004KT 10SM FEW024 BKN032 OVC041 11/08 A2986 RMK AO2,2025-09-12T21:45:40Z,2025-09-12T17:45:40Z,Adak Airport,51.883564,-176.642783,US,US-AK
PADL,"Dillingham Arpt, AK, US",2025-09-12T20:56:00Z,2025-09-12 12:56:00,VFR,9.4,0,VAR,5,0,NA,1010.2,METAR PADL 122056Z VRB05KT 10SM FEW044 09/00 A2983 RMK AO2 SLP106 T00940000 50000,2025-09-12T21:45:40Z,2025-09-12T17:45:40Z,Dillingham Airport,59.04470062,-158.5050049,US,US-AK
PADQ,"Kodiak Arpt, AK, US",2025-09-12T20:53:00Z,2025-09-12 12:53:00,VFR,13.3,0.6,300,9,0,NA,1005.5,METAR PADQ 122053Z 30009KT 10SM CLR 13/01 A2969 RMK AO2 SLP055 T01330006 51006 $,2025-09-12T21:45:41Z,2025-09-12T17:45:41Z,Kodiak Airport,57.75,-152.4940033,US,US-AK
PADQ,"Kodiak Arpt, AK, US",2025-09-12T21:53:00Z,2025-09-12 13:53:00,VFR,13.9,0.6,330,8,0,NA,1005.8,METAR PADQ 122153Z 33008KT 10SM CLR 14/01 A2970 RMK AO2 SLP057 T01390006 $,2025-09-12T21:56:20Z,2025-09-12T17:56:20Z,Kodiak Airport,57.75,-152.4940033,US,US-AK
PADU,"Dutch Harbor/Unalaska Arpt, AK, US",2025-09-12T20:56:00Z,2025-09-12 12:56:00,VFR,8.3,5.6,250,3,0,NA,1014.6,METAR PADU 122056Z 25003KT 10SM SCT025 BKN048 BKN180 08/06 A2996 RMK AO2 SLP143 T00830056 51004,2025-09-12T21:45:40Z,2025-09-12T17:45:40Z,Tom Madsen (Dutch Harbor) Airport,53.89881,-166.544996,US,US-AK
PAED,"Anchorage/Elmendorf AFB, AK, US",2025-09-12T20:55:00Z,2025-09-12 12:55:00,MVFR,8.2,6,30,4,0,6,1003.8,METAR PAED 122055Z 03004KT 6SM -RA FEW010 BKN026 OVC050 08/06 A2964 RMK AO2A SLP034 P0002 60019 T00820060 50006 $,2025-09-12T21:45:41Z,2025-09-12T17:45:41Z,Elmendorf Air Force Base,61.251709,-149.807097,US,US-AK
PAEG,"Eagle Arpt, AK, US",2025-09-12T20:53:00Z,2025-09-12 12:53:00,MVFR,10.6,8.3,270,5,0,NA,1005.5,METAR PAEG 122053Z AUTO 27005KT 10SM OVC014 11/08 A2969 RMK AO2 SLP057 T01060083 53012 TSNO $,2025-09-12T21:45:41Z,2025-09-12T17:45:41Z,Eagle Airport,64.778003,-141.150455,US,US-AK
PAEG,"Eagle Arpt, AK, US",2025-09-12T21:53:00Z,2025-09-12 13:53:00,MVFR,10,8.3,300,3,0,7,1005.5,METAR PAEG 122153Z AUTO 30003KT 7SM -RA OVC012 10/08 A2969 RMK AO2 RAB47 SLP060 P0001 T01000083 TSNO $,2025-09-12T21:56:20Z,2025-09-12T17:56:20Z,Eagle Airport,64.778003,-141.150455,US,US-AK
PAEH,"Cape Newenham Arpt, AK, US",2025-09-12T20:55:00Z,2025-09-12 12:55:00,VFR,8.5,2.9,360,7,0,NA,1011.9,METAR PAEH 122055Z AUTO 36007KT 320V140 10SM BKN040 09/03 A2988 RMK AO2 SLP121 T00850029 52005,2025-09-12T21:45:41Z,2025-09-12T17:45:41Z,Cape Newenham LRRS Airport,58.6464004517,-162.06300354,US,US-AK
PAEI,"Fairbanks/Eielson AFB, AK, US",2025-09-12T20:55:00Z,2025-09-12 12:55:00,MVFR,5.4,3.2,0,0,0,NA,1008.5,METAR PAEI 122055Z 00000KT 10SM OVC010 05/03 A2978 RMK CIG 009 RWY14 SLP092 60004 T00540032 52007 $,2025-09-12T21:45:40Z,2025-09-12T17:45:40Z,Eielson Air Force Base,64.66570282,-147.102005,US,US-AK
PAEL,"Elfin Cove, AK, US",2025-09-12T20:52:00Z,2025-09-12 12:52:00,MVFR,14,12,0,0,0,15,1011.6,METAR PAEL 122052Z 00000KT 15SM BKN025 BKN070 14/12 A2987 RMK SEA 0 SWELL 3 SW NOSPECI,2025-09-12T21:45:41Z,2025-09-12T17:45:41Z,Elfin Cove Seaplane Base,58.195201873799995,-136.347000122,US,US-AK
PAEM,"Emmonak Arpt, AK, US",2025-09-12T20:56:00Z,2025-09-12 12:56:00,VFR,7.8,1.7,340,5,0,NA,1011.9,METAR PAEM 122056Z AUTO 34005KT 10SM OVC036 08/02 A2988 RMK AO2 SLP118 6//// T00780017 51007 PNO $,2025-09-12T21:45:40Z,2025-09-12T17:45:40Z,Emmonak Airport,62.78609848,-164.4909973,US,US-AK
PAEN,"Kenai Muni, AK, US",2025-09-12T20:53:00Z,2025-09-12 12:53:00,VFR,8.9,4.4,100,3,0,NA,1004.8,METAR PAEN 122053Z 10003KT 10SM OVC055 09/04 A2967 RMK AO2 SLP051 T00890044 51009,2025-09-12T21:45:41Z,2025-09-12T17:45:41Z,Kenai Municipal Airport,60.570946,-151.245174,US,US-AK
PAEN,"Kenai Muni, AK, US",2025-09-12T21:53:00Z,2025-09-12 13:53:00,VFR,9.4,4.4,0,0,0,NA,1005.2,METAR PAEN 122153Z 00000KT 10SM OVC055 09/04 A2968 RMK AO2 SLP052 T00940044,2025-09-12T21:56:20Z,2025-09-12T17:56:20Z,Kenai Municipal Airport,60.570946,-151.245174,US,US-AK
PAFA,"Fairbanks Intl, AK, US",2025-09-12T20:53:00Z,2025-09-12 12:53:00,MVFR,5.6,2.8,0,0,0,NA,1009.2,METAR PAFA 122053Z 00000KT 10SM -RA BKN012 OVC023 06/03 A2980 RMK AO2 RAB19 SLP097 P0001 60001 T00560028 52008 $,2025-09-12T21:45:41Z,2025-09-12T17:45:41Z,Fairbanks International Airport,64.815102,-147.856003,US,US-AK
PAFA,"Fairbanks Intl, AK, US",2025-09-12T21:53:00Z,2025-09-12 13:53:00,MVFR,6.1,3.3,0,0,0,NA,1009.2,METAR PAFA 122153Z 00000KT 10SM -RA SCT012 BKN026 OVC040 06/03 A2980 RMK AO2 SLP098 P0000 T00610033 $,2025-09-12T21:56:20Z,2025-09-12T17:56:20Z,Fairbanks International Airport,64.815102,-147.856003,US,US-AK
PAFB,"Fairbanks/Ladd AAF, AK, US",2025-09-12T21:32:00Z,2025-09-12 13:32:00,MVFR,6,4,0,0,0,NA,1008.9,SPECI PAFB 122132Z 00000KT 10SM -DZ SCT012 BKN019 BKN027 06/04 A2979 RMK AO2A CIG 013V019 SLP097 $,2025-09-12T21:45:40Z,2025-09-12T17:45:40Z,Ladd Army Airfield,64.837502,-147.613998,US,US-AK
PAFE,"Kake Arpt, AK, US",2025-09-12T20:56:00Z,2025-09-12 20:56:00,VFR,13.3,11.7,140,4,0,NA,1015.7,METAR PAFE 122056Z AUTO 14004KT 10SM BKN055 OVC070 13/12 A2999 RMK AO2 RAB24E36 SLP162 P0000 60009 T01330117 50006 $,2025-09-12T21:45:40Z,2025-09-12T17:45:40Z,Kake Airport,56.961312,-133.910202,US,US-AK
PAFR,"Ft Richardson/Bryant AAF, AK, US",2025-09-12T21:12:00Z,2025-09-12 13:12:00,MVFR,8,7,310,3,0,9,1004.5,SPECI PAFR 122112Z AUTO 31003KT 9SM FEW006 OVC015 08/07 A2966 RMK AO2 RAE2055RAB2058E12 SLP047 $,2025-09-12T21:45:40Z,2025-09-12T17:45:40Z,Bryant Army Airfield,61.266399,-149.653,US,US-AK
PAFR,"Ft Richardson/Bryant AAF, AK, US",2025-09-12T21:42:00Z,2025-09-12 13:42:00,IFR,9,8,320,3,0,NA,1004.5,SPECI PAFR 122142Z AUTO 32003KT 10SM BKN006 OVC016 09/08 A2966 RMK AO2 RAB2058E12 CIG 006V016 BKN V SCT SLP047 $,2025-09-12T21:56:20Z,2025-09-12T17:56:20Z,Bryant Army Airfield,61.266399,-149.653,US,US-AK
PAFS,"Nikolai Arpt, AK, US",2025-09-12T21:01:00Z,2025-09-12 13:01:00,VFR,7.2,-0.6,270,4,0,NA,1008.9,METAR PAFS 122101Z AUTO 27004KT 10SM BKN044 07/M01 A2979 RMK AO2 SLP095 60000 T00721006 51010,2025-09-12T21:45:40Z,2025-09-12T17:45:40Z,Nikolai Airport,63.017949,-154.360399,US,US-AK
PAGA,"Galena Arpt, AK, US",2025-09-12T20:56:00Z,2025-09-12 12:56:00,VFR,6.1,0,290,6,0,NA,1009.6,METAR PAGA 122056Z AUTO 29006KT 10SM OVC050 06/00 A2981 RMK AO2 SLP096 T00610000 51011 TSNO $,2025-09-12T21:45:40Z,2025-09-12T17:45:40Z,Edward G. Pitka Sr Airport,64.736198,-156.936997,US,US-AK
PAGH,"Shungnak Arpt, AK, US",2025-09-12T20:56:00Z,2025-09-12 12:56:00,VFR,2.8,-1.1,0,0,0,NA,1008.5,METAR PAGH 122056Z AUTO 00000KT 10SM OVC036 03/M01 A2978 RMK AO2 SLP086 60000 T00281011 53014,2025-09-12T21:45:40Z,2025-09-12T17:45:40Z,Shungnak Airport,66.88809967041,-157.16200256348,US,US-AK
PAGK,"Gulkana Arpt, AK, US",2025-09-12T20:53:00Z,2025-09-12 12:53:00,VFR,16.1,3.3,150,9,0,NA,1003.1,METAR PAGK 122053Z AUTO 15009KT 10SM CLR 16/03 A2962 RMK AO2 SLP031 T01610033 50000 TSNO,2025-09-12T21:45:41Z,2025-09-12T17:45:41Z,Gulkana Airport,62.155859,-145.454662,US,US-AK
PAGK,"Gulkana Arpt, AK, US",2025-09-12T21:53:00Z,2025-09-12 13:53:00,VFR,16.7,1.7,150,14,20,NA,1003.1,METAR PAGK 122153Z AUTO 15014G20KT 10SM CLR 17/02 A2962 RMK AO2 SLP030 T01670017 TSNO,2025-09-12T21:56:20Z,2025-09-12T17:56:20Z,Gulkana Airport,62.155859,-145.454662,US,US-AK
PAGL,"Golovin Arpt, AK, US",2025-09-12T20:56:00Z,2025-09-12 12:56:00,VFR,5.6,-0.6,320,7,0,NA,1011.6,METAR PAGL 122056Z AUTO 32007KT 10SM SCT036 06/M01 A2987 RMK AO2 SLP108 T00561006 51007 $,2025-09-12T21:45:40Z,2025-09-12T17:45:40Z,Golovin Airport,64.550499,-163.007004,US,US-AK
PAGM,"Gambell Arpt, AK, US",2025-09-12T21:13:00Z,2025-09-12 13:13:00,MVFR,6,5,130,12,0,4,1011.6,SPECI PAGM 122113Z AUTO 13012KT 4SM -RA BR SCT006 BKN021 OVC026 06/05 A2987 RMK AO2 P0000,2025-09-12T21:45:40Z,2025-09-12T17:45:40Z,Gambell Airport,63.767694,-171.733303,US,US-AK
PAGN,"Angoon, AK, US",2025-09-12T20:56:00Z,2025-09-12 12:56:00,VFR,13.9,11.7,VAR,3,0,NA,1014.6,METAR PAGN 122056Z AUTO VRB03KT 10SM BKN085 14/12 A2996 RMK AO2 SLP133 60000 T01390117 50000 $,2025-09-12T21:45:40Z,2025-09-12T17:45:40Z,Angoon Seaplane Base,57.497097,-134.56722,US,US-AK
PAGS,"Gustavus Arpt, AK, US",2025-09-12T20:56:00Z,2025-09-12 12:56:00,VFR,15,10,130,10,0,NA,1013.3,METAR PAGS 122056Z AUTO 13010KT 10SM SCT055 BKN070 15/10 A2992 RMK AO2 SLP130 T01500100 51008,2025-09-12T21:45:40Z,2025-09-12T17:45:40Z,Gustavus Airport,58.4253006,-135.7070007,US,US-AK
PAGY,"Skagway Arpt, AK, US",2025-09-12T20:53:00Z,2025-09-12 12:53:00,VFR,14.4,8.9,200,17,29,NA,1012.3,METAR PAGY 122053Z AUTO 20017G29KT 10SM BKN060 OVC100 14/09 A2989 RMK AO2 PK WND 19029/2045 SLP121 T01440089 53018 TSNO $,2025-09-12T21:45:41Z,2025-09-12T17:45:41Z,Skagway Airport,59.460343,-135.316651,US,US-AK
PAGY,"Skagway Arpt, AK, US",2025-09-12T21:53:00Z,2025-09-12 13:53:00,VFR,15,9.4,200,16,25,NA,1012.3,METAR PAGY 122153Z AUTO 20016G25KT 10SM BKN065 15/09 A2989 RMK AO2 PK WND 20029/2130 SLP122 T01500094 TSNO $,2025-09-12T21:56:20Z,2025-09-12T17:56:20Z,Skagway Airport,59.460343,-135.316651,US,US-AK
PAHC,"Holy Cross Arpt, AK, US",2025-09-12T20:56:00Z,2025-09-12 12:56:00,VFR,7.8,2.2,50,5,0,NA,1010.6,METAR PAHC 122056Z AUTO 05005KT 10SM CLR 08/02 A2984 RMK AO2 SLP108 T00780022 51006,2025-09-12T21:45:40Z,2025-09-12T17:45:40Z,Holy Cross Airport,62.18830108642578,-159.77499389648438,US,US-AK
PAHL,"Huslia Arpt, AK, US",2025-09-12T21:40:00Z,2025-09-12 13:40:00,MVFR,6,1,260,5,0,NA,1008.9,SPECI PAHL 122140Z AUTO 26005KT 10SM BKN022 BKN035 OVC048 06/01 A2979 RMK AO2 TSNO,2025-09-12T21:45:40Z,2025-09-12T17:45:40Z,Huslia Airport,65.697899,-156.350998,US,US-AK
PAHL,"Huslia Arpt, AK, US",2025-09-12T21:53:00Z,2025-09-12 13:53:00,VFR,5,1,250,6,0,NA,1008.9,SPECI PAHL 122153Z AUTO 25006KT 10SM SCT022 OVC044 05/01 A2979 RMK AO2 TSNO,2025-09-12T21:56:20Z,2025-09-12T17:56:20Z,Huslia Airport,65.697899,-156.350998,US,US-AK
PAHN,"Haines Arpt, AK, US",2025-09-12T20:54:00Z,2025-09-12 12:54:00,VFR,15,10.6,120,13,23,NA,1012.6,METAR PAHN 122054Z AUTO 12013G23KT 10SM OVC065 15/11 A2990 RMK AO2 SLP127 T01500106 53010 TSNO,2025-09-12T21:45:41Z,2025-09-12T17:45:41Z,Haines Airport,59.243921,-135.523925,US,US-AK
PAHO,"Homer Arpt, AK, US",2025-09-12T20:53:00Z,2025-09-12 12:53:00,VFR,10,6.7,110,4,0,NA,1004.5,METAR PAHO 122053Z 11004KT 10SM SCT012 BKN033 OVC041 10/07 A2966 RMK AO2 SLP043 T01000067 52009 $,2025-09-12T21:45:41Z,2025-09-12T17:45:41Z,Homer Airport,59.644456,-151.479235,US,US-AK
PAHO,"Homer Arpt, AK, US",2025-09-12T21:53:00Z,2025-09-12 13:53:00,VFR,10.6,6.7,100,3,0,NA,1004.8,METAR PAHO 122153Z 10003KT 10SM OVC037 11/07 A2967 RMK AO2 SLP047 T01060067 $,2025-09-12T21:56:20Z,2025-09-12T17:56:20Z,Homer Airport,59.644456,-151.479235,US,US-AK
PAHX,"Shageluk Arpt, AK, US",2025-09-12T21:02:00Z,2025-09-12 13:02:00,VFR,7.8,1.1,20,5,0,NA,1010.9,METAR PAHX 122102Z AUTO 02005KT 10SM FEW036 08/01 A2985 RMK AO2 SLP109 T00780011 53003,2025-09-12T21:45:40Z,2025-09-12T17:45:40Z,Shageluk Airport,62.692144,-159.569035,US,US-AK
PAIG,"Igiugig Arpt, AK, US",2025-09-12T20:56:00Z,2025-09-12 12:56:00,VFR,NA,NA,300,10,0,NA,1008.9,METAR PAIG 122056Z AUTO 30010KT 10SM SCT049 A2979 RMK AO2 SLPNO 6//// 58003 FZRANO PNO $,2025-09-12T21:45:42Z,2025-09-12T17:45:42Z,Igiugig Airport,59.324001,-155.901993,US,US-AK
PAII,"Egegik Arpt, AK, US",2025-09-12T20:56:00Z,2025-09-12 12:56:00,VFR,9.4,1.7,VAR,5,0,NA,1010.9,METAR PAII 122056Z AUTO VRB05KT 10SM OVC047 09/02 A2985 RMK AO2 SLP107 T00940017 51008,2025-09-12T21:45:42Z,2025-09-12T17:45:42Z,Egegik Airport,58.184386,-157.374873,US,US-AK
PAIL,"Iliamna Arpt, AK, US",2025-09-12T20:53:00Z,2025-09-12 12:53:00,VFR,10,1,320,10,18,NA,1008.2,METAR PAIL 122053Z 32010G18KT 10SM CLR 10/01 A2977,2025-09-12T21:45:43Z,2025-09-12T17:45:43Z,Iliamna Airport,59.754398,-154.910996,US,US-AK
PAIL,"Iliamna Arpt, AK, US",2025-09-12T21:53:00Z,2025-09-12 13:53:00,VFR,11,1,330,8,0,NA,1008.2,METAR PAIL 122153Z 33008KT 10SM SCT043 11/01 A2977,2025-09-12T21:56:22Z,2025-09-12T17:56:22Z,Iliamna Airport,59.754398,-154.910996,US,US-AK
PAIM,"Indian Mtn Arpt, AK, US",2025-09-12T21:36:00Z,2025-09-12 13:36:00,VFR,4,0,220,8,0,NA,1007.2,SPECI PAIM 122136Z AUTO 22008KT 10SM FEW023 BKN031 04/00 A2974 RMK AO2 SLP083,2025-09-12T21:45:42Z,2025-09-12T17:45:42Z,Indian Mountain LRRS Airport,65.992798,-153.703995,US,US-AK
PAIN,"McKinley Park Arpt, AK, US",2025-09-12T20:56:00Z,2025-09-12 12:56:00,VFR,3.9,1.1,10,3,0,NA,1007.9,METAR PAIN 122056Z AUTO 01003KT 10SM -RA FEW020 OVC037 04/01 A2976 RMK AO2 SLP098 P0000 60001 T00390011 52001 TSNO,2025-09-12T21:45:43Z,2025-09-12T17:45:43Z,Denali National Park Airport,63.732465,-148.911266,US,US-AK
PAIW,"Wales Arpt, AK, US",2025-09-12T21:12:00Z,2025-09-12 13:12:00,VFR,5,4,20,7,0,NA,1009.2,SPECI PAIW 122112Z AUTO 02007KT 10SM BKN031 05/04 A2980 RMK AO2 PRESFR,2025-09-12T21:45:42Z,2025-09-12T17:45:42Z,Wales Airport,65.622593,-168.095,US,US-AK
PAJN,"Juneau Intl, AK, US",2025-09-12T20:53:00Z,2025-09-12 12:53:00,VFR,14.4,10.6,120,9,0,NA,1014,METAR PAJN 122053Z 12009KT 10SM -RA FEW010 BKN038 OVC070 14/11 A2994 RMK AO2 RAE10B39 SLP137 P0000 60000 T01440106 51008 $,2025-09-12T21:45:43Z,2025-09-12T17:45:43Z,Juneau International Airport,58.355,-134.576004,US,US-AK
PAJN,"Juneau Intl, AK, US",2025-09-12T21:53:00Z,2025-09-12 13:53:00,VFR,15,10.6,120,13,0,NA,1013.6,METAR PAJN 122153Z 12013KT 10SM FEW016 BKN043 OVC080 15/11 A2993 RMK AO2 RAE06 SLP135 BINOVC P0000 T01500106 $,2025-09-12T21:56:22Z,2025-09-12T17:56:22Z,Juneau International Airport,58.355,-134.576004,US,US-AK
PAJZ,"Koliganek Arpt, AK, US",2025-09-12T20:56:00Z,2025-09-12 12:56:00,VFR,7.8,1.7,330,9,0,6,1011.6,METAR PAJZ 122056Z AUTO 33009KT 6SM HZ FEW028 08/02 A2987 RMK AO2 SLP113 P0021 60057 T00780017 54000,2025-09-12T21:45:42Z,2025-09-12T17:45:42Z,Koliganek Airport,59.726600647,-157.259002686,US,US-AK
PAKF,"False Pass Arpt, AK, US",2025-09-12T20:56:00Z,2025-09-12 12:56:00,VFR,11.7,6.7,40,9,0,NA,1012.6,METAR PAKF 122056Z AUTO 04009KT 10SM FEW035 12/07 A2990 RMK AO2 SLP127 T01170067 58002,2025-09-12T21:45:42Z,2025-09-12T17:45:42Z,False Pass Airport,54.84751,-163.407168,US,US-AK
PAKH,"Akhiok Arpt, AK, US",2025-09-12T20:56:00Z,2025-09-12 12:56:00,VFR,10.6,1.7,300,12,21,NA,1007.5,METAR PAKH 122056Z AUTO 30012G21KT 10SM FEW037 11/02 A2975 RMK AO2 SLP074 T01060017 53007,2025-09-12T21:45:42Z,2025-09-12T17:45:42Z,Akhiok Airport,56.938702,-154.182999,US,US-AK
PAKI,"Kipnuk Arpt, AK, US",2025-09-12T20:56:00Z,2025-09-12 12:56:00,VFR,7.8,3.3,70,7,0,NA,1012.3,METAR PAKI 122056Z AUTO 07007KT 10SM SCT095 08/03 A2989 RMK AO2 SLP121 T00780033 50002,2025-09-12T21:45:42Z,2025-09-12T17:45:42Z,Kipnuk Airport,59.931796,-164.028196,US,US-AK
PAKK,"Koyuk Arpt, AK, US",2025-09-12T20:56:00Z,2025-09-12 12:56:00,VFR,5,-2.2,300,6,0,NA,1008.9,METAR PAKK 122056Z AUTO 30006KT 10SM OVC034 05/M02 A2979 RMK AO2 SLP098 T00501022 51010,2025-09-12T21:45:42Z,2025-09-12T17:45:42Z,Koyuk Alfred Adams Airport,64.939499,-161.154007,US,US-AK
PAKN,"King Salmon Arpt, AK, US",2025-09-12T20:54:00Z,2025-09-12 12:54:00,VFR,8.9,2.2,320,5,0,NA,1008.9,METAR PAKN 122054Z 32005KT 10SM SCT049 09/02 A2979 RMK AO2 SLP088 T00890022 51001,2025-09-12T21:45:43Z,2025-09-12T17:45:43Z,King Salmon Airport,58.677845,-156.651965,US,US-AK
PAKP,"Anaktuvuk Pass Arpt, AK, US",2025-09-12T20:56:00Z,2025-09-12 12:56:00,VFR,0,-1.7,220,8,0,9,1005.5,METAR PAKP 122056Z AUTO 22008KT 9SM -SN BKN039 OVC050 00/M02 A2969 RMK AO2 UPB44E47SNB47 SLP098 6//// T00001017 53044 FZRANO PNO $,2025-09-12T21:45:42Z,2025-09-12T17:45:42Z,Anaktuvuk Pass Airport,68.133598,-151.742996,US,US-AK
PAKT,"Ketchikan Intl, AK, US",2025-09-12T20:53:00Z,2025-09-12 12:53:00,VFR,16.1,11.7,120,7,0,NA,1016,METAR PAKT 122053Z 12007KT 10SM FEW019 SCT024 OVC075 16/12 A3000 RMK AO2 SLP158 HARBOR WIND 12008KT T01610117 50000,2025-09-12T21:45:43Z,2025-09-12T17:45:43Z,Ketchikan International Airport,55.35559845,-131.7140045,US,US-AK
PAKT,"Ketchikan Intl, AK, US",2025-09-12T21:53:00Z,2025-09-12 13:53:00,VFR,15.6,12.8,130,7,0,NA,1016.3,METAR PAKT 122153Z 13007KT 10SM FEW018 OVC075 16/13 A3001 RMK AO2 SLP162 HARBOR WIND 13008KT T01560128,2025-09-12T21:56:22Z,2025-09-12T17:56:22Z,Ketchikan International Airport,55.35559845,-131.7140045,US,US-AK
PAKU,"Kuparuk Arpt, AK, US",2025-09-12T21:45:00Z,2025-09-12 13:45:00,VFR,1,0,230,10,0,NA,1006.5,METAR PAKU 122145Z 23010KT 10SM R24/P6000FT SCT008 BKN065 01/00 A2972,2025-09-12T21:45:42Z,2025-09-12T17:45:42Z,Ugnu-Kuparuk Airport,70.33080291750001,-149.598007202,US,US-AK
PAKV,"Kaltag Arpt, AK, US",2025-09-12T20:53:00Z,2025-09-12 12:53:00,VFR,7.2,-3.3,220,5,0,NA,1009.9,METAR PAKV 122053Z AUTO 22005KT 10SM FEW045 07/M03 A2982 RMK AO2 SLP101 T00721033 53007 TSNO $,2025-09-12T21:45:43Z,2025-09-12T17:45:43Z,Kaltag Airport,64.31864,-158.74197,US,US-AK
PAKV,"Kaltag Arpt, AK, US",2025-09-12T21:53:00Z,2025-09-12 13:53:00,VFR,8.9,-2.8,VAR,3,0,NA,1010.2,METAR PAKV 122153Z AUTO VRB03KT 10SM BKN048 09/M03 A2983 RMK AO2 SLP103 T00891028 TSNO $,2025-09-12T21:56:22Z,2025-09-12T17:56:22Z,Kaltag Airport,64.31864,-158.74197,US,US-AK
PAKW,"Klawock Arpt, AK, US",2025-09-12T20:53:00Z,2025-09-12 12:53:00,VFR,17.2,12.2,0,0,0,NA,1014.6,METAR PAKW 122053Z AUTO 00000KT 10SM FEW036 SCT044 OVC065 17/12 A2996 RMK AO2 SLP144 T01720122 51002 TSNO,2025-09-12T21:45:43Z,2025-09-12T17:45:43Z,Klawock Airport,55.579201,-133.076004,US,US-AK
PAKW,"Klawock Arpt, AK, US",2025-09-12T21:53:00Z,2025-09-12 13:53:00,VFR,17.8,12.2,220,5,0,NA,1014.6,METAR PAKW 122153Z AUTO 22005KT 10SM -RA FEW035 SCT047 OVC070 18/12 A2996 RMK AO2 RAB42 SLP144 P0000 T01780122 TSNO,2025-09-12T21:56:22Z,2025-09-12T17:56:22Z,Klawock Airport,55.579201,-133.076004,US,US-AK
PALG,"Kalskag Arpt, AK, US",2025-09-12T20:56:00Z,2025-09-12 12:56:00,VFR,8.3,2.8,VAR,3,0,NA,1011.3,METAR PALG 122056Z AUTO VRB03KT 10SM SCT022 SCT027 08/03 A2986 RMK AO2 SLP110 T00830028 51005,2025-09-12T21:45:43Z,2025-09-12T17:45:43Z,Kalskag Airport,61.53630065917969,-160.34100341796875,US,US-AK
PALH,"Lake Hood, AK, US",2025-09-12T20:53:00Z,2025-09-12 20:53:00,VFR,7.2,6.1,50,3,0,NA,1004.8,METAR PALH 122053Z 05003KT 10SM -RA OVC065 07/06 A2967 RMK AO2 RAE28B45 SLP047 P0002 60014 T00720061 50006,2025-09-12T21:45:43Z,2025-09-12T17:45:43Z,Lake Hood Seaplane Base,61.18,-149.972003,US,US-AK
PALH,"Lake Hood, AK, US",2025-09-12T21:53:00Z,2025-09-12 21:53:00,VFR,7.8,6.1,20,7,0,NA,1004.8,METAR PALH 122153Z 02007KT 10SM -RA OVC055 08/06 A2967 RMK AO2 SLP048 P0002 T00780061,2025-09-12T21:56:22Z,2025-09-12T17:56:22Z,Lake Hood Seaplane Base,61.18,-149.972003,US,US-AK
PALP,"Deadhorse/Alpine Arstrp, AK, US",2025-09-12T20:55:00Z,2025-09-12 20:55:00,IFR,0,-1,220,8,0,NA,1005.8,METAR PALP 122055Z 22008KT 10SM BKN005 BKN085 00/M01 A2970,2025-09-12T21:45:43Z,2025-09-12T17:45:43Z,Alpine Airstrip,70.344299,-150.945007,US,US-AK
PALU,"Cape Lisburne Arpt, AK, US",2025-09-12T20:55:00Z,2025-09-12 12:55:00,MVFR,5,4,360,10,0,NA,1010.2,METAR PALU 122055Z 36010KT 10SM -DZ OVC010 05/04 A2983 RMK AO2A RAE2049DZB2049 SLP100 60002 51005 BWC MOD,2025-09-12T21:45:43Z,2025-09-12T17:45:43Z,Cape Lisburne LRRS Airport,68.875099,-166.110001,US,US-AK
PAMB,"Manokotak Arpt, AK, US",2025-09-12T20:56:00Z,2025-09-12 12:56:00,VFR,9.4,-0.6,80,4,0,NA,1010.6,METAR PAMB 122056Z AUTO 08004KT 10SM CLR 09/M01 A2984 RMK AO2 SLP108 T00941006 50001,2025-09-12T21:45:42Z,2025-09-12T17:45:42Z,Manokotak Airport,58.932056,-158.901886,US,US-AK
PAMC,"McGrath Arpt, AK, US",2025-09-12T20:53:00Z,2025-09-12 12:53:00,VFR,7.8,-1.1,VAR,5,0,NA,1009.2,METAR PAMC 122053Z VRB05KT 10SM FEW038 08/M01 A2980 RMK AO2 SLP098 T00781011 51005 $,2025-09-12T21:45:43Z,2025-09-12T17:45:43Z,McGrath Airport,62.95289993,-155.6060028,US,US-AK
PAMC,"McGrath Arpt, AK, US",2025-09-12T21:53:00Z,2025-09-12 13:53:00,VFR,7.8,-1.1,0,0,0,NA,1009.2,METAR PAMC 122153Z 00000KT 10SM OVC044 08/M01 A2980 RMK AO2 SLP097 T00781011 $,2025-09-12T21:56:22Z,2025-09-12T17:56:22Z,McGrath Airport,62.95289993,-155.6060028,US,US-AK
PAMH,"Minchumina Arpt, AK, US",2025-09-12T20:56:00Z,2025-09-12 12:56:00,VFR,6.1,2.8,0,0,0,NA,1008.2,METAR PAMH 122056Z AUTO 00000KT 10SM SCT010 OVC045 06/03 A2977 RMK AO2 SLP085 T00610028 51006 TSNO,2025-09-12T21:45:42Z,2025-09-12T17:45:42Z,Minchumina Airport,63.886002,-152.302002,US,US-AK
PAMK,"St Michael Arpt, AK, US",2025-09-12T20:56:00Z,2025-09-12 12:56:00,VFR,NA,NA,320,9,0,NA,1011.6,METAR PAMK 122056Z AUTO 32009KT 10SM OVC033 A2987 RMK AO2 SLPNO 52010 FZRANO $,2025-09-12T21:45:42Z,2025-09-12T17:45:42Z,St Michael Airport,63.49010086,-162.1100006,US,US-AK
PAMM,"Metlakatla, AK, US",2025-09-12T20:56:00Z,2025-09-12 12:56:00,VFR,14.4,12.8,240,4,0,NA,1016.3,METAR PAMM 122056Z AUTO 24004KT 10SM SCT025 BKN048 OVC085 14/13 A3001 RMK AO2 SLP154 T01440128 50001 $,2025-09-12T21:45:43Z,2025-09-12T17:45:43Z,Metlakatla Seaplane Base,55.131001,-131.578003,US,US-AK
PAMO,"Mountain Village Arpt, AK, US",2025-09-12T20:56:00Z,2025-09-12 12:56:00,VFR,7.2,2.2,340,9,0,NA,1011.9,METAR PAMO 122056Z AUTO 34009KT 10SM SCT023 07/02 A2988 RMK AO2 SLP124 T00720022 51006,2025-09-12T21:45:43Z,2025-09-12T17:45:43Z,Mountain Village Airport,62.095401763916016,-163.6820068359375,US,US-AK
PAMR,"Anchorage/Merrill Fld, AK, US",2025-09-12T20:53:00Z,2025-09-12 12:53:00,VFR,7.8,6.1,40,5,0,NA,1004.5,METAR PAMR 122053Z 04005KT 10SM -RA SCT029 BKN042 OVC049 08/06 A2966 RMK AO2 SLP044 P0002 60017 T00780061 50002,2025-09-12T21:45:43Z,2025-09-12T17:45:43Z,Merrill Field,61.212792,-149.843988,US,US-AK
PAMR,"Anchorage/Merrill Fld, AK, US",2025-09-12T21:53:00Z,2025-09-12 13:53:00,VFR,7.8,6.1,340,6,0,NA,1004.5,METAR PAMR 122153Z 34006KT 10SM FEW010 SCT030 OVC050 08/06 A2966 RMK AO2 RAE07 SLP044 P0000 T00780061,2025-09-12T21:56:22Z,2025-09-12T17:56:22Z,Merrill Field,61.212792,-149.843988,US,US-AK
PAMY,"Mekoryuk Arpt, AK, US",2025-09-12T20:56:00Z,2025-09-12 12:56:00,VFR,8.3,5.6,80,8,0,NA,1011.6,METAR PAMY 122056Z AUTO 08008KT 10SM BKN055 OVC080 08/06 A2987 RMK AO2 SLP114 60000 T00830056 51007,2025-09-12T21:45:42Z,2025-09-12T17:45:42Z,Mekoryuk Airport,60.372338,-166.269751,US,US-AK
PANA,"Napakiak Arpt, AK, US",2025-09-12T21:23:00Z,2025-09-12 13:23:00,MVFR,8,3,VAR,3,0,4,1011.9,SPECI PANA 122123Z AUTO VRB03KT 4SM HZ SCT017 OVC041 08/03 A2988 RMK AO2 TSNO,2025-09-12T21:45:42Z,2025-09-12T17:45:42Z,Napakiak Airport,60.6903,-161.979004,US,US-AK
PANC,"Anchorage Intl, AK, US",2025-09-12T20:53:00Z,2025-09-12 12:53:00,VFR,7.2,6.1,50,6,0,NA,1004.5,METAR PANC 122053Z 05006KT 10SM -RA FEW030 BKN060 OVC080 07/06 A2966 RMK AO2 SLP043 P0003 60009 T00720061 51006,2025-09-12T21:45:43Z,2025-09-12T17:45:43Z,Ted Stevens Anchorage International Airport,61.179004,-149.992561,US,US-AK
PANC,"Anchorage Intl, AK, US",2025-09-12T21:53:00Z,2025-09-12 13:53:00,VFR,7.2,5.6,360,4,0,NA,1004.5,METAR PANC 122153Z 36004KT 10SM -RA FEW005 BKN050 OVC080 07/06 A2966 RMK AO2 SLP045 P0002 T00720056,2025-09-12T21:56:22Z,2025-09-12T17:56:22Z,Ted Stevens Anchorage International Airport,61.179004,-149.992561,US,US-AK
PANI,"Aniak Arpt, AK, US",2025-09-12T21:05:00Z,2025-09-12 13:05:00,MVFR,8,2,290,5,0,NA,1010.2,SPECI PANI 122105Z AUTO 29005KT 10SM BKN030 BKN038 08/02 A2983 RMK AO2 $,2025-09-12T21:45:42Z,2025-09-12T17:45:42Z,Aniak Airport,61.581600189208984,-159.54299926757812,US,US-AK
PANN,"Nenana Muni, AK, US",2025-09-12T21:07:00Z,2025-09-12 13:07:00,MVFR,7.2,3.9,200,3,0,NA,1007.9,SPECI PANN 122107Z AUTO 20003KT 10SM SCT017 BKN023 OVC090 07/04 A2976 RMK AO2 T00720039 TSNO,2025-09-12T21:45:42Z,2025-09-12T17:45:42Z,Nenana Municipal Airport,64.548772,-149.074516,US,US-AK
PANN,"Nenana Muni, AK, US",2025-09-12T21:53:00Z,2025-09-12 13:53:00,VFR,7.8,3.3,0,0,0,NA,1008.2,METAR PANN 122153Z AUTO 00000KT 10SM FEW020 SCT027 OVC041 08/03 A2977 RMK AO2 SLP089 T00780033 TSNO,2025-09-12T21:56:22Z,2025-09-12T17:56:22Z,Nenana Municipal Airport,64.548772,-149.074516,US,US-AK
PANU,"Nulato Arpt, AK, US",2025-09-12T20:56:00Z,2025-09-12 12:56:00,VFR,6.1,-2.8,270,9,0,NA,1010.2,METAR PANU 122056Z AUTO 27009KT 10SM BKN037 06/M03 A2983 RMK AO2 SLP010 T00611028 53012,2025-09-12T21:45:42Z,2025-09-12T17:45:42Z,Nulato Airport,64.729301,-158.074005,US,US-AK
PANV,"Anvik Arpt, AK, US",2025-09-12T21:06:00Z,2025-09-12 13:06:00,VFR,7,1,300,4,0,NA,1009.9,SPECI PANV 122106Z AUTO 30004KT 10SM SCT027 BKN034 07/01 A2982 RMK AO2 TSNO,2025-09-12T21:45:42Z,2025-09-12T17:45:42Z,Anvik Airport,62.646702,-160.190994,US,US-AK
PANW,"New Stuyahok Arpt, AK, US",2025-09-12T20:56:00Z,2025-09-12 12:56:00,VFR,8.3,0.6,20,9,0,NA,1010.2,METAR PANW 122056Z AUTO 02009KT 10SM OVC049 08/01 A2983 RMK AO2 SLP109 T00830006 51001,2025-09-12T21:45:43Z,2025-09-12T17:45:43Z,New Stuyahok Airport,59.451838,-157.373829,US,US-AK
PAOH,"Hoonah, AK, US",2025-09-12T20:56:00Z,2025-09-12 12:56:00,VFR,16.7,10.6,130,7,0,NA,1013.3,METAR PAOH 122056Z AUTO 13007KT 110V180 10SM FEW046 17/11 A2992 RMK AO2 SLP134 T01670106 51007,2025-09-12T21:45:42Z,2025-09-12T17:45:42Z,Hoonah Airport,58.0961,-135.410111,US,US-AK
PAOM,"Nome Arpt, AK, US",2025-09-12T20:53:00Z,2025-09-12 12:53:00,VFR,6.7,-1.1,0,0,0,NA,1010.9,METAR PAOM 122053Z 00000KT 10SM SCT041 07/M01 A2985 RMK AO2 SLP110 T00671011 51006,2025-09-12T21:45:43Z,2025-09-12T17:45:43Z,Nome Airport,64.51219940185547,-165.44500732421875,US,US-AK
PAOM,"Nome Arpt, AK, US",2025-09-12T21:53:00Z,2025-09-12 13:53:00,VFR,7.2,0,250,10,0,NA,1011.3,METAR PAOM 122153Z 25010KT 10SM OVC043 07/00 A2986 RMK AO2 SLP110 T00720000,2025-09-12T21:56:22Z,2025-09-12T17:56:22Z,Nome Airport,64.51219940185547,-165.44500732421875,US,US-AK
PAOO,"Tooksok Bay Arpt, AK, US",2025-09-12T20:56:00Z,2025-09-12 12:56:00,VFR,7.8,3.3,150,4,0,NA,1012.6,METAR PAOO 122056Z AUTO 15004KT 10SM BKN095 OVC120 08/03 A2990 RMK AO2 SLP130 T00780033 50003 TSNO $,2025-09-12T21:45:43Z,2025-09-12T17:45:43Z,Toksook Bay Airport,60.541401,-165.087006,US,US-AK
PAOR,"Northway Arpt, AK, US",2025-09-12T20:53:00Z,2025-09-12 12:53:00,MVFR,8.9,4.4,VAR,3,0,NA,1005.5,METAR PAOR 122053Z VRB03KT 10SM OVC012 09/04 A2969 RMK AO2 SLP065 6//// T00890044 51008 PNO $,2025-09-12T21:45:43Z,2025-09-12T17:45:43Z,Northway Airport,62.9613,-141.929001,US,US-AK
PAOR,"Northway Arpt, AK, US",2025-09-12T21:53:00Z,2025-09-12 13:53:00,MVFR,8.9,4.4,0,0,0,NA,1005.8,METAR PAOR 122153Z 00000KT 10SM OVC014 09/04 A2970 RMK AO2 SLP067 T00890044 PNO $,2025-09-12T21:56:22Z,2025-09-12T17:56:22Z,Northway Airport,62.9613,-141.929001,US,US-AK
PAOT,"Kotzebue/Wien Mem, AK, US",2025-09-12T20:53:00Z,2025-09-12 12:53:00,VFR,3.3,-2.2,320,7,0,NA,1007.9,METAR PAOT 122053Z 32007KT 10SM CLR 03/M02 A2976 RMK AO2 SLP079 T00331022 53013 $,2025-09-12T21:45:43Z,2025-09-12T17:45:43Z,Ralph Wien Memorial Airport,66.88469696,-162.598999,US,US-AK
PAOT,"Kotzebue/Wien Mem, AK, US",2025-09-12T21:53:00Z,2025-09-12 13:53:00,VFR,4.4,-2.2,320,6,0,NA,1008.2,METAR PAOT 122153Z 32006KT 10SM CLR 04/M02 A2977 RMK AO2 SLP081 T00441022 $,2025-09-12T21:56:22Z,2025-09-12T17:56:22Z,Ralph Wien Memorial Airport,66.88469696,-162.598999,US,US-AK
PAOU,"Nelson Lagoon Arpt, AK, US",2025-09-12T20:56:00Z,2025-09-12 12:56:00,VFR,10.6,5.6,280,8,0,NA,1012.6,METAR PAOU 122056Z AUTO 28008KT 10SM SCT020 11/06 A2990 RMK AO2 SLP126 T01060056 52002,2025-09-12T21:45:42Z,2025-09-12T17:45:42Z,Nelson Lagoon Airport,56.0075,-161.160004,US,US-AK
PAPB,"St George Arpt, AK, US",2025-09-12T20:53:00Z,2025-09-12 12:53:00,VFR,8.9,5.6,210,6,0,NA,1013,METAR PAPB 122053Z AUTO 21006KT 10SM OVC037 09/06 A2991 RMK AO2 SLP118 6//// T00890056 TSNO $,2025-09-12T21:45:43Z,2025-09-12T17:45:43Z,St George Airport,56.577345,-169.663823,US,US-AK
PAPB,"St George Arpt, AK, US",2025-09-12T21:53:00Z,2025-09-12 13:53:00,VFR,9.4,5.6,200,7,0,NA,1013.3,METAR PAPB 122153Z AUTO 20007KT 10SM OVC038 09/06 A2992 RMK AO2 SLP119 T00940056 TSNO $,2025-09-12T21:56:22Z,2025-09-12T17:56:22Z,St George Airport,56.577345,-169.663823,US,US-AK
PAPE,"Perryville Arpt, AK, US",2025-09-12T20:56:00Z,2025-09-12 12:56:00,VFR,12.2,3.9,180,8,0,9,1011.6,METAR PAPE 122056Z AUTO 18008KT 9SM BKN042 12/04 A2987 RMK AO2 SLP113 T01220039 58017,2025-09-12T21:45:42Z,2025-09-12T17:45:42Z,Perryville Airport,55.9065,-159.16091,US,US-AK
PAPG,"Petersburg Arpt, AK, US",2025-09-12T21:16:00Z,2025-09-12 13:16:00,VFR,16,12,70,3,0,NA,1015.3,SPECI PAPG 122116Z 07003KT 10SM SCT028 BKN060 BKN075 16/12 A2998 RMK AO2 RAE13 P0000,2025-09-12T21:45:42Z,2025-09-12T17:45:42Z,Petersburg James A Johnson Airport,56.80170059,-132.9450073,US,US-AK
PAPH,"Port Heiden Arpt, AK, US",2025-09-12T21:40:00Z,2025-09-12 13:40:00,VFR,9,9,350,7,0,7,1011.6,SPECI PAPH 122140Z AUTO 35007KT 7SM -RA FEW015 BKN031 OVC038 09/09 A2987 RMK AO2 RAB2059 P0004 $,2025-09-12T21:45:42Z,2025-09-12T17:45:42Z,Port Heiden Airport,56.957893,-158.630219,US,US-AK
PAPM,"Platinum Arpt, AK, US",2025-09-12T21:27:00Z,2025-09-12 13:27:00,VFR,9,3,330,4,0,NA,1011.6,SPECI PAPM 122127Z AUTO 33004KT 10SM SCT025 09/03 A2987 RMK AO2 TSNO,2025-09-12T21:45:42Z,2025-09-12T17:45:42Z,Platinum Airport,59.017675,-161.827927,US,US-AK
PAPN,"Pilot Point Arpt, AK, US",2025-09-12T20:56:00Z,2025-09-12 12:56:00,VFR,8.3,1.1,60,4,0,7,1010.6,METAR PAPN 122056Z AUTO 06004KT 7SM BKN034 OVC041 08/01 A2984 RMK AO2 SLP103 6//// T00830011 51005 PNO $,2025-09-12T21:45:42Z,2025-09-12T17:45:42Z,Pilot Point Airport,57.580399,-157.572006,US,US-AK
PAQH,"Quinhagak Arpt, AK, US",2025-09-12T20:56:00Z,2025-09-12 12:56:00,VFR,7.8,2.2,0,0,0,NA,1012.3,METAR PAQH 122056Z AUTO 00000KT 10SM BKN033 08/02 A2989 RMK AO2 SLP122 T00780022 51003,2025-09-12T21:45:42Z,2025-09-12T17:45:42Z,Quinhagak Airport,59.7551,-161.845,US,US-AK
PAQT,"Nuiqsut Arpt, AK, US",2025-09-12T20:53:00Z,2025-09-12 12:53:00,IFR,1.7,-0.6,210,9,0,NA,1006.5,METAR PAQT 122053Z AUTO 21009KT 10SM BKN006 OVC080 02/M01 A2972 RMK AO2 RAE08 SLP066 P0000 60000 T00171006 52010 TSNO $,2025-09-12T21:45:43Z,2025-09-12T17:45:43Z,Nuiqsut Airport,70.209999,-151.005998,US,US-AK
PAQT,"Nuiqsut Arpt, AK, US",2025-09-12T21:53:00Z,2025-09-12 13:53:00,VFR,3.3,-0.6,210,9,0,NA,1006.9,METAR PAQT 122153Z AUTO 21009KT 10SM SCT009 BKN090 03/M01 A2973 RMK AO2 SLP067 T00331006 TSNO $,2025-09-12T21:56:22Z,2025-09-12T17:56:22Z,Nuiqsut Airport,70.209999,-151.005998,US,US-AK
PARC,"Arctic Village Arpt, AK, US",2025-09-12T21:36:00Z,2025-09-12 13:36:00,MVFR,6,2,180,9,15,NA,1003.5,SPECI PARC 122136Z AUTO 18009G15KT 10SM OVC018 06/02 A2963 RMK AO2 TSNO,2025-09-12T21:45:42Z,2025-09-12T17:45:42Z,Arctic Village Airport,68.1147,-145.578995,US,US-AK
PARS,"Russian Mission Arpt, AK, US",2025-09-12T20:56:00Z,2025-09-12 12:56:00,VFR,8.3,2.8,VAR,3,0,NA,1010.9,METAR PARS 122056Z AUTO VRB03KT 10SM CLR 08/03 A2985 RMK AO2 SLP111 6//// T00830028 51003 PNO $,2025-09-12T21:45:42Z,2025-09-12T17:45:42Z,Russian Mission Airport,61.775071,-161.319466,US,US-AK
PARY,"Ruby Arpt, AK, US",2025-09-12T20:56:00Z,2025-09-12 12:56:00,VFR,4.4,0,VAR,3,0,NA,1008.9,METAR PARY 122056Z AUTO VRB03KT 10SM FEW015 OVC039 04/00 A2979 RMK AO2 SLP096 T00440000 53012 TSNO,2025-09-12T21:45:42Z,2025-09-12T17:45:42Z,Ruby Airport,64.727203,-155.470001,US,US-AK
PASA,"Savoonga Arpt, AK, US",2025-09-12T20:56:00Z,2025-09-12 12:56:00,VFR,7.2,3.3,160,9,0,NA,1011.9,METAR PASA 122056Z AUTO 16009KT 10SM OVC046 07/03 A2988 RMK AO2 SLP117 T00720033 51003 $,2025-09-12T21:45:42Z,2025-09-12T17:45:42Z,Savoonga Airport,63.686401,-170.492996,US,US-AK
PASC,"Deadhorse Arpt, AK, US",2025-09-12T21:19:00Z,2025-09-12 13:19:00,MVFR,1.1,0,240,11,0,9,1006.2,SPECI PASC 122119Z 24011KT 9SM -SN SCT006 OVC010 01/00 A2971 RMK AO2 CIG 008V012 P0000 T00110000 $,2025-09-12T21:45:42Z,2025-09-12T17:45:42Z,Deadhorse Airport,70.19470215,-148.4649963,US,US-AK
PASC,"Deadhorse Arpt, AK, US",2025-09-12T21:53:00Z,2025-09-12 13:53:00,MVFR,1.7,0,240,9,0,9,1006.5,METAR PASC 122153Z 24009KT 9SM -SN SCT006 BKN010 OVC060 02/00 A2972 RMK AO2 SLP063 CIG 008V012 CIG LWR NW-E P0000 T00170000 $,2025-09-12T21:56:22Z,2025-09-12T17:56:22Z,Deadhorse Airport,70.19470215,-148.4649963,US,US-AK
PASD,"Sand Point Arpt, AK, US",2025-09-12T20:56:00Z,2025-09-12 12:56:00,VFR,11.1,4.4,340,6,0,NA,1012.3,METAR PASD 122056Z 34006KT 10SM FEW032 SCT040 BKN065 11/04 A2989 RMK AO2 SLP124 T01110044 56002 $,2025-09-12T21:45:42Z,2025-09-12T17:45:42Z,Sand Point Airport,55.313908,-160.522099,US,US-AK
PASH,"Shishmaref Arpt, AK, US",2025-09-12T21:15:00Z,2025-09-12 13:15:00,VFR,5,1,350,8,0,NA,1010.9,SPECI PASH 122115Z AUTO 35008KT 10SM SCT023 BKN034 05/01 A2985 RMK AO2,2025-09-12T21:45:42Z,2025-09-12T17:45:42Z,Shishmaref Airport,66.249604,-166.089112,US,US-AK
PASI,"Sitka/Gutierrez Arpt, AK, US",2025-09-12T20:56:00Z,2025-09-12 12:56:00,VFR,16,9,170,5,0,NA,1013.3,METAR PASI 122056Z 17005KT 10SM -RA FEW035 BKN047 BKN055 16/09 A2992,2025-09-12T21:45:42Z,2025-09-12T17:45:42Z,Sitka Rocky Gutierrez Airport,57.04710006713867,-135.36199951171875,US,US-AK
PASL,"Sleetmute Arpt, AK, US",2025-09-12T20:56:00Z,2025-09-12 12:56:00,VFR,8.3,1.1,VAR,3,0,NA,1010.9,METAR PASL 122056Z AUTO VRB03KT 10SM BKN043 08/01 A2985 RMK AO2 SLP099 T00830011 52001,2025-09-12T21:45:42Z,2025-09-12T17:45:42Z,Sleetmute Airport,61.7005,-157.166,US,US-AK
PASM,"St Marys Arpt, AK, US",2025-09-12T21:20:00Z,2025-09-12 13:20:00,VFR,8,2,340,9,0,NA,1011.9,SPECI PASM 122120Z AUTO 34009KT 10SM SCT023 SCT029 08/02 A2988 RMK AO2,2025-09-12T21:45:42Z,2025-09-12T17:45:42Z,St Mary's Airport,62.060501,-163.302002,US,US-AK
PASN,"St Paul Island Arpt, AK, US",2025-09-12T20:53:00Z,2025-09-12 12:53:00,VFR,11.1,6.1,230,12,0,NA,1012.3,METAR PASN 122053Z AUTO 23012KT 10SM OVC044 11/06 A2989 RMK AO2 SLP121 T01110061 50003 TSNO $,2025-09-12T21:45:43Z,2025-09-12T17:45:43Z,St Paul Island Airport,57.166311,-170.222555,US,US-AK
PASO,"Seldovia Arpt, AK, US",2025-09-12T20:53:00Z,2025-09-12 12:53:00,VFR,12.2,9.4,VAR,3,0,NA,1004.1,METAR PASO 122053Z AUTO VRB03KT 10SM OVC047 12/09 A2965 RMK AO2 SLP041 T01220094 51006 TSNO $,2025-09-12T21:45:43Z,2025-09-12T17:45:43Z,Seldovia Airport,59.442981,-151.705227,US,US-AK
PASO,"Seldovia Arpt, AK, US",2025-09-12T21:53:00Z,2025-09-12 13:53:00,VFR,11.7,8.3,0,0,0,NA,1004.8,METAR PASO 122153Z AUTO 00000KT 10SM OVC033 12/08 A2967 RMK AO2 SLP046 T01170083 TSNO $,2025-09-12T21:56:22Z,2025-09-12T17:56:22Z,Seldovia Airport,59.442981,-151.705227,US,US-AK
PASV,"Sparrevohn Arpt, AK, US",2025-09-12T20:55:00Z,2025-09-12 12:55:00,MVFR,4,-0.1,VAR,5,0,NA,1007.5,METAR PASV 122055Z AUTO VRB05KT 10SM BKN018 04/00 A2975 RMK AO2 SLP089 T00401001 52006,2025-09-12T21:45:43Z,2025-09-12T17:45:43Z,Sparrevohn LRRS Airport,61.09740067,-155.5740051,US,US-AK
PASX,"Soldotna Arpt, AK, US",2025-09-12T20:56:00Z,2025-09-12 12:56:00,VFR,8.3,5,90,5,0,NA,1005.2,METAR PASX 122056Z AUTO 09005KT 10SM OVC048 08/05 A2968 RMK AO2 SLP055 T00830050 51009 TSNO,2025-09-12T21:45:42Z,2025-09-12T17:45:42Z,Soldotna Airport,60.474935,-151.038471,US,US-AK
PASY,"Shemya/Eareckson Arpt, AK, US",2025-09-12T20:55:00Z,2025-09-12 11:55:00,MVFR,12.3,9.7,340,14,0,NA,1015.3,METAR PASY 122055Z AUTO 34014KT 10SM OVC023 12/10 A2998 RMK AO2 SLP155 T01230097 52020 FZRANO $,2025-09-12T21:45:43Z,2025-09-12T17:45:43Z,Eareckson Air Station,52.71229935,174.1139984,US,US-AK
PATA,"Tanana/Calhoun Mem, AK, US",2025-09-12T20:52:00Z,2025-09-12 12:52:00,VFR,8.9,3.3,0,0,0,NA,1008.5,METAR PATA 122052Z 00000KT 10SM FEW027 OVC055 09/03 A2978 RMK AO2 SLP089 T00890033 51008 $,2025-09-12T21:45:43Z,2025-09-12T17:45:43Z,Ralph M Calhoun Memorial Airport,65.1744,-152.108994,US,US-AK
PATA,"Tanana/Calhoun Mem, AK, US",2025-09-12T21:52:00Z,2025-09-12 13:52:00,VFR,10.6,2.8,VAR,3,0,NA,1008.9,METAR PATA 122152Z VRB03KT 10SM BKN050 11/03 A2979 RMK AO2 SLP090 T01060028 $,2025-09-12T21:56:22Z,2025-09-12T17:56:22Z,Ralph M Calhoun Memorial Airport,65.1744,-152.108994,US,US-AK
PATE,"Teller Arpt, AK, US",2025-09-12T20:56:00Z,2025-09-12 12:56:00,VFR,4.4,1.1,340,5,0,NA,1011.3,METAR PATE 122056Z AUTO 34005KT 10SM OVC047 04/01 A2986 RMK AO2 SLP114 T00440011 51008 TSNO,2025-09-12T21:45:42Z,2025-09-12T17:45:42Z,Teller Airport,65.2404022217,-166.339004517,US,US-AK
PATG,"Togiak Arpt, AK, US",2025-09-12T20:56:00Z,2025-09-12 12:56:00,VFR,8.9,2.8,VAR,3,0,NA,1011.3,METAR PATG 122056Z AUTO VRB03KT 10SM BKN031 09/03 A2986 RMK AO2 SLP111 T00890028 58001,2025-09-12T21:45:42Z,2025-09-12T17:45:42Z,Togiak Airport,59.052799,-160.397003,US,US-AK
PATK,"Talkeetna Arpt, AK, US",2025-09-12T21:00:00Z,2025-09-12 13:00:00,MVFR,7.8,7.2,VAR,3,0,NA,1004.5,SPECI PATK 122100Z VRB03KT 10SM -RA SCT004 BKN012 OVC060 08/07 A2966 RMK AO2 P0000 T00780072 $,2025-09-12T21:45:42Z,2025-09-12T17:45:42Z,Talkeetna Airport,62.320499420166,-150.09399414062,US,US-AK
PATK,"Talkeetna Arpt, AK, US",2025-09-12T21:53:00Z,2025-09-12 13:53:00,VFR,7.8,7.2,0,0,0,7,1004.5,METAR PATK 122153Z 00000KT 7SM -RA SCT006 OVC032 08/07 A2966 RMK AO2 SLP048 P0003 T00780072 $,2025-09-12T21:56:22Z,2025-09-12T17:56:22Z,Talkeetna Airport,62.320499420166,-150.09399414062,US,US-AK
PATL,"Tatalina Arpt, AK, US",2025-09-12T20:55:00Z,2025-09-12 12:55:00,VFR,5.9,-1.8,VAR,1,0,NA,1009.9,METAR PATL 122055Z AUTO VRB01KT 10SM BKN037 06/M02 A2982 RMK AO2 SLP105 T00591018 52006,2025-09-12T21:45:43Z,2025-09-12T17:45:43Z,Tatalina LRRS Airport,62.8944015503,-155.977005005,US,US-AK
PATQ,"Atqasuk/Burnell Mem, AK, US",2025-09-12T21:39:00Z,2025-09-12 13:39:00,IFR,2,1,210,3,0,2,1003.5,SPECI PATQ 122139Z AUTO 21003KT 2SM UP BR BKN007 02/01 A2963 RMK AO2 UPB20 CIG 004V008 P0000 FZRANO TSNO,2025-09-12T21:45:42Z,2025-09-12T17:45:42Z,Atqasuk Edward Burnell Sr Memorial Airport,70.46704,-157.436013,US,US-AK
PATQ,"Atqasuk/Burnell Mem, AK, US",2025-09-12T21:49:00Z,2025-09-12 13:49:00,IFR,1,1,210,4,0,1,1003.8,SPECI PATQ 122149Z AUTO 21004KT 1SM BR BKN005 OVC012 01/01 A2964 RMK AO2 UPB20E44 CIG 004V008 P0000 FZRANO TSNO,2025-09-12T21:56:22Z,2025-09-12T17:56:22Z,Atqasuk Edward Burnell Sr Memorial Airport,70.46704,-157.436013,US,US-AK
PAUN,"Unalakleet Arpt, AK, US",2025-09-12T20:56:00Z,2025-09-12 12:56:00,VFR,5,0,290,3,0,NA,1011.3,METAR PAUN 122056Z AUTO 29003KT 10SM CLR 05/00 A2986 RMK AO2 SLP114 T00500000 51012,2025-09-12T21:45:42Z,2025-09-12T17:45:42Z,Unalakleet Airport,63.888401,-160.798996,US,US-AK
PAVA,"Chevak Arpt, AK, US",2025-09-12T20:56:00Z,2025-09-12 12:56:00,VFR,9.4,2.8,100,4,0,NA,1013,METAR PAVA 122056Z AUTO 10004KT 10SM SCT033 09/03 A2991 RMK AO2 SLP127 T00940028 51005,2025-09-12T21:45:42Z,2025-09-12T17:45:42Z,Chevak Airport,61.5409,-165.6005,US,US-AK
PAVC,"King Cove Arpt, AK, US",2025-09-12T20:56:00Z,2025-09-12 12:56:00,NA,11.1,5.6,250,9,0,NA,1013,METAR PAVC 122056Z AUTO 25009KT 180V270 BKN044 11/06 A2991 RMK AO2 SLP129 T01110056 58003 PWINO $,2025-09-12T21:45:42Z,2025-09-12T17:45:42Z,King Cove Airport,55.116299,-162.266006,US,US-AK
PAVD,"Valdez Arpt, AK, US",2025-09-12T20:56:00Z,2025-09-12 12:56:00,VFR,11.1,10.6,0,0,0,NA,1006.2,METAR PAVD 122056Z 00000KT 10SM FEW007 OVC065 11/11 A2971 RMK AO2 SLP058 T01110106 53003 $,2025-09-12T21:45:42Z,2025-09-12T17:45:42Z,Valdez Pioneer Field,61.132712,-146.246567,US,US-AK
PAWD,"Seward Arpt, AK, US",2025-09-12T20:53:00Z,2025-09-12 12:53:00,VFR,10.6,6.1,10,16,27,NA,1001.8,METAR PAWD 122053Z AUTO 01016G27KT 10SM -RA OVC060 11/06 A2958 RMK AO2 PK WND 36033/2026 RAB46 SLP016 P0000 60000 T01060061 53008 TSNO $,2025-09-12T21:45:43Z,2025-09-12T17:45:43Z,Seward Airport,60.130478,-149.418612,US,US-AK
PAWD,"Seward Arpt, AK, US",2025-09-12T21:53:00Z,2025-09-12 13:53:00,VFR,10,5.6,10,18,33,NA,1002.1,METAR PAWD 122153Z AUTO 01018G33KT 10SM OVC065 10/06 A2959 RMK AO2 PK WND 36034/2139 RAE2058 SLP019 P0000 T01000056 TSNO $,2025-09-12T21:56:22Z,2025-09-12T17:56:22Z,Seward Airport,60.130478,-149.418612,US,US-AK
PAWG,"Wrangell Arpt, AK, US",2025-09-12T20:56:00Z,2025-09-12 12:56:00,VFR,13.3,11.7,0,0,0,NA,1015.3,METAR PAWG 122056Z 00000KT 10SM FEW010 SCT038 BKN060 13/12 A2998 RMK AO2 SLP154 6//// T01330117 50002 PNO $,2025-09-12T21:45:42Z,2025-09-12T17:45:42Z,Wrangell Airport,56.48429871,-132.3699951,US,US-AK
PAWM,"White Mouintain Arpt, AK, US",2025-09-12T20:56:00Z,2025-09-12 12:56:00,VFR,5,-2.8,320,11,0,9,1010.9,METAR PAWM 122056Z AUTO 32011KT 9SM OVC036 05/M03 A2985 RMK AO2 SLP110 6//// T00501028 51007 PNO $,2025-09-12T21:45:43Z,2025-09-12T17:45:43Z,White Mountain Airport,64.689201,-163.412994,US,US-AK
PAWN,"Noatak Arpt, AK, US",2025-09-12T20:56:00Z,2025-09-12 12:56:00,VFR,3.9,-2.8,330,5,0,NA,NA,METAR PAWN 122056Z AUTO 33005KT 10SM BKN044 04/M03 RMK AO2 SLPNO T00391028 $,2025-09-12T21:45:42Z,2025-09-12T17:45:42Z,Noatak Airport,67.561241,-162.980461,US,US-AK
PAWS,"Wasilla Arpt, AK, US",2025-09-12T20:56:00Z,2025-09-12 12:56:00,LIFR,7.8,7.2,0,0,0,NA,1004.8,METAR PAWS 122056Z AUTO 00000KT 10SM OVC004 08/07 A2967 RMK AO2 RAE41 SLP051 P0000 60006 T00780072 51009,2025-09-12T21:45:43Z,2025-09-12T17:45:43Z,Wasilla Airport,61.571701,-149.539993,US,US-AK
PAYA,"Yakutat Arpt, AK, US",2025-09-12T21:20:00Z,2025-09-12 13:20:00,IFR,12.2,11.7,130,15,26,6,1008.5,SPECI PAYA 122120Z AUTO 13015G26KT 6SM -RA BR OVC009 12/12 A2978 RMK AO2 PK WND 13026/2118 CIG 005V013 P0008 T01220117 TSNO $,2025-09-12T21:45:42Z,2025-09-12T17:45:42Z,Yakutat Airport,59.508717,-139.660435,US,US-AK
PAYA,"Yakutat Arpt, AK, US",2025-09-12T21:53:00Z,2025-09-12 13:53:00,IFR,12.8,11.7,130,13,28,NA,1008.5,METAR PAYA 122153Z AUTO 13013G28KT 10SM -RA BKN009 OVC017 13/12 A2978 RMK AO2 PK WND 14028/2148 SLP086 P0013 T01280117 TSNO $,2025-09-12T21:56:22Z,2025-09-12T17:56:22Z,Yakutat Airport,59.508717,-139.660435,US,US-AK
PFCB,"Chenega Bay Arpt, AK, US",2025-09-12T21:30:00Z,2025-09-12 13:30:00,VFR,15.1,14.1,10,4,0,NA,1001.8,METAR PFCB 122130Z AUTO 01004KT 10SM DZ SCT023 SCT040 OVC050 15/14 A2958 RMK AO2 P0001 T01510141,2025-09-12T21:45:42Z,2025-09-12T17:45:42Z,Chenega Bay Airport,60.077602,-147.99468,US,US-AK
PFCL,"Clarks Point Arpt, AK, US",2025-09-12T20:56:00Z,2025-09-12 12:56:00,VFR,8.9,2.2,VAR,NA,0,NA,1010.6,METAR PFCL 122056Z AUTO 10SM CLR 09/02 A2984 RMK AO2 SLP098 T00890022 50001 $,2025-09-12T21:45:43Z,2025-09-12T17:45:43Z,Clarks Point Airport,58.833698,-158.529007,US,US-AK
PFEL,"Elim Arpt, AK, US",2025-09-12T20:56:00Z,2025-09-12 12:56:00,VFR,6.1,-3.3,360,9,0,NA,1009.6,METAR PFEL 122056Z AUTO 36009KT 10SM CLR 06/M03 A2981 RMK AO2 SLP097 T00611033 58001 TSNO,2025-09-12T21:45:43Z,2025-09-12T17:45:43Z,Elim Airport,64.6147,-162.272003,US,US-AK
PFKO,"Kotlik Arpt, AK, US",2025-09-12T21:42:00Z,2025-09-12 13:42:00,VFR,8,1,110,5,0,7,NA,SPECI PFKO 122142Z AUTO 11005KT 7SM OVC033 08/01 RMK AO2 $,2025-09-12T21:45:42Z,2025-09-12T17:45:42Z,Kotlik Airport,63.030602,-163.533005,US,US-AK
PFKT,"Brevig Mission Arpt, AK, US",2025-09-12T21:42:00Z,2025-09-12 13:42:00,MVFR,6,2,230,5,0,NA,1011.6,SPECI PFKT 122142Z AUTO 23005KT 10SM OVC030 06/02 A2987 RMK AO2,2025-09-12T21:45:42Z,2025-09-12T17:45:42Z,Brevig Mission Airport,65.331826,-166.467848,US,US-AK
PFNO,"Noorvik/Curtis Mem, AK, US",2025-09-12T20:56:00Z,2025-09-12 12:56:00,VFR,3.9,-1.7,0,0,0,NA,1008.2,METAR PFNO 122056Z AUTO 00000KT 10SM FEW044 04/M02 A2977 RMK AO2 SLP082 T00391017 51013 $,2025-09-12T21:45:42Z,2025-09-12T17:45:42Z,Robert (Bob) Curtis Memorial Airport,66.817902,-161.018997,US,US-AK
PFSH,"Shaktoolik Arpt, AK, US",2025-09-12T20:56:00Z,2025-09-12 12:56:00,VFR,5,-0.6,50,6,0,NA,1011.3,METAR PFSH 122056Z AUTO 05006KT 10SM OVC035 05/M01 A2986 RMK AO2 SLP110 6//// T00501006 51010 TSNO PNO $,2025-09-12T21:45:43Z,2025-09-12T17:45:43Z,Shaktoolik Airport,64.371101,-161.223999,US,US-AK
PFTO,"Tok Junction Arpt, AK, US",2025-09-12T20:56:00Z,2025-09-12 12:56:00,MVFR,7.8,1.1,VAR,5,0,NA,1006.5,METAR PFTO 122056Z AUTO VRB05KT 10SM OVC026 08/01 A2972 RMK AO2 SLP712 T00780011 53008 $,2025-09-12T21:45:43Z,2025-09-12T17:45:43Z,Tok Junction Airport,63.32949829,-142.9539948,US,US-AK
PFWS,"South Naknek Arpt, AK, US",2025-09-12T20:56:00Z,2025-09-12 12:56:00,VFR,8.3,2.2,330,7,0,NA,NA,METAR PFWS 122056Z AUTO 33007KT 10SM BKN049 08/02 RMK AO2 SLPNO T00830022 $,2025-09-12T21:45:42Z,2025-09-12T17:45:42Z,South Naknek Number 2 Airport,58.702362,-157.005444,US,US-AK
PFYU,"Fort Yukon Arpt, AK, US",2025-09-12T20:56:00Z,2025-09-12 12:56:00,VFR,7.2,1.1,230,5,0,NA,1007.5,METAR PFYU 122056Z 23005KT 10SM BKN075 07/01 A2975 RMK AO2 SLP084 T00720011 53014,2025-09-12T21:45:42Z,2025-09-12T17:45:42Z,Fort Yukon Airport,66.571651,-145.249987,US,US-AK
PHBK,"Kekaha/Barking Sands Arpt, HI, US",2025-09-12T20:53:00Z,2025-09-12 10:53:00,VFR,27.8,22.2,290,6,0,NA,1018,METAR PHBK 122053Z AUTO 29006KT 10SM -RA FEW040 SCT050 OVC060 28/22 A3006 RMK AO2 P0000 T02780222 $,2025-09-12T21:45:43Z,2025-09-12T17:45:43Z,Barking Sands Airport,22.0228,-159.785004,US,US-HI
PHBK,"Kekaha/Barking Sands Arpt, HI, US",2025-09-12T21:51:00Z,2025-09-12 11:51:00,VFR,28.9,21.7,340,8,0,NA,1017.7,METAR PHBK 122151Z AUTO 34008KT 10SM SCT060 BKN075 29/22 A3005 RMK AO2 RAE00 SLP178 P0000 T02890217 $,2025-09-12T21:56:22Z,2025-09-12T17:56:22Z,Barking Sands Airport,22.0228,-159.785004,US,US-HI
PHHI,"Wheeler(AAF), HI, US",2025-09-12T20:55:00Z,2025-09-12 10:55:00,VFR,28.4,17.3,110,12,17,NA,1019.7,METAR PHHI 122055Z AUTO 11012G17KT 10SM FEW032 28/17 A3011 RMK AO2 SLP185 T02840173 50004 $,2025-09-12T21:45:43Z,2025-09-12T17:45:43Z,Wheeler Army Airfield,21.481637,-158.037048,US,US-HI
PHJR,"Kalaeloa Arpt, HI, US",2025-09-12T20:53:00Z,2025-09-12 10:53:00,VFR,31.1,18.9,80,8,17,NA,1018.7,METAR PHJR 122053Z 08008G17KT 10SM BKN041 31/19 A3008 RMK AO2 SLP191 T03110189 50003,2025-09-12T21:45:43Z,2025-09-12T17:45:43Z,Kalaeloa Airport,21.3074,-158.070009,US,US-HI
PHJR,"Kalaeloa Arpt, HI, US",2025-09-12T21:53:00Z,2025-09-12 11:53:00,VFR,31.1,18.3,70,11,20,NA,1018.4,METAR PHJR 122153Z 07011G20KT 020V090 10SM CLR 31/18 A3007 RMK AO2 SLP187 T03110183,2025-09-12T21:56:22Z,2025-09-12T17:56:22Z,Kalaeloa Airport,21.3074,-158.070009,US,US-HI
PHKO,"Keahole Point/Kona Intl, HI, US",2025-09-12T20:53:00Z,2025-09-12 10:53:00,VFR,29.4,23.3,250,8,0,NA,1017,METAR PHKO 122053Z 25008KT 10SM CLR 29/23 A3003 RMK AO2 SLP169 T02940233 50003,2025-09-12T21:45:43Z,2025-09-12T17:45:43Z,Ellison Onizuka Kona International Airport at Keahole,19.738783,-156.045603,US,US-HI
PHKO,"Keahole Point/Kona Intl, HI, US",2025-09-12T21:53:00Z,2025-09-12 11:53:00,VFR,30,23.3,260,12,0,NA,1017,METAR PHKO 122153Z 26012KT 10SM SCT040 30/23 A3003 RMK AO2 SLP166 T03000233,2025-09-12T21:56:22Z,2025-09-12T17:56:22Z,Ellison Onizuka Kona International Airport at Keahole,19.738783,-156.045603,US,US-HI
PHLI,"Lihue Arpt, HI, US",2025-09-12T20:53:00Z,2025-09-12 10:53:00,VFR,28.9,22.2,80,15,0,NA,1019.4,METAR PHLI 122053Z 08015KT 10SM FEW035 29/22 A3010 RMK AO2 RAB00E11 SLP188 P0000 60000 T02890222 50006,2025-09-12T21:45:43Z,2025-09-12T17:45:43Z,Lihue Airport,21.976,-159.339005,US,US-HI
PHLI,"Lihue Arpt, HI, US",2025-09-12T21:53:00Z,2025-09-12 11:53:00,VFR,29.4,22.2,90,13,0,NA,1019,METAR PHLI 122153Z 09013KT 10SM FEW024 OVC060 29/22 A3009 RMK AO2 SLP187 T02940222,2025-09-12T21:56:22Z,2025-09-12T17:56:22Z,Lihue Airport,21.976,-159.339005,US,US-HI
PHMK,"Molokai Arpt, HI, US",2025-09-12T20:54:00Z,2025-09-12 10:54:00,VFR,28.9,17.8,60,12,28,NA,1018.4,METAR PHMK 122054Z 06012G28KT 10SM FEW065 29/18 A3007 RMK AO2 PK WND 06028/2047 SLP182 T02890178 50002,2025-09-12T21:45:44Z,2025-09-12T17:45:44Z,Molokai Airport,21.152901,-157.095993,US,US-HI
PHMK,"Molokai Arpt, HI, US",2025-09-12T21:54:00Z,2025-09-12 11:54:00,VFR,28.9,17.8,60,13,24,NA,1018,METAR PHMK 122154Z 06013G24KT 10SM CLR 29/18 A3006 RMK AO2 SLP179 T02890178,2025-09-12T21:56:23Z,2025-09-12T17:56:23Z,Molokai Airport,21.152901,-157.095993,US,US-HI
PHNG,"Kaneohe Bay (MCAS), HI, US",2025-09-12T21:17:00Z,2025-09-12 11:17:00,MVFR,28.9,21.1,60,10,0,7,1018,METAR PHNG 122117Z 06010KT 7SM BKN029 29/21 A3006 RMK AO2 T02890211 $,2025-09-12T21:45:44Z,2025-09-12T17:45:44Z,Kaneohe Bay MCAS (Marion E. Carl Field) Airport,21.4505,-157.768005,US,US-HI
PHNL,"Honolulu Intl, HI, US",2025-09-12T20:53:00Z,2025-09-12 10:53:00,VFR,30.6,18.9,60,13,21,NA,1018.4,METAR PHNL 122053Z 06013G21KT 10SM FEW025 SCT040 31/19 A3007 RMK AO2 SLP183 T03060189 50003 $,2025-09-12T21:45:44Z,2025-09-12T17:45:44Z,Daniel K Inouye International Airport,21.32062,-157.924228,US,US-HI
PHNL,"Honolulu Intl, HI, US",2025-09-12T21:53:00Z,2025-09-12 11:53:00,VFR,30.6,18.9,60,15,24,NA,1018,METAR PHNL 122153Z 06015G24KT 10SM FEW025 SCT040 SCT200 31/19 A3006 RMK AO2 SLP180 T03060189 $,2025-09-12T21:56:23Z,2025-09-12T17:56:23Z,Daniel K Inouye International Airport,21.32062,-157.924228,US,US-HI
PHNY,"Lanai Arpt, HI, US",2025-09-12T20:56:00Z,2025-09-12 10:56:00,MVFR,25,20,210,5,0,NA,1020.4,METAR PHNY 122056Z AUTO 21005KT 10SM BKN021 OVC029 25/20 A3013 RMK AO2 SLP180 T02500200 58000 $,2025-09-12T21:45:44Z,2025-09-12T17:45:44Z,Lanai Airport,20.785675,-156.951324,US,US-HI
PHOG,"Kahului Arpt, HI, US",2025-09-12T20:54:00Z,2025-09-12 10:54:00,VFR,30.6,18.3,50,18,26,NA,1017.4,METAR PHOG 122054Z 05018G26KT 10SM FEW040 SCT055 31/18 A3004 RMK AO2 PK WND 04029/1959 SLP178 T03060183 58000,2025-09-12T21:45:44Z,2025-09-12T17:45:44Z,Kahului International Airport,20.896263,-156.431837,US,US-HI
PHSF,"Bradshaw(AAF), HI, US",2025-09-12T20:55:00Z,2025-09-12 10:55:00,VFR,23.4,13,260,11,0,NA,1029.5,METAR PHSF 122055Z AUTO 26011KT 10SM CLR 23/13 A3040 RMK AO2 SLP174 T02340130 50001 $,2025-09-12T21:45:44Z,2025-09-12T17:45:44Z,Bradshaw Army Airfield,19.760099,-155.554001,US,US-HI
PHTO,"Hilo Intl, HI, US",2025-09-12T20:53:00Z,2025-09-12 10:53:00,VFR,28.3,21.1,70,10,0,NA,1019,METAR PHTO 122053Z 07010KT 10SM SCT030 BKN050 28/21 A3009 RMK AO2 SLP186 T02830211 50002,2025-09-12T21:45:44Z,2025-09-12T17:45:44Z,Hilo International Airport,19.721399,-155.048004,US,US-HI
PHTO,"Hilo Intl, HI, US",2025-09-12T21:53:00Z,2025-09-12 11:53:00,VFR,28.3,20,80,13,19,NA,1018.7,METAR PHTO 122153Z 08013G19KT 10SM FEW031 BKN050 28/20 A3008 RMK AO2 SLP183 T02830200,2025-09-12T21:56:23Z,2025-09-12T17:56:23Z,Hilo International Airport,19.721399,-155.048004,US,US-HI
PPIZ,"Point Lay Arpt, AK, US",2025-09-12T21:15:00Z,2025-09-12 13:15:00,IFR,1,0,330,12,0,9,1008.2,SPECI PPIZ 122115Z AUTO 33012KT 9SM -SN BKN009 BKN018 OVC028 01/00 A2977 RMK AO2 CIG 005V014 P0000 FZRANO,2025-09-12T21:45:44Z,2025-09-12T17:45:44Z,Point Lay LRRS Airport,69.732903,-163.005005,US,US-AK
