icao,site,observed_utc,observed_local,flight_category,temp_c,dewpoint_c,wind_dir_deg,wind_kts,gust_kts,vis_sm,altimeter_hpa,raw_text,fetched_at_utc,fetched_at_local,site_name,site_lat,site_lon,country,region
CBBC,"Bella Bella Arpt, BC, CA",2025-09-12T04:29:00Z,2025-09-11 21:29:00,MVFR,16,15,VAR,2,0,9,1014.6,SPECI CBBC 120429Z AUTO VRB02KT 9SM -RA BKN022 BKN055 BKN068 OVC084 16/15 A2996 RMK SLP148,2025-09-12T04:59:53Z,2025-09-12T00:59:53Z,Bella Bella (Campbell Island) Airport,52.185001,-128.156994,CA,CA-BC
CBBC,"Bella Bella Arpt, BC, CA",2025-09-12T05:00:00Z,2025-09-11 22:00:00,MVFR,16,16,0,0,0,9,1014.6,METAR CBBC 120500Z AUTO 00000KT 9SM -RA OVC022 16/16 A2996 RMK SLP147,2025-09-12T05:16:34Z,2025-09-12T01:16:34Z,Bella Bella (Campbell Island) Airport,52.185001,-128.156994,CA,CA-BC
CWJC,"Ennadai Lake(MAPS), NU, CA",2025-09-12T04:00:00Z,2025-09-12 04:00:00,NA,8.2,5.9,350,15,0,NA,NA,METAR CWJC 120400Z AUTO 35015KT 08/06 RMK AO1 PK WND 35019/0350 SLP162 T00820059 51007,2025-09-12T05:00:07Z,2025-09-12T01:00:07Z,Ennadai Lake Airport,61.1333333333,-100.9,CA,CA-NU
CWJC,"Ennadai Lake(MAPS), NU, CA",2025-09-12T05:00:00Z,2025-09-12 05:00:00,NA,7.9,5.6,360,9,0,NA,NA,METAR CWJC 120500Z AUTO 36009KT 08/06 RMK AO1 PK WND 35018/0406 SLP166 T00790056 53008,2025-09-12T05:16:48Z,2025-09-12T01:16:48Z,Ennadai Lake Airport,61.1333333333,-100.9,CA,CA-NU
CYAM,"Sault Ste Marie Arpt, ON, CA",2025-09-12T04:00:00Z,2025-09-12 00:00:00,VFR,11,11,0,0,0,NA,1024.5,METAR CYAM 120400Z 00000KT 10SM MIFG FEW001 FEW089 FEW250 11/11 A3025 RMK ST1AC1CI1 ST TR MIFG E SE-W SLP251,2025-09-12T05:00:07Z,2025-09-12T01:00:07Z,Sault Ste Marie Airport,46.483216,-84.508467,CA,CA-ON
CYAM,"Sault Ste Marie Arpt, ON, CA",2025-09-12T05:00:00Z,2025-09-12 01:00:00,VFR,11,11,0,0,0,8,1024.5,METAR CYAM 120500Z 00000KT 8SM MIFG FEW001 SCT041 BKN078 BKN250 11/11 A3025 RMK ST1SC3AC1CI1 CI TR MIFG SE-W SLP251,2025-09-12T05:16:48Z,2025-09-12T01:16:48Z,Sault Ste Marie Airport,46.483216,-84.508467,CA,CA-ON
CYAT,"Attawapisket Arpt, ON, CA",2025-09-12T04:00:00Z,2025-09-12 00:00:00,VFR,11,6,170,9,0,9,1019,METAR CYAT 120400Z AUTO 17009KT 9SM SCT060 11/06 A3009 RMK SLP192,2025-09-12T05:00:07Z,2025-09-12T01:00:07Z,Attawapiskat Airport,52.927502,-82.4319,CA,CA-ON
CYAT,"Attawapisket Arpt, ON, CA",2025-09-12T05:00:00Z,2025-09-12 01:00:00,VFR,10,6,180,6,0,9,1018.4,METAR CYAT 120500Z AUTO 18006KT 9SM FEW060 SCT080 10/06 A3007 RMK SLP183,2025-09-12T05:16:48Z,2025-09-12T01:16:48Z,Attawapiskat Airport,52.927502,-82.4319,CA,CA-ON
CYAY,"St Anthony Arpt, NL, CA",2025-09-12T04:04:00Z,2025-09-12 01:34:00,LIFR,9,9,40,11,0,0.75,1011.3,SPECI CYAY 120404Z AUTO 04011KT 3/4SM -RA BR VV002 09/09 A2986 RMK PRESFR SLP115,2025-09-12T05:00:07Z,2025-09-12T01:00:07Z,St. Anthony Airport,51.391909,-56.08321,CA,CA-NL
CYAY,"St Anthony Arpt, NL, CA",2025-09-12T05:00:00Z,2025-09-12 02:30:00,LIFR,9,9,20,10,16,1,1011.6,METAR CYAY 120500Z AUTO 02010G16KT 1SM -RA BR VV003 09/09 A2987 RMK SLP119,2025-09-12T05:16:48Z,2025-09-12T01:16:48Z,St. Anthony Airport,51.391909,-56.08321,CA,CA-NL
CYBC,"Baie Comeau Arpt, QC, CA",2025-09-12T04:00:00Z,2025-09-12 00:00:00,VFR,10,3,290,6,0,9,1020.4,METAR CYBC 120400Z AUTO 29006KT 9SM CLR 10/03 A3013 RMK SLP205,2025-09-12T05:00:07Z,2025-09-12T01:00:07Z,Baie-Comeau Airport,49.1325,-68.204399,CA,CA-QC
CYBC,"Baie Comeau Arpt, QC, CA",2025-09-12T05:00:00Z,2025-09-12 01:00:00,VFR,9,3,320,7,0,9,1020.4,METAR CYBC 120500Z AUTO 32007KT 9SM CLR 09/03 A3013 RMK SLP206,2025-09-12T05:16:48Z,2025-09-12T01:16:48Z,Baie-Comeau Airport,49.1325,-68.204399,CA,CA-QC
CYBG,"Bagotville(MIL), QC, CA",2025-09-12T04:00:00Z,2025-09-12 00:00:00,VFR,6,4,270,6,0,25,1023.8,METAR CYBG 120400Z 27006KT 25SM SKC 06/04 A3023 RMK DENSITY ALT -722FT SLP242,2025-09-12T05:00:09Z,2025-09-12T01:00:09Z,CFB Bagotville / Saguenay-Bagotville Airport,48.331908,-70.992909,CA,CA-QC
CYBG,"Bagotville(MIL), QC, CA",2025-09-12T05:00:00Z,2025-09-12 01:00:00,VFR,6,4,270,8,0,25,1024.1,METAR CYBG 120500Z 27008KT 25SM SKC 06/04 A3024 RMK DENSITY ALT -743FT SLP244,2025-09-12T05:16:49Z,2025-09-12T01:16:49Z,CFB Bagotville / Saguenay-Bagotville Airport,48.331908,-70.992909,CA,CA-QC
CYBK,"Baker Lake Arpt, NU, CA",2025-09-12T04:39:00Z,2025-09-11 23:39:00,MVFR,8,6,80,11,0,15,1014,SPECI CYBK 120439Z 08011KT 15SM BKN013 OVC039 08/06 A2994 RMK SC6SC2 SLP143,2025-09-12T05:00:08Z,2025-09-12T01:00:08Z,Baker Lake Airport,64.29889678960001,-96.077796936,CA,CA-NU
CYBK,"Baker Lake Arpt, NU, CA",2025-09-12T05:00:00Z,2025-09-12 00:00:00,MVFR,7,5,80,12,0,15,1014.3,METAR CYBK 120500Z 08012KT 15SM BKN013 OVC039 07/05 A2995 RMK SC7SC1 SLP144,2025-09-12T05:16:50Z,2025-09-12T01:16:50Z,Baker Lake Airport,64.29889678960001,-96.077796936,CA,CA-NU
CYBL,"Campbell River Arpt, BC, CA",2025-09-12T04:00:00Z,2025-09-11 21:00:00,VFR,15,15,300,2,0,15,1015.7,METAR CYBL 120400Z 30002KT 15SM SCT060 BKN260 15/15 A2999 RMK SC3CI3 LAST STFD OBS/ NXT 121300Z SLP158,2025-09-12T05:00:09Z,2025-09-12T01:00:09Z,Campbell River Airport,49.950802,-125.271004,CA,CA-BC
CYBQ,"Tadoule Lake Arpt, MB, CA",2025-09-12T04:00:00Z,2025-09-11 23:00:00,VFR,11,7,300,2,0,9,1015,METAR CYBQ 120400Z AUTO 30002KT 9SM OVC031 11/07 A2997 RMK SLP162,2025-09-12T05:00:09Z,2025-09-12T01:00:09Z,Tadoule Lake Airport,58.706308,-98.511057,CA,CA-MB
CYBQ,"Tadoule Lake Arpt, MB, CA",2025-09-12T05:00:00Z,2025-09-12 00:00:00,MVFR,11,7,290,4,0,9,1015.3,METAR CYBQ 120500Z AUTO 29004KT 270V330 9SM OVC029 11/07 A2998 RMK SLP163,2025-09-12T05:16:49Z,2025-09-12T01:16:49Z,Tadoule Lake Airport,58.706308,-98.511057,CA,CA-MB
CYBR,"Brandon Arpt, MB, CA",2025-09-12T04:00:00Z,2025-09-11 23:00:00,VFR,17,16,70,5,0,9,1014.6,METAR CYBR 120400Z AUTO 07005KT 9SM CLR 17/16 A2996 RMK SLP151 DENSITY ALT 1800FT,2025-09-12T05:00:08Z,2025-09-12T01:00:08Z,Brandon Municipal Airport,49.91,-99.951897,CA,CA-MB
CYBR,"Brandon Arpt, MB, CA",2025-09-12T05:00:00Z,2025-09-12 00:00:00,VFR,15,15,70,4,0,8,1014.3,METAR CYBR 120500Z AUTO 07004KT 8SM BKN230 15/15 A2995 RMK SLP149 DENSITY ALT 1700FT,2025-09-12T05:16:50Z,2025-09-12T01:16:50Z,Brandon Municipal Airport,49.91,-99.951897,CA,CA-MB
CYBU,"Nipawin(AUTO), SK, CA",2025-09-12T04:00:00Z,2025-09-12 04:00:00,VFR,18,15,10,6,0,9,1013.3,METAR CYBU 120400Z AUTO 01006KT 9SM OVC130 18/15 A2992 RMK SLP138 DENSITY ALT 1900FT,2025-09-12T05:00:09Z,2025-09-12T01:00:09Z,Nipawin Airport,53.33250045776367,-104.00800323486328,CA,CA-SK
CYBU,"Nipawin(AUTO), SK, CA",2025-09-12T05:00:00Z,2025-09-12 05:00:00,VFR,17,14,360,6,0,9,1013.6,METAR CYBU 120500Z AUTO 36006KT 9SM SCT130 17/14 A2993 RMK SLP139 DENSITY ALT 1800FT,2025-09-12T05:16:49Z,2025-09-12T01:16:49Z,Nipawin Airport,53.33250045776367,-104.00800323486328,CA,CA-SK
CYBW,"Calgary/Springbank Arpt, AB, CA",2025-09-12T04:00:00Z,2025-09-12 04:00:00,VFR,13,8,160,5,0,9,1015.3,METAR CYBW 120400Z AUTO 16005KT 9SM CLR 13/08 A2998 RMK SLP162 DENSITY ALT 4600FT,2025-09-12T05:00:09Z,2025-09-12T01:00:09Z,Calgary / Springbank Airport,51.1031,-114.374001,CA,CA-AB
CYBW,"Calgary/Springbank Arpt, AB, CA",2025-09-12T05:00:00Z,2025-09-12 05:00:00,VFR,12,8,160,5,0,9,1015.3,METAR CYBW 120500Z AUTO 16005KT 9SM BKN110 12/08 A2998 RMK SLP158 DENSITY ALT 4500FT,2025-09-12T05:16:50Z,2025-09-12T01:16:50Z,Calgary / Springbank Airport,51.1031,-114.374001,CA,CA-AB
CYBX,"Blanc Sablon Arpt, QC, CA",2025-09-12T04:45:00Z,2025-09-12 00:45:00,MVFR,9,9,50,15,20,15,1011.6,SPECI CYBX 120445Z 05015G20KT 15SM OVC010 09/09 A2987 RMK SC8 SLP117,2025-09-12T05:00:08Z,2025-09-12T01:00:08Z,Lourdes-de-Blanc-Sablon Airport,51.443600000000004,-57.185299,CA,CA-QC
CYBX,"Blanc Sablon Arpt, QC, CA",2025-09-12T05:00:00Z,2025-09-12 01:00:00,MVFR,9,8,50,15,21,NA,1011.6,METAR CYBX 120500Z 05015G21KT 10SM OVC010 09/08 A2987 RMK SC8 SLP117,2025-09-12T05:16:49Z,2025-09-12T01:16:49Z,Lourdes-de-Blanc-Sablon Airport,51.443600000000004,-57.185299,CA,CA-QC
CYCA,"Cartwright Arpt, NL, CA",2025-09-12T04:29:00Z,2025-09-12 01:29:00,MVFR,6,5,60,4,0,9,1017.7,SPECI CYCA 120429Z AUTO 06004KT 9SM -RA BKN024 BKN060 OVC080 06/05 A3005 RMK SLP177,2025-09-12T05:00:08Z,2025-09-12T01:00:08Z,Cartwright Airport,53.682501,-57.042303,CA,CA-NL
CYCA,"Cartwright Arpt, NL, CA",2025-09-12T05:00:00Z,2025-09-12 02:00:00,MVFR,6,5,60,3,0,9,1017.7,METAR CYCA 120500Z AUTO 06003KT 9SM -RA OVC024 06/05 A3005 RMK SLP177,2025-09-12T05:16:50Z,2025-09-12T01:16:50Z,Cartwright Airport,53.682501,-57.042303,CA,CA-NL
CYCB,"Cambridge Bay Arpt, NU, CA",2025-09-12T04:00:00Z,2025-09-11 22:00:00,MVFR,5,4,120,10,0,15,1013.6,METAR CYCB 120400Z 12010KT 15SM FEW006 BKN029 05/04 A2993 RMK SF1SC5 SF TR SLP141,2025-09-12T05:00:08Z,2025-09-12T01:00:08Z,Cambridge Bay Airport,69.1081008911,-105.138000488,CA,CA-NU
CYCB,"Cambridge Bay Arpt, NU, CA",2025-09-12T05:00:00Z,2025-09-11 23:00:00,MVFR,5,4,120,11,0,15,1013.3,METAR CYCB 120500Z 12011KT 15SM FEW006 BKN027 05/04 A2992 RMK SF1SC5 SLP137,2025-09-12T05:16:49Z,2025-09-12T01:16:49Z,Cambridge Bay Airport,69.1081008911,-105.138000488,CA,CA-NU
CYCD,"Nanaimo Arpt, BC, CA",2025-09-12T04:00:00Z,2025-09-11 21:00:00,VFR,15,14,20,3,0,15,1015.7,METAR CYCD 120400Z 02003KT 15SM SCT230 15/14 A2999 RMK CI4 LAST STFD OBS/NEXT 121300Z SLP158,2025-09-12T05:00:08Z,2025-09-12T01:00:08Z,Nanaimo Airport,49.05497,-123.869863,CA,CA-BC
CYCG,"Castlegar Rgnl, BC, CA",2025-09-12T04:00:00Z,2025-09-11 21:00:00,VFR,18,11,340,2,0,15,1011.6,METAR CYCG 120400Z 34002KT 15SM FEW110 SCT220 18/11 A2987 RMK AC2CI1 LAST STFD OBS/NXT 121300Z SLP114 DENSITY ALT 2400FT,2025-09-12T05:00:09Z,2025-09-12T01:00:09Z,Castlegar/West Kootenay Regional Airport,49.296398,-117.632004,CA,CA-BC
CYCK,"Chatham/Kent Arpt, ON, CA",2025-09-12T04:00:00Z,2025-09-12 00:00:00,VFR,12,10,50,3,0,9,1023.1,METAR CYCK 120400Z AUTO 05003KT 9SM CLR 12/10 A3021 RMK SLP233,2025-09-12T05:00:09Z,2025-09-12T01:00:09Z,Chatham Kent Airport,42.3064002991,-82.0819015503,CA,CA-ON
CYCK,"Chatham/Kent Arpt, ON, CA",2025-09-12T05:00:00Z,2025-09-12 01:00:00,VFR,12,10,50,2,0,9,1023.1,METAR CYCK 120500Z AUTO 05002KT 9SM CLR 12/10 A3021 RMK SLP231,2025-09-12T05:16:49Z,2025-09-12T01:16:49Z,Chatham Kent Airport,42.3064002991,-82.0819015503,CA,CA-ON
CYCO,"Coppermine/Kugluktuk Arpt, NU, CA",2025-09-12T04:52:00Z,2025-09-11 22:52:00,VFR,12,9,170,17,24,15,999.7,SPECI CYCO 120452Z 17017G24KT 15SM FEW030 SCT074 BKN100 OVC140 12/09 A2952 RMK SC1AS3AC2AC2 SLP000,2025-09-12T05:00:08Z,2025-09-12T01:00:08Z,Kugluktuk Airport,67.816408,-115.14307,CA,CA-NU
CYCO,"Coppermine/Kugluktuk Arpt, NU, CA",2025-09-12T05:00:00Z,2025-09-11 23:00:00,VFR,12,8,170,17,0,15,999.7,METAR CYCO 120500Z 17017KT 15SM FEW030 SCT073 BKN100 OVC140 12/08 A2952 RMK SC1AS3AC2AC2 SLP000 DENSITY ALT 300FT,2025-09-12T05:16:49Z,2025-09-12T01:16:49Z,Kugluktuk Airport,67.816408,-115.14307,CA,CA-NU
CYCY,"Cylde River Arpt, NU, CA",2025-09-12T04:00:00Z,2025-09-12 00:00:00,VFR,-2,-3,300,7,0,9,1020.4,METAR CYCY 120400Z AUTO 30007KT 9SM CLR M02/M03 A3013 RMK SLP206,2025-09-12T05:00:09Z,2025-09-12T01:00:09Z,Clyde River Airport,70.486099,-68.516701,CA,CA-NU
CYCY,"Cylde River Arpt, NU, CA",2025-09-12T05:00:00Z,2025-09-12 01:00:00,VFR,-2,-3,300,7,0,9,1020.4,METAR CYCY 120500Z AUTO 30007KT 9SM CLR M02/M03 A3013 RMK SLP206,2025-09-12T05:16:49Z,2025-09-12T01:16:49Z,Clyde River Airport,70.486099,-68.516701,CA,CA-NU
CYDA,"Dawson Arpt, YT, CA",2025-09-12T04:00:00Z,2025-09-11 21:00:00,VFR,10,9,310,3,0,20,997.7,METAR CYDA 120400Z 31003KT 300V070 20SM FEW073 FEW110 SCT120 BKN220 10/09 A2946 RMK AC1AC1AC1CI2 STN OPN FOR MEDEVAC SLP992 DENSITY ALT 1500FT,2025-09-12T05:00:08Z,2025-09-12T01:00:08Z,Dawson City Airport,64.04309844970703,-139.1280059814453,CA,CA-YT
CYDA,"Dawson Arpt, YT, CA",2025-09-12T05:00:00Z,2025-09-11 22:00:00,VFR,8,7,0,0,0,15,998.1,METAR CYDA 120500Z 00000KT 15SM SCT091 BKN230 08/07 A2947 RMK AC3CI3 STN OPN FOR MEDEVAC SLP995,2025-09-12T05:16:49Z,2025-09-12T01:16:49Z,Dawson City Airport,64.04309844970703,-139.1280059814453,CA,CA-YT
CYDB,"Burwash Arpt, YT, CA",2025-09-12T04:00:00Z,2025-09-11 21:00:00,VFR,12,3,120,18,24,9,998.7,METAR CYDB 120400Z AUTO 12018G24KT 9SM FEW150 12/03 A2949 RMK SLP005 DENSITY ALT 3400FT,2025-09-12T05:00:09Z,2025-09-12T01:00:09Z,Burwash Airport,61.371101,-139.041,CA,CA-YT
CYDB,"Burwash Arpt, YT, CA",2025-09-12T05:00:00Z,2025-09-11 22:00:00,VFR,11,2,120,14,22,9,998.7,METAR CYDB 120500Z AUTO 12014G22KT 9SM BKN150 11/02 A2949 RMK SLP006 DENSITY ALT 3400FT,2025-09-12T05:16:50Z,2025-09-12T01:16:50Z,Burwash Airport,61.371101,-139.041,CA,CA-YT
CYDF,"Deer Lake Arpt, NL, CA",2025-09-12T04:42:00Z,2025-09-12 02:12:00,VFR,11,10,0,0,0,15,1009.2,SPECI CYDF 120442Z 00000KT 15SM OVC032 11/10 A2980 RMK SC8 SLP094,2025-09-12T05:00:08Z,2025-09-12T01:00:08Z,Deer Lake Airport,49.2108,-57.391399,CA,CA-NL
CYDF,"Deer Lake Arpt, NL, CA",2025-09-12T05:00:00Z,2025-09-12 02:30:00,VFR,11,10,0,0,0,15,1009.2,METAR CYDF 120500Z 00000KT 15SM OVC034 11/10 A2980 RMK SC8 SLP094,2025-09-12T05:16:50Z,2025-09-12T01:16:50Z,Deer Lake Airport,49.2108,-57.391399,CA,CA-NL
CYDL,"Dease Lake Arpt, BC, CA",2025-09-12T04:03:00Z,2025-09-11 21:03:00,VFR,13,9,210,6,0,9,1008.9,SPECI CYDL 120403Z AUTO 21006KT 190V270 9SM OVC076 13/09 A2979 RMK SLP093 DENSITY ALT 3200FT,2025-09-12T05:00:08Z,2025-09-12T01:00:08Z,Dease Lake Airport,58.422199,-130.031998,CA,CA-BC
CYDL,"Dease Lake Arpt, BC, CA",2025-09-12T05:00:00Z,2025-09-11 22:00:00,VFR,11,10,0,0,0,9,1009.2,METAR CYDL 120500Z AUTO 00000KT 9SM CLR 11/10 A2980 RMK SLP094 DENSITY ALT 3000FT,2025-09-12T05:16:49Z,2025-09-12T01:16:49Z,Dease Lake Airport,58.422199,-130.031998,CA,CA-BC
CYDN,"Dauphin Arpt, MB, CA",2025-09-12T04:00:00Z,2025-09-11 23:00:00,VFR,14,13,260,4,0,9,1014,METAR CYDN 120400Z AUTO 26004KT 9SM CLR 14/13 A2994 RMK SLP145,2025-09-12T05:00:09Z,2025-09-12T01:00:09Z,Dauphin Barker Airport,51.1008,-100.052002,CA,CA-MB
CYDN,"Dauphin Arpt, MB, CA",2025-09-12T05:15:00Z,2025-09-12 00:15:00,LIFR,13,13,60,2,0,1.5,1014,SPECI CYDN 120515Z AUTO 06002KT 1 1/2SM BR BKN002 13/13 A2994 RMK SLP143,2025-09-12T05:16:49Z,2025-09-12T01:16:49Z,Dauphin Barker Airport,51.1008,-100.052002,CA,CA-MB
CYDQ,"Dawson Creek Arpt, BC, CA",2025-09-12T04:00:00Z,2025-09-11 21:00:00,MVFR,17,7,0,0,0,5,1009.9,METAR CYDQ 120400Z AUTO 00000KT 5SM HZ CLR 17/07 A2982 RMK SLP107 DENSITY ALT 3000FT,2025-09-12T05:00:08Z,2025-09-12T01:00:08Z,Dawson Creek Airport,55.741245,-120.183263,CA,CA-BC
CYDQ,"Dawson Creek Arpt, BC, CA",2025-09-12T05:00:00Z,2025-09-11 22:00:00,MVFR,16,8,230,3,0,5,1010.6,METAR CYDQ 120500Z AUTO 23003KT 210V300 5SM HZ CLR 16/08 A2984 RMK SLP108 DENSITY ALT 2900FT,2025-09-12T05:16:50Z,2025-09-12T01:16:50Z,Dawson Creek Airport,55.741245,-120.183263,CA,CA-BC
CYEG,"Edmonton Intl Arpt, AB, CA",2025-09-12T04:00:00Z,2025-09-11 22:00:00,VFR,15,7,120,6,0,20,1013.3,METAR CYEG 120400Z 12006KT 20SM FEW250 15/07 A2992 RMK CI1 SLP139 DENSITY ALT 2900FT,2025-09-12T05:00:08Z,2025-09-12T01:00:08Z,Edmonton International Airport,53.3097,-113.580002,CA,CA-AB
CYEG,"Edmonton Intl Arpt, AB, CA",2025-09-12T05:00:00Z,2025-09-11 23:00:00,VFR,14,7,130,8,0,20,1013.3,METAR CYEG 120500Z 13008KT 20SM FEW250 14/07 A2992 RMK CI1 CI TR SLP138 DENSITY ALT 2800FT,2025-09-12T05:16:50Z,2025-09-12T01:16:50Z,Edmonton International Airport,53.3097,-113.580002,CA,CA-AB
CYEK,"Arviat/Eskimo Pt Arpt, NU, CA",2025-09-12T04:25:00Z,2025-09-11 23:25:00,IFR,11,10,330,12,17,9,1010.2,SPECI CYEK 120425Z AUTO 33012G17KT 9SM BKN007 OVC029 11/10 A2983 RMK SLP103,2025-09-12T05:00:08Z,2025-09-12T01:00:08Z,Arviat Airport,61.0942,-94.070801,CA,CA-NU
CYEK,"Arviat/Eskimo Pt Arpt, NU, CA",2025-09-12T05:00:00Z,2025-09-12 00:00:00,IFR,11,10,340,10,0,9,1010.2,METAR CYEK 120500Z AUTO 34010KT 9SM BKN007 BKN010 BKN014 OVC025 11/10 A2983 RMK SLP104,2025-09-12T05:16:49Z,2025-09-12T01:16:49Z,Arviat Airport,61.0942,-94.070801,CA,CA-NU
CYEN,"Estevan Arpt, SK, CA",2025-09-12T04:00:00Z,2025-09-11 22:00:00,VFR,20,18,90,10,0,9,1012.6,METAR CYEN 120400Z AUTO 09010KT 9SM BKN240 20/18 A2990 RMK SLP129 DENSITY ALT 3000FT,2025-09-12T05:00:09Z,2025-09-12T01:00:09Z,Estevan Airport,49.2103004456,-102.966003418,CA,CA-SK
CYEN,"Estevan Arpt, SK, CA",2025-09-12T05:00:00Z,2025-09-11 23:00:00,VFR,18,18,110,7,0,9,1013,METAR CYEN 120500Z AUTO 11007KT 9SM CLR 18/18 A2991 RMK SLP134 DENSITY ALT 2800FT,2025-09-12T05:16:49Z,2025-09-12T01:16:49Z,Estevan Airport,49.2103004456,-102.966003418,CA,CA-SK
CYER,"Ft Severn Arpt, ON, CA",2025-09-12T04:00:00Z,2025-09-12 00:00:00,VFR,13,13,340,4,0,9,1010.2,METAR CYER 120400Z AUTO 34004KT 9SM SCT055 OVC089 13/13 A2983 RMK SLP104,2025-09-12T05:00:09Z,2025-09-12T01:00:09Z,Fort Severn Airport,56.018902,-87.676102,CA,CA-ON
CYER,"Ft Severn Arpt, ON, CA",2025-09-12T05:00:00Z,2025-09-12 01:00:00,VFR,13,13,330,4,0,9,1010.6,METAR CYER 120500Z AUTO 33004KT 9SM BKN048 OVC066 13/13 A2984 RMK SLP107,2025-09-12T05:16:50Z,2025-09-12T01:16:50Z,Fort Severn Airport,56.018902,-87.676102,CA,CA-ON
CYET,"Edson Arpt, AB, CA",2025-09-12T04:00:00Z,2025-09-11 22:00:00,VFR,13,11,290,4,0,8,1013.3,METAR CYET 120400Z AUTO 29004KT 8SM CLR 13/11 A2992 RMK SLP145 DENSITY ALT 3600FT,2025-09-12T05:00:09Z,2025-09-12T01:00:09Z,Edson Airport,53.578899383499994,-116.464996338,CA,CA-AB
CYET,"Edson Arpt, AB, CA",2025-09-12T05:00:00Z,2025-09-11 23:00:00,VFR,12,10,280,3,0,9,1013.6,METAR CYET 120500Z AUTO 28003KT 9SM CLR 12/10 A2993 RMK SLP142 DENSITY ALT 3400FT,2025-09-12T05:16:50Z,2025-09-12T01:16:50Z,Edson Airport,53.578899383499994,-116.464996338,CA,CA-AB
CYEV,"Inuvik/Zubko Arpt, NT, CA",2025-09-12T04:41:00Z,2025-09-11 22:41:00,LIFR,5,5,290,6,0,2,998.1,SPECI CYEV 120441Z 29006KT 2SM -RA BR BKN003 OVC009 05/05 A2947 RMK ST5SC3 CIG RAG SLP986,2025-09-12T05:00:08Z,2025-09-12T01:00:08Z,Inuvik Mike Zubko Airport,68.30419921880001,-133.483001709,CA,CA-NT
CYEV,"Inuvik/Zubko Arpt, NT, CA",2025-09-12T05:14:00Z,2025-09-11 23:14:00,LIFR,5,5,290,8,0,1,998.1,SPECI CYEV 120514Z 29008KT 1SM -RA BR VV003 05/05 A2947 RMK FG8 VIS VRB 3/4-11/4 SLP986,2025-09-12T05:16:49Z,2025-09-12T01:16:49Z,Inuvik Mike Zubko Airport,68.30419921880001,-133.483001709,CA,CA-NT
CYFB,"Iqaluit Arpt, NU, CA",2025-09-12T04:00:00Z,2025-09-12 00:00:00,VFR,4,0,320,2,0,30,1020.1,METAR CYFB 120400Z 32002KT 30SM OVC037 04/M00 A3012 RMK SC8 SLP205,2025-09-12T05:00:09Z,2025-09-12T01:00:09Z,Iqaluit Airport,63.756402,-68.555801,CA,CA-NU
CYFB,"Iqaluit Arpt, NU, CA",2025-09-12T05:00:00Z,2025-09-12 01:00:00,VFR,3,0,340,2,0,30,1020.1,METAR CYFB 120500Z 34002KT 30SM OVC036 03/M00 A3012 RMK SC8 SLP205,2025-09-12T05:16:49Z,2025-09-12T01:16:49Z,Iqaluit Airport,63.756402,-68.555801,CA,CA-NU
CYFC,"Fredericton Intl, NB, CA",2025-09-12T04:00:00Z,2025-09-12 01:00:00,VFR,12,6,310,5,0,9,1019,METAR CYFC 120400Z AUTO 31005KT 9SM CLR 12/06 A3009 RMK SLP193,2025-09-12T05:00:08Z,2025-09-12T01:00:08Z,Fredericton Airport,45.868900299072266,-66.537200927734375,CA,CA-NB
CYFC,"Fredericton Intl, NB, CA",2025-09-12T05:00:00Z,2025-09-12 02:00:00,VFR,11,5,300,5,0,9,1019.4,METAR CYFC 120500Z AUTO 30005KT 9SM CLR 11/05 A3010 RMK SLP196,2025-09-12T05:16:50Z,2025-09-12T01:16:50Z,Fredericton Airport,45.868900299072266,-66.537200927734375,CA,CA-NB
CYFS,"Fort Simpson Arpt, NT, CA",2025-09-12T04:00:00Z,2025-09-11 22:00:00,VFR,21,9,170,4,0,15,1000.4,METAR CYFS 120400Z 17004KT 15SM FEW050 FEW120 FEW180 BKN250 21/09 A2954 RMK FU1AC1AC1CI4 FU TR AC TR VIS LWR SE SLP011 DENSITY ALT 1800FT,2025-09-12T05:00:09Z,2025-09-12T01:00:09Z,Fort Simpson Airport,61.76020050048828,-121.23699951171876,CA,CA-NT
CYFS,"Fort Simpson Arpt, NT, CA",2025-09-12T05:00:00Z,2025-09-11 23:00:00,VFR,19,9,180,5,0,15,1000.8,METAR CYFS 120500Z 18005KT 15SM FEW170 BKN250 19/09 A2955 RMK AC1CI7 AC TR SLP012 DENSITY ALT 1600FT,2025-09-12T05:16:49Z,2025-09-12T01:16:49Z,Fort Simpson Airport,61.76020050048828,-121.23699951171876,CA,CA-NT
CYGL,"La Grande Riviere Arpt, QC, CA",2025-09-12T04:00:00Z,2025-09-12 00:00:00,VFR,5,4,170,5,0,15,1023.5,METAR CYGL 120400Z 17005KT 15SM SCT210 BKN240 05/04 A3022 RMK CI3CI3 SLP244,2025-09-12T05:00:08Z,2025-09-12T01:00:08Z,La Grande Rivière Airport,53.625301361083984,-77.7042007446289,CA,CA-QC
CYGL,"La Grande Riviere Arpt, QC, CA",2025-09-12T05:00:00Z,2025-09-12 01:00:00,VFR,4,4,130,4,0,15,1023.1,METAR CYGL 120500Z 13004KT 15SM BKN210 BKN230 04/04 A3021 RMK CI5CI2 SLP241,2025-09-12T05:16:49Z,2025-09-12T01:16:49Z,La Grande Rivière Airport,53.625301361083984,-77.7042007446289,CA,CA-QC
CYGP,"Gaspé Arpt, QC, CA",2025-09-12T04:00:00Z,2025-09-12 00:00:00,VFR,11,5,300,11,16,15,1014,METAR CYGP 120400Z 30011G16KT 15SM FEW034 FEW046 11/05 A2994 RMK SC1SC1 SC TR SLP143,2025-09-12T05:00:09Z,2025-09-12T01:00:09Z,Michel-Pouliot Gaspé Airport,48.774915,-64.481893,CA,CA-QC
CYGP,"Gaspé Arpt, QC, CA",2025-09-12T05:00:00Z,2025-09-12 01:00:00,VFR,10,4,270,12,21,15,1013.6,METAR CYGP 120500Z 27012G21KT 15SM FEW034 FEW051 FEW120 10/04 A2993 RMK SC1SC1AC1 SC TR AC TR SLP138,2025-09-12T05:16:49Z,2025-09-12T01:16:49Z,Michel-Pouliot Gaspé Airport,48.774915,-64.481893,CA,CA-QC
CYGV,"Havre St Pierre Arpt, QC, CA",2025-09-12T04:41:00Z,2025-09-12 00:41:00,VFR,9,9,280,11,0,9,1007.9,SPECI CYGV 120441Z AUTO 28011KT 9SM OVC033 09/09 A2976 RMK SLP080,2025-09-12T05:00:08Z,2025-09-12T01:00:08Z,Havre-Saint-Pierre Airport,50.281898,-63.611401,CA,CA-QC
CYGV,"Havre St Pierre Arpt, QC, CA",2025-09-12T05:00:00Z,2025-09-12 01:00:00,MVFR,9,8,310,10,16,9,1007.9,METAR CYGV 120500Z AUTO 31010G16KT 260V330 9SM OVC028 09/08 A2976 RMK SLP081,2025-09-12T05:16:49Z,2025-09-12T01:16:49Z,Havre-Saint-Pierre Airport,50.281898,-63.611401,CA,CA-QC
CYGW,"Kuujjuarapik Arpt, QC, CA",2025-09-12T04:00:00Z,2025-09-12 00:00:00,VFR,8,5,160,5,0,9,1021.8,METAR CYGW 120400Z AUTO 16005KT 9SM CLR 08/05 A3017 RMK SLP219,2025-09-12T05:00:09Z,2025-09-12T01:00:09Z,Kuujjuarapik Airport,55.28189849853515,-77.76529693603516,CA,CA-QC
CYGW,"Kuujjuarapik Arpt, QC, CA",2025-09-12T05:00:00Z,2025-09-12 01:00:00,VFR,7,4,130,8,0,9,1020.7,METAR CYGW 120500Z AUTO 13008KT 9SM BKN140 07/04 A3014 RMK SLP209,2025-09-12T05:16:49Z,2025-09-12T01:16:49Z,Kuujjuarapik Airport,55.28189849853515,-77.76529693603516,CA,CA-QC
CYHD,"Dryden Rgnl, ON, CA",2025-09-12T04:00:00Z,2025-09-11 23:00:00,VFR,17,10,190,11,0,9,1019.7,METAR CYHD 120400Z AUTO 19011KT 9SM OVC081 17/10 A3011 RMK SLP204 DENSITY ALT 1700FT,2025-09-12T05:00:09Z,2025-09-12T01:00:09Z,Dryden Regional Airport,49.831699,-92.744202,CA,CA-ON
CYHD,"Dryden Rgnl, ON, CA",2025-09-12T05:00:00Z,2025-09-12 00:00:00,VFR,17,11,190,12,17,9,1019.4,METAR CYHD 120500Z AUTO 19012G17KT 9SM OVC086 17/11 A3010 RMK SLP199 DENSITY ALT 1700FT,2025-09-12T05:16:49Z,2025-09-12T01:16:49Z,Dryden Regional Airport,49.831699,-92.744202,CA,CA-ON
CYHE,"Hope Rgnl Airpark, BC, CA",2025-09-12T04:00:00Z,2025-09-11 21:00:00,VFR,19,15,220,7,0,9,1015.7,METAR CYHE 120400Z AUTO 22007KT 9SM CLR 19/15 A2999 RMK SLP159 DENSITY ALT 600FT,2025-09-12T05:00:09Z,2025-09-12T01:00:09Z,Hope Airport / FVRD Regional Airpark,49.368865,-121.49495,CA,CA-BC
CYHE,"Hope Rgnl Airpark, BC, CA",2025-09-12T05:00:00Z,2025-09-11 22:00:00,VFR,18,15,240,4,0,9,1016,METAR CYHE 120500Z AUTO 24004KT 190V290 9SM BKN048 18/15 A3000 RMK SLP161 DENSITY ALT 500FT,2025-09-12T05:16:49Z,2025-09-12T01:16:49Z,Hope Airport / FVRD Regional Airpark,49.368865,-121.49495,CA,CA-BC
CYHK,"Gjoa Haven Arpt, NU, CA",2025-09-12T04:00:00Z,2025-09-11 22:00:00,VFR,3,3,40,8,0,9,1016.7,METAR CYHK 120400Z AUTO 04008KT 9SM CLR 03/03 A3002 RMK SLP173,2025-09-12T05:00:09Z,2025-09-12T01:00:09Z,Gjoa Haven Airport,68.635597,-95.849701,CA,CA-NU
CYHK,"Gjoa Haven Arpt, NU, CA",2025-09-12T05:00:00Z,2025-09-11 23:00:00,VFR,5,5,80,8,0,9,1016.7,METAR CYHK 120500Z AUTO 08008KT 9SM CLR 05/05 A3002 RMK SLP172,2025-09-12T05:16:49Z,2025-09-12T01:16:49Z,Gjoa Haven Airport,68.635597,-95.849701,CA,CA-NU
CYHM,"Hamilton/Munro Intl, ON, CA",2025-09-12T04:00:00Z,2025-09-12 00:00:00,VFR,15,11,10,6,0,15,1023.5,METAR CYHM 120400Z 01006KT 15SM SKC 15/11 A3022 RMK SLP234,2025-09-12T05:00:08Z,2025-09-12T01:00:08Z,John C. Munro Hamilton International Airport,43.173599243199995,-79.93499755859999,CA,CA-ON
CYHM,"Hamilton/Munro Intl, ON, CA",2025-09-12T05:00:00Z,2025-09-12 01:00:00,VFR,14,12,20,6,0,15,1023.5,METAR CYHM 120500Z 02006KT 15SM SKC 14/12 A3022 RMK SLP234,2025-09-12T05:16:49Z,2025-09-12T01:16:49Z,John C. Munro Hamilton International Airport,43.173599243199995,-79.93499755859999,CA,CA-ON
CYHU,"Montreal/St Hubert, QC, CA",2025-09-12T04:00:00Z,2025-09-12 00:00:00,VFR,10,7,360,4,0,9,1023.1,METAR CYHU 120400Z AUTO 36004KT 9SM CLR 10/07 A3021 RMK SLP233,2025-09-12T05:00:09Z,2025-09-12T01:00:09Z,Montréal / Saint-Hubert Metropolitan Airport,45.517502,-73.416901,CA,CA-QC
CYHU,"Montreal/St Hubert, QC, CA",2025-09-12T05:00:00Z,2025-09-12 01:00:00,VFR,9,7,10,6,0,9,1023.5,METAR CYHU 120500Z AUTO 01006KT 9SM CLR 09/07 A3022 RMK SLP237,2025-09-12T05:16:49Z,2025-09-12T01:16:49Z,Montréal / Saint-Hubert Metropolitan Airport,45.517502,-73.416901,CA,CA-QC
CYHY,"Hay River/Carter Arpt, NT, CA",2025-09-12T04:00:00Z,2025-09-11 22:00:00,VFR,19,8,180,7,0,12,1004.1,METAR CYHY 120400Z 18007KT 12SM SCT150 BKN240 19/08 A2965 RMK AC3CI3 FU SLP048 DENSITY ALT 1400FT,2025-09-12T05:00:09Z,2025-09-12T01:00:09Z,Hay River / Merlyn Carter Airport,60.8396987915,-115.782997131,CA,CA-NT
CYHY,"Hay River/Carter Arpt, NT, CA",2025-09-12T05:00:00Z,2025-09-11 23:00:00,VFR,17,8,170,7,0,12,1003.8,METAR CYHY 120500Z 17007KT 12SM SCT150 BKN240 17/08 A2964 RMK AC3CI2 FU SLP042 DENSITY ALT 1300FT,2025-09-12T05:16:49Z,2025-09-12T01:16:49Z,Hay River / Merlyn Carter Airport,60.8396987915,-115.782997131,CA,CA-NT
CYHZ,"Halifax/Stanfield Intl, NS, CA",2025-09-12T04:00:00Z,2025-09-12 01:00:00,VFR,13,12,350,8,0,15,1015.7,METAR CYHZ 120400Z 35008KT 15SM SKC 13/12 A2999 RMK SLP160,2025-09-12T05:00:08Z,2025-09-12T01:00:08Z,Halifax / Stanfield International Airport,44.8807983398,-63.5085983276,CA,CA-NS
CYHZ,"Halifax/Stanfield Intl, NS, CA",2025-09-12T05:00:00Z,2025-09-12 02:00:00,VFR,12,12,310,6,0,15,1016.3,METAR CYHZ 120500Z 31006KT 15SM FEW250 12/12 A3001 RMK CI1 CI TR SLP164,2025-09-12T05:16:49Z,2025-09-12T01:16:49Z,Halifax / Stanfield International Airport,44.8807983398,-63.5085983276,CA,CA-NS
CYIO,"Pond Inlet Arpt, NU, CA",2025-09-12T04:00:00Z,2025-09-12 00:00:00,VFR,-1,-2,160,8,0,9,1020.1,METAR CYIO 120400Z AUTO 16008KT 9SM CLR M01/M02 A3012 RMK ICE MISG SLP206,2025-09-12T05:00:09Z,2025-09-12T01:00:09Z,Pond Inlet Airport,72.689494,-77.968941,CA,CA-NU
CYIO,"Pond Inlet Arpt, NU, CA",2025-09-12T05:00:00Z,2025-09-12 01:00:00,VFR,-2,-2,170,7,0,9,1020.1,METAR CYIO 120500Z AUTO 17007KT 9SM CLR M02/M02 A3012 RMK ICE SLP209,2025-09-12T05:16:49Z,2025-09-12T01:16:49Z,Pond Inlet Airport,72.689494,-77.968941,CA,CA-NU
CYIV,"Island Lake Arpt, MB, CA",2025-09-12T04:00:00Z,2025-09-11 23:00:00,VFR,20,14,240,7,0,9,1014.6,METAR CYIV 120400Z AUTO 24007KT 200V290 9SM CLR 20/14 A2996 RMK SLP151 DENSITY ALT 1500FT,2025-09-12T05:00:09Z,2025-09-12T01:00:09Z,Island Lake Airport,53.857200622558594,-94.65360260009766,CA,CA-MB
CYIV,"Island Lake Arpt, MB, CA",2025-09-12T05:00:00Z,2025-09-12 00:00:00,VFR,18,13,270,4,0,9,1015.3,METAR CYIV 120500Z AUTO 27004KT 9SM CLR 18/13 A2998 RMK SLP156 DENSITY ALT 1300FT,2025-09-12T05:16:49Z,2025-09-12T01:16:49Z,Island Lake Airport,53.857200622558594,-94.65360260009766,CA,CA-MB
CYKA,"Kamloops Arpt, BC, CA",2025-09-12T04:00:00Z,2025-09-11 21:00:00,VFR,24,9,VAR,3,0,40,1009.9,METAR CYKA 120400Z VRB03KT 40SM SKC 24/09 A2982 RMK SLP100 DENSITY ALT 2600FT,2025-09-12T05:00:08Z,2025-09-12T01:00:08Z,Kamloops John Moose Fulton Field Regional Airport,50.703038,-120.448641,CA,CA-BC
CYKA,"Kamloops Arpt, BC, CA",2025-09-12T05:00:00Z,2025-09-11 22:00:00,VFR,22,8,80,5,0,30,1010.6,METAR CYKA 120500Z 08005KT 30SM FEW110 22/08 A2984 RMK AC1 SLP105 DENSITY ALT 2300FT,2025-09-12T05:16:49Z,2025-09-12T01:16:49Z,Kamloops John Moose Fulton Field Regional Airport,50.703038,-120.448641,CA,CA-BC
CYKF,"Waterloo Intl, ON, CA",2025-09-12T04:00:00Z,2025-09-12 00:00:00,VFR,14,11,40,4,0,9,1023.8,METAR CYKF 120400Z AUTO 04004KT 9SM CLR 14/11 A3023 RMK SLP236,2025-09-12T05:00:09Z,2025-09-12T01:00:09Z,Region of Waterloo International Airport,43.4608,-80.378601,CA,CA-ON
CYKF,"Waterloo Intl, ON, CA",2025-09-12T05:00:00Z,2025-09-12 01:00:00,VFR,12,11,330,3,0,9,1023.8,METAR CYKF 120500Z AUTO 33003KT 9SM CLR 12/11 A3023 RMK SLP238,2025-09-12T05:16:49Z,2025-09-12T01:16:49Z,Region of Waterloo International Airport,43.4608,-80.378601,CA,CA-ON
CYKJ,"Key Lake Arpt, SK, CA",2025-09-12T04:00:00Z,2025-09-11 22:00:00,VFR,8,5,150,2,0,9,1015,METAR CYKJ 120400Z AUTO 15002KT 9SM CLR 08/05 A2997 RMK SLP166,2025-09-12T05:00:09Z,2025-09-12T01:00:09Z,Key Lake Airport,57.256099700927734,-105.61799621582033,CA,CA-SK
CYKJ,"Key Lake Arpt, SK, CA",2025-09-12T05:00:00Z,2025-09-11 23:00:00,VFR,8,5,150,4,0,9,1015,METAR CYKJ 120500Z AUTO 15004KT 9SM CLR 08/05 A2997 RMK SLP165,2025-09-12T05:16:49Z,2025-09-12T01:16:49Z,Key Lake Airport,57.256099700927734,-105.61799621582033,CA,CA-SK
CYKP,"Ogoki Post, ON, CA",2025-09-12T04:00:00Z,2025-09-12 00:00:00,VFR,15,14,200,4,0,9,1018,METAR CYKP 120400Z AUTO 20004KT 9SM FEW220 15/14 A3006 RMK SLP181,2025-09-12T05:00:08Z,2025-09-12T01:00:08Z,Ogoki Post Airport,51.6585998535,-85.9017028809,CA,CA-ON
CYKP,"Ogoki Post, ON, CA",2025-09-12T05:00:00Z,2025-09-12 01:00:00,VFR,15,13,230,5,0,9,1018.4,METAR CYKP 120500Z AUTO 23005KT 200V270 9SM FEW096 SCT120 15/13 A3007 RMK SLP182,2025-09-12T05:16:49Z,2025-09-12T01:16:49Z,Ogoki Post Airport,51.6585998535,-85.9017028809,CA,CA-ON
CYKY,"Kindersley Arpt, SK, CA",2025-09-12T04:00:00Z,2025-09-11 22:00:00,VFR,17,14,120,9,0,15,1014,METAR CYKY 120400Z 12009KT 15SM SKC 17/14 A2994 RMK SLP139 DENSITY ALT 3000FT,2025-09-12T05:00:09Z,2025-09-12T01:00:09Z,Kindersley Airport,51.5175018311,-109.180999756,CA,CA-SK
CYKY,"Kindersley Arpt, SK, CA",2025-09-12T05:00:00Z,2025-09-11 23:00:00,VFR,16,13,110,8,0,15,1014.3,METAR CYKY 120500Z 11008KT 15SM SKC 16/13 A2995 RMK SLP141 DENSITY ALT 2900FT,2025-09-12T05:16:49Z,2025-09-12T01:16:49Z,Kindersley Airport,51.5175018311,-109.180999756,CA,CA-SK
CYLH,"Lansdowne House Arpt, ON, CA",2025-09-12T04:00:00Z,2025-09-12 00:00:00,VFR,16,14,210,7,0,9,1017.4,METAR CYLH 120400Z AUTO 21007KT 9SM CLR 16/14 A3004 RMK SLP179 DENSITY ALT 1100FT,2025-09-12T05:00:08Z,2025-09-12T01:00:08Z,Lansdowne House Airport,52.195599,-87.934196,CA,CA-ON
CYLH,"Lansdowne House Arpt, ON, CA",2025-09-12T05:00:00Z,2025-09-12 01:00:00,VFR,16,14,230,6,0,9,1017.4,METAR CYLH 120500Z AUTO 23006KT 9SM CLR 16/14 A3004 RMK SLP181,2025-09-12T05:16:49Z,2025-09-12T01:16:49Z,Lansdowne House Airport,52.195599,-87.934196,CA,CA-ON
CYLL,"Lloydminster Arpt, AB, CA",2025-09-12T04:00:00Z,2025-09-11 22:00:00,VFR,19,11,140,10,17,15,1013.6,METAR CYLL 120400Z 14010G17KT 15SM SCT110 19/11 A2993 RMK AC4 LAST STFD OBS/NXT 121300Z SLP138 DENSITY ALT 3200FT,2025-09-12T05:00:09Z,2025-09-12T01:00:09Z,Lloydminster Airport,53.3092,-110.072998,CA,CA-AB
CYLL,"Lloydminster Arpt, AB, CA",2025-09-12T05:00:00Z,2025-09-11 23:00:00,VFR,16,11,150,7,0,9,1014,METAR CYLL 120500Z AUTO 15007KT 9SM CLR 16/11 A2994 RMK SLP143 DENSITY ALT 2900FT,2025-09-12T05:16:49Z,2025-09-12T01:16:49Z,Lloydminster Airport,53.3092,-110.072998,CA,CA-AB
CYLW,"Kelowna Arpt, BC, CA",2025-09-12T04:00:00Z,2025-09-11 21:00:00,VFR,18,10,60,3,0,9,1011.3,METAR CYLW 120400Z AUTO 06003KT 9SM CLR 18/10 A2986 RMK SLP112 DENSITY ALT 2200FT,2025-09-12T05:00:09Z,2025-09-12T01:00:09Z,Kelowna International Airport,49.9561,-119.377998,CA,CA-BC
CYLW,"Kelowna Arpt, BC, CA",2025-09-12T05:00:00Z,2025-09-11 22:00:00,VFR,18,10,0,0,0,9,1011.9,METAR CYLW 120500Z AUTO 00000KT 9SM CLR 18/10 A2988 RMK SLP116 DENSITY ALT 2200FT,2025-09-12T05:16:49Z,2025-09-12T01:16:49Z,Kelowna International Airport,49.9561,-119.377998,CA,CA-BC
CYMA,"Mayo Arpt, YT, CA",2025-09-12T04:00:00Z,2025-09-11 21:00:00,VFR,12,6,90,2,0,20,998.1,METAR CYMA 120400Z 09002KT 20SM BKN130 12/06 A2947 RMK AC7 SLP997 DENSITY ALT 2200FT,2025-09-12T05:00:09Z,2025-09-12T01:00:09Z,Mayo Airport,63.61640167236328,-135.8679962158203,CA,CA-YT
CYMA,"Mayo Arpt, YT, CA",2025-09-12T05:00:00Z,2025-09-11 22:00:00,VFR,13,7,360,8,0,20,998.7,METAR CYMA 120500Z 36008KT 20SM BKN150 13/07 A2949 RMK AC6 SLP001 DENSITY ALT 2300FT,2025-09-12T05:16:49Z,2025-09-12T01:16:49Z,Mayo Airport,63.61640167236328,-135.8679962158203,CA,CA-YT
CYMH,"Mary's Harbor Arpt, NL, CA",2025-09-12T04:36:00Z,2025-09-12 02:06:00,IFR,7,7,40,11,18,1.75,1014.3,SPECI CYMH 120436Z AUTO 04011G18KT 1 3/4SM -RA BR OVC006 07/07 A2995 RMK VIS VRB 1-2 1/2 PRESFR PCPN 1.2MM PAST HR SLP146,2025-09-12T05:00:10Z,2025-09-12T01:00:10Z,Mary's Harbour Airport,52.302837,-55.847433,CA,CA-NL
CYMH,"Mary's Harbor Arpt, NL, CA",2025-09-12T05:00:00Z,2025-09-12 02:30:00,IFR,7,7,40,10,20,1.25,1014.3,METAR CYMH 120500Z AUTO 04010G20KT 1 1/4SM -RA BR OVC006 07/07 A2995 RMK PCPN 2.0MM PAST HR SLP145,2025-09-12T05:16:51Z,2025-09-12T01:16:51Z,Mary's Harbour Airport,52.302837,-55.847433,CA,CA-NL
CYMM,"Fort McMurray Arpt, AB, CA",2025-09-12T04:36:00Z,2025-09-11 22:36:00,MVFR,17,10,150,7,0,5,1011.9,SPECI CYMM 120436Z AUTO 15007KT 5SM HZ BKN019 17/10 A2988 RMK SLP126 DENSITY ALT 1800FT,2025-09-12T05:00:10Z,2025-09-12T01:00:10Z,Fort McMurray Airport,56.653301239,-111.222000122,CA,CA-AB
CYMM,"Fort McMurray Arpt, AB, CA",2025-09-12T05:15:00Z,2025-09-11 23:15:00,IFR,17,11,150,6,0,2.5,1011.9,SPECI CYMM 120515Z AUTO 15006KT 2 1/2SM HZ OVC021 17/11 A2988 RMK SLP129 DENSITY ALT 1800FT,2025-09-12T05:16:51Z,2025-09-12T01:16:51Z,Fort McMurray Airport,56.653301239,-111.222000122,CA,CA-AB
CYMO,"Moosonee Arpt, ON, CA",2025-09-12T04:00:00Z,2025-09-12 00:00:00,VFR,8,6,170,6,0,9,1023.1,METAR CYMO 120400Z AUTO 17006KT 9SM CLR 08/06 A3021 RMK SLP232,2025-09-12T05:00:10Z,2025-09-12T01:00:10Z,Moosonee Airport,51.29109954833984,-80.60780334472656,CA,CA-ON
CYMO,"Moosonee Arpt, ON, CA",2025-09-12T05:00:00Z,2025-09-12 01:00:00,VFR,8,6,180,8,0,9,1022.4,METAR CYMO 120500Z AUTO 18008KT 9SM CLR 08/06 A3019 RMK SLP227,2025-09-12T05:16:51Z,2025-09-12T01:16:51Z,Moosonee Airport,51.29109954833984,-80.60780334472656,CA,CA-ON
CYMT,"Chibougamau Arpt, QC, CA",2025-09-12T04:00:00Z,2025-09-12 00:00:00,VFR,4,3,VAR,2,0,9,1025.1,METAR CYMT 120400Z AUTO VRB02KT 9SM CLR 04/03 A3027 RMK SLP265,2025-09-12T05:00:10Z,2025-09-12T01:00:10Z,Chapais Airport,49.77190017700195,-74.5280990600586,CA,CA-QC
CYMT,"Chibougamau Arpt, QC, CA",2025-09-12T05:00:00Z,2025-09-12 01:00:00,VFR,3,3,0,0,0,9,1025.1,METAR CYMT 120500Z AUTO 00000KT 9SM CLR 03/03 A3027 RMK SLP264,2025-09-12T05:16:51Z,2025-09-12T01:16:51Z,Chapais Airport,49.77190017700195,-74.5280990600586,CA,CA-QC
CYMX,"Montreal/Mirabel Arpt, QC, CA",2025-09-12T04:00:00Z,2025-09-12 00:00:00,VFR,9,8,280,2,0,25,1023.8,METAR CYMX 120400Z 28002KT 25SM SKC 09/08 A3023 RMK SLP239,2025-09-12T05:00:10Z,2025-09-12T01:00:10Z,Montreal International (Mirabel) Airport,45.679501,-74.038696,CA,CA-QC
CYMX,"Montreal/Mirabel Arpt, QC, CA",2025-09-12T05:00:00Z,2025-09-12 01:00:00,VFR,9,8,340,2,0,25,1023.8,METAR CYMX 120500Z 34002KT 25SM SKC 09/08 A3023 RMK SLP240,2025-09-12T05:16:51Z,2025-09-12T01:16:51Z,Montreal International (Mirabel) Airport,45.679501,-74.038696,CA,CA-QC
CYNA,"Natashquan Arpt, QC, CA",2025-09-12T04:00:00Z,2025-09-12 00:00:00,VFR,9,7,270,7,0,9,1008.2,METAR CYNA 120400Z AUTO 27007KT 9SM CLR 09/07 A2977 RMK SLP083,2025-09-12T05:00:11Z,2025-09-12T01:00:11Z,Natashquan Airport,50.190114,-61.78898,CA,CA-QC
CYNA,"Natashquan Arpt, QC, CA",2025-09-12T05:00:00Z,2025-09-12 01:00:00,VFR,8,6,270,2,0,9,1008.2,METAR CYNA 120500Z AUTO 27002KT 9SM CLR 08/06 A2977 RMK SLP082,2025-09-12T05:16:51Z,2025-09-12T01:16:51Z,Natashquan Airport,50.190114,-61.78898,CA,CA-QC
CYNE,"Norway House Arpt, MB, CA",2025-09-12T04:00:00Z,2025-09-11 23:00:00,VFR,16,15,190,6,0,9,1014.6,METAR CYNE 120400Z AUTO 19006KT 9SM CLR 16/15 A2996 RMK SLP150 DENSITY ALT 1100FT,2025-09-12T05:00:10Z,2025-09-12T01:00:10Z,Norway House Airport,53.958302,-97.8442,CA,CA-MB
CYNE,"Norway House Arpt, MB, CA",2025-09-12T05:00:00Z,2025-09-12 00:00:00,VFR,16,15,190,7,0,9,1014.6,METAR CYNE 120500Z AUTO 19007KT 9SM CLR 16/15 A2996 RMK SLP152 DENSITY ALT 1100FT,2025-09-12T05:16:51Z,2025-09-12T01:16:51Z,Norway House Airport,53.958302,-97.8442,CA,CA-MB
CYNM,"Matagami Arpt, QC, CA",2025-09-12T04:00:00Z,2025-09-12 00:00:00,VFR,3,2,200,3,0,9,1025.5,METAR CYNM 120400Z AUTO 20003KT 9SM CLR 03/02 A3028 RMK SLP268,2025-09-12T05:00:10Z,2025-09-12T01:00:10Z,Matagami Airport,49.76169967651367,-77.80280303955078,CA,CA-QC
CYNM,"Matagami Arpt, QC, CA",2025-09-12T05:00:00Z,2025-09-12 01:00:00,VFR,3,3,210,3,0,9,1025.1,METAR CYNM 120500Z AUTO 21003KT 9SM CLR 03/03 A3027 RMK SLP265,2025-09-12T05:16:51Z,2025-09-12T01:16:51Z,Matagami Airport,49.76169967651367,-77.80280303955078,CA,CA-QC
CYOD,"Cold Lake (Mil), AB, CA",2025-09-12T04:00:00Z,2025-09-11 22:00:00,VFR,16,13,90,4,0,NA,1014,METAR CYOD 120400Z 09004KT 10SM BKN095 16/13 A2994 RMK AC5 DENSITY ALT 2453FT SLP142,2025-09-12T05:00:10Z,2025-09-12T01:00:10Z,CFB Cold Lake,54.404998779296875,-110.27899932861328,CA,CA-AB
CYOD,"Cold Lake (Mil), AB, CA",2025-09-12T05:00:00Z,2025-09-11 23:00:00,VFR,16,13,60,6,0,NA,1014.3,METAR CYOD 120500Z 06006KT 10SM FEW080 SCT095 16/13 A2995 RMK AC1AC3 DENSITY ALT 2511FT SLP143,2025-09-12T05:16:51Z,2025-09-12T01:16:51Z,CFB Cold Lake,54.404998779296875,-110.27899932861328,CA,CA-AB
CYOJ,"High Level Arpt, AB, CA",2025-09-12T04:00:00Z,2025-09-11 22:00:00,NA,17,9,0,0,0,9,1005.5,METAR CYOJ 120400Z AUTO 00000KT 9SM 17/09 A2969 RMK CLD MISG SLP063 DENSITY ALT 1900FT,2025-09-12T05:00:10Z,2025-09-12T01:00:10Z,High Level Airport,58.62139892578125,-117.16500091552734,CA,CA-AB
CYOJ,"High Level Arpt, AB, CA",2025-09-12T05:00:00Z,2025-09-11 23:00:00,NA,13,10,0,0,0,9,1005.5,METAR CYOJ 120500Z AUTO 00000KT 9SM 13/10 A2969 RMK CLD MISG SLP065 DENSITY ALT 1500FT,2025-09-12T05:16:51Z,2025-09-12T01:16:51Z,High Level Airport,58.62139892578125,-117.16500091552734,CA,CA-AB
CYOO,"Oshawa Arpt, ON, CA",2025-09-12T04:00:00Z,2025-09-12 00:00:00,VFR,15,13,10,5,0,9,1022.8,METAR CYOO 120400Z AUTO 01005KT 9SM CLR 15/13 A3020 RMK SLP229,2025-09-12T05:00:11Z,2025-09-12T01:00:11Z,Oshawa Executive Airport,43.922798,-78.894997,CA,CA-ON
CYOO,"Oshawa Arpt, ON, CA",2025-09-12T05:00:00Z,2025-09-12 01:00:00,VFR,15,12,360,3,0,9,1022.8,METAR CYOO 120500Z AUTO 36003KT 9SM CLR 15/12 A3020 RMK SLP230,2025-09-12T05:16:51Z,2025-09-12T01:16:51Z,Oshawa Executive Airport,43.922798,-78.894997,CA,CA-ON
CYOW,"Ottawa/Cartier Intl, ON, CA",2025-09-12T04:00:00Z,2025-09-12 00:00:00,VFR,12,6,350,7,0,15,1024.5,METAR CYOW 120400Z 35007KT 15SM SKC 12/06 A3025 RMK SLP247,2025-09-12T05:00:11Z,2025-09-12T01:00:11Z,Ottawa Macdonald-Cartier International Airport,45.322498,-75.669197,CA,CA-ON
CYOW,"Ottawa/Cartier Intl, ON, CA",2025-09-12T05:00:00Z,2025-09-12 01:00:00,VFR,11,6,360,6,0,15,1024.1,METAR CYOW 120500Z 36006KT 15SM SKC 11/06 A3024 RMK SLP244,2025-09-12T05:16:51Z,2025-09-12T01:16:51Z,Ottawa Macdonald-Cartier International Airport,45.322498,-75.669197,CA,CA-ON
CYPA,"Prince Albert Arpt, SK, CA",2025-09-12T04:16:00Z,2025-09-11 22:16:00,VFR,16,15,40,4,0,6,1013.6,SPECI CYPA 120416Z AUTO 04004KT 6SM BR BKN120 16/15 A2993 RMK SLP146 DENSITY ALT 1800FT,2025-09-12T05:00:10Z,2025-09-12T01:00:10Z,Prince Albert Glass Field,53.2141990662,-105.672996521,CA,CA-SK
CYPA,"Prince Albert Arpt, SK, CA",2025-09-12T05:00:00Z,2025-09-11 23:00:00,VFR,14,14,360,3,0,6,1013.6,METAR CYPA 120500Z AUTO 36003KT 6SM BR FEW071 14/14 A2993 RMK SLP144 DENSITY ALT 1700FT,2025-09-12T05:16:51Z,2025-09-12T01:16:51Z,Prince Albert Glass Field,53.2141990662,-105.672996521,CA,CA-SK
CYPD,"Port Hawkesbury Arpt, NS, CA",2025-09-12T04:00:00Z,2025-09-12 01:00:00,VFR,14,11,330,6,15,9,1013.3,METAR CYPD 120400Z AUTO 33006G15KT 9SM CLR 14/11 A2992 RMK SLP136,2025-09-12T05:00:10Z,2025-09-12T01:00:10Z,Port Hawkesbury Airport,45.6567001343,-61.3680992126,CA,CA-NS
CYPD,"Port Hawkesbury Arpt, NS, CA",2025-09-12T05:00:00Z,2025-09-12 02:00:00,VFR,13,10,340,9,16,9,1013.6,METAR CYPD 120500Z AUTO 34009G16KT 9SM CLR 13/10 A2993 RMK SLP138,2025-09-12T05:16:51Z,2025-09-12T01:16:51Z,Port Hawkesbury Airport,45.6567001343,-61.3680992126,CA,CA-NS
CYPE,"Peace River Arpt, AB, CA",2025-09-12T04:00:00Z,2025-09-11 22:00:00,VFR,17,6,190,3,0,9,1009.6,METAR CYPE 120400Z AUTO 19003KT 9SM CLR 17/06 A2981 RMK SLP105 DENSITY ALT 2700FT,2025-09-12T05:00:11Z,2025-09-12T01:00:11Z,Peace River Airport,56.226898,-117.446999,CA,CA-AB
CYPE,"Peace River Arpt, AB, CA",2025-09-12T05:00:00Z,2025-09-11 23:00:00,VFR,14,5,200,3,0,9,1009.6,METAR CYPE 120500Z AUTO 20003KT 9SM CLR 14/05 A2981 RMK SLP106 DENSITY ALT 2300FT,2025-09-12T05:16:51Z,2025-09-12T01:16:51Z,Peace River Airport,56.226898,-117.446999,CA,CA-AB
CYPH,"Inukjuak Arpt, QC, CA",2025-09-12T04:42:00Z,2025-09-12 00:42:00,VFR,7,5,180,17,30,9,1016.3,SPECI CYPH 120442Z AUTO 18017G30KT 9SM SCT012 OVC120 07/05 A3001 RMK PRESFR SLP165,2025-09-12T05:00:10Z,2025-09-12T01:00:10Z,Inukjuak Airport,58.471901,-78.076897,CA,CA-QC
CYPH,"Inukjuak Arpt, QC, CA",2025-09-12T05:00:00Z,2025-09-12 01:00:00,VFR,7,6,170,20,29,9,1015.7,METAR CYPH 120500Z AUTO 17020G29KT 9SM BKN130 BKN160 07/06 A2999 RMK SLP161,2025-09-12T05:16:51Z,2025-09-12T01:16:51Z,Inukjuak Airport,58.471901,-78.076897,CA,CA-QC
CYPL,"Pickle Lake Arpt, ON, CA",2025-09-12T04:00:00Z,2025-09-11 23:00:00,VFR,18,11,230,9,0,9,1019,METAR CYPL 120400Z AUTO 23009KT 9SM CLR 18/11 A3009 RMK SLP198 DENSITY ALT 1800FT,2025-09-12T05:00:10Z,2025-09-12T01:00:10Z,Pickle Lake Airport,51.4463996887207,-90.214202880859375,CA,CA-ON
CYPL,"Pickle Lake Arpt, ON, CA",2025-09-12T05:00:00Z,2025-09-12 00:00:00,VFR,17,11,220,9,15,9,1019,METAR CYPL 120500Z AUTO 22009G15KT 9SM CLR 17/11 A3009 RMK SLP197 DENSITY ALT 1700FT,2025-09-12T05:16:51Z,2025-09-12T01:16:51Z,Pickle Lake Airport,51.4463996887207,-90.214202880859375,CA,CA-ON
CYPO,"Peawanuck Arpt, ON, CA",2025-09-12T04:00:00Z,2025-09-12 00:00:00,VFR,16,11,190,13,19,9,1011.3,METAR CYPO 120400Z AUTO 19013G19KT 9SM FEW076 BKN140 BKN160 16/11 A2986 RMK SLP112 DENSITY ALT 400FT,2025-09-12T05:00:11Z,2025-09-12T01:00:11Z,Peawanuck Airport,54.987932,-85.442648,CA,CA-ON
CYPO,"Peawanuck Arpt, ON, CA",2025-09-12T05:00:00Z,2025-09-12 01:00:00,VFR,17,12,200,11,16,9,1010.6,METAR CYPO 120500Z AUTO 20011G16KT 9SM BKN076 BKN100 BKN130 17/12 A2984 RMK SLP105 DENSITY ALT 500FT,2025-09-12T05:16:51Z,2025-09-12T01:16:51Z,Peawanuck Airport,54.987932,-85.442648,CA,CA-ON
CYPQ,"Peterborough Muni, ON, CA",2025-09-12T04:35:00Z,2025-09-12 00:35:00,VFR,12,12,VAR,2,0,6,1023.5,SPECI CYPQ 120435Z AUTO VRB02KT 6SM BR FEW045 12/12 A3022 RMK SLP237,2025-09-12T05:00:10Z,2025-09-12T01:00:10Z,Peterborough Municipal Airport,44.23,-78.363297,CA,CA-ON
CYPQ,"Peterborough Muni, ON, CA",2025-09-12T05:00:00Z,2025-09-12 01:00:00,VFR,14,12,50,4,0,9,1023.5,METAR CYPQ 120500Z AUTO 05004KT 9SM CLR 14/12 A3022 RMK SLP237,2025-09-12T05:16:51Z,2025-09-12T01:16:51Z,Peterborough Municipal Airport,44.23,-78.363297,CA,CA-ON
CYPR,"Prince Rupert Arpt, BC, CA",2025-09-12T04:56:00Z,2025-09-11 21:56:00,NA,13,13,350,3,0,NA,1011.3,SPECI CYPR 120456Z AUTO 35003KT OVC024 13/13 A2986 RMK PCPN 6.0MM PAST HR WX MISG VIS MISG SLP114,2025-09-12T05:00:10Z,2025-09-12T01:00:10Z,Prince Rupert Airport,54.2860984802,-130.445007324,CA,CA-BC
CYPR,"Prince Rupert Arpt, BC, CA",2025-09-12T05:00:00Z,2025-09-11 22:00:00,NA,13,13,VAR,2,0,NA,1011.3,METAR CYPR 120500Z AUTO VRB02KT OVC024 13/13 A2986 RMK PCPN 6.5MM PAST HR WX MISG VIS MISG SLP114,2025-09-12T05:16:51Z,2025-09-12T01:16:51Z,Prince Rupert Airport,54.2860984802,-130.445007324,CA,CA-BC
CYPX,"Puvungnituq Arpt, QC, CA",2025-09-12T04:54:00Z,2025-09-12 00:54:00,MVFR,6,6,150,18,27,9,1016.7,SPECI CYPX 120454Z AUTO 15018G27KT 9SM BKN020 OVC086 06/06 A3002 RMK SLP168,2025-09-12T05:00:10Z,2025-09-12T01:00:10Z,Puvirnituq Airport,60.050598,-77.286903,CA,CA-QC
CYPX,"Puvungnituq Arpt, QC, CA",2025-09-12T05:09:00Z,2025-09-12 01:09:00,MVFR,6,6,150,18,25,9,1016.3,SPECI CYPX 120509Z AUTO 15018G25KT 9SM -RA BKN020 OVC076 06/06 A3001 RMK SLP165,2025-09-12T05:16:51Z,2025-09-12T01:16:51Z,Puvirnituq Airport,60.050598,-77.286903,CA,CA-QC
CYPY,"Fort Chipewyan Arpt, AB, CA",2025-09-12T04:00:00Z,2025-09-11 22:00:00,VFR,19,8,150,5,0,9,1009.9,METAR CYPY 120400Z AUTO 15005KT 9SM CLR 19/08 A2982 RMK ICE MISG SLP104 DENSITY ALT 1600FT,2025-09-12T05:00:10Z,2025-09-12T01:00:10Z,Fort Chipewyan Airport,58.7672004699707,-111.11699676513672,CA,CA-AB
CYPY,"Fort Chipewyan Arpt, AB, CA",2025-09-12T05:00:00Z,2025-09-11 23:00:00,VFR,19,8,170,6,0,9,1009.9,METAR CYPY 120500Z AUTO 17006KT 9SM CLR 19/08 A2982 RMK SLP105 DENSITY ALT 1600FT,2025-09-12T05:16:51Z,2025-09-12T01:16:51Z,Fort Chipewyan Airport,58.7672004699707,-111.11699676513672,CA,CA-AB
CYQA,"Muskoka Arpt, ON, CA",2025-09-12T04:00:00Z,2025-09-12 00:00:00,VFR,11,10,VAR,2,0,9,1023.8,METAR CYQA 120400Z AUTO VRB02KT 9SM CLR 11/10 A3023 RMK SLP243,2025-09-12T05:00:10Z,2025-09-12T01:00:10Z,Muskoka Airport,44.975376,-79.306546,CA,CA-ON
CYQA,"Muskoka Arpt, ON, CA",2025-09-12T05:00:00Z,2025-09-12 01:00:00,VFR,11,9,0,0,0,9,1024.1,METAR CYQA 120500Z AUTO 00000KT 9SM CLR 11/09 A3024 RMK SLP246,2025-09-12T05:16:51Z,2025-09-12T01:16:51Z,Muskoka Airport,44.975376,-79.306546,CA,CA-ON
CYQB,"Quebec/Lesage Intl, QC, CA",2025-09-12T04:00:00Z,2025-09-12 00:00:00,VFR,10,5,30,4,0,15,1023.1,METAR CYQB 120400Z 03004KT 15SM SKC 10/05 A3021 RMK SLP235,2025-09-12T05:00:10Z,2025-09-12T01:00:10Z,Quebec Jean Lesage International Airport,46.7911,-71.393303,CA,CA-QC
CYQB,"Quebec/Lesage Intl, QC, CA",2025-09-12T05:00:00Z,2025-09-12 01:00:00,VFR,7,6,360,3,0,15,1023.8,METAR CYQB 120500Z 36003KT 15SM SKC 07/06 A3023 RMK SLP239,2025-09-12T05:16:51Z,2025-09-12T01:16:51Z,Quebec Jean Lesage International Airport,46.7911,-71.393303,CA,CA-QC
CYQD,"The Pas Arpt, MB, CA",2025-09-12T04:00:00Z,2025-09-11 23:00:00,VFR,16,14,140,3,0,9,1014,METAR CYQD 120400Z AUTO 14003KT 9SM CLR 16/14 A2994 RMK SLP143 DENSITY ALT 1200FT,2025-09-12T05:00:10Z,2025-09-12T01:00:10Z,The Pas Airport,53.97140121459961,-101.09100341796876,CA,CA-MB
CYQD,"The Pas Arpt, MB, CA",2025-09-12T05:00:00Z,2025-09-12 00:00:00,VFR,17,15,100,2,0,9,1014,METAR CYQD 120500Z AUTO 10002KT 9SM CLR 17/15 A2994 RMK SLP145 DENSITY ALT 1300FT,2025-09-12T05:16:51Z,2025-09-12T01:16:51Z,The Pas Airport,53.97140121459961,-101.09100341796876,CA,CA-MB
CYQF,"Red Deer Rgnl, AB, CA",2025-09-12T04:00:00Z,2025-09-11 22:00:00,VFR,16,9,20,2,0,7,1014,METAR CYQF 120400Z AUTO 02002KT 7SM CLR 16/09 A2994 RMK SLP149 DENSITY ALT 3700FT,2025-09-12T05:00:10Z,2025-09-12T01:00:10Z,Red Deer Regional Airport,52.182201,-113.893997,CA,CA-AB
CYQF,"Red Deer Rgnl, AB, CA",2025-09-12T05:00:00Z,2025-09-11 23:00:00,VFR,14,9,VAR,2,0,8,1014.3,METAR CYQF 120500Z AUTO VRB02KT 8SM CLR 14/09 A2995 RMK SLP148 DENSITY ALT 3500FT,2025-09-12T05:16:51Z,2025-09-12T01:16:51Z,Red Deer Regional Airport,52.182201,-113.893997,CA,CA-AB
CYQG,"Windsor Intl, ON, CA",2025-09-12T04:00:00Z,2025-09-12 00:00:00,VFR,16,12,40,5,0,9,1023.8,METAR CYQG 120400Z AUTO 04005KT 9SM CLR 16/12 A3023 RMK SLP239,2025-09-12T05:00:11Z,2025-09-12T01:00:11Z,Windsor Airport,42.27560043334961,-82.955596923828125,CA,CA-ON
CYQG,"Windsor Intl, ON, CA",2025-09-12T05:00:00Z,2025-09-12 01:00:00,VFR,16,13,20,4,0,9,1023.8,METAR CYQG 120500Z AUTO 02004KT 9SM CLR 16/13 A3023 RMK SLP237,2025-09-12T05:16:51Z,2025-09-12T01:16:51Z,Windsor Airport,42.27560043334961,-82.955596923828125,CA,CA-ON
CYQH,"Watson Lake Arpt, YT, CA",2025-09-12T04:00:00Z,2025-09-11 21:00:00,VFR,16,7,290,9,0,20,1006.5,METAR CYQH 120400Z 29009KT 20SM BKN070 BKN150 16/07 A2972 RMK AC5AC2 SLP072 DENSITY ALT 3100FT,2025-09-12T05:00:10Z,2025-09-12T01:00:10Z,Watson Lake Airport,60.116839,-128.821993,CA,CA-YT
CYQH,"Watson Lake Arpt, YT, CA",2025-09-12T05:00:00Z,2025-09-11 22:00:00,VFR,14,7,250,7,0,20,1006.9,METAR CYQH 120500Z 25007KT 20SM BKN075 14/07 A2973 RMK AC6 SLP076 DENSITY ALT 3000FT,2025-09-12T05:16:51Z,2025-09-12T01:16:51Z,Watson Lake Airport,60.116839,-128.821993,CA,CA-YT
CYQI,"Yarmouth Arpt, NS, CA",2025-09-12T04:00:00Z,2025-09-12 01:00:00,VFR,15,11,360,11,0,15,1017.7,METAR CYQI 120400Z 36011KT 15SM BKN250 15/11 A3005 RMK CI6 CLD HGT EST SLP179,2025-09-12T05:00:10Z,2025-09-12T01:00:10Z,Yarmouth Airport,43.826900482177734,-66.08809661865234,CA,CA-NS
CYQI,"Yarmouth Arpt, NS, CA",2025-09-12T05:00:00Z,2025-09-12 02:00:00,VFR,14,10,360,12,0,15,1018,METAR CYQI 120500Z 36012KT 15SM FEW250 14/10 A3006 RMK CI1 CLD HGT EST SLP183,2025-09-12T05:16:51Z,2025-09-12T01:16:51Z,Yarmouth Airport,43.826900482177734,-66.08809661865234,CA,CA-NS
CYQK,"Kenora Arpt, ON, CA",2025-09-12T04:29:00Z,2025-09-11 23:29:00,VFR,15,14,170,7,0,20,1019,SPECI CYQK 120429Z 17007KT 20SM FEW065 SCT120 BKN250 15/14 A3009 RMK SC1AC3CI2 SLP194,2025-09-12T05:00:10Z,2025-09-12T01:00:10Z,Kenora Airport,49.788299560546875,-94.36309814453124,CA,CA-ON
CYQK,"Kenora Arpt, ON, CA",2025-09-12T05:00:00Z,2025-09-12 00:00:00,VFR,15,14,170,11,0,20,1018.7,METAR CYQK 120500Z 17011KT 20SM FEW065 SCT130 BKN230 15/14 A3008 RMK SC1AC3CI3 SLP191 DENSITY ALT 1600FT,2025-09-12T05:16:51Z,2025-09-12T01:16:51Z,Kenora Airport,49.788299560546875,-94.36309814453124,CA,CA-ON
CYQL,"Lethbridge Cnty Arpt, AB, CA",2025-09-12T04:00:00Z,2025-09-11 22:00:00,VFR,13,8,190,6,0,15,1014.6,METAR CYQL 120400Z 19006KT 15SM SKC 13/08 A2996 RMK LAST STFD OBS/NXT 121200Z SLP150 DENSITY ALT 3500FT,2025-09-12T05:00:10Z,2025-09-12T01:00:10Z,Lethbridge County Airport,49.6302986145,-112.800003052,CA,CA-AB
CYQL,"Lethbridge Cnty Arpt, AB, CA",2025-09-12T05:00:00Z,2025-09-11 23:00:00,VFR,13,8,VAR,2,0,9,1014.6,METAR CYQL 120500Z AUTO VRB02KT 9SM CLR 13/08 A2996 RMK SLP146 DENSITY ALT 3500FT,2025-09-12T05:16:51Z,2025-09-12T01:16:51Z,Lethbridge County Airport,49.6302986145,-112.800003052,CA,CA-AB
CYQM,"Moncton Intl, NB, CA",2025-09-12T04:00:00Z,2025-09-12 01:00:00,VFR,11,5,300,6,0,15,1017,METAR CYQM 120400Z 30006KT 15SM FEW220 11/05 A3003 RMK CI1 SLP173,2025-09-12T05:00:11Z,2025-09-12T01:00:11Z,Greater Moncton Roméo LeBlanc International Airport,46.112202,-64.678596,CA,CA-NB
CYQM,"Moncton Intl, NB, CA",2025-09-12T05:00:00Z,2025-09-12 02:00:00,VFR,10,4,250,5,0,15,1017.4,METAR CYQM 120500Z 25005KT 230V310 15SM FEW220 10/04 A3004 RMK CI1 SLP174,2025-09-12T05:16:51Z,2025-09-12T01:16:51Z,Greater Moncton Roméo LeBlanc International Airport,46.112202,-64.678596,CA,CA-NB
CYQQ,"Comox(MIL), BC, CA",2025-09-12T04:00:00Z,2025-09-11 21:00:00,VFR,17,13,220,3,0,20,1015.7,METAR CYQQ 120400Z 22003KT 20SM FEW060 BKN250 17/13 A2999 RMK SC1CI6 DENSITY ALT 393FT SLP157,2025-09-12T05:00:11Z,2025-09-12T01:00:11Z,Comox Valley Airport / CFB Comox,49.7108,-124.887001,CA,CA-BC
CYQQ,"Comox(MIL), BC, CA",2025-09-12T05:00:00Z,2025-09-11 22:00:00,VFR,17,14,0,0,0,20,1016.3,METAR CYQQ 120500Z 00000KT 20SM BKN250 17/14 A3001 RMK CI5 DENSITY ALT 452FT SLP164,2025-09-12T05:16:51Z,2025-09-12T01:16:51Z,Comox Valley Airport / CFB Comox,49.7108,-124.887001,CA,CA-BC
CYQR,"Regina Intl Arpt, SK, CA",2025-09-12T04:00:00Z,2025-09-11 22:00:00,VFR,20,17,110,11,0,15,1013,METAR CYQR 120400Z 11011KT 15SM SCT120 OVC220 20/17 A2991 RMK AC4CI4 DIST LTNG SW SLP132 DENSITY ALT 3000FT,2025-09-12T05:00:10Z,2025-09-12T01:00:10Z,Regina International Airport,50.43190002441406,-104.66600036621094,CA,CA-SK
CYQR,"Regina Intl Arpt, SK, CA",2025-09-12T05:00:00Z,2025-09-11 23:00:00,VFR,20,17,120,7,0,15,1013.3,METAR CYQR 120500Z 12007KT 15SM BKN045 OVC180 20/17 A2992 RMK SC7AC1 SLP137 DENSITY ALT 2900FT,2025-09-12T05:16:51Z,2025-09-12T01:16:51Z,Regina International Airport,50.43190002441406,-104.66600036621094,CA,CA-SK
CYQT,"Thunder Bay Intl, ON, CA",2025-09-12T04:00:00Z,2025-09-12 00:00:00,VFR,9,9,340,2,0,15,1023.5,METAR CYQT 120400Z 34002KT 15SM SCT180 09/09 A3022 RMK AC4 SLP240,2025-09-12T05:00:10Z,2025-09-12T01:00:10Z,Thunder Bay Airport,48.37189865112305,-89.32389831542969,CA,CA-ON
CYQT,"Thunder Bay Intl, ON, CA",2025-09-12T05:00:00Z,2025-09-12 01:00:00,VFR,10,10,0,0,0,15,1023.1,METAR CYQT 120500Z 00000KT 15SM BKN160 10/10 A3021 RMK AC6 SLP238,2025-09-12T05:16:51Z,2025-09-12T01:16:51Z,Thunder Bay Airport,48.37189865112305,-89.32389831542969,CA,CA-ON
CYQU,"Grande Prairie Arpt, AB, CA",2025-09-12T04:00:00Z,2025-09-11 22:00:00,VFR,18,7,140,4,0,15,1010.9,METAR CYQU 120400Z 14004KT 15SM BKN200 18/07 A2985 RMK CI5 HZ SLP117 DENSITY ALT 3200FT,2025-09-12T05:00:10Z,2025-09-12T01:00:10Z,Grande Prairie Airport,55.1796989441,-118.885002136,CA,CA-AB
CYQU,"Grande Prairie Arpt, AB, CA",2025-09-12T05:00:00Z,2025-09-11 23:00:00,VFR,16,7,VAR,2,0,15,1011.3,METAR CYQU 120500Z VRB02KT 15SM BKN200 16/07 A2986 RMK CI5 FU SLP118 DENSITY ALT 2900FT,2025-09-12T05:16:51Z,2025-09-12T01:16:51Z,Grande Prairie Airport,55.1796989441,-118.885002136,CA,CA-AB
CYQV,"Yorkton Muni, SK, CA",2025-09-12T04:00:00Z,2025-09-11 22:00:00,VFR,16,15,150,6,0,9,1014.3,METAR CYQV 120400Z AUTO 15006KT 9SM CLR 16/15 A2995 RMK SLP147 DENSITY ALT 2200FT,2025-09-12T05:00:10Z,2025-09-12T01:00:10Z,Yorkton Municipal Airport,51.26470184326172,-102.46199798583984,CA,CA-SK
CYQV,"Yorkton Muni, SK, CA",2025-09-12T05:00:00Z,2025-09-11 23:00:00,VFR,16,16,170,6,0,9,1014.6,METAR CYQV 120500Z AUTO 17006KT 9SM OVC150 16/16 A2996 RMK SLP149 DENSITY ALT 2200FT,2025-09-12T05:16:51Z,2025-09-12T01:16:51Z,Yorkton Municipal Airport,51.26470184326172,-102.46199798583984,CA,CA-SK
CYQW,"North Battleford Arpt, SK, CA",2025-09-12T04:00:00Z,2025-09-11 22:00:00,VFR,14,12,100,4,0,9,1014.6,METAR CYQW 120400Z AUTO 10004KT 9SM CLR 14/12 A2996 RMK SLP153 DENSITY ALT 2000FT,2025-09-12T05:00:10Z,2025-09-12T01:00:10Z,North Battleford Airport,52.769409,-108.243742,CA,CA-SK
CYQW,"North Battleford Arpt, SK, CA",2025-09-12T05:00:00Z,2025-09-11 23:00:00,VFR,13,12,80,7,0,9,1014.6,METAR CYQW 120500Z AUTO 08007KT 9SM CLR 13/12 A2996 RMK SLP154 DENSITY ALT 2000FT,2025-09-12T05:16:51Z,2025-09-12T01:16:51Z,North Battleford Airport,52.769409,-108.243742,CA,CA-SK
CYQX,"Gander Intl Arpt, NL, CA",2025-09-12T04:30:00Z,2025-09-12 02:00:00,LIFR,11,11,30,6,0,1.75,1007.9,SPECI CYQX 120430Z 03006KT 1 3/4SM RA BR BKN002 OVC017 11/11 A2976 RMK FG3SF4SC1 CIG VRB 001-003 SLP082,2025-09-12T05:00:10Z,2025-09-12T01:00:10Z,Gander International Airport / CFB Gander,48.936258,-54.567719,CA,CA-NL
CYQX,"Gander Intl Arpt, NL, CA",2025-09-12T05:14:00Z,2025-09-12 02:44:00,LIFR,11,11,360,6,0,1.75,1007.5,SPECI CYQX 120514Z 36006KT 1 3/4SM RA BR BKN003 OVC010 11/11 A2975 RMK FG3SF4SC1 CIG VRB 002-004 SLP079,2025-09-12T05:16:51Z,2025-09-12T01:16:51Z,Gander International Airport / CFB Gander,48.936258,-54.567719,CA,CA-NL
CYQY,"Sydney Arpt, NS, CA",2025-09-12T04:00:00Z,2025-09-12 01:00:00,VFR,14,12,350,5,0,15,1011.9,METAR CYQY 120400Z 35005KT 15SM FEW025 BKN045 14/12 A2988 RMK SC2SC3 SLP120,2025-09-12T05:00:10Z,2025-09-12T01:00:10Z,Sydney / J.A. Douglas McCurdy Airport,46.1614,-60.047798,CA,CA-NS
CYQY,"Sydney Arpt, NS, CA",2025-09-12T05:00:00Z,2025-09-12 02:00:00,VFR,13,11,320,10,0,15,1012.3,METAR CYQY 120500Z 32010KT 15SM FEW025 13/11 A2989 RMK SC2 SLP125,2025-09-12T05:16:51Z,2025-09-12T01:16:51Z,Sydney / J.A. Douglas McCurdy Airport,46.1614,-60.047798,CA,CA-NS
CYQZ,"Quesnel Arpt, BC, CA",2025-09-12T04:09:00Z,2025-09-11 21:09:00,MVFR,14,11,330,3,0,5,1011.6,SPECI CYQZ 120409Z AUTO 33003KT 5SM HZ CLR 14/11 A2987 RMK SLP127 DENSITY ALT 2200FT,2025-09-12T05:00:10Z,2025-09-12T01:00:10Z,Quesnel Airport,53.026100158691406,-122.51000213623048,CA,CA-BC
CYQZ,"Quesnel Arpt, BC, CA",2025-09-12T05:00:00Z,2025-09-11 22:00:00,MVFR,15,12,VAR,2,0,5,1011.9,METAR CYQZ 120500Z AUTO VRB02KT 5SM HZ CLR 15/12 A2988 RMK SLP131 DENSITY ALT 2200FT,2025-09-12T05:16:51Z,2025-09-12T01:16:51Z,Quesnel Airport,53.026100158691406,-122.51000213623048,CA,CA-BC
CYRB,"Resolute Bay Arpt, NU, CA",2025-09-12T04:00:00Z,2025-09-11 23:00:00,IFR,1,0,160,9,0,25,1016,METAR CYRB 120400Z 16009KT 25SM BKN006 OVC016 01/00 A3000 RMK ST7SC1 SLP166,2025-09-12T05:00:10Z,2025-09-12T01:00:10Z,Resolute Bay Airport,74.7169036865,-94.9693984985,CA,CA-NU
CYRB,"Resolute Bay Arpt, NU, CA",2025-09-12T05:00:00Z,2025-09-12 00:00:00,IFR,1,0,160,9,0,25,1016,METAR CYRB 120500Z 16009KT 25SM OVC007 01/00 A3000 RMK ST8 SLP167,2025-09-12T05:16:51Z,2025-09-12T01:16:51Z,Resolute Bay Airport,74.7169036865,-94.9693984985,CA,CA-NU
CYRJ,"Roberval Arpt, QC, CA",2025-09-12T04:00:00Z,2025-09-12 00:00:00,VFR,7,4,290,7,0,25,1024.5,METAR CYRJ 120400Z 29007KT 25SM SKC 07/04 A3025 RMK SLP251,2025-09-12T05:00:10Z,2025-09-12T01:00:10Z,Roberval Airport,48.519665,-72.265735,CA,CA-QC
CYRJ,"Roberval Arpt, QC, CA",2025-09-12T05:00:00Z,2025-09-12 01:00:00,VFR,6,4,270,6,0,25,1024.5,METAR CYRJ 120500Z 27006KT 25SM SKC 06/04 A3025 RMK SLP252,2025-09-12T05:16:51Z,2025-09-12T01:16:51Z,Roberval Airport,48.519665,-72.265735,CA,CA-QC
CYRQ,"Trois-Rivières, QC, CA",2025-09-12T04:00:00Z,2025-09-12 00:00:00,VFR,7,6,0,0,0,9,1023.5,METAR CYRQ 120400Z AUTO 00000KT 9SM CLR 07/06 A3022 RMK SLP238,2025-09-12T05:00:10Z,2025-09-12T01:00:10Z,Trois-Rivières Airport,46.35279846191406,-72.67939758300781,CA,CA-QC
CYRQ,"Trois-Rivières, QC, CA",2025-09-12T05:00:00Z,2025-09-12 01:00:00,VFR,8,6,VAR,2,0,9,1024.1,METAR CYRQ 120500Z AUTO VRB02KT 9SM CLR 08/06 A3024 RMK SLP242,2025-09-12T05:16:51Z,2025-09-12T01:16:51Z,Trois-Rivières Airport,46.35279846191406,-72.67939758300781,CA,CA-QC
CYRT,"Rankin Inlet Arpt, NU, CA",2025-09-12T04:00:00Z,2025-09-11 23:00:00,IFR,7,7,20,18,0,15,1009.2,METAR CYRT 120400Z 02018KT 15SM BKN008 OVC037 07/07 A2980 RMK SC6SC2 SLP096,2025-09-12T05:00:10Z,2025-09-12T01:00:10Z,Rankin Inlet Airport,62.8114013672,-92.1157989502,CA,CA-NU
CYRT,"Rankin Inlet Arpt, NU, CA",2025-09-12T05:00:00Z,2025-09-12 00:00:00,MVFR,7,6,20,15,21,15,1010.2,METAR CYRT 120500Z 02015G21KT 15SM BKN010 OVC035 07/06 A2983 RMK SC5SC3 SLP104,2025-09-12T05:16:51Z,2025-09-12T01:16:51Z,Rankin Inlet Airport,62.8114013672,-92.1157989502,CA,CA-NU
CYRV,"Revelstoke Arpt, BC, CA",2025-09-12T04:39:00Z,2025-09-11 21:39:00,IFR,15,12,0,0,0,2.25,1011.9,SPECI CYRV 120439Z AUTO 00000KT 2 1/4SM HZ CLR 15/12 A2988 RMK SLP123 DENSITY ALT 1900FT,2025-09-12T05:00:10Z,2025-09-12T01:00:10Z,Revelstoke Airport,50.962245,-118.184258,CA,CA-BC
CYRV,"Revelstoke Arpt, BC, CA",2025-09-12T05:00:00Z,2025-09-11 22:00:00,LIFR,16,13,VAR,2,0,0.75,1012.3,METAR CYRV 120500Z AUTO VRB02KT 3/4SM HZ CLR 16/13 A2989 RMK SLP123 DENSITY ALT 2000FT,2025-09-12T05:16:51Z,2025-09-12T01:16:51Z,Revelstoke Airport,50.962245,-118.184258,CA,CA-BC
CYSB,"Sudbury Arpt, ON, CA",2025-09-12T04:00:00Z,2025-09-12 00:00:00,VFR,7,6,60,6,0,15,1025.1,METAR CYSB 120400Z 06006KT 15SM SKC 07/06 A3027 RMK SLP261,2025-09-12T05:00:10Z,2025-09-12T01:00:10Z,Sudbury Airport,46.625,-80.79889678955078,CA,CA-ON
CYSB,"Sudbury Arpt, ON, CA",2025-09-12T05:00:00Z,2025-09-12 01:00:00,VFR,6,5,40,6,0,15,1025.5,METAR CYSB 120500Z 04006KT 15SM SKC 06/05 A3028 RMK SLP266,2025-09-12T05:16:51Z,2025-09-12T01:16:51Z,Sudbury Airport,46.625,-80.79889678955078,CA,CA-ON
CYSC,"Sherbrooke Arpt, QC, CA",2025-09-12T04:00:00Z,2025-09-12 00:00:00,VFR,7,5,0,0,0,9,1022.8,METAR CYSC 120400Z AUTO 00000KT 9SM FEW250 07/05 A3020 RMK SLP231,2025-09-12T05:00:10Z,2025-09-12T01:00:10Z,Sherbrooke Airport,45.438599,-71.691399,CA,CA-QC
CYSC,"Sherbrooke Arpt, QC, CA",2025-09-12T05:00:00Z,2025-09-12 01:00:00,VFR,5,5,80,3,0,9,1023.1,METAR CYSC 120500Z AUTO 08003KT 9SM CLR 05/05 A3021 RMK SLP237,2025-09-12T05:16:51Z,2025-09-12T01:16:51Z,Sherbrooke Airport,45.438599,-71.691399,CA,CA-QC
CYSF,"Stony Rapids Arpt, SK, CA",2025-09-12T04:00:00Z,2025-09-11 22:00:00,VFR,7,6,140,3,0,9,1014,METAR CYSF 120400Z AUTO 14003KT 080V150 9SM CLR 07/06 A2994 RMK SLP152,2025-09-12T05:00:10Z,2025-09-12T01:00:10Z,Stony Rapids Airport,59.250301361083984,-105.84100341796876,CA,CA-SK
CYSF,"Stony Rapids Arpt, SK, CA",2025-09-12T05:00:00Z,2025-09-11 23:00:00,VFR,7,6,80,4,0,9,1014,METAR CYSF 120500Z AUTO 08004KT 9SM CLR 07/06 A2994 RMK SLP152,2025-09-12T05:16:51Z,2025-09-12T01:16:51Z,Stony Rapids Airport,59.250301361083984,-105.84100341796876,CA,CA-SK
CYSJ,"Saint John Arpt, NB, CA",2025-09-12T04:00:00Z,2025-09-12 01:00:00,VFR,13,6,340,10,16,15,1018,METAR CYSJ 120400Z 34010G16KT 15SM SKC 13/06 A3006 RMK SLP182,2025-09-12T05:00:10Z,2025-09-12T01:00:10Z,Saint John Airport,45.31610107421875,-65.89029693603516,CA,CA-NB
CYSJ,"Saint John Arpt, NB, CA",2025-09-12T05:00:00Z,2025-09-12 02:00:00,VFR,13,5,360,7,0,15,1018.4,METAR CYSJ 120500Z 36007KT 15SM SKC 13/05 A3007 RMK SLP185,2025-09-12T05:16:51Z,2025-09-12T01:16:51Z,Saint John Airport,45.31610107421875,-65.89029693603516,CA,CA-NB
CYSM,"Fort Smith Arpt, NT, CA",2025-09-12T04:00:00Z,2025-09-11 22:00:00,VFR,18,8,140,7,0,NA,1008.2,METAR CYSM 120400Z 14007KT 10SM BKN230 18/08 A2977 RMK CI5 SLP090 DENSITY ALT 1400FT,2025-09-12T05:00:10Z,2025-09-12T01:00:10Z,Fort Smith Airport,60.020302,-111.961998,CA,CA-NT
CYSM,"Fort Smith Arpt, NT, CA",2025-09-12T05:00:00Z,2025-09-11 23:00:00,VFR,17,9,140,7,0,NA,1008.2,METAR CYSM 120500Z 14007KT 10SM SCT230 17/09 A2977 RMK CI4 SLP088 DENSITY ALT 1300FT,2025-09-12T05:16:51Z,2025-09-12T01:16:51Z,Fort Smith Airport,60.020302,-111.961998,CA,CA-NT
CYTE,"Cape Dorset Arpt, NU, CA",2025-09-12T04:00:00Z,2025-09-12 00:00:00,VFR,3,2,120,13,0,9,1018.4,METAR CYTE 120400Z AUTO 12013KT 9SM -RA OVC036 03/02 A3007 RMK SLP187,2025-09-12T05:00:10Z,2025-09-12T01:00:10Z,Cape Dorset Airport,64.230003,-76.526703,CA,CA-NU
CYTE,"Cape Dorset Arpt, NU, CA",2025-09-12T05:00:00Z,2025-09-12 01:00:00,MVFR,2,2,110,10,0,9,1018,METAR CYTE 120500Z AUTO 11010KT 9SM -RA BKN024 OVC034 02/02 A3006 RMK PCPN 0.5MM PAST HR SLP185,2025-09-12T05:16:51Z,2025-09-12T01:16:51Z,Cape Dorset Airport,64.230003,-76.526703,CA,CA-NU
CYTH,"Thompson Arpt, MB, CA",2025-09-12T04:00:00Z,2025-09-11 23:00:00,VFR,11,9,0,0,0,15,1014.3,METAR CYTH 120400Z 00000KT 15SM FEW160 11/09 A2995 RMK AC1 SLP152,2025-09-12T05:00:11Z,2025-09-12T01:00:11Z,Thompson Airport,55.80110168457031,-97.86419677734376,CA,CA-MB
CYTH,"Thompson Arpt, MB, CA",2025-09-12T05:00:00Z,2025-09-12 00:00:00,VFR,9,7,290,2,0,15,1015,METAR CYTH 120500Z 29002KT 15SM SKC 09/07 A2997 RMK SLP157,2025-09-12T05:16:51Z,2025-09-12T01:16:51Z,Thompson Airport,55.80110168457031,-97.86419677734376,CA,CA-MB
CYTL,"Big Trout Lake Arpt, ON, CA",2025-09-12T04:00:00Z,2025-09-11 23:00:00,VFR,18,12,240,7,0,9,1014.3,METAR CYTL 120400Z AUTO 24007KT 9SM BKN076 OVC120 18/12 A2995 RMK PCPN 0.5MM PAST HR SLP148 DENSITY ALT 1200FT,2025-09-12T05:00:10Z,2025-09-12T01:00:10Z,Big Trout Lake Airport,53.817799,-89.896896,CA,CA-ON
CYTL,"Big Trout Lake Arpt, ON, CA",2025-09-12T05:00:00Z,2025-09-12 00:00:00,VFR,17,11,240,7,0,9,1014,METAR CYTL 120500Z AUTO 24007KT 9SM FEW120 17/11 A2994 RMK SLP147 DENSITY ALT 1100FT,2025-09-12T05:16:51Z,2025-09-12T01:16:51Z,Big Trout Lake Airport,53.817799,-89.896896,CA,CA-ON
CYTR,"Trenton(MIL), ON, CA",2025-09-12T04:00:00Z,2025-09-12 00:00:00,VFR,16,12,50,7,0,15,1023.1,METAR CYTR 120400Z 05007KT 030V090 15SM BKN049 BKN060 16/12 A3021 RMK SC5SC1 DENSITY ALT 357FT SLP230,2025-09-12T05:00:10Z,2025-09-12T01:00:10Z,CFB Trenton,44.118900299072266,-77.5280990600586,CA,CA-ON
CYTR,"Trenton(MIL), ON, CA",2025-09-12T05:00:00Z,2025-09-12 01:00:00,VFR,15,10,50,6,0,15,1023.5,METAR CYTR 120500Z 05006KT 020V090 15SM SCT055 15/10 A3022 RMK SC4 DENSITY ALT 214FT SLP234,2025-09-12T05:16:51Z,2025-09-12T01:16:51Z,CFB Trenton,44.118900299072266,-77.5280990600586,CA,CA-ON
CYTS,"Timmins/Power Arpt, ON, CA",2025-09-12T04:00:00Z,2025-09-12 00:00:00,VFR,3,2,180,2,0,15,1025.1,METAR CYTS 120400Z 18002KT 15SM SKC 03/02 A3027 RMK SLP266,2025-09-12T05:00:10Z,2025-09-12T01:00:10Z,Timmins/Victor M. Power,48.5696983337,-81.376701355,CA,CA-ON
CYTS,"Timmins/Power Arpt, ON, CA",2025-09-12T05:00:00Z,2025-09-12 01:00:00,VFR,4,4,140,3,0,15,1025.1,METAR CYTS 120500Z 14003KT 15SM SKC 04/04 A3027 RMK SLP263,2025-09-12T05:16:51Z,2025-09-12T01:16:51Z,Timmins/Victor M. Power,48.5696983337,-81.376701355,CA,CA-ON
CYTZ,"Toronto/Bishop Arpt, ON, CA",2025-09-12T04:00:00Z,2025-09-12 00:00:00,VFR,20,14,350,6,0,9,1022.8,METAR CYTZ 120400Z AUTO 35006KT 9SM CLR 20/14 A3020 RMK SLP227 DENSITY ALT 600FT,2025-09-12T05:00:11Z,2025-09-12T01:00:11Z,Billy Bishop Toronto City Centre Airport,43.627499,-79.396202,CA,CA-ON
CYTZ,"Toronto/Bishop Arpt, ON, CA",2025-09-12T05:00:00Z,2025-09-12 01:00:00,VFR,19,14,330,6,0,9,1022.8,METAR CYTZ 120500Z AUTO 33006KT 9SM CLR 19/14 A3020 RMK SLP228 DENSITY ALT 500FT,2025-09-12T05:16:51Z,2025-09-12T01:16:51Z,Billy Bishop Toronto City Centre Airport,43.627499,-79.396202,CA,CA-ON
CYUB,"Tuktoyaktuk Arpt, NT, CA",2025-09-12T04:00:00Z,2025-09-11 22:00:00,LIFR,6,6,350,8,0,NA,996.7,METAR CYUB 120400Z 35008KT 10SM BKN004 06/06 A2943 RMK ST7 SLP970,2025-09-12T05:00:10Z,2025-09-12T01:00:10Z,Tuktoyaktuk / James Gruben Airport,69.433296,-133.026001,CA,CA-NT
CYUB,"Tuktoyaktuk Arpt, NT, CA",2025-09-12T05:00:00Z,2025-09-11 23:00:00,LIFR,6,6,340,11,0,6,997,METAR CYUB 120500Z 34011KT 6SM -DZ BR BKN004 06/06 A2944 RMK ST7 LAST OBS/NEXT OBS 121300 SLP972,2025-09-12T05:16:51Z,2025-09-12T01:16:51Z,Tuktoyaktuk / James Gruben Airport,69.433296,-133.026001,CA,CA-NT
CYUL,"Montreal/Trudeau Intl, QC, CA",2025-09-12T04:00:00Z,2025-09-12 00:00:00,VFR,13,8,20,3,0,15,1023.1,METAR CYUL 120400Z 02003KT 15SM FEW250 13/08 A3021 RMK CI1 CI TR SLP234,2025-09-12T05:00:10Z,2025-09-12T01:00:10Z,Montreal / Pierre Elliott Trudeau International Airport,45.467837,-73.742294,CA,CA-QC
CYUL,"Montreal/Trudeau Intl, QC, CA",2025-09-12T05:00:00Z,2025-09-12 01:00:00,VFR,13,7,20,5,0,15,1023.5,METAR CYUL 120500Z 02005KT 15SM FEW250 13/07 A3022 RMK CI1 CI TR SLP237,2025-09-12T05:16:51Z,2025-09-12T01:16:51Z,Montreal / Pierre Elliott Trudeau International Airport,45.467837,-73.742294,CA,CA-QC
CYUX,"Hall Beach Arpt, NU, CA",2025-09-12T04:16:00Z,2025-09-12 00:16:00,LIFR,0,0,150,6,0,0.38,1020.4,SPECI CYUX 120416Z AUTO 15006KT 3/8SM FG VV002 00/00 A3013 RMK SLP207,2025-09-12T05:00:10Z,2025-09-12T01:00:10Z,Hall Beach Airport,68.7761,-81.2425,CA,CA-NU
CYUX,"Hall Beach Arpt, NU, CA",2025-09-12T05:00:00Z,2025-09-12 01:00:00,LIFR,0,0,160,8,0,0.38,1020.4,METAR CYUX 120500Z AUTO 16008KT 3/8SM FG VV002 00/00 A3013 RMK SLP205,2025-09-12T05:16:51Z,2025-09-12T01:16:51Z,Hall Beach Airport,68.7761,-81.2425,CA,CA-NU
CYUY,"Rouyn/Noranda Arpt, QC, CA",2025-09-12T04:00:00Z,2025-09-12 00:00:00,VFR,3,3,0,0,0,15,1026.2,METAR CYUY 120400Z 00000KT 15SM SKC 03/03 A3030 RMK SLP275,2025-09-12T05:00:10Z,2025-09-12T01:00:10Z,Rouyn Noranda Airport,48.20610046386719,-78.835601806640625,CA,CA-QC
CYUY,"Rouyn/Noranda Arpt, QC, CA",2025-09-12T05:00:00Z,2025-09-12 01:00:00,VFR,3,3,0,0,0,15,1026.2,METAR CYUY 120500Z 00000KT 15SM SKC 03/03 A3030 RMK SLP276,2025-09-12T05:16:51Z,2025-09-12T01:16:51Z,Rouyn Noranda Airport,48.20610046386719,-78.835601806640625,CA,CA-QC
CYVC,"La Ronge Arpt, SK, CA",2025-09-12T04:00:00Z,2025-09-11 22:00:00,VFR,14,12,30,2,0,15,1015.3,METAR CYVC 120400Z 03002KT 15SM SKC 14/12 A2998 RMK SLP161,2025-09-12T05:00:10Z,2025-09-12T01:00:10Z,La Ronge Airport,55.1514015198,-105.262001038,CA,CA-SK
CYVC,"La Ronge Arpt, SK, CA",2025-09-12T05:00:00Z,2025-09-11 23:00:00,VFR,13,11,30,4,0,15,1015.3,METAR CYVC 120500Z 03004KT 15SM SKC 13/11 A2998 RMK SLP163,2025-09-12T05:16:51Z,2025-09-12T01:16:51Z,La Ronge Airport,55.1514015198,-105.262001038,CA,CA-SK
CYVL,"Colville Lake, NT, CA",2025-09-12T04:30:00Z,2025-09-11 22:30:00,VFR,9,9,100,3,0,9,995.7,SPECI CYVL 120430Z AUTO 10003KT 9SM BKN096 09/09 A2940 RMK SLP971,2025-09-12T05:00:10Z,2025-09-12T01:00:10Z,Tommy Kochon Airport,67.02,-126.126,CA,CA-NT
CYVL,"Colville Lake, NT, CA",2025-09-12T05:00:00Z,2025-09-11 23:00:00,VFR,9,9,140,3,0,9,995.7,METAR CYVL 120500Z AUTO 14003KT 9SM BKN096 09/09 A2940 RMK SLP970 DENSITY ALT 1100FT,2025-09-12T05:16:51Z,2025-09-12T01:16:51Z,Tommy Kochon Airport,67.02,-126.126,CA,CA-NT
CYVM,"Broughton Isl/Qikiqtarjuaq Arpt, NU, CA",2025-09-12T04:00:00Z,2025-09-12 00:00:00,VFR,3,0,360,9,0,9,1019.7,METAR CYVM 120400Z AUTO 36009KT 9SM OVC041 03/M00 A3011 RMK SLP199,2025-09-12T05:00:10Z,2025-09-12T01:00:10Z,Qikiqtarjuaq Airport,67.54656,-64.03141,CA,CA-NU
CYVM,"Broughton Isl/Qikiqtarjuaq Arpt, NU, CA",2025-09-12T05:00:00Z,2025-09-12 01:00:00,VFR,3,0,350,3,0,9,1020.1,METAR CYVM 120500Z AUTO 35003KT 9SM OVC039 03/00 A3012 RMK SLP200,2025-09-12T05:16:51Z,2025-09-12T01:16:51Z,Qikiqtarjuaq Airport,67.54656,-64.03141,CA,CA-NU
CYVO,"Val D'Or Arpt, QC, CA",2025-09-12T04:00:00Z,2025-09-12 00:00:00,VFR,4,3,0,0,0,9,1025.8,METAR CYVO 120400Z AUTO 00000KT 9SM CLR 04/03 A3029 RMK SLP275,2025-09-12T05:00:10Z,2025-09-12T01:00:10Z,Val-d'Or Airport,48.0532989502,-77.7827987671,CA,CA-QC
CYVO,"Val D'Or Arpt, QC, CA",2025-09-12T05:00:00Z,2025-09-12 01:00:00,VFR,3,2,0,0,0,9,1026.2,METAR CYVO 120500Z AUTO 00000KT 9SM CLR 03/02 A3030 RMK SLP277,2025-09-12T05:16:51Z,2025-09-12T01:16:51Z,Val-d'Or Airport,48.0532989502,-77.7827987671,CA,CA-QC
CYVP,"Kuujjuaq Arpt, QC, CA",2025-09-12T04:00:00Z,2025-09-12 00:00:00,VFR,4,3,0,0,0,15,1023.1,METAR CYVP 120400Z 00000KT 15SM FEW030 BKN040 OVC050 04/03 A3021 RMK SC1SC6SC1 SLP233,2025-09-12T05:00:10Z,2025-09-12T01:00:10Z,Kuujjuaq Airport,58.096099853515625,-68.4269027709961,CA,CA-QC
CYVP,"Kuujjuaq Arpt, QC, CA",2025-09-12T05:00:00Z,2025-09-12 01:00:00,VFR,3,2,330,3,0,15,1022.8,METAR CYVP 120500Z 33003KT 15SM FEW030 BKN045 03/02 A3020 RMK SC1SC5 SLP231,2025-09-12T05:16:51Z,2025-09-12T01:16:51Z,Kuujjuaq Airport,58.096099853515625,-68.4269027709961,CA,CA-QC
CYVQ,"Norman Wells Arpt, NT, CA",2025-09-12T04:00:00Z,2025-09-11 22:00:00,VFR,11,11,40,3,0,30,995.7,METAR CYVQ 120400Z 04003KT 30SM FEW035 FEW150 FEW170 11/11 A2940 RMK SC1AC1AC1 SC TR AC TR AC TR ACC ASOCTD VIRGA W SLP960 DENSITY ALT 500FT,2025-09-12T05:00:10Z,2025-09-12T01:00:10Z,Norman Wells Airport,65.28160095214844,-126.7979965209961,CA,CA-NT
CYVQ,"Norman Wells Arpt, NT, CA",2025-09-12T05:00:00Z,2025-09-11 23:00:00,VFR,10,9,0,0,0,30,996,METAR CYVQ 120500Z 00000KT 30SM FEW030 FEW150 10/09 A2941 RMK SC1AC1 SC TR AC TR AURBO SLP965,2025-09-12T05:16:51Z,2025-09-12T01:16:51Z,Norman Wells Airport,65.28160095214844,-126.7979965209961,CA,CA-NT
CYVR,"Vancouver Intl, BC, CA",2025-09-12T04:00:00Z,2025-09-11 21:00:00,VFR,15,14,100,6,0,20,1016.3,METAR CYVR 120400Z 10006KT 20SM FEW200 15/14 A3001 RMK CS1 CS TR SLP164,2025-09-12T05:00:11Z,2025-09-12T01:00:11Z,Vancouver International Airport,49.193901062,-123.183998108,CA,CA-BC
CYVR,"Vancouver Intl, BC, CA",2025-09-12T05:00:00Z,2025-09-11 22:00:00,VFR,15,14,90,9,0,20,1016.3,METAR CYVR 120500Z 09009KT 20SM FEW200 15/14 A3001 RMK CS1 CS TR SLP166,2025-09-12T05:16:51Z,2025-09-12T01:16:51Z,Vancouver International Airport,49.193901062,-123.183998108,CA,CA-BC
CYVT,"Buffalo Narrows Arpt, SK, CA",2025-09-12T04:00:00Z,2025-09-11 22:00:00,VFR,18,12,160,3,0,9,1013.6,METAR CYVT 120400Z AUTO 16003KT 9SM CLR 18/12 A2993 RMK SLP144 DENSITY ALT 2200FT,2025-09-12T05:00:10Z,2025-09-12T01:00:10Z,Buffalo Narrows Airport,55.8418998718,-108.417999268,CA,CA-SK
CYVT,"Buffalo Narrows Arpt, SK, CA",2025-09-12T05:00:00Z,2025-09-11 23:00:00,VFR,17,12,150,5,0,9,1014,METAR CYVT 120500Z AUTO 15005KT 9SM CLR 17/12 A2994 RMK SLP145 DENSITY ALT 2100FT,2025-09-12T05:16:51Z,2025-09-12T01:16:51Z,Buffalo Narrows Airport,55.8418998718,-108.417999268,CA,CA-SK
CYVV,"Wiarton Arpt, ON, CA",2025-09-12T04:00:00Z,2025-09-12 00:00:00,VFR,10,10,120,3,0,15,1023.8,METAR CYVV 120400Z 12003KT 15SM SKC 10/10 A3023 RMK SLP243,2025-09-12T05:00:11Z,2025-09-12T01:00:11Z,Wiarton Airport,44.7458,-81.107201,CA,CA-ON
CYVV,"Wiarton Arpt, ON, CA",2025-09-12T05:00:00Z,2025-09-12 01:00:00,VFR,10,10,90,2,0,15,1024.1,METAR CYVV 120500Z 09002KT 15SM SKC 10/10 A3024 RMK SLP244,2025-09-12T05:16:51Z,2025-09-12T01:16:51Z,Wiarton Airport,44.7458,-81.107201,CA,CA-ON
CYWE,"Wekweètì Arpt, NT, CA",2025-09-12T04:00:00Z,2025-09-11 22:00:00,VFR,13,10,140,11,17,9,1004.5,METAR CYWE 120400Z AUTO 14011G17KT 9SM FEW096 OVC190 13/10 A2966 RMK SLP060 DENSITY ALT 1500FT,2025-09-12T05:00:10Z,2025-09-12T01:00:10Z,Wekweètì Airport,64.190804,-114.077002,CA,CA-NT
CYWE,"Wekweètì Arpt, NT, CA",2025-09-12T05:00:00Z,2025-09-11 23:00:00,VFR,13,10,140,9,0,9,1004.1,METAR CYWE 120500Z AUTO 14009KT 9SM BKN160 OVC180 13/10 A2965 RMK SLP056 DENSITY ALT 1600FT,2025-09-12T05:16:51Z,2025-09-12T01:16:51Z,Wekweètì Airport,64.190804,-114.077002,CA,CA-NT
CYWG,"Winnipeg Intl Arpt, MB, CA",2025-09-12T04:31:00Z,2025-09-11 23:31:00,IFR,17,16,130,8,0,13,1016,SPECI CYWG 120431Z CCA 13008KT 13SM BKN009 BKN085 17/16 A3000 RMK ST6AC1 FRQ LTGCG S SLP163 DENSITY ALT 1100FT,2025-09-12T05:00:10Z,2025-09-12T01:00:10Z,Winnipeg / James Armstrong Richardson International Airport,49.909999847399995,-97.2398986816,CA,CA-MB
CYWG,"Winnipeg Intl Arpt, MB, CA",2025-09-12T05:00:00Z,2025-09-12 00:00:00,IFR,17,16,140,8,0,NA,1015.7,METAR CYWG 120500Z 14008KT 10SM OVC008 17/16 A2999 RMK ST8 FRQ LTGCG S SLP160 DENSITY ALT 1100FT,2025-09-12T05:16:51Z,2025-09-12T01:16:51Z,Winnipeg / James Armstrong Richardson International Airport,49.909999847399995,-97.2398986816,CA,CA-MB
CYWH,"Victoria Harbour Arpt, BC, CA",2025-09-12T04:00:00Z,2025-09-11 21:00:00,VFR,15,12,210,13,0,15,1016.3,METAR CYWH 120400Z 21013KT 15SM FEW040 FEW220 15/12 A3001 RMK CF1CI1 CF TR LAST STFD OBS/NEXT 121300 UTC SLP165,2025-09-12T05:00:10Z,2025-09-12T01:00:10Z,Victoria Harbour Seaplane Base,48.423782,-123.37198,CA,CA-BC
CYWK,"Wabush Lake Arpt, NL, CA",2025-09-12T04:00:00Z,2025-09-12 01:00:00,MVFR,6,3,10,10,17,9,1020.1,METAR CYWK 120400Z AUTO 01010G17KT 9SM OVC020 06/03 A3012 RMK SLP220,2025-09-12T05:00:10Z,2025-09-12T01:00:10Z,Wabush Airport,52.92190170288086,-66.8644027709961,CA,CA-NL
CYWK,"Wabush Lake Arpt, NL, CA",2025-09-12T05:00:00Z,2025-09-12 02:00:00,MVFR,5,2,360,7,0,9,1020.1,METAR CYWK 120500Z AUTO 36007KT 330V030 9SM OVC020 05/02 A3012 RMK SLP223,2025-09-12T05:16:51Z,2025-09-12T01:16:51Z,Wabush Airport,52.92190170288086,-66.8644027709961,CA,CA-NL
CYWL,"Williams Lake Rgnl, BC, CA",2025-09-12T04:00:00Z,2025-09-11 21:00:00,VFR,21,9,30,3,0,8,1013,METAR CYWL 120400Z 03003KT 8SM FEW095 21/09 A2991 RMK FU1AC1 AC TR SLP130 DENSITY ALT 4500FT,2025-09-12T05:00:10Z,2025-09-12T01:00:10Z,Williams Lake Airport,52.1831016541,-122.054000854,CA,CA-BC
CYWL,"Williams Lake Rgnl, BC, CA",2025-09-12T05:00:00Z,2025-09-11 22:00:00,VFR,19,9,0,0,0,8,1013,METAR CYWL 120500Z 00000KT 8SM FEW095 19/09 A2991 RMK FU1AC1 AC TR SLP129 DENSITY ALT 4300FT,2025-09-12T05:16:51Z,2025-09-12T01:16:51Z,Williams Lake Airport,52.1831016541,-122.054000854,CA,CA-BC
CYXC,"Cranbrook Intl, BC, CA",2025-09-12T04:00:00Z,2025-09-11 22:00:00,VFR,20,7,150,7,0,25,1014,METAR CYXC 120400Z 15007KT 25SM FEW100 FEW230 20/07 A2994 RMK AC1CI1 SLP130 DENSITY ALT 4400FT,2025-09-12T05:00:13Z,2025-09-12T01:00:13Z,Cranbrook/Canadian Rockies International Airport,49.610801696777,-115.78199768066,CA,CA-BC
CYXC,"Cranbrook Intl, BC, CA",2025-09-12T05:00:00Z,2025-09-11 23:00:00,VFR,18,7,230,5,0,25,1014,METAR CYXC 120500Z 23005KT 25SM FEW100 FEW230 18/07 A2994 RMK AC1CI1 SLP130 DENSITY ALT 4200FT,2025-09-12T05:16:53Z,2025-09-12T01:16:53Z,Cranbrook/Canadian Rockies International Airport,49.610801696777,-115.78199768066,CA,CA-BC
CYXE,"Saskatoon/Diefenbaker Intl, SK, CA",2025-09-12T04:00:00Z,2025-09-11 22:00:00,VFR,18,15,350,5,0,12,1013.3,METAR CYXE 120400Z 35005KT 12SM BKN072 18/15 A2992 RMK AC6 FU SLP140 DENSITY ALT 2400FT,2025-09-12T05:00:13Z,2025-09-12T01:00:13Z,Saskatoon John G. Diefenbaker International Airport,52.170799255371094,-106.6999969482422,CA,CA-SK
CYXE,"Saskatoon/Diefenbaker Intl, SK, CA",2025-09-12T05:00:00Z,2025-09-11 23:00:00,VFR,17,15,360,6,0,12,1013.3,METAR CYXE 120500Z 36006KT 12SM BKN070 17/15 A2992 RMK AC5 FU SLP138 DENSITY ALT 2300FT,2025-09-12T05:16:53Z,2025-09-12T01:16:53Z,Saskatoon John G. Diefenbaker International Airport,52.170799255371094,-106.6999969482422,CA,CA-SK
CYXH,"Medicine Hat Arpt, AB, CA",2025-09-12T04:00:00Z,2025-09-11 22:00:00,VFR,19,9,130,3,0,9,1014,METAR CYXH 120400Z AUTO 13003KT 9SM CLR 19/09 A2994 RMK SLP137 DENSITY ALT 3400FT,2025-09-12T05:00:13Z,2025-09-12T01:00:13Z,Medicine Hat Regional Airport,50.018902,-110.721001,CA,CA-AB
CYXH,"Medicine Hat Arpt, AB, CA",2025-09-12T05:00:00Z,2025-09-11 23:00:00,VFR,17,8,120,3,0,9,1014,METAR CYXH 120500Z AUTO 12003KT 9SM CLR 17/08 A2994 RMK SLP138 DENSITY ALT 3100FT,2025-09-12T05:16:53Z,2025-09-12T01:16:53Z,Medicine Hat Regional Airport,50.018902,-110.721001,CA,CA-AB
CYXJ,"Fort St John/N Peace Rgnl, BC, CA",2025-09-12T04:00:00Z,2025-09-11 21:00:00,VFR,20,6,200,11,18,6,1009.9,METAR CYXJ 120400Z 20011G18KT 6SM FU OVC240 20/06 A2982 RMK FU3CI5 SLP102 DENSITY ALT 3600FT,2025-09-12T05:00:13Z,2025-09-12T01:00:13Z,Fort St John / North Peace Regional Airport,56.238098,-120.739998,CA,CA-BC
CYXJ,"Fort St John/N Peace Rgnl, BC, CA",2025-09-12T05:00:00Z,2025-09-11 22:00:00,VFR,19,6,210,10,0,15,1010.2,METAR CYXJ 120500Z 21010KT 15SM BKN240 19/06 A2983 RMK FU2CI5 SLP103 DENSITY ALT 3400FT,2025-09-12T05:16:53Z,2025-09-12T01:16:53Z,Fort St John / North Peace Regional Airport,56.238098,-120.739998,CA,CA-BC
CYXL,"Sioux Lookout Arpt, ON, CA",2025-09-12T04:00:00Z,2025-09-11 23:00:00,VFR,17,10,190,5,0,15,1020.7,METAR CYXL 120400Z 19005KT 15SM OVC091 17/10 A3014 RMK AC8 SLP211 DENSITY ALT 1600FT,2025-09-12T05:00:13Z,2025-09-12T01:00:13Z,Sioux Lookout Airport,50.11389923095703,-91.9052963256836,CA,CA-ON
CYXL,"Sioux Lookout Arpt, ON, CA",2025-09-12T05:00:00Z,2025-09-12 00:00:00,VFR,17,9,190,7,0,15,1020.1,METAR CYXL 120500Z 19007KT 15SM BKN093 OVC160 17/09 A3012 RMK AC7AC1 SLP205 DENSITY ALT 1600FT,2025-09-12T05:16:53Z,2025-09-12T01:16:53Z,Sioux Lookout Airport,50.11389923095703,-91.9052963256836,CA,CA-ON
CYXP,"Pangnirtung Arpt, NU, CA",2025-09-12T04:00:00Z,2025-09-12 00:00:00,VFR,2,0,250,2,0,15,1019.4,METAR CYXP 120400Z 25002KT 15SM OVC038 02/M00 A3010 RMK SC8 SLP196,2025-09-12T05:00:13Z,2025-09-12T01:00:13Z,Pangnirtung Airport,66.144878,-65.713606,CA,CA-NU
CYXP,"Pangnirtung Arpt, NU, CA",2025-09-12T05:00:00Z,2025-09-12 01:00:00,VFR,2,0,240,4,0,15,1019.4,METAR CYXP 120500Z 24004KT 15SM BKN038 02/M00 A3010 RMK SC7 SLP196,2025-09-12T05:16:53Z,2025-09-12T01:16:53Z,Pangnirtung Airport,66.144878,-65.713606,CA,CA-NU
CYXR,"Earlton Arpt, ON, CA",2025-09-12T04:00:00Z,2025-09-12 00:00:00,VFR,2,2,310,4,0,9,1025.8,METAR CYXR 120400Z AUTO 31004KT 9SM CLR 02/02 A3029 RMK SLP270,2025-09-12T05:00:13Z,2025-09-12T01:00:13Z,Earlton (Timiskaming Regional) Airport,47.6974006546,-79.8473453522,CA,CA-ON
CYXR,"Earlton Arpt, ON, CA",2025-09-12T05:00:00Z,2025-09-12 01:00:00,VFR,2,2,310,5,0,9,1026.2,METAR CYXR 120500Z AUTO 31005KT 9SM CLR 02/02 A3030 RMK SLP273,2025-09-12T05:16:53Z,2025-09-12T01:16:53Z,Earlton (Timiskaming Regional) Airport,47.6974006546,-79.8473453522,CA,CA-ON
CYXS,"Prince George Arpt, BC, CA",2025-09-12T04:00:00Z,2025-09-11 21:00:00,MVFR,13,12,100,4,0,4,1012.3,METAR CYXS 120400Z AUTO 10004KT 4SM BR FEW071 BKN090 BKN110 13/12 A2989 RMK SLP138 DENSITY ALT 2600FT,2025-09-12T05:00:13Z,2025-09-12T01:00:13Z,Prince George Airport,53.884311,-122.666554,CA,CA-BC
CYXS,"Prince George Arpt, BC, CA",2025-09-12T05:00:00Z,2025-09-11 22:00:00,MVFR,12,12,230,2,0,4,1012.6,METAR CYXS 120500Z AUTO 23002KT 4SM BR OVC091 12/12 A2990 RMK SLP140 DENSITY ALT 2500FT,2025-09-12T05:16:53Z,2025-09-12T01:16:53Z,Prince George Airport,53.884311,-122.666554,CA,CA-BC
CYXT,"Terrace Arpt, BC, CA",2025-09-12T04:00:00Z,2025-09-11 21:00:00,VFR,15,15,130,7,0,NA,1013,METAR CYXT 120400Z 13007KT 10SM -RA FEW003 SCT040 BKN060 OVC080 15/15 A2991 RMK SF1SC2SC3AC2 SLP134,2025-09-12T05:00:13Z,2025-09-12T01:00:13Z,Northwest Regional Airport Terrace-Kitimat,54.468498,-128.576009,CA,CA-BC
CYXT,"Terrace Arpt, BC, CA",2025-09-12T05:00:00Z,2025-09-11 22:00:00,VFR,15,15,110,8,0,NA,1012.6,METAR CYXT 120500Z 11008KT 10SM FEW003 SCT030 OVC060 15/15 A2990 RMK SF1SC2SC5 SLP129,2025-09-12T05:16:53Z,2025-09-12T01:16:53Z,Northwest Regional Airport Terrace-Kitimat,54.468498,-128.576009,CA,CA-BC
CYXU,"London Intl, ON, CA",2025-09-12T04:00:00Z,2025-09-12 00:00:00,VFR,15,12,10,5,0,15,1023.5,METAR CYXU 120400Z 01005KT 15SM SKC 15/12 A3022 RMK SLP236,2025-09-12T05:00:13Z,2025-09-12T01:00:13Z,London Airport,43.035599,-81.1539,CA,CA-ON
CYXU,"London Intl, ON, CA",2025-09-12T05:00:00Z,2025-09-12 01:00:00,VFR,13,12,20,3,0,15,1023.5,METAR CYXU 120500Z 02003KT 15SM SKC 13/12 A3022 RMK SLP236,2025-09-12T05:16:53Z,2025-09-12T01:16:53Z,London Airport,43.035599,-81.1539,CA,CA-ON
CYXX,"Abbotsford Intl, BC, CA",2025-09-12T04:00:00Z,2025-09-11 21:00:00,VFR,16,13,220,6,0,15,1016.3,METAR CYXX 120400Z 22006KT 15SM SCT150 16/13 A3001 RMK AC2 SLP164,2025-09-12T05:00:13Z,2025-09-12T01:00:13Z,Abbotsford International Airport,49.025299,-122.361,CA,CA-BC
CYXX,"Abbotsford Intl, BC, CA",2025-09-12T05:00:00Z,2025-09-11 22:00:00,VFR,16,13,240,7,0,15,1016.7,METAR CYXX 120500Z 24007KT 15SM SCT045 16/13 A3002 RMK SC3 SLP169,2025-09-12T05:16:53Z,2025-09-12T01:16:53Z,Abbotsford International Airport,49.025299,-122.361,CA,CA-BC
CYXY,"Whitehorse Arpt, YT, CA",2025-09-12T04:00:00Z,2025-09-11 21:00:00,VFR,12,5,160,11,0,40,1004.1,METAR CYXY 120400Z 16011KT 40SM FEW030 SCT070 SCT240 12/05 A2965 RMK SC1AC2CI1 SLP059 DENSITY ALT 2800FT,2025-09-12T05:00:13Z,2025-09-12T01:00:13Z,Whitehorse / Erik Nielsen International Airport,60.709599,-135.067001,CA,CA-YT
CYXY,"Whitehorse Arpt, YT, CA",2025-09-12T05:00:00Z,2025-09-11 22:00:00,VFR,11,5,160,10,0,15,1004.1,METAR CYXY 120500Z 16010KT 15SM FEW060 SCT240 11/05 A2965 RMK SC2CI1 SLP061 DENSITY ALT 2700FT,2025-09-12T05:16:53Z,2025-09-12T01:16:53Z,Whitehorse / Erik Nielsen International Airport,60.709599,-135.067001,CA,CA-YT
CYYB,"North Bay/Garland Arpt, ON, CA",2025-09-12T04:00:00Z,2025-09-12 00:00:00,VFR,8,6,50,7,0,9,1025.1,METAR CYYB 120400Z AUTO 05007KT 9SM CLR 08/06 A3027 RMK SLP259,2025-09-12T05:00:13Z,2025-09-12T01:00:13Z,North Bay Jack Garland Airport,46.363602,-79.422798,CA,CA-ON
CYYB,"North Bay/Garland Arpt, ON, CA",2025-09-12T05:00:00Z,2025-09-12 01:00:00,VFR,8,6,60,7,0,9,1025.1,METAR CYYB 120500Z AUTO 06007KT 9SM CLR 08/06 A3027 RMK SLP259,2025-09-12T05:16:53Z,2025-09-12T01:16:53Z,North Bay Jack Garland Airport,46.363602,-79.422798,CA,CA-ON
CYYC,"Calgary Intl, AB, CA",2025-09-12T04:00:00Z,2025-09-11 22:00:00,VFR,18,8,170,5,0,15,1015,METAR CYYC 120400Z 17005KT 15SM SKC 18/08 A2997 RMK SLP148 DENSITY ALT 4800FT,2025-09-12T05:00:13Z,2025-09-12T01:00:13Z,Calgary International Airport,51.118822,-114.009933,CA,CA-AB
CYYC,"Calgary Intl, AB, CA",2025-09-12T05:00:00Z,2025-09-11 23:00:00,VFR,17,8,180,4,0,15,1015,METAR CYYC 120500Z 18004KT 15SM SKC 17/08 A2997 RMK SLP147 DENSITY ALT 4700FT,2025-09-12T05:16:53Z,2025-09-12T01:16:53Z,Calgary International Airport,51.118822,-114.009933,CA,CA-AB
CYYD,"Smithers Arpt, BC, CA",2025-09-12T04:00:00Z,2025-09-11 21:00:00,VFR,15,12,0,0,0,25,1012.6,METAR CYYD 120400Z 00000KT 25SM BKN060 OVC100 15/12 A2990 RMK SC7AC1 SLP133 DENSITY ALT 2200FT,2025-09-12T05:00:13Z,2025-09-12T01:00:13Z,Smithers Airport,54.82469940185547,-127.18299865722656,CA,CA-BC
CYYD,"Smithers Arpt, BC, CA",2025-09-12T05:00:00Z,2025-09-11 22:00:00,VFR,15,13,VAR,2,0,25,1013,METAR CYYD 120500Z VRB02KT 25SM OVC060 15/13 A2991 RMK SC8 LAST STFD OBS/NXT 121300Z SLP134 DENSITY ALT 2100FT,2025-09-12T05:16:53Z,2025-09-12T01:16:53Z,Smithers Airport,54.82469940185547,-127.18299865722656,CA,CA-BC
CYYE,"Fort Nelson Arpt, BC, CA",2025-09-12T04:00:00Z,2025-09-11 21:00:00,VFR,13,11,0,0,0,15,1005.2,METAR CYYE 120400Z 00000KT 15SM SCT170 BKN240 13/11 A2968 RMK AC4CI3 SLP060 DENSITY ALT 1700FT,2025-09-12T05:00:13Z,2025-09-12T01:00:13Z,Fort Nelson Airport,58.8363990784,-122.597000122,CA,CA-BC
CYYE,"Fort Nelson Arpt, BC, CA",2025-09-12T05:00:00Z,2025-09-11 22:00:00,VFR,14,10,VAR,2,0,15,1005.5,METAR CYYE 120500Z VRB02KT 15SM FEW170 BKN220 14/10 A2969 RMK AC2CI5 SLP065 DENSITY ALT 1700FT,2025-09-12T05:16:53Z,2025-09-12T01:16:53Z,Fort Nelson Airport,58.8363990784,-122.597000122,CA,CA-BC
CYYF,"Penticton Rgnl, BC, CA",2025-09-12T04:00:00Z,2025-09-11 21:00:00,VFR,20,8,VAR,2,0,15,1010.9,METAR CYYF 120400Z VRB02KT 15SM SCT130 20/08 A2985 RMK AC3 SLP108 DENSITY ALT 2100FT,2025-09-12T05:00:13Z,2025-09-12T01:00:13Z,Penticton Airport,49.46310043334961,-119.60199737548828,CA,CA-BC
CYYF,"Penticton Rgnl, BC, CA",2025-09-12T05:00:00Z,2025-09-11 22:00:00,VFR,18,9,0,0,0,15,1011.6,METAR CYYF 120500Z 00000KT 15SM FEW130 18/09 A2987 RMK AC2 SLP115 DENSITY ALT 1900FT,2025-09-12T05:16:53Z,2025-09-12T01:16:53Z,Penticton Airport,49.46310043334961,-119.60199737548828,CA,CA-BC
CYYG,"Charlottetown Arpt, PE, CA",2025-09-12T04:00:00Z,2025-09-12 01:00:00,VFR,13,10,270,9,0,15,1015,METAR CYYG 120400Z 27009KT 15SM SKC 13/10 A2997 RMK SLP150,2025-09-12T05:00:13Z,2025-09-12T01:00:13Z,Charlottetown Airport,46.290000915527344,-63.12110137939453,CA,CA-PE
CYYG,"Charlottetown Arpt, PE, CA",2025-09-12T05:00:00Z,2025-09-12 02:00:00,VFR,13,8,290,9,0,15,1014.6,METAR CYYG 120500Z 29009KT 15SM SKC 13/08 A2996 RMK SLP149,2025-09-12T05:16:53Z,2025-09-12T01:16:53Z,Charlottetown Airport,46.290000915527344,-63.12110137939453,CA,CA-PE
CYYJ,"Victoria Intl, BC, CA",2025-09-12T04:00:00Z,2025-09-11 21:00:00,VFR,13,12,20,4,0,30,1015.7,METAR CYYJ 120400Z 02004KT 30SM FEW250 13/12 A2999 RMK CI1 SLP159,2025-09-12T05:00:13Z,2025-09-12T01:00:13Z,Victoria International Airport,48.647201,-123.427792,CA,CA-BC
CYYJ,"Victoria Intl, BC, CA",2025-09-12T05:00:00Z,2025-09-11 22:00:00,VFR,13,12,100,3,0,30,1016,METAR CYYJ 120500Z 10003KT 30SM FEW250 13/12 A3000 RMK CI1 CI TR SLP162,2025-09-12T05:16:53Z,2025-09-12T01:16:53Z,Victoria International Airport,48.647201,-123.427792,CA,CA-BC
CYYN,"Swift Current Arpt, SK, CA",2025-09-12T04:00:00Z,2025-09-11 22:00:00,VFR,17,13,80,5,0,9,1014.3,METAR CYYN 120400Z AUTO 08005KT 9SM CLR 17/13 A2995 RMK SLP142 DENSITY ALT 3500FT,2025-09-12T05:00:13Z,2025-09-12T01:00:13Z,Swift Current Airport,50.291900634799994,-107.691001892,CA,CA-SK
CYYN,"Swift Current Arpt, SK, CA",2025-09-12T05:00:00Z,2025-09-11 23:00:00,VFR,14,12,130,4,0,9,1014.3,METAR CYYN 120500Z AUTO 13004KT 9SM CLR 14/12 A2995 RMK SLP142 DENSITY ALT 3200FT,2025-09-12T05:16:53Z,2025-09-12T01:16:53Z,Swift Current Airport,50.291900634799994,-107.691001892,CA,CA-SK
CYYQ,"Churchill Arpt, MB, CA",2025-09-12T04:00:00Z,2025-09-11 23:00:00,VFR,12,9,300,9,15,15,1012.6,METAR CYYQ 120400Z 30009G15KT 15SM BKN034 12/09 A2990 RMK SC7 SLP127,2025-09-12T05:00:13Z,2025-09-12T01:00:13Z,Churchill Airport,58.739200592041016,-94.06500244140624,CA,CA-MB
CYYQ,"Churchill Arpt, MB, CA",2025-09-12T05:00:00Z,2025-09-12 00:00:00,VFR,12,8,310,11,17,15,1012.6,METAR CYYQ 120500Z 31011G17KT 15SM BKN032 12/08 A2990 RMK SC7 SLP129,2025-09-12T05:16:53Z,2025-09-12T01:16:53Z,Churchill Airport,58.739200592041016,-94.06500244140624,CA,CA-MB
CYYR,"Goose Bay Arpt, NL, CA",2025-09-12T04:22:00Z,2025-09-12 01:22:00,IFR,6,6,20,14,0,5,1016.7,SPECI CYYR 120422Z 02014KT 5SM -RA BR OVC006 06/06 A3002 RMK SF8 DENSITY ALT -879FT SLP169,2025-09-12T05:00:13Z,2025-09-12T01:00:13Z,Goose Bay Airport,53.3191986084,-60.4258003235,CA,CA-NL
CYYR,"Goose Bay Arpt, NL, CA",2025-09-12T05:00:00Z,2025-09-12 02:00:00,IFR,6,5,20,13,18,8,1017,METAR CYYR 120500Z 02013G18KT 8SM -RA OVC009 06/05 A3003 RMK SF8 DENSITY ALT -905FT SLP173,2025-09-12T05:16:53Z,2025-09-12T01:16:53Z,Goose Bay Airport,53.3191986084,-60.4258003235,CA,CA-NL
CYYT,"St Johns Intl, NL, CA",2025-09-12T04:00:00Z,2025-09-12 01:30:00,LIFR,11,11,70,8,15,0.38,1006.2,METAR CYYT 120400Z 07008G15KT 3/8SM R10/3500V4500FT/U R16/3000V3500FT/N -DZ FG VV002 11/11 A2971 RMK FG8 SLP064,2025-09-12T05:00:13Z,2025-09-12T01:00:13Z,St. John's International Airport,47.618599,-52.7519,CA,CA-NL
CYYT,"St Johns Intl, NL, CA",2025-09-12T05:00:00Z,2025-09-12 02:30:00,LIFR,12,12,90,7,0,0.38,1005.8,METAR CYYT 120500Z 09007KT 3/8SM R10/3500V4500FT/N R16/3000V5000FT/D -DZ FG VV002 12/12 A2970 RMK FG8 SLP063,2025-09-12T05:16:53Z,2025-09-12T01:16:53Z,St. John's International Airport,47.618599,-52.7519,CA,CA-NL
CYYU,"Kapuskasing Arpt, ON, CA",2025-09-12T04:00:00Z,2025-09-12 00:00:00,VFR,7,6,150,5,0,15,1023.8,METAR CYYU 120400Z 15005KT 15SM BKN260 07/06 A3023 RMK CS7 SLP249,2025-09-12T05:00:13Z,2025-09-12T01:00:13Z,Kapuskasing Airport,49.411587,-82.469645,CA,CA-ON
CYYU,"Kapuskasing Arpt, ON, CA",2025-09-12T05:00:00Z,2025-09-12 01:00:00,VFR,7,6,180,4,0,15,1023.5,METAR CYYU 120500Z 18004KT 15SM OVC260 07/06 A3022 RMK CS8 SLP243,2025-09-12T05:16:53Z,2025-09-12T01:16:53Z,Kapuskasing Airport,49.411587,-82.469645,CA,CA-ON
CYYW,"Armstrong Arpt, ON, CA",2025-09-12T04:00:00Z,2025-09-12 00:00:00,VFR,14,13,140,4,0,9,1020.7,METAR CYYW 120400Z AUTO 14004KT 9SM OVC160 14/13 A3014 RMK SLP206,2025-09-12T05:00:13Z,2025-09-12T01:00:13Z,Armstrong Airport,50.29029846191406,-88.909698486328125,CA,CA-ON
CYYW,"Armstrong Arpt, ON, CA",2025-09-12T05:00:00Z,2025-09-12 01:00:00,VFR,13,12,140,4,0,9,1020.7,METAR CYYW 120500Z AUTO 14004KT 9SM FEW150 BKN170 13/12 A3014 RMK SLP204,2025-09-12T05:16:53Z,2025-09-12T01:16:53Z,Armstrong Airport,50.29029846191406,-88.909698486328125,CA,CA-ON
CYYY,"Mont Joli Arpt, QC, CA",2025-09-12T04:00:00Z,2025-09-12 00:00:00,VFR,10,6,330,8,0,30,1020.7,METAR CYYY 120400Z 33008KT 30SM SCT055 10/06 A3014 RMK SC3 SLP211,2025-09-12T05:00:13Z,2025-09-12T01:00:13Z,Mont Joli Airport,48.60860061645508,-68.208099365234375,CA,CA-QC
CYYY,"Mont Joli Arpt, QC, CA",2025-09-12T05:00:00Z,2025-09-12 01:00:00,VFR,10,5,300,10,0,30,1021.1,METAR CYYY 120500Z 30010KT 30SM SCT055 10/05 A3015 RMK SC3 SLP211,2025-09-12T05:16:53Z,2025-09-12T01:16:53Z,Mont Joli Airport,48.60860061645508,-68.208099365234375,CA,CA-QC
CYYZ,"Toronto/Pearson Intl, ON, CA",2025-09-12T04:00:00Z,2025-09-12 00:00:00,VFR,17,14,350,8,0,15,1023.1,METAR CYYZ 120400Z 35008KT 15SM SKC 17/14 A3021 RMK SLP231,2025-09-12T05:00:13Z,2025-09-12T01:00:13Z,Toronto Lester B. Pearson International Airport,43.6772,-79.6306,CA,CA-ON
CYYZ,"Toronto/Pearson Intl, ON, CA",2025-09-12T05:00:00Z,2025-09-12 01:00:00,VFR,16,14,350,7,0,15,1023.1,METAR CYYZ 120500Z 35007KT 15SM SKC 16/14 A3021 RMK SLP233,2025-09-12T05:16:53Z,2025-09-12T01:16:53Z,Toronto Lester B. Pearson International Airport,43.6772,-79.6306,CA,CA-ON
CYZE,"Gore Bay/Manitoulin Arpt, ON, CA",2025-09-12T04:58:00Z,2025-09-12 00:58:00,MVFR,11,NA,280,2,0,5,1024.8,SPECI CYZE 120458Z AUTO 28002KT 5SM HZ CLR 11/ A3026 RMK DP MISG SLP250,2025-09-12T05:00:13Z,2025-09-12T01:00:13Z,Gore Bay Manitoulin Airport,45.8853,-82.567802,CA,CA-ON
CYZE,"Gore Bay/Manitoulin Arpt, ON, CA",2025-09-12T05:12:00Z,2025-09-12 01:12:00,IFR,12,NA,300,3,0,1,1024.8,SPECI CYZE 120512Z AUTO 30003KT 1SM HZ CLR 12/ A3026 RMK DP MISG SLP250,2025-09-12T05:16:53Z,2025-09-12T01:16:53Z,Gore Bay Manitoulin Airport,45.8853,-82.567802,CA,CA-ON
CYZF,"Yellowknife Arpt, NT, CA",2025-09-12T04:00:00Z,2025-09-11 22:00:00,VFR,17,10,130,9,0,15,1003.8,METAR CYZF 120400Z 13009KT 15SM SCT220 17/10 A2964 RMK CI4 SLP047 DENSITY ALT 1400FT,2025-09-12T05:00:13Z,2025-09-12T01:00:13Z,Yellowknife International Airport,62.462799,-114.440002,CA,CA-NT
CYZF,"Yellowknife Arpt, NT, CA",2025-09-12T05:00:00Z,2025-09-11 23:00:00,VFR,17,10,160,14,0,15,1003.8,METAR CYZF 120500Z 16014KT 15SM FEW150 SCT240 17/10 A2964 RMK AC1CI3 AUROBO SLP046 DENSITY ALT 1400FT,2025-09-12T05:16:53Z,2025-09-12T01:16:53Z,Yellowknife International Airport,62.462799,-114.440002,CA,CA-NT
CYZH,"Slave Lake Arpt, AB, CA",2025-09-12T04:00:00Z,2025-09-11 22:00:00,VFR,17,12,70,4,0,9,1011.6,METAR CYZH 120400Z AUTO 07004KT 9SM CLR 17/12 A2987 RMK SLP124 DENSITY ALT 2700FT,2025-09-12T05:00:13Z,2025-09-12T01:00:13Z,Slave Lake Airport,55.292945,-114.777276,CA,CA-AB
CYZH,"Slave Lake Arpt, AB, CA",2025-09-12T05:00:00Z,2025-09-11 23:00:00,VFR,16,11,110,4,0,9,1011.9,METAR CYZH 120500Z AUTO 11004KT 060V130 9SM CLR 16/11 A2988 RMK SLP126 DENSITY ALT 2500FT,2025-09-12T05:16:53Z,2025-09-12T01:16:53Z,Slave Lake Airport,55.292945,-114.777276,CA,CA-AB
CYZP,"Sandspit Arpt, BC, CA",2025-09-12T04:46:00Z,2025-09-11 21:46:00,MVFR,15,13,310,9,0,4,1011.6,SPECI CYZP 120446Z AUTO 31009KT 4SM -RA BR FEW009 BKN016 OVC023 15/13 A2987 RMK SLP117,2025-09-12T05:00:13Z,2025-09-12T01:00:13Z,Sandspit Airport,53.25429916379999,-131.813995361,CA,CA-BC
CYZP,"Sandspit Arpt, BC, CA",2025-09-12T05:11:00Z,2025-09-11 22:11:00,MVFR,15,14,310,9,0,9,1011.3,SPECI CYZP 120511Z AUTO 31009KT 9SM FEW019 OVC025 15/14 A2986 RMK SLP113,2025-09-12T05:16:53Z,2025-09-12T01:16:53Z,Sandspit Airport,53.25429916379999,-131.813995361,CA,CA-BC
CYZR,"Sarnia/Hadfield Arpt, ON, CA",2025-09-12T04:00:00Z,2025-09-12 00:00:00,VFR,15,15,90,2,0,9,1023.1,METAR CYZR 120400Z AUTO 09002KT 9SM CLR 15/15 A3021 RMK SLP233,2025-09-12T05:00:13Z,2025-09-12T01:00:13Z,Chris Hadfield Airport,42.999401,-82.308899,CA,CA-ON
CYZR,"Sarnia/Hadfield Arpt, ON, CA",2025-09-12T05:16:00Z,2025-09-12 01:16:00,IFR,13,13,0,0,0,2,1023.1,SPECI CYZR 120516Z AUTO 00000KT 2SM BR CLR 13/13 A3021 RMK SLP234,2025-09-12T05:16:52Z,2025-09-12T01:16:52Z,Chris Hadfield Airport,42.999401,-82.308899,CA,CA-ON
CYZS,"Coral Harbour Arpt, NU, CA",2025-09-12T04:00:00Z,2025-09-11 23:00:00,IFR,5,5,90,25,31,5,1010.6,METAR CYZS 120400Z 09025G31KT 5SM -RA BR BKN005 OVC010 05/05 A2984 RMK ST6ST2 SLP110,2025-09-12T05:00:13Z,2025-09-12T01:00:13Z,Coral Harbour Airport,64.1932983398,-83.3593978882,CA,CA-NU
CYZS,"Coral Harbour Arpt, NU, CA",2025-09-12T05:00:00Z,2025-09-12 00:00:00,IFR,5,5,100,23,31,5,1010.6,METAR CYZS 120500Z 10023G31KT 5SM -RA BR BKN005 OVC010 05/05 A2984 RMK ST6ST2 SLP111,2025-09-12T05:16:53Z,2025-09-12T01:16:53Z,Coral Harbour Airport,64.1932983398,-83.3593978882,CA,CA-NU
CYZT,"Port Hardy Arpt, BC, CA",2025-09-12T04:00:00Z,2025-09-11 21:00:00,VFR,13,12,0,0,0,15,1016,METAR CYZT 120400Z 00000KT 15SM SCT100 BKN140 13/12 A3000 RMK AC4AC3 SLP160,2025-09-12T05:00:13Z,2025-09-12T01:00:13Z,Port Hardy Airport,50.68059921264648,-127.36699676513672,CA,CA-BC
CYZT,"Port Hardy Arpt, BC, CA",2025-09-12T05:00:00Z,2025-09-11 22:00:00,VFR,14,12,VAR,2,0,15,1016,METAR CYZT 120500Z VRB02KT 15SM BKN090 14/12 A3000 RMK AC7 SLP160,2025-09-12T05:16:53Z,2025-09-12T01:16:53Z,Port Hardy Airport,50.68059921264648,-127.36699676513672,CA,CA-BC
CYZU,"Whitecourt Arpt, AB, CA",2025-09-12T04:00:00Z,2025-09-11 22:00:00,VFR,18,12,130,2,0,NA,1013,METAR CYZU 120400Z 13002KT 10SM FEW240 18/12 A2991 RMK CI1 LAST STFD OBS/NXT 121200Z SLP135 DENSITY ALT 3500FT,2025-09-12T05:00:13Z,2025-09-12T01:00:13Z,Whitecourt Airport,54.143902,-115.787003,CA,CA-AB
CYZV,"Sept-Îles Arpt, QC, CA",2025-09-12T04:00:00Z,2025-09-12 00:00:00,VFR,10,4,330,14,24,15,1015.7,METAR CYZV 120400Z 33014G24KT 15SM SCT130 10/04 A2999 RMK AC3 SLP157,2025-09-12T05:00:13Z,2025-09-12T01:00:13Z,Sept-Îles Airport,50.22330093383789,-66.2656021118164,CA,CA-QC
CYZV,"Sept-Îles Arpt, QC, CA",2025-09-12T05:00:00Z,2025-09-12 01:00:00,VFR,10,4,330,8,0,15,1016,METAR CYZV 120500Z 33008KT 15SM SCT150 10/04 A3000 RMK AC3 SLP162,2025-09-12T05:16:53Z,2025-09-12T01:16:53Z,Sept-Îles Airport,50.22330093383789,-66.2656021118164,CA,CA-QC
CYZX,"Greenwood (MIL), NS, CA",2025-09-12T04:00:00Z,2025-09-12 01:00:00,VFR,14,9,320,7,0,15,1017,METAR CYZX 120400Z 32007KT 15SM FEW250 14/09 A3003 RMK CI2 DENSITY ALT -30FT SLP170,2025-09-12T05:00:13Z,2025-09-12T01:00:13Z,CFB Greenwood,44.98440170288086,-64.916900634765625,CA,CA-NS
CYZX,"Greenwood (MIL), NS, CA",2025-09-12T05:00:00Z,2025-09-12 02:00:00,VFR,13,8,60,2,0,15,1018,METAR CYZX 120500Z 06002KT 15SM FEW250 13/08 A3006 RMK CI2 DENSITY ALT -133FT SLP179,2025-09-12T05:16:53Z,2025-09-12T01:16:53Z,CFB Greenwood,44.98440170288086,-64.916900634765625,CA,CA-NS
CYZY,"Mackenzie Arpt, BC, CA",2025-09-12T04:00:00Z,2025-09-12 04:00:00,VFR,14,10,150,4,0,9,1011.9,METAR CYZY 120400Z AUTO 15004KT 9SM CLR 14/10 A2988 RMK SLP131 DENSITY ALT 2800FT,2025-09-12T05:00:13Z,2025-09-12T01:00:13Z,Mackenzie Airport,55.297786,-123.133907,CA,CA-BC
CYZY,"Mackenzie Arpt, BC, CA",2025-09-12T05:00:00Z,2025-09-12 05:00:00,VFR,13,10,0,0,0,9,1012.3,METAR CYZY 120500Z AUTO 00000KT 9SM CLR 13/10 A2989 RMK SLP134 DENSITY ALT 2700FT,2025-09-12T05:16:53Z,2025-09-12T01:16:53Z,Mackenzie Airport,55.297786,-123.133907,CA,CA-BC
CZBF,"Bathurst Arpt, NB, CA",2025-09-12T04:00:00Z,2025-09-12 01:00:00,VFR,11,4,280,8,0,9,1018,METAR CZBF 120400Z AUTO 28008KT 230V300 9SM CLR 11/04 A3006 RMK SLP182,2025-09-12T05:00:13Z,2025-09-12T01:00:13Z,Bathurst Airport,47.6297,-65.738899,CA,CA-NB
CZBF,"Bathurst Arpt, NB, CA",2025-09-12T05:00:00Z,2025-09-12 02:00:00,VFR,10,3,260,5,0,9,1018,METAR CZBF 120500Z AUTO 26005KT 9SM CLR 10/03 A3006 RMK SLP182,2025-09-12T05:16:53Z,2025-09-12T01:16:53Z,Bathurst Airport,47.6297,-65.738899,CA,CA-NB
CZMD,"Muskrat Dam Arpt, ON, CA",2025-09-12T04:00:00Z,2025-09-11 23:00:00,NA,18,10,230,12,0,9,1015.3,METAR CZMD 120400Z AUTO 23012KT 9SM 18/10 A2998 RMK CLD MISG SLP159 DENSITY ALT 1500FT,2025-09-12T05:00:13Z,2025-09-12T01:00:13Z,Muskrat Dam Airport,53.441399,-91.762802,CA,CA-ON
CZMD,"Muskrat Dam Arpt, ON, CA",2025-09-12T05:00:00Z,2025-09-12 00:00:00,NA,18,10,230,10,15,9,1015.7,METAR CZMD 120500Z AUTO 23010G15KT 9SM 18/10 A2999 RMK CLD MISG SLP162 DENSITY ALT 1400FT,2025-09-12T05:16:53Z,2025-09-12T01:16:53Z,Muskrat Dam Airport,53.441399,-91.762802,CA,CA-ON
CZPC,"Pincher Creek Arpt, AB, CA",2025-09-12T04:00:00Z,2025-09-11 22:00:00,VFR,12,7,260,6,0,9,1016,METAR CZPC 120400Z AUTO 26006KT 9SM CLR 12/07 A3000 RMK SLP160 DENSITY ALT 4400FT,2025-09-12T05:00:13Z,2025-09-12T01:00:13Z,Pincher Creek Airport,49.520429,-113.997002,CA,CA-AB
CZPC,"Pincher Creek Arpt, AB, CA",2025-09-12T05:00:00Z,2025-09-11 23:00:00,VFR,10,7,260,7,0,9,1016,METAR CZPC 120500Z AUTO 26007KT 9SM CLR 10/07 A3000 RMK SLP157 DENSITY ALT 4200FT,2025-09-12T05:16:53Z,2025-09-12T01:16:53Z,Pincher Creek Airport,49.520429,-113.997002,CA,CA-AB
CZSJ,"Sandy Lake Arpt, ON, CA",2025-09-12T04:00:00Z,2025-09-11 23:00:00,VFR,17,9,220,4,0,9,1016.3,METAR CZSJ 120400Z AUTO 22004KT 180V270 9SM CLR 17/09 A3001 RMK SLP168 DENSITY ALT 1400FT,2025-09-12T05:00:13Z,2025-09-12T01:00:13Z,Sandy Lake Airport,53.06420135498047,-93.34439849853516,CA,CA-ON
CZSJ,"Sandy Lake Arpt, ON, CA",2025-09-12T05:00:00Z,2025-09-12 00:00:00,VFR,17,10,220,5,0,9,1016.3,METAR CZSJ 120500Z AUTO 22005KT 9SM CLR 17/10 A3001 RMK ICE MISG SLP167 DENSITY ALT 1400FT,2025-09-12T05:16:53Z,2025-09-12T01:16:53Z,Sandy Lake Airport,53.06420135498047,-93.34439849853516,CA,CA-ON
CZUM,"Churchill Falls Arpt, NL, CA",2025-09-12T04:36:00Z,2025-09-12 01:36:00,MVFR,5,2,20,12,17,9,1018.7,SPECI CZUM 120436Z AUTO 02012G17KT 9SM -RA OVC021 05/02 A3008 RMK SLP203,2025-09-12T05:00:13Z,2025-09-12T01:00:13Z,Churchill Falls Airport,53.5619010925293,-64.10639953613281,CA,CA-NL
CZUM,"Churchill Falls Arpt, NL, CA",2025-09-12T05:00:00Z,2025-09-12 02:00:00,MVFR,5,3,30,10,18,9,1018.7,METAR CZUM 120500Z AUTO 03010G18KT 350V050 9SM -RA OVC021 05/03 A3008 RMK SLP204,2025-09-12T05:16:53Z,2025-09-12T01:16:53Z,Churchill Falls Airport,53.5619010925293,-64.10639953613281,CA,CA-NL
CZVL,"Edmonton/Villenueve Arpt, AB, CA",2025-09-12T04:00:00Z,2025-09-12 04:00:00,VFR,15,7,150,2,0,9,1013,METAR CZVL 120400Z AUTO 15002KT 9SM CLR 15/07 A2991 RMK SLP136 DENSITY ALT 2800FT,2025-09-12T05:00:13Z,2025-09-12T01:00:13Z,Edmonton / Villeneuve Airport,53.6675,-113.853996,CA,CA-AB
CZVL,"Edmonton/Villenueve Arpt, AB, CA",2025-09-12T05:00:00Z,2025-09-12 05:00:00,VFR,13,7,VAR,2,0,9,1013.3,METAR CZVL 120500Z AUTO VRB02KT 9SM CLR 13/07 A2992 RMK SLP140 DENSITY ALT 2600FT,2025-09-12T05:16:53Z,2025-09-12T01:16:53Z,Edmonton / Villeneuve Airport,53.6675,-113.853996,CA,CA-AB
K05U,"Eureka Arpt, NV, US",2025-09-12T04:35:00Z,2025-09-11 21:35:00,VFR,11,1,0,0,0,NA,1020.1,METAR K05U 120435Z AUTO 00000KT 10SM FEW120 11/01 A3012 RMK A01,2025-09-12T05:00:13Z,2025-09-12T01:00:13Z,Eureka Airport,39.604198455799995,-116.004997253,US,US-NV
K05U,"Eureka Arpt, NV, US",2025-09-12T04:55:00Z,2025-09-11 21:55:00,VFR,9,1,0,0,0,NA,1020.1,METAR K05U 120455Z AUTO 00000KT 10SM CLR 09/01 A3012 RMK A01,2025-09-12T05:16:53Z,2025-09-12T01:16:53Z,Eureka Airport,39.604198455799995,-116.004997253,US,US-NV
K06C,"Schaumburg Rgnl, IL, US",2025-09-12T04:55:00Z,2025-09-12 04:55:00,VFR,17.1,16.5,0,0,0,NA,1023.5,METAR K06C 120455Z AUTO 00000KT 10SM CLR 17/17 A3022 RMK AO2 T01710165,2025-09-12T05:00:13Z,2025-09-12T01:00:13Z,Schaumburg Regional Airport,41.9892997742,-88.1011962891,US,US-IL
K06D,"Rolla Muni, ND, US",2025-09-12T04:55:00Z,2025-09-12 04:55:00,MVFR,17,17,10,3,0,4,1014.3,METAR K06D 120455Z AUTO 01003KT 4SM VCTS BR BKN055 BKN065 BKN120 17/17 A2995 RMK AO2 LTG DSNT NE AND S AND SW,2025-09-12T05:00:13Z,2025-09-12T01:00:13Z,Rolla Municipal Airport,48.8843,-99.620903,US,US-ND
K06D,"Rolla Muni, ND, US",2025-09-12T05:15:00Z,2025-09-12 05:15:00,LIFR,17,17,0,0,0,4,1014.3,METAR K06D 120515Z AUTO 00000KT 4SM VCTS BR BKN004 OVC055 17/17 A2995 RMK AO2 LTG DSNT N AND S AND SW,2025-09-12T05:16:52Z,2025-09-12T01:16:52Z,Rolla Municipal Airport,48.8843,-99.620903,US,US-ND
K08D,"Stanley Muni, ND, US",2025-09-12T04:55:00Z,2025-09-12 04:55:00,NA,20,20,60,8,0,NA,1013,METAR K08D 120455Z AUTO 06008KT 10SM 20/20 A2991 RMK AO2 LTG DSNT E,2025-09-12T05:00:13Z,2025-09-12T01:00:13Z,Stanley Municipal Airport,48.3008,-102.405998,US,US-ND
K08D,"Stanley Muni, ND, US",2025-09-12T05:15:00Z,2025-09-12 05:15:00,NA,19,19,60,8,0,NA,1013,METAR K08D 120515Z AUTO 06008KT 10SM 19/19 A2991 RMK AO2,2025-09-12T05:16:52Z,2025-09-12T01:16:52Z,Stanley Municipal Airport,48.3008,-102.405998,US,US-ND
K0A9,"Elizabethton Muni, TN, US",2025-09-12T04:35:00Z,2025-09-12 04:35:00,VFR,13,12,0,0,0,NA,1022.8,METAR K0A9 120435Z AUTO 00000KT 10SM CLR 13/12 A3020 RMK AO2,2025-09-12T05:00:13Z,2025-09-12T01:00:13Z,Elizabethton Municipal Airport,36.371201,-82.173302,US,US-TN
K0A9,"Elizabethton Muni, TN, US",2025-09-12T04:55:00Z,2025-09-12 04:55:00,VFR,13,11,0,0,0,NA,1022.8,METAR K0A9 120455Z AUTO 00000KT 10SM CLR 13/11 A3020 RMK AO2,2025-09-12T05:16:53Z,2025-09-12T01:16:53Z,Elizabethton Municipal Airport,36.371201,-82.173302,US,US-TN
K0E0,"Moriarty Muni, NM, US",2025-09-12T04:55:00Z,2025-09-12 04:55:00,VFR,17,6,210,7,0,NA,1025.5,METAR K0E0 120455Z AUTO 21007KT 10SM CLR 17/06 A3028 RMK AO2 T01700060,2025-09-12T05:00:13Z,2025-09-12T01:00:13Z,Moriarty Municipal Airport,34.9751,-106.0028,US,US-NM
K0E0,"Moriarty Muni, NM, US",2025-09-12T05:15:00Z,2025-09-12 05:15:00,VFR,17.1,6.1,200,6,0,NA,1025.5,METAR K0E0 120515Z AUTO 20006KT 10SM CLR 17/06 A3028 RMK AO2 T01710061,2025-09-12T05:16:52Z,2025-09-12T01:16:52Z,Moriarty Municipal Airport,34.9751,-106.0028,US,US-NM
K0F2,"Bowie Muni, TX, US",2025-09-12T04:55:00Z,2025-09-12 04:55:00,VFR,21.7,17.4,140,3,0,NA,1019.7,METAR K0F2 120455Z AUTO 14003KT 10SM CLR 22/17 A3011 RMK AO2 T02170174,2025-09-12T05:00:13Z,2025-09-12T01:00:13Z,Bowie Municipal Airport,33.6017,-97.775597,US,US-TX
K0J4,"Florala Muni, AL, US",2025-09-12T04:58:00Z,2025-09-12 04:58:00,VFR,20,16.1,0,0,0,NA,1019.4,METAR K0J4 120458Z AUTO 00000KT 10SM CLR 20/16 A3010 RMK AO2 SLP189 T02000161 403220156,2025-09-12T05:00:14Z,2025-09-12T01:00:14Z,Florala Municipal Airport,31.0425,-86.3116,US,US-AL
K0R0,"Columbia/Marion Cnty, MS, US",2025-09-12T04:35:00Z,2025-09-12 04:35:00,NA,20,20,0,0,0,NA,1020.1,METAR K0R0 120435Z AUTO 00000KT 20/20 A3012 RMK AO2,2025-09-12T05:00:15Z,2025-09-12T01:00:15Z,Columbia-Marion County Airport,31.297001,-89.812798,US,US-MS
K0R0,"Columbia/Marion Cnty, MS, US",2025-09-12T04:55:00Z,2025-09-12 04:55:00,NA,20,20,0,0,0,NA,1020.1,METAR K0R0 120455Z AUTO 00000KT 20/20 A3012 RMK AO2,2025-09-12T05:16:54Z,2025-09-12T01:16:54Z,Columbia-Marion County Airport,31.297001,-89.812798,US,US-MS
K0R4,"Vidalia/Concordia Arpt, LA, US",2025-09-12T04:35:00Z,2025-09-12 04:35:00,VFR,23,19,0,0,0,NA,1020.4,METAR K0R4 120435Z AUTO 00000KT 10SM CLR 23/19 A3013 RMK AO2 T02300190,2025-09-12T05:00:15Z,2025-09-12T01:00:15Z,Concordia Parish Airport,31.562000274658203,-91.506500244140625,US,US-LA
K0R4,"Vidalia/Concordia Arpt, LA, US",2025-09-12T04:55:00Z,2025-09-12 04:55:00,VFR,22.5,18.2,0,0,0,NA,1020.4,METAR K0R4 120455Z AUTO 00000KT 10SM CLR 23/18 A3013 RMK AO2 T02250182,2025-09-12T05:16:54Z,2025-09-12T01:16:54Z,Concordia Parish Airport,31.562000274658203,-91.506500244140625,US,US-LA
K0S9,"Port Townsend/Jefferson Cnty, WA, US",2025-09-12T04:55:00Z,2025-09-11 21:55:00,VFR,13,12,0,0,0,NA,1017.4,METAR K0S9 120455Z AUTO 00000KT 10SM FEW035 SCT045 13/12 A3004 RMK AO2,2025-09-12T05:00:15Z,2025-09-12T01:00:15Z,Jefferson County International Airport,48.0537986755,-122.810997009,US,US-WA
K0S9,"Port Townsend/Jefferson Cnty, WA, US",2025-09-12T05:15:00Z,2025-09-11 22:15:00,VFR,13,12,300,4,0,NA,1017.4,METAR K0S9 120515Z AUTO 30004KT 10SM FEW012 SCT022 BKN047 13/12 A3004 RMK AO2,2025-09-12T05:16:54Z,2025-09-12T01:16:54Z,Jefferson County International Airport,48.0537986755,-122.810997009,US,US-WA
K0V4,"Brookneal/Campbell Cnty, VA, US",2025-09-12T04:55:00Z,2025-09-12 04:55:00,VFR,15,15,150,5,0,NA,1021.4,METAR K0V4 120455Z AUTO 15005KT 10SM CLR 15/15 A3016 RMK AO1,2025-09-12T05:00:15Z,2025-09-12T01:00:15Z,Brookneal/Campbell County Airport,37.141701,-79.016403,US,US-VA
K0V4,"Brookneal/Campbell Cnty, VA, US",2025-09-12T05:15:00Z,2025-09-12 05:15:00,VFR,15,15,100,4,0,NA,1021.4,METAR K0V4 120515Z AUTO 10004KT 10SM CLR 15/15 A3016 RMK AO1,2025-09-12T05:16:54Z,2025-09-12T01:16:54Z,Brookneal/Campbell County Airport,37.141701,-79.016403,US,US-VA
K0VG,"Jonesville/Lee Cnty, VA, US",2025-09-12T04:55:00Z,2025-09-12 04:55:00,LIFR,15,15,0,0,0,0.25,1022.8,METAR K0VG 120455Z AUTO 00000KT M1/4SM FG OVC002 15/15 A3020 RMK AO2,2025-09-12T05:00:15Z,2025-09-12T01:00:15Z,Lee County Airport,36.654099,-83.217796,US,US-VA
K0VG,"Jonesville/Lee Cnty, VA, US",2025-09-12T05:15:00Z,2025-09-12 05:15:00,LIFR,15,15,0,0,0,0.25,1022.8,METAR K0VG 120515Z AUTO 00000KT M1/4SM FG OVC002 15/15 A3020 RMK AO2,2025-09-12T05:16:54Z,2025-09-12T01:16:54Z,Lee County Airport,36.654099,-83.217796,US,US-VA
K0W3,"Churchville/Hartford Cnty, MD, US",2025-09-12T04:45:00Z,2025-09-12 04:45:00,VFR,15.3,15.3,0,0,0,NA,1020.7,METAR K0W3 120445Z AUTO 00000KT 10SM CLR 15/15 A3014 RMK AO2 T01530153 $,2025-09-12T05:00:15Z,2025-09-12T01:00:15Z,Harford County Airport,39.566799,-76.2024,US,US-MD
K0W3,"Churchville/Hartford Cnty, MD, US",2025-09-12T05:05:00Z,2025-09-12 05:05:00,VFR,14.8,14.8,300,4,0,NA,1020.7,METAR K0W3 120505Z AUTO 30004KT 10SM CLR 15/15 A3014 RMK AO2 T01480148 $,2025-09-12T05:16:54Z,2025-09-12T01:16:54Z,Harford County Airport,39.566799,-76.2024,US,US-MD
K10G,"Millersburg/Holmes Cnty, OH, US",2025-09-12T04:55:00Z,2025-09-12 04:55:00,VFR,15,10,350,3,0,NA,1023.8,METAR K10G 120455Z AUTO 35003KT 10SM CLR 15/10 A3023 RMK AO2,2025-09-12T05:00:15Z,2025-09-12T01:00:15Z,Holmes County Airport,40.537201,-81.954399,US,US-OH
K10G,"Millersburg/Holmes Cnty, OH, US",2025-09-12T05:15:00Z,2025-09-12 05:15:00,VFR,15,10,350,5,0,NA,1023.8,METAR K10G 120515Z AUTO 35005KT 10SM CLR 15/10 A3023 RMK AO2,2025-09-12T05:16:54Z,2025-09-12T01:16:54Z,Holmes County Airport,40.537201,-81.954399,US,US-OH
K11R,"Brenham Muni, TX, US",2025-09-12T04:55:00Z,2025-09-12 04:55:00,VFR,24.1,21.5,0,0,0,NA,1019.4,METAR K11R 120455Z AUTO 00000KT 10SM CLR 24/22 A3010 RMK AO2 T02410215,2025-09-12T05:00:15Z,2025-09-12T01:00:15Z,Brenham Municipal Airport,30.219,-96.374298,US,US-TX
K12N,"Andover/Aeroflex Arpt, NJ, US",2025-09-12T04:54:00Z,2025-09-12 04:54:00,NA,12.2,11.1,0,0,0,NA,1021.4,METAR K12N 120454Z AUTO 00000KT 12/11 A3016 RMK AO1 SLP210 T01220111 402610094,2025-09-12T05:00:15Z,2025-09-12T01:00:15Z,Aeroflex-Andover Airport,41.008598,-74.737999,US,US-NJ
K13K,"Eureka Muni, KS, US",2025-09-12T04:35:00Z,2025-09-12 04:35:00,VFR,21.6,17.7,150,8,0,NA,1019.4,METAR K13K 120435Z AUTO 15008KT 10SM CLR 22/18 A3010 RMK AO2 T02160177,2025-09-12T05:00:15Z,2025-09-12T01:00:15Z,Eureka Municipal Airport,37.851601,-96.291702,US,US-KS
K13K,"Eureka Muni, KS, US",2025-09-12T05:00:00Z,2025-09-12 05:00:00,VFR,21.7,17.7,160,7,0,NA,1019,METAR K13K 120500Z AUTO 16007KT 10SM CLR 22/18 A3009 RMK AO2 T02170177,2025-09-12T05:16:54Z,2025-09-12T01:16:54Z,Eureka Municipal Airport,37.851601,-96.291702,US,US-KS
K14Y,"Long Prairie Muni, MN, US",2025-09-12T04:55:00Z,2025-09-12 04:55:00,VFR,17,15,140,7,0,NA,1019,METAR K14Y 120455Z AUTO 14007KT 10SM CLR 17/15 A3009 RMK AO2,2025-09-12T05:00:15Z,2025-09-12T01:00:15Z,Todd Field,45.898602,-94.873901,US,US-MN
K14Y,"Long Prairie Muni, MN, US",2025-09-12T05:15:00Z,2025-09-12 05:15:00,VFR,16,15,140,5,0,NA,1019,METAR K14Y 120515Z AUTO 14005KT 10SM CLR 16/15 A3009 RMK AO2,2025-09-12T05:16:54Z,2025-09-12T01:16:54Z,Todd Field,45.898602,-94.873901,US,US-MN
K15M,"Iuka Arpt, MS, US",2025-09-12T04:55:00Z,2025-09-12 04:55:00,VFR,21.9,21.9,VAR,3,0,7,1020.4,METAR K15M 120455Z AUTO VRB03KT 7SM -TSRA FEW045 BKN060 OVC075 22/22 A3013 RMK AO2 RAB0441 TSB0450 P0000 T02190219 $,2025-09-12T05:00:15Z,2025-09-12T01:00:15Z,Iuka Airport,34.772300720214844,-88.16590118408203,US,US-MS
K17J,"Donaldsonville Muni, GA, US",2025-09-12T04:35:00Z,2025-09-12 04:35:00,VFR,19,15,0,0,0,NA,1019.7,METAR K17J 120435Z AUTO 00000KT 10SM CLR 19/15 A3011 RMK AO2,2025-09-12T05:00:15Z,2025-09-12T01:00:15Z,Donalsonville Municipal Airport,31.006901,-84.877602,US,US-GA
K17J,"Donaldsonville Muni, GA, US",2025-09-12T04:55:00Z,2025-09-12 04:55:00,VFR,19,14,0,0,0,NA,1019.4,METAR K17J 120455Z AUTO 00000KT 10SM CLR 19/14 A3010 RMK AO2,2025-09-12T05:16:54Z,2025-09-12T01:16:54Z,Donalsonville Municipal Airport,31.006901,-84.877602,US,US-GA
K18A,"Canon/Franklin Cnty, GA, US",2025-09-12T04:35:00Z,2025-09-12 04:35:00,IFR,18,16.4,0,0,0,1,1020.7,METAR K18A 120435Z AUTO 00000KT 1SM BR VV007 18/16 A3014 RMK AO2 VIS 1/2V5 T01800164,2025-09-12T05:00:15Z,2025-09-12T01:00:15Z,Franklin County Airport,34.340099,-83.133499,US,US-GA
K19S,"Sublette Muni, KS, US",2025-09-12T04:35:00Z,2025-09-12 04:35:00,VFR,NA,NA,180,9,0,NA,1018,METAR K19S 120435Z AUTO 18009KT 10SM CLR A3006 RMK AO2,2025-09-12T05:00:15Z,2025-09-12T01:00:15Z,Sublette Municipal Airport,37.497018,-100.834343,US,US-KS
K19S,"Sublette Muni, KS, US",2025-09-12T04:55:00Z,2025-09-12 04:55:00,VFR,NA,NA,190,11,0,NA,1018,METAR K19S 120455Z AUTO 19011KT 10SM CLR A3006 RMK AO2,2025-09-12T05:16:54Z,2025-09-12T01:16:54Z,Sublette Municipal Airport,37.497018,-100.834343,US,US-KS
K1A5,"Franklin/Macon Cnty, NC, US",2025-09-12T04:45:00Z,2025-09-12 04:45:00,MVFR,13.2,13,0,0,0,5,1024.5,METAR K1A5 120445Z AUTO 00000KT 5SM BR CLR 13/13 A3025 RMK AO2 T01320130,2025-09-12T05:00:15Z,2025-09-12T01:00:15Z,Macon County Airport,35.222599029541016,-83.41899871826172,US,US-NC
K1A5,"Franklin/Macon Cnty, NC, US",2025-09-12T05:05:00Z,2025-09-12 05:05:00,MVFR,12.9,12.7,0,0,0,4,1024.5,METAR K1A5 120505Z AUTO 00000KT 4SM BR BKN075 13/13 A3025 RMK AO2 T01290127,2025-09-12T05:16:54Z,2025-09-12T01:16:54Z,Macon County Airport,35.222599029541016,-83.41899871826172,US,US-NC
K1A6,"Middlesboro/Bell Cnty, KY, US",2025-09-12T04:55:00Z,2025-09-12 04:55:00,VFR,15.3,14.8,0,0,0,NA,1022.8,METAR K1A6 120455Z AUTO 00000KT 10SM CLR 15/15 A3020 RMK AO2 T01530148,2025-09-12T05:00:14Z,2025-09-12T01:00:14Z,Middlesboro-Bell County Airport,36.610257,-83.737385,US,US-KY
K1A9,"Prattville Arpt, AL, US",2025-09-12T04:55:00Z,2025-09-12 04:55:00,VFR,19.7,18.7,0,0,0,NA,1019,METAR K1A9 120455Z AUTO 00000KT 10SM CLR 20/19 A3009 RMK AO2 T01970187,2025-09-12T05:00:15Z,2025-09-12T01:00:15Z,Prattville - Grouby Field,32.438702,-86.512703,US,US-AL
K1B9,"Mansfield Muni, MA, US",2025-09-12T04:55:00Z,2025-09-12 04:55:00,VFR,16.1,12.6,340,5,0,NA,1020.1,METAR K1B9 120455Z AUTO 34005KT 10SM CLR 16/13 A3012 RMK AO2 T01610126 $,2025-09-12T05:00:15Z,2025-09-12T01:00:15Z,Mansfield Municipal Airport,42.000099182099994,-71.1968002319,US,US-MA
K1D1,"Milbank Muni, SD, US",2025-09-12T04:35:00Z,2025-09-12 04:35:00,VFR,14,14,130,10,0,NA,1016.7,METAR K1D1 120435Z AUTO 13010KT 10SM CLR 14/14 A3002 RMK AO2,2025-09-12T05:00:15Z,2025-09-12T01:00:15Z,Milbank Municipal Airport,45.23049927,-96.56600189,US,US-SD
K1D1,"Milbank Muni, SD, US",2025-09-12T04:55:00Z,2025-09-12 04:55:00,VFR,7,7,120,10,0,NA,1016.7,METAR K1D1 120455Z AUTO 12010KT 10SM CLR 07/07 A3002 RMK AO2,2025-09-12T05:16:54Z,2025-09-12T01:16:54Z,Milbank Municipal Airport,45.23049927,-96.56600189,US,US-SD
K1D8,"Redfield Muni, SD, US",2025-09-12T04:35:00Z,2025-09-12 04:35:00,VFR,21,20,130,7,0,NA,1014,METAR K1D8 120435Z AUTO 13007KT 10SM CLR 21/20 A2994 RMK AO2,2025-09-12T05:00:15Z,2025-09-12T01:00:15Z,Redfield Municipal Airport,44.856176,-98.531284,US,US-SD
K1D8,"Redfield Muni, SD, US",2025-09-12T04:55:00Z,2025-09-12 04:55:00,VFR,21,20,130,6,0,NA,1014.3,METAR K1D8 120455Z AUTO 13006KT 10SM CLR 21/20 A2995 RMK AO2,2025-09-12T05:16:54Z,2025-09-12T01:16:54Z,Redfield Municipal Airport,44.856176,-98.531284,US,US-SD
K1F0,"Ardmore/Downtown Exec, OK, US",2025-09-12T04:55:00Z,2025-09-11 23:55:00,VFR,22.2,17.9,0,0,0,NA,1019.4,METAR K1F0 120455Z AUTO 00000KT 10SM CLR 22/18 A3010 RMK AO2 T02220179,2025-09-12T05:00:14Z,2025-09-12T01:00:14Z,Ardmore Downtown Executive Airport,34.1469993591,-97.1227035522,US,US-OK
K1H2,"Effingham Cnty, IL, US",2025-09-12T04:55:00Z,2025-09-12 04:55:00,VFR,17.8,17.2,0,0,0,NA,1021.8,METAR K1H2 120455Z AUTO 00000KT 10SM CLR 18/17 A3017 RMK AO2 T01780172,2025-09-12T05:00:14Z,2025-09-12T01:00:14Z,Effingham County Memorial Airport,39.0704,-88.533501,US,US-IL
K1M4,"Haleyville/Posey Fld, AL, US",2025-09-12T04:56:00Z,2025-09-12 04:56:00,VFR,19.4,19.4,0,0,0,6,1021.1,METAR K1M4 120456Z AUTO 00000KT 6SM BR SCT110 19/19 A3015 RMK AO2 SLP967 T01940194 403060161 $,2025-09-12T05:00:14Z,2025-09-12T01:00:14Z,Posey Field,34.2803,-87.600403,US,US-AL
K1R7,"Brookhaven/Lincoln Cnty Arpt, MS, US",2025-09-12T04:55:00Z,2025-09-12 04:55:00,VFR,21,20,0,0,0,NA,1020.4,METAR K1R7 120455Z AUTO 00000KT 10SM CLR 21/20 A3013 RMK A01 TSNO,2025-09-12T05:00:15Z,2025-09-12T01:00:15Z,Brookhaven-Lincoln County Airport,31.605801,-90.409302,US,US-MS
K1R8,"Bay Minette Muni, AL, US",2025-09-12T04:35:00Z,2025-09-12 04:35:00,VFR,21,19,0,0,0,NA,1018.7,METAR K1R8 120435Z AUTO 00000KT 10SM BKN060 21/19 A3008 RMK AO2,2025-09-12T05:00:15Z,2025-09-12T01:00:15Z,Bay Minette Municipal Airport,30.870321,-87.819298,US,US-AL
K1U7,"Paris/Bear Lake Cnty Arpt, ID, US",2025-09-12T04:35:00Z,2025-09-12 04:35:00,VFR,11,2,0,0,0,NA,1019.4,METAR K1U7 120435Z AUTO 00000KT 10SM SCT120 11/02 A3010 RMK A01,2025-09-12T05:00:15Z,2025-09-12T01:00:15Z,Bear Lake County Airport,42.2472,-111.337997,US,US-ID
K1U7,"Paris/Bear Lake Cnty Arpt, ID, US",2025-09-12T04:55:00Z,2025-09-12 04:55:00,VFR,10,2,310,4,0,NA,1019.7,METAR K1U7 120455Z AUTO 31004KT 10SM FEW120 10/02 A3011 RMK A01,2025-09-12T05:16:54Z,2025-09-12T01:16:54Z,Bear Lake County Airport,42.2472,-111.337997,US,US-ID
K1V6,"Canon City/Fremont Cnty Arpt, CO, US",2025-09-12T04:35:00Z,2025-09-11 22:35:00,VFR,19,12,320,5,0,NA,1022.8,METAR K1V6 120435Z AUTO 32005KT 10SM BKN110 19/12 A3020 RMK AO2 LTG DSNT SW,2025-09-12T05:00:15Z,2025-09-12T01:00:15Z,Fremont County Airport,38.429739,-105.108562,US,US-CO
K1V6,"Canon City/Fremont Cnty Arpt, CO, US",2025-09-12T04:55:00Z,2025-09-11 22:55:00,VFR,20,10,260,8,0,NA,1022.8,METAR K1V6 120455Z AUTO 26008KT 10SM SCT120 20/10 A3020 RMK AO2,2025-09-12T05:16:54Z,2025-09-12T01:16:54Z,Fremont County Airport,38.429739,-105.108562,US,US-CO
K20U,"Beach Arpt, ND, US",2025-09-12T04:55:00Z,2025-09-12 04:55:00,NA,18,17,330,6,0,NA,1013.3,METAR K20U 120455Z AUTO 33006KT 10SM 18/17 A2992 RMK AO2 TSNO,2025-09-12T05:00:16Z,2025-09-12T01:00:16Z,Beach Airport,46.925201,-103.982002,US,US-ND
K20U,"Beach Arpt, ND, US",2025-09-12T05:15:00Z,2025-09-12 05:15:00,NA,18,17,360,5,0,NA,1013,METAR K20U 120515Z AUTO 36005KT 10SM 18/17 A2991 RMK AO2 TSNO,2025-09-12T05:16:55Z,2025-09-12T01:16:55Z,Beach Airport,46.925201,-103.982002,US,US-ND
K20V,"Kremmling/McElroy Fld, CO, US",2025-09-12T04:55:00Z,2025-09-12 04:55:00,VFR,10,8,150,5,0,NA,1028.2,METAR K20V 120455Z AUTO 15005KT 10SM SCT065 SCT070 10/08 A3036 RMK AO2 P0002,2025-09-12T05:00:16Z,2025-09-12T01:00:16Z,McElroy Airfield,40.05341,-106.369078,US,US-CO
K21D,"Lake Elmo Arpt, MN, US",2025-09-12T04:55:00Z,2025-09-12 04:55:00,VFR,17,14,110,4,0,NA,1021.4,METAR K21D 120455Z AUTO 11004KT 10SM CLR 17/14 A3016 RMK AO2,2025-09-12T05:00:16Z,2025-09-12T01:00:16Z,Lake Elmo Airport,44.99750137,-92.85569763,US,US-MN
K21D,"Lake Elmo Arpt, MN, US",2025-09-12T05:15:00Z,2025-09-12 05:15:00,VFR,17,14,130,4,0,NA,1021.1,METAR K21D 120515Z AUTO 13004KT 10SM CLR 17/14 A3015 RMK AO2,2025-09-12T05:16:55Z,2025-09-12T01:16:55Z,Lake Elmo Airport,44.99750137,-92.85569763,US,US-MN
K22N,"Lehighton/Arner Mem, PA, US",2025-09-12T04:55:00Z,2025-09-12 04:55:00,VFR,10,8,0,0,0,NA,1022.4,METAR K22N 120455Z AUTO 00000KT 10SM CLR 10/08 A3019 RMK AO2,2025-09-12T05:00:16Z,2025-09-12T01:00:16Z,Jake Arner Memorial Airport,40.809502,-75.761497,US,US-PA
K22N,"Lehighton/Arner Mem, PA, US",2025-09-12T05:15:00Z,2025-09-12 05:15:00,VFR,9,8,0,0,0,NA,1022.4,METAR K22N 120515Z AUTO 00000KT 10SM CLR 09/08 A3019 RMK AO2,2025-09-12T05:16:55Z,2025-09-12T01:16:55Z,Jake Arner Memorial Airport,40.809502,-75.761497,US,US-PA
K24A,"Sylva/Jackson Cnty, NC, US",2025-09-12T04:45:00Z,2025-09-12 04:45:00,VFR,14.6,14.2,0,0,0,NA,1024.5,METAR K24A 120445Z AUTO 00000KT 10SM SCT065 15/14 A3025 RMK AO2 T01460142,2025-09-12T05:00:16Z,2025-09-12T01:00:16Z,Jackson County Airport,35.31740188598633,-83.20989990234375,US,US-NC
K24A,"Sylva/Jackson Cnty, NC, US",2025-09-12T05:05:00Z,2025-09-12 05:05:00,VFR,14.7,14.1,0,0,0,NA,1024.5,METAR K24A 120505Z AUTO 00000KT 10SM BKN065 15/14 A3025 RMK AO2 LTG DSNT SE T01470141,2025-09-12T05:16:55Z,2025-09-12T01:16:55Z,Jackson County Airport,35.31740188598633,-83.20989990234375,US,US-NC
K24J,"Live Oak/Suwannee Cnty, FL, US",2025-09-12T04:55:00Z,2025-09-12 04:55:00,VFR,19,19,0,0,0,NA,1018.4,METAR K24J 120455Z AUTO 00000KT 10SM CLR 19/19 A3007 RMK A01,2025-09-12T05:00:16Z,2025-09-12T01:00:16Z,Suwannee County Airport,30.3001,-83.024696,US,US-FL
K27K,"Georgetown/Scott Cnty, KY, US",2025-09-12T04:55:00Z,2025-09-12 04:55:00,VFR,15.5,12.9,0,0,0,NA,1021.1,METAR K27K 120455Z AUTO 00000KT 10SM CLR 16/13 A3015 RMK AO2 T01550129 402940138 $,2025-09-12T05:00:16Z,2025-09-12T01:00:16Z,Georgetown-Scott County Regional Airport,38.234405,-84.434702,US,US-KY
K2C8,"Cavalier Muni, ND, US",2025-09-12T05:15:00Z,2025-09-12 05:15:00,NA,19,19,150,7,0,9,1014.6,METAR K2C8 120515Z AUTO 15007KT 9SM 19/19 A2996 RMK AO2,2025-09-12T05:16:55Z,2025-09-12T01:16:55Z,Cavalier Municipal Airport,48.783798,-97.631897,US,US-ND
K2D5,"Oakes Muni, ND, US",2025-09-12T04:55:00Z,2025-09-12 04:55:00,NA,19,19,110,8,0,NA,1015,METAR K2D5 120455Z AUTO 11008KT 19/19 A2997 RMK AO2,2025-09-12T05:00:16Z,2025-09-12T01:00:16Z,Oakes Municipal Airport,46.173778,-98.079507,US,US-ND
K2D5,"Oakes Muni, ND, US",2025-09-12T05:15:00Z,2025-09-12 05:15:00,NA,18,19,110,8,0,NA,1015,METAR K2D5 120515Z AUTO 11008KT 18/19 A2997 RMK AO2,2025-09-12T05:16:55Z,2025-09-12T01:16:55Z,Oakes Municipal Airport,46.173778,-98.079507,US,US-ND
K2G2,"Steubenville/Jefferson Cnty, OH, US",2025-09-12T04:35:00Z,2025-09-12 04:35:00,VFR,17,10,20,4,0,NA,1022.8,METAR K2G2 120435Z AUTO 02004KT 10SM SCT050 17/10 A3020 RMK A01,2025-09-12T05:00:16Z,2025-09-12T01:00:16Z,Jefferson County Airpark,40.359402,-80.700104,US,US-OH
K2G2,"Steubenville/Jefferson Cnty, OH, US",2025-09-12T04:55:00Z,2025-09-12 04:55:00,VFR,17,10,20,3,0,NA,1022.4,METAR K2G2 120455Z AUTO 02003KT 10SM SCT050 17/10 A3019 RMK A01,2025-09-12T05:16:55Z,2025-09-12T01:16:55Z,Jefferson County Airpark,40.359402,-80.700104,US,US-OH
K2G4,"Oakland/Garrett Cnty, MD, US",2025-09-12T04:45:00Z,2025-09-12 04:45:00,VFR,17,7,0,0,0,NA,1024.1,METAR K2G4 120445Z AUTO 00000KT 10SM CLR 17/07 A3024 RMK AO2,2025-09-12T05:00:16Z,2025-09-12T01:00:16Z,Garrett County Airport,39.580819,-79.33573,US,US-MD
K2G4,"Oakland/Garrett Cnty, MD, US",2025-09-12T05:05:00Z,2025-09-12 05:05:00,VFR,17,7,0,0,0,NA,1023.8,METAR K2G4 120505Z AUTO 00000KT 10SM CLR 17/07 A3023 RMK AO2,2025-09-12T05:16:55Z,2025-09-12T01:16:55Z,Garrett County Airport,39.580819,-79.33573,US,US-MD
K2G9,"Somerset Cnty Arpt, PA, US",2025-09-12T04:30:00Z,2025-09-12 04:30:00,VFR,11,7,0,0,0,NA,1023.5,METAR K2G9 120430Z AUTO 00000KT 10SM CLR 11/07 A3022 RMK AO2,2025-09-12T05:00:16Z,2025-09-12T01:00:16Z,Somerset County Airport,40.039101,-79.014603,US,US-PA
K2G9,"Somerset Cnty Arpt, PA, US",2025-09-12T04:50:00Z,2025-09-12 04:50:00,VFR,11,7,0,0,0,NA,1023.5,METAR K2G9 120450Z AUTO 00000KT 10SM CLR 11/07 A3022 RMK AO2,2025-09-12T05:16:56Z,2025-09-12T01:16:56Z,Somerset County Airport,40.039101,-79.014603,US,US-PA
K2I0,"Madisonville Muni, KY, US",2025-09-12T04:55:00Z,2025-09-12 04:55:00,VFR,17.9,15.4,0,0,0,NA,1021.1,METAR K2I0 120455Z AUTO 00000KT 10SM CLR 18/15 A3015 RMK AO2 T01790154,2025-09-12T05:00:16Z,2025-09-12T01:00:16Z,Madisonville Regional Airport,37.355868,-87.398205,US,US-KY
K2IS,"Clewistown/Airglades Arpt, FL, US",2025-09-12T04:55:00Z,2025-09-12 04:55:00,NA,24.2,NA,340,7,0,NA,1015.3,METAR K2IS 120455Z AUTO 34007KT 24/ A2998 RMK AO2 LTG DSNT SE AND W PWINO T0242////,2025-09-12T05:00:16Z,2025-09-12T01:00:16Z,Airglades Airport,26.735195,-81.051078,US,US-FL
K2J5,"Millen Arpt, GA, US",2025-09-12T04:30:00Z,2025-09-12 04:30:00,VFR,NA,NA,0,0,0,NA,1019.7,METAR K2J5 120430Z AUTO 00000KT 10SM CLR A3011 RMK AO2,2025-09-12T05:00:16Z,2025-09-12T01:00:16Z,Millen Airport,32.89360046386719,-81.96540069580078,US,US-GA
K2J5,"Millen Arpt, GA, US",2025-09-12T04:50:00Z,2025-09-12 04:50:00,VFR,NA,NA,0,0,0,NA,1019.7,METAR K2J5 120450Z AUTO 00000KT 10SM CLR A3011 RMK AO2,2025-09-12T05:16:56Z,2025-09-12T01:16:56Z,Millen Airport,32.89360046386719,-81.96540069580078,US,US-GA
K2M2,"Lawrenceburg/Lawrence Cnty, TN, US",2025-09-12T04:35:00Z,2025-09-12 04:35:00,VFR,17,17,0,0,0,6,1020.7,METAR K2M2 120435Z AUTO 00000KT 6SM BR FEW040 SCT070 BKN085 17/17 A3014 RMK A01,2025-09-12T05:00:16Z,2025-09-12T01:00:16Z,Lawrenceburg Lawrence County Airport,35.234299,-87.257896,US,US-TN
K2M2,"Lawrenceburg/Lawrence Cnty, TN, US",2025-09-12T04:55:00Z,2025-09-12 04:55:00,VFR,17,17,0,0,0,7,1020.7,METAR K2M2 120455Z AUTO 00000KT 7SM FEW041 SCT050 BKN075 17/17 A3014 RMK A01,2025-09-12T05:16:56Z,2025-09-12T01:16:56Z,Lawrenceburg Lawrence County Airport,35.234299,-87.257896,US,US-TN
K2M8,"Millington/Baker Arpt, TN, US",2025-09-12T04:55:00Z,2025-09-12 04:55:00,NA,NA,NA,VAR,NA,0,8,1019,METAR K2M8 120455Z AUTO 8SM A3009 RMK AO2 FZRANO $,2025-09-12T05:00:16Z,2025-09-12T01:00:16Z,Charles W. Baker Airport,35.278999,-89.931503,US,US-TN
K2R2,"Indianapolis/Hendrick Cnty, IN, US",2025-09-12T04:55:00Z,2025-09-12 04:55:00,NA,15.4,12,360,4,0,NA,1022.4,METAR K2R2 120455Z AUTO 36004KT CLR 15/12 A3019 RMK AO2 T01540120 402910129 PWINO TSNO $,2025-09-12T05:00:16Z,2025-09-12T01:00:16Z,Hendricks County Gordon Graham Field,39.7481,-86.473801,US,US-IN
K2R9,"Kenedy/Karnes Cnty, TX, US",2025-09-12T04:55:00Z,2025-09-12 04:55:00,VFR,26.7,22.6,100,5,0,NA,1018.7,METAR K2R9 120455Z AUTO 10005KT 10SM CLR 27/23 A3008 RMK AO2 T02670226,2025-09-12T05:00:16Z,2025-09-12T01:00:16Z,Kenedy Regional Airport,28.825001,-97.865601,US,US-TX
K2V5,"Wray Muni, CO, US",2025-09-12T04:55:00Z,2025-09-12 04:55:00,VFR,21,16,240,7,0,NA,1017,METAR K2V5 120455Z AUTO 24007KT 10SM CLR 21/16 A3003 RMK AO2,2025-09-12T05:00:16Z,2025-09-12T01:00:16Z,Wray Municipal Airport,40.10029984,-102.2409973,US,US-CO
K2V6,"Yuma Muni, CO, US",2025-09-12T04:34:00Z,2025-09-12 04:34:00,VFR,18,13,200,3,0,NA,1018,METAR K2V6 120434Z AUTO 20003KT 10SM CLR 18/13 A3006 RMK AO2,2025-09-12T05:00:16Z,2025-09-12T01:00:16Z,Yuma Municipal Airport,40.104198,-102.712997,US,US-CO
K2V6,"Yuma Muni, CO, US",2025-09-12T04:54:00Z,2025-09-12 04:54:00,VFR,18,13,190,6,0,NA,1018,METAR K2V6 120454Z AUTO 19006KT 10SM CLR 18/13 A3006 RMK AO2,2025-09-12T05:16:56Z,2025-09-12T01:16:56Z,Yuma Municipal Airport,40.104198,-102.712997,US,US-CO
K2W6,"Leonardtown/St Marys, MD, US",2025-09-12T04:45:00Z,2025-09-12 00:45:00,VFR,16.3,16.1,0,0,0,8,1020.7,METAR K2W6 120445Z AUTO 00000KT 8SM CLR 16/16 A3014 RMK AO2 T01630161 $,2025-09-12T05:00:16Z,2025-09-12T01:00:16Z,St. Mary's County Regional Airport,38.315399,-76.550102,US,US-MD
K2W6,"Leonardtown/St Marys, MD, US",2025-09-12T05:05:00Z,2025-09-12 01:05:00,IFR,15.8,15.7,0,0,0,2.5,1020.7,METAR K2W6 120505Z AUTO 00000KT 2 1/2SM BR CLR 16/16 A3014 RMK AO2 T01580157 $,2025-09-12T05:16:55Z,2025-09-12T01:16:55Z,St. Mary's County Regional Airport,38.315399,-76.550102,US,US-MD
K35A,"Union/Union Cnty, SC, US",2025-09-12T04:55:00Z,2025-09-12 04:55:00,VFR,19.4,13.5,0,0,0,NA,1022.1,METAR K35A 120455Z AUTO 00000KT 10SM SCT070 SCT080 19/14 A3018 RMK A02 T01940135,2025-09-12T05:00:16Z,2025-09-12T01:00:16Z,"Union County, Troy Shelton Field",34.687046,-81.64105,US,US-SC
K36K,"Lakin/Kearney Cnty, KS, US",2025-09-12T04:55:00Z,2025-09-12 04:55:00,VFR,21,14,210,8,0,NA,1019,METAR K36K 120455Z AUTO 21008KT 10SM SCT037 BKN044 21/14 A3009 RMK AO2,2025-09-12T05:00:16Z,2025-09-12T01:00:16Z,Kearny County Airport,37.969501,-101.254997,US,US-KS
K3AU,"Augusta Muni, KS, US",2025-09-12T04:55:00Z,2025-09-12 04:55:00,VFR,21,17,130,5,0,NA,1018.4,METAR K3AU 120455Z AUTO 13005KT 10SM CLR 21/17 A3007 RMK AO2,2025-09-12T05:00:16Z,2025-09-12T01:00:16Z,Augusta Municipal Airport,37.6716,-97.077904,US,US-KS
K3F3,"Mansfield/Williams Arpt, LA, US",2025-09-12T04:55:00Z,2025-09-12 04:55:00,VFR,26.6,20.7,120,3,0,NA,1020.4,METAR K3F3 120455Z AUTO 12003KT 10SM CLR 27/21 A3013 RMK AO2 T02660207,2025-09-12T05:00:16Z,2025-09-12T01:00:16Z,C E 'Rusty' Williams Airport,32.0735015869,-93.7655029297,US,US-LA
K3K3,"Syracuse/Hamilton Cnty, KS, US",2025-09-12T04:35:00Z,2025-09-12 04:35:00,VFR,20,16,120,8,0,NA,1017.7,METAR K3K3 120435Z AUTO 12008KT 10SM CLR 20/16 A3005 RMK AO2,2025-09-12T05:00:18Z,2025-09-12T01:00:18Z,Syracuse Hamilton County Municipal Airport,37.997113,-101.748218,US,US-KS
K3K3,"Syracuse/Hamilton Cnty, KS, US",2025-09-12T04:55:00Z,2025-09-12 04:55:00,VFR,20,16,130,9,0,NA,1017.7,METAR K3K3 120455Z AUTO 13009KT 10SM CLR 20/16 A3005 RMK AO2 403670164,2025-09-12T05:16:58Z,2025-09-12T01:16:58Z,Syracuse Hamilton County Municipal Airport,37.997113,-101.748218,US,US-KS
K3K7,"Leoti/Hoard Mem, KS, US",2025-09-12T04:55:00Z,2025-09-12 04:55:00,VFR,22,13,170,5,0,NA,1017.7,METAR K3K7 120455Z AUTO 17005KT 10SM CLR 22/13 A3005 RMK AO2 403440142,2025-09-12T05:00:18Z,2025-09-12T01:00:18Z,Mark Hoard Memorial Airport,38.457001,-101.352997,US,US-KS
K3LF,"Litchfield Muni, IL, US",2025-09-12T04:55:00Z,2025-09-12 04:55:00,VFR,18.7,13.5,100,6,0,NA,1021.4,METAR K3LF 120455Z AUTO 10006KT 10SM CLR 19/14 A3016 RMK AO2 T01870135,2025-09-12T05:00:18Z,2025-09-12T01:00:18Z,Litchfield Municipal Airport,39.162498,-89.674599,US,US-IL
K3R7,"Jennings Arpt, LA, US",2025-09-12T04:55:00Z,2025-09-12 04:55:00,VFR,24.1,22,VAR,NA,0,NA,1019.4,METAR K3R7 120455Z AUTO 10SM CLR 24/22 A3010 RMK AO2 T02410220,2025-09-12T05:00:18Z,2025-09-12T01:00:18Z,Jennings Airport,30.242700576782227,-92.67340087890624,US,US-LA
K3S8,"Grants Pass Arpt, OR, US",2025-09-12T04:35:00Z,2025-09-11 21:35:00,VFR,20,13,0,0,0,NA,1018,METAR K3S8 120435Z AUTO 00000KT 10SM BKN120 20/13 A3006 RMK AO2,2025-09-12T05:00:18Z,2025-09-12T01:00:18Z,Grants Pass Airport,42.510101,-123.388,US,US-OR
K3S8,"Grants Pass Arpt, OR, US",2025-09-12T04:55:00Z,2025-09-11 21:55:00,VFR,20,13,VAR,3,10,NA,1018,METAR K3S8 120455Z AUTO VRB03G10KT 10SM FEW047 FEW120 20/13 A3006 RMK AO2,2025-09-12T05:16:58Z,2025-09-12T01:16:58Z,Grants Pass Airport,42.510101,-123.388,US,US-OR
K3T5,"LaGrange/Fayette Rgnl, TX, US",2025-09-12T04:55:00Z,2025-09-12 04:55:00,VFR,24.5,22.9,150,5,0,NA,1018.4,METAR K3T5 120455Z AUTO 15005KT 10SM CLR 24/23 A3007 RMK AO2 T02450229 $,2025-09-12T05:00:18Z,2025-09-12T01:00:18Z,Fayette Regional Air Center Airport,29.908001,-96.949997,US,US-TX
K3U3,"Anaconda/Bowman Fld, MT, US",2025-09-12T04:55:00Z,2025-09-12 04:55:00,VFR,11.7,7.7,340,3,0,NA,1018.4,METAR K3U3 120455Z AUTO 34003KT 10SM FEW065 SCT080 BKN110 12/08 A3007 RMK AO2 RAE0452 P0000 T01170077 $,2025-09-12T05:00:18Z,2025-09-12T01:00:18Z,Bowman Field,46.153099,-112.867996,US,US-MT
K3W7,"Electric City/Grand Coulee Arpt, WA, US",2025-09-12T04:35:00Z,2025-09-11 21:35:00,VFR,22,13,210,4,0,NA,1013,METAR K3W7 120435Z AUTO 21004KT 10SM BKN050 22/13 A2991 RMK AO2,2025-09-12T05:00:18Z,2025-09-12T01:00:18Z,Grand Coulee Dam Airport,47.922000885,-119.083000183,US,US-WA
K3W7,"Electric City/Grand Coulee Arpt, WA, US",2025-09-12T04:55:00Z,2025-09-11 21:55:00,VFR,22,13,230,7,0,NA,1013,METAR K3W7 120455Z AUTO 23007KT 10SM SCT055 22/13 A2991 RMK AO2,2025-09-12T05:16:58Z,2025-09-12T01:16:58Z,Grand Coulee Dam Airport,47.922000885,-119.083000183,US,US-WA
K40U,"Manila Arpt, UT, US",2025-09-12T04:55:00Z,2025-09-12 04:55:00,VFR,8.9,1.8,260,4,0,NA,1020.4,METAR K40U 120455Z AUTO 26004KT 10SM CLR 09/02 A3013 RMK AO2 T00890018,2025-09-12T05:00:18Z,2025-09-12T01:00:18Z,Manila Airport,40.98609924316406,-109.6780014038086,US,US-UT
K42A,"Melbourne Muni, AR, US",2025-09-12T04:35:00Z,2025-09-12 04:35:00,VFR,NA,NA,0,0,0,NA,1019.7,METAR K42A 120435Z AUTO 00000KT 10SM CLR A3011 RMK AO2,2025-09-12T05:00:18Z,2025-09-12T01:00:18Z,Melbourne Municipal John E Miller Field,36.070999,-91.830101,US,US-AR
K42A,"Melbourne Muni, AR, US",2025-09-12T04:55:00Z,2025-09-12 04:55:00,VFR,NA,NA,0,0,0,NA,1019.7,METAR K42A 120455Z AUTO 00000KT 10SM CLR A3011 RMK AO2,2025-09-12T05:16:58Z,2025-09-12T01:16:58Z,Melbourne Municipal John E Miller Field,36.070999,-91.830101,US,US-AR
K42J,"Keystone Airpark, FL, US",2025-09-12T04:55:00Z,2025-09-12 04:55:00,VFR,20,19,340,5,0,9,1017.4,METAR K42J 120455Z AUTO 34005KT 9SM SCT043 20/19 A3004 RMK A01,2025-09-12T05:00:18Z,2025-09-12T01:00:18Z,Keystone Heights Airport,29.8447,-82.047501,US,US-FL
K42J,"Keystone Airpark, FL, US",2025-09-12T05:15:00Z,2025-09-12 05:15:00,VFR,20,19,350,5,0,NA,1017.4,METAR K42J 120515Z AUTO 35005KT 10SM CLR 20/19 A3004 RMK A01,2025-09-12T05:16:58Z,2025-09-12T01:16:58Z,Keystone Heights Airport,29.8447,-82.047501,US,US-FL
K46D,"Carrington Muni, ND, US",2025-09-12T04:55:00Z,2025-09-12 04:55:00,VFR,21,20,150,13,0,6,1013.6,METAR K46D 120455Z AUTO 15013KT 6SM BR CLR 21/20 A2993 RMK A01,2025-09-12T05:00:18Z,2025-09-12T01:00:18Z,Carrington Municipal Airport,47.451099,-99.1511,US,US-ND
K46D,"Carrington Muni, ND, US",2025-09-12T05:15:00Z,2025-09-12 05:15:00,VFR,20,20,150,12,0,6,1013.6,METAR K46D 120515Z AUTO 15012KT 6SM BR CLR 20/20 A2993 RMK A01,2025-09-12T05:16:58Z,2025-09-12T01:16:58Z,Carrington Municipal Airport,47.451099,-99.1511,US,US-ND
K46U,"Alpine Arpt, WY, US",2025-09-12T04:25:00Z,2025-09-12 04:25:00,VFR,14,4,0,0,0,NA,1019.7,METAR K46U 120425Z AUTO 00000KT 10SM FEW120 14/04 A3011 RMK A01,2025-09-12T05:00:18Z,2025-09-12T01:00:18Z,Alpine Airport,43.181876,-111.038657,US,US-WY
K46U,"Alpine Arpt, WY, US",2025-09-12T04:45:00Z,2025-09-12 04:45:00,VFR,13,5,0,0,0,NA,1019.7,METAR K46U 120445Z AUTO 00000KT 10SM BKN120 13/05 A3011 RMK A01,2025-09-12T05:16:58Z,2025-09-12T01:16:58Z,Alpine Airport,43.181876,-111.038657,US,US-WY
K48A,"Cochran Arpt, GA, US",2025-09-12T04:55:00Z,2025-09-12 04:55:00,VFR,16.4,15.5,0,0,0,NA,1019.4,METAR K48A 120455Z AUTO 00000KT 10SM CLR 16/16 A3010 RMK AO2 T01640155,2025-09-12T05:00:18Z,2025-09-12T01:00:18Z,Cochran Airport,32.3993988,-83.27590179,US,US-GA
K48I,"Sutton/Braxton Cnty, WV, US",2025-09-12T04:55:00Z,2025-09-12 04:55:00,VFR,10.4,10.1,0,0,0,9,1022.4,METAR K48I 120455Z AUTO 00000KT 9SM CLR 10/10 A3019 RMK AO2 T01040101,2025-09-12T05:00:18Z,2025-09-12T01:00:18Z,Braxton County Airport,38.68700027,-80.65180206,US,US-WV
K49A,"Ellijay/Gilmer Cnty, GA, US",2025-09-12T04:55:00Z,2025-09-12 04:55:00,MVFR,16,16,0,0,0,5,1021.8,METAR K49A 120455Z AUTO 00000KT 5SM BR CLR 16/16 A3017 RMK AO2,2025-09-12T05:00:18Z,2025-09-12T01:00:18Z,Gilmer County Airport,34.627899169921875,-84.52490234375,US,US-GA
K49B,"Sturgis Muni, SD, US",2025-09-12T04:35:00Z,2025-09-12 04:35:00,VFR,20,15,260,9,15,NA,1014,METAR K49B 120435Z AUTO 26009G15KT 10SM CLR 20/15 A2994 RMK AO2,2025-09-12T05:00:18Z,2025-09-12T01:00:18Z,Sturgis Municipal Airport,44.417999,-103.375,US,US-SD
K49B,"Sturgis Muni, SD, US",2025-09-12T04:55:00Z,2025-09-12 04:55:00,VFR,20,15,280,13,0,NA,1013.6,METAR K49B 120455Z AUTO 28013KT 10SM CLR 20/15 A2993 RMK AO2,2025-09-12T05:16:58Z,2025-09-12T01:16:58Z,Sturgis Municipal Airport,44.417999,-103.375,US,US-SD
K4A6,"Scottsboro Muni, AL, US",2025-09-12T04:55:00Z,2025-09-12 04:55:00,VFR,19,19,0,0,0,9,1021.1,METAR K4A6 120455Z AUTO 00000KT 9SM CLR 19/19 A3015 RMK AO2,2025-09-12T05:00:18Z,2025-09-12T01:00:18Z,Scottsboro Municipal Word Field,34.688702,-86.005898,US,US-AL
K4A9,"Fort Payne/Isbell Fld, AL, US",2025-09-12T04:55:00Z,2025-09-12 04:55:00,VFR,17.2,16.9,0,0,0,NA,1020.7,METAR K4A9 120455Z AUTO 00000KT 10SM CLR 17/17 A3014 RMK AO2 T01720169,2025-09-12T05:00:18Z,2025-09-12T01:00:18Z,Isbell Field,34.473701,-85.721397,US,US-AL
K4F2,"Carthage/Panola Cnty, TX, US",2025-09-12T04:55:00Z,2025-09-12 04:55:00,VFR,22.2,21.4,0,0,0,7,1019.4,METAR K4F2 120455Z AUTO 00000KT 7SM CLR 22/21 A3010 RMK AO2 T02220214,2025-09-12T05:00:18Z,2025-09-12T01:00:18Z,Panola County Sharpe Field,32.176102,-94.298798,US,US-TX
K4I3,"Mount Vernon/Knox Cnty, OH, US",2025-09-12T04:41:00Z,2025-09-12 04:41:00,VFR,15,9,20,5,0,NA,1023.5,METAR K4I3 120441Z 02005KT 10SM CLR 15/09 A3022 RMK AO2,2025-09-12T05:00:18Z,2025-09-12T01:00:18Z,Knox County Airport,40.328701,-82.523804,US,US-OH
K4I3,"Mount Vernon/Knox Cnty, OH, US",2025-09-12T05:01:00Z,2025-09-12 05:01:00,VFR,15,9,20,4,0,NA,1023.5,METAR K4I3 120501Z 02004KT 10SM CLR 15/09 A3022 RMK AO2,2025-09-12T05:16:58Z,2025-09-12T01:16:58Z,Knox County Airport,40.328701,-82.523804,US,US-OH
K4M3,"Carlisle Muni, AR, US",2025-09-12T04:55:00Z,2025-09-12 04:55:00,NA,23,20,0,0,0,NA,1018.7,METAR K4M3 120455Z AUTO 00000KT 10SM 23/20 A3008 RMK A01,2025-09-12T05:00:18Z,2025-09-12T01:00:18Z,Carlisle Municipal Airport,34.808201,-91.712097,US,US-AR
K4M3,"Carlisle Muni, AR, US",2025-09-12T05:15:00Z,2025-09-12 05:15:00,NA,23,20,0,0,0,NA,1018.7,METAR K4M3 120515Z AUTO 00000KT 10SM 23/20 A3008 RMK A01,2025-09-12T05:16:58Z,2025-09-12T01:16:58Z,Carlisle Municipal Airport,34.808201,-91.712097,US,US-AR
K4M9,"Corning Muni, AR, US",2025-09-12T04:55:00Z,2025-09-12 04:55:00,VFR,23,21,0,0,0,NA,1019.4,METAR K4M9 120455Z AUTO 00000KT 10SM CLR 23/21 A3010 RMK A01,2025-09-12T05:00:18Z,2025-09-12T01:00:18Z,Corning Municipal Airport,36.404202,-90.647903,US,US-AR
K4M9,"Corning Muni, AR, US",2025-09-12T05:15:00Z,2025-09-12 05:15:00,VFR,23,20,50,4,0,9,1019,METAR K4M9 120515Z AUTO 05004KT 9SM CLR 23/20 A3009 RMK A01,2025-09-12T05:16:58Z,2025-09-12T01:16:58Z,Corning Municipal Airport,36.404202,-90.647903,US,US-AR
K4O4,"Idabel/McCurtain Rgnl, OK, US",2025-09-12T04:55:00Z,2025-09-12 04:55:00,VFR,23,22,80,4,0,NA,1019.4,METAR K4O4 120455Z AUTO 08004KT 10SM FEW046 23/22 A3010 RMK AO2,2025-09-12T05:00:18Z,2025-09-12T01:00:18Z,McCurtain County Regional Airport,33.909401,-94.859398,US,US-OK
K4O4,"Idabel/McCurtain Rgnl, OK, US",2025-09-12T05:15:00Z,2025-09-12 05:15:00,VFR,23,22,80,5,0,NA,1019.4,METAR K4O4 120515Z AUTO 08005KT 10SM FEW038 FEW044 23/22 A3010 RMK AO2,2025-09-12T05:16:58Z,2025-09-12T01:16:58Z,McCurtain County Regional Airport,33.909401,-94.859398,US,US-OK
K4R5,"La Pointe/Madeline Isl Arpt, WI, US",2025-09-12T04:55:00Z,2025-09-12 04:55:00,VFR,11.6,11.1,0,0,0,NA,1022.8,METAR K4R5 120455Z AUTO 00000KT 10SM SCT006 BKN050 BKN120 12/11 A3020 RMK AO2 T01160111,2025-09-12T05:00:18Z,2025-09-12T01:00:18Z,Major Gilbert Field Airport,46.7887,-90.758698,US,US-WI
K4S1,"Gold Beach Muni, OR, US",2025-09-12T04:55:00Z,2025-09-11 21:55:00,VFR,14,13,150,4,0,9,1017.7,METAR K4S1 120455Z AUTO 15004KT 9SM SCT002 14/13 A3005 RMK AO2,2025-09-12T05:00:18Z,2025-09-12T01:00:18Z,Gold Beach Municipal Airport,42.41339874,-124.4240036,US,US-OR
K4S2,"Hood River/Jernstedt Arfld, OR, US",2025-09-12T04:55:00Z,2025-09-12 04:55:00,VFR,17,13,0,0,0,NA,1016.3,METAR K4S2 120455Z AUTO 00000KT 10SM CLR 17/13 A3001 RMK AO2,2025-09-12T05:00:18Z,2025-09-12T01:00:18Z,Ken Jernstedt Airfield,45.67259979,-121.5360031,US,US-OR
K4S2,"Hood River/Jernstedt Arfld, OR, US",2025-09-12T05:15:00Z,2025-09-12 05:15:00,VFR,17,13,0,0,0,NA,1016,METAR K4S2 120515Z AUTO 00000KT 10SM CLR 17/13 A3000 RMK AO2,2025-09-12T05:16:58Z,2025-09-12T01:16:58Z,Ken Jernstedt Airfield,45.67259979,-121.5360031,US,US-OR
K4V0,"Rangely Arpt, CO, US",2025-09-12T04:55:00Z,2025-09-12 04:55:00,VFR,22.7,4.6,180,8,0,NA,1017,METAR K4V0 120455Z AUTO 18008KT 10SM BKN120 23/05 A3003 RMK AO2 LTG DSNT NE T02270046,2025-09-12T05:00:18Z,2025-09-12T01:00:18Z,Rangely Airport,40.094002,-108.763,US,US-CO
K4V1,"Walsenburg/Spanish Peaks Arfld, CO, US",2025-09-12T04:55:00Z,2025-09-12 04:55:00,VFR,15,12,220,3,0,NA,1024.5,METAR K4V1 120455Z AUTO 22003KT 10SM FEW110 15/12 A3025 RMK AO2,2025-09-12T05:00:18Z,2025-09-12T01:00:18Z,Spanish Peaks Airfield,37.696602,-104.783997,US,US-CO
K54J,"DeFuniak Springs Muni, FL, US",2025-09-12T04:55:00Z,2025-09-12 04:55:00,VFR,22,17.1,60,3,0,NA,1019,METAR K54J 120455Z AUTO 06003KT 10SM CLR 22/17 A3009 RMK AO2 T02200171 403240180,2025-09-12T05:00:20Z,2025-09-12T01:00:20Z,Defuniak Springs Airport,30.7313,-86.151604,US,US-FL
K54J,"DeFuniak Springs Muni, FL, US",2025-09-12T05:15:00Z,2025-09-12 05:15:00,VFR,22.6,16.6,70,3,0,NA,1019,METAR K54J 120515Z AUTO 07003KT 10SM CLR 23/17 A3009 RMK AO2 T02260166,2025-09-12T05:16:59Z,2025-09-12T01:16:59Z,Defuniak Springs Airport,30.7313,-86.151604,US,US-FL
K57C,"East Troy Muni, WI, US",2025-09-12T04:55:00Z,2025-09-12 04:55:00,LIFR,14.2,14.2,80,3,0,3,1023.8,METAR K57C 120455Z AUTO 08003KT 3SM BR OVC003 14/14 A3023 RMK AO2 T01420142,2025-09-12T05:00:20Z,2025-09-12T01:00:20Z,East Troy Municipal Airport,42.797199,-88.372597,US,US-WI
K5A6,"Winona/Montgomery Cnty, MS, US",2025-09-12T04:55:00Z,2025-09-12 04:55:00,VFR,20.1,19.6,0,0,0,7,1019.4,METAR K5A6 120455Z AUTO 00000KT 7SM CLR 20/20 A3010 RMK AO2 T02010196,2025-09-12T05:00:20Z,2025-09-12T01:00:20Z,Winona–Montgomery County Airport,33.465400699999996,-89.72920227,US,US-MS
K5A9,"Warm Springs/Roosevelt Muni, GA, US",2025-09-12T04:55:00Z,2025-09-12 04:55:00,VFR,17.9,16.9,0,0,0,NA,1020.4,METAR K5A9 120455Z AUTO 00000KT 10SM CLR 18/17 A3013 RMK AO2 T01790169,2025-09-12T05:00:20Z,2025-09-12T01:00:20Z,Roosevelt Memorial Airport,32.937904,-84.696467,US,US-GA
K5A9,"Warm Springs/Roosevelt Muni, GA, US",2025-09-12T05:15:00Z,2025-09-12 05:15:00,VFR,18.1,17,0,0,0,NA,1020.4,METAR K5A9 120515Z AUTO 00000KT 10SM CLR 18/17 A3013 RMK AO2 T01810170,2025-09-12T05:16:59Z,2025-09-12T01:16:59Z,Roosevelt Memorial Airport,32.937904,-84.696467,US,US-GA
K5C1,"Boerne/Stage Fld, TX, US",2025-09-12T04:55:00Z,2025-09-12 04:55:00,VFR,24,18,170,3,0,NA,1020.7,METAR K5C1 120455Z AUTO 17003KT 10SM CLR 24/18 A3014 RMK AO1,2025-09-12T05:00:20Z,2025-09-12T01:00:20Z,Boerne Stage Field,29.7239,-98.694603,US,US-TX
K5H4,"Harvey Muni, ND, US",2025-09-12T04:55:00Z,2025-09-12 04:55:00,VFR,21,19,150,8,0,NA,1013.3,METAR K5H4 120455Z AUTO 15008KT 10SM VCTS BKN090 21/19 A2992 RMK AO2 LTG DSNT N AND NW,2025-09-12T05:00:20Z,2025-09-12T01:00:20Z,Harvey Municipal Airport,47.791199,-99.931702,US,US-ND
K5R8,"DeQuincey Ind Arpk, LA, US",2025-09-12T04:55:00Z,2025-09-12 04:55:00,VFR,23.5,21.5,0,0,0,NA,1019.4,METAR K5R8 120455Z AUTO 00000KT 10SM CLR 24/22 A3010 RMK AO2 T02350215,2025-09-12T05:00:20Z,2025-09-12T01:00:20Z,De Quincy Industrial Airpark,30.441200256347656,-93.47350311279295,US,US-LA
K5T9,"Maverick County Arpt, TX, US",2025-09-12T04:35:00Z,2025-09-11 23:35:00,VFR,27,20,100,5,0,NA,1017,METAR K5T9 120435Z AUTO 10005KT 10SM CLR 27/20 A3003 RMK A01,2025-09-12T05:00:20Z,2025-09-12T01:00:20Z,Maverick County Memorial International Airport,28.859766,-100.516682,US,US-TX
K5T9,"Maverick County Arpt, TX, US",2025-09-12T04:55:00Z,2025-09-11 23:55:00,VFR,27,20,100,6,0,NA,1017,METAR K5T9 120455Z AUTO 10006KT 10SM CLR 27/20 A3003 RMK A01,2025-09-12T05:16:59Z,2025-09-12T01:16:59Z,Maverick County Memorial International Airport,28.859766,-100.516682,US,US-TX
K65S,"Bonners Ferry/Boundary Cnty, ID, US",2025-09-12T04:35:00Z,2025-09-12 04:35:00,VFR,22,8,VAR,3,0,NA,1013.3,METAR K65S 120435Z AUTO VRB03KT 10SM CLR 22/08 A2992 RMK AO2,2025-09-12T05:00:20Z,2025-09-12T01:00:20Z,Boundary County Airport,48.7258,-116.294998,US,US-ID
K65S,"Bonners Ferry/Boundary Cnty, ID, US",2025-09-12T04:55:00Z,2025-09-12 04:55:00,VFR,22,8,VAR,5,0,NA,1013.3,METAR K65S 120455Z AUTO VRB05KT 10SM CLR 22/08 A2992 RMK AO2,2025-09-12T05:16:59Z,2025-09-12T01:16:59Z,Boundary County Airport,48.7258,-116.294998,US,US-ID
K66R,"Columbus/Well Arpt, TX, US",2025-09-12T04:55:00Z,2025-09-12 04:55:00,VFR,23.4,21.8,0,0,0,NA,1019.4,METAR K66R 120455Z AUTO 00000KT 10SM CLR 23/22 A3010 RMK AO2 T02340218,2025-09-12T05:00:20Z,2025-09-12T01:00:20Z,Robert R Wells Jr Airport,29.6411,-96.5158,US,US-TX
K6A1,"Butler Muni, GA, US",2025-09-12T04:55:00Z,2025-09-12 04:55:00,VFR,19.5,15.2,0,0,0,NA,1020.1,METAR K6A1 120455Z AUTO 00000KT 10SM BKN060 BKN070 20/15 A3012 RMK AO2 T01950152,2025-09-12T05:00:20Z,2025-09-12T01:00:20Z,Butler Municipal Airport,32.569492,-84.245194,US,US-GA
K6B9,"Skaneateles Arpt, NY, US",2025-09-12T04:55:00Z,2025-09-12 04:55:00,VFR,13,13,0,0,0,NA,1023.1,METAR K6B9 120455Z AUTO 00000KT 10SM OVC075 13/13 A3021 RMK AO2,2025-09-12T05:00:20Z,2025-09-12T01:00:20Z,Skaneateles Aero Drome,42.914001,-76.440804,US,US-NY
K6B9,"Skaneateles Arpt, NY, US",2025-09-12T05:15:00Z,2025-09-12 05:15:00,VFR,13,13,0,0,0,NA,1023.1,METAR K6B9 120515Z AUTO 00000KT 10SM BKN075 13/13 A3021 RMK AO2,2025-09-12T05:16:59Z,2025-09-12T01:16:59Z,Skaneateles Aero Drome,42.914001,-76.440804,US,US-NY
K6E5,"De Smet/Wilder Arpt, SD, US",2025-09-12T04:35:00Z,2025-09-12 04:35:00,VFR,NA,NA,130,9,0,7,1016,METAR K6E5 120435Z AUTO 13009KT 7SM CLR A3000 RMK AO2,2025-09-12T05:00:20Z,2025-09-12T01:00:20Z,Wilder Airport,44.433033,-97.558207,US,US-SD
K6E5,"De Smet/Wilder Arpt, SD, US",2025-09-12T04:55:00Z,2025-09-12 04:55:00,VFR,NA,NA,130,10,0,7,1015.7,METAR K6E5 120455Z AUTO 13010KT 7SM CLR A2999 RMK AO2,2025-09-12T05:16:59Z,2025-09-12T01:16:59Z,Wilder Airport,44.433033,-97.558207,US,US-SD
K6I2,"Lebanon-Springfield/Hoerter Fld, KY, US",2025-09-12T04:55:00Z,2025-09-12 04:55:00,VFR,18,14,0,0,0,NA,1021.8,METAR K6I2 120455Z AUTO 00000KT 10SM CLR 18/14 A3017 RMK AO2,2025-09-12T05:00:20Z,2025-09-12T01:00:20Z,Lebanon Springfield Airport - George Hoerter Field,37.633499,-85.241798,US,US-KY
K6L4,"Logan Cnty, WV, US",2025-09-12T04:55:00Z,2025-09-12 04:55:00,VFR,16,11,0,0,0,NA,1022.8,METAR K6L4 120455Z AUTO 00000KT 10SM CLR 16/11 A3020 RMK AO2,2025-09-12T05:00:20Z,2025-09-12T01:00:20Z,Logan County Airport,37.855701,-81.915901,US,US-WV
K6L4,"Logan Cnty, WV, US",2025-09-12T05:15:00Z,2025-09-12 05:15:00,VFR,16,11,0,0,0,NA,1022.8,METAR K6L4 120515Z AUTO 00000KT 10SM CLR 16/11 A3020 RMK AO2,2025-09-12T05:16:59Z,2025-09-12T01:16:59Z,Logan County Airport,37.855701,-81.915901,US,US-WV
K6R3,"Cleveland Muni, TX, US",2025-09-12T04:55:00Z,2025-09-12 04:55:00,VFR,22.5,21,0,0,0,NA,1019.4,METAR K6R3 120455Z AUTO 00000KT 10SM CLR 23/21 A3010 RMK AO2 T02250210,2025-09-12T05:00:20Z,2025-09-12T01:00:20Z,Cleveland Municipal Airport,30.3564,-95.008003,US,US-TX
K6R6,"Dryden/Terrell Cnty, TX, US",2025-09-12T04:51:00Z,2025-09-12 04:51:00,NA,23.3,14.4,60,6,0,NA,1020.1,METAR K6R6 120451Z AUTO 06006KT 23/14 A3012 RMK AO1 SLP163 T02330144 $,2025-09-12T05:00:20Z,2025-09-12T01:00:20Z,Terrell County Airport,30.046,-102.212997,US,US-TX
K6S0,"Big Timber Arpt, MT, US",2025-09-12T04:25:00Z,2025-09-12 04:25:00,VFR,16,6,0,0,0,NA,1017.7,METAR K6S0 120425Z AUTO 00000KT 10SM CLR 16/06 A3005 RMK A01,2025-09-12T05:00:20Z,2025-09-12T01:00:20Z,Big Timber Airport,45.806681,-109.979153,US,US-MT
K6S0,"Big Timber Arpt, MT, US",2025-09-12T04:45:00Z,2025-09-12 04:45:00,VFR,14,5,0,0,0,NA,1017.7,METAR K6S0 120445Z AUTO 00000KT 10SM CLR 14/05 A3005 RMK A01,2025-09-12T05:16:59Z,2025-09-12T01:16:59Z,Big Timber Airport,45.806681,-109.979153,US,US-MT
K6S2,"Florence Muni, OR, US",2025-09-12T04:55:00Z,2025-09-11 21:55:00,MVFR,15,13,0,0,0,NA,1018.7,METAR K6S2 120455Z AUTO 00000KT 10SM OVC020 15/13 A3008 RMK AO2,2025-09-12T05:00:20Z,2025-09-12T01:00:20Z,Florence Municipal Airport,43.98279953,-124.111000061,US,US-OR
K74V,"Roosevelt Muni, UT, US",2025-09-12T04:55:00Z,2025-09-11 22:55:00,VFR,15,7,250,4,0,NA,1016.7,METAR K74V 120455Z AUTO 25004KT 10SM CLR 15/07 A3002 RMK AO2,2025-09-12T05:00:21Z,2025-09-12T01:00:21Z,Roosevelt Municipal Airport,40.278301,-110.051003,US,US-UT
K77S,"Creswell/Hobby Fld, OR, US",2025-09-12T04:55:00Z,2025-09-12 04:55:00,MVFR,16,14,280,4,0,NA,1018.4,METAR K77S 120455Z AUTO 28004KT 10SM OVC021 16/14 A3007 RMK A01,2025-09-12T05:00:21Z,2025-09-12T01:00:21Z,Hobby Field,43.93080139160156,-123.00700378417967,US,US-OR
K77S,"Creswell/Hobby Fld, OR, US",2025-09-12T05:15:00Z,2025-09-12 05:15:00,MVFR,16,14,290,3,0,NA,1018.4,METAR K77S 120515Z AUTO 29003KT 10SM OVC020 16/14 A3007 RMK A01,2025-09-12T05:17:01Z,2025-09-12T01:17:01Z,Hobby Field,43.93080139160156,-123.00700378417967,US,US-OR
K79J,"Andalusia/Benton Fld, AL, US",2025-09-12T04:56:00Z,2025-09-12 04:56:00,VFR,21.7,17.2,0,0,0,NA,1018.7,METAR K79J 120456Z AUTO 00000KT 10SM CLR 22/17 A3008 RMK AO2 SLP182 T02170172 403390167 TSNO,2025-09-12T05:00:21Z,2025-09-12T01:00:21Z,South Alabama Regional At Bill Benton Field Airport,31.3088,-86.393799,US,US-AL
K79S,"Fort Benton Arpt, MT, US",2025-09-12T04:55:00Z,2025-09-12 04:55:00,VFR,16.7,10.9,220,3,0,NA,1014.3,METAR K79S 120455Z AUTO 22003KT 10SM CLR 17/11 A2995 RMK AO2 T01670109,2025-09-12T05:00:21Z,2025-09-12T01:00:21Z,Fort Benton Airport,47.84510040283203,-110.63600158691406,US,US-MT
K7L2,"Linton Muni, ND, US",2025-09-12T04:55:00Z,2025-09-12 04:55:00,VFR,22,19,160,11,16,NA,1013.3,METAR K7L2 120455Z AUTO 16011G16KT 10SM CLR 22/19 A2992 RMK AO2,2025-09-12T05:00:21Z,2025-09-12T01:00:21Z,Linton Municipal Airport,46.21829987,-100.2450027,US,US-ND
K7L2,"Linton Muni, ND, US",2025-09-12T05:15:00Z,2025-09-12 05:15:00,VFR,22,19,160,14,0,NA,1013,METAR K7L2 120515Z AUTO 16014KT 10SM CLR 22/19 A2991 RMK AO2,2025-09-12T05:17:01Z,2025-09-12T01:17:01Z,Linton Municipal Airport,46.21829987,-100.2450027,US,US-ND
K7S0,"Ronan Aprt, MT, US",2025-09-12T04:35:00Z,2025-09-12 04:35:00,VFR,19,9,210,13,19,NA,1015.3,METAR K7S0 120435Z AUTO 21013G19KT 10SM FEW032 FEW044 SCT070 19/09 A2998 RMK A01,2025-09-12T05:00:21Z,2025-09-12T01:00:21Z,Ronan Airport,47.56719970703125,-114.10099792480467,US,US-MT
K7S0,"Ronan Aprt, MT, US",2025-09-12T04:55:00Z,2025-09-12 04:55:00,VFR,17,9,120,9,0,NA,1015.7,METAR K7S0 120455Z AUTO 12009KT 10SM CLR 17/09 A2999 RMK A01,2025-09-12T05:17:01Z,2025-09-12T01:17:01Z,Ronan Airport,47.56719970703125,-114.10099792480467,US,US-MT
K7W6,"Engelhard/Hyde Cnty, NC, US",2025-09-12T04:45:00Z,2025-09-12 04:45:00,VFR,18.5,17.5,360,4,0,NA,1019,METAR K7W6 120445Z AUTO 36004KT 10SM CLR 19/18 A3009 RMK AO2 T01850175,2025-09-12T05:00:21Z,2025-09-12T01:00:21Z,Hyde County Airport,35.562400817871094,-75.9552001953125,US,US-NC
K7W6,"Engelhard/Hyde Cnty, NC, US",2025-09-12T05:05:00Z,2025-09-12 05:05:00,VFR,18.5,17.6,360,5,0,NA,1018.7,METAR K7W6 120505Z AUTO 36005KT 10SM CLR 19/18 A3008 RMK AO2 T01850176,2025-09-12T05:17:01Z,2025-09-12T01:17:01Z,Hyde County Airport,35.562400817871094,-75.9552001953125,US,US-NC
K81R,"San Saba Muni, TX, US",2025-09-12T04:55:00Z,2025-09-12 04:55:00,VFR,24,16.9,120,3,0,NA,1020.7,METAR K81R 120455Z AUTO 12003KT 10SM CLR 24/17 A3014 RMK AO2 PWINO T02400169,2025-09-12T05:00:21Z,2025-09-12T01:00:21Z,San Saba County Municipal Airport,31.235200881958008,-98.71700286865234,US,US-TX
K82C,"Mauston/New Lisbon Arpt, WI, US",2025-09-12T04:55:00Z,2025-09-12 04:55:00,VFR,13.4,13.4,0,0,0,7,1023.5,METAR K82C 120455Z AUTO 00000KT 7SM CLR 13/13 A3022 RMK AO2 T01340134,2025-09-12T05:00:21Z,2025-09-12T01:00:21Z,Mauston New Lisbon Union Airport,43.838699,-90.137703,US,US-WI
K82V,"Pine Bluffs Muni, WY, US",2025-09-12T04:55:00Z,2025-09-12 04:55:00,NA,13,8,210,3,0,NA,1020.1,METAR K82V 120455Z AUTO 21003KT 10SM 13/08 A3012 RMK AO2,2025-09-12T05:00:21Z,2025-09-12T01:00:21Z,Pine Bluffs Municipal Airport,41.153301239,-104.129997253,US,US-WY
K8A3,"Livingston Muni, TN, US",2025-09-12T04:35:00Z,2025-09-12 04:35:00,VFR,18,15,0,0,0,NA,1021.4,METAR K8A3 120435Z AUTO 00000KT 10SM CLR 18/15 A3016 RMK A01,2025-09-12T05:00:21Z,2025-09-12T01:00:21Z,Livingston Municipal Airport,36.412102,-85.3116,US,US-TN
K8A3,"Livingston Muni, TN, US",2025-09-12T04:55:00Z,2025-09-12 04:55:00,VFR,19,14,0,0,0,NA,1021.4,METAR K8A3 120455Z AUTO 00000KT 10SM CLR 19/14 A3016 RMK A01,2025-09-12T05:17:01Z,2025-09-12T01:17:01Z,Livingston Municipal Airport,36.412102,-85.3116,US,US-TN
K8B0,"Rangeley/Bean Muni, ME, US",2025-09-12T04:55:00Z,2025-09-12 04:55:00,VFR,9,5,0,0,0,NA,1023.1,METAR K8B0 120455Z AUTO 00000KT 10SM FEW037 09/05 A3021 RMK AO2,2025-09-12T05:00:21Z,2025-09-12T01:00:21Z,Steven A. Bean Municipal Airport,44.991902,-70.664597,US,US-ME
K8B0,"Rangeley/Bean Muni, ME, US",2025-09-12T05:15:00Z,2025-09-12 05:15:00,VFR,8,5,0,0,0,NA,1023.1,METAR K8B0 120515Z AUTO 00000KT 10SM CLR 08/05 A3021 RMK AO2,2025-09-12T05:17:01Z,2025-09-12T01:17:01Z,Steven A. Bean Municipal Airport,44.991902,-70.664597,US,US-ME
K8D3,"Sisseton Muni, SD, US",2025-09-12T04:56:00Z,2025-09-12 04:56:00,NA,19.4,17.8,150,7,0,NA,1015.7,METAR K8D3 120456Z AUTO 15007KT 19/18 A2999 RMK AO1 SLP145 T01940178,2025-09-12T05:00:21Z,2025-09-12T01:00:21Z,Sisseton Municipal Airport,45.669925,-96.994215,US,US-SD
K8T6,"George West/Live Oak Cnty, TX, US",2025-09-12T04:55:00Z,2025-09-12 04:55:00,VFR,26,24,0,0,0,NA,1017.7,METAR K8T6 120455Z AUTO 00000KT 10SM CLR 26/24 A3005 RMK AO2,2025-09-12T05:00:21Z,2025-09-12T01:00:21Z,Live Oak County Airport,28.362801,-98.116501,US,US-TX
K8V7,"Springfield Muni, CO, US",2025-09-12T04:35:00Z,2025-09-12 04:35:00,VFR,19,9,210,7,0,NA,1020.7,METAR K8V7 120435Z AUTO 21007KT 10SM CLR 19/09 A3014 RMK AO2,2025-09-12T05:00:21Z,2025-09-12T01:00:21Z,Springfield Municipal Airport,37.458698,-102.617996,US,US-CO
K8V7,"Springfield Muni, CO, US",2025-09-12T04:55:00Z,2025-09-12 04:55:00,VFR,18,10,270,9,0,NA,1021.1,METAR K8V7 120455Z AUTO 27009KT 10SM SCT110 18/10 A3015 RMK AO2,2025-09-12T05:17:01Z,2025-09-12T01:17:01Z,Springfield Municipal Airport,37.458698,-102.617996,US,US-CO
K8W2,"New Market Arpt, VA, US",2025-09-12T04:55:00Z,2025-09-12 04:55:00,VFR,11.8,11.2,0,0,0,NA,1022.1,METAR K8W2 120455Z AUTO 00000KT 10SM CLR 12/11 A3018 RMK AO1 T01180112,2025-09-12T05:00:21Z,2025-09-12T01:00:21Z,New Market Airport,38.655683,-78.708995,US,US-VA
K8W2,"New Market Arpt, VA, US",2025-09-12T05:15:00Z,2025-09-12 05:15:00,VFR,10.7,10.1,0,0,0,NA,1022.1,METAR K8W2 120515Z AUTO 00000KT 10SM CLR 11/10 A3018 RMK AO1 T01070101,2025-09-12T05:17:01Z,2025-09-12T01:17:01Z,New Market Airport,38.655683,-78.708995,US,US-VA
K96D,"Walhalla Muni, ND, US",2025-09-12T04:55:00Z,2025-09-12 04:55:00,VFR,18,18,120,4,10,NA,1014.6,METAR K96D 120455Z AUTO 12004G10KT 10SM BKN060 OVC075 18/18 A2996 RMK AO2 LTG DSNT NE,2025-09-12T05:00:21Z,2025-09-12T01:00:21Z,Walhalla Municipal Airport,48.94060134887695,-97.902801513671875,US,US-ND
K9A4,"Courtland(AAF), AL, US",2025-09-12T04:55:00Z,2025-09-12 04:55:00,VFR,18,17,0,0,0,NA,1021.1,METAR K9A4 120455Z AUTO 00000KT 10SM CLR 18/17 A3015 RMK AO2,2025-09-12T05:00:21Z,2025-09-12T01:00:21Z,Courtland Airport,34.659028,-87.350206,US,US-AL
K9S2,"Scobey Arpt, MT, US",2025-09-12T04:35:00Z,2025-09-12 04:35:00,VFR,17,12,0,0,0,NA,1013,METAR K9S2 120435Z AUTO 00000KT 10SM FEW110 17/12 A2991 RMK AO2,2025-09-12T05:00:23Z,2025-09-12T01:00:23Z,Scobey Airport,48.807565,-105.439253,US,US-MT
K9S2,"Scobey Arpt, MT, US",2025-09-12T04:55:00Z,2025-09-12 04:55:00,VFR,17,13,330,5,0,NA,1013.3,METAR K9S2 120455Z AUTO 33005KT 10SM SCT110 17/13 A2992 RMK AO2,2025-09-12T05:17:03Z,2025-09-12T01:17:03Z,Scobey Airport,48.807565,-105.439253,US,US-MT
K9S9,"Lexington Arpt, OR, US",2025-09-12T04:35:00Z,2025-09-12 04:35:00,VFR,17,13,150,4,0,NA,1016.3,METAR K9S9 120435Z AUTO 15004KT 10SM FEW027 BKN035 OVC040 17/13 A3001 RMK AO2,2025-09-12T05:00:23Z,2025-09-12T01:00:23Z,Lexington Airport,45.454102,-119.690001,US,US-OR
K9S9,"Lexington Arpt, OR, US",2025-09-12T04:55:00Z,2025-09-12 04:55:00,VFR,17,13,0,0,0,9,1016.3,METAR K9S9 120455Z AUTO 00000KT 9SM FEW028 BKN034 OVC039 17/13 A3001 RMK AO2,2025-09-12T05:17:03Z,2025-09-12T01:17:03Z,Lexington Airport,45.454102,-119.690001,US,US-OR
K9V9,"Chamberlain Muni, SD, US",2025-09-12T04:55:00Z,2025-09-12 04:55:00,VFR,21.4,20.7,130,7,0,NA,1014,METAR K9V9 120455Z AUTO 13007KT 10SM CLR 21/21 A2994 RMK AO2 T02140207,2025-09-12T05:00:23Z,2025-09-12T01:00:23Z,Chamberlain Municipal Airport,43.7661018371582,-99.32129669189452,US,US-SD
K9Y1,"Killdeer/Dunn Cnty, ND, US",2025-09-12T04:55:00Z,2025-09-12 04:55:00,VFR,18,18,300,3,0,NA,1012.3,METAR K9Y1 120455Z AUTO 30003KT 10SM SCT055 18/18 A2989 RMK AO2,2025-09-12T05:00:23Z,2025-09-12T01:00:23Z,Weydahl Field,47.392799377441406,-102.77100372314452,US,US-ND
KA39,"Ak-Chin Rgnl, AZ, US",2025-09-12T04:55:00Z,2025-09-12 04:55:00,VFR,30,16,230,6,0,NA,1011.6,METAR KA39 120455Z AUTO 23006KT 10SM CLR 30/16 A2987 RMK AO2,2025-09-12T05:00:23Z,2025-09-12T01:00:23Z,Ak-Chin Regional Airport,32.990806,-111.918528,US,US-AZ
KAAA,"Lincoln/Logan Cnty, IL, US",2025-09-12T04:55:00Z,2025-09-12 04:55:00,VFR,16.6,13.5,0,0,0,NA,1021.8,METAR KAAA 120455Z AUTO 00000KT 10SM CLR 17/14 A3017 RMK AO2 T01660135,2025-09-12T05:00:23Z,2025-09-12T01:00:23Z,Logan County Airport,40.158699,-89.334999,US,US-IL
KAAF,"Apalachicola Muni, FL, US",2025-09-12T04:53:00Z,2025-09-12 00:53:00,VFR,21.1,18.9,0,0,0,NA,1017.7,METAR KAAF 120453Z AUTO 00000KT 10SM CLR 21/19 A3005 RMK AO2 SLP177 T02110189 403170189,2025-09-12T05:00:23Z,2025-09-12T01:00:23Z,Apalachicola Regional Airport,29.727501,-85.027496,US,US-FL
KAAO,"Wichita/Jabara Arpt, KS, US",2025-09-12T04:54:00Z,2025-09-12 04:54:00,VFR,23.9,17.8,160,8,0,NA,1018,METAR KAAO 120454Z AUTO 16008KT 10SM CLR 24/18 A3006 RMK AO2 SLP165 T02390178,2025-09-12T05:00:23Z,2025-09-12T01:00:23Z,Colonel James Jabara Airport,37.74760056,-97.22109985,US,US-KS
KAAS,"Campbellsville/Taylor Cnty, KY, US",2025-09-12T04:55:00Z,2025-09-12 04:55:00,VFR,17,15,0,0,0,NA,1023.1,METAR KAAS 120455Z AUTO 00000KT 10SM CLR 17/15 A3021 RMK AO1,2025-09-12T05:00:23Z,2025-09-12T01:00:23Z,Taylor County Airport,37.358254,-85.309434,US,US-KY
KAAT,"Alturas Muni, CA, US",2025-09-12T04:55:00Z,2025-09-12 04:55:00,MVFR,11.7,10.6,0,0,0,NA,1019.7,METAR KAAT 120455Z AUTO 00000KT 10SM OVC022 12/11 A3011 RMK AO2 SLP177 T01170106,2025-09-12T05:00:23Z,2025-09-12T01:00:23Z,Alturas Municipal Airport,41.482736,-120.565671,US,US-CA
KABE,"Allentown/Lehigh Valley Intl, PA, US",2025-09-12T04:51:00Z,2025-09-12 00:51:00,VFR,13.9,11.1,330,3,0,NA,1021.1,METAR KABE 120451Z 33003KT 10SM CLR 14/11 A3015 RMK AO2 SLP209 T01390111 402610122 $,2025-09-12T05:00:23Z,2025-09-12T01:00:23Z,Lehigh Valley International Airport,40.651773,-75.442797,US,US-PA
KABI,"Abilene Rgnl, TX, US",2025-09-12T04:52:00Z,2025-09-11 23:52:00,VFR,24.4,13.9,150,6,0,NA,1020.4,METAR KABI 120452Z 15006KT 10SM CLR 24/14 A3013 RMK AO2 SLP175 T02440139 $,2025-09-12T05:00:23Z,2025-09-12T01:00:23Z,Abilene Regional Airport,32.4113006592,-99.6819000244,US,US-TX
KABQ,"Albuquerque Intl, NM, US",2025-09-12T04:52:00Z,2025-09-11 22:52:00,VFR,23.9,6.1,140,11,0,NA,1021.4,METAR KABQ 120452Z 14011KT 10SM SCT160 BKN250 24/06 A3016 RMK AO2 SLP128 T02390061,2025-09-12T05:00:23Z,2025-09-12T01:00:23Z,Albuquerque International Sunport,35.039976,-106.608925,US,US-NM
KABR,"Aberdeen Rgnl, SD, US",2025-09-12T04:53:00Z,2025-09-11 23:53:00,VFR,21.7,17.2,150,14,18,NA,1013.6,METAR KABR 120453Z AUTO 15014G18KT 10SM CLR 22/17 A2993 RMK AO2 SLP126 T02170172 $,2025-09-12T05:00:23Z,2025-09-12T01:00:23Z,Aberdeen Regional Airport,45.449100494384766,-98.42179870605467,US,US-SD
KABY,"Albany/SW Georgia Rgnl, GA, US",2025-09-12T04:53:00Z,2025-09-12 00:53:00,VFR,20.6,16.1,0,0,0,NA,1019.4,METAR KABY 120453Z AUTO 00000KT 10SM CLR 21/16 A3010 RMK AO2 SLP190 T02060161 403170156 $,2025-09-12T05:00:23Z,2025-09-12T01:00:23Z,Southwest Georgia Regional Airport,31.532946,-84.196215,US,US-GA
KACB,"Bellaire/Antrim Cnty, MI, US",2025-09-12T04:55:00Z,2025-09-12 00:55:00,IFR,12.3,12.3,0,0,0,1.5,1024.5,METAR KACB 120455Z AUTO 00000KT 1 1/2SM BR VV007 12/12 A3025 RMK AO2 T01230123,2025-09-12T05:00:23Z,2025-09-12T01:00:23Z,Antrim County Airport,44.988602,-85.198402,US,US-MI
KACJ,"Americus/Carter Rgnl, GA, US",2025-09-12T04:55:00Z,2025-09-12 04:55:00,VFR,18.3,18.1,0,0,0,NA,1018.7,METAR KACJ 120455Z AUTO 00000KT 10SM CLR 18/18 A3008 RMK AO2 T01830181 403010141,2025-09-12T05:00:23Z,2025-09-12T01:00:23Z,Jimmy Carter Regional Airport,32.110802,-84.188904,US,US-GA
KACK,"Nantucket Mem Arpt, MA, US",2025-09-12T04:53:00Z,2025-09-12 00:53:00,VFR,16.7,14.4,320,6,0,NA,1019.4,METAR KACK 120453Z AUTO 32006KT 10SM CLR 17/14 A3010 RMK AO2 SLP194 T01670144 402280133,2025-09-12T05:00:23Z,2025-09-12T01:00:23Z,Nantucket Memorial Airport,41.25310135,-70.06020355,US,US-MA
KACP,"Oakdale/Parish Arpt, LA, US",2025-09-12T04:55:00Z,2025-09-12 04:55:00,VFR,22,19,0,0,0,NA,1019,METAR KACP 120455Z AUTO 00000KT 10SM CLR 22/19 A3009 RMK AO2,2025-09-12T05:00:23Z,2025-09-12T01:00:23Z,Allen Parish Airport,30.750299,-92.688301,US,US-LA
KACQ,"Waseca Muni, MN, US",2025-09-12T04:55:00Z,2025-09-12 04:55:00,VFR,17,15,120,7,0,NA,1020.7,METAR KACQ 120455Z AUTO 12007KT 10SM CLR 17/15 A3014 RMK AO2 PWINO,2025-09-12T05:00:23Z,2025-09-12T01:00:23Z,Waseca Municipal Airport,44.073502,-93.552902,US,US-MN
KACT,"Waco Rgnl, TX, US",2025-09-12T04:51:00Z,2025-09-11 23:51:00,VFR,25,20,160,6,0,NA,1019,METAR KACT 120451Z AUTO 16006KT 10SM CLR 25/20 A3009 RMK AO2 SLP180 T02500200,2025-09-12T05:00:23Z,2025-09-12T01:00:23Z,Waco Regional Airport,31.611299514770508,-97.230499267578125,US,US-TX
KACV,"Arcata Arpt, CA, US",2025-09-12T04:53:00Z,2025-09-11 21:53:00,MVFR,15,13.9,320,9,0,9,1018.4,METAR KACV 120453Z AUTO 32009KT 9SM OVC016 15/14 A3007 RMK AO2 SLP187 T01500139,2025-09-12T05:00:23Z,2025-09-12T01:00:23Z,California Redwood Coast-Humboldt County Airport,40.978101,-124.109,US,US-CA
KACY,"Atlantic City Intl, NJ, US",2025-09-12T04:54:00Z,2025-09-12 00:54:00,VFR,15.6,12.8,0,0,0,NA,1020.4,METAR KACY 120454Z 00000KT 10SM CLR 16/13 A3013 RMK AO2 SLP203 T01560128 402670139,2025-09-12T05:00:23Z,2025-09-12T01:00:23Z,Atlantic City International Airport,39.45759963989258,-74.57720184326172,US,US-NJ
KACZ,"Wallace/Henderson Fld, NC, US",2025-09-12T04:40:00Z,2025-09-12 04:40:00,VFR,20.3,19.3,0,0,0,NA,1019.4,METAR KACZ 120440Z AUTO 00000KT 10SM OVC070 20/19 A3010 RMK AO2 T02030193,2025-09-12T05:00:23Z,2025-09-12T01:00:23Z,Henderson Field,34.717899,-78.003601,US,US-NC
KACZ,"Wallace/Henderson Fld, NC, US",2025-09-12T05:00:00Z,2025-09-12 05:00:00,VFR,20,19.2,0,0,0,NA,1019.4,METAR KACZ 120500Z AUTO 00000KT 10SM OVC070 20/19 A3010 RMK AO2 T02000192,2025-09-12T05:17:02Z,2025-09-12T01:17:02Z,Henderson Field,34.717899,-78.003601,US,US-NC
KADC,"Wadena Muni, MN, US",2025-09-12T04:55:00Z,2025-09-12 04:55:00,VFR,16,14,120,6,0,NA,1018.7,METAR KADC 120455Z AUTO 12006KT 10SM CLR 16/14 A3008 RMK AO2,2025-09-12T05:00:23Z,2025-09-12T01:00:23Z,Wadena Municipal Airport,46.450298,-95.210999,US,US-MN
KADG,"Adrian/Lenawee Cnty, MI, US",2025-09-12T04:53:00Z,2025-09-12 00:53:00,VFR,13.3,11.1,350,3,0,NA,1024.1,METAR KADG 120453Z AUTO 35003KT 10SM CLR 13/11 A3024 RMK AO2 SLP238 T01330111 402780083,2025-09-12T05:00:23Z,2025-09-12T01:00:23Z,Lenawee County Airport,41.866205,-84.077983,US,US-MI
KADH,"Ada Muni, OK, US",2025-09-12T04:55:00Z,2025-09-11 23:55:00,VFR,24,19,170,3,0,NA,1019.4,METAR KADH 120455Z AUTO 17003KT 10SM CLR 24/19 A3010 RMK AO2 403380176,2025-09-12T05:00:23Z,2025-09-12T01:00:23Z,Ada Regional Airport,34.805214,-96.671988,US,US-OK
KADM,"Ardmore Muni, OK, US",2025-09-12T04:55:00Z,2025-09-11 23:55:00,VFR,21,18,0,0,0,9,1019,METAR KADM 120455Z AUTO 00000KT 9SM CLR 21/18 A3009 RMK AO2,2025-09-12T05:00:23Z,2025-09-12T01:00:23Z,Ardmore Municipal Airport,34.30301,-97.0196342,US,US-OK
KADS,"Dallas/Addison Arpt, TX, US",2025-09-12T04:55:00Z,2025-09-11 23:55:00,NA,27,20,150,5,0,NA,1019,METAR KADS 120455Z AUTO 15005KT 10SM 27/20 A3009 RMK AO2 PWINO,2025-09-12T05:00:23Z,2025-09-12T01:00:23Z,Addison Airport,32.9686012268,-96.8364028931,US,US-TX
KADT,"Atwood/Rollins Cnty, KS, US",2025-09-12T04:30:00Z,2025-09-12 04:30:00,VFR,24,10.6,0,0,0,NA,1017,METAR KADT 120430Z AUTO 00000KT 10SM CLR 24/11 A3003 RMK AO2 T02400106,2025-09-12T05:00:23Z,2025-09-12T01:00:23Z,Atwood-Rawlins City-County Airport,39.841209,-101.043248,US,US-KS
KADT,"Atwood/Rollins Cnty, KS, US",2025-09-12T04:50:00Z,2025-09-12 04:50:00,VFR,25.1,9.8,240,5,0,NA,1017,METAR KADT 120450Z AUTO 24005KT 10SM CLR 25/10 A3003 RMK AO2 LTG DSNT S T02510098,2025-09-12T05:17:03Z,2025-09-12T01:17:03Z,Atwood-Rawlins City-County Airport,39.841209,-101.043248,US,US-KS
KADU,"Audubon Cnty Arpt, IA, US",2025-09-12T04:55:00Z,2025-09-12 04:55:00,VFR,18,17,0,0,0,NA,1019,METAR KADU 120455Z AUTO 00000KT 10SM SCT048 SCT065 BKN080 18/17 A3009 RMK AO2 PWINO,2025-09-12T05:00:23Z,2025-09-12T01:00:23Z,Audubon County Airport,41.701401,-94.920502,US,US-IA
KAEG,"Albuquerque/Double Eagle Arpt, NM, US",2025-09-12T04:55:00Z,2025-09-12 04:55:00,VFR,23.4,2.8,170,10,0,NA,1022.8,METAR KAEG 120455Z AUTO 17010KT 10SM OVC120 23/03 A3020 RMK AO2 T02340028,2025-09-12T05:00:23Z,2025-09-12T01:00:23Z,Double Eagle II Airport,35.145198822021484,-106.79499816894533,US,US-NM
KAEJ,"Buena Vista/Central Colorado Rgnl, CO, US",2025-09-12T04:55:00Z,2025-09-12 04:55:00,NA,12,8.9,0,0,0,NA,1029.2,METAR KAEJ 120455Z AUTO 00000KT SCT060 SCT090 OVC110 12/09 A3039 RMK AO2 T01200089 PWINO,2025-09-12T05:00:23Z,2025-09-12T01:00:23Z,Central Colorado Regional Airport,38.812906,-106.120062,US,US-CO
KAEL,"Albert Lea Muni, MN, US",2025-09-12T04:55:00Z,2025-09-11 23:55:00,VFR,18,16,130,5,0,NA,1020.7,METAR KAEL 120455Z AUTO 13005KT 10SM CLR 18/16 A3014 RMK AO2 TSNO,2025-09-12T05:00:23Z,2025-09-12T01:00:23Z,Albert Lea Municipal Airport,43.68149948,-93.36720276,US,US-MN
KAEX,"Alexandria Intl, LA, US",2025-09-12T04:53:00Z,2025-09-11 23:53:00,VFR,23.9,21.7,0,0,0,9,1019,METAR KAEX 120453Z 00000KT 9SM CLR 24/22 A3009 RMK AO2 SLP192 T02390217,2025-09-12T05:00:23Z,2025-09-12T01:00:23Z,Alexandria International Airport,31.3274,-92.549797,US,US-LA
KAFJ,"Washington Cnty Arpt, PA, US",2025-09-12T04:56:00Z,2025-09-12 00:56:00,VFR,11.1,10.6,0,0,0,NA,1023.8,METAR KAFJ 120456Z AUTO 00000KT 10SM CLR 11/11 A3023 RMK AO2 SLP233 T01110106 $,2025-09-12T05:00:23Z,2025-09-12T01:00:23Z,Washington County Airport,40.136501,-80.290199,US,US-PA
KAFK,"Nebraska City Muni, NE, US",2025-09-12T04:55:00Z,2025-09-12 04:55:00,VFR,22.2,18.6,170,7,0,NA,1017.7,METAR KAFK 120455Z AUTO 17007KT 10SM CLR 22/19 A3005 RMK AO2 T02220186,2025-09-12T05:00:23Z,2025-09-12T01:00:23Z,Nebraska City Municipal Airport,40.606899,-95.8657,US,US-NE
KAFN,"Jaffrey Muni, NH, US",2025-09-12T04:52:00Z,2025-09-12 00:52:00,VFR,11.1,10,0,0,0,NA,1022.4,METAR KAFN 120452Z AUTO 00000KT 10SM CLR 11/10 A3019 RMK AO2 SLP225 T01110100 402500056,2025-09-12T05:00:23Z,2025-09-12T01:00:23Z,Jaffrey Airfield Silver Ranch Airport,42.805099,-72.002998,US,US-NH
KAFO,"Afton Muni, WY, US",2025-09-12T04:55:00Z,2025-09-11 22:55:00,VFR,11,4,80,7,0,NA,1020.4,METAR KAFO 120455Z AUTO 08007KT 10SM BKN110 11/04 A3013 RMK AO2,2025-09-12T05:00:23Z,2025-09-12T01:00:23Z,Afton Municipal Airport,42.7112007141,-110.942001343,US,US-WY
KAFW,"Fort Worth/Alliance Arpt, TX, US",2025-09-12T04:53:00Z,2025-09-11 23:53:00,VFR,25.6,17.8,170,6,0,NA,1019,METAR KAFW 120453Z 17006KT 10SM CLR 26/18 A3009 RMK AO2 SLP172 T02560178,2025-09-12T05:00:23Z,2025-09-12T01:00:23Z,Perot Field/Fort Worth Alliance Airport,32.99044,-97.31947,US,US-TX
KAGC,"Pittsburgh/Allegheny Cnty, PA, US",2025-09-12T03:53:00Z,2025-09-11 23:53:00,VFR,16.7,11.1,350,5,0,NA,1022.4,METAR KAGC 120353Z 35005KT 10SM CLR 17/11 A3019 RMK AO2 SLP222 T01670111,2025-09-12T05:00:23Z,2025-09-12T01:00:23Z,Allegheny County Airport,40.354401,-79.930199,US,US-PA
KAGC,"Pittsburgh/Allegheny Cnty, PA, US",2025-09-12T04:53:00Z,2025-09-12 00:53:00,VFR,16.7,11.1,360,3,0,NA,1022.4,METAR KAGC 120453Z 36003KT 10SM CLR 17/11 A3019 RMK AO2 SLP219 T01670111 402560122,2025-09-12T05:17:03Z,2025-09-12T01:17:03Z,Allegheny County Airport,40.354401,-79.930199,US,US-PA
KAGO,"Magnolia Muni, AR, US",2025-09-12T04:55:00Z,2025-09-11 23:55:00,VFR,20,20,0,0,0,6,1018.7,METAR KAGO 120455Z AUTO 00000KT 6SM BR BKN044 BKN049 20/20 A3008 RMK A01,2025-09-12T05:00:23Z,2025-09-12T01:00:23Z,Magnolia Municipal Airport / Ralph C Weiser Field,33.228001,-93.217002,US,US-AR
KAGO,"Magnolia Muni, AR, US",2025-09-12T05:15:00Z,2025-09-12 00:15:00,VFR,20,20,0,0,0,6,1018.7,METAR KAGO 120515Z AUTO 00000KT 6SM BR BKN044 OVC049 20/20 A3008 RMK A01,2025-09-12T05:17:02Z,2025-09-12T01:17:02Z,Magnolia Municipal Airport / Ralph C Weiser Field,33.228001,-93.217002,US,US-AR
KAGS,"Augusta Rgnl, GA, US",2025-09-12T04:53:00Z,2025-09-12 00:53:00,VFR,17.8,15,0,0,0,NA,1019,METAR KAGS 120453Z AUTO 00000KT 10SM CLR 18/15 A3009 RMK AO2 SLP189 T01780150 403000128 $,2025-09-12T05:00:23Z,2025-09-12T01:00:23Z,Augusta Regional At Bush Field,33.3699,-81.9645,US,US-GA
KAHN,"Athens/Epps Arpt, GA, US",2025-09-12T04:51:00Z,2025-09-12 00:51:00,VFR,18.9,17.2,0,0,0,NA,1020.1,METAR KAHN 120451Z AUTO 00000KT 10SM OVC075 19/17 A3012 RMK AO2 SLP195 T01890172 402940144,2025-09-12T05:00:23Z,2025-09-12T01:00:23Z,Athens Ben Epps Airport,33.948842,-83.325634,US,US-GA
KAHQ,"Wahoo Muni, NE, US",2025-09-12T04:55:00Z,2025-09-12 04:55:00,VFR,22.1,18.5,130,6,0,NA,1016.7,METAR KAHQ 120455Z AUTO 13006KT 10SM CLR 22/19 A3002 RMK AO2 T02210185,2025-09-12T05:00:23Z,2025-09-12T01:00:23Z,Wahoo Municipal Airport,41.2412986755,-96.59400177,US,US-NE
KAIA,"Alliance Muni, NE, US",2025-09-12T04:53:00Z,2025-09-11 22:53:00,VFR,17.2,15.6,120,6,0,NA,1015.7,METAR KAIA 120453Z AUTO 12006KT 10SM CLR 17/16 A2999 RMK AO2 SLP117 T01720156,2025-09-12T05:00:23Z,2025-09-12T01:00:23Z,Alliance Municipal Airport,42.052543,-102.803965,US,US-NE
KAID,"Anderson Muni, IN, US",2025-09-12T04:55:00Z,2025-09-12 00:55:00,VFR,16.9,9.7,110,4,0,NA,1022.8,METAR KAID 120455Z AUTO 11004KT 10SM CLR 17/10 A3020 RMK AO2 T01690097,2025-09-12T05:00:23Z,2025-09-12T01:00:23Z,Anderson Municipal Darlington Field,40.10860061649999,-85.6129989624,US,US-IN
KAID,"Anderson Muni, IN, US",2025-09-12T05:15:00Z,2025-09-12 01:15:00,VFR,16.5,9.7,110,4,0,NA,1022.8,METAR KAID 120515Z AUTO 11004KT 10SM CLR 17/10 A3020 RMK AO2 T01650097,2025-09-12T05:17:02Z,2025-09-12T01:17:02Z,Anderson Municipal Darlington Field,40.10860061649999,-85.6129989624,US,US-IN
KAIG,"Antigo/Langlade Cnty, WI, US",2025-09-12T04:55:00Z,2025-09-12 04:55:00,LIFR,8.6,8.6,0,0,0,1.5,1024.8,METAR KAIG 120455Z AUTO 00000KT 1 1/2SM BR BKN002 09/09 A3026 RMK AO2 T00860086,2025-09-12T05:00:23Z,2025-09-12T01:00:23Z,Langlade County Airport,45.154202,-89.110703,US,US-WI
KAIK,"Aiken Muni, GA, US",2025-09-12T04:55:00Z,2025-09-12 00:55:00,VFR,18.6,15.5,130,3,0,NA,1020.4,METAR KAIK 120455Z AUTO 13003KT 10SM CLR 19/16 A3013 RMK AO2 T01860155,2025-09-12T05:00:23Z,2025-09-12T01:00:23Z,Aiken Regional Airport,33.649399,-81.684998,US,US-SC
KAIO,"Atlantic Muni, IA, US",2025-09-12T04:55:00Z,2025-09-11 23:55:00,VFR,21,20,200,4,0,NA,1018,METAR KAIO 120455Z AUTO 20004KT 10SM CLR 21/20 A3006 RMK AO2,2025-09-12T05:00:23Z,2025-09-12T01:00:23Z,Atlantic Municipal Airport,41.40729904,-95.04689789,US,US-IA
KAIT,"Aitkin Muni, MN, US",2025-09-12T04:55:00Z,2025-09-12 04:55:00,IFR,14,14,110,4,0,NA,1020.4,METAR KAIT 120455Z AUTO 11004KT 10SM BKN006 14/14 A3013 RMK AO2,2025-09-12T05:00:23Z,2025-09-12T01:00:23Z,Aitkin Municipal Airport Steve Kurtz Field,46.548401,-93.676804,US,US-MN
KAIT,"Aitkin Muni, MN, US",2025-09-12T05:15:00Z,2025-09-12 05:15:00,VFR,14,14,120,4,0,NA,1020.4,METAR KAIT 120515Z AUTO 12004KT 10SM SCT006 14/14 A3013 RMK AO2,2025-09-12T05:17:02Z,2025-09-12T01:17:02Z,Aitkin Municipal Airport Steve Kurtz Field,46.548401,-93.676804,US,US-MN
KAIZ,"Kaiser/Lee Fine Mem, MO, US",2025-09-12T04:56:00Z,2025-09-11 23:56:00,VFR,21.7,17.2,70,4,0,NA,1019.7,METAR KAIZ 120456Z AUTO 07004KT 10SM CLR 22/17 A3011 RMK AO2 SLP186 T02170172 403500156,2025-09-12T05:00:23Z,2025-09-12T01:00:23Z,Lee C Fine Memorial Airport,38.0960006714,-92.54949951170002,US,US-MO
KAJG,"Mount Carmel Muni, IL, US",2025-09-12T04:55:00Z,2025-09-12 04:55:00,NA,17.8,14.8,0,0,0,NA,1021.1,METAR KAJG 120455Z AUTO 00000KT 18/15 A3015 RMK AO2 T01780148 PWINO,2025-09-12T05:00:23Z,2025-09-12T01:00:23Z,Mount Carmel Municipal Airport,38.606499,-87.7267,US,US-IL
KAJO,"Corona Muni, CA, US",2025-09-12T04:56:00Z,2025-09-12 04:56:00,VFR,20,15.6,300,6,0,NA,1013.6,METAR KAJO 120456Z AUTO 30006KT 10SM CLR 20/16 A2993 RMK AO2 SLP130 T02000156,2025-09-12T05:00:23Z,2025-09-12T01:00:23Z,Corona Municipal Airport,33.897701,-117.601997,US,US-CA
KAJR,"Cornelia/Habersham Cnty, GA, US",2025-09-12T04:35:00Z,2025-09-12 04:35:00,VFR,18.8,16.7,0,0,0,NA,1021.4,METAR KAJR 120435Z AUTO 00000KT 10SM OVC060 19/17 A3016 RMK AO2 T01880167,2025-09-12T05:00:23Z,2025-09-12T01:00:23Z,Habersham County Airport,34.499901,-83.556702,US,US-GA
KAJR,"Cornelia/Habersham Cnty, GA, US",2025-09-12T04:55:00Z,2025-09-12 04:55:00,VFR,18.6,16.7,0,0,0,NA,1021.4,METAR KAJR 120455Z AUTO 00000KT 10SM BKN060 BKN075 19/17 A3016 RMK AO2 T01860167,2025-09-12T05:17:03Z,2025-09-12T01:17:03Z,Habersham County Airport,34.499901,-83.556702,US,US-GA
KAJZ,"Delta/Blake Fld, CO, US",2025-09-12T04:55:00Z,2025-09-12 04:55:00,VFR,19.8,9.5,30,8,0,7,1020.4,METAR KAJZ 120455Z AUTO 03008KT 7SM CLR 20/10 A3013 RMK AO2 LTG DSNT S T01980095,2025-09-12T05:00:23Z,2025-09-12T01:00:23Z,Blake Field,38.7864,-108.064003,US,US-CO
KAKH,"Gastonia Muni, NC, US",2025-09-12T04:54:00Z,2025-09-12 04:54:00,VFR,15.6,13.9,0,0,0,NA,1020.7,METAR KAKH 120454Z AUTO 00000KT 10SM CLR 16/14 A3014 RMK AO2 SLP203 T01560139 402780144,2025-09-12T05:00:23Z,2025-09-12T01:00:23Z,Gastonia Municipal Airport,35.202598,-81.149902,US,US-NC
KAKO,"Akron/Plains Rgnl, CO, US",2025-09-12T04:53:00Z,2025-09-11 22:53:00,VFR,21.1,11.1,240,8,0,NA,1018.7,METAR KAKO 120453Z AUTO 24008KT 10SM CLR 21/11 A3008 RMK AO2 SLP127 T02110111,2025-09-12T05:00:23Z,2025-09-12T01:00:23Z,Colorado Plains Regional Airport,40.1755981445,-103.222000122,US,US-CO
KAKQ,"Norfolk Muni, VA, US",2025-09-12T04:54:00Z,2025-09-12 04:54:00,VFR,14.4,13.9,0,0,0,NA,1020.4,METAR KAKQ 120454Z AUTO 00000KT 10SM CLR 14/14 A3013 RMK AO2 SLP205 T01440139 402330139,2025-09-12T05:00:23Z,2025-09-12T01:00:23Z,Wakefield Municipal Airport,36.98720169067383,-77.0010986328125,US,US-VA
KAKR,"Akron/Fulton Intl, OH, US",2025-09-12T04:54:00Z,2025-09-12 00:54:00,VFR,13.3,10,0,0,0,NA,1023.5,METAR KAKR 120454Z AUTO 00000KT 10SM CLR 13/10 A3022 RMK AO2 SLP227 T01330100 402670083 $,2025-09-12T05:00:23Z,2025-09-12T01:00:23Z,Akron Fulton International Airport,41.037355,-81.46784,US,US-OH
KALB,"Albany Intl, NY, US",2025-09-12T04:51:00Z,2025-09-12 00:51:00,VFR,17.8,12.2,330,3,0,NA,1022.1,METAR KALB 120451Z 33003KT 10SM FEW065 SCT085 18/12 A3018 RMK AO2 SLP219 T01780122 402610078,2025-09-12T05:00:23Z,2025-09-12T01:00:23Z,Albany International Airport,42.74829864501953,-73.80169677734375,US,US-NY
KALI,"Alice Intl, TX, US",2025-09-12T04:53:00Z,2025-09-11 23:53:00,VFR,25.6,23.3,VAR,4,0,NA,1017.4,METAR KALI 120453Z AUTO VRB04KT 10SM CLR 26/23 A3004 RMK AO2 SLP169 T02560233,2025-09-12T05:00:23Z,2025-09-12T01:00:23Z,Alice International Airport,27.7409,-98.026901,US,US-TX
KALM,"Alamogordo/White Sands Rgnl, NM, US",2025-09-12T04:55:00Z,2025-09-11 22:55:00,VFR,26,6,140,9,0,NA,1019.7,METAR KALM 120455Z AUTO 14009KT 10SM CLR 26/06 A3011 RMK AO2,2025-09-12T05:00:23Z,2025-09-12T01:00:23Z,Alamogordo White Sands Regional Airport,32.837818,-105.993149,US,US-NM
KALN,"Alton/St Louis Rgnl, IL, US",2025-09-12T04:55:00Z,2025-09-11 23:55:00,VFR,16.6,15.1,VAR,NA,0,NA,1020.4,METAR KALN 120455Z 10SM CLR 17/15 A3013 RMK AO2 T01660151 TSNO,2025-09-12T05:00:23Z,2025-09-12T01:00:23Z,St Louis Regional Airport,38.89030075069999,-90.0459976196,US,US-IL
KALO,"Waterloo Rgnl, IA, US",2025-09-12T04:54:00Z,2025-09-11 23:54:00,VFR,15.6,13.3,100,4,0,NA,1020.7,METAR KALO 120454Z AUTO 10004KT 10SM CLR 16/13 A3014 RMK AO2 SLP202 T01560133,2025-09-12T05:00:23Z,2025-09-12T01:00:23Z,Waterloo Regional Airport,42.557098388671875,-92.400299072265625,US,US-IA
KALS,"Alamosa/Bergman Fld, CO, US",2025-09-12T04:52:00Z,2025-09-11 22:52:00,VFR,12.2,10.6,260,7,0,NA,1029.5,METAR KALS 120452Z AUTO 26007KT 10SM -RA FEW055 BKN085 OVC110 12/11 A3040 RMK AO2 RAB0357E08B30E41B49 PRESRR SLP223 P0000 T01220106 $,2025-09-12T05:00:23Z,2025-09-12T01:00:23Z,San Luis Valley Regional Airport/Bergman Field,37.434898,-105.866997,US,US-CO
KALW,"Walla Walla Rgnl, WA, US",2025-09-12T04:53:00Z,2025-09-11 21:53:00,VFR,21.1,13.3,170,3,0,NA,1013.6,METAR KALW 120453Z AUTO 17003KT 10SM SCT110 21/13 A2993 RMK AO2 RAE0354 SLP130 P0000 T02110133,2025-09-12T05:00:23Z,2025-09-12T01:00:23Z,Walla Walla Regional Airport,46.09489822,-118.288002,US,US-WA
KALX,"Alexander City/Russell Fld, AL, US",2025-09-12T04:55:00Z,2025-09-11 23:55:00,VFR,19.9,19.9,0,0,0,NA,1019.7,METAR KALX 120455Z AUTO 00000KT 10SM CLR 20/20 A3011 RMK AO2 T01990199 403150144,2025-09-12T05:00:23Z,2025-09-12T01:00:23Z,Thomas C Russell Field,32.914699554399995,-85.9629974365,US,US-AL
KAMA,"Amarillo Intl Arpt, TX, US",2025-09-12T04:53:00Z,2025-09-11 23:53:00,VFR,22.2,11.7,170,10,0,NA,1021.8,METAR KAMA 120453Z 17010KT 10SM CLR 22/12 A3017 RMK AO2 SLP163 T02220117,2025-09-12T05:00:23Z,2025-09-12T01:00:23Z,Rick Husband Amarillo International Airport,35.219398,-101.706001,US,US-TX
KAMG,"Alma/Bacon Cnty, GA, US",2025-09-12T04:53:00Z,2025-09-12 04:53:00,VFR,18.9,18.3,0,0,0,8,1019,METAR KAMG 120453Z AUTO 00000KT 8SM CLR 19/18 A3009 RMK AO2 SLP186 T01890183 403000150 $,2025-09-12T05:00:23Z,2025-09-12T01:00:23Z,Bacon County Airport,31.53610038757324,-82.50659942626953,US,US-GA
KAMN,"Alma/Gratiot Communi, MI, US",2025-09-12T04:55:00Z,2025-09-12 00:55:00,IFR,11,11,330,4,0,2.5,1023.8,METAR KAMN 120455Z AUTO 33004KT 2 1/2SM BR CLR 11/11 A3023 RMK AO2 VIS 1/2V5,2025-09-12T05:00:23Z,2025-09-12T01:00:23Z,Gratiot Community Airport,43.322101593,-84.68800354,US,US-MI
KAMW,"Ames Muni, IA, US",2025-09-12T04:53:00Z,2025-09-11 23:53:00,VFR,18.3,14.4,120,4,0,NA,1019.4,METAR KAMW 120453Z AUTO 12004KT 10SM CLR 18/14 A3010 RMK AO2 SLP186 T01830144,2025-09-12T05:00:23Z,2025-09-12T01:00:23Z,Ames Municipal Airport,41.992001,-93.621803,US,US-IA
KANB,"Anniston Metro, AL, US",2025-09-12T04:53:00Z,2025-09-11 23:53:00,VFR,19.4,18.3,0,0,0,NA,1020.1,METAR KANB 120453Z AUTO 00000KT 10SM CLR 19/18 A3012 RMK AO2 SLP192 T01940183,2025-09-12T05:00:23Z,2025-09-12T01:00:23Z,Anniston Regional Airport,33.5882,-85.8581,US,US-AL
KAND,"Anderson Rgnl, SC, US",2025-09-12T04:56:00Z,2025-09-12 00:56:00,VFR,18.9,15.6,0,0,0,NA,1020.4,METAR KAND 120456Z AUTO 00000KT 10SM BKN070 19/16 A3013 RMK AO2 SLP194 T01890156 403060133,2025-09-12T05:00:23Z,2025-09-12T01:00:23Z,Anderson Regional Airport,34.4945983887,-82.70939636230001,US,US-SC
KANE,"Blaine/Anoka Cnty, MN, US",2025-09-12T04:55:00Z,2025-09-12 04:55:00,VFR,19,15,140,6,0,NA,1020.1,METAR KANE 120455Z AUTO 14006KT 10SM CLR 19/15 A3012 RMK AO2,2025-09-12T05:00:23Z,2025-09-12T01:00:23Z,Anoka County-Blaine (Janes Field) Airport,45.145,-93.211401,US,US-MN
KANE,"Blaine/Anoka Cnty, MN, US",2025-09-12T05:15:00Z,2025-09-12 05:15:00,VFR,18,14,140,5,0,NA,1019.7,METAR KANE 120515Z AUTO 14005KT 10SM CLR 18/14 A3011 RMK AO2,2025-09-12T05:17:02Z,2025-09-12T01:17:02Z,Anoka County-Blaine (Janes Field) Airport,45.145,-93.211401,US,US-MN
KANJ,"Sault Ste Marie Muni, MI, US",2025-09-12T04:55:00Z,2025-09-12 04:55:00,MVFR,11.7,11.7,0,0,0,3,1024.8,METAR KANJ 120455Z AUTO 00000KT 3SM BR BKN039 12/12 A3026 RMK AO2 SLP245 T01170117 402060117,2025-09-12T05:00:23Z,2025-09-12T01:00:23Z,Sault Ste Marie Municipal Airport Sanderson Field,46.479198,-84.368401,US,US-MI
KANK,"Salida/Alexander Fld, CO, US",2025-09-12T04:55:00Z,2025-09-11 22:55:00,VFR,12.3,8.1,240,8,0,9,1027.5,METAR KANK 120455Z AUTO 24008KT 9SM -RA FEW048 SCT075 BKN130 12/08 A3034 RMK AO2 P0000 T01230081 $,2025-09-12T05:00:23Z,2025-09-12T01:00:23Z,Salida Airport - Harriet Alexander Field,38.5383,-106.049004,US,US-CO
KANW,"Ainsworth Muni, NE, US",2025-09-12T04:55:00Z,2025-09-11 23:55:00,VFR,21.3,17.8,150,7,0,NA,1014.3,METAR KANW 120455Z AUTO 15007KT 10SM CLR 21/18 A2995 RMK AO2 T02130178,2025-09-12T05:00:23Z,2025-09-12T01:00:23Z,Ainsworth Regional Airport,42.579201,-99.992995,US,US-NE
KAOH,"Lima/Allen Cnty, OH, US",2025-09-12T04:53:00Z,2025-09-12 00:53:00,VFR,12.8,10,90,5,0,NA,1023.1,METAR KAOH 120453Z AUTO 09005KT 10SM CLR 13/10 A3021 RMK AO2 SLP226 T01280100 402720117,2025-09-12T05:00:23Z,2025-09-12T01:00:23Z,Lima Allen County Airport,40.706902,-84.026703,US,US-OH
KAOO,"Altoona/Blair Cnty, PA, US",2025-09-12T04:53:00Z,2025-09-12 00:53:00,VFR,12.2,8.9,80,3,0,NA,1022.8,METAR KAOO 120453Z AUTO 08003KT 10SM CLR 12/09 A3020 RMK AO2 SLP222 T01220089 402610056,2025-09-12T05:00:23Z,2025-09-12T01:00:23Z,Altoona Blair County Airport,40.296398,-78.32,US,US-PA
KAPA,"Denver/Centennial Arpt, CO, US",2025-09-12T04:53:00Z,2025-09-11 22:53:00,VFR,20.6,6.7,140,5,0,NA,1022.1,METAR KAPA 120453Z 14005KT 10SM BKN120 BKN220 21/07 A3018 RMK AO2 SLP141 T02060067,2025-09-12T05:00:23Z,2025-09-12T01:00:23Z,Centennial Airport,39.57009888,-104.848999,US,US-CO
KAPC,"Napa Cnty Arpt, CA, US",2025-09-12T04:54:00Z,2025-09-11 21:54:00,VFR,18.3,15,210,7,0,NA,1014.3,METAR KAPC 120454Z AUTO 21007KT 10SM CLR 18/15 A2995 RMK AO2 SLP134 T01830150,2025-09-12T05:00:23Z,2025-09-12T01:00:23Z,Napa County Airport,38.2132,-122.280998,US,US-CA
KAPF,"Naples Muni, FL, US",2025-09-12T04:53:00Z,2025-09-12 00:53:00,VFR,25.6,24.4,60,5,0,NA,1015,METAR KAPF 120453Z AUTO 06005KT 10SM CLR 26/24 A2997 RMK AO2 SLP147 T02560244 403390256,2025-09-12T05:00:23Z,2025-09-12T01:00:23Z,Naples Municipal Airport,26.1525993347,-81.7752990723,US,US-FL
KAPN,"Alpena Cnty Rgnl, MI, US",2025-09-12T04:54:00Z,2025-09-12 00:54:00,VFR,12.8,12.2,0,0,0,NA,1025.1,METAR KAPN 120454Z AUTO 00000KT 10SM OVC065 13/12 A3027 RMK AO2 SLP250 T01280122 402110111,2025-09-12T05:00:23Z,2025-09-12T01:00:23Z,Alpena County Regional Airport,45.0780983,-83.56030273,US,US-MI
KAPY,"Zapata Cnty, TX, US",2025-09-12T04:50:00Z,2025-09-12 04:50:00,VFR,27.5,23,110,4,0,NA,1017.7,METAR KAPY 120450Z AUTO 11004KT 10SM CLR 28/23 A3005 RMK AO2 T02750230,2025-09-12T05:17:03Z,2025-09-12T01:17:03Z,Zapata County Airport,26.9687995911,-99.2489013672,US,US-TX
KAQO,"Llano Muni, TX, US",2025-09-12T04:55:00Z,2025-09-12 04:55:00,VFR,22,17,0,0,0,NA,1020.4,METAR KAQO 120455Z AUTO 00000KT 10SM FEW040 FEW046 SCT050 22/17 A3013 RMK AO2,2025-09-12T05:00:23Z,2025-09-12T01:00:23Z,Llano Municipal Airport,30.783700942993,-98.662002563477,US,US-TX
KAQP,"Appleton Muni, MN, US",2025-09-12T04:53:00Z,2025-09-12 04:53:00,VFR,20,16,130,7,0,NA,1017,METAR KAQP 120453Z AUTO 13007KT 10SM CLR 20/16 A3003 RMK AO2 TSNO,2025-09-12T05:00:23Z,2025-09-12T01:00:23Z,Appleton Municipal Airport,45.228239,-96.005856,US,US-MN
KAQP,"Appleton Muni, MN, US",2025-09-12T05:13:00Z,2025-09-12 05:13:00,VFR,20,16,130,9,0,NA,1016.7,METAR KAQP 120513Z AUTO 13009KT 10SM CLR 20/16 A3002 RMK AO2 TSNO,2025-09-12T05:17:02Z,2025-09-12T01:17:02Z,Appleton Municipal Airport,45.228239,-96.005856,US,US-MN
KAQW,"North Adams/Harriman West Arpt, MA, US",2025-09-12T04:52:00Z,2025-09-12 04:52:00,NA,NA,NA,VAR,NA,0,NA,1022.4,METAR KAQW 120452Z AUTO A3019 RMK AO2 SLPNO PWINO $,2025-09-12T05:00:23Z,2025-09-12T01:00:23Z,Harriman and West Airport,42.6959,-73.170403,US,US-MA
KAQX,"Allendale Cnty Arpt, SC, US",2025-09-12T04:55:00Z,2025-09-12 04:55:00,VFR,19,19,0,0,0,NA,1019,METAR KAQX 120455Z AUTO 00000KT 10SM CLR 19/19 A3009 RMK AO2,2025-09-12T05:00:23Z,2025-09-12T01:00:23Z,Allendale County Airport,32.995098,-81.270203,US,US-SC
KARA,"New Iberia/Acadiana Rgnl, LA, US",2025-09-12T04:53:00Z,2025-09-11 23:53:00,VFR,22.2,20.6,0,0,0,NA,1018.7,METAR KARA 120453Z AUTO 00000KT 10SM CLR 22/21 A3008 RMK AO2 SLP187 T02220206,2025-09-12T05:00:23Z,2025-09-12T01:00:23Z,Acadiana Regional Airport,30.0378,-91.883904,US,US-LA
KARB,"Ann Arbor Muni, MI, US",2025-09-12T04:53:00Z,2025-09-12 00:53:00,VFR,11.7,11.7,0,0,0,8,1023.8,METAR KARB 120453Z AUTO 00000KT 8SM CLR 12/12 A3023 RMK AO2 SLP235 T01170117 402610078,2025-09-12T05:00:23Z,2025-09-12T01:00:23Z,Ann Arbor Municipal Airport,42.2229995728,-83.74559783939999,US,US-MI
KARG,"Walnut Ridge Rgnl, AR, US",2025-09-12T04:56:00Z,2025-09-11 23:56:00,VFR,23.9,17.8,220,4,0,NA,NA,METAR KARG 120456Z AUTO 22004KT 10SM FEW090 24/18 RMK AO2 SLPNO T02390178 $,2025-09-12T05:00:23Z,2025-09-12T01:00:23Z,Walnut Ridge Regional Airport,36.124667,-90.925111,US,US-AR
KARM,"Wharton Rgnl, TX, US",2025-09-12T04:55:00Z,2025-09-11 23:55:00,VFR,23.7,21.2,70,3,0,NA,1018.7,METAR KARM 120455Z AUTO 07003KT 10SM CLR 24/21 A3008 RMK AO2 T02370212 TSNO,2025-09-12T05:00:23Z,2025-09-12T01:00:23Z,Wharton Regional Airport,29.254299,-96.154404,US,US-TX
KARR,"Aurora Muni, IL, US",2025-09-12T04:52:00Z,2025-09-11 23:52:00,VFR,16.1,14.4,70,4,0,6,1023.1,METAR KARR 120452Z 07004KT 6SM BR CLR 16/14 A3021 RMK AO2 SLP225 T01610144,2025-09-12T05:00:23Z,2025-09-12T01:00:23Z,Aurora Municipal Airport,41.771900177,-88.47570037839999,US,US-IL
KART,"Watertown Intl, NY, US",2025-09-12T04:56:00Z,2025-09-12 00:56:00,VFR,12.8,7.8,60,6,0,NA,1023.5,METAR KART 120456Z AUTO 06006KT 10SM SCT055 13/08 A3022 RMK AO2 SLP229 T01280078 402390067,2025-09-12T05:00:23Z,2025-09-12T01:00:23Z,Watertown International Airport,43.991901,-76.021698,US,US-NY
KARV,"Woodruff/Lakeland Arpt, WI, US",2025-09-12T04:55:00Z,2025-09-11 23:55:00,VFR,10.8,10.4,0,0,0,NA,1023.8,METAR KARV 120455Z AUTO 00000KT 10SM CLR 11/10 A3023 RMK AO2 T01080104,2025-09-12T05:00:23Z,2025-09-12T01:00:23Z,Lakeland Airport Noble F Lee Memorial Field,45.927898,-89.730904,US,US-WI
KARW,"Beaufort Cnty, GA, US",2025-09-12T04:55:00Z,2025-09-12 00:55:00,VFR,22,21,0,0,0,NA,1018.7,METAR KARW 120455Z AUTO 00000KT 10SM CLR 22/21 A3008 RMK AO2,2025-09-12T05:00:23Z,2025-09-12T01:00:23Z,Beaufort Executive Airport,32.412201,-80.634399,US,US-SC
KASD,"Slidell Arpt, LA, US",2025-09-12T04:53:00Z,2025-09-12 04:53:00,VFR,21.1,20,0,0,0,NA,1018.7,METAR KASD 120453Z AUTO 00000KT 10SM CLR 21/20 A3008 RMK AO2 SLP187 T02110200,2025-09-12T05:00:23Z,2025-09-12T01:00:23Z,Slidell Airport,30.3451,-89.820801,US,US-LA
KASE,"Aspen/Pitkin Cnty, CO, US",2025-09-12T04:53:00Z,2025-09-11 22:53:00,VFR,15,5,130,9,0,NA,1026.8,METAR KASE 120453Z AUTO 13009KT 10SM CLR 15/05 A3032 RMK AO2 PK WND 14026/0357 SLP150 T01500050,2025-09-12T05:00:23Z,2025-09-12T01:00:23Z,Aspen-Pitkin County Airport (Sardy Field),39.223202,-106.869003,US,US-CO
KASH,"Nashua/Boire Fld, NH, US",2025-09-12T04:56:00Z,2025-09-12 00:56:00,VFR,14.4,11.1,290,5,0,NA,1021.4,METAR KASH 120456Z AUTO 29005KT 10SM CLR 14/11 A3016 RMK AO2 SLP213 T01440111 402610072 TSNO PNO $,2025-09-12T05:00:23Z,2025-09-12T01:00:23Z,Nashua Airport / Boire Field,42.7817,-71.514801,US,US-NH
KASJ,"Ahoskie/Tri Cnty, NC, US",2025-09-12T04:45:00Z,2025-09-12 04:45:00,VFR,16,16,0,0,0,NA,1020.1,METAR KASJ 120445Z AUTO 00000KT 10SM OVC100 16/16 A3012 RMK AO2 T01600160,2025-09-12T05:00:23Z,2025-09-12T01:00:23Z,Tri-County Airport at Henry Joyner Field,36.297501,-77.170898,US,US-NC
KASJ,"Ahoskie/Tri Cnty, NC, US",2025-09-12T05:05:00Z,2025-09-12 05:05:00,VFR,16.2,16.2,0,0,0,NA,1020.1,METAR KASJ 120505Z AUTO 00000KT 10SM SCT070 OVC100 16/16 A3012 RMK AO2 T01620162,2025-09-12T05:17:02Z,2025-09-12T01:17:02Z,Tri-County Airport at Henry Joyner Field,36.297501,-77.170898,US,US-NC
KASL,"Marshall/Harrison Cnty, TX, US",2025-09-12T04:55:00Z,2025-09-11 23:55:00,VFR,22.3,22.3,0,0,0,9,1018.7,METAR KASL 120455Z AUTO 00000KT 9SM CLR 22/22 A3008 RMK AO2 T02230223 $,2025-09-12T05:00:23Z,2025-09-12T01:00:23Z,Harrison County Airport,32.5205001831,-94.307800293,US,US-TX
KASN,"Talladega Muni, AL, US",2025-09-12T04:55:00Z,2025-09-11 23:55:00,VFR,20,19,80,2,0,NA,1019.4,METAR KASN 120455Z AUTO 08002KT 10SM CLR 20/19 A3010 RMK AO2 403240144,2025-09-12T05:00:23Z,2025-09-12T01:00:23Z,Talladega Municipal Airport,33.569900512699995,-86.05090332030001,US,US-AL
KAST,"Astoria Rgnl, OR, US",2025-09-12T04:55:00Z,2025-09-11 21:55:00,MVFR,15,12.2,230,3,0,9,1019,METAR KAST 120455Z AUTO 23003KT 9SM OVC023 15/12 A3009 RMK AO2 SLP187 T01500122 $,2025-09-12T05:00:23Z,2025-09-12T01:00:23Z,Astoria Regional Airport,46.158000946,-123.878997803,US,US-OR
KASW,"Warsaw Muni, IN, US",2025-09-12T04:35:00Z,2025-09-12 04:35:00,VFR,13,11.9,0,0,0,NA,1023.1,METAR KASW 120435Z AUTO 00000KT 10SM CLR 12/11 A3021 RMK AO2 T01300119,2025-09-12T05:00:26Z,2025-09-12T01:00:26Z,Warsaw Municipal Airport,41.2747,-85.840103,US,US-IN
KASW,"Warsaw Muni, IN, US",2025-09-12T04:55:00Z,2025-09-12 04:55:00,VFR,13,11.5,0,0,0,NA,1023.1,METAR KASW 120455Z AUTO 00000KT 10SM CLR 12/11 A3021 RMK AO2 T01300115,2025-09-12T05:17:05Z,2025-09-12T01:17:05Z,Warsaw Municipal Airport,41.2747,-85.840103,US,US-IN
KASX,"Ashland/Kennedy Mem Arpt, WI, US",2025-09-12T04:53:00Z,2025-09-11 23:53:00,IFR,10,10,0,0,0,1,1022.8,METAR KASX 120453Z AUTO 00000KT 1SM BR FEW002 BKN038 10/10 A3020 RMK AO2 SLP231 T01000100,2025-09-12T05:00:26Z,2025-09-12T01:00:26Z,John F Kennedy Memorial Airport,46.54850006,-90.91899872,US,US-WI
KASX,"Ashland/Kennedy Mem Arpt, WI, US",2025-09-12T05:01:00Z,2025-09-12 00:01:00,LIFR,10,10,0,0,0,0.5,1022.8,SPECI KASX 120501Z AUTO 00000KT 1/2SM FG SCT031 BKN038 10/10 A3020 RMK AO2 T01000100,2025-09-12T05:17:05Z,2025-09-12T01:17:05Z,John F Kennedy Memorial Airport,46.54850006,-90.91899872,US,US-WI
KATL,"Atlanta/Hartsfield-Jackson Intl, GA, US",2025-09-12T04:52:00Z,2025-09-12 00:52:00,VFR,23.3,15,0,0,0,NA,1020.4,METAR KATL 120452Z 00000KT 10SM FEW100 23/15 A3013 RMK AO2 SLP193 T02330150 403110172 $,2025-09-12T05:00:26Z,2025-09-12T01:00:26Z,Hartsfield Jackson Atlanta International Airport,33.6367,-84.428101,US,US-GA
KATS,"Artesia Muni, NM, US",2025-09-12T04:55:00Z,2025-09-11 22:55:00,VFR,26,11,150,14,0,NA,1021.4,METAR KATS 120455Z AUTO 15014KT 10SM CLR 26/11 A3016 RMK AO2,2025-09-12T05:00:25Z,2025-09-12T01:00:25Z,Artesia Municipal Airport,32.8525009155,-104.46800231900001,US,US-NM
KATS,"Artesia Muni, NM, US",2025-09-12T05:15:00Z,2025-09-11 23:15:00,VFR,25,11,150,13,0,NA,1021.4,METAR KATS 120515Z AUTO 15013KT 10SM CLR 25/11 A3016 RMK AO2,2025-09-12T05:17:05Z,2025-09-12T01:17:05Z,Artesia Municipal Airport,32.8525009155,-104.46800231900001,US,US-NM
KATW,"Appleton/Outagamie Cnty, WI, US",2025-09-12T04:55:00Z,2025-09-11 23:55:00,VFR,15,14,0,0,0,NA,1024.1,METAR KATW 120455Z AUTO 00000KT 10SM CLR 15/14 A3024 RMK AO2,2025-09-12T05:00:25Z,2025-09-12T01:00:25Z,Appleton International Airport,44.258099,-88.519096,US,US-WI
KATY,"Watertown Rgnl, SD, US",2025-09-12T04:53:00Z,2025-09-11 23:53:00,VFR,20,15,140,9,0,NA,1016,METAR KATY 120453Z AUTO 14009KT 10SM CLR 20/15 A3000 RMK AO2 SLP149 T02000150,2025-09-12T05:00:26Z,2025-09-12T01:00:26Z,Watertown Regional Airport,44.91400146,-97.15470123,US,US-SD
KAUG,"Augusta/State Arpt, ME, US",2025-09-12T04:53:00Z,2025-09-12 00:53:00,VFR,13.9,8.3,360,5,0,NA,1021.8,METAR KAUG 120453Z AUTO 36005KT 10SM CLR 14/08 A3017 RMK AO2 SLP215 T01390083 402610089 PWINO $,2025-09-12T05:00:26Z,2025-09-12T01:00:26Z,Augusta State Airport,44.320598602299995,-69.7973022461,US,US-ME
KAUH,"Aurora/Potter Fld, NE, US",2025-09-12T04:55:00Z,2025-09-12 04:55:00,VFR,22.9,20.1,150,11,0,NA,1015.7,METAR KAUH 120455Z AUTO 15011KT 10SM CLR 23/20 A2999 RMK AO2 T02290201,2025-09-12T05:00:25Z,2025-09-12T01:00:25Z,Aurora Municipal Al Potter Field,40.8941,-97.994598,US,US-NE
KAUM,"Austin Muni, MN, US",2025-09-12T04:55:00Z,2025-09-11 23:55:00,VFR,16,14,120,5,0,NA,1021.1,METAR KAUM 120455Z AUTO 12005KT 10SM CLR 16/14 A3015 RMK AO2,2025-09-12T05:00:25Z,2025-09-12T01:00:25Z,Austin Municipal Airport,43.66500092,-92.93340302,US,US-MN
KAUM,"Austin Muni, MN, US",2025-09-12T05:16:00Z,2025-09-12 00:16:00,VFR,16,14,130,5,0,NA,1021.1,METAR KAUM 120516Z AUTO 13005KT 10SM CLR 16/14 A3015 RMK AO2,2025-09-12T05:17:05Z,2025-09-12T01:17:05Z,Austin Municipal Airport,43.66500092,-92.93340302,US,US-MN
KAUN,"Auburn Muni, CA, US",2025-09-12T04:55:00Z,2025-09-11 21:55:00,VFR,17,11,0,0,0,NA,1015.3,METAR KAUN 120455Z AUTO 00000KT 10SM CLR 17/11 A2998 RMK A01,2025-09-12T05:00:25Z,2025-09-12T01:00:25Z,Auburn Municipal Airport,38.95479965,-121.0820007,US,US-CA
KAUO,"Auburn Univ Arpt, AL, US",2025-09-12T04:56:00Z,2025-09-11 23:56:00,VFR,21.7,17.8,0,0,0,NA,1020.1,METAR KAUO 120456Z AUTO 00000KT 10SM FEW075 22/18 A3012 RMK AO2 SLP186 T02170178 403170156 $,2025-09-12T05:00:25Z,2025-09-12T01:00:25Z,Auburn University Regional Airport,32.615101,-85.433998,US,US-AL
KAUS,"Austin/Bergstrom Intl, TX, US",2025-09-12T04:53:00Z,2025-09-11 23:53:00,VFR,26.1,21.1,150,4,0,NA,1019,METAR KAUS 120453Z 15004KT 10SM CLR 26/21 A3009 RMK AO2 SLP177 T02610211,2025-09-12T05:00:26Z,2025-09-12T01:00:26Z,Austin Bergstrom International Airport,30.197535,-97.662015,US,US-TX
KAUW,"Wausau Downtown, WI, US",2025-09-12T04:54:00Z,2025-09-11 23:54:00,VFR,13.3,12.8,90,3,0,NA,1024.1,METAR KAUW 120454Z AUTO 09003KT 10SM SCT010 13/13 A3024 RMK AO2 SLP246 T01330128,2025-09-12T05:00:25Z,2025-09-12T01:00:25Z,Wausau Downtown Airport,44.9262008667,-89.6266021729,US,US-WI
KAUW,"Wausau Downtown, WI, US",2025-09-12T05:03:00Z,2025-09-12 00:03:00,MVFR,13.3,12.8,100,4,0,NA,1024.1,SPECI KAUW 120503Z AUTO 10004KT 10SM BKN010 13/13 A3024 RMK AO2 T01330128,2025-09-12T05:17:05Z,2025-09-12T01:17:05Z,Wausau Downtown Airport,44.9262008667,-89.6266021729,US,US-WI
KAVC,"Mecklenburg/Brunswick Rgnl, VA, US",2025-09-12T04:55:00Z,2025-09-12 04:55:00,VFR,16,15.8,0,0,0,NA,1022.8,METAR KAVC 120455Z AUTO 00000KT 10SM CLR 16/16 A3020 RMK AO2 T01600158 402740157,2025-09-12T05:00:25Z,2025-09-12T01:00:25Z,Mecklenburg Brunswick Regional Airport,36.688301,-78.054497,US,US-VA
KAVC,"Mecklenburg/Brunswick Rgnl, VA, US",2025-09-12T05:15:00Z,2025-09-12 05:15:00,MVFR,15.7,15.3,0,0,0,5,1022.8,METAR KAVC 120515Z AUTO 00000KT 5SM SCT003 16/15 A3020 RMK AO2 T01570153,2025-09-12T05:17:05Z,2025-09-12T01:17:05Z,Mecklenburg Brunswick Regional Airport,36.688301,-78.054497,US,US-VA
KAVK,"Alva Muni, OK, US",2025-09-12T04:35:00Z,2025-09-12 04:35:00,VFR,NA,NA,170,10,0,NA,1017,METAR KAVK 120435Z AUTO 17010KT 10SM CLR A3003 RMK A01,2025-09-12T05:00:26Z,2025-09-12T01:00:26Z,Alva Regional Airport,36.773201,-98.669899,US,US-OK
KAVK,"Alva Muni, OK, US",2025-09-12T04:55:00Z,2025-09-12 04:55:00,VFR,NA,NA,180,11,0,NA,1017,METAR KAVK 120455Z AUTO 18011KT 10SM CLR A3003 RMK A01,2025-09-12T05:17:05Z,2025-09-12T01:17:05Z,Alva Regional Airport,36.773201,-98.669899,US,US-OK
KAVL,"Asheville Muni, NC, US",2025-09-12T04:54:00Z,2025-09-12 00:54:00,VFR,15.6,13.9,0,0,0,NA,1023.5,METAR KAVL 120454Z AUTO 00000KT 10SM SCT055 16/14 A3022 RMK AO2 SLP211 T01560139 402670100,2025-09-12T05:00:25Z,2025-09-12T01:00:25Z,Asheville Regional Airport,35.436199,-82.541801,US,US-NC
KAVP,"Wilkes-Barre Scranton Intl, PA, US",2025-09-12T04:54:00Z,2025-09-12 00:54:00,VFR,13.3,10.6,120,5,0,NA,1022.8,METAR KAVP 120454Z AUTO 12005KT 10SM CLR 13/11 A3020 RMK AO2 SLP222 T01330106 402560094,2025-09-12T05:00:26Z,2025-09-12T01:00:26Z,Wilkes Barre Scranton International Airport,41.338500976599995,-75.72339630130001,US,US-PA
KAVQ,"Tucson/Marana Rgnl, AZ, US",2025-09-12T04:55:00Z,2025-09-11 21:55:00,VFR,30,16,140,11,0,NA,1012.6,METAR KAVQ 120455Z AUTO 14011KT 10SM CLR 30/16 A2990 RMK AO2,2025-09-12T05:00:25Z,2025-09-12T01:00:25Z,Marana Regional Airport,32.409065,-111.216199,US,US-AZ
KAVX,"Avalon/Catalina Arpt, CA, US",2025-09-12T04:51:00Z,2025-09-11 21:51:00,LIFR,15.6,15,250,4,0,2,1015,METAR KAVX 120451Z AUTO 25004KT 2SM BR OVC002 16/15 A2997 RMK AO2 VIS 1 1/4V3 SLP134 T01560150,2025-09-12T05:00:26Z,2025-09-12T01:00:26Z,Catalina Airport,33.4049,-118.416,US,US-CA
KAVX,"Avalon/Catalina Arpt, CA, US",2025-09-12T05:14:00Z,2025-09-11 22:14:00,LIFR,15,15,250,3,0,0.75,1015,SPECI KAVX 120514Z AUTO 25003KT 3/4SM BR VV002 15/15 A2997 RMK AO2 T01500150,2025-09-12T05:17:05Z,2025-09-12T01:17:05Z,Catalina Airport,33.4049,-118.416,US,US-CA
KAWG,"Washington Muni, IA, US",2025-09-12T04:55:00Z,2025-09-12 04:55:00,VFR,16,14,110,4,0,NA,1020.4,METAR KAWG 120455Z AUTO 11004KT 10SM CLR 16/14 A3013 RMK AO2,2025-09-12T05:00:25Z,2025-09-12T01:00:25Z,Washington Municipal Airport,41.276100158691406,-91.67340087890624,US,US-IA
KAWM,"West Memphis Muni, AR, US",2025-09-12T04:53:00Z,2025-09-11 23:53:00,VFR,22.2,18.9,0,0,0,NA,1018.7,METAR KAWM 120453Z AUTO 00000KT 10SM CLR 22/19 A3008 RMK AO2 SLP180 T02220189,2025-09-12T05:00:26Z,2025-09-12T01:00:26Z,West Memphis Municipal Airport,35.1351013184,-90.2343978882,US,US-AR
KAWO,"Arlington Muni, WA, US",2025-09-12T04:56:00Z,2025-09-12 04:56:00,MVFR,15.6,13.3,310,3,0,NA,1017.7,METAR KAWO 120456Z AUTO 31003KT 10SM OVC025 16/13 A3005 RMK AO2 SLP181 T01560133,2025-09-12T05:00:25Z,2025-09-12T01:00:25Z,Arlington Municipal Airport,48.161448,-122.158442,US,US-WA
KAXA,"Algona Muni, IA, US",2025-09-12T04:55:00Z,2025-09-11 23:55:00,VFR,20,15,130,9,0,NA,1019,METAR KAXA 120455Z AUTO 13009KT 10SM CLR 20/15 A3009 RMK A01,2025-09-12T05:00:25Z,2025-09-12T01:00:25Z,Algona Municipal Airport,43.078104,-94.271836,US,US-IA
KAXH,"Houston/SW Arpt, TX, US",2025-09-12T04:55:00Z,2025-09-12 04:55:00,VFR,22.9,22.1,0,0,0,7,1019,METAR KAXH 120455Z AUTO 00000KT 7SM CLR 23/22 A3009 RMK AO2 T02290221,2025-09-12T05:00:25Z,2025-09-12T01:00:25Z,Houston Southwest Airport,29.5061,-95.476898,US,US-TX
KAXN,"Alexandria/Chandler Fld, MN, US",2025-09-12T04:53:00Z,2025-09-11 23:53:00,VFR,17.2,15,130,8,0,NA,1019,METAR KAXN 120453Z AUTO 13008KT 10SM CLR 17/15 A3009 RMK AO2 SLP188 T01720150,2025-09-12T05:00:26Z,2025-09-12T01:00:26Z,Chandler Field,45.866299,-95.394699,US,US-MN
KAXS,"Altus/Quartz Mtn Rgnl, OK, US",2025-09-12T04:35:00Z,2025-09-11 23:35:00,VFR,26,15,140,10,0,NA,1018.4,METAR KAXS 120435Z AUTO 14010KT 10SM CLR 26/15 A3007 RMK AO2,2025-09-12T05:00:26Z,2025-09-12T01:00:26Z,Altus Quartz Mountain Regional Airport,34.697952,-99.3385,US,US-OK
KAXS,"Altus/Quartz Mtn Rgnl, OK, US",2025-09-12T04:55:00Z,2025-09-11 23:55:00,VFR,25,15,140,11,0,NA,1018.7,METAR KAXS 120455Z AUTO 14011KT 10SM CLR 25/15 A3008 RMK AO2,2025-09-12T05:17:05Z,2025-09-12T01:17:05Z,Altus Quartz Mountain Regional Airport,34.697952,-99.3385,US,US-OK
KAXV,"Wapakoneta/Armstrong Arpt, OH, US",2025-09-12T04:55:00Z,2025-09-12 00:55:00,VFR,14,10,0,0,0,NA,1023.1,METAR KAXV 120455Z AUTO 00000KT 10SM CLR 14/10 A3021 RMK AO2,2025-09-12T05:00:25Z,2025-09-12T01:00:25Z,Neil Armstrong Airport,40.49340057,-84.29889679,US,US-OH
KAXV,"Wapakoneta/Armstrong Arpt, OH, US",2025-09-12T05:15:00Z,2025-09-12 01:15:00,VFR,14,10,0,0,0,NA,1022.8,METAR KAXV 120515Z AUTO 00000KT 10SM CLR 14/10 A3020 RMK AO2,2025-09-12T05:17:05Z,2025-09-12T01:17:05Z,Neil Armstrong Airport,40.49340057,-84.29889679,US,US-OH
KAXX,"Angel Fire Arpt, NM, US",2025-09-12T04:55:00Z,2025-09-11 22:55:00,VFR,9,7.5,0,0,0,NA,1030.6,METAR KAXX 120455Z AUTO 00000KT 10SM CLR 09/08 A3043 RMK AO2 T00900075,2025-09-12T05:00:25Z,2025-09-12T01:00:25Z,Angel Fire Airport,36.422001,-105.290001,US,US-NM
KAYS,"Waycross/Ware Cnty, GA, US",2025-09-12T04:55:00Z,2025-09-12 00:55:00,NA,NA,NA,0,0,0,NA,1019,METAR KAYS 120455Z AUTO 00000KT A3009 RMK AO2 PWINO,2025-09-12T05:00:25Z,2025-09-12T01:00:25Z,Waycross Ware County Airport,31.2490997314,-82.39550018310001,US,US-GA
KAZC,"Colorado City Muni, AZ, US",2025-09-12T04:35:00Z,2025-09-12 04:35:00,VFR,16,0,0,0,0,NA,1018.4,METAR KAZC 120435Z AUTO 00000KT 10SM CLR 16/00 A3007 RMK AO2,2025-09-12T05:00:26Z,2025-09-12T01:00:26Z,Colorado City Municipal Airport,36.95919,-113.013166,US,US-AZ
KAZC,"Colorado City Muni, AZ, US",2025-09-12T04:55:00Z,2025-09-12 04:55:00,VFR,13,1,0,0,0,NA,1018.4,METAR KAZC 120455Z AUTO 00000KT 10SM CLR 13/01 A3007 RMK AO2,2025-09-12T05:17:05Z,2025-09-12T01:17:05Z,Colorado City Municipal Airport,36.95919,-113.013166,US,US-AZ
KAZO,"Kalamazoo Intl, MI, US",2025-09-12T04:53:00Z,2025-09-12 00:53:00,VFR,13.3,12.2,0,0,0,NA,1023.5,METAR KAZO 120453Z AUTO 00000KT 10SM CLR 13/12 A3022 RMK AO2 SLP231 T01330122 402670094,2025-09-12T05:00:26Z,2025-09-12T01:00:26Z,Kalamazoo Battle Creek International Airport,42.234901428222656,-85.5521011352539,US,US-MI
KBAF,"Westfield/Barnes Muni, MA, US",2025-09-12T03:53:00Z,2025-09-11 23:53:00,VFR,17.2,15,0,0,0,NA,1021.1,METAR KBAF 120353Z AUTO 00000KT 10SM OVC080 17/15 A3015 RMK AO2 SLP209 T01720150,2025-09-12T05:00:26Z,2025-09-12T01:00:26Z,Westfield-Barnes Regional Airport,42.157799,-72.715599,US,US-MA
KBAM,"Battle Mountain Arpt, NV, US",2025-09-12T04:55:00Z,2025-09-11 21:55:00,VFR,12,7,0,0,0,NA,1018.4,METAR KBAM 120455Z AUTO 00000KT 10SM CLR 12/07 A3007 RMK AO1,2025-09-12T05:00:25Z,2025-09-12T01:00:25Z,Battle Mountain Airport,40.598999023400005,-116.874000549,US,US-NV
KBAX,"Bad Axe/Huron Cnty, MI, US",2025-09-12T04:55:00Z,2025-09-12 04:55:00,LIFR,9.6,9.3,0,0,0,0.25,1024.1,METAR KBAX 120455Z AUTO 00000KT 1/4SM FG OVC001 10/09 A3024 RMK AO2 T00960093,2025-09-12T05:00:25Z,2025-09-12T01:00:25Z,Huron County Memorial Airport,43.780201,-82.985397,US,US-MI
KBAX,"Bad Axe/Huron Cnty, MI, US",2025-09-12T05:15:00Z,2025-09-12 05:15:00,LIFR,9.8,9.5,0,0,0,0.5,1024.1,METAR KBAX 120515Z AUTO 00000KT 1/2SM FG OVC001 10/10 A3024 RMK AO2 T00980095,2025-09-12T05:17:05Z,2025-09-12T01:17:05Z,Huron County Memorial Airport,43.780201,-82.985397,US,US-MI
KBAZ,"New Braunfels Muni, TX, US",2025-09-12T04:51:00Z,2025-09-12 04:51:00,VFR,25.6,21.1,140,4,0,NA,1018.7,METAR KBAZ 120451Z AUTO 14004KT 10SM CLR 26/21 A3008 RMK AO2 SLP178 T02560211,2025-09-12T05:00:26Z,2025-09-12T01:00:26Z,New Braunfels Municipal Airport,29.7045,-98.042198,US,US-TX
KBBB,"Benson Muni, MN, US",2025-09-12T04:55:00Z,2025-09-11 23:55:00,VFR,20,16,130,10,0,NA,1017.7,METAR KBBB 120455Z AUTO 13010KT 10SM CLR 20/16 A3005 RMK AO2,2025-09-12T05:00:25Z,2025-09-12T01:00:25Z,Benson Municipal Airport,45.331902,-95.650597,US,US-MN
KBBB,"Benson Muni, MN, US",2025-09-12T05:15:00Z,2025-09-12 00:15:00,VFR,20,16,130,8,13,NA,1017.7,METAR KBBB 120515Z AUTO 13008G13KT 10SM CLR 20/16 A3005 RMK AO2,2025-09-12T05:17:05Z,2025-09-12T01:17:05Z,Benson Municipal Airport,45.331902,-95.650597,US,US-MN
KBBD,"Brady/Curtis Fld, TX, US",2025-09-12T04:55:00Z,2025-09-11 23:55:00,VFR,24,14,130,3,0,NA,1020.1,METAR KBBD 120455Z AUTO 13003KT 10SM OVC070 24/14 A3012 RMK AO2,2025-09-12T05:00:25Z,2025-09-12T01:00:25Z,Curtis Field,31.178931,-99.324732,US,US-TX
KBBG,"Branson Arpt, MO, US",2025-09-12T04:35:00Z,2025-09-11 23:35:00,NA,24,16,0,0,0,NA,1021.1,METAR KBBG 120435Z AUTO 00000KT 10SM 24/16 A3015 RMK AO2 TSNO,2025-09-12T05:00:26Z,2025-09-12T01:00:26Z,Branson Airport,36.532082,-93.200544,US,US-MO
KBBG,"Branson Arpt, MO, US",2025-09-12T04:55:00Z,2025-09-11 23:55:00,NA,23,16,0,0,0,NA,1021.1,METAR KBBG 120455Z AUTO 00000KT 10SM 23/16 A3015 RMK AO2 TSNO,2025-09-12T05:17:05Z,2025-09-12T01:17:05Z,Branson Airport,36.532082,-93.200544,US,US-MO
KBBP,"Bennettsville/Marlboro Jetport, SC, US",2025-09-12T04:55:00Z,2025-09-12 00:55:00,VFR,16,16,0,0,0,NA,1020.1,METAR KBBP 120455Z AUTO 00000KT 10SM CLR 16/16 A3012 RMK AO2,2025-09-12T05:00:25Z,2025-09-12T01:00:25Z,Marlboro County Jetport - H E Avent Field Airport,34.6217,-79.734398,US,US-SC
KBBW,"Broken Bow Muni, NE, US",2025-09-12T04:53:00Z,2025-09-11 23:53:00,VFR,21.7,18.3,130,8,0,NA,1014.3,METAR KBBW 120453Z AUTO 13008KT 10SM CLR 22/18 A2995 RMK AO2 SLP116 T02170183,2025-09-12T05:00:26Z,2025-09-12T01:00:26Z,Broken Bow Municipal Airport,41.4365005493,-99.6421966553,US,US-NE
KBCB,"Blacksburg/VA Tech Montgomery Exec, VA, US",2025-09-12T04:55:00Z,2025-09-12 00:55:00,VFR,13.3,12,0,0,0,NA,1023.8,METAR KBCB 120455Z AUTO 00000KT 10SM CLR 13/12 A3023 RMK AO2 T01330120 402540088 PWINO,2025-09-12T05:00:25Z,2025-09-12T01:00:25Z,Virginia Tech Montgomery Executive Airport,37.2075996399,-80.4077987671,US,US-VA
KBCB,"Blacksburg/VA Tech Montgomery Exec, VA, US",2025-09-12T05:15:00Z,2025-09-12 01:15:00,VFR,13.1,12.1,0,0,0,NA,1024.1,METAR KBCB 120515Z AUTO 00000KT 10SM CLR 13/12 A3024 RMK AO2 T01310121 PWINO,2025-09-12T05:17:05Z,2025-09-12T01:17:05Z,Virginia Tech Montgomery Executive Airport,37.2075996399,-80.4077987671,US,US-VA
KBCE,"Bryce Canyon Arpt, UT, US",2025-09-12T04:53:00Z,2025-09-11 22:53:00,VFR,6.7,-3.9,260,6,0,NA,1023.1,METAR KBCE 120453Z AUTO 26006KT 10SM CLR 07/M04 A3021 RMK AO2 SLP133 T00671039,2025-09-12T05:00:26Z,2025-09-12T01:00:26Z,Bryce Canyon Airport,37.706401825,-112.144996643,US,US-UT
KBCK,"Black River Falls Arpt, WI, US",2025-09-12T04:55:00Z,2025-09-12 04:55:00,VFR,13.5,13.5,0,0,0,7,1023.1,METAR KBCK 120455Z AUTO 00000KT 7SM CLR 14/14 A3021 RMK AO2 T01350135,2025-09-12T05:00:25Z,2025-09-12T01:00:25Z,Black River Falls Area Airport,44.250702,-90.855301,US,US-WI
KBDE,"Baudette Intl, MN, US",2025-09-12T04:53:00Z,2025-09-11 23:53:00,VFR,15.6,14.4,130,8,0,NA,1019.4,METAR KBDE 120453Z AUTO 13008KT 10SM FEW050 OVC085 16/14 A3010 RMK AO2 RAE04 SLP193 P0000 T01560144,2025-09-12T05:00:26Z,2025-09-12T01:00:26Z,Baudette International Airport,48.7284011841,-94.612197876,US,US-MN
KBDG,"Blanding Muni, UT, US",2025-09-12T04:55:00Z,2025-09-11 22:55:00,VFR,20.5,8.6,100,6,0,NA,1020.7,METAR KBDG 120455Z AUTO 10006KT 10SM FEW120 20/09 A3014 RMK AO2 T02050086,2025-09-12T05:00:25Z,2025-09-12T01:00:25Z,Blanding Municipal Airport,37.58330154,-109.4830017,US,US-UT
KBDH,"Willmar Muni, MN, US",2025-09-12T04:55:00Z,2025-09-11 23:55:00,VFR,18,16,130,8,0,NA,1018,METAR KBDH 120455Z AUTO 13008KT 10SM CLR 18/16 A3006 RMK AO2,2025-09-12T05:00:25Z,2025-09-12T01:00:25Z,Willmar Municipal Airport John L Rice Field (2006),45.117552,-95.132259,US,US-MN
KBDH,"Willmar Muni, MN, US",2025-09-12T05:15:00Z,2025-09-12 00:15:00,VFR,19,17,130,8,0,NA,1018,METAR KBDH 120515Z AUTO 13008KT 10SM CLR 19/17 A3006 RMK AO2,2025-09-12T05:17:05Z,2025-09-12T01:17:05Z,Willmar Municipal Airport John L Rice Field (2006),45.117552,-95.132259,US,US-MN
KBDL,"Hartford/Bradley Intl, CT, US",2025-09-12T04:51:00Z,2025-09-12 00:51:00,VFR,17.2,13.3,340,4,0,NA,1021.1,METAR KBDL 120451Z 34004KT 10SM BKN080 17/13 A3015 RMK AO2 SLP208 T01720133 402560089,2025-09-12T05:00:26Z,2025-09-12T01:00:26Z,Bradley International Airport,41.93851,-72.688066,US,US-CT
KBDN,"Bend Muni, OR, US",2025-09-12T04:35:00Z,2025-09-12 04:35:00,VFR,15,10,290,4,0,NA,1018,METAR KBDN 120435Z AUTO 29004KT 10SM FEW038 SCT044 SCT060 15/10 A3006 RMK AO2,2025-09-12T05:00:26Z,2025-09-12T01:00:26Z,Bend Municipal Airport,44.09479904,-121.2009964,US,US-OR
KBDN,"Bend Muni, OR, US",2025-09-12T04:55:00Z,2025-09-12 04:55:00,VFR,15,10,0,0,0,NA,1018.4,METAR KBDN 120455Z AUTO 00000KT 10SM SCT040 15/10 A3007 RMK AO2,2025-09-12T05:17:05Z,2025-09-12T01:17:05Z,Bend Municipal Airport,44.09479904,-121.2009964,US,US-OR
KBDR,"Bridgeport/Sikorsky Mem, CT, US",2025-09-12T04:52:00Z,2025-09-12 00:52:00,VFR,17.2,12.2,0,0,0,NA,1020.4,METAR KBDR 120452Z AUTO 00000KT 10SM CLR 17/12 A3013 RMK AO2 SLP201 T01720122 402560128 PWINO $,2025-09-12T05:00:26Z,2025-09-12T01:00:26Z,Igor I Sikorsky Memorial Airport,41.163502,-73.126198,US,US-CT
KBDU,"Boulder Muni, CO, US",2025-09-12T04:55:00Z,2025-09-11 22:55:00,VFR,20,8,50,4,0,NA,1021.1,METAR KBDU 120455Z AUTO 05004KT 10SM CLR 20/08 A3015 RMK AO2,2025-09-12T05:00:25Z,2025-09-12T01:00:25Z,Boulder Municipal Airport,40.039101,-105.226025,US,US-CO
KBEC,"Wichita/Beech Factory Arpt, KS, US",2025-09-12T04:55:00Z,2025-09-11 23:55:00,VFR,23,17.8,150,8,0,NA,1018,METAR KBEC 120455Z AUTO 15008KT 10SM CLR 23/18 A3006 RMK AO2 T02300178,2025-09-12T05:00:25Z,2025-09-12T01:00:25Z,Beech Factory Airport,37.694499969499994,-97.21499633790002,US,US-KS
KBED,"Bedford/Hanscom Fld, MA, US",2025-09-12T04:51:00Z,2025-09-12 00:51:00,VFR,12.8,11.7,0,0,0,NA,1020.7,METAR KBED 120451Z AUTO 00000KT 10SM CLR 13/12 A3014 RMK AO2 SLP216 T01280117 402560067,2025-09-12T05:00:26Z,2025-09-12T01:00:26Z,Laurence G Hanscom Field,42.470001,-71.289001,US,US-MA
KBEH,"Benton Harbor/SW Michigan Rgnl, MI, US",2025-09-12T04:53:00Z,2025-09-12 00:53:00,VFR,13.3,13.3,0,0,0,9,1023.1,METAR KBEH 120453Z AUTO 00000KT 9SM CLR 13/13 A3021 RMK AO2 SLP228 T01330133 402560100,2025-09-12T05:00:26Z,2025-09-12T01:00:26Z,Southwest Michigan Regional Airport,42.128601074200006,-86.4284973145,US,US-MI
KBFA,"Boyne Falls Arpt, MI, US",2025-09-12T04:35:00Z,2025-09-12 04:35:00,VFR,14,14,0,0,0,7,1024.1,METAR KBFA 120435Z AUTO 00000KT 7SM BKN040 14/14 A3024 RMK AO2,2025-09-12T05:00:26Z,2025-09-12T01:00:26Z,Boyne Mountain Airport,45.165798,-84.924103,US,US-MI
KBFA,"Boyne Falls Arpt, MI, US",2025-09-12T04:55:00Z,2025-09-12 04:55:00,LIFR,13,13,0,0,0,0.75,1024.1,METAR KBFA 120455Z AUTO 00000KT 3/4SM -DZ BR BKN040 OVC060 13/13 A3024 RMK AO2 VIS M1/4V5,2025-09-12T05:17:05Z,2025-09-12T01:17:05Z,Boyne Mountain Airport,45.165798,-84.924103,US,US-MI
KBFD,"Bradford Rgnl, PA, US",2025-09-12T04:53:00Z,2025-09-12 00:53:00,VFR,10,9.4,0,0,0,NA,1024.5,METAR KBFD 120453Z AUTO 00000KT 10SM CLR 10/09 A3025 RMK AO2 SLP237 T01000094 402330044,2025-09-12T05:00:26Z,2025-09-12T01:00:26Z,Bradford Regional Airport,41.8031005859375,-78.64009857177734,US,US-PA
KBFF,"Scottsbluff/Western Nebraska Rgnl, NE, US",2025-09-12T04:53:00Z,2025-09-11 22:53:00,VFR,17.8,15,60,7,0,NA,1016,METAR KBFF 120453Z AUTO 06007KT 10SM CLR 18/15 A3000 RMK AO2 SLP117 T01780150,2025-09-12T05:00:26Z,2025-09-12T01:00:26Z,Western Neb. Rgnl/William B. Heilig Airport,41.87400055,-103.5960007,US,US-NE
KBFI,"Seattle/Boeing Fld, WA, US",2025-09-12T04:53:00Z,2025-09-11 21:53:00,VFR,16.7,13.3,0,0,0,NA,1017.4,METAR KBFI 120453Z 00000KT 10SM SCT026 17/13 A3004 RMK AO2 SLP173 T01670133,2025-09-12T05:00:26Z,2025-09-12T01:00:26Z,Boeing Field King County International Airport,47.529999,-122.302002,US,US-WA
KBFI,"Seattle/Boeing Fld, WA, US",2025-09-12T05:13:00Z,2025-09-11 22:13:00,MVFR,16.7,13.3,200,3,0,NA,1017.7,SPECI KBFI 120513Z 20003KT 10SM BKN026 17/13 A3005 RMK AO2 T01670133,2025-09-12T05:17:05Z,2025-09-12T01:17:05Z,Boeing Field King County International Airport,47.529999,-122.302002,US,US-WA
KBFL,"Bakersfield/Meadows Arpt, CA, US",2025-09-12T04:54:00Z,2025-09-11 21:54:00,VFR,24.4,12.2,360,5,0,NA,1013,METAR KBFL 120454Z 36005KT 10SM CLR 24/12 A2991 RMK AO2 SLP122 T02440122,2025-09-12T05:00:26Z,2025-09-12T01:00:26Z,Meadows Field,35.433601,-119.056999,US,US-CA
KBFM,"Mobile/Downtown Arpt, AL, US",2025-09-12T04:53:00Z,2025-09-11 23:53:00,VFR,20.6,18.9,310,3,0,NA,1019.4,METAR KBFM 120453Z AUTO 31003KT 10SM CLR 21/19 A3010 RMK AO2 SLP191 T02060189,2025-09-12T05:00:26Z,2025-09-12T01:00:26Z,Mobile Downtown Airport,30.626800537100003,-88.06809997559999,US,US-AL
KBFR,"Bedford/Grissom Arpt, IN, US",2025-09-12T04:35:00Z,2025-09-12 00:35:00,NA,17,16,0,0,0,NA,1021.8,METAR KBFR 120435Z AUTO 00000KT 10SM 17/16 A3017 RMK AO2,2025-09-12T05:00:26Z,2025-09-12T01:00:26Z,Virgil I Grissom Municipal Airport,38.84000015,-86.44539642,US,US-IN
KBFR,"Bedford/Grissom Arpt, IN, US",2025-09-12T04:55:00Z,2025-09-12 00:55:00,NA,16,16,360,3,0,NA,1021.8,METAR KBFR 120455Z AUTO 36003KT 10SM 16/16 A3017 RMK AO2,2025-09-12T05:17:05Z,2025-09-12T01:17:05Z,Virgil I Grissom Municipal Airport,38.84000015,-86.44539642,US,US-IN
KBGD,"Borger/Hutchinson Cnty, TX, US",2025-09-12T04:51:00Z,2025-09-11 23:51:00,VFR,26.1,11.1,190,10,0,NA,1020.4,METAR KBGD 120451Z AUTO 19010KT 10SM CLR 26/11 A3013 RMK AO2 SLP154 T02610111,2025-09-12T05:00:26Z,2025-09-12T01:00:26Z,Hutchinson County Airport,35.700901031499995,-101.393997192,US,US-TX
KBGE,"Bainbridge/Decatur Cnty, GA, US",2025-09-12T04:55:00Z,2025-09-12 00:55:00,VFR,20.3,16.3,0,0,0,NA,1018.7,METAR KBGE 120455Z AUTO 00000KT 10SM CLR 20/16 A3008 RMK AO2 LTG DSNT S T02030163,2025-09-12T05:00:25Z,2025-09-12T01:00:25Z,Decatur County Industrial Air Park,30.9715004,-84.63739777,US,US-GA
KBGF,"Winchester Muni, TN, US",2025-09-12T04:35:00Z,2025-09-12 04:35:00,MVFR,17,17,VAR,NA,0,5,1021.1,METAR KBGF 120435Z AUTO 5SM BR CLR 17/17 A3015 RMK A01,2025-09-12T05:00:26Z,2025-09-12T01:00:26Z,Winchester Municipal Airport,35.177502,-86.0662,US,US-TN
KBGF,"Winchester Muni, TN, US",2025-09-12T04:55:00Z,2025-09-12 04:55:00,VFR,17,17,VAR,NA,0,9,1021.1,METAR KBGF 120455Z AUTO 9SM CLR 17/17 A3015 RMK A01,2025-09-12T05:17:05Z,2025-09-12T01:17:05Z,Winchester Municipal Airport,35.177502,-86.0662,US,US-TN
KBGM,"Binghamton Arpt, NY, US",2025-09-12T04:53:00Z,2025-09-12 00:53:00,VFR,14.4,11.1,60,4,0,NA,1023.1,METAR KBGM 120453Z AUTO 06004KT 10SM CLR 14/11 A3021 RMK AO2 SLP224 T01440111 402330089,2025-09-12T05:00:26Z,2025-09-12T01:00:26Z,Greater Binghamton/Edwin A Link field,42.20869827,-75.97979736,US,US-NY
KBGR,"Bangor Intl Arpt, ME, US",2025-09-12T04:53:00Z,2025-09-12 00:53:00,VFR,10.6,8.9,0,0,0,NA,1021.1,METAR KBGR 120453Z 00000KT 10SM CLR 11/09 A3015 RMK AO2 SLP208 T01060089 402440050,2025-09-12T05:00:26Z,2025-09-12T01:00:26Z,Bangor International Airport,44.8074,-68.828102,US,US-ME
KBHB,"Bar Harbor/Hancock Cnty, ME, US",2025-09-12T04:56:00Z,2025-09-12 00:56:00,VFR,13.9,10,330,4,0,NA,1021.1,METAR KBHB 120456Z AUTO 33004KT 10SM CLR 14/10 A3015 RMK AO2 SLP210 T01390100,2025-09-12T05:00:25Z,2025-09-12T01:00:25Z,Hancock County-Bar Harbor Airport,44.45000076,-68.3615036,US,US-ME
KBHC,"Baxley Muni, GA, US",2025-09-12T04:55:00Z,2025-09-12 04:55:00,VFR,18,17,0,0,0,NA,1019,METAR KBHC 120455Z AUTO 00000KT 10SM CLR 18/17 A3009 RMK AO2 PNO,2025-09-12T05:00:25Z,2025-09-12T01:00:25Z,Baxley Municipal Airport,31.71380043029785,-82.393798828125,US,US-GA
KBHK,"Baker Muni, MT, US",2025-09-12T04:51:00Z,2025-09-12 04:51:00,VFR,18.3,12.8,0,0,0,NA,1013.6,METAR KBHK 120451Z AUTO 00000KT 10SM CLR 18/13 A2993 RMK AO2 SLP114 T01830128,2025-09-12T05:00:26Z,2025-09-12T01:00:26Z,Baker Municipal Airport,46.347599,-104.259002,US,US-MT
KBHM,"Birmingham Intl, AL, US",2025-09-12T04:53:00Z,2025-09-11 23:53:00,VFR,21.7,18.3,0,0,0,NA,1020.7,METAR KBHM 120453Z 00000KT 10SM CLR 22/18 A3014 RMK AO2 SLP197 T02170183,2025-09-12T05:00:26Z,2025-09-12T01:00:26Z,Birmingham-Shuttlesworth International Airport,33.562901,-86.753502,US,US-AL
KBID,"Block Island Arpt, RI, US",2025-09-12T04:56:00Z,2025-09-12 00:56:00,VFR,17.8,15.6,260,5,0,NA,1020.1,METAR KBID 120456Z AUTO 26005KT 10SM CLR 18/16 A3012 RMK AO2 SLP199 T01780156 402390133 PNO $,2025-09-12T05:00:25Z,2025-09-12T01:00:25Z,Block Island State Airport,41.168446,-71.578631,US,US-RI
KBIH,"Bishop Rgnl, CA, US",2025-09-12T04:56:00Z,2025-09-11 21:56:00,VFR,18.9,5.6,360,7,0,NA,1015.3,METAR KBIH 120456Z AUTO 36007KT 10SM CLR 19/06 A2998 RMK AO2 SLP108 T01890056,2025-09-12T05:00:25Z,2025-09-12T01:00:25Z,Eastern Sierra Regional Airport,37.3731,-118.363998,US,US-CA
KBIJ,"Blakely/Early Cnty, GA, US",2025-09-12T04:55:00Z,2025-09-12 04:55:00,VFR,17,16,0,0,0,NA,1019.4,METAR KBIJ 120455Z AUTO 00000KT 10SM CLR 17/16 A3010 RMK AO2,2025-09-12T05:00:25Z,2025-09-12T01:00:25Z,Early County Airport,31.397499084472656,-84.8947982788086,US,US-GA
KBIL,"Billings/Logan Intl, MT, US",2025-09-12T04:53:00Z,2025-09-11 22:53:00,VFR,16.7,9.4,360,7,0,NA,1015.7,METAR KBIL 120453Z 36007KT 10SM SCT160 17/09 A2999 RMK AO2 SLP133 T01670094,2025-09-12T05:00:26Z,2025-09-12T01:00:26Z,Billings Logan International Airport,45.807701,-108.542999,US,US-MT
KBIS,"Bismarck Arpt, ND, US",2025-09-12T04:52:00Z,2025-09-11 23:52:00,VFR,22.2,18.3,150,7,0,NA,1011.9,METAR KBIS 120452Z 15007KT 10SM CLR 22/18 A2988 RMK AO2 SLP110 T02220183,2025-09-12T05:00:26Z,2025-09-12T01:00:26Z,Bismarck Municipal Airport,46.772701263427734,-100.74600219726562,US,US-ND
KBIV,"Holland/Tulip City Arpt, MI, US",2025-09-12T04:53:00Z,2025-09-12 04:53:00,VFR,13.9,12.2,0,0,0,NA,1023.5,METAR KBIV 120453Z AUTO 00000KT 10SM CLR 14/12 A3022 RMK AO2 SLP230 T01390122 402720106 $,2025-09-12T05:00:26Z,2025-09-12T01:00:26Z,West Michigan Regional Airport,42.742901,-86.107399,US,US-MI
KBJC,"Rocky Mtn Metro, CO, US",2025-09-12T04:55:00Z,2025-09-11 22:55:00,VFR,21,5,0,0,0,NA,1021.8,METAR KBJC 120455Z AUTO 00000KT 10SM CLR 21/05 A3017 RMK AO2,2025-09-12T05:00:25Z,2025-09-12T01:00:25Z,Rocky Mountain Metropolitan Airport,39.908798,-105.116997,US,US-CO
KBJI,"Bemidji Municip, MN, US",2025-09-12T04:55:00Z,2025-09-11 23:55:00,IFR,16.1,16.1,150,11,0,NA,1019,METAR KBJI 120455Z AUTO 15011KT 10SM OVC009 16/16 A3009 RMK AO2 T01610161,2025-09-12T05:00:25Z,2025-09-12T01:00:25Z,Bemidji Regional Airport,47.50939941,-94.93370056,US,US-MN
KBJJ,"Wooster/Wayne Cnty, OH, US",2025-09-12T04:56:00Z,2025-09-12 00:56:00,VFR,10,8.3,0,0,0,NA,1023.8,METAR KBJJ 120456Z AUTO 00000KT 10SM CLR 10/08 A3023 RMK AO2 SLP234 T01000083 402560072,2025-09-12T05:00:25Z,2025-09-12T01:00:25Z,Wayne County Airport,40.874801635699995,-81.88829803470001,US,US-OH
KBKD,"Breckenridge/Stephens Cnty, TX, US",2025-09-12T04:55:00Z,2025-09-11 23:55:00,NA,26.3,16.3,150,7,0,NA,1019.4,METAR KBKD 120455Z AUTO 15007KT CLR 26/16 A3010 RMK AO2 T02630163,2025-09-12T05:00:25Z,2025-09-12T01:00:25Z,Stephens County Airport,32.71900177,-98.8909988403,US,US-TX
KBKE,"Baker Muni, OR, US",2025-09-12T04:53:00Z,2025-09-11 21:53:00,VFR,13.9,11.1,0,0,0,NA,1017,METAR KBKE 120453Z AUTO 00000KT 10SM SCT095 14/11 A3003 RMK AO2 RAB11E24 SLP156 P0000 T01390111,2025-09-12T05:00:26Z,2025-09-12T01:00:26Z,Baker City Municipal Airport,44.8372993469,-117.808998108,US,US-OR
KBKL,"Cleveland/Burke Lakefront Arpt, OH, US",2025-09-12T04:53:00Z,2025-09-12 00:53:00,VFR,17.8,13.3,150,3,0,NA,1022.8,METAR KBKL 120453Z 15003KT 10SM CLR 18/13 A3020 RMK AO2 SLP225 T01780133 402280133,2025-09-12T05:00:26Z,2025-09-12T01:00:26Z,Burke Lakefront Airport,41.51750183105469,-81.68329620361328,US,US-OH
KBKN,"Blackwell/Tonkawa Muni, OK, US",2025-09-12T04:55:00Z,2025-09-12 04:55:00,VFR,24,19,150,9,0,NA,1018,METAR KBKN 120455Z AUTO 15009KT 10SM CLR 24/19 A3006 RMK AO2,2025-09-12T05:00:25Z,2025-09-12T01:00:25Z,Blackwell Tonkawa Municipal Airport,36.745098,-97.349602,US,US-OK
KBKN,"Blackwell/Tonkawa Muni, OK, US",2025-09-12T05:15:00Z,2025-09-12 05:15:00,VFR,23,19,160,8,0,NA,1017.7,METAR KBKN 120515Z AUTO 16008KT 10SM CLR 23/19 A3005 RMK AO2,2025-09-12T05:17:05Z,2025-09-12T01:17:05Z,Blackwell Tonkawa Municipal Airport,36.745098,-97.349602,US,US-OK
KBKV,"Brooksville-Tampa Bay Rgnl, FL, US",2025-09-12T04:53:00Z,2025-09-12 04:53:00,VFR,22.8,20.6,40,5,0,NA,1017.4,METAR KBKV 120453Z AUTO 04005KT 10SM CLR 23/21 A3004 RMK AO2 SLP170 T02280206 403060217,2025-09-12T05:00:26Z,2025-09-12T01:00:26Z,Brooksville–Tampa Bay Regional Airport,28.469461,-82.457114,US,US-FL
KBKW,"Beckley/Raleigh Cnty, WV, US",2025-09-12T04:51:00Z,2025-09-12 00:51:00,VFR,12.8,8.3,0,0,0,NA,1023.8,METAR KBKW 120451Z AUTO 00000KT 10SM CLR 13/08 A3023 RMK AO2 SLP216 T01280083 402390083,2025-09-12T05:00:26Z,2025-09-12T01:00:26Z,Raleigh County Memorial Airport,37.7873,-81.124199,US,US-WV
KBLF,"Bluefield/Mercer Cnty, WV, US",2025-09-12T04:52:00Z,2025-09-12 00:52:00,VFR,13.3,8.9,0,0,0,NA,1024.5,METAR KBLF 120452Z AUTO 00000KT 10SM CLR 13/09 A3025 RMK AO2 SLP219 T01330089 402220094,2025-09-12T05:00:26Z,2025-09-12T01:00:26Z,Mercer County Airport,37.295799,-81.207703,US,US-WV
KBLH,"Blythe Arpt, CA, US",2025-09-12T04:52:00Z,2025-09-11 21:52:00,VFR,28.9,0.6,270,8,0,NA,1007.9,METAR KBLH 120452Z AUTO 27008KT 10SM CLR 29/01 A2976 RMK AO2 SLP071 T02890006,2025-09-12T05:00:26Z,2025-09-12T01:00:26Z,Blythe Airport,33.6192016602,-114.717002869,US,US-CA
KBLI,"Bellingham Intl, WA, US",2025-09-12T04:53:00Z,2025-09-11 21:53:00,VFR,15.6,12.8,180,9,0,NA,1016.3,METAR KBLI 120453Z 18009KT 10SM CLR 16/13 A3001 RMK AO2 SLP170 T01560128,2025-09-12T05:00:26Z,2025-09-12T01:00:26Z,Bellingham International Airport,48.79280090332031,-122.53800201416016,US,US-WA
KBLM,"Farmingdale/Monmouth Exec, NJ, US",2025-09-12T04:56:00Z,2025-09-12 00:56:00,VFR,15,13.9,300,3,0,NA,1021.1,METAR KBLM 120456Z AUTO 30003KT 10SM CLR 15/14 A3015 RMK AO2 SLP208 T01500139 402670139,2025-09-12T05:00:25Z,2025-09-12T01:00:25Z,Monmouth Executive Airport,40.18690109,-74.12490082,US,US-NJ
KBLU,"Blue Canyon/Nyack Arpt, CA, US",2025-09-12T04:52:00Z,2025-09-11 21:52:00,VFR,11.7,8.3,20,3,0,NA,1020.4,METAR KBLU 120452Z AUTO 02003KT 10SM CLR 12/08 A3013 RMK AO2 SLP150 T01170083 TSNO,2025-09-12T05:00:26Z,2025-09-12T01:00:26Z,Blue Canyon Nyack Airport,39.2750015259,-120.709999084,US,US-CA
KBMC,"Brigham City Arpt, UT, US",2025-09-12T04:35:00Z,2025-09-11 22:35:00,VFR,19,3,270,1,0,NA,1015.3,METAR KBMC 120435Z AUTO 27001KT 10SM CLR 19/03 A2998 RMK AO2,2025-09-12T05:00:26Z,2025-09-12T01:00:26Z,Brigham City Regional Airport,41.552399,-112.061996,US,US-UT
KBMC,"Brigham City Arpt, UT, US",2025-09-12T04:55:00Z,2025-09-11 22:55:00,VFR,19,1,330,7,0,NA,1015.3,METAR KBMC 120455Z AUTO 33007KT 10SM CLR 19/01 A2998 RMK AO2,2025-09-12T05:17:05Z,2025-09-12T01:17:05Z,Brigham City Regional Airport,41.552399,-112.061996,US,US-UT
KBMG,"Bloomington/Monroe Cnty, IN, US",2025-09-12T04:53:00Z,2025-09-12 00:53:00,VFR,15.6,13.3,0,0,0,NA,1021.8,METAR KBMG 120453Z AUTO 00000KT 10SM CLR 16/13 A3017 RMK AO2 SLP210 T01560133 403000128,2025-09-12T05:00:26Z,2025-09-12T01:00:26Z,Monroe County Airport,39.145999908447266,-86.61669921875,US,US-IN
KBMI,"Bloomington Rgnl, IL, US",2025-09-12T04:56:00Z,2025-09-11 23:56:00,VFR,16.1,13.9,60,6,0,NA,1022.8,METAR KBMI 120456Z AUTO 06006KT 10SM SCT070 16/14 A3020 RMK AO2 SLP220 T01610139,2025-09-12T05:00:25Z,2025-09-12T01:00:25Z,Central Illinois Regional Airport at Bloomington-Normal,40.4771,-88.915901,US,US-IL
KBML,"Berlin Muni, NH, US",2025-09-12T04:52:00Z,2025-09-12 00:52:00,VFR,5,3.9,0,0,0,NA,1023.1,METAR KBML 120452Z AUTO 00000KT 10SM CLR 05/04 A3021 RMK AO2 SLP233 T00500039 402390022,2025-09-12T05:00:26Z,2025-09-12T01:00:26Z,Berlin Regional Airport,44.57540131,-71.17590332,US,US-NH
KBML,"Berlin Muni, NH, US",2025-09-12T05:10:00Z,2025-09-12 01:10:00,LIFR,2.8,2.2,0,0,0,0.5,1023.1,SPECI KBML 120510Z AUTO 00000KT 1/2SM FG VV001 03/02 A3021 RMK AO2 VIS 1/4V5 T00280022,2025-09-12T05:17:05Z,2025-09-12T01:17:05Z,Berlin Regional Airport,44.57540131,-71.17590332,US,US-NH
KBMQ,"Burnet Muni, TX, US",2025-09-12T04:53:00Z,2025-09-12 04:53:00,VFR,26.1,18.3,150,4,0,NA,1020.7,METAR KBMQ 120453Z AUTO 15004KT 10SM CLR 26/18 A3014 RMK AO2 SLP185 T02610183,2025-09-12T05:00:26Z,2025-09-12T01:00:26Z,Burnet Municipal Airport/Kate Craddock Field,30.738899,-98.238602,US,US-TX
KBMT,"Beaumont Muni, TX, US",2025-09-12T04:55:00Z,2025-09-11 23:55:00,VFR,22,20.4,0,0,0,NA,1018.7,METAR KBMT 120455Z AUTO 00000KT 10SM CLR 22/20 A3008 RMK AO2 T02200204,2025-09-12T05:00:25Z,2025-09-12T01:00:25Z,Beaumont Municipal Airport,30.070635,-94.215746,US,US-TX
KBNA,"Nashville Intl, TN, US",2025-09-12T04:53:00Z,2025-09-11 23:53:00,VFR,20.6,18.3,0,0,0,NA,1021.1,METAR KBNA 120453Z 00000KT 10SM CLR 21/18 A3015 RMK AO2 SLP202 T02060183 $,2025-09-12T05:00:26Z,2025-09-12T01:00:26Z,Nashville International Airport,36.1245,-86.6782,US,US-TN
KBNL,"Barnwell Cnty, SC, US",2025-09-12T04:30:00Z,2025-09-12 00:30:00,VFR,22,19,0,0,0,NA,1019.7,METAR KBNL 120430Z AUTO 00000KT 10SM FEW044 BKN060 OVC070 22/19 A3011 RMK AO2,2025-09-12T05:00:26Z,2025-09-12T01:00:26Z,Barnwell Regional Airport,33.25780106,-81.38829803,US,US-SC
KBNL,"Barnwell Cnty, SC, US",2025-09-12T04:50:00Z,2025-09-12 00:50:00,VFR,22,20,320,3,0,NA,1020.1,METAR KBNL 120450Z AUTO 32003KT 10SM BKN033 BKN045 OVC070 22/20 A3012 RMK AO2,2025-09-12T05:17:05Z,2025-09-12T01:17:05Z,Barnwell Regional Airport,33.25780106,-81.38829803,US,US-SC
KBNO,"Burns Muni, OR, US",2025-09-12T04:53:00Z,2025-09-11 21:53:00,VFR,8.3,6.1,0,0,0,NA,1018.7,METAR KBNO 120453Z AUTO 00000KT 10SM CLR 08/06 A3008 RMK AO2 SLP175 T00830061,2025-09-12T05:00:26Z,2025-09-12T01:00:26Z,Burns Municipal Airport,43.590463,-118.955154,US,US-OR
KBNW,"Boone Muni, IA, US",2025-09-12T04:55:00Z,2025-09-11 23:55:00,VFR,19,16,130,8,0,NA,1019,METAR KBNW 120455Z AUTO 13008KT 10SM CLR 19/16 A3009 RMK AO2,2025-09-12T05:00:25Z,2025-09-12T01:00:25Z,Boone Municipal Airport,42.049599,-93.847603,US,US-IA
KBOI,"Boise Arpt, ID, US",2025-09-12T04:53:00Z,2025-09-11 22:53:00,VFR,18.3,8.3,0,0,0,NA,1016,METAR KBOI 120453Z 00000KT 10SM CLR 18/08 A3000 RMK AO2 SLP139 T01830083,2025-09-12T05:00:26Z,2025-09-12T01:00:26Z,Boise Air Terminal/Gowen Field,43.5644,-116.223,US,US-ID
KBOK,"Brookings/State Arpt, OR, US",2025-09-12T04:56:00Z,2025-09-11 21:56:00,LIFR,14.4,13.9,0,0,0,9,1018.4,METAR KBOK 120456Z AUTO 00000KT 9SM OVC003 14/14 A3007 RMK AO2 SLP182 T01440139,2025-09-12T05:00:25Z,2025-09-12T01:00:25Z,Brookings Airport,42.0746,-124.290001,US,US-OR
KBOS,"Boston/Logan Intl, MA, US",2025-09-12T04:54:00Z,2025-09-12 00:54:00,VFR,18.9,11.7,350,9,0,NA,1020.4,METAR KBOS 120454Z 35009KT 10SM SCT075 19/12 A3013 RMK AO2 SLP203 T01890117 402330128,2025-09-12T05:00:26Z,2025-09-12T01:00:26Z,Logan International Airport,42.36197,-71.0079,US,US-MA
KBOW,"Bartow Muni, FL, US",2025-09-12T04:55:00Z,2025-09-12 00:55:00,NA,26,22,10,6,12,NA,1016.7,METAR KBOW 120455Z AUTO 01006G12KT SCT100 26/22 A3002 RMK AO2 LTG DSNT SW PWINO,2025-09-12T05:00:25Z,2025-09-12T01:00:25Z,Bartow Executive Airport,27.943399,-81.783401,US,US-FL
KBOW,"Bartow Muni, FL, US",2025-09-12T05:15:00Z,2025-09-12 01:15:00,NA,25,22,10,11,0,NA,1016.7,METAR KBOW 120515Z AUTO 01011KT SCT100 25/22 A3002 RMK AO2 LTG DSNT E AND SW PWINO,2025-09-12T05:17:05Z,2025-09-12T01:17:05Z,Bartow Executive Airport,27.943399,-81.783401,US,US-FL
KBPG,"Big Springs/McMahon , TX, US",2025-09-12T04:55:00Z,2025-09-11 23:55:00,VFR,24.7,12.5,180,7,0,NA,1021.1,METAR KBPG 120455Z AUTO 18007KT 10SM CLR 25/13 A3015 RMK AO2 T02470125,2025-09-12T05:00:25Z,2025-09-12T01:00:25Z,Big Spring Mc Mahon-Wrinkle Airport,32.212601,-101.522003,US,US-TX
KBPI,"Big Piney Arpt, WY, US",2025-09-12T04:53:00Z,2025-09-11 22:53:00,VFR,13.9,-1.7,360,8,0,NA,1021.4,METAR KBPI 120453Z AUTO 36008KT 10SM BKN120 14/M02 A3016 RMK AO2 SLP126 T01391017,2025-09-12T05:00:26Z,2025-09-12T01:00:26Z,Miley Memorial Field,42.58509827,-110.1110001,US,US-WY
KBPK,"Mountain Home/Baxter Cnty, AR, US",2025-09-12T04:53:00Z,2025-09-11 23:53:00,VFR,22.8,16.7,0,0,0,NA,1020.1,METAR KBPK 120453Z AUTO 00000KT 10SM CLR 23/17 A3012 RMK AO2 SLP187 T02280167 PWINO,2025-09-12T05:00:26Z,2025-09-12T01:00:26Z,Ozark Regional Airport,36.3689002991,-92.4704971313,US,US-AR
KBPT,"Beaumont/SE Texas Rgnl, TX, US",2025-09-12T04:53:00Z,2025-09-11 23:53:00,VFR,23.9,22.8,0,0,0,NA,1018.7,METAR KBPT 120453Z AUTO 00000KT 10SM CLR 24/23 A3008 RMK AO2 SLP184 T02390228,2025-09-12T05:00:26Z,2025-09-12T01:00:26Z,Jack Brooks Regional Airport,29.9508,-94.020699,US,US-TX
KBQK,"Brunswick/Golden Isles Arpt, GA, US",2025-09-12T04:55:00Z,2025-09-12 00:55:00,VFR,19.6,19.3,330,4,0,NA,1018.4,METAR KBQK 120455Z AUTO 33004KT 10SM CLR 20/19 A3007 RMK AO2 T01960193,2025-09-12T05:00:25Z,2025-09-12T01:00:25Z,Brunswick Golden Isles Airport,31.258801,-81.466499,US,US-GA
KBQP,"Morehouse Mem Arpt, LA, US",2025-09-12T04:30:00Z,2025-09-12 04:30:00,NA,21.5,19,0,0,0,NA,1019.7,METAR KBQP 120430Z AUTO 00000KT CLR 22/19 A3011 RMK AO2 T02150190 PWINO,2025-09-12T05:00:26Z,2025-09-12T01:00:26Z,Morehouse Memorial Airport,32.756,-91.880556,US,US-LA
KBQP,"Morehouse Mem Arpt, LA, US",2025-09-12T04:50:00Z,2025-09-12 04:50:00,NA,21.2,19,0,0,0,NA,1019.7,METAR KBQP 120450Z AUTO 00000KT 21/19 A3011 RMK AO2 T02120190 PWINO,2025-09-12T05:17:05Z,2025-09-12T01:17:05Z,Morehouse Memorial Airport,32.756,-91.880556,US,US-LA
KBRD,"Brainerd/Lakes Rgnl, MN, US",2025-09-12T04:53:00Z,2025-09-11 23:53:00,VFR,16.7,15.6,VAR,NA,0,NA,1020.1,METAR KBRD 120453Z AUTO 10SM CLR 17/16 A3012 RMK AO2 SLP199 T01670156,2025-09-12T05:00:26Z,2025-09-12T01:00:26Z,Brainerd Lakes Regional Airport,46.402861,-94.129727,US,US-MN
KBRL,"Burlington/SE Iowa Rgnl, IA, US",2025-09-12T04:53:00Z,2025-09-11 23:53:00,VFR,20.6,12.8,110,5,0,NA,1020.7,METAR KBRL 120453Z AUTO 11005KT 10SM CLR 21/13 A3014 RMK AO2 SLP202 T02060128,2025-09-12T05:00:26Z,2025-09-12T01:00:26Z,Southeast Iowa Regional Airport,40.783199310302734,-91.12550354003906,US,US-IA
KBRO,"Brownsville Intl, TX, US",2025-09-12T04:53:00Z,2025-09-11 23:53:00,VFR,27.8,24.4,0,0,0,NA,1016.3,METAR KBRO 120453Z 00000KT 10SM CLR 28/24 A3001 RMK AO2 SLP161 T02780244,2025-09-12T05:00:26Z,2025-09-12T01:00:26Z,Brownsville South Padre Island International Airport,25.90679931640625,-97.4259033203125,US,US-TX
KBRY,"Bardstown/Samuel Fld, KY, US",2025-09-12T04:55:00Z,2025-09-12 00:55:00,VFR,16.8,16.8,0,0,0,9,1021.1,METAR KBRY 120455Z AUTO 00000KT 9SM CLR 17/17 A3015 RMK AO2 T01680168 $,2025-09-12T05:00:25Z,2025-09-12T01:00:25Z,Samuels Field,37.8143005371,-85.4996032715,US,US-KY
KBTA,"Blair Muni, NE, US",2025-09-12T04:55:00Z,2025-09-12 04:55:00,VFR,25.1,17.7,160,8,0,NA,1017.4,METAR KBTA 120455Z AUTO 16008KT 10SM CLR 25/18 A3004 RMK AO2 T02510177,2025-09-12T05:00:25Z,2025-09-12T01:00:25Z,Blair Executive Airport,41.414908,-96.109136,US,US-NE
KBTL,"Battle Creek/Kellogg Fld Arpt, MI, US",2025-09-12T04:53:00Z,2025-09-12 00:53:00,NA,13.9,12.2,0,0,0,NA,1023.5,METAR KBTL 120453Z AUTO 00000KT 10SM 14/12 A3022 RMK AO2 SLP231 T01390122 402610100,2025-09-12T05:00:26Z,2025-09-12T01:00:26Z,Battle Creek Executive Airport at Kellogg Field,42.307301,-85.251503,US,US-MI
KBTM,"Butte/Mooney Arpt, MT, US",2025-09-12T04:53:00Z,2025-09-11 22:53:00,VFR,10.6,5,170,6,0,NA,1019.7,METAR KBTM 120453Z AUTO 17006KT 10SM CLR 11/05 A3011 RMK AO2 SLP164 T01060050 $,2025-09-12T05:00:26Z,2025-09-12T01:00:26Z,Bert Mooney Airport,45.95479965209961,-112.49700164794922,US,US-MT
KBTN,"Britton Muni, SD, US",2025-09-12T04:35:00Z,2025-09-11 23:35:00,VFR,22,17,140,13,0,NA,1014.3,METAR KBTN 120435Z AUTO 14013KT 10SM FEW043 FEW049 22/17 A2995 RMK AO2,2025-09-12T05:00:26Z,2025-09-12T01:00:26Z,Britton Municipal Airport,45.815200805664,-97.743103027344,US,US-SD
KBTN,"Britton Muni, SD, US",2025-09-12T04:55:00Z,2025-09-11 23:55:00,VFR,22,17,150,13,0,NA,1014.3,METAR KBTN 120455Z AUTO 15013KT 10SM FEW045 22/17 A2995 RMK AO2,2025-09-12T05:17:05Z,2025-09-12T01:17:05Z,Britton Municipal Airport,45.815200805664,-97.743103027344,US,US-SD
KBTP,"Pittsburgh/Butler Rgnl, PA, US",2025-09-12T04:56:00Z,2025-09-12 00:56:00,VFR,13.3,11.7,30,5,0,NA,1023.1,METAR KBTP 120456Z AUTO 03005KT 10SM CLR 13/12 A3021 RMK AO2 SLP231 T01330117,2025-09-12T05:00:25Z,2025-09-12T01:00:25Z,Pittsburgh/Butler Regional Airport,40.776901,-79.949699,US,US-PA
KBTR,"Baton Rouge/Ryan Fld, LA, US",2025-09-12T04:53:00Z,2025-09-11 23:53:00,VFR,22.8,20.6,0,0,0,NA,1019,METAR KBTR 120453Z 00000KT 10SM CLR 23/21 A3009 RMK AO2 SLPNO T02280206,2025-09-12T05:00:26Z,2025-09-12T01:00:26Z,Baton Rouge Metropolitan Airport,30.533199,-91.149597,US,US-LA
KBTV,"Burlington Intl, VT, US",2025-09-12T04:54:00Z,2025-09-12 00:54:00,VFR,13.3,11.1,0,0,0,NA,1022.8,METAR KBTV 120454Z AUTO 00000KT 10SM CLR 13/11 A3020 RMK AO2 SLP227 T01330111 402390094,2025-09-12T05:00:25Z,2025-09-12T01:00:25Z,Burlington International Airport,44.471901,-73.153297,US,US-VT
KBUF,"Buffalo-Niagara Intl, NY, US",2025-09-12T04:54:00Z,2025-09-12 00:54:00,VFR,14.4,11.7,100,3,0,NA,1023.1,METAR KBUF 120454Z 10003KT 10SM CLR 14/12 A3021 RMK AO2 SLP229 T01440117 402560117 $,2025-09-12T05:00:28Z,2025-09-12T01:00:28Z,Buffalo Niagara International Airport,42.940498,-78.732201,US,US-NY
KBUR,"Burbank/Bob Hope Arpt, CA, US",2025-09-12T04:53:00Z,2025-09-11 21:53:00,VFR,20,15,170,3,0,NA,1013.6,METAR KBUR 120453Z 17003KT 10SM CLR 20/15 A2993 RMK AO2 SLP124 T02000150,2025-09-12T05:00:28Z,2025-09-12T01:00:28Z,Hollywood Burbank Airport,34.197703,-118.356378,US,US-CA
KBUU,"Burlington Muni, WI, US",2025-09-12T04:55:00Z,2025-09-12 04:55:00,LIFR,14,13.5,0,0,0,2.5,1024.1,METAR KBUU 120455Z AUTO 00000KT 2 1/2SM OVC003 14/14 A3024 RMK AO2 T01400135 PWINO,2025-09-12T05:00:28Z,2025-09-12T01:00:28Z,Burlington Municipal Airport,42.69070053100586,-88.30460357666016,US,US-WI
KBUY,"Burlington/Alamance Rgnl, NC, US",2025-09-12T04:54:00Z,2025-09-12 04:54:00,VFR,16.1,16.1,0,0,0,NA,1021.1,METAR KBUY 120454Z AUTO 00000KT 10SM CLR 16/16 A3015 RMK AO2 SLP204 T01610161 402720156,2025-09-12T05:00:28Z,2025-09-12T01:00:28Z,Burlington Alamance Regional Airport,36.04850006103515,-79.47489929199219,US,US-NC
KBVN,"Albion Muni, NE, US",2025-09-12T04:55:00Z,2025-09-12 04:55:00,VFR,21.1,18.6,130,7,0,NA,1015.7,METAR KBVN 120455Z AUTO 13007KT 10SM CLR 21/19 A2999 RMK AO2 T02110186,2025-09-12T05:00:28Z,2025-09-12T01:00:28Z,Albion Municipal Airport,41.7286,-98.055801,US,US-NE
KBVO,"Bartlesville Muni, OK, US",2025-09-12T04:53:00Z,2025-09-11 23:53:00,VFR,18.3,17.8,0,0,0,NA,1019,METAR KBVO 120453Z AUTO 00000KT 10SM CLR 18/18 A3009 RMK AO2 SLP178 T01830178,2025-09-12T05:00:28Z,2025-09-12T01:00:28Z,Bartlesville Municipal Airport,36.762501,-96.0112,US,US-OK
KBVS,"Burlington/Skagit Rgnl, WA, US",2025-09-12T04:55:00Z,2025-09-11 21:55:00,VFR,13,13,0,0,0,NA,1017.7,METAR KBVS 120455Z AUTO 00000KT 10SM FEW031 FEW036 SCT043 13/13 A3005 RMK A01,2025-09-12T05:00:28Z,2025-09-12T01:00:28Z,Skagit Regional Airport,48.470901,-122.420998,US,US-WA
KBVY,"Beverly Muni, MA, US",2025-09-12T04:53:00Z,2025-09-12 00:53:00,VFR,15.6,11.7,340,6,0,NA,1020.4,METAR KBVY 120453Z AUTO 34006KT 10SM FEW070 16/12 A3013 RMK AO2 SLP198 T01560117 402500072,2025-09-12T05:00:28Z,2025-09-12T01:00:28Z,Beverly Regional Airport,42.584202,-70.916496,US,US-MA
KBWD,"Brownwood Muni, TX, US",2025-09-12T04:55:00Z,2025-09-11 23:55:00,VFR,22.7,17,0,0,0,NA,1019.7,METAR KBWD 120455Z AUTO 00000KT 10SM CLR 23/17 A3011 RMK AO2 T02270170 $,2025-09-12T05:00:28Z,2025-09-12T01:00:28Z,Brownwood Regional Airport,31.7936000824,-98.9564971924,US,US-TX
KBWG,"Bowling Green/Warren Cnty, KY, US",2025-09-12T04:53:00Z,2025-09-11 23:53:00,VFR,19.4,15.6,0,0,0,NA,1020.7,METAR KBWG 120453Z AUTO 00000KT 10SM CLR 19/16 A3014 RMK AO2 SLP202 T01940156,2025-09-12T05:00:28Z,2025-09-12T01:00:28Z,Bowling Green Warren County Regional Airport,36.964500427199994,-86.41970062259999,US,US-KY
KBWI,"Baltimore-Washington Intl, MD, US",2025-09-12T04:54:00Z,2025-09-12 00:54:00,VFR,16.1,15.6,270,3,0,NA,1020.7,METAR KBWI 120454Z 27003KT 10SM CLR 16/16 A3014 RMK AO2 SLP205 T01610156 402560156,2025-09-12T05:00:28Z,2025-09-12T01:00:28Z,Baltimore/Washington International Thurgood Marshall Airport,39.1754,-76.668297,US,US-MD
KBWP,"Breckenridge-Wahpeton/Stern Arpt, ND, US",2025-09-12T04:55:00Z,2025-09-11 23:55:00,VFR,20,20,140,12,0,NA,1015.7,METAR KBWP 120455Z AUTO 14012KT 10SM FEW031 FEW039 20/20 A2999 RMK AO2,2025-09-12T05:00:28Z,2025-09-12T01:00:28Z,Harry Stern Airport,46.2440986633,-96.6073989868,US,US-ND
KBWW,"Bowman Rgnl, ND, US",2025-09-12T04:55:00Z,2025-09-11 22:55:00,VFR,19,16,340,5,0,NA,1013,METAR KBWW 120455Z AUTO 34005KT 10SM CLR 19/16 A2991 RMK AO2,2025-09-12T05:00:28Z,2025-09-12T01:00:28Z,Bowman Regional Airport,46.165519,-103.30075,US,US-ND
KBXA,"Bogalusa/Carr Arfld, LA, US",2025-09-12T04:55:00Z,2025-09-11 23:55:00,VFR,21.2,19.4,0,0,0,NA,1019.4,METAR KBXA 120455Z AUTO 00000KT 10SM CLR 21/19 A3010 RMK AO2 T02120194,2025-09-12T05:00:28Z,2025-09-12T01:00:28Z,George R Carr Memorial Air Field,30.813699722299997,-89.8649978638,US,US-LA
KBXK,"Buckeye Muni, AZ, US",2025-09-12T04:55:00Z,2025-09-11 21:55:00,VFR,30,11,90,5,0,NA,1009.9,METAR KBXK 120455Z AUTO 09005KT 10SM CLR 30/11 A2982 RMK AO2,2025-09-12T05:00:28Z,2025-09-12T01:00:28Z,Buckeye Municipal Airport,33.422397,-112.686317,US,US-AZ
KBXK,"Buckeye Muni, AZ, US",2025-09-12T05:15:00Z,2025-09-11 22:15:00,VFR,31,9,VAR,4,0,NA,1010.2,METAR KBXK 120515Z AUTO VRB04KT 10SM CLR 31/09 A2983 RMK AO2,2025-09-12T05:17:07Z,2025-09-12T01:17:07Z,Buckeye Municipal Airport,33.422397,-112.686317,US,US-AZ
KBXM,"Brunswick Exec, ME, US",2025-09-12T04:55:00Z,2025-09-12 00:55:00,VFR,12,9,360,4,0,NA,1021.8,METAR KBXM 120455Z AUTO 36004KT 10SM FEW070 12/09 A3017 RMK AO2,2025-09-12T05:00:28Z,2025-09-12T01:00:28Z,Brunswick Executive Airport,43.89220047,-69.93859863,US,US-ME
KBYG,"Buffalo/Johnson Cnty, WY, US",2025-09-12T04:53:00Z,2025-09-11 22:53:00,VFR,15,5.6,260,7,0,NA,1018,METAR KBYG 120453Z AUTO 26007KT 10SM CLR 15/06 A3006 RMK AO2 SLP126 T01500056 $,2025-09-12T05:00:28Z,2025-09-12T01:00:28Z,Johnson County Airport,44.381100000000004,-106.722,US,US-WY
KBYI,"Burley Muni, ID, US",2025-09-12T04:53:00Z,2025-09-11 22:53:00,VFR,16.1,6.1,0,0,0,NA,1016.7,METAR KBYI 120453Z AUTO 00000KT 10SM SCT120 16/06 A3002 RMK AO2 SLP134 T01610061,2025-09-12T05:00:28Z,2025-09-12T01:00:28Z,Burley Municipal Airport,42.542598724399994,-113.772003174,US,US-ID
KBYY,"Bay City Muni, TX, US",2025-09-12T04:55:00Z,2025-09-11 23:55:00,VFR,22.5,22.5,70,3,0,8,1017,METAR KBYY 120455Z AUTO 07003KT 8SM CLR 23/23 A3003 RMK AO2 T02250225,2025-09-12T05:00:28Z,2025-09-12T01:00:28Z,Bay City Regional Airport,28.973301,-95.863503,US,US-TX
KBZN,"Bozeman/Gallatin Fld, MT, US",2025-09-12T04:56:00Z,2025-09-11 22:56:00,VFR,15,8.9,0,0,0,NA,1017.7,METAR KBZN 120456Z AUTO 00000KT 10SM CLR 15/09 A3005 RMK AO2 LTG DSNT E TSB0359E14 SLP151 T01500089,2025-09-12T05:00:28Z,2025-09-12T01:00:28Z,Bozeman Yellowstone International Airport,45.7775,-111.153,US,US-MT
KC08,"Westcliffe/Silver West Arpt, CO, US",2025-09-12T04:35:00Z,2025-09-12 04:35:00,VFR,11,7,130,4,0,NA,1029.9,METAR KC08 120435Z AUTO 13004KT 10SM VCTS FEW022 FEW050 BKN075 11/07 A3041 RMK AO2 LTG DSNT SW,2025-09-12T05:00:28Z,2025-09-12T01:00:28Z,Silver West Airport,38.013182,-105.374279,US,US-CO
KC08,"Westcliffe/Silver West Arpt, CO, US",2025-09-12T04:55:00Z,2025-09-12 04:55:00,VFR,11,7,130,11,0,NA,1029.9,METAR KC08 120455Z AUTO 13011KT 10SM FEW028 BKN044 OVC085 11/07 A3041 RMK AO2,2025-09-12T05:17:07Z,2025-09-12T01:17:07Z,Silver West Airport,38.013182,-105.374279,US,US-CO
KC09,"Morris Muni, IL, US",2025-09-12T04:55:00Z,2025-09-12 04:55:00,VFR,14.8,13.9,0,0,0,NA,1022.8,METAR KC09 120455Z AUTO 00000KT 10SM CLR 15/14 A3020 RMK AO2 T01480139,2025-09-12T05:00:28Z,2025-09-12T01:00:28Z,Morris Municipal Airport James R. Washburn field,41.4254,-88.418701,US,US-IL
KC29,"Middleton Muni, WI, US",2025-09-12T04:55:00Z,2025-09-12 04:55:00,VFR,15.7,13.5,0,0,0,NA,1023.8,METAR KC29 120455Z AUTO 00000KT 10SM CLR 16/14 A3023 RMK AO1 T01570135,2025-09-12T05:00:28Z,2025-09-12T01:00:28Z,Middleton Municipal Morey Field,43.1143,-89.531502,US,US-WI
KC35,"Reedsburg Muni, WI, US",2025-09-12T04:55:00Z,2025-09-12 04:55:00,VFR,15.8,15.2,0,0,0,NA,1023.5,METAR KC35 120455Z AUTO 00000KT 10SM CLR 16/15 A3022 RMK AO2 T01580152 PWINO,2025-09-12T05:00:28Z,2025-09-12T01:00:28Z,Reedsburg Municipal Airport,43.525902,-89.9832,US,US-WI
KC62,"Kendallville Muni, IN, US",2025-09-12T04:55:00Z,2025-09-12 04:55:00,VFR,15.3,10,0,0,0,NA,1023.5,METAR KC62 120455Z AUTO 00000KT 10SM CLR 15/10 A3022 RMK AO2 T01530100,2025-09-12T05:00:28Z,2025-09-12T01:00:28Z,Kendallville Municipal Airport,41.472698,-85.260803,US,US-IN
KC62,"Kendallville Muni, IN, US",2025-09-12T05:15:00Z,2025-09-12 05:15:00,VFR,15.7,10,0,0,0,NA,1023.8,METAR KC62 120515Z AUTO 00000KT 10SM CLR 15/10 A3023 RMK AO2 T01570100,2025-09-12T05:17:07Z,2025-09-12T01:17:07Z,Kendallville Municipal Airport,41.472698,-85.260803,US,US-IN
KC65,"Plymouth Muni, IN, US",2025-09-12T04:55:00Z,2025-09-12 00:55:00,VFR,14,13,0,0,0,NA,1022.8,METAR KC65 120455Z AUTO 00000KT 10SM CLR 14/13 A3020 RMK A01,2025-09-12T05:00:28Z,2025-09-12T01:00:28Z,Plymouth Municipal Airport,41.365101,-86.300499,US,US-IN
KC75,"Lacon/Marshall Cnty, IL, US",2025-09-12T04:55:00Z,2025-09-12 04:55:00,VFR,17,12.5,90,6,0,NA,1022.1,METAR KC75 120455Z AUTO 09006KT 10SM CLR 17/13 A3018 RMK AO2 T01700125,2025-09-12T05:00:28Z,2025-09-12T01:00:28Z,Marshall County Airport,41.018391,-89.385865,US,US-IL
KC83,"Byron Arpt, CA, US",2025-09-12T04:35:00Z,2025-09-12 04:35:00,VFR,19,14,240,18,24,NA,1014,METAR KC83 120435Z AUTO 24018G24KT 10SM FEW037 19/14 A2994 RMK AO2,2025-09-12T05:00:28Z,2025-09-12T01:00:28Z,Byron Airport,37.82647,-121.621699,US,US-CA
KC83,"Byron Arpt, CA, US",2025-09-12T04:55:00Z,2025-09-12 04:55:00,VFR,19,14,230,14,21,NA,1014,METAR KC83 120455Z AUTO 23014G21KT 10SM CLR 19/14 A2994 RMK AO2,2025-09-12T05:17:07Z,2025-09-12T01:17:07Z,Byron Airport,37.82647,-121.621699,US,US-CA
KCAD,"Cadillac/Wexford Cnty, MI, US",2025-09-12T04:55:00Z,2025-09-12 00:55:00,VFR,14,11,70,3,0,NA,1024.5,METAR KCAD 120455Z AUTO 07003KT 10SM CLR 14/11 A3025 RMK AO2,2025-09-12T05:00:28Z,2025-09-12T01:00:28Z,Wexford County Airport,44.275749,-85.421534,US,US-MI
KCAD,"Cadillac/Wexford Cnty, MI, US",2025-09-12T05:15:00Z,2025-09-12 01:15:00,VFR,11,10,10,3,0,NA,1024.5,METAR KCAD 120515Z AUTO 01003KT 10SM CLR 11/10 A3025 RMK AO2,2025-09-12T05:17:07Z,2025-09-12T01:17:07Z,Wexford County Airport,44.275749,-85.421534,US,US-MI
KCAE,"Columbia Metro, SC, US",2025-09-12T04:56:00Z,2025-09-12 00:56:00,VFR,22.2,18.3,120,4,0,NA,1019.7,METAR KCAE 120456Z 12004KT 10SM FEW045 22/18 A3011 RMK AO2 SLP193 T02220183 403060150,2025-09-12T05:00:28Z,2025-09-12T01:00:28Z,Columbia Metropolitan Airport,33.938801,-81.119499,US,US-SC
KCAG,"Craig-Moffat Arpt, CO, US",2025-09-12T04:53:00Z,2025-09-11 22:53:00,VFR,15.6,7.2,90,10,0,NA,1021.1,METAR KCAG 120453Z AUTO 09010KT 10SM CLR 16/07 A3015 RMK AO2 SLP141 T01560072,2025-09-12T05:00:28Z,2025-09-12T01:00:28Z,Craig Moffat Airport,40.4952011108,-107.522003174,US,US-CO
KCAK,"Akron/Canton Rgnl, OH, US",2025-09-12T04:51:00Z,2025-09-12 00:51:00,VFR,13.9,9.4,20,6,0,NA,1023.5,METAR KCAK 120451Z 02006KT 10SM CLR 14/09 A3022 RMK AO2 SLP228 T01390094 402610100,2025-09-12T05:00:28Z,2025-09-12T01:00:28Z,Akron Canton Regional Airport,40.91609954833984,-81.44219970703125,US,US-OH
KCAO,"Clayton Muni, NM, US",2025-09-12T04:55:00Z,2025-09-11 22:55:00,VFR,19.4,5.6,210,11,0,NA,1022.8,METAR KCAO 120455Z AUTO 21011KT 10SM CLR 19/06 A3020 RMK AO2 SLP155 T01940056,2025-09-12T05:00:28Z,2025-09-12T01:00:28Z,Clayton Municipal Airpark,36.4462013245,-103.166999817,US,US-NM
KCAR,"Caribou Muni, ME, US",2025-09-12T04:54:00Z,2025-09-12 00:54:00,VFR,8.3,4.4,310,4,0,NA,1020.4,METAR KCAR 120454Z AUTO 31004KT 10SM CLR 08/04 A3013 RMK AO2 SLP207 T00830044 402060061,2025-09-12T05:00:28Z,2025-09-12T01:00:28Z,Caribou Municipal Airport,46.871498,-68.017899,US,US-ME
KCAV,"Clarion Muni, IA, US",2025-09-12T04:55:00Z,2025-09-12 04:55:00,VFR,19,15,130,11,0,NA,1020.1,METAR KCAV 120455Z AUTO 13011KT 10SM CLR 19/15 A3012 RMK A01,2025-09-12T05:00:28Z,2025-09-12T01:00:28Z,Clarion Municipal Airport,42.741901,-93.758904,US,US-IA
KCBE,"Cumberland Arpt, MD, US",2025-09-12T04:45:00Z,2025-09-12 00:45:00,VFR,15.9,10.6,10,5,0,NA,1023.5,METAR KCBE 120445Z AUTO 01005KT 10SM CLR 16/11 A3022 RMK AO2 T01590106,2025-09-12T05:00:28Z,2025-09-12T01:00:28Z,Greater Cumberland Regional Airport,39.615398,-78.760902,US,US-WV
KCBE,"Cumberland Arpt, MD, US",2025-09-12T05:05:00Z,2025-09-12 01:05:00,VFR,14.9,10.5,30,5,0,NA,1023.5,METAR KCBE 120505Z AUTO 03005KT 10SM CLR 15/11 A3022 RMK AO2 T01490105,2025-09-12T05:17:07Z,2025-09-12T01:17:07Z,Greater Cumberland Regional Airport,39.615398,-78.760902,US,US-WV
KCBF,"Council Bluffs Muni, IA, US",2025-09-12T04:55:00Z,2025-09-11 23:55:00,VFR,22,19,140,7,0,NA,1017.4,METAR KCBF 120455Z AUTO 14007KT 10SM CLR 22/19 A3004 RMK AO2,2025-09-12T05:00:28Z,2025-09-12T01:00:28Z,Council Bluffs Municipal Airport,41.2592010498,-95.760597229,US,US-IA
KCBG,"Cambridge Muni, MN, US",2025-09-12T04:42:00Z,2025-09-12 04:42:00,NA,17,15,140,5,0,NA,1020.4,METAR KCBG 120442Z 14005KT 10SM 17/15 A3013 RMK AO2,2025-09-12T05:00:28Z,2025-09-12T01:00:28Z,Cambridge Municipal Airport,45.557499,-93.264198,US,US-MN
KCBG,"Cambridge Muni, MN, US",2025-09-12T05:03:00Z,2025-09-12 05:03:00,NA,17,15,140,5,0,NA,1020.1,METAR KCBG 120503Z 14005KT 10SM 17/15 A3012 RMK AO2,2025-09-12T05:17:07Z,2025-09-12T01:17:07Z,Cambridge Municipal Airport,45.557499,-93.264198,US,US-MN
KCBK,"Colby/Shaltz Fld, KS, US",2025-09-12T04:55:00Z,2025-09-11 23:55:00,VFR,24.4,11.1,240,6,0,NA,1016.7,METAR KCBK 120455Z AUTO 24006KT 10SM CLR 24/11 A3002 RMK AO2 T02440111,2025-09-12T05:00:28Z,2025-09-12T01:00:28Z,Shalz Field,39.42750168,-101.0469971,US,US-KS
KCCA,"Clinton Muni, AR, US",2025-09-12T04:55:00Z,2025-09-12 04:55:00,VFR,20,19,0,0,0,NA,1020.4,METAR KCCA 120455Z AUTO 00000KT 10SM CLR 20/19 A3013 RMK AO2,2025-09-12T05:00:28Z,2025-09-12T01:00:28Z,Clinton Municipal Airport,35.597801,-92.451599,US,US-AR
KCCA,"Clinton Muni, AR, US",2025-09-12T05:15:00Z,2025-09-12 05:15:00,VFR,19,19,0,0,0,NA,1020.1,METAR KCCA 120515Z AUTO 00000KT 10SM CLR 19/19 A3012 RMK AO2,2025-09-12T05:17:07Z,2025-09-12T01:17:07Z,Clinton Municipal Airport,35.597801,-92.451599,US,US-AR
KCCB,"Upland/Cable Arpt, CA, US",2025-09-12T04:35:00Z,2025-09-11 21:35:00,VFR,19,16,260,8,0,NA,1014,METAR KCCB 120435Z AUTO 26008KT 10SM CLR 19/16 A2994 RMK AO2,2025-09-12T05:00:28Z,2025-09-12T01:00:28Z,Upland-Cable Airport,34.111599,-117.688004,US,US-CA
KCCB,"Upland/Cable Arpt, CA, US",2025-09-12T04:55:00Z,2025-09-11 21:55:00,VFR,19,16,270,6,0,NA,1014,METAR KCCB 120455Z AUTO 27006KT 10SM CLR 19/16 A2994 RMK AO2,2025-09-12T05:17:07Z,2025-09-12T01:17:07Z,Upland-Cable Airport,34.111599,-117.688004,US,US-CA
KCCO,"Newnan/Coweta Cnty, GA, US",2025-09-12T04:55:00Z,2025-09-12 04:55:00,VFR,19.6,17.3,0,0,0,NA,1021.1,METAR KCCO 120455Z AUTO 00000KT 10SM CLR 20/17 A3015 RMK AO2 T01960173,2025-09-12T05:00:28Z,2025-09-12T01:00:28Z,Newnan Coweta County Airport,33.3116,-84.769798,US,US-GA
KCCO,"Newnan/Coweta Cnty, GA, US",2025-09-12T05:15:00Z,2025-09-12 05:15:00,VFR,19.8,17.3,0,0,0,NA,1021.1,METAR KCCO 120515Z AUTO 00000KT 10SM CLR 20/17 A3015 RMK AO2 T01980173,2025-09-12T05:17:07Z,2025-09-12T01:17:07Z,Newnan Coweta County Airport,33.3116,-84.769798,US,US-GA
KCCR,"Concord/Buchanan Fld, CA, US",2025-09-12T04:53:00Z,2025-09-11 21:53:00,VFR,18.9,14.4,180,11,0,NA,1014.3,METAR KCCR 120453Z 18011KT 10SM CLR 19/14 A2995 RMK AO2 SLP130 T01890144,2025-09-12T05:00:28Z,2025-09-12T01:00:28Z,Buchanan Field,37.9897,-122.056999,US,US-CA
KCCY,"Charles City/NE Iowa Rgnl, IA, US",2025-09-12T04:55:00Z,2025-09-11 23:55:00,VFR,17,16,120,7,0,NA,1021.1,METAR KCCY 120455Z AUTO 12007KT 10SM CLR 17/16 A3015 RMK AO2,2025-09-12T05:00:28Z,2025-09-12T01:00:28Z,Northeast Iowa Regional Airport,43.0726013184,-92.6108016968,US,US-IA
KCDC,"Cedar City Muni, UT, US",2025-09-12T04:53:00Z,2025-09-11 22:53:00,VFR,16.7,2.2,140,3,0,NA,1018.4,METAR KCDC 120453Z AUTO 14003KT 10SM CLR 17/02 A3007 RMK AO2 SLP111 T01670022,2025-09-12T05:00:28Z,2025-09-12T01:00:28Z,Cedar City Regional Airport,37.70100021362305,-113.0989990234375,US,US-UT
KCDH,"Camden/Harrell Fld, AR, US",2025-09-12T04:55:00Z,2025-09-11 23:55:00,VFR,21,20,0,0,0,7,1019,METAR KCDH 120455Z AUTO 00000KT 7SM CLR 21/20 A3009 RMK AO2,2025-09-12T05:00:28Z,2025-09-12T01:00:28Z,Harrell Field,33.622798919699996,-92.7633972168,US,US-AR
KCDH,"Camden/Harrell Fld, AR, US",2025-09-12T05:15:00Z,2025-09-12 00:15:00,VFR,21,20,0,0,0,NA,1019,METAR KCDH 120515Z AUTO 00000KT 10SM CLR 21/20 A3009 RMK AO2,2025-09-12T05:17:07Z,2025-09-12T01:17:07Z,Harrell Field,33.622798919699996,-92.7633972168,US,US-AR
KCDI,"Cambridg Muni, OH, US",2025-09-12T04:55:00Z,2025-09-12 04:55:00,VFR,10.3,10.1,0,0,0,NA,1023.1,METAR KCDI 120455Z AUTO 00000KT 10SM CLR 10/10 A3021 RMK AO2 T01030101 402730065,2025-09-12T05:00:28Z,2025-09-12T01:00:28Z,Cambridge Municipal Airport,39.974998,-81.577599,US,US-OH
KCDN,"Camden/Woodward Fld, SC, US",2025-09-12T04:55:00Z,2025-09-12 00:55:00,VFR,18,17,0,0,0,NA,1020.4,METAR KCDN 120455Z AUTO 00000KT 10SM CLR 18/17 A3013 RMK AO2,2025-09-12T05:00:28Z,2025-09-12T01:00:28Z,Woodward Field,34.2835998535,-80.56490325930001,US,US-SC
KCDR,"Chadron Muni, NE, US",2025-09-12T04:53:00Z,2025-09-11 22:53:00,VFR,20.6,12.2,140,11,0,NA,1013.6,METAR KCDR 120453Z AUTO 14011KT 10SM CLR 21/12 A2993 RMK AO2 SLP106 T02060122,2025-09-12T05:00:28Z,2025-09-12T01:00:28Z,Chadron Municipal Airport,42.837601,-103.095001,US,US-NE
KCDS,"Childress Muni, TX, US",2025-09-12T04:53:00Z,2025-09-11 23:53:00,VFR,23.3,12.8,150,7,0,NA,1019.4,METAR KCDS 120453Z AUTO 15007KT 10SM CLR 23/13 A3010 RMK AO2 SLP164 T02330128,2025-09-12T05:00:28Z,2025-09-12T01:00:28Z,Childress Municipal Airport,34.4337997437,-100.288002014,US,US-TX
KCDW,"Caldwell/Essex Cnty, NJ, US",2025-09-12T04:53:00Z,2025-09-12 00:53:00,VFR,15.6,12.8,0,0,0,NA,1021.1,METAR KCDW 120453Z AUTO 00000KT 10SM CLR 16/13 A3015 RMK AO2 SLP214 T01560128 402670128,2025-09-12T05:00:28Z,2025-09-12T01:00:28Z,Essex County Airport,40.875198364300005,-74.2814025879,US,US-NJ
KCEC,"Crescent City/McNama, CA, US",2025-09-12T04:56:00Z,2025-09-11 21:56:00,IFR,15,13.3,150,5,0,NA,1018.4,METAR KCEC 120456Z AUTO 15005KT 10SM OVC006 15/13 A3007 RMK AO2 SLP182 T01500133,2025-09-12T05:00:28Z,2025-09-12T01:00:28Z,Jack Mc Namara Field Airport,41.778929,-124.236403,US,US-CA
KCEU,"Clemson/Oconee Cnty, SC, US",2025-09-12T04:54:00Z,2025-09-12 00:54:00,VFR,18.9,17.2,0,0,0,NA,1021.1,METAR KCEU 120454Z AUTO 00000KT 10SM SCT060 19/17 A3015 RMK AO2 SLP199 T01890172 402830150,2025-09-12T05:00:28Z,2025-09-12T01:00:28Z,Oconee County Regional Airport,34.6719017,-82.8864975,US,US-SC
KCEW,"Crestview/Sikes Arpt, FL, US",2025-09-12T04:53:00Z,2025-09-11 23:53:00,VFR,18.9,16.7,0,0,0,NA,1019.4,METAR KCEW 120453Z AUTO 00000KT 10SM CLR 19/17 A3010 RMK AO2 SLP189 T01890167,2025-09-12T05:00:28Z,2025-09-12T01:00:28Z,Bob Sikes Airport,30.778799057,-86.522102356,US,US-FL
KCEY,"Murray/Oakley Fld, KY, US",2025-09-12T04:35:00Z,2025-09-11 23:35:00,VFR,21,17,80,4,0,NA,1020.4,METAR KCEY 120435Z AUTO 08004KT 10SM CLR 21/17 A3013 RMK A01,2025-09-12T05:00:28Z,2025-09-12T01:00:28Z,Murray-Calloway County Airport Kyle-Oakley Field,36.6646,-88.372803,US,US-KY
KCEY,"Murray/Oakley Fld, KY, US",2025-09-12T04:55:00Z,2025-09-11 23:55:00,VFR,21,17,90,5,0,NA,1020.4,METAR KCEY 120455Z AUTO 09005KT 10SM CLR 21/17 A3013 RMK A01,2025-09-12T05:17:07Z,2025-09-12T01:17:07Z,Murray-Calloway County Airport Kyle-Oakley Field,36.6646,-88.372803,US,US-KY
KCEZ,"Cortez/Montezuma Cnt, CO, US",2025-09-12T04:53:00Z,2025-09-11 22:53:00,VFR,18.9,9.4,130,13,20,NA,1022.1,METAR KCEZ 120453Z AUTO 13013G20KT 10SM CLR 19/09 A3018 RMK AO2 SLP138 T01890094,2025-09-12T05:00:28Z,2025-09-12T01:00:28Z,Cortez Municipal Airport,37.303001,-108.627998,US,US-CO
KCFD,"Bryan/Coulter Fld, TX, US",2025-09-12T04:55:00Z,2025-09-11 23:55:00,VFR,24.3,21.1,170,4,0,NA,1020.1,METAR KCFD 120455Z AUTO 17004KT 10SM CLR 24/21 A3012 RMK AO2 T02430211,2025-09-12T05:00:28Z,2025-09-12T01:00:28Z,Coulter Field,30.7157001495,-96.3313980103,US,US-TX
KCFE,"Buffalo Muni, MN, US",2025-09-12T04:55:00Z,2025-09-12 04:55:00,VFR,18,17,130,6,0,NA,1019.4,METAR KCFE 120455Z AUTO 13006KT 10SM FEW027 SCT033 OVC060 18/17 A3010 RMK AO2,2025-09-12T05:00:28Z,2025-09-12T01:00:28Z,Buffalo Municipal Airport,45.159,-93.8433,US,US-MN
KCFE,"Buffalo Muni, MN, US",2025-09-12T05:15:00Z,2025-09-12 05:15:00,MVFR,18,17,130,6,0,NA,1019.4,METAR KCFE 120515Z AUTO 13006KT 10SM BKN025 BKN033 OVC055 18/17 A3010 RMK AO2,2025-09-12T05:17:07Z,2025-09-12T01:17:07Z,Buffalo Municipal Airport,45.159,-93.8433,US,US-MN
KCFJ,"Crawfordsville Muni, IN, US",2025-09-12T04:55:00Z,2025-09-12 04:55:00,VFR,12.8,9.1,50,4,0,NA,1022.4,METAR KCFJ 120455Z AUTO 05004KT 10SM CLR 13/09 A3019 RMK AO2 T01280091 402740100,2025-09-12T05:00:28Z,2025-09-12T01:00:28Z,Crawfordsville Regional Airport,39.975602,-86.919899,US,US-IN
KCFJ,"Crawfordsville Muni, IN, US",2025-09-12T05:15:00Z,2025-09-12 05:15:00,VFR,11.9,9.1,90,3,0,NA,1022.4,METAR KCFJ 120515Z AUTO 09003KT 10SM CLR 12/09 A3019 RMK AO2 T01190091,2025-09-12T05:17:07Z,2025-09-12T01:17:07Z,Crawfordsville Regional Airport,39.975602,-86.919899,US,US-IN
KCFS,"Tuscola Area Arpt, MI, US",2025-09-12T04:55:00Z,2025-09-12 00:55:00,VFR,10,10,40,2,0,NA,1024.1,METAR KCFS 120455Z AUTO 04002KT 10SM CLR 10/10 A3024 RMK AO2,2025-09-12T05:00:28Z,2025-09-12T01:00:28Z,Tuscola Area Airport,43.458801,-83.445503,US,US-MI
KCFV,"Coffeyville Muni, KS, US",2025-09-12T04:52:00Z,2025-09-11 23:52:00,VFR,21.1,17.2,0,0,0,NA,1018.7,METAR KCFV 120452Z AUTO 00000KT 10SM CLR 21/17 A3008 RMK AO2 SLP177 T02110172,2025-09-12T05:00:28Z,2025-09-12T01:00:28Z,Coffeyville Municipal Airport,37.09400177,-95.5718994141,US,US-KS
KCGC,"Crystal River Arpt, FL, US",2025-09-12T04:55:00Z,2025-09-12 04:55:00,VFR,NA,NA,0,0,0,NA,1017.4,METAR KCGC 120455Z AUTO 00000KT 10SM CLR A3004 RMK AO2 LTG DSNT S,2025-09-12T05:00:28Z,2025-09-12T01:00:28Z,Crystal River Airport,28.867246,-82.571009,US,US-FL
KCGC,"Crystal River Arpt, FL, US",2025-09-12T05:15:00Z,2025-09-12 05:15:00,VFR,NA,NA,0,0,0,NA,1017.4,METAR KCGC 120515Z AUTO 00000KT 10SM CLR A3004 RMK AO2 LTG DSNT S,2025-09-12T05:17:07Z,2025-09-12T01:17:07Z,Crystal River Airport,28.867246,-82.571009,US,US-FL
KCGE,"Cambridge/Dorchester Rgnl, MD, US",2025-09-12T04:45:00Z,2025-09-12 00:45:00,VFR,15,16,0,0,0,NA,1020.4,METAR KCGE 120445Z AUTO 00000KT 10SM CLR 15/16 A3013 RMK A01,2025-09-12T05:00:28Z,2025-09-12T01:00:28Z,Cambridge Dorchester Airport,38.53929901,-76.03040314,US,US-MD
KCGE,"Cambridge/Dorchester Rgnl, MD, US",2025-09-12T05:05:00Z,2025-09-12 01:05:00,VFR,15,15,0,0,0,NA,1020.4,METAR KCGE 120505Z AUTO 00000KT 10SM CLR 15/15 A3013 RMK A01,2025-09-12T05:17:07Z,2025-09-12T01:17:07Z,Cambridge Dorchester Airport,38.53929901,-76.03040314,US,US-MD
KCGF,"Cleveland/Cuyahoga Cnty, OH, US",2025-09-12T04:55:00Z,2025-09-12 00:55:00,MVFR,10.6,NA,0,0,0,3,1023.8,METAR KCGF 120455Z AUTO 00000KT 3SM BR CLR 11/ A3023 RMK AO2 T0106////,2025-09-12T05:00:28Z,2025-09-12T01:00:28Z,Cuyahoga County Airport,41.5651016235,-81.4863967896,US,US-OH
KCGI,"Cape Girardeau Rgnl, MO, US",2025-09-12T04:53:00Z,2025-09-11 23:53:00,VFR,18.9,17.2,80,4,0,NA,1019.4,METAR KCGI 120453Z AUTO 08004KT 10SM OVC090 19/17 A3010 RMK AO2 SLP190 T01890172,2025-09-12T05:00:28Z,2025-09-12T01:00:28Z,Cape Girardeau Regional Airport,37.2253,-89.570801,US,US-MO
KCGS,"College Park Arpt, MD, US",2025-09-12T04:45:00Z,2025-09-12 00:45:00,VFR,16.1,15.6,0,0,0,NA,1021.1,METAR KCGS 120445Z AUTO 00000KT 10SM CLR 16/16 A3015 RMK AO2 T01610156,2025-09-12T05:00:28Z,2025-09-12T01:00:28Z,College Park Airport,38.9805984497,-76.9223022461,US,US-MD
KCGS,"College Park Arpt, MD, US",2025-09-12T05:05:00Z,2025-09-12 01:05:00,VFR,15.8,15.3,0,0,0,NA,1021.1,METAR KCGS 120505Z AUTO 00000KT 10SM CLR 16/15 A3015 RMK AO2 T01580153,2025-09-12T05:17:07Z,2025-09-12T01:17:07Z,College Park Airport,38.9805984497,-76.9223022461,US,US-MD
KCGZ,"Casa Granda Muni, AZ, US",2025-09-12T04:56:00Z,2025-09-11 21:56:00,VFR,31.1,16.1,190,5,0,NA,1011.6,METAR KCGZ 120456Z AUTO 19005KT 10SM CLR 31/16 A2987 RMK AO2 SLP096 T03110161 $,2025-09-12T05:00:28Z,2025-09-12T01:00:28Z,Casa Grande Municipal Airport,32.954899,-111.766998,US,US-AZ
KCHA,"Chattanooga Metro, TN, US",2025-09-12T04:53:00Z,2025-09-12 00:53:00,VFR,19.4,17.2,190,3,0,NA,1021.1,METAR KCHA 120453Z AUTO 19003KT 10SM CLR 19/17 A3015 RMK AO2 SLP201 T01940172 403110167 $,2025-09-12T05:00:28Z,2025-09-12T01:00:28Z,Chattanooga Metropolitan Airport (Lovell Field),35.035301,-85.203796,US,US-TN
KCHD,"Chandler Muni, AZ, US",2025-09-12T04:55:00Z,2025-09-12 04:55:00,VFR,30.4,16.3,110,6,0,NA,1010.9,METAR KCHD 120455Z AUTO 11006KT 10SM CLR 30/16 A2985 RMK AO2 T03040163,2025-09-12T05:00:28Z,2025-09-12T01:00:28Z,Chandler Municipal Airport,33.2691,-111.810997,US,US-AZ
KCHK,"Chickasha Muni, OK, US",2025-09-12T04:35:00Z,2025-09-11 23:35:00,VFR,22.2,16.2,130,5,0,NA,1018,METAR KCHK 120435Z AUTO 13005KT 10SM CLR 22/16 A3006 RMK AO2 T02220162,2025-09-12T05:00:28Z,2025-09-12T01:00:28Z,Chickasha Municipal Airport,35.09740067,-97.96769714,US,US-OK
KCHK,"Chickasha Muni, OK, US",2025-09-12T04:55:00Z,2025-09-11 23:55:00,VFR,21.8,16.2,130,5,0,NA,1018,METAR KCHK 120455Z AUTO 13005KT 10SM CLR 22/16 A3006 RMK AO2 T02180162,2025-09-12T05:17:07Z,2025-09-12T01:17:07Z,Chickasha Municipal Airport,35.09740067,-97.96769714,US,US-OK
KCHO,"Charlottesville/Albemarle Arpt, VA, US",2025-09-12T04:53:00Z,2025-09-12 00:53:00,VFR,15.6,12.8,0,0,0,NA,1021.8,METAR KCHO 120453Z AUTO 00000KT 10SM CLR 16/13 A3017 RMK AO2 SLP210 T01560128 402830122,2025-09-12T05:00:28Z,2025-09-12T01:00:28Z,Charlottesville Albemarle Airport,38.13859939575195,-78.4529037475586,US,US-VA
KCHS,"Charleston Intl, SC, US",2025-09-12T04:56:00Z,2025-09-12 00:56:00,VFR,20.6,19.4,0,0,0,NA,1019,METAR KCHS 120456Z 00000KT 10SM SCT025 SCT250 21/19 A3009 RMK AO2 SLP188 T02060194 402720189,2025-09-12T05:00:28Z,2025-09-12T01:00:28Z,Charleston International Airport,32.898602,-80.040497,US,US-SC
KCID,"Cedar Rapids/E Iowa Arpt, IA, US",2025-09-12T04:52:00Z,2025-09-11 23:52:00,VFR,16.7,13.3,110,6,0,NA,1020.7,METAR KCID 120452Z AUTO 11006KT 10SM CLR 17/13 A3014 RMK AO2 SLP203 T01670133,2025-09-12T05:00:28Z,2025-09-12T01:00:28Z,The Eastern Iowa Airport,41.884701,-91.7108,US,US-IA
KCIN,"Carroll/Neu Arpt, IA, US",2025-09-12T04:55:00Z,2025-09-11 23:55:00,VFR,19,18,130,3,0,NA,1019,METAR KCIN 120455Z AUTO 13003KT 10SM CLR 19/18 A3009 RMK AO2,2025-09-12T05:00:28Z,2025-09-12T01:00:28Z,Arthur N Neu Airport,42.0461997986,-94.7890014648,US,US-IA
KCIR,"Cairo Rgnl, IL, US",2025-09-12T04:55:00Z,2025-09-11 23:55:00,VFR,18.7,17.3,0,0,0,NA,1020.1,METAR KCIR 120455Z AUTO 00000KT 10SM CLR 19/17 A3012 RMK AO2 T01870173,2025-09-12T05:00:28Z,2025-09-12T01:00:28Z,Cairo Regional Airport,37.064499,-89.219597,US,US-IL
KCIU,"Chippewa Cnty Intl, MI, US",2025-09-12T04:56:00Z,2025-09-12 00:56:00,MVFR,12.2,11.7,0,0,0,4,1025.1,METAR KCIU 120456Z AUTO 00000KT 4SM BR FEW002 12/12 A3027 RMK AO2 SLP250 T01220117 402000122,2025-09-12T05:00:28Z,2025-09-12T01:00:28Z,Chippewa County International Airport,46.247707,-84.471379,US,US-MI
KCIU,"Chippewa Cnty Intl, MI, US",2025-09-12T05:12:00Z,2025-09-12 01:12:00,LIFR,12,12,0,0,0,8,1025.1,SPECI KCIU 120512Z AUTO 00000KT 8SM BKN002 12/12 A3027 RMK AO2,2025-09-12T05:17:07Z,2025-09-12T01:17:07Z,Chippewa County International Airport,46.247707,-84.471379,US,US-MI
KCJR,"Culpeper Rgnl, VA, US",2025-09-12T04:55:00Z,2025-09-12 04:55:00,VFR,16.1,14.4,0,0,0,NA,1021.8,METAR KCJR 120455Z AUTO 00000KT 10SM CLR 16/14 A3017 RMK AO2 T01610144 402870137,2025-09-12T05:00:28Z,2025-09-12T01:00:28Z,Culpeper Regional Airport,38.526699,-77.858902,US,US-VA
KCKB,"Clarksburg/NC West Virginia Arpt, WV, US",2025-09-12T04:53:00Z,2025-09-12 00:53:00,VFR,13.9,11.1,0,0,0,NA,1022.4,METAR KCKB 120453Z AUTO 00000KT 10SM CLR 14/11 A3019 RMK AO2 SLP212 T01390111 402720100,2025-09-12T05:00:28Z,2025-09-12T01:00:28Z,North Central West Virginia Airport,39.2966,-80.228104,US,US-WV
KCKC,"Grand Marais Muni, MN, US",2025-09-12T04:53:00Z,2025-09-11 23:53:00,VFR,11,11,0,0,0,NA,1023.1,METAR KCKC 120453Z 00000KT 10SM CLR 11/11 A3021 RMK AO2,2025-09-12T05:00:28Z,2025-09-12T01:00:28Z,Grand Marais Cook County Airport,47.8382987976,-90.3828964233,US,US-MN
KCKF,"Cordele/Crisp Cnty, GA, US",2025-09-12T04:35:00Z,2025-09-12 04:35:00,VFR,18.4,18,0,0,0,NA,1019.7,METAR KCKF 120435Z AUTO 00000KT 10SM CLR 18/18 A3011 RMK AO2 T01840180,2025-09-12T05:00:28Z,2025-09-12T01:00:28Z,Crisp County Cordele Airport,31.9888,-83.773903,US,US-GA
KCKF,"Cordele/Crisp Cnty, GA, US",2025-09-12T04:55:00Z,2025-09-12 04:55:00,VFR,18,17.5,0,0,0,NA,1019.7,METAR KCKF 120455Z AUTO 00000KT 10SM CLR 18/18 A3011 RMK AO2 T01800175,2025-09-12T05:17:07Z,2025-09-12T01:17:07Z,Crisp County Cordele Airport,31.9888,-83.773903,US,US-GA
KCKI,"Kingstree/Williamsburg Rgnl, SC, US",2025-09-12T04:55:00Z,2025-09-12 04:55:00,VFR,17,16,0,0,0,NA,1019.7,METAR KCKI 120455Z AUTO 00000KT 10SM SCT065 SCT075 17/16 A3011 RMK AO2,2025-09-12T05:00:28Z,2025-09-12T01:00:28Z,Williamsburg Regional Airport,33.717201,-79.857002,US,US-SC
KCKM,"Clarksdale/Fletcher Fld, MS, US",2025-09-12T04:55:00Z,2025-09-11 23:55:00,NA,NA,NA,0,0,0,NA,1019.4,METAR KCKM 120455Z AUTO 00000KT 10SM A3010 RMK A01,2025-09-12T05:00:28Z,2025-09-12T01:00:28Z,Fletcher Field,34.2997016907,-90.512298584,US,US-MS
KCKM,"Clarksdale/Fletcher Fld, MS, US",2025-09-12T05:15:00Z,2025-09-12 00:15:00,NA,NA,NA,0,0,0,NA,1019.4,METAR KCKM 120515Z AUTO 00000KT 10SM A3010 RMK A01,2025-09-12T05:17:07Z,2025-09-12T01:17:07Z,Fletcher Field,34.2997016907,-90.512298584,US,US-MS
KCKN,"Crookston Muni, MN, US",2025-09-12T04:55:00Z,2025-09-11 23:55:00,VFR,18,16,150,9,0,NA,1015.7,METAR KCKN 120455Z AUTO 15009KT 10SM CLR 18/16 A2999 RMK AO2 LTG DSNT N,2025-09-12T05:00:28Z,2025-09-12T01:00:28Z,Crookston Municipal Kirkwood Field,47.8417015076,-96.62159729,US,US-MN
KCKP,"Cherokee Cnty, IA, US",2025-09-12T04:55:00Z,2025-09-12 04:55:00,VFR,20,17,210,1,0,NA,1018,METAR KCKP 120455Z AUTO 21001KT 10SM CLR 20/17 A3006 RMK AO2 402980147,2025-09-12T05:00:28Z,2025-09-12T01:00:28Z,Cherokee County Regional Airport,42.7317009,-95.55590057,US,US-IA
KCKV,"Clarksville/Outlaw Fld, TN, US",2025-09-12T04:52:00Z,2025-09-11 23:52:00,VFR,21.7,14.4,0,0,0,NA,1020.4,METAR KCKV 120452Z AUTO 00000KT 10SM CLR 22/14 A3013 RMK AO2 SLP197 T02170144,2025-09-12T05:00:28Z,2025-09-12T01:00:28Z,Clarksville–Montgomery County Regional Airport,36.6218986511,-87.4150009155,US,US-TN
KCKZ,"Perkasie/Pennridge Arpt, PA, US",2025-09-12T04:55:00Z,2025-09-12 04:55:00,VFR,12,12,0,0,0,NA,1021.4,METAR KCKZ 120455Z AUTO 00000KT 10SM CLR 12/12 A3016 RMK AO2,2025-09-12T05:00:28Z,2025-09-12T01:00:28Z,Pennridge Airport,40.389198303222656,-75.290496826171875,US,US-PA
KCLE,"Cleveland/Hopkins Intl, OH, US",2025-09-12T04:51:00Z,2025-09-12 00:51:00,VFR,12.2,10.6,0,0,0,NA,1022.8,METAR KCLE 120451Z 00000KT 10SM CLR 12/11 A3020 RMK AO2 SLP241 T01220106 402390094 $,2025-09-12T05:00:28Z,2025-09-12T01:00:28Z,Cleveland Hopkins International Airport,41.411701,-81.8498,US,US-OH
KCLI,"Clintonville Muni, WI, US",2025-09-12T04:55:00Z,2025-09-11 23:55:00,LIFR,11.4,11.3,0,0,0,0.25,1024.8,METAR KCLI 120455Z AUTO 00000KT 1/4SM FG OVC002 11/11 A3026 RMK AO2 T01140113,2025-09-12T05:00:28Z,2025-09-12T01:00:28Z,Clintonville Municipal Airport,44.613800048799995,-88.731300354,US,US-WI
KCLK,"Clinton Rgnl, OK, US",2025-09-12T04:35:00Z,2025-09-11 23:35:00,VFR,22,13,170,7,0,NA,1019.4,METAR KCLK 120435Z AUTO 17007KT 10SM CLR 22/13 A3010 RMK AO2,2025-09-12T05:00:28Z,2025-09-12T01:00:28Z,Clinton Regional Airport,35.5383,-98.932701,US,US-OK
KCLK,"Clinton Rgnl, OK, US",2025-09-12T04:55:00Z,2025-09-11 23:55:00,VFR,21,13,160,7,0,NA,1019.4,METAR KCLK 120455Z AUTO 16007KT 10SM CLR 21/13 A3010 RMK AO2,2025-09-12T05:17:07Z,2025-09-12T01:17:07Z,Clinton Regional Airport,35.5383,-98.932701,US,US-OK
KCLL,"College Station/Easterwood Arpt, TX, US",2025-09-12T04:53:00Z,2025-09-11 23:53:00,VFR,25.6,21.1,160,3,0,NA,1019,METAR KCLL 120453Z AUTO 16003KT 10SM CLR 26/21 A3009 RMK AO2 SLP184 T02560211,2025-09-12T05:00:28Z,2025-09-12T01:00:28Z,Easterwood Field,30.5886,-96.3638,US,US-TX
KCLM,"Port Angeles Intl, WA, US",2025-09-12T04:53:00Z,2025-09-11 21:53:00,LIFR,12.2,11.7,260,5,0,NA,1018,METAR KCLM 120453Z AUTO 26005KT 10SM OVC003 12/12 A3006 RMK AO2 SLP182 T01220117,2025-09-12T05:00:28Z,2025-09-12T01:00:28Z,William R Fairchild International Airport,48.120201,-123.5,US,US-WA
KCLS,"Chehalis-Centralia Arpt, WA, US",2025-09-12T04:55:00Z,2025-09-11 21:55:00,MVFR,16,14,0,0,0,NA,1018.7,METAR KCLS 120455Z AUTO 00000KT 10SM OVC024 16/14 A3008 RMK AO2,2025-09-12T05:00:28Z,2025-09-12T01:00:28Z,Chehalis Centralia Airport,46.676998,-122.983002,US,US-WA
KCLS,"Chehalis-Centralia Arpt, WA, US",2025-09-12T05:15:00Z,2025-09-11 22:15:00,MVFR,16,14,0,0,0,NA,1018.7,METAR KCLS 120515Z AUTO 00000KT 10SM OVC023 16/14 A3008 RMK AO2,2025-09-12T05:17:07Z,2025-09-12T01:17:07Z,Chehalis Centralia Airport,46.676998,-122.983002,US,US-WA
KCLT,"Charlotte/Douglas Intl, NC, US",2025-09-12T04:52:00Z,2025-09-12 00:52:00,VFR,17.2,14.4,0,0,0,NA,1020.7,METAR KCLT 120452Z 00000KT 10SM FEW060 17/14 A3014 RMK AO2 SLP215 T01720144 402890150,2025-09-12T05:00:28Z,2025-09-12T01:00:28Z,Charlotte Douglas International Airport,35.2140007019043,-80.94309997558594,US,US-NC
KCLW,"Clearwater Air Park, FL, US",2025-09-12T04:55:00Z,2025-09-12 00:55:00,VFR,25,20,40,4,0,NA,1016.7,METAR KCLW 120455Z AUTO 04004KT 10SM SCT120 25/20 A3002 RMK AO2,2025-09-12T05:00:28Z,2025-09-12T01:00:28Z,Clearwater Air Park,27.9766998291,-82.7586975098,US,US-FL
KCMA,"Camarillo Arpt, CA, US",2025-09-12T04:55:00Z,2025-09-12 04:55:00,VFR,18.9,16.1,130,4,0,NA,1013,METAR KCMA 120455Z AUTO 13004KT 10SM CLR 19/16 A2991 RMK AO2 SLP138 T01890161,2025-09-12T05:00:28Z,2025-09-12T01:00:28Z,Camarillo International Airport,34.213699,-119.094002,US,US-CA
KCMD,"Culman Rgnl, AL, US",2025-09-12T04:55:00Z,2025-09-12 04:55:00,VFR,18,18,50,4,0,8,1021.1,METAR KCMD 120455Z AUTO 05004KT 8SM CLR 18/18 A3015 RMK AO2,2025-09-12T05:00:28Z,2025-09-12T01:00:28Z,Cullman Regional Airport-Folsom Field,34.2687,-86.858002,US,US-AL
KCMH,"Columbus/Glenn Intl, OH, US",2025-09-12T04:51:00Z,2025-09-12 00:51:00,VFR,17.2,8.3,0,0,0,NA,1022.8,METAR KCMH 120451Z 00000KT 10SM CLR 17/08 A3020 RMK AO2 SLP221 T01720083 402890122,2025-09-12T05:00:28Z,2025-09-12T01:00:28Z,John Glenn Columbus International Airport,39.998001,-82.891899,US,US-OH
KCMI,"Champaign/Willard Arpt, IL, US",2025-09-12T04:53:00Z,2025-09-11 23:53:00,VFR,17.8,12.8,70,5,0,NA,1022.1,METAR KCMI 120453Z AUTO 07005KT 10SM CLR 18/13 A3018 RMK AO2 SLP213 T01780128,2025-09-12T05:00:28Z,2025-09-12T01:00:28Z,University of Illinois Willard Airport,40.039819,-88.276249000000007,US,US-IL
KCMR,"Williams/Clark Fld, AZ, US",2025-09-12T04:55:00Z,2025-09-12 04:55:00,VFR,18,10,190,13,20,NA,1022.4,METAR KCMR 120455Z AUTO 19013G20KT 10SM CLR 18/10 A3019 RMK AO2,2025-09-12T05:00:28Z,2025-09-12T01:00:28Z,H.A. Clark Memorial Field,35.305555,-112.194393,US,US-AZ
KCMR,"Williams/Clark Fld, AZ, US",2025-09-12T05:15:00Z,2025-09-12 05:15:00,VFR,18,10,190,13,0,NA,1022.4,METAR KCMR 120515Z AUTO 19013KT 10SM CLR 18/10 A3019 RMK AO2,2025-09-12T05:17:07Z,2025-09-12T01:17:07Z,H.A. Clark Memorial Field,35.305555,-112.194393,US,US-AZ
KCMX,"Houghton Cnty Mem, MI, US",2025-09-12T04:53:00Z,2025-09-12 00:53:00,LIFR,12.8,12.2,90,5,0,0.25,1023.5,METAR KCMX 120453Z AUTO 09005KT 1/4SM FG VV001 13/12 A3022 RMK AO2 SLP237 T01280122 401830122,2025-09-12T05:00:28Z,2025-09-12T01:00:28Z,Houghton County Memorial Airport,47.168399810791016,-88.48909759521484,US,US-MI
KCNB,"Canby Muni, MN, US",2025-09-12T04:55:00Z,2025-09-12 04:55:00,VFR,17.8,16.8,110,5,0,NA,1017.4,METAR KCNB 120455Z AUTO 11005KT 10SM CLR 18/17 A3004 RMK AO2 T01780168,2025-09-12T05:00:28Z,2025-09-12T01:00:28Z,Myers Field Airport,44.7295,-96.265999,US,US-MN
KCNB,"Canby Muni, MN, US",2025-09-12T05:15:00Z,2025-09-12 05:15:00,VFR,17.5,16.5,120,4,0,NA,1017.4,METAR KCNB 120515Z AUTO 12004KT 10SM CLR 18/17 A3004 RMK AO2 T01750165,2025-09-12T05:17:07Z,2025-09-12T01:17:07Z,Myers Field Airport,44.7295,-96.265999,US,US-MN
KCNC,"Chariton Muni, IA, US",2025-09-12T04:55:00Z,2025-09-12 04:55:00,VFR,21,16,130,6,0,NA,1019.4,METAR KCNC 120455Z AUTO 13006KT 10SM CLR 21/16 A3010 RMK AO2,2025-09-12T05:00:30Z,2025-09-12T01:00:30Z,Chariton Municipal Airport,41.01959991455078,-93.35970306396484,US,US-IA
KCNK,"Concordia/Blosser Muni, KS, US",2025-09-12T04:55:00Z,2025-09-11 23:55:00,VFR,23.3,18.9,150,11,0,NA,1016.3,METAR KCNK 120455Z AUTO 15011KT 10SM CLR 23/19 A3001 RMK AO2 SLP144 T02330189,2025-09-12T05:00:30Z,2025-09-12T01:00:30Z,Blosser Municipal Airport,39.5493011475,-97.6522979736,US,US-KS
KCNM,"Carlsbad/Cavern City Air Term, NM, US",2025-09-12T04:53:00Z,2025-09-11 22:53:00,VFR,26.7,12.2,150,13,22,NA,1021.1,METAR KCNM 120453Z AUTO 15013G22KT 10SM CLR 27/12 A3015 RMK AO2 SLP149 T02670122,2025-09-12T05:00:31Z,2025-09-12T01:00:31Z,Cavern City Air Terminal,32.337501525878906,-104.26300048828124,US,US-NM
KCNO,"Chino Arpt, CA, US",2025-09-12T04:53:00Z,2025-09-11 21:53:00,VFR,18.9,15,240,7,0,NA,1014,METAR KCNO 120453Z AUTO 24007KT 10SM CLR 19/15 A2994 RMK AO2 SLP133 T01890150,2025-09-12T05:00:31Z,2025-09-12T01:00:31Z,Chino Airport,33.97470093,-117.637001,US,US-CA
KCNU,"Chanute/Johnson Arpt, KS, US",2025-09-12T04:52:00Z,2025-09-11 23:52:00,VFR,20,17.2,160,4,0,NA,1019,METAR KCNU 120452Z AUTO 16004KT 10SM CLR 20/17 A3009 RMK AO2 SLP180 T02000172,2025-09-12T05:00:31Z,2025-09-12T01:00:31Z,Chanute Martin Johnson Airport,37.668173,-95.486727,US,US-KS
KCNY,"Moab/Canyonland Fld, UT, US",2025-09-12T04:53:00Z,2025-09-11 22:53:00,VFR,25,8.9,130,11,22,NA,1014.3,METAR KCNY 120453Z AUTO 13011G22KT 10SM CLR 25/09 A2995 RMK AO2 SLP076 T02500089 $,2025-09-12T05:00:30Z,2025-09-12T01:00:30Z,Canyonlands Regional Airport,38.755001,-109.754997,US,US-UT
KCNY,"Moab/Canyonland Fld, UT, US",2025-09-12T05:01:00Z,2025-09-11 23:01:00,VFR,25,8.3,130,9,0,NA,1014.3,SPECI KCNY 120501Z AUTO 13009KT 10SM TS CLR 25/08 A2995 RMK AO2 TSB0455 T02500083 $,2025-09-12T05:17:09Z,2025-09-12T01:17:09Z,Canyonlands Regional Airport,38.755001,-109.754997,US,US-UT
KCOD,"Cody/Yellowstone Rgnl, WY, US",2025-09-12T04:56:00Z,2025-09-11 22:56:00,VFR,14.4,7.8,190,5,0,NA,1019.4,METAR KCOD 120456Z AUTO 19005KT 10SM CLR 14/08 A3010 RMK AO2 SLP151 T01440078,2025-09-12T05:00:30Z,2025-09-12T01:00:30Z,Yellowstone Regional Airport,44.520199,-109.024002,US,US-WY
KCOE,"Coeur DAlene Arpt, ID, US",2025-09-12T04:56:00Z,2025-09-11 21:56:00,VFR,22.8,10,200,7,0,NA,1014,METAR KCOE 120456Z AUTO 20007KT 10SM BKN095 BKN120 23/10 A2994 RMK AO2 SLP137 T02280100,2025-09-12T05:00:30Z,2025-09-12T01:00:30Z,Coeur D'Alene Airport - Pappy Boyington Field,47.7743,-116.82,US,US-ID
KCOI,"Cocoa/Merritt Isl Arpt, FL, US",2025-09-12T04:35:00Z,2025-09-12 00:35:00,VFR,27,24,310,8,0,NA,1016,METAR KCOI 120435Z AUTO 31008KT 10SM FEW120 27/24 A3000 RMK AO2,2025-09-12T05:00:31Z,2025-09-12T01:00:31Z,Merritt Island Airport,28.341600418099997,-80.6855010986,US,US-FL
KCOI,"Cocoa/Merritt Isl Arpt, FL, US",2025-09-12T04:55:00Z,2025-09-12 00:55:00,VFR,27,24,310,8,0,NA,1015.7,METAR KCOI 120455Z AUTO 31008KT 10SM BKN110 27/24 A2999 RMK AO2,2025-09-12T05:17:09Z,2025-09-12T01:17:09Z,Merritt Island Airport,28.341600418099997,-80.6855010986,US,US-FL
KCOM,"Coleman Muni, TX, US",2025-09-12T04:35:00Z,2025-09-11 23:35:00,VFR,23.9,13,0,0,0,NA,1020.7,METAR KCOM 120435Z AUTO 00000KT 10SM CLR 24/13 A3014 RMK AO2 T02390130 PWINO,2025-09-12T05:00:31Z,2025-09-12T01:00:31Z,Coleman Municipal Airport,31.841100692699996,-99.4036026001,US,US-TX
KCOM,"Coleman Muni, TX, US",2025-09-12T04:55:00Z,2025-09-11 23:55:00,VFR,23.8,13,0,0,0,NA,1020.7,METAR KCOM 120455Z AUTO 00000KT 10SM CLR 24/13 A3014 RMK AO2 T02380130 PWINO,2025-09-12T05:17:09Z,2025-09-12T01:17:09Z,Coleman Municipal Airport,31.841100692699996,-99.4036026001,US,US-TX
KCON,"Concord Muni, NH, US",2025-09-12T04:51:00Z,2025-09-12 00:51:00,VFR,11.1,10,0,0,0,NA,1021.8,METAR KCON 120451Z AUTO 00000KT 10SM CLR 11/10 A3017 RMK AO2 SLP215 T01110100 402780050,2025-09-12T05:00:31Z,2025-09-12T01:00:31Z,Concord Municipal Airport,43.20270157,-71.50229645,US,US-NH
KCOQ,"Cloquet/Carlton Cnty, MN, US",2025-09-12T04:55:00Z,2025-09-12 04:55:00,LIFR,12,12,VAR,NA,0,0.25,1021.8,METAR KCOQ 120455Z AUTO 1/4SM FG OVC002 12/12 A3017 RMK AO2 TSNO,2025-09-12T05:00:30Z,2025-09-12T01:00:30Z,Cloquet Carlton County Airport,46.701099,-92.503601,US,US-MN
KCOQ,"Cloquet/Carlton Cnty, MN, US",2025-09-12T05:15:00Z,2025-09-12 05:15:00,LIFR,12,12,VAR,NA,0,0.25,1021.8,METAR KCOQ 120515Z AUTO 1/4SM FG OVC002 12/12 A3017 RMK AO2 TSNO,2025-09-12T05:17:09Z,2025-09-12T01:17:09Z,Cloquet Carlton County Airport,46.701099,-92.503601,US,US-MN
KCOS,"Colorado Spring Arpt, CO, US",2025-09-12T04:54:00Z,2025-09-11 22:54:00,VFR,18.9,7.8,210,8,0,NA,1024.8,METAR KCOS 120454Z 21008KT 10SM -RA FEW060 SCT110 BKN150 OVC200 19/08 A3026 RMK AO2 RAB54 SLP156 P0000 T01890078 $,2025-09-12T05:00:30Z,2025-09-12T01:00:30Z,City of Colorado Springs Municipal Airport,38.805801,-104.700996,US,US-CO
KCOT,"Cotulla/LaSalle Cnty, TX, US",2025-09-12T04:53:00Z,2025-09-11 23:53:00,VFR,28.3,21.7,140,12,0,NA,1018,METAR KCOT 120453Z AUTO 14012KT 10SM CLR 28/22 A3006 RMK AO2 SLP170 T02830217 $,2025-09-12T05:00:30Z,2025-09-12T01:00:30Z,Cotulla-La Salle County Airport,28.45669937,-99.22029877,US,US-TX
KCOU,"Columbia Rgnl, MO, US",2025-09-12T04:54:00Z,2025-09-11 23:54:00,VFR,23.3,16.1,110,6,0,NA,1020.1,METAR KCOU 120454Z AUTO 11006KT 10SM CLR 23/16 A3012 RMK AO2 SLP190 T02330161 $,2025-09-12T05:00:30Z,2025-09-12T01:00:30Z,Columbia Regional Airport,38.8181,-92.219597,US,US-MO
KCPC,"Whiteville/Columbus Cnty, NC, US",2025-09-12T04:45:00Z,2025-09-12 04:45:00,VFR,19,17.8,0,0,0,NA,1019.7,METAR KCPC 120445Z AUTO 00000KT 10SM CLR 19/18 A3011 RMK AO2 T01900178,2025-09-12T05:00:31Z,2025-09-12T01:00:31Z,Columbus County Municipal Airport,34.27289963,-78.71499634,US,US-NC
KCPC,"Whiteville/Columbus Cnty, NC, US",2025-09-12T05:05:00Z,2025-09-12 05:05:00,VFR,18.5,17.3,0,0,0,NA,1019.7,METAR KCPC 120505Z AUTO 00000KT 10SM CLR 19/17 A3011 RMK AO2 T01850173,2025-09-12T05:17:09Z,2025-09-12T01:17:09Z,Columbus County Municipal Airport,34.27289963,-78.71499634,US,US-NC
KCPK,"Chesapeake Rgnl, VA, US",2025-09-12T04:55:00Z,2025-09-12 04:55:00,VFR,17.9,16.1,0,0,0,NA,1019.7,METAR KCPK 120455Z AUTO 00000KT 10SM OVC070 18/16 A3011 RMK AO2 T01790161,2025-09-12T05:00:30Z,2025-09-12T01:00:30Z,Chesapeake Regional Airport,36.6656,-76.320702,US,US-VA
KCPK,"Chesapeake Rgnl, VA, US",2025-09-12T05:15:00Z,2025-09-12 05:15:00,VFR,17.7,16.5,0,0,0,NA,1019.7,METAR KCPK 120515Z AUTO 00000KT 10SM OVC070 18/17 A3011 RMK AO2 T01770165,2025-09-12T05:17:09Z,2025-09-12T01:17:09Z,Chesapeake Regional Airport,36.6656,-76.320702,US,US-VA
KCPR,"Casper/Natrona Cnty, WY, US",2025-09-12T04:53:00Z,2025-09-11 22:53:00,VFR,17.2,5.6,310,8,0,NA,1018.7,METAR KCPR 120453Z AUTO 31008KT 10SM CLR 17/06 A3008 RMK AO2 SLP115 T01720056,2025-09-12T05:00:30Z,2025-09-12T01:00:30Z,Casper-Natrona County International Airport,42.908001,-106.463997,US,US-WY
KCPS,"St Louis/Downtown Arpt, IL, US",2025-09-12T04:53:00Z,2025-09-11 23:53:00,VFR,17.8,16.7,0,0,0,NA,1020.1,METAR KCPS 120453Z AUTO 00000KT 10SM CLR 18/17 A3012 RMK AO2 SLP195 T01780167 PNO $,2025-09-12T05:00:30Z,2025-09-12T01:00:30Z,St Louis Downtown Airport,38.570701599100005,-90.1561965942,US,US-IL
KCPT,"Cleburne Muni, TX, US",2025-09-12T04:55:00Z,2025-09-12 04:55:00,VFR,25.3,19.6,150,4,0,NA,1018,METAR KCPT 120455Z AUTO 15004KT 10SM CLR 25/20 A3006 RMK AO2 T02530196 $,2025-09-12T05:00:30Z,2025-09-12T01:00:30Z,Cleburne Regional Airport,32.353802,-97.433701,US,US-TX
KCPU,"San Andreas/Calaveras Cnty, CA, US",2025-09-12T04:55:00Z,2025-09-12 04:55:00,VFR,19,13.5,350,6,0,NA,1015.3,METAR KCPU 120455Z AUTO 35006KT 10SM CLR 19/14 A2998 RMK AO2 T01900135,2025-09-12T05:00:30Z,2025-09-12T01:00:30Z,Calaveras Co Maury Rasmussen Field,38.14609909057617,-120.64800262451172,US,US-CA
KCQB,"Chandler Muni, OK, US",2025-09-12T04:30:00Z,2025-09-12 04:30:00,VFR,22.1,17.3,140,5,0,NA,1019,METAR KCQB 120430Z AUTO 14005KT 10SM CLR 22/17 A3009 RMK AO2 T02210173,2025-09-12T05:00:31Z,2025-09-12T01:00:31Z,Chandler Regional Airport,35.723801,-96.820297,US,US-OK
KCQB,"Chandler Muni, OK, US",2025-09-12T04:50:00Z,2025-09-12 04:50:00,VFR,21.7,17.3,150,5,0,NA,1019,METAR KCQB 120450Z AUTO 15005KT 10SM CLR 22/17 A3009 RMK AO2 T02170173,2025-09-12T05:17:10Z,2025-09-12T01:17:10Z,Chandler Regional Airport,35.723801,-96.820297,US,US-OK
KCQM,"Cook Muni, MN, US",2025-09-12T04:55:00Z,2025-09-12 04:55:00,VFR,13,13,130,4,0,NA,1021.4,METAR KCQM 120455Z AUTO 13004KT 10SM SCT009 13/13 A3016 RMK AO2,2025-09-12T05:00:30Z,2025-09-12T01:00:30Z,Cook Municipal Airport,47.821899,-92.6894,US,US-MN
KCQM,"Cook Muni, MN, US",2025-09-12T05:15:00Z,2025-09-12 05:15:00,IFR,14,13,130,4,0,NA,1021.4,METAR KCQM 120515Z AUTO 13004KT 10SM BKN008 14/13 A3016 RMK AO2 LTG DSNT W,2025-09-12T05:17:09Z,2025-09-12T01:17:09Z,Cook Municipal Airport,47.821899,-92.6894,US,US-MN
KCQW,"Cheraw Muni, SC, US",2025-09-12T04:55:00Z,2025-09-12 00:55:00,VFR,18,17,0,0,0,9,1020.1,METAR KCQW 120455Z AUTO 00000KT 9SM CLR 18/17 A3012 RMK AO2,2025-09-12T05:00:30Z,2025-09-12T01:00:30Z,Cheraw Municipal Airport/Lynch Bellinger Field,34.712898,-79.957001,US,US-SC
KCQX,"Chatham Muni, MA, US",2025-09-12T04:52:00Z,2025-09-12 04:52:00,VFR,15.6,11.7,310,4,0,NA,1019.7,METAR KCQX 120452Z AUTO 31004KT 10SM FEW070 16/12 A3011 RMK AO2 SLP197 T01560117 402220144 PWINO $,2025-09-12T05:00:31Z,2025-09-12T01:00:31Z,Chatham Municipal Airport,41.68840026855469,-69.989501953125,US,US-MA
KCRE,"North Myrtle Beach/Grand Strand Arpt, SC, US",2025-09-12T04:53:00Z,2025-09-12 00:53:00,VFR,20.6,18.9,20,5,0,NA,1018.7,METAR KCRE 120453Z AUTO 02005KT 10SM CLR 21/19 A3008 RMK AO1 SLP188 T02060189 402610194,2025-09-12T05:00:30Z,2025-09-12T01:00:30Z,Grand Strand Airport,33.8116989136,-78.72389984130001,US,US-SC
KCRG,"Jacksonville/Executive at Craig Arpt, FL, US",2025-09-12T04:53:00Z,2025-09-12 00:53:00,VFR,22.2,20.6,10,4,0,NA,1017.4,METAR KCRG 120453Z 01004KT 10SM CLR 22/21 A3004 RMK AO2 SLP173 T02220206 402780200 $,2025-09-12T05:00:30Z,2025-09-12T01:00:30Z,Jacksonville Executive at Craig Airport,30.3362998962,-81.51439666750001,US,US-FL
KCRP,"Corpus Christi Intl, TX, US",2025-09-12T04:51:00Z,2025-09-11 23:51:00,VFR,28.3,23.9,100,9,0,NA,1017,METAR KCRP 120451Z 10009KT 10SM FEW018 FEW024 FEW250 28/24 A3003 RMK AO2 SLP168 T02830239 $,2025-09-12T05:00:31Z,2025-09-12T01:00:31Z,Corpus Christi International Airport,27.770399,-97.501198,US,US-TX
KCRQ,"Carlsbad/Palomar Arpt, CA, US",2025-09-12T04:53:00Z,2025-09-11 21:53:00,NA,19.4,16.1,160,4,0,NA,1013.6,METAR KCRQ 120453Z AUTO 16004KT BKN015 19/16 A2993 RMK AO2 SLP133 T01940161 $,2025-09-12T05:00:31Z,2025-09-12T01:00:31Z,McClellan-Palomar Airport,33.1283,-117.279999,US,US-CA
KCRS,"Corsicana Muni, TX, US",2025-09-12T04:53:00Z,2025-09-11 23:53:00,VFR,26.1,22.8,120,4,0,NA,1019,METAR KCRS 120453Z AUTO 12004KT 10SM CLR 26/23 A3009 RMK AO2 SLP185 T02610228,2025-09-12T05:00:30Z,2025-09-12T01:00:30Z,C David Campbell Field Corsicana Municipal Airport,32.0280990601,-96.4005966187,US,US-TX
KCRW,"Charleston/Yeager Arpt, WV, US",2025-09-12T04:54:00Z,2025-09-12 00:54:00,VFR,13.9,12.2,0,0,0,NA,1022.1,METAR KCRW 120454Z 00000KT 10SM CLR 14/12 A3018 RMK AO2 SLP212 T01390122 402890100,2025-09-12T05:00:30Z,2025-09-12T01:00:30Z,Yeager Airport,38.3731,-81.593201,US,US-WV
KCRX,"Corinth/Turner Fld, MS, US",2025-09-12T04:35:00Z,2025-09-11 23:35:00,VFR,22,22,0,0,0,NA,1019.7,METAR KCRX 120435Z AUTO 00000KT 10SM CLR 22/22 A3011 RMK AO2 LTG DSNT E AND SE,2025-09-12T05:00:31Z,2025-09-12T01:00:31Z,Roscoe Turner Airport,34.9150009155,-88.6035003662,US,US-MS
KCRX,"Corinth/Turner Fld, MS, US",2025-09-12T04:55:00Z,2025-09-11 23:55:00,VFR,21,21,0,0,0,NA,1019.7,METAR KCRX 120455Z AUTO 00000KT 10SM CLR 21/21 A3011 RMK AO2 LTG DSNT SE,2025-09-12T05:17:09Z,2025-09-12T01:17:09Z,Roscoe Turner Airport,34.9150009155,-88.6035003662,US,US-MS
KCSB,"Cambridge Muni, NE, US",2025-09-12T04:55:00Z,2025-09-12 04:55:00,NA,23,17,0,0,0,NA,1014.3,METAR KCSB 120455Z AUTO 00000KT 10SM 23/17 A2995 RMK AO2,2025-09-12T05:00:30Z,2025-09-12T01:00:30Z,Cambridge Municipal Airport,40.306599,-100.162003,US,US-NE
KCSG,"Columbus Arpt, GA, US",2025-09-12T03:51:00Z,2025-09-11 23:51:00,VFR,23.3,16.1,0,0,0,NA,1019.7,METAR KCSG 120351Z AUTO 00000KT 10SM CLR 23/16 A3011 RMK AO2 SLP190 T02330161,2025-09-12T05:00:31Z,2025-09-12T01:00:31Z,Columbus Metropolitan Airport,32.516300201416016,-84.93890380859375,US,US-GA
KCSM,"Clinton/Sherman Arpt, OK, US",2025-09-12T04:53:00Z,2025-09-11 23:53:00,VFR,24.4,13.3,170,14,0,NA,1019.4,METAR KCSM 120453Z 17014KT 10SM CLR 24/13 A3010 RMK AO2 SLP164 T02440133,2025-09-12T05:00:31Z,2025-09-12T01:00:31Z,Clinton Sherman Airport,35.3398017883,-99.2005004883,US,US-OK
KCSQ,"Creston Muni, IA, US",2025-09-12T04:55:00Z,2025-09-11 23:55:00,VFR,21,18,150,5,0,NA,1019.4,METAR KCSQ 120455Z AUTO 15005KT 10SM CLR 21/18 A3010 RMK AO2,2025-09-12T05:00:30Z,2025-09-12T01:00:30Z,Creston Municipal Airport,41.0214004517,-94.3632965088,US,US-IA
KCSV,"Crossville/Whitson Fld, TN, US",2025-09-12T04:53:00Z,2025-09-11 23:53:00,VFR,15.6,15.6,0,0,0,8,1022.8,METAR KCSV 120453Z AUTO 00000KT 8SM CLR 16/16 A3020 RMK AO2 SLP210 T01560156,2025-09-12T05:00:30Z,2025-09-12T01:00:30Z,Crossville Memorial Airport Whitson Field,35.95131,-85.08499,US,US-TN
KCTB,"Cut Bank Muni, MT, US",2025-09-12T04:56:00Z,2025-09-11 22:56:00,VFR,12.8,7.8,320,4,0,NA,1016,METAR KCTB 120456Z AUTO 32004KT 10SM CLR 13/08 A3000 RMK AO2 SLP141 T01280078,2025-09-12T05:00:30Z,2025-09-12T01:00:30Z,Cut Bank International Airport,48.608657,-112.378183,US,US-MT
KCTJ,"Carrollton/W Georgia Rgnl, GA, US",2025-09-12T04:55:00Z,2025-09-12 04:55:00,VFR,18,16.9,0,0,0,NA,1022.1,METAR KCTJ 120455Z AUTO 00000KT 10SM BKN050 OVC055 18/17 A3018 RMK AO2 T01800169,2025-09-12T05:00:30Z,2025-09-12T01:00:30Z,West Georgia Regional Airport / O V Gray Field,33.631001,-85.152,US,US-GA
KCTY,"Cross City Arpt, FL, US",2025-09-12T04:35:00Z,2025-09-12 00:35:00,VFR,20,19,30,2,0,NA,1018,METAR KCTY 120435Z AUTO 03002KT 10SM CLR 20/19 A3006 RMK AO2 LTG DSNT S,2025-09-12T05:00:31Z,2025-09-12T01:00:31Z,Cross City Airport,29.6354999542,-83.10479736330001,US,US-FL
KCTY,"Cross City Arpt, FL, US",2025-09-12T04:55:00Z,2025-09-12 00:55:00,VFR,20,19,20,2,0,NA,1018,METAR KCTY 120455Z AUTO 02002KT 10SM CLR 20/19 A3006 RMK AO2 LTG DSNT S,2025-09-12T05:17:09Z,2025-09-12T01:17:09Z,Cross City Airport,29.6354999542,-83.10479736330001,US,US-FL
KCTZ,"Clinton/Sampson Cnty, NC, US",2025-09-12T04:45:00Z,2025-09-12 00:45:00,VFR,20.2,20.2,0,0,0,NA,1019.7,METAR KCTZ 120445Z AUTO 00000KT 10SM OVC080 20/20 A3011 RMK AO2 T02020202,2025-09-12T05:00:31Z,2025-09-12T01:00:31Z,Sampson County Airport,34.9756011963,-78.3646011353,US,US-NC
KCTZ,"Clinton/Sampson Cnty, NC, US",2025-09-12T05:05:00Z,2025-09-12 01:05:00,VFR,20.5,20.5,360,3,0,NA,1020.1,METAR KCTZ 120505Z AUTO 36003KT 10SM OVC080 21/21 A3012 RMK AO2 T02050205,2025-09-12T05:17:09Z,2025-09-12T01:17:09Z,Sampson County Airport,34.9756011963,-78.3646011353,US,US-NC
KCUB,"Columbia/Downtown Arpt, SC, US",2025-09-12T04:53:00Z,2025-09-12 00:53:00,VFR,21.1,18.3,0,0,0,NA,1020.1,METAR KCUB 120453Z AUTO 00000KT 10SM CLR 21/18 A3012 RMK AO2 SLP197 T02110183 403000167 $,2025-09-12T05:00:31Z,2025-09-12T01:00:31Z,Jim Hamilton L.B. Owens Airport,33.970500946,-80.9952011108,US,US-SC
KCUH,"Cushing Muni, OK, US",2025-09-12T04:55:00Z,2025-09-11 23:55:00,VFR,19.5,17.7,0,0,0,NA,1018.4,METAR KCUH 120455Z AUTO 00000KT 10SM CLR 20/18 A3007 RMK AO2 T01950177,2025-09-12T05:00:30Z,2025-09-12T01:00:30Z,Cushing Municipal Airport,35.950496,-96.772371,US,US-OK
KCUT,"Custer Cnty Arpt, SD, US",2025-09-12T04:53:00Z,2025-09-12 04:53:00,VFR,13.3,12.2,350,3,0,NA,1019.4,METAR KCUT 120453Z AUTO 35003KT 10SM CLR 13/12 A3010 RMK AO2 SLP124 T01330122,2025-09-12T05:00:30Z,2025-09-12T01:00:30Z,Custer County Airport,43.733299,-103.617996,US,US-SD
KCVB,"Castroville Muni, TX, US",2025-09-12T04:35:00Z,2025-09-12 04:35:00,VFR,28,21,120,5,0,NA,1019,METAR KCVB 120435Z AUTO 12005KT 10SM CLR 28/21 A3009 RMK AO2,2025-09-12T05:00:31Z,2025-09-12T01:00:31Z,Castroville Municipal Airport,29.3419,-98.850899,US,US-TX
KCVB,"Castroville Muni, TX, US",2025-09-12T04:55:00Z,2025-09-12 04:55:00,VFR,27,21,120,6,0,NA,1019,METAR KCVB 120455Z AUTO 12006KT 10SM CLR 27/21 A3009 RMK AO2 403530189,2025-09-12T05:17:09Z,2025-09-12T01:17:09Z,Castroville Municipal Airport,29.3419,-98.850899,US,US-TX
KCVG,"Cincinnati Intl, KY, US",2025-09-12T04:52:00Z,2025-09-12 00:52:00,VFR,20.6,10,70,9,0,NA,1022.1,METAR KCVG 120452Z 07009KT 10SM CLR 21/10 A3018 RMK AO2 SLP210 T02060100 402890144,2025-09-12T05:00:31Z,2025-09-12T01:00:31Z,Cincinnati Northern Kentucky International Airport,39.048801,-84.667801,US,US-KY
KCVH,"Hollister Muni, CA, US",2025-09-12T04:55:00Z,2025-09-11 21:55:00,VFR,16,13,0,0,0,NA,1016,METAR KCVH 120455Z AUTO 00000KT 10SM CLR 16/13 A3000 RMK A01,2025-09-12T05:00:30Z,2025-09-12T01:00:30Z,Hollister Municipal Airport,36.8932991028,-121.410003662,US,US-CA
KCVH,"Hollister Muni, CA, US",2025-09-12T05:15:00Z,2025-09-11 22:15:00,VFR,16,14,0,0,0,NA,1016,METAR KCVH 120515Z AUTO 00000KT 10SM CLR 16/14 A3000 RMK A01,2025-09-12T05:17:09Z,2025-09-12T01:17:09Z,Hollister Municipal Airport,36.8932991028,-121.410003662,US,US-CA
KCVN,"Clovis Muni, NM, US",2025-09-12T04:56:00Z,2025-09-11 22:56:00,VFR,19.4,10.6,170,7,0,NA,1023.5,METAR KCVN 120456Z AUTO 17007KT 10SM CLR 19/11 A3022 RMK AO2 SLP190 T01940106 $,2025-09-12T05:00:30Z,2025-09-12T01:00:30Z,Clovis Municipal Airport,34.426594,-103.078794,US,US-NM
KCVO,"Corvallis Muni, OR, US",2025-09-12T04:56:00Z,2025-09-11 21:56:00,VFR,13.9,11.7,290,6,0,NA,1018.7,METAR KCVO 120456Z 29006KT 10SM CLR 14/12 A3008 RMK AO2 SLP189 T01390117,2025-09-12T05:00:30Z,2025-09-12T01:00:30Z,Corvallis Municipal Airport,44.49720001,-123.2900009,US,US-OR
KCVX,"Charlevoix Muni, MI, US",2025-09-12T04:55:00Z,2025-09-12 04:55:00,VFR,16,15,130,5,0,NA,1023.8,METAR KCVX 120455Z AUTO 13005KT 10SM BKN033 16/15 A3023 RMK AO2,2025-09-12T05:00:30Z,2025-09-12T01:00:30Z,Charlevoix Municipal Airport,45.304798,-85.274803,US,US-MI
KCWA,"Mosinee/C Wisconsin Arpt, WI, US",2025-09-12T04:55:00Z,2025-09-11 23:55:00,VFR,13,13,110,5,0,NA,1023.8,METAR KCWA 120455Z AUTO 11005KT 10SM CLR 13/13 A3023 RMK AO2,2025-09-12T05:00:30Z,2025-09-12T01:00:30Z,Central Wisconsin Airport,44.777448,-89.670238,US,US-WI
KCWC,"Wichita Falls/Kickapoo Arpt, TX, US",2025-09-12T04:55:00Z,2025-09-11 23:55:00,VFR,24.5,16.5,180,11,0,NA,1019,METAR KCWC 120455Z AUTO 18011KT 10SM CLR 25/17 A3009 RMK AO2 T02450165,2025-09-12T05:00:30Z,2025-09-12T01:00:30Z,Kickapoo Downtown Airport,33.85779953,-98.490402220000007,US,US-TX
KCWF,"Chenault Intl, LA, US",2025-09-12T04:55:00Z,2025-09-11 23:55:00,VFR,23.7,21.4,0,0,0,NA,1019,METAR KCWF 120455Z AUTO 00000KT 10SM CLR 24/21 A3009 RMK AO2 T02370214,2025-09-12T05:00:30Z,2025-09-12T01:00:30Z,Chennault International Airport,30.2106,-93.143204,US,US-LA
KCWI,"Clinton Muni, IA, US",2025-09-12T04:56:00Z,2025-09-11 23:56:00,VFR,15.6,13.9,80,6,0,NA,1022.4,METAR KCWI 120456Z AUTO 08006KT 10SM CLR 16/14 A3019 RMK AO2 SLP223 T01560139,2025-09-12T05:00:30Z,2025-09-12T01:00:30Z,Clinton Municipal Airport,41.8311004639,-90.3291015625,US,US-IA
KCWV,"Claxton/Evans Cnty, GA, US",2025-09-12T04:55:00Z,2025-09-12 04:55:00,VFR,20,20,VAR,NA,0,NA,1019,METAR KCWV 120455Z AUTO 10SM SCT050 BKN080 20/20 A3009 RMK AO2,2025-09-12T05:00:30Z,2025-09-12T01:00:30Z,Claxton Evans County Airport,32.195099,-81.869598,US,US-GA
KCXE,"Chase City Muni, VA, US",2025-09-12T04:55:00Z,2025-09-12 04:55:00,VFR,16.6,16.3,0,0,0,NA,1021.1,METAR KCXE 120455Z AUTO 00000KT 10SM CLR 17/16 A3015 RMK AO1 T01660163,2025-09-12T05:00:30Z,2025-09-12T01:00:30Z,Chase City Municipal Airport,36.788299560546875,-78.50160217285156,US,US-VA
KCXO,"Conroe/Executive Arpt, TX, US",2025-09-12T03:53:00Z,2025-09-11 22:53:00,VFR,23.3,21.7,0,0,0,NA,1019.4,METAR KCXO 120353Z AUTO 00000KT 10SM CLR 23/22 A3010 RMK AO2 SLP187 T02330217 $,2025-09-12T05:00:31Z,2025-09-12T01:00:31Z,Conroe-North Houston Regional Airport,30.351801,-95.414497,US,US-TX
KCXP,"Carson City Arpt, NV, US",2025-09-12T04:35:00Z,2025-09-11 21:35:00,VFR,18,6,40,4,0,NA,1019,METAR KCXP 120435Z AUTO 04004KT 10SM OVC080 18/06 A3009 RMK AO2,2025-09-12T05:00:31Z,2025-09-12T01:00:31Z,Carson Airport,39.1922,-119.734001,US,US-NV
KCXP,"Carson City Arpt, NV, US",2025-09-12T04:55:00Z,2025-09-11 21:55:00,VFR,17,6,320,3,0,NA,1019,METAR KCXP 120455Z AUTO 32003KT 10SM BKN080 BKN090 17/06 A3009 RMK AO2,2025-09-12T05:17:09Z,2025-09-12T01:17:09Z,Carson Airport,39.1922,-119.734001,US,US-NV
KCXU,"Camilla/Mitchell Cnty, GA, US",2025-09-12T04:55:00Z,2025-09-12 04:55:00,VFR,17,16,120,1,0,NA,1018.7,METAR KCXU 120455Z AUTO 12001KT 10SM CLR 17/16 A3008 RMK AO2,2025-09-12T05:00:30Z,2025-09-12T01:00:30Z,Camilla Mitchell County Airport,31.21315,-84.235396,US,US-GA
KCXW,"Conway/Cantrell Fld, AR, US",2025-09-12T04:35:00Z,2025-09-12 04:35:00,VFR,22,22,0,0,0,NA,1019,METAR KCXW 120435Z AUTO 00000KT 10SM SCT050 BKN055 22/22 A3009 RMK A01,2025-09-12T05:00:31Z,2025-09-12T01:00:31Z,Conway Regional Airport,35.019889,-92.555111,US,US-AR
KCXW,"Conway/Cantrell Fld, AR, US",2025-09-12T04:50:00Z,2025-09-12 04:50:00,VFR,22,22,0,0,0,NA,1019,METAR KCXW 120450Z AUTO 00000KT 10SM SCT049 BKN055 22/22 A3009 RMK A01,2025-09-12T05:17:10Z,2025-09-12T01:17:10Z,Conway Regional Airport,35.019889,-92.555111,US,US-AR
KCXY,"Harrisburg/Capital City Arpt, PA, US",2025-09-12T04:56:00Z,2025-09-12 00:56:00,VFR,14.4,11.7,240,4,0,NA,1021.4,METAR KCXY 120456Z AUTO 24004KT 10SM CLR 14/12 A3016 RMK AO2 SLP212 T01440117 402780144,2025-09-12T05:00:30Z,2025-09-12T01:00:30Z,Capital City Airport,40.2170982361,-76.85150146480001,US,US-PA
KCYS,"Cheyenne Rgnl, WY, US",2025-09-12T04:53:00Z,2025-09-11 22:53:00,VFR,19.4,5.6,200,10,15,NA,1021.1,METAR KCYS 120453Z AUTO 20010G15KT 10SM CLR 19/06 A3015 RMK AO2 SLP115 T01940056,2025-09-12T05:00:30Z,2025-09-12T01:00:30Z,Cheyenne Regional Jerry Olson Field,41.155701,-104.811997,US,US-WY
KCZT,"Carrizo Springs Arpt, TX, US",2025-09-12T04:55:00Z,2025-09-11 23:55:00,VFR,28,21,VAR,NA,0,NA,1018,METAR KCZT 120455Z AUTO 10SM CLR 28/21 A3006 RMK AO2,2025-09-12T05:00:30Z,2025-09-12T01:00:30Z,Dimmit County Airport,28.5221996307,-99.823600769,US,US-TX
KD07,"Faith Muni, SD, US",2025-09-12T04:56:00Z,2025-09-12 04:56:00,NA,23.9,17.8,290,9,19,NA,1014.3,METAR KD07 120456Z AUTO 29009G19KT 260V340 24/18 A2995 RMK AO1 PRESRR SLP125 T02390178,2025-09-12T05:00:30Z,2025-09-12T01:00:30Z,Faith Municipal Airport,45.03609848022461,-102.0199966430664,US,US-SD
KD09,"Bottineau Muni, ND, US",2025-09-12T04:55:00Z,2025-09-12 04:55:00,VFR,21,20,70,5,10,NA,1013,METAR KD09 120455Z AUTO 07005G10KT 10SM TS BKN050 BKN060 BKN075 21/20 A2991 RMK AO2 LTG DSNT S AND SW,2025-09-12T05:00:30Z,2025-09-12T01:00:30Z,Bottineau Municipal Airport,48.830399,-100.417,US,US-ND
KD09,"Bottineau Muni, ND, US",2025-09-12T05:15:00Z,2025-09-12 05:15:00,VFR,21,20,100,8,0,NA,1013,METAR KD09 120515Z AUTO 10008KT 10SM VCTS BKN050 BKN055 BKN065 21/20 A2991 RMK AO2 LTG DSNT SE-SW,2025-09-12T05:17:09Z,2025-09-12T01:17:09Z,Bottineau Municipal Airport,48.830399,-100.417,US,US-ND
KD25,"Manitowish Waters Arpt, WI, US",2025-09-12T04:55:00Z,2025-09-12 04:55:00,VFR,10.5,10.5,0,0,0,NA,1023.8,METAR KD25 120455Z AUTO 00000KT 10SM CLR 11/11 A3023 RMK AO2 T01050105,2025-09-12T05:00:30Z,2025-09-12T01:00:30Z,Manitowish Waters Airport,46.122002,-89.882301,US,US-WI
KD39,"Sauk Center Muni, MN, US",2025-09-12T04:55:00Z,2025-09-12 04:55:00,VFR,16.3,16.3,110,6,0,NA,1019,METAR KD39 120455Z AUTO 11006KT 10SM CLR 16/16 A3009 RMK AO2 T01630163,2025-09-12T05:00:30Z,2025-09-12T01:00:30Z,Sauk Centre Municipal Airport,45.706600189208984,-94.93340301513672,US,US-MN
KD39,"Sauk Center Muni, MN, US",2025-09-12T05:15:00Z,2025-09-12 05:15:00,VFR,16,16,120,6,0,NA,1019,METAR KD39 120515Z AUTO 12006KT 10SM CLR 16/16 A3009 RMK AO2 T01600160,2025-09-12T05:17:09Z,2025-09-12T01:17:09Z,Sauk Centre Municipal Airport,45.706600189208984,-94.93340301513672,US,US-MN
KD50,"Crosby Muni, ND, US",2025-09-12T04:55:00Z,2025-09-12 04:55:00,VFR,18,18,90,8,0,NA,1012.6,METAR KD50 120455Z AUTO 09008KT 10SM CLR 18/18 A2990 RMK AO2,2025-09-12T05:00:30Z,2025-09-12T01:00:30Z,Crosby Municipal Airport,48.928501,-103.296997,US,US-ND
KD50,"Crosby Muni, ND, US",2025-09-12T05:15:00Z,2025-09-12 05:15:00,VFR,17,18,90,6,0,8,1012.6,METAR KD50 120515Z AUTO 09006KT 8SM CLR 17/18 A2990 RMK AO2,2025-09-12T05:17:09Z,2025-09-12T01:17:09Z,Crosby Municipal Airport,48.928501,-103.296997,US,US-ND
KD55,"Langdon/Roberts Fld, ND, US",2025-09-12T04:55:00Z,2025-09-12 04:55:00,VFR,18,18,140,12,0,7,1014.6,METAR KD55 120455Z AUTO 14012KT 7SM FEW055 FEW120 18/18 A2996 RMK AO2 LTG DSNT NE AND SW AND W,2025-09-12T05:00:30Z,2025-09-12T01:00:30Z,Robertson Field,48.752998,-98.393303,US,US-ND
KD55,"Langdon/Roberts Fld, ND, US",2025-09-12T05:15:00Z,2025-09-12 05:15:00,VFR,18,18,130,10,0,8,1014.6,METAR KD55 120515Z AUTO 13010KT 8SM FEW055 18/18 A2996 RMK AO2 LTG DSNT SW AND W,2025-09-12T05:17:09Z,2025-09-12T01:17:09Z,Robertson Field,48.752998,-98.393303,US,US-ND
KD57,"Glen Ullin Rgnl, ND, US",2025-09-12T04:55:00Z,2025-09-12 04:55:00,VFR,20,16,180,5,0,NA,1011.3,METAR KD57 120455Z AUTO 18005KT 10SM CLR 20/16 A2986 RMK AO2 LTG DSNT N AND S,2025-09-12T05:00:30Z,2025-09-12T01:00:30Z,Glen Ullin Regional Airport,46.812801361083984,-101.86000061035156,US,US-ND
KD57,"Glen Ullin Rgnl, ND, US",2025-09-12T05:15:00Z,2025-09-12 05:15:00,VFR,21,16,180,4,0,NA,1011.3,METAR KD57 120515Z AUTO 18004KT 10SM CLR 21/16 A2986 RMK AO2,2025-09-12T05:17:09Z,2025-09-12T01:17:09Z,Glen Ullin Regional Airport,46.812801361083984,-101.86000061035156,US,US-ND
KD60,"Tioga Muni, ND, US",2025-09-12T04:55:00Z,2025-09-11 23:55:00,NA,17,17,90,5,0,NA,1013.6,METAR KD60 120455Z AUTO 09005KT 10SM 17/17 A2993 RMK AO2,2025-09-12T05:00:30Z,2025-09-12T01:00:30Z,Tioga Municipal Airport,48.38050079,-102.8980026,US,US-ND
KD60,"Tioga Muni, ND, US",2025-09-12T05:15:00Z,2025-09-12 00:15:00,VFR,16,16,100,8,0,NA,1013.3,METAR KD60 120515Z AUTO 10008KT 10SM CLR 16/16 A2992 RMK AO2,2025-09-12T05:17:09Z,2025-09-12T01:17:09Z,Tioga Municipal Airport,48.38050079,-102.8980026,US,US-ND
KD73,"Monroe/Walton Cnty, GA, US",2025-09-12T04:35:00Z,2025-09-12 04:35:00,VFR,17.4,NA,VAR,NA,0,NA,1020.7,METAR KD73 120435Z AUTO 10SM CLR 17/ A3014 RMK AO2 T0174////,2025-09-12T05:00:31Z,2025-09-12T01:00:31Z,Monroe Walton County Airport,33.782398,-83.692903,US,US-GA
KD73,"Monroe/Walton Cnty, GA, US",2025-09-12T04:55:00Z,2025-09-12 04:55:00,VFR,17.1,NA,VAR,NA,0,NA,1020.7,METAR KD73 120455Z AUTO 10SM CLR 17/ A3014 RMK AO2 T0171////,2025-09-12T05:17:09Z,2025-09-12T01:17:09Z,Monroe Walton County Airport,33.782398,-83.692903,US,US-GA
KD95,"Lapeer/Dumont Arpt, MI, US",2025-09-12T04:55:00Z,2025-09-12 04:55:00,VFR,11,10,0,0,0,NA,1024.1,METAR KD95 120455Z AUTO 00000KT 10SM CLR 11/10 A3024 RMK AO2,2025-09-12T05:00:30Z,2025-09-12T01:00:30Z,Dupont-Lapeer Airport,43.066601,-83.272301,US,US-MI
KD95,"Lapeer/Dumont Arpt, MI, US",2025-09-12T05:15:00Z,2025-09-12 05:15:00,VFR,11,10,0,0,0,NA,1024.1,METAR KD95 120515Z AUTO 00000KT 10SM CLR 11/10 A3024 RMK AO2,2025-09-12T05:17:09Z,2025-09-12T01:17:09Z,Dupont-Lapeer Airport,43.066601,-83.272301,US,US-MI
KDAB,"Daytona Beach Intl, FL, US",2025-09-12T04:53:00Z,2025-09-12 00:53:00,VFR,24.4,21.1,320,5,0,NA,1016.7,METAR KDAB 120453Z 32005KT 10SM FEW024 BKN039 24/21 A3002 RMK AO2 SLP166 T02440211 402890222,2025-09-12T05:00:30Z,2025-09-12T01:00:30Z,Daytona Beach International Airport,29.179899,-81.058098,US,US-FL
KDAG,"Barstow/Daggett Cnty, CA, US",2025-09-12T04:50:00Z,2025-09-11 21:50:00,VFR,23.3,11.1,280,18,0,NA,1012.6,METAR KDAG 120450Z AUTO 28018KT 10SM CLR 23/11 A2990 RMK AO2 SLP103 T02330111,2025-09-12T05:00:31Z,2025-09-12T01:00:31Z,Barstow Daggett Airport,34.85369873,-116.7870026,US,US-CA
KDAL,"Dallas/Love Fld, TX, US",2025-09-12T04:53:00Z,2025-09-11 23:53:00,VFR,27.8,19.4,120,3,0,NA,1018.7,METAR KDAL 120453Z 12003KT 10SM CLR 28/19 A3008 RMK AO2 SLP179 T02780194,2025-09-12T05:00:31Z,2025-09-12T01:00:31Z,Dallas Love Field,32.847099,-96.851799,US,US-TX
KDAN,"Danville Rgnl, VA, US",2025-09-12T04:53:00Z,2025-09-12 00:53:00,VFR,16.1,15.6,0,0,0,NA,1021.1,METAR KDAN 120453Z AUTO 00000KT 10SM CLR 16/16 A3015 RMK AO2 SLP202 T01610156 402780156,2025-09-12T05:00:30Z,2025-09-12T01:00:30Z,Danville Regional Airport,36.572899,-79.336098,US,US-VA
KDAW,"Rochester/Skyhaven Arpt, NH, US",2025-09-12T04:51:00Z,2025-09-12 04:51:00,VFR,14.4,10.6,320,7,0,NA,1021.1,METAR KDAW 120451Z AUTO 32007KT 10SM OVC065 14/11 A3015 RMK AO2 SLP206 T01440106 402720072 $,2025-09-12T05:00:31Z,2025-09-12T01:00:31Z,Skyhaven Airport,43.2841,-70.929298,US,US-NH
KDAY,"Dayton/Cox Intl, OH, US",2025-09-12T04:56:00Z,2025-09-12 00:56:00,VFR,15.6,10,70,6,0,NA,1023.1,METAR KDAY 120456Z 07006KT 10SM CLR 16/10 A3021 RMK AO2 SLP223 T01560100 402830122,2025-09-12T05:00:30Z,2025-09-12T01:00:30Z,James M Cox Dayton International Airport,39.902401,-84.219398,US,US-OH
KDBN,"Dublin/Barron Arpt, GA, US",2025-09-12T04:55:00Z,2025-09-12 00:55:00,VFR,15,15,0,0,0,NA,1019.4,METAR KDBN 120455Z AUTO 00000KT 10SM CLR 15/15 A3010 RMK AO2 T01500150 402980109 $,2025-09-12T05:00:30Z,2025-09-12T01:00:30Z,W H 'Bud' Barron Airport,32.5644,-82.985298,US,US-GA
KDBQ,"Dubuque Rgnl, IA, US",2025-09-12T04:53:00Z,2025-09-11 23:53:00,VFR,17.8,13.9,120,10,0,NA,1022.4,METAR KDBQ 120453Z AUTO 12010KT 10SM CLR 18/14 A3019 RMK AO2 SLP219 T01780139 $,2025-09-12T05:00:30Z,2025-09-12T01:00:30Z,Dubuque Regional Airport,42.402,-90.709503,US,US-IA
KDCA,"Washington/Reagan-National Arpt, VA, US",2025-09-12T04:52:00Z,2025-09-12 00:52:00,VFR,19.4,17.2,0,0,0,7,1021.1,METAR KDCA 120452Z 00000KT 7SM FEW085 19/17 A3015 RMK AO2 SLP207 T01940172 402720189,2025-09-12T05:00:31Z,2025-09-12T01:00:31Z,Ronald Reagan Washington National Airport,38.8521,-77.037697,US,US-DC
KDCM,"Chester Muni, SC, US",2025-09-12T04:55:00Z,2025-09-12 04:55:00,VFR,16,13,0,0,0,NA,1021.1,METAR KDCM 120455Z AUTO 00000KT 10SM CLR 16/13 A3015 RMK AO2 LTG DSNT SW,2025-09-12T05:00:30Z,2025-09-12T01:00:30Z,Chester Catawba Regional Airport,34.789299,-81.195801,US,US-SC
KDCU,"Decatur/Pryor Fld, AL, US",2025-09-12T04:53:00Z,2025-09-11 23:53:00,VFR,18.9,17.8,340,3,0,7,1020.7,METAR KDCU 120453Z AUTO 34003KT 7SM CLR 19/18 A3014 RMK AO2 SLP199 T01890178 PWINO $,2025-09-12T05:00:30Z,2025-09-12T01:00:30Z,Pryor Field Regional Airport,34.652698516799994,-86.94539642330001,US,US-AL
KDCY,"Washington/Daviess Cnty, IN, US",2025-09-12T04:55:00Z,2025-09-12 04:55:00,VFR,16.3,15,0,0,0,NA,1021.4,METAR KDCY 120455Z AUTO 00000KT 10SM CLR 16/15 A3016 RMK AO2 T01630150,2025-09-12T05:00:30Z,2025-09-12T01:00:30Z,Daviess County Airport,38.700401,-87.1297,US,US-IN
KDDC,"Dodge City Arpt, KS, US",2025-09-12T04:52:00Z,2025-09-11 23:52:00,VFR,23.3,13.9,180,10,0,8,1017.7,METAR KDDC 120452Z AUTO 18010KT 8SM CLR 23/14 A3005 RMK AO2 SLP144 T02330139 $,2025-09-12T05:00:31Z,2025-09-12T01:00:31Z,Dodge City Regional Airport,37.76340103149414,-99.9655990600586,US,US-KS
KDDH,"Bennington/Morse State Arpt, VT, US",2025-09-12T04:54:00Z,2025-09-12 04:54:00,VFR,10.6,10,0,0,0,NA,1022.4,METAR KDDH 120454Z AUTO 00000KT 10SM CLR 11/10 A3019 RMK AO2 SLP221 T01060100 402500039,2025-09-12T05:00:30Z,2025-09-12T01:00:30Z,William H Morse State Airport,42.8913,-73.246399,US,US-VT
KDEC,"Decatur Arpt, IL, US",2025-09-12T04:54:00Z,2025-09-11 23:54:00,VFR,16.7,13.9,40,5,0,NA,1021.8,METAR KDEC 120454Z AUTO 04005KT 10SM CLR 17/14 A3017 RMK AO2 SLP210 T01670139,2025-09-12T05:00:30Z,2025-09-12T01:00:30Z,Decatur Airport,39.834598541259766,-88.8656997680664,US,US-IL
KDED,"Deland Muni, FL, US",2025-09-12T04:35:00Z,2025-09-12 04:35:00,VFR,23.7,20,310,4,0,NA,1017.4,METAR KDED 120435Z AUTO 31004KT 10SM SCT050 24/20 A3004 RMK AO2 T02370200,2025-09-12T05:00:31Z,2025-09-12T01:00:31Z,Deland Municipal Sidney H Taylor Field,29.066999,-81.283798,US,US-FL
KDED,"Deland Muni, FL, US",2025-09-12T04:55:00Z,2025-09-12 04:55:00,VFR,23.1,20.1,320,4,0,NA,1017.4,METAR KDED 120455Z AUTO 32004KT 10SM CLR 23/20 A3004 RMK AO2 LTG DSNT SW T02310201,2025-09-12T05:17:09Z,2025-09-12T01:17:09Z,Deland Municipal Sidney H Taylor Field,29.066999,-81.283798,US,US-FL
KDEH,"Decorah Muni, IA, US",2025-09-12T04:55:00Z,2025-09-11 23:55:00,VFR,18,15,130,3,0,NA,1021.8,METAR KDEH 120455Z AUTO 13003KT 10SM SCT041 18/15 A3017 RMK AO2,2025-09-12T05:00:30Z,2025-09-12T01:00:30Z,Decorah Municipal Airport,43.275501,-91.739403,US,US-IA
KDEN,"Denver Intl, CO, US",2025-09-12T04:53:00Z,2025-09-11 22:53:00,VFR,21.1,7.8,210,9,0,NA,1020.7,METAR KDEN 120453Z 21009KT 10SM SCT150 BKN220 21/08 A3014 RMK AO2 SLP121 T02110078,2025-09-12T05:00:30Z,2025-09-12T01:00:30Z,Denver International Airport,39.861698150635,-104.672996521,US,US-CO
KDEQ,"De Queen/Helms Arpt, AR, US",2025-09-12T04:53:00Z,2025-09-12 04:53:00,MVFR,20.6,20.6,0,0,0,5,1018.7,METAR KDEQ 120453Z AUTO 00000KT 5SM BR CLR 21/21 A3008 RMK AO2 SLP181 T02060206,2025-09-12T05:00:31Z,2025-09-12T01:00:31Z,J Lynn Helms Sevier County Airport,34.047001,-94.399399,US,US-AR
KDET,"Detroit/C Young Arpt, MI, US",2025-09-12T04:53:00Z,2025-09-12 00:53:00,VFR,16.1,11.7,0,0,0,NA,1023.8,METAR KDET 120453Z 00000KT 10SM CLR 16/12 A3023 RMK AO2 SLP236 T01610117 402670117,2025-09-12T05:00:30Z,2025-09-12T01:00:30Z,Coleman A. Young Municipal Airport,42.40919876,-83.00990295,US,US-MI
KDEW,"Deer Park Arpt, WA, US",2025-09-12T04:53:00Z,2025-09-12 04:53:00,VFR,15,8.9,0,0,0,NA,1013.3,METAR KDEW 120453Z AUTO 00000KT 10SM CLR 15/09 A2992 RMK AO2 SLP124 T01500089,2025-09-12T05:00:31Z,2025-09-12T01:00:31Z,Deer Park Airport,47.966599,-117.427002,US,US-WA
KDFI,"Defiance Mem Arpt, OH, US",2025-09-12T04:53:00Z,2025-09-12 00:53:00,VFR,13.3,11.1,0,0,0,NA,1023.5,METAR KDFI 120453Z AUTO 00000KT 10SM CLR 13/11 A3022 RMK AO2 SLP229 T01330111 402780100 $,2025-09-12T05:00:30Z,2025-09-12T01:00:30Z,Defiance Memorial Airport,41.3375015259,-84.4288024902,US,US-OH
KDFW,"Dallas-Ft Worth Intl, TX, US",2025-09-12T04:53:00Z,2025-09-11 23:53:00,VFR,26.1,18.9,160,6,0,NA,1018.4,METAR KDFW 120453Z 16006KT 10SM CLR 26/19 A3007 RMK AO2 SLP174 T02610189 $,2025-09-12T05:00:30Z,2025-09-12T01:00:30Z,Dallas Fort Worth International Airport,32.896801,-97.038002,US,US-TX
KDGW,"Douglas/Converse Cnty, WY, US",2025-09-12T04:53:00Z,2025-09-11 22:53:00,VFR,21.7,4.4,330,7,0,NA,1017,METAR KDGW 120453Z AUTO 33007KT 10SM CLR 22/04 A3003 RMK AO2 SLP098 T02170044,2025-09-12T05:00:30Z,2025-09-12T01:00:30Z,Converse County Airport,42.79719925,-105.3860016,US,US-WY
KDHN,"Dothan Rgnl, AL, US",2025-09-12T04:53:00Z,2025-09-11 23:53:00,VFR,19.4,16.7,90,3,0,NA,1020.1,METAR KDHN 120453Z AUTO 09003KT 10SM CLR 19/17 A3012 RMK AO1 SLP195 T01940167,2025-09-12T05:00:30Z,2025-09-12T01:00:30Z,Dothan Regional Airport,31.321300506591797,-85.44960021972656,US,US-AL
KDHT,"Dalhart Muni, TX, US",2025-09-12T04:53:00Z,2025-09-11 23:53:00,VFR,21.1,8.3,180,10,0,NA,1021.4,METAR KDHT 120453Z AUTO 18010KT 10SM CLR 21/08 A3016 RMK AO2 SLP151 T02110083,2025-09-12T05:00:30Z,2025-09-12T01:00:30Z,Dalhart Municipal Airport,36.0225982666,-102.54699707,US,US-TX
KDIJ,"Driggs/Reed Mem, ID, US",2025-09-12T04:56:00Z,2025-09-12 04:56:00,VFR,7.8,4.4,90,6,0,NA,1021.1,METAR KDIJ 120456Z AUTO 09006KT 10SM FEW085 08/04 A3015 RMK AO2 SLP164 T00780044 $,2025-09-12T05:00:30Z,2025-09-12T01:00:30Z,Driggs/Reed Memorial Airport,43.742667,-111.096829,US,US-ID
KDKB,"DeKalb/Taylor Muni, IL, US",2025-09-12T04:35:00Z,2025-09-12 04:35:00,VFR,15,14.9,70,6,0,NA,1023.5,METAR KDKB 120435Z AUTO 07006KT 10SM CLR 15/15 A3022 RMK AO2 T01500149,2025-09-12T05:00:31Z,2025-09-12T01:00:31Z,DeKalb Taylor Municipal Airport,41.936316,-88.704128,US,US-IL
KDKB,"DeKalb/Taylor Muni, IL, US",2025-09-12T04:55:00Z,2025-09-12 04:55:00,VFR,15,15,80,6,0,7,1023.5,METAR KDKB 120455Z AUTO 08006KT 7SM CLR 15/15 A3022 RMK AO2 T01500150,2025-09-12T05:17:09Z,2025-09-12T01:17:09Z,DeKalb Taylor Municipal Airport,41.936316,-88.704128,US,US-IL
KDKK,"Dunkirk/Chautauqua Cnty, NY, US",2025-09-12T04:53:00Z,2025-09-12 00:53:00,VFR,10.6,9.4,0,0,0,NA,1023.1,METAR KDKK 120453Z AUTO 00000KT 10SM CLR 11/09 A3021 RMK AO2 SLP231 T01060094 402330083,2025-09-12T05:00:30Z,2025-09-12T01:00:30Z,Chautauqua County-Dunkirk Airport,42.49247,-79.273102,US,US-NY
KDKR,"Crockett/Houston Cnty, TX, US",2025-09-12T04:55:00Z,2025-09-12 04:55:00,VFR,22,22,0,0,0,NA,1019,METAR KDKR 120455Z AUTO 00000KT 10SM CLR 22/22 A3009 RMK AO2,2025-09-12T05:00:30Z,2025-09-12T01:00:30Z,Houston County Airport,31.306999,-95.403801,US,US-TX
KDKX,"Knoxville/Downtown Aprt, TN, US",2025-09-12T04:35:00Z,2025-09-12 04:35:00,VFR,18,18,0,0,0,NA,1021.1,METAR KDKX 120435Z AUTO 00000KT 10SM CLR 18/18 A3015 RMK A01,2025-09-12T05:00:31Z,2025-09-12T01:00:31Z,Knoxville Downtown Island Airport,35.963902,-83.873901,US,US-TN
KDKX,"Knoxville/Downtown Aprt, TN, US",2025-09-12T04:55:00Z,2025-09-12 04:55:00,VFR,18,18,0,0,0,NA,1021.4,METAR KDKX 120455Z AUTO 00000KT 10SM CLR 18/18 A3016 RMK A01,2025-09-12T05:17:09Z,2025-09-12T01:17:09Z,Knoxville Downtown Island Airport,35.963902,-83.873901,US,US-TN
KDLH,"Duluth Intl Arpt, MN, US",2025-09-12T04:55:00Z,2025-09-11 23:55:00,LIFR,12.2,12.2,110,9,0,0.5,1022.1,METAR KDLH 120455Z 11009KT 1/2SM R09/2200V4000FT FG VV002 12/12 A3018 RMK AO2 SLP228 T01220122 $,2025-09-12T05:00:30Z,2025-09-12T01:00:30Z,Duluth International Airport,46.842098,-92.193604,US,US-MN
KDLL,"Baraboo-Dells Arpt, WI, US",2025-09-12T04:55:00Z,2025-09-12 04:55:00,VFR,13.6,12.7,0,0,0,7,1023.5,METAR KDLL 120455Z AUTO 00000KT 7SM CLR 14/13 A3022 RMK AO2 T01360127,2025-09-12T05:00:30Z,2025-09-12T01:00:30Z,Baraboo Wisconsin Dells Regional Airport,43.522701,-89.770203,US,US-WI
KDLN,"Dillon Arpt, MT, US",2025-09-12T04:53:00Z,2025-09-11 22:53:00,VFR,11.1,5,VAR,5,0,NA,1018.7,METAR KDLN 120453Z AUTO VRB05KT 10SM CLR 11/05 A3008 RMK AO2 SLP151 T01110050,2025-09-12T05:00:33Z,2025-09-12T01:00:33Z,Dillon Airport,45.255401611299995,-112.553001404,US,US-MT
KDLO,"Delano Muni, CA, US",2025-09-12T04:55:00Z,2025-09-12 04:55:00,NA,20.2,11,130,3,0,NA,1013,METAR KDLO 120455Z AUTO 13003KT 10SM 20/11 A2991 RMK AO2 T02020110,2025-09-12T05:00:32Z,2025-09-12T01:00:32Z,Delano Municipal Airport,35.745601654052734,-119.23699951171876,US,US-CA
KDLO,"Delano Muni, CA, US",2025-09-12T05:15:00Z,2025-09-12 05:15:00,NA,20.4,12,0,0,0,NA,1013,METAR KDLO 120515Z AUTO 00000KT 10SM 20/12 A2991 RMK AO2 T02040120,2025-09-12T05:17:11Z,2025-09-12T01:17:11Z,Delano Municipal Airport,35.745601654052734,-119.23699951171876,US,US-CA
KDLS,"The Dalles Muni, OR, US",2025-09-12T04:53:00Z,2025-09-11 21:53:00,VFR,20,12.8,290,8,0,NA,1014.6,METAR KDLS 120453Z AUTO 29008KT 10SM FEW110 20/13 A2996 RMK AO2 SLP145 T02000128,2025-09-12T05:00:33Z,2025-09-12T01:00:33Z,Columbia Gorge Regional Airport,45.620979,-121.170777,US,US-OR
KDLZ,"Delaware Muni, OH, US",2025-09-12T04:55:00Z,2025-09-12 04:55:00,VFR,13,10,350,1,0,NA,1023.1,METAR KDLZ 120455Z AUTO 35001KT 10SM CLR 13/10 A3021 RMK AO2,2025-09-12T05:00:33Z,2025-09-12T01:00:33Z,Delaware Municipal Airport,40.279701,-83.114799,US,US-OH
KDMN,"Deming Muni, NM, US",2025-09-12T04:53:00Z,2025-09-11 22:53:00,VFR,27.2,5.6,VAR,4,0,NA,1019.4,METAR KDMN 120453Z AUTO VRB04KT 10SM OVC100 27/06 A3010 RMK AO2 SLP103 T02720056,2025-09-12T05:00:33Z,2025-09-12T01:00:33Z,Deming Municipal Airport,32.262298584,-107.721000671,US,US-NM
KDMO,"Sedalia Mem, MO, US",2025-09-12T04:53:00Z,2025-09-11 23:53:00,VFR,22.8,16.7,0,0,0,NA,1020.1,METAR KDMO 120453Z AUTO 00000KT 10SM CLR 23/17 A3012 RMK AO2 SLP189 T02280167,2025-09-12T05:00:33Z,2025-09-12T01:00:33Z,Sedalia Memorial Airport,38.70740127559999,-93.1759033203,US,US-MO
KDMW,"Westminster/Carroll Cnty Rgnl, MD, US",2025-09-12T04:45:00Z,2025-09-12 04:45:00,VFR,17,12,0,0,0,NA,1021.8,METAR KDMW 120445Z AUTO 00000KT 10SM CLR 17/12 A3017 RMK AO2,2025-09-12T05:00:33Z,2025-09-12T01:00:33Z,Carroll County Regional Jack B Poage Field,39.60829926,-77.00769806,US,US-MD
KDMW,"Westminster/Carroll Cnty Rgnl, MD, US",2025-09-12T05:05:00Z,2025-09-12 05:05:00,VFR,16,12,0,0,0,NA,1021.8,METAR KDMW 120505Z AUTO 00000KT 10SM CLR 16/12 A3017 RMK AO2,2025-09-12T05:17:11Z,2025-09-12T01:17:11Z,Carroll County Regional Jack B Poage Field,39.60829926,-77.00769806,US,US-MD
KDNL,"Augusta/Daniel Fld, GA, US",2025-09-12T04:53:00Z,2025-09-12 00:53:00,VFR,21.7,14.4,20,3,0,NA,1019.7,METAR KDNL 120453Z AUTO 02003KT 10SM CLR 22/14 A3011 RMK AO2 SLP192 T02170144 403000167,2025-09-12T05:00:33Z,2025-09-12T01:00:33Z,Daniel Field,33.4664993286,-82.0393981934,US,US-GA
KDNN,"Dalton Muni, GA, US",2025-09-12T04:55:00Z,2025-09-12 00:55:00,VFR,18.5,18.5,0,0,0,8,1020.1,METAR KDNN 120455Z AUTO 00000KT 8SM CLR 18/18 A3012 RMK AO2 T01850185,2025-09-12T05:00:33Z,2025-09-12T01:00:33Z,Dalton Municipal Airport,34.72290039,-84.87020111,US,US-GA
KDNS,"Denison Muni, IA, US",2025-09-12T04:55:00Z,2025-09-11 23:55:00,VFR,21,18,130,7,0,NA,1018.4,METAR KDNS 120455Z AUTO 13007KT 10SM CLR 21/18 A3007 RMK AO2,2025-09-12T05:00:33Z,2025-09-12T01:00:33Z,Denison Municipal Airport,41.9864006,-95.38069916,US,US-IA
KDNV,"Danville/Vermillion Rgnl, IL, US",2025-09-12T04:55:00Z,2025-09-11 23:55:00,VFR,17.9,12,60,5,0,NA,1022.4,METAR KDNV 120455Z AUTO 06005KT 10SM CLR 18/12 A3019 RMK AO2 T01790120,2025-09-12T05:00:33Z,2025-09-12T01:00:33Z,Vermilion Regional Airport,40.199124,-87.59663,US,US-IL
KDPA,"Dupage Cnty Arpt, IL, US",2025-09-12T04:52:00Z,2025-09-11 23:52:00,VFR,16.7,15.6,50,4,0,9,1023.1,METAR KDPA 120452Z 05004KT 9SM CLR 17/16 A3021 RMK AO2 SLP227 T01670156,2025-09-12T05:00:33Z,2025-09-12T01:00:33Z,Dupage Airport,41.90779877,-88.24859619,US,US-IL
KDPL,"Kenansville/Duplin Arpt, NC, US",2025-09-12T04:50:00Z,2025-09-12 04:50:00,VFR,20,19,40,5,0,NA,1019.7,METAR KDPL 120450Z AUTO 04005KT 10SM SCT065 OVC085 20/19 A3011 RMK AO2,2025-09-12T05:00:33Z,2025-09-12T01:00:33Z,Duplin County Airport,35.00009918,-77.98169708,US,US-NC
KDPL,"Kenansville/Duplin Arpt, NC, US",2025-09-12T05:10:00Z,2025-09-12 05:10:00,VFR,20,19,30,3,0,NA,1019.7,METAR KDPL 120510Z AUTO 03003KT 10SM OVC085 20/19 A3011 RMK AO2,2025-09-12T05:17:11Z,2025-09-12T01:17:11Z,Duplin County Airport,35.00009918,-77.98169708,US,US-NC
KDQH,"Douglas Muni, GA, US",2025-09-12T04:55:00Z,2025-09-12 04:55:00,VFR,20.3,17.1,0,0,0,NA,1019.7,METAR KDQH 120455Z AUTO 00000KT 10SM CLR 20/17 A3011 RMK AO2 LTG DSNT S T02030171,2025-09-12T05:00:33Z,2025-09-12T01:00:33Z,Douglas Municipal Gene Chambers Airport,31.4767,-82.860497,US,US-GA
KDQH,"Douglas Muni, GA, US",2025-09-12T05:15:00Z,2025-09-12 05:15:00,VFR,19.5,17,0,0,0,NA,1019.4,METAR KDQH 120515Z AUTO 00000KT 10SM CLR 20/17 A3010 RMK AO2 T01950170,2025-09-12T05:17:11Z,2025-09-12T01:17:11Z,Douglas Municipal Gene Chambers Airport,31.4767,-82.860497,US,US-GA
KDRA,"Mercury/Desert Rock, NV, US",2025-09-12T04:53:00Z,2025-09-11 21:53:00,VFR,21.1,1.1,360,3,0,NA,1013,METAR KDRA 120453Z AUTO 36003KT 10SM CLR 21/01 A2991 RMK AO2 SLP089 T02110011,2025-09-12T05:00:33Z,2025-09-12T01:00:33Z,Desert Rock Airport,36.6194,-116.032997,US,US-NV
KDRI,"Deridder/Beauregard Rgnl, LA, US",2025-09-12T04:55:00Z,2025-09-11 23:55:00,VFR,24.9,21.7,0,0,0,NA,1019.4,METAR KDRI 120455Z AUTO 00000KT 10SM CLR 25/22 A3010 RMK AO2 T02490217 $,2025-09-12T05:00:32Z,2025-09-12T01:00:32Z,Beauregard Regional Airport,30.831699,-93.339897,US,US-LA
KDRM,"Drummond Island Arpt, MI, US",2025-09-12T04:55:00Z,2025-09-12 00:55:00,VFR,10.2,10.2,0,0,0,7,1024.8,METAR KDRM 120455Z AUTO 00000KT 7SM SCT055 10/10 A3026 RMK AO2 T01020102,2025-09-12T05:00:33Z,2025-09-12T01:00:33Z,Drummond Island Airport,46.0093002319,-83.74389648440001,US,US-MI
KDRM,"Drummond Island Arpt, MI, US",2025-09-12T05:15:00Z,2025-09-12 01:15:00,VFR,10.4,10.4,0,0,0,7,1025.1,METAR KDRM 120515Z AUTO 00000KT 7SM CLR 10/10 A3027 RMK AO2 T01040104,2025-09-12T05:17:11Z,2025-09-12T01:17:11Z,Drummond Island Airport,46.0093002319,-83.74389648440001,US,US-MI
KDRO,"Durango/La Plata Cnty, CO, US",2025-09-12T04:53:00Z,2025-09-11 22:53:00,VFR,13.3,12.2,40,12,0,NA,1025.8,METAR KDRO 120453Z AUTO 04012KT 10SM -RA OVC100 13/12 A3029 RMK AO2 LTG DSNT ALQDS RAB0356 SLP187 P0009 T01330122 $,2025-09-12T05:00:33Z,2025-09-12T01:00:33Z,Durango La Plata County Airport,37.151501,-107.753998,US,US-CO
KDRP,"Colt/Delta Rgnl, AR, US",2025-09-12T04:35:00Z,2025-09-12 04:35:00,VFR,21,19,0,0,0,NA,1019,METAR KDRP 120435Z AUTO 00000KT 10SM SCT055 21/19 A3009 RMK AO2,2025-09-12T05:00:33Z,2025-09-12T01:00:33Z,Delta Regional Airport,35.1200556,-90.8265,US,US-AR
KDRP,"Colt/Delta Rgnl, AR, US",2025-09-12T04:55:00Z,2025-09-12 04:55:00,VFR,22,19,0,0,0,NA,1019,METAR KDRP 120455Z AUTO 00000KT 10SM FEW045 SCT055 22/19 A3009 RMK AO2,2025-09-12T05:17:11Z,2025-09-12T01:17:11Z,Delta Regional Airport,35.1200556,-90.8265,US,US-AR
KDRT,"Del Rio Intl, TX, US",2025-09-12T04:53:00Z,2025-09-11 23:53:00,VFR,27.2,15,70,6,0,NA,1017.7,METAR KDRT 120453Z AUTO 07006KT 10SM BKN070 27/15 A3005 RMK AO2 SLP165 T02720150,2025-09-12T05:00:33Z,2025-09-12T01:00:33Z,Del Rio International Airport,29.3742008209,-100.927001953,US,US-TX
KDSM,"Des Moines Intl, IA, US",2025-09-12T04:54:00Z,2025-09-11 23:54:00,VFR,22.2,15,120,9,0,NA,1019.4,METAR KDSM 120454Z 12009KT 10SM CLR 22/15 A3010 RMK AO2 SLP186 T02220150,2025-09-12T05:00:33Z,2025-09-12T01:00:33Z,Des Moines International Airport,41.534,-93.663101,US,US-IA
KDSV,"Dansville Muni, NY, US",2025-09-12T04:54:00Z,2025-09-12 00:54:00,VFR,13.3,10.6,160,4,0,NA,1023.8,METAR KDSV 120454Z AUTO 16004KT 10SM CLR 13/11 A3023 RMK AO2 SLP243 T01330106 402780100,2025-09-12T05:00:33Z,2025-09-12T01:00:33Z,Dansville Municipal Airport,42.570545,-77.713273,US,US-NY
KDTA,"Delta Muni, UT, US",2025-09-12T04:55:00Z,2025-09-11 22:55:00,VFR,18,-6,150,13,0,NA,1016.3,METAR KDTA 120455Z AUTO 15013KT 10SM CLR 18/M06 A3001 RMK AO1,2025-09-12T05:00:33Z,2025-09-12T01:00:33Z,Delta Municipal Airport,39.3805999756,-112.508003235,US,US-UT
KDTL,"Detroit Lakes Arpt, MN, US",2025-09-12T04:46:00Z,2025-09-11 23:46:00,VFR,18,16,130,13,0,NA,1017.7,METAR KDTL 120446Z 13013KT 10SM FEW034 FEW043 18/16 A3005 RMK AO2,2025-09-12T05:00:33Z,2025-09-12T01:00:33Z,Detroit Lakes Airport,46.824301,-95.883322,US,US-MN
KDTL,"Detroit Lakes Arpt, MN, US",2025-09-12T05:06:00Z,2025-09-12 00:06:00,VFR,18,16,130,12,0,NA,1017.4,METAR KDTL 120506Z 13012KT 10SM FEW034 FEW110 18/16 A3004 RMK AO2,2025-09-12T05:17:11Z,2025-09-12T01:17:11Z,Detroit Lakes Airport,46.824301,-95.883322,US,US-MN
KDTN,"Shreveport/Downtown Arpt, LA, US",2025-09-12T04:53:00Z,2025-09-11 23:53:00,VFR,24.4,21.1,0,0,0,NA,1019,METAR KDTN 120453Z AUTO 00000KT 10SM CLR 24/21 A3009 RMK AO2 SLP187 T02440211,2025-09-12T05:00:33Z,2025-09-12T01:00:33Z,Shreveport Downtown Airport,32.5401992798,-93.7450027466,US,US-LA
KDTO,"Denton Muni, TX, US",2025-09-12T04:53:00Z,2025-09-12 04:53:00,VFR,21.7,20.6,0,0,0,NA,1019,METAR KDTO 120453Z AUTO 00000KT 10SM CLR 22/21 A3009 RMK AO2 SLP182 T02170206,2025-09-12T05:00:33Z,2025-09-12T01:00:33Z,Denton Enterprise Airport,33.201769,-97.197983,US,US-TX
KDTS,"Destin Arpt, FL, US",2025-09-12T04:53:00Z,2025-09-11 23:53:00,VFR,23.3,18.9,0,0,0,NA,1018,METAR KDTS 120453Z AUTO 00000KT 10SM CLR 23/19 A3006 RMK AO2 SLP179 T02330189,2025-09-12T05:00:33Z,2025-09-12T01:00:33Z,Destin Executive Airport,30.400101,-86.471497,US,US-FL
KDTW,"Detroit/Metro Wayne Cnty, MI, US",2025-09-12T04:53:00Z,2025-09-12 00:53:00,VFR,17.2,10.6,0,0,0,NA,1024.1,METAR KDTW 120453Z 00000KT 10SM FEW070 FEW250 17/11 A3024 RMK AO2 SLP236 T01720106 402670122,2025-09-12T05:00:33Z,2025-09-12T01:00:33Z,Detroit Metropolitan Wayne County Airport,42.21377,-83.353786,US,US-MI
KDUA,"Durant/Eaker Fld, OK, US",2025-09-12T04:55:00Z,2025-09-11 23:55:00,VFR,22,20,0,0,0,8,1020.1,METAR KDUA 120455Z AUTO 00000KT 8SM CLR 22/20 A3012 RMK AO2,2025-09-12T05:00:33Z,2025-09-12T01:00:33Z,Durant Regional Airport - Eaker Field,33.939675,-96.395072,US,US-OK
KDUC,"Duncan/Halliburton Fld, OK, US",2025-09-12T04:35:00Z,2025-09-11 23:35:00,VFR,23,15,130,5,0,NA,1019.4,METAR KDUC 120435Z AUTO 13005KT 10SM CLR 23/15 A3010 RMK AO2,2025-09-12T05:00:33Z,2025-09-12T01:00:33Z,Halliburton Field,34.47090149,-97.9598999,US,US-OK
KDUC,"Duncan/Halliburton Fld, OK, US",2025-09-12T04:55:00Z,2025-09-11 23:55:00,VFR,23,16,140,6,0,NA,1019.4,METAR KDUC 120455Z AUTO 14006KT 10SM CLR 23/16 A3010 RMK AO2,2025-09-12T05:17:11Z,2025-09-12T01:17:11Z,Halliburton Field,34.47090149,-97.9598999,US,US-OK
KDUH,"Toledo/Suburban Arpt, MI, US",2025-09-12T04:55:00Z,2025-09-12 04:55:00,VFR,12.7,12.4,0,0,0,NA,1023.5,METAR KDUH 120455Z AUTO 00000KT 10SM CLR 13/12 A3022 RMK AO2 T01270124 402620094,2025-09-12T05:00:33Z,2025-09-12T01:00:33Z,Toledo Suburban Airport,41.73590087890625,-83.65540313720703,US,US-MI
KDUH,"Toledo/Suburban Arpt, MI, US",2025-09-12T05:15:00Z,2025-09-12 05:15:00,VFR,12.5,12.1,0,0,0,7,1023.5,METAR KDUH 120515Z AUTO 00000KT 7SM CLR 13/12 A3022 RMK AO2 T01250121,2025-09-12T05:17:11Z,2025-09-12T01:17:11Z,Toledo Suburban Airport,41.73590087890625,-83.65540313720703,US,US-MI
KDUJ,"Du Bois Rgnl, PA, US",2025-09-12T04:53:00Z,2025-09-12 00:53:00,VFR,15,8.3,50,3,0,NA,1023.5,METAR KDUJ 120453Z AUTO 05003KT 10SM CLR 15/08 A3022 RMK AO2 SLP225 T01500083 402440083,2025-09-12T05:00:33Z,2025-09-12T01:00:33Z,DuBois Regional Airport,41.17829895,-78.8986969,US,US-PA
KDUX,"Dumas/Moore Cnty, TX, US",2025-09-12T04:55:00Z,2025-09-12 04:55:00,VFR,23,9,180,11,0,NA,1021.4,METAR KDUX 120455Z AUTO 18011KT 10SM CLR 23/09 A3016 RMK AO2 T02300090,2025-09-12T05:00:33Z,2025-09-12T01:00:33Z,Moore County Airport,35.857899,-102.013,US,US-TX
KDVK,"Danville/Powell Fld, KY, US",2025-09-12T04:30:00Z,2025-09-12 04:30:00,VFR,16,13,0,0,0,NA,1022.1,METAR KDVK 120430Z AUTO 00000KT 10SM CLR 16/13 A3018 RMK AO2,2025-09-12T05:00:33Z,2025-09-12T01:00:33Z,Stuart Powell Field,37.579409,-84.774347,US,US-KY
KDVK,"Danville/Powell Fld, KY, US",2025-09-12T04:50:00Z,2025-09-12 04:50:00,VFR,16,13,0,0,0,NA,1022.1,METAR KDVK 120450Z AUTO 00000KT 10SM CLR 16/13 A3018 RMK AO2,2025-09-12T05:17:12Z,2025-09-12T01:17:12Z,Stuart Powell Field,37.579409,-84.774347,US,US-KY
KDVL,"Devils Lake Rgnl, ND, US",2025-09-12T04:56:00Z,2025-09-11 23:56:00,VFR,21.1,18.9,150,12,0,NA,1013.6,METAR KDVL 120456Z AUTO 15012KT 10SM CLR 21/19 A2993 RMK AO2 SLP137 T02110189 402390161,2025-09-12T05:00:32Z,2025-09-12T01:00:32Z,Devils Lake Regional Airport,48.115454,-98.908796,US,US-ND
KDVN,"Davenport Muni, IA, US",2025-09-12T04:52:00Z,2025-09-11 23:52:00,VFR,17.8,13.9,90,8,0,NA,1022.4,METAR KDVN 120452Z AUTO 09008KT 10SM CLR 18/14 A3019 RMK AO2 SLP215 T01780139,2025-09-12T05:00:33Z,2025-09-12T01:00:33Z,Davenport Municipal Airport,41.610432,-90.589693,US,US-IA
KDVO,"Novato/Gnoss Fld, CA, US",2025-09-12T04:55:00Z,2025-09-11 21:55:00,VFR,18,14,0,0,0,NA,1014.3,METAR KDVO 120455Z AUTO 00000KT 10SM CLR 18/14 A2995 RMK AO2,2025-09-12T05:00:33Z,2025-09-12T01:00:33Z,Marin County Airport - Gnoss Field,38.143600463867,-122.55599975586,US,US-CA
KDVT,"Phoenix/Deer Valley Arpt, AZ, US",2025-09-12T04:53:00Z,2025-09-11 21:53:00,VFR,32.2,10.6,240,10,0,NA,1010.6,METAR KDVT 120453Z AUTO 24010KT 10SM CLR 32/11 A2984 RMK AO2 SLP076 T03220106,2025-09-12T05:00:33Z,2025-09-12T01:00:33Z,Phoenix Deer Valley Airport,33.6883010864,-112.083000183,US,US-AZ
KDWA,"Davis/Yolo Cnty, CA, US",2025-09-12T04:35:00Z,2025-09-12 04:35:00,VFR,22,14,0,0,0,NA,1013.6,METAR KDWA 120435Z AUTO 00000KT 10SM SCT047 22/14 A2993 RMK AO2,2025-09-12T05:00:33Z,2025-09-12T01:00:33Z,Yolo County Davis Woodland Winters Airport,38.57910156,-121.8570023,US,US-CA
KDWA,"Davis/Yolo Cnty, CA, US",2025-09-12T04:55:00Z,2025-09-12 04:55:00,VFR,22,14,0,0,0,NA,1014,METAR KDWA 120455Z AUTO 00000KT 10SM SCT042 BKN048 22/14 A2994 RMK AO2,2025-09-12T05:17:12Z,2025-09-12T01:17:12Z,Yolo County Davis Woodland Winters Airport,38.57910156,-121.8570023,US,US-CA
KDWH,"Houston/Hooks Mem, TX, US",2025-09-12T04:53:00Z,2025-09-11 23:53:00,VFR,21.7,20.6,0,0,0,NA,1018.7,METAR KDWH 120453Z AUTO 00000KT 10SM CLR 22/21 A3008 RMK AO2 SLP184 T02170206,2025-09-12T05:00:33Z,2025-09-12T01:00:33Z,David Wayne Hooks Memorial Airport,30.0618000031,-95.5528030396,US,US-TX
KDWU,"Ashland Rgnl, KY, US",2025-09-12T04:56:00Z,2025-09-12 04:56:00,VFR,15,NA,0,0,0,NA,1022.1,METAR KDWU 120456Z AUTO 00000KT 10SM CLR 15/ A3018 RMK AO2 SLP218 T0150 403000117,2025-09-12T05:00:32Z,2025-09-12T01:00:32Z,Ashland Regional Airport,38.554501,-82.737999,US,US-KY
KDXR,"Danbury Muni, CT, US",2025-09-12T04:53:00Z,2025-09-12 00:53:00,VFR,13.3,11.1,230,3,0,NA,1021.4,METAR KDXR 120453Z AUTO 23003KT 10SM CLR 13/11 A3016 RMK AO2 SLP209 T01330111 402610094,2025-09-12T05:00:33Z,2025-09-12T01:00:33Z,Danbury Municipal Airport,41.371656,-73.482227,US,US-CT
KDXX,"Madison/Lac Qui Parle Cnty, MN, US",2025-09-12T04:55:00Z,2025-09-12 04:55:00,VFR,18,17,130,6,0,NA,1017.4,METAR KDXX 120455Z AUTO 13006KT 10SM CLR 18/17 A3004 RMK AO2,2025-09-12T05:00:32Z,2025-09-12T01:00:32Z,Lac Qui Parle County Airport,44.986198,-96.177696,US,US-MN
KDXX,"Madison/Lac Qui Parle Cnty, MN, US",2025-09-12T05:15:00Z,2025-09-12 05:15:00,VFR,18,17,130,5,0,NA,1017.4,METAR KDXX 120515Z AUTO 13005KT 10SM CLR 18/17 A3004 RMK AO2,2025-09-12T05:17:11Z,2025-09-12T01:17:11Z,Lac Qui Parle County Airport,44.986198,-96.177696,US,US-MN
KDYA,"Demopolis Muni, AL, US",2025-09-12T04:55:00Z,2025-09-12 04:55:00,VFR,20.2,19.3,0,0,0,NA,1019,METAR KDYA 120455Z AUTO 00000KT 10SM CLR 20/19 A3009 RMK AO2 T02020193,2025-09-12T05:00:33Z,2025-09-12T01:00:33Z,Demopolis Municipal Airport,32.463799,-87.954102,US,US-AL
KDYA,"Demopolis Muni, AL, US",2025-09-12T05:15:00Z,2025-09-12 05:15:00,VFR,20.2,19.8,0,0,0,NA,1019,METAR KDYA 120515Z AUTO 00000KT 10SM CLR 20/20 A3009 RMK AO2 T02020198,2025-09-12T05:17:11Z,2025-09-12T01:17:11Z,Demopolis Municipal Airport,32.463799,-87.954102,US,US-AL
KDYB,"Summerville Arpt, SC, US",2025-09-12T04:55:00Z,2025-09-12 04:55:00,MVFR,20,20,0,0,0,NA,1018.7,METAR KDYB 120455Z AUTO 00000KT 10SM BKN027 20/20 A3008 RMK AO2,2025-09-12T05:00:32Z,2025-09-12T01:00:32Z,Summerville Airport,33.0634,-80.279297,US,US-SC
KDYL,"Doylestown Arpt, PA, US",2025-09-12T04:54:00Z,2025-09-12 00:54:00,VFR,14.4,11.1,0,0,0,NA,1020.7,METAR KDYL 120454Z AUTO 00000KT 10SM CLR 14/11 A3014 RMK AO2 SLP203 T01440111 402780139 $,2025-09-12T05:00:33Z,2025-09-12T01:00:33Z,Doylestown Airport,40.3330001831,-75.1222991943,US,US-PA
KDYR,"Dyersburg Rgnl, TN, US",2025-09-12T04:56:00Z,2025-09-12 04:56:00,VFR,21.7,20,0,0,0,NA,1019.7,METAR KDYR 120456Z AUTO 00000KT 10SM CLR 22/20 A3011 RMK AO2 SLP199 T02170200,2025-09-12T05:00:32Z,2025-09-12T01:00:32Z,Dyersburg Regional Airport,35.999158,-89.404898,US,US-TN
KDYT,"Duluth/Sky Harbor Arpt, MN, US",2025-09-12T04:55:00Z,2025-09-12 04:55:00,IFR,14,14,50,13,0,NA,1022.1,METAR KDYT 120455Z AUTO 05013KT 10SM OVC005 14/14 A3018 RMK AO2,2025-09-12T05:00:33Z,2025-09-12T01:00:33Z,Sky Harbor Airport,46.721901,-92.043404,US,US-MN
KDYT,"Duluth/Sky Harbor Arpt, MN, US",2025-09-12T05:15:00Z,2025-09-12 05:15:00,IFR,14,14,50,14,0,NA,1021.8,METAR KDYT 120515Z AUTO 05014KT 10SM OVC005 14/14 A3017 RMK AO2,2025-09-12T05:17:11Z,2025-09-12T01:17:11Z,Sky Harbor Airport,46.721901,-92.043404,US,US-MN
KDZB,"Marble Falls/Horseshoe Bay Arpt, TX, US",2025-09-12T04:55:00Z,2025-09-12 04:55:00,NA,25.2,19.1,150,5,0,NA,1020.1,METAR KDZB 120455Z AUTO 15005KT CLR 25/19 A3012 RMK AO2 T02520191 PWINO,2025-09-12T05:00:32Z,2025-09-12T01:00:32Z,Horseshoe Bay Resort Airpark,30.52709961,-98.35870361,US,US-TX
KDZJ,"Blairsville Arpt, GA, US",2025-09-12T04:55:00Z,2025-09-12 04:55:00,MVFR,13.8,NA,0,0,0,5,1022.8,METAR KDZJ 120455Z AUTO 00000KT 5SM HZ CLR 14/ A3020 RMK AO2 T0138////,2025-09-12T05:00:33Z,2025-09-12T01:00:33Z,Blairsville Airport,34.855099,-83.996902,US,US-GA
KE01,"Monahans/Hurd Mem, TX, US",2025-09-12T04:35:00Z,2025-09-11 23:35:00,VFR,25,14,130,6,0,NA,1020.1,METAR KE01 120435Z AUTO 13006KT 10SM CLR 25/14 A3012 RMK AO2,2025-09-12T05:00:33Z,2025-09-12T01:00:33Z,Roy Hurd Memorial Airport,31.582500457764,-102.90899658203,US,US-TX
KE01,"Monahans/Hurd Mem, TX, US",2025-09-12T04:55:00Z,2025-09-11 23:55:00,VFR,25,14,130,7,0,NA,1020.1,METAR KE01 120455Z AUTO 13007KT 10SM CLR 25/14 A3012 RMK AO2,2025-09-12T05:17:12Z,2025-09-12T01:17:12Z,Roy Hurd Memorial Airport,31.582500457764,-102.90899658203,US,US-TX
KE11,"Andrews Cnty, TX, US",2025-09-12T04:35:00Z,2025-09-12 04:35:00,VFR,23.8,11.9,170,8,0,NA,1022.1,METAR KE11 120435Z AUTO 17008KT 10SM CLR 24/12 A3018 RMK AO2 T02380119,2025-09-12T05:00:33Z,2025-09-12T01:00:33Z,Andrews County Airport,32.331100463867,-102.5299987793,US,US-TX
KE11,"Andrews Cnty, TX, US",2025-09-12T04:55:00Z,2025-09-12 04:55:00,VFR,23.6,12.3,160,7,0,NA,1022.1,METAR KE11 120455Z AUTO 16007KT 10SM CLR 24/12 A3018 RMK AO2 T02360123 403360145,2025-09-12T05:17:11Z,2025-09-12T01:17:11Z,Andrews County Airport,32.331100463867,-102.5299987793,US,US-TX
KE16,"San Martin Arpt, CA, US",2025-09-12T04:35:00Z,2025-09-12 04:35:00,VFR,18,14,300,6,0,NA,1016.3,METAR KE16 120435Z AUTO 30006KT 10SM FEW030 SCT060 18/14 A3001 RMK AO2,2025-09-12T05:00:33Z,2025-09-12T01:00:33Z,San Martin Airport,37.08160019,-121.5970001,US,US-CA
KE16,"San Martin Arpt, CA, US",2025-09-12T04:55:00Z,2025-09-12 04:55:00,VFR,18,14,320,7,0,NA,1016.3,METAR KE16 120455Z AUTO 32007KT 10SM CLR 18/14 A3001 RMK AO2,2025-09-12T05:17:11Z,2025-09-12T01:17:11Z,San Martin Airport,37.08160019,-121.5970001,US,US-CA
KE38,"Alpine/Casparis Muni, TX, US",2025-09-12T04:55:00Z,2025-09-11 23:55:00,VFR,22.1,11.2,170,4,0,NA,1025.1,METAR KE38 120455Z AUTO 17004KT 10SM CLR 22/11 A3027 RMK AO2 T02210112,2025-09-12T05:00:33Z,2025-09-12T01:00:33Z,Alpine Casparis Municipal Airport,30.384199,-103.683998,US,US-TX
KE41,"Big Lake/Reagan Cnty, TX, US",2025-09-12T04:55:00Z,2025-09-12 04:55:00,VFR,23.7,11.6,150,7,0,NA,1021.8,METAR KE41 120455Z AUTO 15007KT 10SM CLR 24/12 A3017 RMK AO2 T02370116,2025-09-12T05:00:33Z,2025-09-12T01:00:33Z,Reagan County Airport,31.198900222800003,-101.472999573,US,US-TX
KE57,"Denver City Arpt, TX, US",2025-09-12T04:55:00Z,2025-09-12 04:55:00,VFR,21,10,160,7,0,NA,1022.1,METAR KE57 120455Z AUTO 16007KT 10SM CLR 21/10 A3018 RMK AO2,2025-09-12T05:00:33Z,2025-09-12T01:00:33Z,Denver City Airport,32.976466,-102.84231,US,US-TX
KE77,"San Manuel Arpt, AZ, US",2025-09-12T04:30:00Z,2025-09-12 04:30:00,VFR,21,19,210,4,0,NA,1018.4,METAR KE77 120430Z AUTO 21004KT 10SM CLR 21/19 A3007 RMK AO2 PWINO,2025-09-12T05:00:33Z,2025-09-12T01:00:33Z,San Manuel Airport,32.636501,-110.647003,US,US-AZ
KE77,"San Manuel Arpt, AZ, US",2025-09-12T04:55:00Z,2025-09-12 04:55:00,VFR,21,19,0,0,0,NA,1018.4,METAR KE77 120455Z AUTO 00000KT 10SM CLR 21/19 A3007 RMK AO2 LTG DSNT W PWINO,2025-09-12T05:17:11Z,2025-09-12T01:17:11Z,San Manuel Airport,32.636501,-110.647003,US,US-AZ
KEAN,"Wheatland/Phifer Fld, WY, US",2025-09-12T04:35:00Z,2025-09-11 22:35:00,VFR,22.5,4.1,200,5,0,NA,1017.4,METAR KEAN 120435Z AUTO 20005KT 10SM CLR 23/04 A3004 RMK AO2 T02250041,2025-09-12T05:00:33Z,2025-09-12T01:00:33Z,Phifer Airfield,42.0555,-104.929001,US,US-WY
KEAN,"Wheatland/Phifer Fld, WY, US",2025-09-12T04:55:00Z,2025-09-11 22:55:00,VFR,21.7,4.2,220,6,0,NA,1017.4,METAR KEAN 120455Z AUTO 22006KT 10SM CLR 22/04 A3004 RMK AO2 T02170042,2025-09-12T05:17:11Z,2025-09-12T01:17:11Z,Phifer Airfield,42.0555,-104.929001,US,US-WY
KEAR,"Kearney Rgnl, NE, US",2025-09-12T04:56:00Z,2025-09-11 23:56:00,VFR,22.8,18.9,150,12,0,NA,1015,METAR KEAR 120456Z AUTO 15012KT 10SM CLR 23/19 A2997 RMK AO2 SLP128 T02280189,2025-09-12T05:00:32Z,2025-09-12T01:00:32Z,Kearney Regional Airport,40.727001,-99.006798,US,US-NE
KEAT,"Wenatchee/Pangborn Mem, WA, US",2025-09-12T04:55:00Z,2025-09-11 21:55:00,VFR,23.3,11.7,320,12,0,NA,1013,METAR KEAT 120455Z AUTO 32012KT 10SM CLR 23/12 A2991 RMK AO2 SLP118 T02330117,2025-09-12T05:00:33Z,2025-09-12T01:00:33Z,Pangborn Memorial Airport,47.398899,-120.207001,US,US-WA
KEAU,"Eau Claire/Chippewa Valley Rgnl, WI, US",2025-09-12T04:56:00Z,2025-09-11 23:56:00,VFR,16.1,14.4,140,5,0,NA,1022.1,METAR KEAU 120456Z AUTO 14005KT 10SM CLR 16/14 A3018 RMK AO2 SLP219 T01610144,2025-09-12T05:00:32Z,2025-09-12T01:00:32Z,Chippewa Valley Regional Airport,44.86579895019531,-91.48429870605467,US,US-WI
KEBG,"Edinburg/S Texas Intl, TX, US",2025-09-12T04:55:00Z,2025-09-12 04:55:00,VFR,27,24,0,0,0,NA,1016.7,METAR KEBG 120455Z AUTO 00000KT 10SM FEW023 FEW030 27/24 A3002 RMK AO2 403610234,2025-09-12T05:00:32Z,2025-09-12T01:00:32Z,South Texas International at Edinburg Airport,26.4417,-98.1222,US,US-TX
KECG,"Elizabeth City Rgnl, NC, US",2025-09-12T04:54:00Z,2025-09-12 00:54:00,VFR,18.9,17.8,360,5,0,NA,1019.7,METAR KECG 120454Z AUTO 36005KT 10SM FEW085 19/18 A3011 RMK AO2 SLP195 T01890178 402500189,2025-09-12T05:00:33Z,2025-09-12T01:00:33Z,Elizabeth City Regional Airport & Coast Guard Air Station,36.260601,-76.174599,US,US-NC
KECP,"Panama City/NW Florida Beaches Intl, FL, US",2025-09-12T04:53:00Z,2025-09-11 23:53:00,VFR,22.8,16.7,50,4,0,NA,1018,METAR KECP 120453Z AUTO 05004KT 10SM CLR 23/17 A3006 RMK AO2 SLP189 T02280167,2025-09-12T05:00:33Z,2025-09-12T01:00:33Z,Northwest Florida Beaches International Airport,30.357106,-85.795414,US,US-FL
KECS,"Newcastle/Mondell Arpt, WY, US",2025-09-12T04:55:00Z,2025-09-11 22:55:00,VFR,22,5,100,11,0,NA,1015.7,METAR KECS 120455Z AUTO 10011KT 10SM CLR 22/05 A2999 RMK AO2,2025-09-12T05:00:32Z,2025-09-12T01:00:32Z,Mondell Field,43.88379,-104.314156,US,US-WY
KECU,"Rocksprings/Edwards Cnty, TX, US",2025-09-12T04:55:00Z,2025-09-12 04:55:00,VFR,23,15,100,4,0,NA,1022.4,METAR KECU 120455Z AUTO 10004KT 10SM CLR 23/15 A3019 RMK AO2,2025-09-12T05:00:32Z,2025-09-12T01:00:32Z,Edwards County Airport,29.9468994140625,-100.17400360107422,US,US-TX
KEDC,"Austin/Executive Arpt, TX, US",2025-09-12T04:55:00Z,2025-09-12 04:55:00,VFR,26,20,150,5,0,9,1018.7,METAR KEDC 120455Z AUTO 15005KT 9SM FEW028 SCT033 SCT040 26/20 A3008 RMK AO2,2025-09-12T05:00:32Z,2025-09-12T01:00:32Z,Austin Executive Airport,30.398049,-97.566909,US,US-TX
KEDC,"Austin/Executive Arpt, TX, US",2025-09-12T05:15:00Z,2025-09-12 05:15:00,VFR,26,20,150,4,0,9,1018.7,METAR KEDC 120515Z AUTO 15004KT 9SM FEW025 FEW030 BKN039 26/20 A3008 RMK AO2,2025-09-12T05:17:11Z,2025-09-12T01:17:11Z,Austin Executive Airport,30.398049,-97.566909,US,US-TX
KEDE,"Edenton/Northeast Rgnl, NC, US",2025-09-12T04:45:00Z,2025-09-12 00:45:00,VFR,19.1,17.8,20,3,0,NA,1020.1,METAR KEDE 120445Z AUTO 02003KT 10SM OVC080 19/18 A3012 RMK AO2 T01910178,2025-09-12T05:00:33Z,2025-09-12T01:00:33Z,Northeastern Regional Airport,36.027698516799994,-76.56710052490001,US,US-NC
KEDE,"Edenton/Northeast Rgnl, NC, US",2025-09-12T05:05:00Z,2025-09-12 01:05:00,VFR,19,17.7,360,4,0,NA,1020.1,METAR KEDE 120505Z AUTO 36004KT 10SM OVC080 19/18 A3012 RMK AO2 T01900177,2025-09-12T05:17:11Z,2025-09-12T01:17:11Z,Northeastern Regional Airport,36.027698516799994,-76.56710052490001,US,US-NC
KEDJ,"Bellefontaine Rgnl, OH, US",2025-09-12T04:55:00Z,2025-09-12 04:55:00,VFR,17,8,100,4,0,NA,1023.5,METAR KEDJ 120455Z AUTO 10004KT 10SM CLR 17/08 A3022 RMK A01,2025-09-12T05:00:33Z,2025-09-12T01:00:33Z,Bellefontaine Regional Airport,40.372299,-83.819,US,US-OH
KEDJ,"Bellefontaine Rgnl, OH, US",2025-09-12T05:15:00Z,2025-09-12 05:15:00,VFR,17,8,0,0,0,NA,1023.5,METAR KEDJ 120515Z AUTO 00000KT 10SM CLR 17/08 A3022 RMK A01,2025-09-12T05:17:11Z,2025-09-12T01:17:11Z,Bellefontaine Regional Airport,40.372299,-83.819,US,US-OH
KEDN,"Enterprise Muni, AL, US",2025-09-12T04:55:00Z,2025-09-11 23:55:00,VFR,20,16.9,0,0,0,NA,1019,METAR KEDN 120455Z AUTO 00000KT 10SM CLR 20/17 A3009 RMK AO1 T02000169 403110152,2025-09-12T05:00:33Z,2025-09-12T01:00:33Z,Enterprise Municipal Airport,31.29969978,-85.89990234,US,US-AL
KEDU,"Davis/University Arpt, CA, US",2025-09-12T04:35:00Z,2025-09-12 04:35:00,VFR,20,15,0,0,0,NA,1013.6,METAR KEDU 120435Z AUTO 00000KT 10SM CLR 20/15 A2993 RMK AO1,2025-09-12T05:00:33Z,2025-09-12T01:00:33Z,University Airport,38.531502,-121.786489,US,US-CA
KEDU,"Davis/University Arpt, CA, US",2025-09-12T04:55:00Z,2025-09-12 04:55:00,VFR,20,15,0,0,0,NA,1013.6,METAR KEDU 120455Z AUTO 00000KT 10SM CLR 20/15 A2993 RMK AO1,2025-09-12T05:17:11Z,2025-09-12T01:17:11Z,University Airport,38.531502,-121.786489,US,US-CA
KEED,"Needles Arpt, CA, US",2025-09-12T04:56:00Z,2025-09-11 21:56:00,VFR,30,1.1,230,8,0,NA,1008.2,METAR KEED 120456Z AUTO 23008KT 10SM CLR 30/01 A2977 RMK AO2 SLP050 T03000011,2025-09-12T05:00:32Z,2025-09-12T01:00:32Z,Needles Airport,34.7663002014,-114.623001099,US,US-CA
KEEN,"Keene/Hopkins Arpt, NH, US",2025-09-12T04:56:00Z,2025-09-12 00:56:00,MVFR,10.6,10.6,0,0,0,4,1022.1,METAR KEEN 120456Z AUTO 00000KT 4SM BR CLR 11/11 A3018 RMK AO2 SLP221 T01060106 402610067 $,2025-09-12T05:00:32Z,2025-09-12T01:00:32Z,Dillant Hopkins Airport,42.898399,-72.270798,US,US-NH
KEEO,"Meeker Arpt, CO, US",2025-09-12T04:53:00Z,2025-09-12 04:53:00,VFR,17.8,6.1,110,12,19,NA,1021.8,METAR KEEO 120453Z AUTO 11012G19KT 10SM BKN100 18/06 A3017 RMK AO2 SLP123 T01780061,2025-09-12T05:00:33Z,2025-09-12T01:00:33Z,Meeker Airport,40.04880142211914,-107.88600158691406,US,US-CO
KEET,"Alabaster/Shelby Cnty, AL, US",2025-09-12T04:53:00Z,2025-09-12 04:53:00,VFR,21.1,19.4,0,0,0,8,1020.1,METAR KEET 120453Z AUTO 00000KT 8SM FEW070 21/19 A3012 RMK AO2 SLP192 T02110194,2025-09-12T05:00:33Z,2025-09-12T01:00:33Z,Shelby County Airport,33.17699814,-86.78279877,US,US-AL
KEFD,"Houston/Ellington Arpt, TX, US",2025-09-12T03:54:00Z,2025-09-11 22:54:00,VFR,26,22,0,0,0,NA,1018,METAR KEFD 120354Z 00000KT 10SM CLR 26/22 A3006,2025-09-12T05:00:33Z,2025-09-12T01:00:33Z,Ellington Airport,29.6072998047,-95.1587982178,US,US-TX
KEFK,"Newport/Northeast Kingdom Intl, VT, US",2025-09-12T04:55:00Z,2025-09-12 00:55:00,VFR,8.8,5.9,0,0,0,NA,1023.8,METAR KEFK 120455Z AUTO 00000KT 10SM CLR 09/06 A3023 RMK AO2 T00880059 402170060,2025-09-12T05:00:33Z,2025-09-12T01:00:33Z,Northeast Kingdom International Airport,44.888802,-72.229202,US,US-VT
KEFK,"Newport/Northeast Kingdom Intl, VT, US",2025-09-12T05:15:00Z,2025-09-12 01:15:00,VFR,8.5,6.2,0,0,0,NA,1024.1,METAR KEFK 120515Z AUTO 00000KT 10SM CLR 09/06 A3024 RMK AO2 T00850062,2025-09-12T05:17:11Z,2025-09-12T01:17:11Z,Northeast Kingdom International Airport,44.888802,-72.229202,US,US-VT
KEFT,"Monroe Muni, WI, US",2025-09-12T04:55:00Z,2025-09-12 04:55:00,VFR,15.2,14,90,5,0,NA,1023.1,METAR KEFT 120455Z AUTO 09005KT 10SM CLR 15/14 A3021 RMK AO2 T01520140,2025-09-12T05:00:33Z,2025-09-12T01:00:33Z,Monroe Municipal Airport,42.614899,-89.590401,US,US-WI
KEGE,"Eagle Cnty Rgnl, CO, US",2025-09-12T04:56:00Z,2025-09-11 22:56:00,VFR,13.3,10.6,250,3,0,NA,1026.5,METAR KEGE 120456Z AUTO 25003KT 10SM BKN110 13/11 A3031 RMK AO2 SLP198 T01330106 $,2025-09-12T05:00:32Z,2025-09-12T01:00:32Z,Eagle County Regional Airport,39.64260101,-106.9179993,US,US-CO
KEGT,"Wellington Muni, KS, US",2025-09-12T04:55:00Z,2025-09-12 04:55:00,VFR,22.8,17.9,160,5,0,NA,1018,METAR KEGT 120455Z AUTO 16005KT 10SM CLR 23/18 A3006 RMK AO2 T02280179,2025-09-12T05:00:32Z,2025-09-12T01:00:32Z,Wellington Municipal Airport,37.323601,-97.388298,US,US-KS
KEGV,"Eagle River/Union Arpt, WI, US",2025-09-12T04:55:00Z,2025-09-11 23:55:00,LIFR,7,7,0,0,0,0.25,1024.1,METAR KEGV 120455Z AUTO 00000KT 1/4SM FG OVC002 07/07 A3024 RMK AO2 T00700070,2025-09-12T05:00:33Z,2025-09-12T01:00:33Z,Eagle River Union Airport,45.932300567599995,-89.26830291750001,US,US-WI
KEHO,"Shelby/Cleveland Cnty, NC, US",2025-09-12T04:45:00Z,2025-09-12 04:45:00,VFR,15.7,14.5,0,0,0,NA,1021.4,METAR KEHO 120445Z AUTO 00000KT 10SM BKN065 16/15 A3016 RMK AO2 T01570145,2025-09-12T05:00:33Z,2025-09-12T01:00:33Z,Shelby-Cleveland County Regional Airport,35.2556,-81.600998,US,US-NC
KEHO,"Shelby/Cleveland Cnty, NC, US",2025-09-12T05:05:00Z,2025-09-12 05:05:00,VFR,16,14.6,0,0,0,NA,1021.4,METAR KEHO 120505Z AUTO 00000KT 10SM OVC065 16/15 A3016 RMK AO2 T01600146,2025-09-12T05:17:11Z,2025-09-12T01:17:11Z,Shelby-Cleveland County Regional Airport,35.2556,-81.600998,US,US-NC
KEHR,"Henderson City Arpt, KY, US",2025-09-12T04:56:00Z,2025-09-12 04:56:00,VFR,17.2,15,0,0,0,NA,1020.7,METAR KEHR 120456Z AUTO 00000KT 10SM CLR 17/15 A3014 RMK AO2 SLP203 T01720150 403280161,2025-09-12T05:00:32Z,2025-09-12T01:00:32Z,Henderson City County Airport,37.8078,-87.685699,US,US-KY
KEIK,"Erie Muni, CO, US",2025-09-12T04:55:00Z,2025-09-12 04:55:00,VFR,19.8,8.8,320,6,0,NA,1020.1,METAR KEIK 120455Z AUTO 32006KT 10SM CLR 20/09 A3012 RMK AO2 T01980088,2025-09-12T05:00:33Z,2025-09-12T01:00:33Z,Erie Municipal Airport,40.010200500488,-105.047996521,US,US-CO
KEKM,"Elkhart Muni, IN, US",2025-09-12T04:55:00Z,2025-09-12 00:55:00,VFR,14.9,12.9,0,0,0,NA,1022.8,METAR KEKM 120455Z AUTO 00000KT 10SM CLR 15/13 A3020 RMK AO2 T01490129 $,2025-09-12T05:00:33Z,2025-09-12T01:00:33Z,Elkhart Municipal Airport,41.7193984985,-86.00319671630001,US,US-IN
KEKN,"Elkins Arpt, WV, US",2025-09-12T04:51:00Z,2025-09-12 00:51:00,VFR,9.4,8.9,0,0,0,NA,1024.1,METAR KEKN 120451Z AUTO 00000KT 10SM CLR 09/09 A3024 RMK AO2 SLP237 T00940089 402610067,2025-09-12T05:00:33Z,2025-09-12T01:00:33Z,Elkins-Randolph County Regional Airport,38.889759,-79.857651,US,US-WV
KEKO,"Elko Rgnl, NV, US",2025-09-12T04:56:00Z,2025-09-11 21:56:00,VFR,15.6,4.4,50,5,0,NA,1018.4,METAR KEKO 120456Z AUTO 05005KT 10SM FEW120 16/04 A3007 RMK AO2 SLP143 T01560044,2025-09-12T05:00:32Z,2025-09-12T01:00:32Z,Elko Regional Airport,40.82490158081055,-115.79199981689452,US,US-NV
KEKQ,"Monticello/Wayne Cnty, KY, US",2025-09-12T04:56:00Z,2025-09-12 04:56:00,VFR,14.4,14.4,0,0,0,NA,1022.4,METAR KEKQ 120456Z AUTO 00000KT 10SM CLR 14/14 A3019 RMK AO2 SLP215 T01440144 PNO $,2025-09-12T05:00:32Z,2025-09-12T01:00:32Z,Wayne County Airport,36.855301,-84.856102,US,US-KY
KEKS,"Ennis/Big Sky Arpt, MT, US",2025-09-12T04:30:00Z,2025-09-12 04:30:00,VFR,11,4,0,0,0,NA,1020.4,METAR KEKS 120430Z AUTO 00000KT 10SM CLR 11/04 A3013 RMK AO2,2025-09-12T05:00:33Z,2025-09-12T01:00:33Z,Ennis Big Sky Airport,45.271801,-111.649002,US,US-MT
KEKS,"Ennis/Big Sky Arpt, MT, US",2025-09-12T04:50:00Z,2025-09-12 04:50:00,VFR,10,4,50,6,0,NA,1020.4,METAR KEKS 120450Z AUTO 05006KT 10SM CLR 10/04 A3013 RMK AO2,2025-09-12T05:17:12Z,2025-09-12T01:17:12Z,Ennis Big Sky Airport,45.271801,-111.649002,US,US-MT
KEKX,"Elizabethtown/Addington Fld, KY, US",2025-09-12T04:55:00Z,2025-09-12 00:55:00,VFR,16.6,14.5,0,0,0,NA,1021.1,METAR KEKX 120455Z AUTO 00000KT 10SM CLR 17/15 A3015 RMK AO2 T01660145,2025-09-12T05:00:33Z,2025-09-12T01:00:33Z,Addington Field / Elizabethtown Regional Airport,37.686001,-85.925003,US,US-KY
KELA,"Eagle Lake Arpt, TX, US",2025-09-12T04:55:00Z,2025-09-11 23:55:00,VFR,21.9,21.3,0,0,0,NA,1018.7,METAR KELA 120455Z AUTO 00000KT 10SM CLR 22/21 A3008 RMK AO2 T02190213,2025-09-12T05:00:32Z,2025-09-12T01:00:32Z,Eagle Lake Airport,29.600599288900003,-96.3218994141,US,US-TX
KELD,"El Dorado/S Arkansas Rgnl, AR, US",2025-09-12T04:53:00Z,2025-09-11 23:53:00,VFR,20.6,19.4,0,0,0,NA,1019.4,METAR KELD 120453Z AUTO 00000KT 10SM CLR 21/19 A3010 RMK AO2 SLP189 T02060194,2025-09-12T05:00:33Z,2025-09-12T01:00:33Z,South Arkansas Regional Airport at Goodwin Field,33.221001,-92.813301,US,US-AR
KELK,"Elk City Rgnl, OK, US",2025-09-12T04:55:00Z,2025-09-11 23:55:00,VFR,23,13.8,180,8,0,NA,1018.7,METAR KELK 120455Z AUTO 18008KT 10SM CLR 23/14 A3008 RMK AO2 T02300138 $,2025-09-12T05:00:33Z,2025-09-12T01:00:33Z,Elk City Regional Business Airport,35.43080139,-99.39430237,US,US-OK
KELM,"Elmira-Corning Rgnl, NY, US",2025-09-12T04:53:00Z,2025-09-12 00:53:00,VFR,10,9.4,0,0,0,NA,1023.1,METAR KELM 120453Z AUTO 00000KT 10SM CLR 10/09 A3021 RMK AO2 SLP229 T01000094 402440039,2025-09-12T05:00:33Z,2025-09-12T01:00:33Z,Elmira Corning Regional Airport,42.1599006652832,-76.8916015625,US,US-NY
KELN,"Ellensburg/Bowers Fld, WA, US",2025-09-12T04:53:00Z,2025-09-11 21:53:00,VFR,17.8,11.1,310,14,24,NA,1014.6,METAR KELN 120453Z AUTO 31014G24KT 10SM CLR 18/11 A2996 RMK AO2 PK WND 30033/0404 SLP136 T01780111,2025-09-12T05:00:33Z,2025-09-12T01:00:33Z,Bowers Field,47.03300095,-120.5309982,US,US-WA
KELO,"Ely Muni, MN, US",2025-09-12T04:55:00Z,2025-09-11 23:55:00,IFR,12,11,150,4,0,NA,1022.8,METAR KELO 120455Z AUTO 15004KT 10SM OVC006 12/11 A3020 RMK AO2,2025-09-12T05:00:33Z,2025-09-12T01:00:33Z,Ely Municipal Airport,47.82450104,-91.83070374,US,US-MN
KELO,"Ely Muni, MN, US",2025-09-12T05:15:00Z,2025-09-12 00:15:00,IFR,12,11,150,3,0,NA,1022.8,METAR KELO 120515Z AUTO 15003KT 10SM OVC006 12/11 A3020 RMK AO2,2025-09-12T05:17:11Z,2025-09-12T01:17:11Z,Ely Municipal Airport,47.82450104,-91.83070374,US,US-MN
KELP,"El Paso Intl, TX, US",2025-09-12T04:51:00Z,2025-09-11 22:51:00,VFR,29.4,5.6,140,9,0,NA,1018.7,METAR KELP 120451Z 14009KT 10SM FEW250 29/06 A3008 RMK AO2 SLP104 T02940056,2025-09-12T05:00:33Z,2025-09-12T01:00:33Z,El Paso International Airport,31.807199,-106.377998,US,US-TX
KELY,"Ely/Yelland Fld, NV, US",2025-09-12T04:53:00Z,2025-09-11 21:53:00,VFR,11.1,-6.7,200,10,0,NA,1019,METAR KELY 120453Z AUTO 20010KT 10SM CLR 11/M07 A3009 RMK AO2 SLP110 T01111067,2025-09-12T05:00:33Z,2025-09-12T01:00:33Z,Ely Airport Yelland Field,39.29970169,-114.8420029,US,US-NV
KELZ,"Wellsville/Tarantine Fld, NY, US",2025-09-12T04:56:00Z,2025-09-12 00:56:00,VFR,12.8,10,0,0,0,NA,1024.5,METAR KELZ 120456Z AUTO 00000KT 10SM CLR 13/10 A3025 RMK AO2 SLP239 T01280100 402280072,2025-09-12T05:00:32Z,2025-09-12T01:00:32Z,Wellsville Municipal Airport - Tarantine Field,42.109501,-77.989998,US,US-NY
KEMM,"Kemmerer Muni, WY, US",2025-09-12T04:35:00Z,2025-09-11 22:35:00,NA,13,-3,310,4,0,NA,1022.1,METAR KEMM 120435Z AUTO 31004KT 10SM 13/M03 A3018 RMK AO2,2025-09-12T05:00:33Z,2025-09-12T01:00:33Z,Kemmerer Municipal Airport,41.82410049439999,-110.556999207,US,US-WY
KEMM,"Kemmerer Muni, WY, US",2025-09-12T04:55:00Z,2025-09-11 22:55:00,NA,14,-3,300,3,0,NA,1022.1,METAR KEMM 120455Z AUTO 30003KT 10SM 14/M03 A3018 RMK AO2,2025-09-12T05:17:11Z,2025-09-12T01:17:11Z,Kemmerer Municipal Airport,41.82410049439999,-110.556999207,US,US-WY
KEMP,"Emporia Muni, KS, US",2025-09-12T04:53:00Z,2025-09-11 23:53:00,VFR,22.2,17.2,180,9,0,NA,1018.4,METAR KEMP 120453Z AUTO 18009KT 10SM CLR 22/17 A3007 RMK AO2 SLP172 T02220172,2025-09-12T05:00:33Z,2025-09-12T01:00:33Z,Emporia Municipal Airport,38.3320999146,-96.1912002563,US,US-KS
KEMV,"Emporia Muni, VA, US",2025-09-12T04:55:00Z,2025-09-12 04:55:00,LIFR,13.9,13.9,0,0,0,0.25,1021.1,METAR KEMV 120455Z AUTO 00000KT 1/4SM FG OVC002 14/14 A3015 RMK AO2 T01390139,2025-09-12T05:00:35Z,2025-09-12T01:00:35Z,Emporia Greensville Regional Airport,36.6869010925293,-77.48280334472656,US,US-VA
KEMV,"Emporia Muni, VA, US",2025-09-12T05:15:00Z,2025-09-12 05:15:00,LIFR,14.2,14.2,0,0,0,0.5,1021.1,METAR KEMV 120515Z AUTO 00000KT 1/2SM FG OVC002 14/14 A3015 RMK AO2 T01420142,2025-09-12T05:17:13Z,2025-09-12T01:17:13Z,Emporia Greensville Regional Airport,36.6869010925293,-77.48280334472656,US,US-VA
KENL,"Centralia Muni, IL, US",2025-09-12T04:55:00Z,2025-09-11 23:55:00,VFR,16.7,13.4,0,0,0,NA,1020.7,METAR KENL 120455Z AUTO 00000KT 10SM CLR 17/13 A3014 RMK AO2 T01670134,2025-09-12T05:00:35Z,2025-09-12T01:00:35Z,Centralia Municipal Airport,38.515099,-89.091103,US,US-IL
KENV,"Wendover Arpt, UT, US",2025-09-12T04:56:00Z,2025-09-11 22:56:00,VFR,20,0,50,6,0,NA,1016.3,METAR KENV 120456Z AUTO 05006KT 10SM CLR 20/00 A3001 RMK AO2 SLP128 T02000000,2025-09-12T05:00:34Z,2025-09-12T01:00:34Z,Wendover Airport,40.7187004089,-114.03099823,US,US-UT
KEOE,"Newberry Muni, SC, US",2025-09-12T04:55:00Z,2025-09-12 04:55:00,VFR,17,13,0,0,0,NA,1021.4,METAR KEOE 120455Z AUTO 00000KT 10SM CLR 17/13 A3016 RMK AO2,2025-09-12T05:00:35Z,2025-09-12T01:00:35Z,Newberry County Airport,34.309299,-81.639702,US,US-SC
KEOK,"Keokuk Muni, IA, US",2025-09-12T04:55:00Z,2025-09-11 23:55:00,VFR,20,12,100,6,0,NA,1020.4,METAR KEOK 120455Z AUTO 10006KT 10SM OVC049 20/12 A3013 RMK A01,2025-09-12T05:00:35Z,2025-09-12T01:00:35Z,Keokuk Municipal Airport,40.459899902299995,-91.4284973145,US,US-IA
KEPH,"Ephrata Muni, WA, US",2025-09-12T04:53:00Z,2025-09-11 21:53:00,VFR,19.4,12.8,230,4,0,NA,1012.6,METAR KEPH 120453Z AUTO 23004KT 10SM CLR 19/13 A2990 RMK AO2 SLP121 T01940128,2025-09-12T05:00:35Z,2025-09-12T01:00:35Z,Ephrata Municipal Airport,47.307598,-119.515999,US,US-WA
KEQA,"El Dorado/Thomas Mem, KS, US",2025-09-12T04:55:00Z,2025-09-11 23:55:00,VFR,22,18,150,8,0,NA,1018.4,METAR KEQA 120455Z AUTO 15008KT 10SM CLR 22/18 A3007 RMK AO2,2025-09-12T05:00:35Z,2025-09-12T01:00:35Z,Captain Jack Thomas El Dorado Airport,37.7741012573,-96.8175964355,US,US-KS
KEQA,"El Dorado/Thomas Mem, KS, US",2025-09-12T05:15:00Z,2025-09-12 00:15:00,VFR,22,18,160,7,0,NA,1018.4,METAR KEQA 120515Z AUTO 16007KT 10SM CLR 22/18 A3007 RMK AO2,2025-09-12T05:17:13Z,2025-09-12T01:17:13Z,Captain Jack Thomas El Dorado Airport,37.7741012573,-96.8175964355,US,US-KS
KEQY,"Charlotte-Monroe Exec, NC, US",2025-09-12T04:53:00Z,2025-09-12 04:53:00,VFR,17.8,14.4,0,0,0,NA,1020.4,METAR KEQY 120453Z AUTO 00000KT 10SM CLR 18/14 A3013 RMK AO2 SLP204 T01780144 402940161,2025-09-12T05:00:35Z,2025-09-12T01:00:35Z,Charlotte-Monroe Executive Airport,35.01879883,-80.62020111,US,US-NC
KERI,"Erie Intl, PA, US",2025-09-12T04:51:00Z,2025-09-12 00:51:00,VFR,12.8,11.1,0,0,0,NA,1023.5,METAR KERI 120451Z AUTO 00000KT 10SM CLR 13/11 A3022 RMK AO2 SLP231 T01280111 402170117 $,2025-09-12T05:00:35Z,2025-09-12T01:00:35Z,Erie International Tom Ridge Field,42.083127,-80.173867,US,US-PA
KERV,"Kerrville Muni, TX, US",2025-09-12T04:55:00Z,2025-09-11 23:55:00,VFR,21.2,18.1,0,0,0,NA,NA,METAR KERV 120455Z AUTO 00000KT 10SM CLR 21/18 RMK AO2 T02120181,2025-09-12T05:00:35Z,2025-09-12T01:00:35Z,Kerrville / Kerr County Airport at Louis Schreiner Field,29.9767,-99.085701,US,US-TX
KERY,"Newberry/Luce Cnty, MI, US",2025-09-12T04:55:00Z,2025-09-12 04:55:00,IFR,11,11,340,1,0,1.25,1024.5,METAR KERY 120455Z AUTO 34001KT 1 1/4SM BR SCT050 11/11 A3025 RMK AO2 VIS 1/2V5,2025-09-12T05:00:35Z,2025-09-12T01:00:35Z,Luce County Airport,46.311199,-85.457298,US,US-MI
KESC,"Escanaba/Delta Cnty, MI, US",2025-09-12T04:56:00Z,2025-09-12 00:56:00,LIFR,10,10,0,0,0,0.25,1024.1,METAR KESC 120456Z AUTO 00000KT 1/4SM FG OVC002 10/10 A3024 RMK AO2 SLP245 T01000100 401940100,2025-09-12T05:00:34Z,2025-09-12T01:00:34Z,Delta County Airport,45.723199,-87.088623,US,US-MI
KESF,"Alexandria/Esler Rgnl, LA, US",2025-09-12T04:53:00Z,2025-09-11 23:53:00,VFR,22.2,21.7,0,0,0,NA,1019,METAR KESF 120453Z AUTO 00000KT 10SM CLR 22/22 A3009 RMK AO2 SLP185 T02220217,2025-09-12T05:00:35Z,2025-09-12T01:00:35Z,Esler Army Airfield / Esler Regional Airport,31.394266,-92.294082,US,US-LA
KEST,"Estherville Muni, IA, US",2025-09-12T04:52:00Z,2025-09-11 23:52:00,VFR,16.7,14.4,150,7,0,NA,1019,METAR KEST 120452Z AUTO 15007KT 10SM CLR 17/14 A3009 RMK AO2 SLP185 T01670144,2025-09-12T05:00:35Z,2025-09-12T01:00:35Z,Estherville Municipal Airport,43.407398,-94.746399,US,US-IA
KETB,"West Bend Muni, WI, US",2025-09-12T04:55:00Z,2025-09-11 23:55:00,LIFR,13,13,0,0,0,0.25,1024.1,METAR KETB 120455Z AUTO 00000KT 1/4SM FG OVC002 13/13 A3024 RMK AO2,2025-09-12T05:00:35Z,2025-09-12T01:00:35Z,West Bend Municipal Airport,43.422278,-88.128966,US,US-WI
KETC,"Tarboro/Edgecombe Arpt, NC, US",2025-09-12T04:45:00Z,2025-09-12 04:45:00,VFR,18.7,17.7,0,0,0,NA,1020.1,METAR KETC 120445Z AUTO 00000KT 10SM OVC085 19/18 A3012 RMK AO2 T01870177,2025-09-12T05:00:35Z,2025-09-12T01:00:35Z,Tarboro Edgecombe Airport,35.93709945678711,-77.546600341796875,US,US-NC
KETC,"Tarboro/Edgecombe Arpt, NC, US",2025-09-12T05:05:00Z,2025-09-12 05:05:00,VFR,18.4,17.6,0,0,0,NA,1020.1,METAR KETC 120505Z AUTO 00000KT 10SM OVC085 18/18 A3012 RMK AO2 T01840176,2025-09-12T05:17:13Z,2025-09-12T01:17:13Z,Tarboro Edgecombe Airport,35.93709945678711,-77.546600341796875,US,US-NC
KETH,"Wheaton Muni, MN, US",2025-09-12T04:53:00Z,2025-09-12 04:53:00,VFR,19,16,140,10,0,NA,1017,METAR KETH 120453Z AUTO 14010KT 10SM CLR 19/16 A3003 RMK AO2,2025-09-12T05:00:35Z,2025-09-12T01:00:35Z,Wheaton Municipal Airport,45.782058,-96.543627,US,US-MN
KETH,"Wheaton Muni, MN, US",2025-09-12T05:14:00Z,2025-09-12 05:14:00,VFR,19,16,140,9,0,NA,1016.7,METAR KETH 120514Z AUTO 14009KT 10SM CLR 19/16 A3002 RMK AO2,2025-09-12T05:17:13Z,2025-09-12T01:17:13Z,Wheaton Municipal Airport,45.782058,-96.543627,US,US-MN
KETN,"Eastland Muni, TX, US",2025-09-12T04:30:00Z,2025-09-11 23:30:00,VFR,20.2,15.3,0,0,0,NA,1020.4,METAR KETN 120430Z AUTO 00000KT 10SM CLR 20/15 A3013 RMK AO2 T02020153,2025-09-12T05:00:35Z,2025-09-12T01:00:35Z,Eastland Municipal Airport,32.4135017395,-98.8097991943,US,US-TX
KETN,"Eastland Muni, TX, US",2025-09-12T04:50:00Z,2025-09-11 23:50:00,VFR,19.3,15.1,0,0,0,NA,1020.4,METAR KETN 120450Z AUTO 00000KT 10SM CLR 19/15 A3013 RMK AO2 T01930151,2025-09-12T05:17:14Z,2025-09-12T01:17:14Z,Eastland Municipal Airport,32.4135017395,-98.8097991943,US,US-TX
KEUF,"Eufaula/Weedon Fld, AL, US",2025-09-12T04:58:00Z,2025-09-11 23:58:00,VFR,17.8,17.2,0,0,0,NA,1019.7,METAR KEUF 120458Z AUTO 00000KT 10SM CLR 18/17 A3011 RMK AO1 SLP191 T01780172,2025-09-12T05:00:34Z,2025-09-12T01:00:34Z,Weedon Field,31.9512996674,-85.1288986206,US,US-AL
KEUG,"Eugene/Mahlon Sweet Fld, OR, US",2025-09-12T04:54:00Z,2025-09-11 21:54:00,MVFR,16.1,12.8,230,4,0,NA,1018.7,METAR KEUG 120454Z 23004KT 10SM BKN019 BKN200 16/13 A3008 RMK AO2 SLP186 T01610128,2025-09-12T05:00:35Z,2025-09-12T01:00:35Z,Mahlon Sweet Field,44.12459945678711,-123.21199798583984,US,US-OR
KEUL,"Caldwell Ind Arpt, ID, US",2025-09-12T04:56:00Z,2025-09-12 04:56:00,VFR,16.1,10,50,6,0,NA,1015.7,METAR KEUL 120456Z AUTO 05006KT 10SM CLR 16/10 A2999 RMK AO2 SLP142 T01610100,2025-09-12T05:00:34Z,2025-09-12T01:00:34Z,Caldwell Executive Airport,43.641899,-116.636002,US,US-ID
KEVM,"Eveleth Muni, MN, US",2025-09-12T04:55:00Z,2025-09-11 23:55:00,LIFR,13,12.6,140,3,0,NA,1022.4,METAR KEVM 120455Z AUTO 14003KT 10SM OVC003 13/13 A3019 RMK AO2 T01300126,2025-09-12T05:00:35Z,2025-09-12T01:00:35Z,Eveleth–Virginia Municipal Airport,47.42458,-92.499204,US,US-MN
KEVM,"Eveleth Muni, MN, US",2025-09-12T05:15:00Z,2025-09-12 00:15:00,LIFR,13,12.7,140,4,0,NA,1022.4,METAR KEVM 120515Z AUTO 14004KT 10SM OVC003 13/13 A3019 RMK AO2 T01300127,2025-09-12T05:17:13Z,2025-09-12T01:17:13Z,Eveleth–Virginia Municipal Airport,47.42458,-92.499204,US,US-MN
KEVU,"Maryville/NW Missouri Rgnl, MO, US",2025-09-12T04:55:00Z,2025-09-12 04:55:00,VFR,23,19.7,150,7,0,NA,1018.7,METAR KEVU 120455Z AUTO 15007KT 10SM CLR 23/20 A3008 RMK AO2 T02410197,2025-09-12T05:00:35Z,2025-09-12T01:00:35Z,Northwest Missouri Regional Airport,40.352501,-94.915001,US,US-MO
KEVU,"Maryville/NW Missouri Rgnl, MO, US",2025-09-12T05:15:00Z,2025-09-12 05:15:00,VFR,23,19.6,160,6,0,NA,1018.4,METAR KEVU 120515Z AUTO 16006KT 10SM CLR 23/19 A3007 RMK AO2 T02410196,2025-09-12T05:17:13Z,2025-09-12T01:17:13Z,Northwest Missouri Regional Airport,40.352501,-94.915001,US,US-MO
KEVV,"Evansville Rgnl, IN, US",2025-09-12T04:54:00Z,2025-09-11 23:54:00,VFR,19.4,17.2,0,0,0,NA,1020.7,METAR KEVV 120454Z AUTO 00000KT 10SM CLR 19/17 A3014 RMK AO2 SLP203 T01940172 403170172 $,2025-09-12T05:00:35Z,2025-09-12T01:00:35Z,Evansville Regional Airport,38.0369987488,-87.5324020386,US,US-IN
KEVW,"Evanston/Uinta Cnty, WY, US",2025-09-12T04:53:00Z,2025-09-11 22:53:00,VFR,14.4,-4.4,20,3,0,NA,1021.8,METAR KEVW 120453Z AUTO 02003KT 10SM SCT110 14/M04 A3017 RMK AO2 SLP126 T01441044,2025-09-12T05:00:35Z,2025-09-12T01:00:35Z,Evanston-Uinta County Airport-Burns Field,41.27479935,-111.0350037,US,US-WY
KEWB,"New Bedford Rgnl, MA, US",2025-09-12T04:53:00Z,2025-09-12 00:53:00,VFR,12.2,11.7,0,0,0,NA,1019.7,METAR KEWB 120453Z AUTO 00000KT 10SM CLR 12/12 A3011 RMK AO2 SLP196 T01220117 402440111,2025-09-12T05:00:35Z,2025-09-12T01:00:35Z,New Bedford Regional Airport,41.67610168457031,-70.95690155029297,US,US-MA
KEWK,"Newton City Arpt, KS, US",2025-09-12T04:56:00Z,2025-09-11 23:56:00,VFR,21.1,20.6,150,9,0,NA,1018.4,METAR KEWK 120456Z AUTO 15009KT 10SM CLR 21/21 A3007 RMK AO2 SLP168 T02110206 403060178 $,2025-09-12T05:00:34Z,2025-09-12T01:00:34Z,Newton City-County Airport,38.058200836199994,-97.2744979858,US,US-KS
KEWN,"New Bern/Coastal Carolina Rgnl, NC, US",2025-09-12T04:54:00Z,2025-09-12 00:54:00,VFR,18.9,17.8,10,6,0,NA,1019.4,METAR KEWN 120454Z AUTO 01006KT 10SM CLR 19/18 A3010 RMK AO2 SLP192 T01890178 402500183,2025-09-12T05:00:35Z,2025-09-12T01:00:35Z,Coastal Carolina Regional Airport,35.0730018616,-77.04290008539999,US,US-NC
KEWR,"Newark Intl, NJ, US",2025-09-12T04:51:00Z,2025-09-12 00:51:00,VFR,19.4,11.1,240,6,0,NA,1020.4,METAR KEWR 120451Z 24006KT 10SM FEW250 19/11 A3013 RMK AO2 SLP202 T01940111 402780156 $,2025-09-12T05:00:35Z,2025-09-12T01:00:35Z,Newark Liberty International Airport,40.692501,-74.168701,US,US-NJ
KEXX,"Lexington/Davidson Cnty, NC, US",2025-09-12T04:45:00Z,2025-09-12 04:45:00,VFR,15.5,15.5,0,0,0,NA,1021.1,METAR KEXX 120445Z AUTO 00000KT 10SM CLR 16/16 A3015 RMK AO2 T01550155,2025-09-12T05:00:35Z,2025-09-12T01:00:35Z,Davidson County Executive Airport,35.781101,-80.303802,US,US-NC
KEXX,"Lexington/Davidson Cnty, NC, US",2025-09-12T05:05:00Z,2025-09-12 05:05:00,VFR,15.4,15.4,0,0,0,NA,1021.1,METAR KEXX 120505Z AUTO 00000KT 10SM CLR 15/15 A3015 RMK AO2 T01540154,2025-09-12T05:17:13Z,2025-09-12T01:17:13Z,Davidson County Executive Airport,35.781101,-80.303802,US,US-NC
KEYE,"Indianapolis/Eagle Creek Aprt, IN, US",2025-09-12T04:53:00Z,2025-09-12 04:53:00,VFR,17.8,12.8,0,0,0,NA,1022.4,METAR KEYE 120453Z AUTO 00000KT 10SM CLR 18/13 A3019 RMK AO2 SLP216 T01780128 402890144,2025-09-12T05:00:35Z,2025-09-12T01:00:35Z,Eagle Creek Airpark,39.830699920654,-86.294403076172,US,US-IN
KEYF,"Elizabethtown/Brown Fld, NC, US",2025-09-12T04:45:00Z,2025-09-12 04:45:00,VFR,19,18,0,0,0,NA,1019.7,METAR KEYF 120445Z AUTO 00000KT 10SM CLR 19/18 A3011 RMK AO2 T01900180,2025-09-12T05:00:35Z,2025-09-12T01:00:35Z,Curtis L Brown Jr Field,34.60179901,-78.57929993,US,US-NC
KEYF,"Elizabethtown/Brown Fld, NC, US",2025-09-12T05:05:00Z,2025-09-12 05:05:00,VFR,18.7,18,0,0,0,NA,1019.7,METAR KEYF 120505Z AUTO 00000KT 10SM CLR 19/18 A3011 RMK AO2 T01870180,2025-09-12T05:17:13Z,2025-09-12T01:17:13Z,Curtis L Brown Jr Field,34.60179901,-78.57929993,US,US-NC
KEYW,"Key West Intl, FL, US",2025-09-12T04:53:00Z,2025-09-12 00:53:00,NA,27.8,25,0,0,0,NA,1014.6,METAR KEYW 120453Z AUTO 00000KT CLR 28/25 A2996 RMK AO2 SLP149 T02780250 403330267,2025-09-12T05:00:35Z,2025-09-12T01:00:35Z,Key West International Airport,24.556101,-81.759598,US,US-FL
KEZF,"Fredericksburg/Shannon Aprt, VA, US",2025-09-12T04:55:00Z,2025-09-12 04:55:00,VFR,NA,NA,0,0,0,NA,1020.7,METAR KEZF 120455Z AUTO 00000KT 10SM CLR A3014 RMK AO2,2025-09-12T05:00:35Z,2025-09-12T01:00:35Z,Shannon Airport,38.2668,-77.449203,US,US-VA
KEZM,"Eastman/Heart Of Georgia Arpt, GA, US",2025-09-12T04:55:00Z,2025-09-12 04:55:00,VFR,16,16,0,0,0,NA,1020.4,METAR KEZM 120455Z AUTO 00000KT 10SM CLR 16/16 A3013 RMK AO2,2025-09-12T05:00:35Z,2025-09-12T01:00:35Z,Heart of Georgia Regional Airport,32.214199,-83.127998,US,US-GA
KEZM,"Eastman/Heart Of Georgia Arpt, GA, US",2025-09-12T05:15:00Z,2025-09-12 05:15:00,VFR,15,15,0,0,0,NA,1020.1,METAR KEZM 120515Z AUTO 00000KT 10SM CLR 15/15 A3012 RMK AO2,2025-09-12T05:17:13Z,2025-09-12T01:17:13Z,Heart of Georgia Regional Airport,32.214199,-83.127998,US,US-GA
KEZS,"Shawano Muni, WI, US",2025-09-12T04:55:00Z,2025-09-12 04:55:00,NA,12.3,12.3,0,0,0,0.5,1024.5,METAR KEZS 120455Z AUTO 00000KT 1/2SM FG 12/12 A3025 RMK AO2 T01230123,2025-09-12T05:00:35Z,2025-09-12T01:00:35Z,Shawano Municipal Airport,44.787514,-88.560481,US,US-WI
KF00,"Bonham/Jones Fld, TX, US",2025-09-12T04:55:00Z,2025-09-12 04:55:00,VFR,23,19,200,4,0,NA,1019.4,METAR KF00 120455Z AUTO 20004KT 10SM CLR 23/19 A3010 RMK AO2,2025-09-12T05:00:35Z,2025-09-12T01:00:35Z,Jones Field,33.6128,-96.179298,US,US-TX
KF05,"Vernon/Wilbarger Cnty, TX, US",2025-09-12T04:55:00Z,2025-09-11 23:55:00,VFR,24.7,14.1,170,6,0,NA,1019,METAR KF05 120455Z AUTO 17006KT 10SM CLR 25/14 A3009 RMK AO2 T02470141,2025-09-12T05:00:34Z,2025-09-12T01:00:34Z,Wilbarger County Airport,34.2257003784,-99.2837982178,US,US-TX
KF17,"Center Muni, TX, US",2025-09-12T04:55:00Z,2025-09-12 04:55:00,VFR,21,20,0,0,0,NA,1019.7,METAR KF17 120455Z AUTO 00000KT 10SM CLR 21/20 A3011 RMK AO2,2025-09-12T05:00:35Z,2025-09-12T01:00:35Z,Center Municipal Airport,31.8316,-94.156403,US,US-TX
KF44,"Athens Muni, TX, US",2025-09-12T04:55:00Z,2025-09-12 04:55:00,VFR,22,21,0,0,0,NA,1018.7,METAR KF44 120455Z AUTO 00000KT 10SM CLR 22/21 A3008 RMK AO2,2025-09-12T05:00:35Z,2025-09-12T01:00:35Z,Athens Municipal Airport,32.163799,-95.8284,US,US-TX
KF45,"North Palm Beach Cnty, FL, US",2025-09-12T04:35:00Z,2025-09-12 04:35:00,MVFR,26,26,300,5,0,NA,1014.6,METAR KF45 120435Z AUTO 30005KT 10SM BKN021 OVC026 26/26 A2996 RMK AO2 LTG DSNT E AND SE,2025-09-12T05:00:35Z,2025-09-12T01:00:35Z,North Palm Beach County General Aviation Airport,26.8444,-80.221298,US,US-FL
KF45,"North Palm Beach Cnty, FL, US",2025-09-12T04:55:00Z,2025-09-12 04:55:00,MVFR,25,25,300,6,0,NA,1014.3,METAR KF45 120455Z AUTO 30006KT 10SM BKN019 OVC026 25/25 A2995 RMK AO2 LTG DSNT E AND SE,2025-09-12T05:17:13Z,2025-09-12T01:17:13Z,North Palm Beach County General Aviation Airport,26.8444,-80.221298,US,US-FL
KF46,"Rockwall Muni, TX, US",2025-09-12T04:55:00Z,2025-09-12 04:55:00,VFR,25.5,19.6,140,4,0,NA,1019.4,METAR KF46 120455Z AUTO 14004KT 10SM CLR 26/20 A3010 RMK AO2 T02550196,2025-09-12T05:00:34Z,2025-09-12T01:00:34Z,Rockwall Municipal Airport,32.930599,-96.435501,US,US-TX
KF70,"Murrieta/French Valley Arpt, CA, US",2025-09-12T04:55:00Z,2025-09-11 21:55:00,VFR,17,14,170,5,0,NA,1014.6,METAR KF70 120455Z AUTO 17005KT 10SM CLR 17/14 A2996 RMK AO2,2025-09-12T05:00:35Z,2025-09-12T01:00:35Z,French Valley Airport,33.5742,-117.127998,US,US-CA
KF70,"Murrieta/French Valley Arpt, CA, US",2025-09-12T05:15:00Z,2025-09-11 22:15:00,VFR,17,14,0,0,0,NA,1014.6,METAR KF70 120515Z AUTO 00000KT 10SM CLR 17/14 A2996 RMK AO2,2025-09-12T05:17:13Z,2025-09-12T01:17:13Z,French Valley Airport,33.5742,-117.127998,US,US-CA
KFAR,"Fargo/Hector Intl, ND, US",2025-09-12T04:53:00Z,2025-09-11 23:53:00,VFR,20,16.7,140,8,0,NA,1015.7,METAR KFAR 120453Z 14008KT 10SM CLR 20/17 A2999 RMK AO2 SLP154 T02000167,2025-09-12T05:00:35Z,2025-09-12T01:00:35Z,Hector International Airport,46.92070007324219,-96.81580352783205,US,US-ND
KFAT,"Fresno/Yosemite Intl, CA, US",2025-09-12T04:53:00Z,2025-09-11 21:53:00,VFR,23.9,12.8,300,6,0,NA,1013,METAR KFAT 120453Z 30006KT 10SM SCT085 SCT200 24/13 A2991 RMK AO2 SLP126 T02390128 $,2025-09-12T05:00:35Z,2025-09-12T01:00:35Z,Fresno Yosemite International Airport,36.776199,-119.718002,US,US-CA
KFAY,"Fayetteville Rgnl, NC, US",2025-09-12T04:53:00Z,2025-09-12 00:53:00,VFR,19.4,18.3,360,3,0,NA,1019.7,METAR KFAY 120453Z 36003KT 10SM FEW080 19/18 A3011 RMK AO2 SLP191 T01940183 402610189,2025-09-12T05:00:35Z,2025-09-12T01:00:35Z,Fayetteville Regional Airport - Grannis Field,34.991199,-78.880302,US,US-NC
KFBL,"Faribault Muni, MN, US",2025-09-12T04:55:00Z,2025-09-11 23:55:00,VFR,NA,NA,130,8,0,NA,1020.4,METAR KFBL 120455Z AUTO 13008KT 10SM CLR A3013 RMK AO2,2025-09-12T05:00:34Z,2025-09-12T01:00:34Z,Faribault Municipal Airport-Liz Wall Strohfus Field,44.32844,-93.312534,US,US-MN
KFBR,"Fort Bridger Arpt, WY, US",2025-09-12T04:55:00Z,2025-09-11 22:55:00,VFR,13.1,-3.2,270,9,0,NA,1022.4,METAR KFBR 120455Z AUTO 27009KT 10SM SCT110 13/M03 A3019 RMK AO2 T01311032,2025-09-12T05:00:35Z,2025-09-12T01:00:35Z,Fort Bridger Airport,41.3918991089,-110.40699768099999,US,US-WY
KFCH,"Fresno/Chandler Exec, CA, US",2025-09-12T04:30:00Z,2025-09-11 21:30:00,VFR,23,14,310,10,0,NA,1013.6,METAR KFCH 120430Z AUTO 31010KT 10SM CLR 23/14 A2993 RMK A01,2025-09-12T05:00:35Z,2025-09-12T01:00:35Z,Fresno Chandler Executive Airport,36.732399,-119.82,US,US-CA
KFCH,"Fresno/Chandler Exec, CA, US",2025-09-12T04:55:00Z,2025-09-11 21:55:00,VFR,22,14,300,10,0,NA,1013.6,METAR KFCH 120455Z AUTO 30010KT 10SM CLR 22/14 A2993 RMK A01,2025-09-12T05:17:13Z,2025-09-12T01:17:13Z,Fresno Chandler Executive Airport,36.732399,-119.82,US,US-CA
KFCI,"Richmond/Chesterfield Cnty, VA, US",2025-09-12T04:56:00Z,2025-09-12 04:56:00,VFR,15.6,15.6,300,3,0,NA,1020.7,METAR KFCI 120456Z AUTO 30003KT 10SM CLR 16/16 A3014 RMK AO2 SLP216 T01560156 402610156 PNO $,2025-09-12T05:00:34Z,2025-09-12T01:00:34Z,Richmond Executive-Chesterfield County Airport,37.406502,-77.525002,US,US-VA
KFCM,"Eden Prairie/Flying, MN, US",2025-09-12T04:53:00Z,2025-09-11 23:53:00,VFR,18.9,14.4,100,6,0,NA,1019.7,METAR KFCM 120453Z AUTO 10006KT 10SM CLR 19/14 A3011 RMK AO2 SLP194 T01890144,2025-09-12T05:00:35Z,2025-09-12T01:00:35Z,Flying Cloud Airport,44.8272018433,-93.4570999146,US,US-MN
KFDK,"Frederick Muni, MD, US",2025-09-12T04:50:00Z,2025-09-12 00:50:00,NA,15,14,0,0,0,NA,1021.4,METAR KFDK 120450Z AUTO 00000KT 15/14 A3016 RMK AO2,2025-09-12T05:00:35Z,2025-09-12T01:00:35Z,Frederick Municipal Airport,39.417598724399994,-77.3742980957,US,US-MD
KFDK,"Frederick Muni, MD, US",2025-09-12T05:10:00Z,2025-09-12 01:10:00,NA,14,13,0,0,0,NA,1021.4,METAR KFDK 120510Z AUTO 00000KT 14/13 A3016 RMK AO2,2025-09-12T05:17:13Z,2025-09-12T01:17:13Z,Frederick Municipal Airport,39.417598724399994,-77.3742980957,US,US-MD
KFDR,"Frederick Rgnl, OK, US",2025-09-12T04:53:00Z,2025-09-11 23:53:00,VFR,23.9,15.6,150,8,17,NA,1017.7,METAR KFDR 120453Z AUTO 15008G17KT 10SM CLR 24/16 A3005 RMK AO2 SLP157 T02390156 $,2025-09-12T05:00:35Z,2025-09-12T01:00:35Z,Frederick Regional Airport,34.35200119,-98.98390198,US,US-OK
KFDW,"Winnsboro/Fairfield Cnty, SC, US",2025-09-12T04:55:00Z,2025-09-12 04:55:00,VFR,20,17,100,3,0,NA,1020.4,METAR KFDW 120455Z AUTO 10003KT 10SM CLR 20/17 A3013 RMK AO1,2025-09-12T05:00:35Z,2025-09-12T01:00:35Z,Fairfield County Airport,34.315498,-81.108803,US,US-SC
KFDY,"Findlay Arpt, OH, US",2025-09-12T04:53:00Z,2025-09-12 00:53:00,VFR,15,10,110,4,0,NA,1022.8,METAR KFDY 120453Z AUTO 11004KT 10SM CLR 15/10 A3020 RMK AO2 SLP220 T01500100 402720106,2025-09-12T05:00:35Z,2025-09-12T01:00:35Z,Findlay Airport,41.0135002136,-83.66870117190001,US,US-OH
KFET,"Fremont Muni, NE, US",2025-09-12T04:55:00Z,2025-09-11 23:55:00,VFR,24.1,18.1,130,9,0,NA,1017,METAR KFET 120455Z AUTO 13009KT 10SM CLR 24/18 A3003 RMK AO2 T02410181,2025-09-12T05:00:35Z,2025-09-12T01:00:35Z,Fremont Municipal Airport,41.45024,-96.522884,US,US-NE
KFFA,"Kill Devil Hill/First Flight Arpt, NC, US",2025-09-12T04:45:00Z,2025-09-12 00:45:00,VFR,21.1,16.6,40,5,0,NA,1019,METAR KFFA 120445Z AUTO 04005KT 10SM SCT085 OVC100 21/17 A3009 RMK AO2 T02110166,2025-09-12T05:00:35Z,2025-09-12T01:00:35Z,First Flight Airport,36.0181999207,-75.67130279540001,US,US-NC
KFFA,"Kill Devil Hill/First Flight Arpt, NC, US",2025-09-12T05:05:00Z,2025-09-12 01:05:00,VFR,21.1,16,50,6,0,NA,1018.7,METAR KFFA 120505Z AUTO 05006KT 10SM BKN100 21/16 A3008 RMK AO2 T02110160,2025-09-12T05:17:13Z,2025-09-12T01:17:13Z,First Flight Airport,36.0181999207,-75.67130279540001,US,US-NC
KFFC,"Peachtree City/Falcon Fld, GA, US",2025-09-12T04:53:00Z,2025-09-12 04:53:00,VFR,17.8,17.2,0,0,0,9,1020.4,METAR KFFC 120453Z AUTO 00000KT 9SM CLR 18/17 A3013 RMK AO2 SLP197 T01780172 403060133 $,2025-09-12T05:00:35Z,2025-09-12T01:00:35Z,Peachtree City Falcon Field,33.3573,-84.5718,US,US-GA
KFFL,"Fairfield Muni, IA, US",2025-09-12T04:55:00Z,2025-09-11 23:55:00,NA,18,14,110,6,0,NA,1020.4,METAR KFFL 120455Z AUTO 11006KT FEW050 FEW060 18/14 A3013 RMK A01,2025-09-12T05:00:35Z,2025-09-12T01:00:35Z,Fairfield Municipal Airport,41.053024,-91.980114,US,US-IA
KFFM,"Fergus Falls/Mickelson Fld, MN, US",2025-09-12T04:55:00Z,2025-09-11 23:55:00,VFR,20,17,140,12,0,NA,1017,METAR KFFM 120455Z AUTO 14012KT 10SM CLR 20/17 A3003 RMK AO2,2025-09-12T05:00:35Z,2025-09-12T01:00:35Z,Fergus Falls Municipal Airport - Einar Mickelson Field,46.28440094,-96.15670013,US,US-MN
KFFM,"Fergus Falls/Mickelson Fld, MN, US",2025-09-12T05:15:00Z,2025-09-12 00:15:00,VFR,19,16,140,12,18,NA,1016.7,METAR KFFM 120515Z AUTO 14012G18KT 10SM CLR 19/16 A3002 RMK AO2 LTG DSNT NW,2025-09-12T05:17:13Z,2025-09-12T01:17:13Z,Fergus Falls Municipal Airport - Einar Mickelson Field,46.28440094,-96.15670013,US,US-MN
KFFT,"Frankfort/Capital City Arpt, KY, US",2025-09-12T04:53:00Z,2025-09-12 00:53:00,NA,NA,NA,VAR,NA,0,NA,1021.1,METAR KFFT 120453Z AUTO A3015 RMK AO2 SLPNO PWINO,2025-09-12T05:00:35Z,2025-09-12T01:00:35Z,Capital City Airport,38.181698,-84.906764,US,US-KY
KFFX,"Fremont Muni, MI, US",2025-09-12T04:55:00Z,2025-09-12 04:55:00,VFR,14,13,50,3,0,NA,1023.5,METAR KFFX 120455Z AUTO 05003KT 10SM CLR 14/13 A3022 RMK AO2,2025-09-12T05:00:34Z,2025-09-12T01:00:34Z,Fremont Municipal Airport,43.436854,-85.996592,US,US-MI
KFFZ,"Mesa/Falcon Fld, AZ, US",2025-09-12T04:54:00Z,2025-09-11 21:54:00,VFR,32.2,14.4,150,7,0,NA,1010.6,METAR KFFZ 120454Z 15007KT 10SM CLR 32/14 A2984 RMK AO2 SLP078 T03220144,2025-09-12T05:00:35Z,2025-09-12T01:00:35Z,Falcon Field,33.4608001709,-111.727996826,US,US-AZ
KFGX,"Flemingsburg Arpt, KY, US",2025-09-12T04:35:00Z,2025-09-12 04:35:00,VFR,15.6,10,100,3,0,NA,1022.4,METAR KFGX 120435Z AUTO 10003KT 10SM CLR 16/10 A3019 RMK AO2 T01560100,2025-09-12T05:00:35Z,2025-09-12T01:00:35Z,Fleming Mason Airport,38.5418014526,-83.74340057370001,US,US-KY
KFGX,"Flemingsburg Arpt, KY, US",2025-09-12T04:55:00Z,2025-09-12 04:55:00,VFR,15.9,10.5,50,5,0,NA,1022.4,METAR KFGX 120455Z AUTO 05005KT 10SM CLR 16/11 A3019 RMK AO2 T01590105,2025-09-12T05:17:13Z,2025-09-12T01:17:13Z,Fleming Mason Airport,38.5418014526,-83.74340057370001,US,US-KY
KFHR,"Friday Harbor Arpt, WA, US",2025-09-12T04:53:00Z,2025-09-11 21:53:00,VFR,15,11.1,230,10,17,NA,1017.4,METAR KFHR 120453Z AUTO 23010G17KT 10SM CLR 15/11 A3004 RMK AO2 SLP174 T01500111,2025-09-12T05:00:35Z,2025-09-12T01:00:35Z,Friday Harbor Airport,48.523654,-123.024645,US,US-WA
KFIG,"Clearfield/Lawrence Arpt, PA, US",2025-09-12T04:54:00Z,2025-09-12 04:54:00,VFR,11.7,8.9,30,4,0,NA,1023.8,METAR KFIG 120454Z AUTO 03004KT 10SM CLR 12/09 A3023 RMK AO2 SLP232 T01170089 402610061,2025-09-12T05:00:35Z,2025-09-12T01:00:35Z,Clearfield Lawrence Airport,41.049032,-78.415003,US,US-PA
KFIT,"Fitchburg Muni, MA, US",2025-09-12T04:52:00Z,2025-09-12 04:52:00,VFR,15.6,10,320,3,0,NA,1021.4,METAR KFIT 120452Z AUTO 32003KT 10SM CLR 16/10 A3016 RMK AO2 SLP212 T01560100 402610067,2025-09-12T05:00:35Z,2025-09-12T01:00:35Z,Fitchburg Municipal Airport,42.554100036621094,-71.759002685546875,US,US-MA
KFKA,"Preston/Fillmore Cnty, MN, US",2025-09-12T04:55:00Z,2025-09-12 04:55:00,VFR,17,17,130,7,0,NA,1021.8,METAR KFKA 120455Z AUTO 13007KT 10SM CLR 17/17 A3017 RMK AO2,2025-09-12T05:00:35Z,2025-09-12T01:00:35Z,Fillmore County Airport,43.6768,-92.179703,US,US-MN
KFKA,"Preston/Fillmore Cnty, MN, US",2025-09-12T05:15:00Z,2025-09-12 05:15:00,VFR,16,16,130,6,0,NA,1021.8,METAR KFKA 120515Z AUTO 13006KT 10SM CLR 16/16 A3017 RMK AO2,2025-09-12T05:17:13Z,2025-09-12T01:17:13Z,Fillmore County Airport,43.6768,-92.179703,US,US-MN
KFKL,"Franklin/Lamberton Fld, PA, US",2025-09-12T04:56:00Z,2025-09-12 00:56:00,VFR,15,11.1,30,5,0,NA,1024.1,METAR KFKL 120456Z AUTO 03005KT 10SM CLR 15/11 A3024 RMK AO2 SLPNO T01500111 402560083,2025-09-12T05:00:34Z,2025-09-12T01:00:34Z,Venango Regional Airport,41.3778991699,-79.8603973389,US,US-PA
KFKN,"Franklin/Rose Arpt, VA, US",2025-09-12T04:55:00Z,2025-09-12 00:55:00,VFR,16.6,15.6,0,0,0,NA,1020.7,METAR KFKN 120455Z AUTO 00000KT 10SM BKN110 17/16 A3014 RMK AO2 T01660156 402240163,2025-09-12T05:00:34Z,2025-09-12T01:00:34Z,Franklin Regional Airport,36.698101,-76.903801,US,US-VA
KFKR,"Frankfort Muni, IN, US",2025-09-12T04:55:00Z,2025-09-12 04:55:00,VFR,NA,NA,100,5,0,NA,1022.1,METAR KFKR 120455Z AUTO 10005KT 10SM FEW034 SCT041 BKN050 A3018 RMK AO2,2025-09-12T05:00:35Z,2025-09-12T01:00:35Z,Frankfort Clinton County Regional Airport,40.273399,-86.562202,US,US-IN
KFKS,"Frankfort/Dow Mem, MI, US",2025-09-12T04:55:00Z,2025-09-12 04:55:00,LIFR,12,12,320,1,0,0.5,1023.8,METAR KFKS 120455Z AUTO 32001KT 1/2SM FG VV005 12/12 A3023 RMK AO2,2025-09-12T05:00:35Z,2025-09-12T01:00:35Z,Frankfort Dow Memorial Field,44.625198,-86.200798,US,US-MI
KFKS,"Frankfort/Dow Mem, MI, US",2025-09-12T05:15:00Z,2025-09-12 05:15:00,LIFR,13,13,90,1,0,5,1023.8,METAR KFKS 120515Z AUTO 09001KT 5SM BR BKN001 13/13 A3023 RMK AO2,2025-09-12T05:17:13Z,2025-09-12T01:17:13Z,Frankfort Dow Memorial Field,44.625198,-86.200798,US,US-MI
KFLD,"Fond Du Lac Cnty Arpt, WI, US",2025-09-12T04:53:00Z,2025-09-11 23:53:00,VFR,13.9,13.3,80,6,0,NA,1023.8,METAR KFLD 120453Z AUTO 08006KT 10SM CLR 14/13 A3023 RMK AO2 SLP238 T01390133,2025-09-12T05:00:35Z,2025-09-12T01:00:35Z,Fond du Lac County Airport,43.7711982727,-88.48840332030001,US,US-WI
KFLG,"Flagstaff/Pulliam Arpt, AZ, US",2025-09-12T04:57:00Z,2025-09-11 21:57:00,VFR,15,9.4,0,0,0,NA,1023.5,METAR KFLG 120457Z AUTO 00000KT 10SM CLR 15/09 A3022 RMK AO2 SLP135 T01500094 $,2025-09-12T05:00:34Z,2025-09-12T01:00:34Z,Flagstaff Pulliam International Airport,35.1385,-111.670998,US,US-AZ
KFLL,"Ft Lauderdale-Hollywood Intl, FL, US",2025-09-12T04:53:00Z,2025-09-12 00:53:00,VFR,25.6,24.4,290,5,0,NA,1014,METAR KFLL 120453Z 29005KT 10SM SCT025 SCT100 26/24 A2994 RMK AO2 RAE22 SLP137 P0000 T02560244 403330244 $,2025-09-12T05:00:35Z,2025-09-12T01:00:35Z,Fort Lauderdale Hollywood International Airport,26.072599,-80.152702,US,US-FL
KFLO,"Florence Rgnl, SC, US",2025-09-12T04:53:00Z,2025-09-12 00:53:00,VFR,18.9,17.8,40,4,0,NA,1019.7,METAR KFLO 120453Z 04004KT 10SM CLR 19/18 A3011 RMK AO2 SLP193 T01890178 402890183,2025-09-12T05:00:35Z,2025-09-12T01:00:35Z,Florence Regional Airport,34.18539810180664,-79.7238998413086,US,US-SC
KFLP,"Flippin/Marion Cnty, AR, US",2025-09-12T04:56:00Z,2025-09-11 23:56:00,VFR,24.4,17.2,0,0,0,NA,1020.1,METAR KFLP 120456Z AUTO 00000KT 10SM CLR 24/17 A3012 RMK AO2 SLP190 T02440172 403500200 $,2025-09-12T05:00:34Z,2025-09-12T01:00:34Z,Marion County Regional Airport,36.29090118,-92.59030151,US,US-AR
KFME,"Fort Meade/Tipton Fld, MD, US",2025-09-12T04:49:00Z,2025-09-12 00:49:00,MVFR,14,13,0,0,0,5,1021.8,METAR KFME 120449Z AUTO 00000KT 5SM CLR 14/13 A3017 RMK AO1,2025-09-12T05:00:35Z,2025-09-12T01:00:35Z,Tipton Airport,39.08539962769999,-76.7593994141,US,US-MD
KFME,"Fort Meade/Tipton Fld, MD, US",2025-09-12T05:09:00Z,2025-09-12 01:09:00,VFR,14,14,0,0,0,7,1021.8,METAR KFME 120509Z AUTO 00000KT 7SM CLR 14/14 A3017 RMK AO1,2025-09-12T05:17:13Z,2025-09-12T01:17:13Z,Tipton Airport,39.08539962769999,-76.7593994141,US,US-MD
KFMH,"Otis ANGB, MA, US",2025-09-12T04:56:00Z,2025-09-12 00:56:00,VFR,16,12,0,0,0,NA,1020.1,METAR KFMH 120456Z 00000KT 10SM CLR 16/12 A3012,2025-09-12T05:00:34Z,2025-09-12T01:00:34Z,Cape Cod Coast Guard Air Station,41.657899,-70.52163,US,US-MA
KFMM,"Fort Morgan Muni, CO, US",2025-09-12T04:55:00Z,2025-09-12 04:55:00,VFR,20,12,270,5,0,NA,1018.4,METAR KFMM 120455Z AUTO 27005KT 10SM SCT110 20/12 A3007 RMK AO2,2025-09-12T05:00:34Z,2025-09-12T01:00:34Z,Fort Morgan Municipal Airport,40.335758,-103.804371,US,US-CO
KFMN,"Farmington/Four Corners Rgnl, NM, US",2025-09-12T04:53:00Z,2025-09-11 22:53:00,NA,17.2,12.8,80,3,0,NA,1022.8,METAR KFMN 120453Z AUTO 08003KT -RA BKN085 OVC100 17/13 A3020 RMK AO2 LTG DSNT SE-W RAE0358B46 PRESRR SLP176 T01720128 PNO $,2025-09-12T05:00:35Z,2025-09-12T01:00:35Z,Four Corners Regional Airport,36.741199,-108.230003,US,US-NM
KFMN,"Farmington/Four Corners Rgnl, NM, US",2025-09-12T05:14:00Z,2025-09-11 23:14:00,NA,17.2,13.9,120,7,0,NA,1023.8,SPECI KFMN 120514Z AUTO 12007KT -TSRA OVC080 17/14 A3023 RMK AO2 LTG DSNT NE AND E TSB08 T01720139 PNO $,2025-09-12T05:17:13Z,2025-09-12T01:17:13Z,Four Corners Regional Airport,36.741199,-108.230003,US,US-NM
KFMY,"Fort Myers/Page Fld, FL, US",2025-09-12T04:53:00Z,2025-09-12 00:53:00,VFR,24.4,22.8,20,3,0,NA,1015,METAR KFMY 120453Z AUTO 02003KT 10SM FEW065 24/23 A2997 RMK AO2 SLP152 T02440228 403330239,2025-09-12T05:00:35Z,2025-09-12T01:00:35Z,Page Field,26.58659935,-81.86329650879999,US,US-FL
KFNB,"Falls City/Brenner Fld, NE, US",2025-09-12T04:53:00Z,2025-09-12 04:53:00,VFR,21.7,17.2,150,7,0,NA,1017.7,METAR KFNB 120453Z AUTO 15007KT 10SM CLR 22/17 A3005 RMK AO2 SLP166 T02170172,2025-09-12T05:00:35Z,2025-09-12T01:00:35Z,Brenner Field,40.0788,-95.592003,US,US-NE
KFNL,"Fort Collins/N Colorado Rgnl, CO, US",2025-09-12T04:56:00Z,2025-09-11 22:56:00,VFR,20,5.6,340,9,0,NA,1020.4,METAR KFNL 120456Z 34009KT 10SM CLR 20/06 A3013 RMK AO2 SLP131 T02000056 $,2025-09-12T05:00:34Z,2025-09-12T01:00:34Z,Northern Colorado Regional Airport,40.44969,-105.011272,US,US-CO
KFNT,"Flint/Bishop Intl, MI, US",2025-09-12T04:53:00Z,2025-09-12 00:53:00,VFR,13.9,11.7,0,0,0,NA,1024.1,METAR KFNT 120453Z AUTO 00000KT 10SM CLR 14/12 A3024 RMK AO2 SLP237 T01390117 402610083 $,2025-09-12T05:00:35Z,2025-09-12T01:00:35Z,Bishop International Airport,42.96540069580078,-83.74359893798828,US,US-MI
KFOA,"Flora Muni, IL, US",2025-09-12T04:55:00Z,2025-09-12 04:55:00,VFR,18,16,0,0,0,NA,1021.1,METAR KFOA 120455Z AUTO 00000KT 10SM CLR 18/16 A3015 RMK AO2,2025-09-12T05:00:35Z,2025-09-12T01:00:35Z,Flora Municipal Airport,38.66490173339844,-88.4530029296875,US,US-IL
KFOD,"Fort Dodge Rgnl, IA, US",2025-09-12T04:56:00Z,2025-09-11 23:56:00,VFR,19.4,15,120,8,0,NA,1019.7,METAR KFOD 120456Z AUTO 12008KT 10SM CLR 19/15 A3011 RMK AO2 SLP201 T01940150 402940133 $,2025-09-12T05:00:37Z,2025-09-12T01:00:37Z,Fort Dodge Regional Airport,42.552624,-94.191237,US,US-IA
KFOE,"Topeka/Forbes Fld, KS, US",2025-09-12T04:53:00Z,2025-09-11 23:53:00,VFR,21.7,17.2,140,7,0,NA,1018.4,METAR KFOE 120453Z AUTO 14007KT 10SM CLR 22/17 A3007 RMK AO2 SLP171 T02170172 $,2025-09-12T05:00:37Z,2025-09-12T01:00:37Z,Topeka Regional Airport,38.950901,-95.663597,US,US-KS
KFOK,"Westhampton/Gabreski Arpt, NY, US",2025-09-12T04:53:00Z,2025-09-12 00:53:00,VFR,11.7,10,0,0,0,NA,1020.7,METAR KFOK 120453Z AUTO 00000KT 10SM CLR 12/10 A3014 RMK AO2 SLP205 T01170100 402610094,2025-09-12T05:00:37Z,2025-09-12T01:00:37Z,Francis S Gabreski Airport,40.8437004089,-72.6317977905,US,US-NY
KFOM,"Fillmore Muni, UT, US",2025-09-12T04:35:00Z,2025-09-11 22:35:00,VFR,17,-1,90,8,0,NA,1017,METAR KFOM 120435Z AUTO 09008KT 10SM CLR 17/M01 A3003 RMK AO2,2025-09-12T05:00:37Z,2025-09-12T01:00:37Z,Fillmore Municipal Airport,38.95830154,-112.362999,US,US-UT
KFOM,"Fillmore Muni, UT, US",2025-09-12T04:55:00Z,2025-09-11 22:55:00,VFR,18,-1,100,8,0,NA,1017,METAR KFOM 120455Z AUTO 10008KT 10SM CLR 18/M01 A3003 RMK AO2,2025-09-12T05:17:16Z,2025-09-12T01:17:16Z,Fillmore Municipal Airport,38.95830154,-112.362999,US,US-UT
KFOT,"Fortuna/Rohnerville Arpt, CA, US",2025-09-12T04:35:00Z,2025-09-12 04:35:00,MVFR,14,14,290,4,0,NA,1018.4,METAR KFOT 120435Z AUTO 29004KT 10SM OVC011 14/14 A3007 RMK AO1,2025-09-12T05:00:37Z,2025-09-12T01:00:37Z,Rohnerville Airport,40.55390167,-124.1330032,US,US-CA
KFOT,"Fortuna/Rohnerville Arpt, CA, US",2025-09-12T04:55:00Z,2025-09-12 04:55:00,MVFR,14,14,290,6,0,NA,1018.4,METAR KFOT 120455Z AUTO 29006KT 10SM OVC014 14/14 A3007 RMK AO1,2025-09-12T05:17:15Z,2025-09-12T01:17:15Z,Rohnerville Airport,40.55390167,-124.1330032,US,US-CA
KFOZ,"Bigfork Muni, MN, US",2025-09-12T04:53:00Z,2025-09-12 04:53:00,IFR,16,14,150,3,0,NA,1022.1,METAR KFOZ 120453Z AUTO 15003KT 10SM OVC007 16/14 A3018 RMK AO2,2025-09-12T05:00:37Z,2025-09-12T01:00:37Z,Bigfork Municipal Airport,47.783865,-93.65098,US,US-MN
KFOZ,"Bigfork Muni, MN, US",2025-09-12T05:13:00Z,2025-09-12 05:13:00,IFR,16,14,160,6,0,NA,1022.1,METAR KFOZ 120513Z AUTO 16006KT 10SM OVC007 16/14 A3018 RMK AO2,2025-09-12T05:17:15Z,2025-09-12T01:17:15Z,Bigfork Municipal Airport,47.783865,-93.65098,US,US-MN
KFPK,"Charotte/Beach Fld, MI, US",2025-09-12T04:55:00Z,2025-09-12 04:55:00,VFR,16,12,120,4,0,NA,1023.5,METAR KFPK 120455Z AUTO 12004KT 10SM CLR 16/12 A3022 RMK AO2,2025-09-12T05:00:37Z,2025-09-12T01:00:37Z,Fitch H Beach Airport,42.574501,-84.811401,US,US-MI
KFPR,"Ft Pierce/Treasure Coast Intl, FL, US",2025-09-12T04:53:00Z,2025-09-12 00:53:00,VFR,26.1,23.9,330,6,0,8,1015,METAR KFPR 120453Z AUTO 33006KT 8SM -RA SCT024 BKN031 BKN043 26/24 A2997 RMK AO2 RAB52 SLP147 P0000 T02610239 403060244,2025-09-12T05:00:37Z,2025-09-12T01:00:37Z,St Lucie County International Airport,27.49510002,-80.36830139,US,US-FL
KFPR,"Ft Pierce/Treasure Coast Intl, FL, US",2025-09-12T05:10:00Z,2025-09-12 01:10:00,MVFR,25.6,23.9,330,3,0,5,1015,SPECI KFPR 120510Z AUTO 33003KT 5SM -RA BR FEW021 BKN030 BKN055 26/24 A2997 RMK AO2 P0010 T02560239,2025-09-12T05:17:15Z,2025-09-12T01:17:15Z,St Lucie County International Airport,27.49510002,-80.36830139,US,US-FL
KFQD,"Rutherfordton/Marchman Fld, NC, US",2025-09-12T04:40:00Z,2025-09-12 04:40:00,VFR,16,16,0,0,0,NA,1022.1,METAR KFQD 120440Z AUTO 00000KT 10SM CLR 16/16 A3018 RMK AO2,2025-09-12T05:00:37Z,2025-09-12T01:00:37Z,Rutherford County Marchman Field,35.4282,-81.935097,US,US-NC
KFQD,"Rutherfordton/Marchman Fld, NC, US",2025-09-12T05:00:00Z,2025-09-12 05:00:00,VFR,16,16,0,0,0,NA,1022.1,METAR KFQD 120500Z AUTO 00000KT 10SM SCT060 16/16 A3018 RMK AO2,2025-09-12T05:17:15Z,2025-09-12T01:17:15Z,Rutherford County Marchman Field,35.4282,-81.935097,US,US-NC
KFRG,"Farmingdale/Republic Arpt, NY, US",2025-09-12T04:53:00Z,2025-09-12 00:53:00,VFR,15.6,12.8,350,4,0,NA,1020.4,METAR KFRG 120453Z 35004KT 10SM CLR 16/13 A3013 RMK AO2 SLP202 T01560128 402610139,2025-09-12T05:00:37Z,2025-09-12T01:00:37Z,Republic Airport,40.7288017273,-73.4133987427,US,US-NY
KFRH,"French Lick Muni, IN, US",2025-09-12T04:55:00Z,2025-09-12 00:55:00,VFR,18,16,0,0,0,NA,1021.4,METAR KFRH 120455Z AUTO 00000KT 10SM CLR 18/16 A3016 RMK AO1,2025-09-12T05:00:37Z,2025-09-12T01:00:37Z,French Lick Municipal Airport,38.5061988831,-86.63690185550001,US,US-IN
KFRH,"French Lick Muni, IN, US",2025-09-12T05:15:00Z,2025-09-12 01:15:00,VFR,17,16,40,3,0,NA,1021.4,METAR KFRH 120515Z AUTO 04003KT 10SM CLR 17/16 A3016 RMK AO1,2025-09-12T05:17:15Z,2025-09-12T01:17:15Z,French Lick Municipal Airport,38.5061988831,-86.63690185550001,US,US-IN
KFRM,"Fairmont Muni, MN, US",2025-09-12T04:56:00Z,2025-09-11 23:56:00,VFR,17.8,15.6,140,8,0,NA,1019.4,METAR KFRM 120456Z AUTO 14008KT 10SM CLR 18/16 A3010 RMK AO2 SLP191 T01780156,2025-09-12T05:00:37Z,2025-09-12T01:00:37Z,Fairmont Municipal Airport,43.643901825,-94.4156036377,US,US-MN
KFRR,"Front Royal/Warren Cnty, VA, US",2025-09-12T04:55:00Z,2025-09-12 00:55:00,VFR,14,12.6,0,0,0,NA,1021.1,METAR KFRR 120455Z AUTO 00000KT 10SM CLR 14/13 A3015 RMK AO2 T01400126 402810125,2025-09-12T05:00:37Z,2025-09-12T01:00:37Z,Front Royal Warren County Airport,38.9175,-78.253502,US,US-VA
KFRR,"Front Royal/Warren Cnty, VA, US",2025-09-12T05:15:00Z,2025-09-12 01:15:00,VFR,13.3,12.2,0,0,0,NA,1021.4,METAR KFRR 120515Z AUTO 00000KT 10SM CLR 13/12 A3016 RMK AO2 T01330122,2025-09-12T05:17:15Z,2025-09-12T01:17:15Z,Front Royal Warren County Airport,38.9175,-78.253502,US,US-VA
KFSD,"Sioux Falls/Foss Fld, SD, US",2025-09-12T04:56:00Z,2025-09-11 23:56:00,VFR,21.7,16.7,140,10,0,NA,1016.3,METAR KFSD 120456Z 14010KT 10SM BKN250 22/17 A3001 RMK AO2 SLP155 T02170167,2025-09-12T05:00:37Z,2025-09-12T01:00:37Z,Sioux Falls Regional Airport / Joe Foss Field,43.585463,-96.741152,US,US-SD
KFSE,"Fosston Muni, MN, US",2025-09-12T04:55:00Z,2025-09-12 04:55:00,NA,17,13,160,9,0,NA,1017.4,METAR KFSE 120455Z AUTO 16009KT 10SM 17/13 A3004 RMK AO2,2025-09-12T05:00:37Z,2025-09-12T01:00:37Z,Fosston Municipal Airport-Anderson Field,47.5928,-95.773499,US,US-MN
KFSE,"Fosston Muni, MN, US",2025-09-12T05:15:00Z,2025-09-12 05:15:00,NA,17,14,160,10,16,NA,1017,METAR KFSE 120515Z AUTO 16010G16KT 10SM 17/14 A3003 RMK AO2 LTG DSNT N AND W,2025-09-12T05:17:15Z,2025-09-12T01:17:15Z,Fosston Municipal Airport-Anderson Field,47.5928,-95.773499,US,US-MN
KFSK,"Fort Scott Muni, KS, US",2025-09-12T04:55:00Z,2025-09-11 23:55:00,VFR,22.6,17,180,4,0,NA,1019.7,METAR KFSK 120455Z AUTO 18004KT 10SM BKN120 23/17 A3011 RMK AO2 T02260170,2025-09-12T05:00:37Z,2025-09-12T01:00:37Z,Fort Scott Municipal Airport,37.7984008789,-94.7694015503,US,US-KS
KFSM,"Fort Smith Rgnl, AR, US",2025-09-12T04:53:00Z,2025-09-11 23:53:00,VFR,23.9,20.6,80,3,0,NA,1019,METAR KFSM 120453Z AUTO 08003KT 10SM CLR 24/21 A3009 RMK AO2 SLP184 T02390206,2025-09-12T05:00:37Z,2025-09-12T01:00:37Z,Fort Smith Regional Airport,35.336601,-94.367401,US,US-AR
KFSO,"Highgate/Franklin Cnty, VT, US",2025-09-12T04:55:00Z,2025-09-12 04:55:00,VFR,10.3,9.7,0,0,0,NA,1023.5,METAR KFSO 120455Z AUTO 00000KT 10SM CLR 10/10 A3022 RMK AO2 T01030097 402340091,2025-09-12T05:00:37Z,2025-09-12T01:00:37Z,Franklin County State Airport,44.9403,-73.097504,US,US-VT
KFSO,"Highgate/Franklin Cnty, VT, US",2025-09-12T05:15:00Z,2025-09-12 05:15:00,VFR,10.5,9.9,0,0,0,NA,1023.5,METAR KFSO 120515Z AUTO 00000KT 10SM CLR 11/10 A3022 RMK AO2 T01050099,2025-09-12T05:17:15Z,2025-09-12T01:17:15Z,Franklin County State Airport,44.9403,-73.097504,US,US-VT
KFST,"Fort Stockton/Pecos Cnty, TX, US",2025-09-12T04:53:00Z,2025-09-11 23:53:00,VFR,25,12.2,140,14,20,NA,1020.1,METAR KFST 120453Z AUTO 14014G20KT 10SM CLR 25/12 A3012 RMK AO2 SLP148 T02500122,2025-09-12T05:00:37Z,2025-09-12T01:00:37Z,Fort Stockton Pecos County Airport,30.9157009125,-102.916000366,US,US-TX
KFSW,"Fort Madison Muni, IA, US",2025-09-12T04:55:00Z,2025-09-11 23:55:00,VFR,17,13,50,4,0,NA,1020.7,METAR KFSW 120455Z AUTO 05004KT 10SM CLR 17/13 A3014 RMK AO2,2025-09-12T05:00:37Z,2025-09-12T01:00:37Z,Fort Madison Municipal Airport,40.659113,-91.327763,US,US-IA
KFTW,"Fort Worth/Meacham Intl, TX, US",2025-09-12T04:53:00Z,2025-09-11 23:53:00,VFR,25.6,17.8,130,6,0,NA,1018.7,METAR KFTW 120453Z 13006KT 10SM CLR 26/18 A3008 RMK AO2 SLP177 T02560178 $,2025-09-12T05:00:37Z,2025-09-12T01:00:37Z,Fort Worth Meacham International Airport,32.819801,-97.362396,US,US-TX
KFTY,"Atlanta/Fulton Cnty, GA, US",2025-09-12T04:53:00Z,2025-09-12 00:53:00,VFR,19.4,16.7,0,0,0,NA,1020.1,METAR KFTY 120453Z 00000KT 10SM CLR 19/17 A3012 RMK AO2 SLP192 T01940167 403110139,2025-09-12T05:00:37Z,2025-09-12T01:00:37Z,Fulton County Airport Brown Field,33.7790985107,-84.5214004517,US,US-GA
KFUL,"Fullerton Muni, CA, US",2025-09-12T04:53:00Z,2025-09-11 21:53:00,VFR,20,16.1,250,3,0,NA,1013,METAR KFUL 120453Z AUTO 25003KT 10SM CLR 20/16 A2991 RMK AO2 SLP129 T02000161,2025-09-12T05:00:37Z,2025-09-12T01:00:37Z,Fullerton Municipal Airport,33.8720016479,-117.980003357,US,US-CA
KFVE,"Frenchville/N Aroostook Rgnl, ME, US",2025-09-12T04:53:00Z,2025-09-12 00:53:00,VFR,7.8,3.3,320,11,0,NA,1020.7,METAR KFVE 120453Z AUTO 32011KT 10SM CLR 08/03 A3014 RMK AO2 SLP206 T00780033 401890072,2025-09-12T05:00:37Z,2025-09-12T01:00:37Z,Northern Aroostook Regional Airport,47.2854995728,-68.31279754639999,US,US-ME
KFVX,"Farmville Muni, VA, US",2025-09-12T04:55:00Z,2025-09-12 04:55:00,VFR,17.7,17.7,360,3,0,NA,1020.7,METAR KFVX 120455Z AUTO 36003KT 10SM CLR 18/18 A3014 RMK AO2 T01770177 402950160,2025-09-12T05:00:37Z,2025-09-12T01:00:37Z,Farmville Regional Airport,37.35749817,-78.43779755,US,US-VA
KFVX,"Farmville Muni, VA, US",2025-09-12T05:15:00Z,2025-09-12 05:15:00,VFR,18,18,360,3,0,NA,1021.1,METAR KFVX 120515Z AUTO 36003KT 10SM CLR 18/18 A3015 RMK AO2 T01800180,2025-09-12T05:17:15Z,2025-09-12T01:17:15Z,Farmville Regional Airport,37.35749817,-78.43779755,US,US-VA
KFWA,"Fort Wayne Intl, IN, US",2025-09-12T04:54:00Z,2025-09-12 00:54:00,VFR,15.6,10,100,3,0,NA,1023.1,METAR KFWA 120454Z 10003KT 10SM CLR 16/10 A3021 RMK AO2 SLP224 T01560100 402780094,2025-09-12T05:00:37Z,2025-09-12T01:00:37Z,Fort Wayne International Airport,40.9785,-85.195099,US,US-IN
KFWC,"Fairfield Muni, IL, US",2025-09-12T04:55:00Z,2025-09-12 04:55:00,VFR,18.1,15.9,0,0,0,7,1020.7,METAR KFWC 120455Z AUTO 00000KT 7SM CLR 18/16 A3014 RMK AO2 T01810159,2025-09-12T05:00:37Z,2025-09-12T01:00:37Z,Fairfield Municipal Airport,38.378601,-88.412697,US,US-IL
KFWN,"Sussex Arpt, NJ, US",2025-09-12T04:53:00Z,2025-09-12 04:53:00,VFR,12.2,11.7,0,0,0,NA,1021.4,METAR KFWN 120453Z AUTO 00000KT 10SM CLR 12/12 A3016 RMK AO2 SLP210 T01220117 402560089,2025-09-12T05:00:37Z,2025-09-12T01:00:37Z,Sussex Airport,41.200199127197266,-74.62300109863281,US,US-NJ
KFWS,"Fort Worth/Spinks Arpt, TX, US",2025-09-12T04:55:00Z,2025-09-12 04:55:00,VFR,23.1,18.2,0,0,0,NA,1019.4,METAR KFWS 120455Z AUTO 00000KT 10SM CLR 23/18 A3010 RMK AO2 T02310182 $,2025-09-12T05:00:37Z,2025-09-12T01:00:37Z,Fort Worth Spinks Airport,32.565201,-97.308098,US,US-TX
KFXE,"Ft Lauderdale Exec, FL, US",2025-09-12T04:53:00Z,2025-09-12 00:53:00,VFR,26.7,26.1,280,4,0,NA,1014,METAR KFXE 120453Z 28004KT 10SM FEW020 FEW050 SCT120 27/26 A2994 RMK AO2 SLP142 T02670261 403500250,2025-09-12T05:00:37Z,2025-09-12T01:00:37Z,Fort Lauderdale Executive Airport,26.1972999573,-80.1707000732,US,US-FL
KFXY,"Forest City Muni, IA, US",2025-09-12T04:35:00Z,2025-09-11 23:35:00,VFR,17,15,110,6,0,NA,1020.4,METAR KFXY 120435Z AUTO 11006KT 10SM CLR 17/15 A3013 RMK AO2,2025-09-12T05:00:37Z,2025-09-12T01:00:37Z,Forest City Municipal Airport,43.23469925,-93.62409973,US,US-IA
KFXY,"Forest City Muni, IA, US",2025-09-12T04:55:00Z,2025-09-11 23:55:00,VFR,17,15,100,7,0,NA,1020.4,METAR KFXY 120455Z AUTO 10007KT 10SM CLR 17/15 A3013 RMK AO2,2025-09-12T05:17:15Z,2025-09-12T01:17:15Z,Forest City Municipal Airport,43.23469925,-93.62409973,US,US-IA
KFYE,"Somerville/Fayette Cnty, TN, US",2025-09-12T04:35:00Z,2025-09-12 04:35:00,VFR,21,18,0,0,0,NA,1019,METAR KFYE 120435Z AUTO 00000KT 10SM CLR 21/18 A3009 RMK A01,2025-09-12T05:00:37Z,2025-09-12T01:00:37Z,Fayette County Airport,35.207699,-89.394501,US,US-TN
KFYE,"Somerville/Fayette Cnty, TN, US",2025-09-12T04:55:00Z,2025-09-12 04:55:00,VFR,20,18,0,0,0,NA,1019,METAR KFYE 120455Z AUTO 00000KT 10SM CLR 20/18 A3009 RMK A01,2025-09-12T05:17:16Z,2025-09-12T01:17:16Z,Fayette County Airport,35.207699,-89.394501,US,US-TN
KFYJ,"West Point/Middle Peninsula Arpt, VA, US",2025-09-12T04:55:00Z,2025-09-12 04:55:00,MVFR,13.5,13.3,VAR,NA,0,5,1020.7,METAR KFYJ 120455Z AUTO 5SM CLR 14/13 A3014 RMK AO1 T01350133,2025-09-12T05:00:37Z,2025-09-12T01:00:37Z,Middle Peninsula Regional Airport,37.521299,-76.762762,US,US-VA
KFYJ,"West Point/Middle Peninsula Arpt, VA, US",2025-09-12T05:15:00Z,2025-09-12 05:15:00,VFR,14.4,14.3,VAR,NA,0,7,1020.7,METAR KFYJ 120515Z AUTO 7SM CLR 14/14 A3014 RMK AO1 T01440143,2025-09-12T05:17:15Z,2025-09-12T01:17:15Z,Middle Peninsula Regional Airport,37.521299,-76.762762,US,US-VA
KFYM,"Fayetteville Muni, TN, US",2025-09-12T04:35:00Z,2025-09-11 23:35:00,VFR,20,19,0,0,0,NA,1021.4,METAR KFYM 120435Z AUTO 00000KT 10SM CLR 20/19 A3016 RMK A01,2025-09-12T05:00:37Z,2025-09-12T01:00:37Z,Fayetteville Municipal Airport,35.059700012200004,-86.5640029907,US,US-TN
KFYM,"Fayetteville Muni, TN, US",2025-09-12T04:55:00Z,2025-09-11 23:55:00,VFR,19,19,0,0,0,NA,1021.4,METAR KFYM 120455Z AUTO 00000KT 10SM CLR 19/19 A3016 RMK A01,2025-09-12T05:17:16Z,2025-09-12T01:17:16Z,Fayetteville Municipal Airport,35.059700012200004,-86.5640029907,US,US-TN
KFYV,"Fayetteville/Drake Fld, AR, US",2025-09-12T04:53:00Z,2025-09-11 23:53:00,VFR,18.3,15.6,0,0,0,NA,1021.1,METAR KFYV 120453Z AUTO 00000KT 10SM CLR 18/16 A3015 RMK AO2 SLP195 T01830156,2025-09-12T05:00:37Z,2025-09-12T01:00:37Z,Drake Field,36.00510025024414,-94.17009735107422,US,US-AR
KFZG,"Fitzgerald Muni, GA, US",2025-09-12T04:55:00Z,2025-09-12 04:55:00,VFR,17.9,16.3,0,0,0,NA,1019.4,METAR KFZG 120455Z AUTO 00000KT 10SM CLR 18/16 A3010 RMK AO2 T01790163,2025-09-12T05:00:37Z,2025-09-12T01:00:37Z,Fitzgerald Municipal Airport,31.68370056152344,-83.27050018310547,US,US-GA
KFZY,"Fulton/Oswego Cnty, NY, US",2025-09-12T04:54:00Z,2025-09-12 04:54:00,VFR,15,14.4,0,0,0,NA,1022.8,METAR KFZY 120454Z AUTO 00000KT 10SM SCT080 15/14 A3020 RMK AO2 SLP226 T01500144 402390083,2025-09-12T05:00:37Z,2025-09-12T01:00:37Z,Oswego County Airport,43.3508,-76.3881,US,US-NY
KGAD,"Gadsden/NE Alabama Rgnl, AL, US",2025-09-12T04:56:00Z,2025-09-11 23:56:00,NA,18.9,18.3,0,0,0,NA,1020.4,METAR KGAD 120456Z AUTO 00000KT CLR 19/18 A3013 RMK AO2 SLP203 T01890183 403170133 PWINO $,2025-09-12T05:00:37Z,2025-09-12T01:00:37Z,Northeast Alabama Regional Airport,33.972599,-86.088996,US,US-AL
KGAF,"Grafton/Hutson Fld, ND, US",2025-09-12T04:55:00Z,2025-09-12 04:55:00,VFR,18,17,130,11,0,NA,1015,METAR KGAF 120455Z AUTO 13011KT 10SM CLR 18/17 A2997 RMK AO2,2025-09-12T05:00:37Z,2025-09-12T01:00:37Z,Hutson Field,48.40470123291016,-97.37090301513672,US,US-ND
KGAF,"Grafton/Hutson Fld, ND, US",2025-09-12T05:15:00Z,2025-09-12 05:15:00,VFR,18,17,130,10,0,NA,1015.3,METAR KGAF 120515Z AUTO 13010KT 10SM CLR 18/17 A2998 RMK AO2,2025-09-12T05:17:15Z,2025-09-12T01:17:15Z,Hutson Field,48.40470123291016,-97.37090301513672,US,US-ND
KGAG,"Gage Arpt, OK, US",2025-09-12T04:53:00Z,2025-09-11 23:53:00,VFR,24.4,12.2,180,15,0,NA,1018.4,METAR KGAG 120453Z AUTO 18015KT 10SM CLR 24/12 A3007 RMK AO2 SLP153 T02440122 $,2025-09-12T05:00:37Z,2025-09-12T01:00:37Z,Gage Heibeck Airport,36.295502,-99.776398,US,US-OK
KGAI,"Gaithersburg/Montgomery Cnty, MD, US",2025-09-12T04:56:00Z,2025-09-12 00:56:00,VFR,14.4,NA,0,0,0,9,1021.8,METAR KGAI 120456Z AUTO 00000KT 9SM CLR 14/ A3017 RMK AO2 SLP228 T0144 PNO $,2025-09-12T05:00:37Z,2025-09-12T01:00:37Z,Montgomery County Airpark,39.168301,-77.166,US,US-MD
KGAO,"Galliano/Miller Arpt, LA, US",2025-09-12T04:35:00Z,2025-09-12 04:35:00,VFR,20.2,18.5,0,0,0,NA,1019,METAR KGAO 120435Z AUTO 00000KT 10SM CLR 20/19 A3009 RMK AO2 T02020185,2025-09-12T05:00:37Z,2025-09-12T01:00:37Z,South Lafourche Leonard Miller Jr Airport,29.441052,-90.261129,US,US-LA
KGAO,"Galliano/Miller Arpt, LA, US",2025-09-12T04:55:00Z,2025-09-12 04:55:00,VFR,21,18.7,0,0,0,NA,1019,METAR KGAO 120455Z AUTO 00000KT 10SM CLR 21/19 A3009 RMK AO2 T02100187,2025-09-12T05:17:16Z,2025-09-12T01:17:16Z,South Lafourche Leonard Miller Jr Airport,29.441052,-90.261129,US,US-LA
KGBD,"Great Bend Muni, KS, US",2025-09-12T04:56:00Z,2025-09-11 23:56:00,VFR,23.9,15.6,170,11,0,NA,1016.7,METAR KGBD 120456Z AUTO 17011KT 10SM CLR 24/16 A3002 RMK AO2 SLP147 T02390156 403500178 $,2025-09-12T05:00:37Z,2025-09-12T01:00:37Z,Great Bend Municipal Airport,38.344299,-98.8592,US,US-KS
KGBG,"Galesburg Muni, IL, US",2025-09-12T04:55:00Z,2025-09-11 23:55:00,VFR,19.1,13,90,5,0,NA,1022.1,METAR KGBG 120455Z AUTO 09005KT 10SM CLR 19/13 A3018 RMK AO2 T01910130,2025-09-12T05:00:37Z,2025-09-12T01:00:37Z,Galesburg Municipal Airport,40.9379997253,-90.431098938,US,US-IL
KGCC,"Gillette/Campbell Cnty, WY, US",2025-09-12T04:53:00Z,2025-09-11 22:53:00,VFR,13.9,12.2,0,0,0,NA,1016.3,METAR KGCC 120453Z AUTO 00000KT 10SM CLR 14/12 A3001 RMK AO2 SLP118 T01390122,2025-09-12T05:00:37Z,2025-09-12T01:00:37Z,Northeast Wyoming Regional Airport,44.3489,-105.539001,US,US-WY
KGCD,"John Day/Grant Cnty, OR, US",2025-09-12T04:35:00Z,2025-09-11 21:35:00,VFR,14.5,11.1,0,0,0,NA,1017.7,METAR KGCD 120435Z AUTO 00000KT 10SM CLR 15/11 A3005 RMK AO2 T01450111,2025-09-12T05:00:37Z,2025-09-12T01:00:37Z,Grant County Regional Airport / Ogilvie Field,44.404202,-118.962997,US,US-OR
KGCD,"John Day/Grant Cnty, OR, US",2025-09-12T04:55:00Z,2025-09-11 21:55:00,VFR,14.5,10.8,0,0,0,NA,1017.7,METAR KGCD 120455Z AUTO 00000KT 10SM CLR 15/11 A3005 RMK AO2 T01450108,2025-09-12T05:17:16Z,2025-09-12T01:17:16Z,Grant County Regional Airport / Ogilvie Field,44.404202,-118.962997,US,US-OR
KGCK,"Garden City Rgnl, KS, US",2025-09-12T04:54:00Z,2025-09-11 23:54:00,VFR,19.4,15,210,7,0,NA,1017.4,METAR KGCK 120454Z AUTO 21007KT 10SM CLR 19/15 A3004 RMK AO2 SLP139 T01940150,2025-09-12T05:00:37Z,2025-09-12T01:00:37Z,Garden City Regional Airport,37.9275016785,-100.723999023,US,US-KS
KGCM,"Claremore Rgnl, OK, US",2025-09-12T04:55:00Z,2025-09-12 04:55:00,VFR,22,20,150,4,0,NA,1019,METAR KGCM 120455Z AUTO 15004KT 10SM CLR 22/20 A3009 RMK AO2,2025-09-12T05:00:37Z,2025-09-12T01:00:37Z,Claremore Regional Airport,36.292702,-95.479599,US,US-OK
KGCN,"Grand Canyon Park Arpt, AZ, US",2025-09-12T04:54:00Z,2025-09-11 21:54:00,VFR,15.6,8.3,220,4,0,NA,1022.1,METAR KGCN 120454Z AUTO 22004KT 10SM FEW050 SCT060 16/08 A3018 RMK AO2 SLP125 T01560083,2025-09-12T05:00:37Z,2025-09-12T01:00:37Z,Grand Canyon National Park Airport,35.9524,-112.147003,US,US-AZ
KGCY,"Greeneville/Greene Cnty, TN, US",2025-09-12T04:35:00Z,2025-09-12 00:35:00,VFR,18,15,110,5,0,NA,1021.8,METAR KGCY 120435Z AUTO 11005KT 10SM CLR 18/15 A3017 RMK A01,2025-09-12T05:00:37Z,2025-09-12T01:00:37Z,Greeneville Municipal Airport,36.195648,-82.811482,US,US-TN
KGCY,"Greeneville/Greene Cnty, TN, US",2025-09-12T04:55:00Z,2025-09-12 00:55:00,VFR,18,15,110,5,0,NA,1022.1,METAR KGCY 120455Z AUTO 11005KT 10SM CLR 18/15 A3018 RMK A01,2025-09-12T05:17:15Z,2025-09-12T01:17:15Z,Greeneville Municipal Airport,36.195648,-82.811482,US,US-TN
KGDB,"Granite Falls Muni, MN, US",2025-09-12T04:55:00Z,2025-09-12 04:55:00,VFR,20.1,16.2,120,9,0,NA,1018,METAR KGDB 120455Z AUTO 12009KT 10SM CLR 20/16 A3006 RMK AO2 T02010162,2025-09-12T05:00:37Z,2025-09-12T01:00:37Z,Granite Falls Municipal Airport / Lenzen-Roe Memorial Field,44.7533,-95.556,US,US-MN
KGDJ,"Granbury Muni, TX, US",2025-09-12T04:55:00Z,2025-09-12 04:55:00,NA,23.9,17.2,0,0,0,NA,1019.7,METAR KGDJ 120455Z AUTO 00000KT CLR 24/17 A3011 RMK AO2 T02390172 PWINO,2025-09-12T05:00:37Z,2025-09-12T01:00:37Z,Granbury Regional Airport,32.442222,-97.824444,US,US-TX
KGDV,"Glendive/Dawson Arpt, MT, US",2025-09-12T04:56:00Z,2025-09-11 22:56:00,VFR,21.1,13.3,330,9,0,NA,1013,METAR KGDV 120456Z AUTO 33009KT 10SM CLR 21/13 A2991 RMK AO2 SLP110 T02110133 TSNO $,2025-09-12T05:00:37Z,2025-09-12T01:00:37Z,Dawson Community Airport,47.137658,-104.80691,US,US-MT
KGED,"Georgetown/Sussex Cnty, DE, US",2025-09-12T04:54:00Z,2025-09-12 00:54:00,VFR,16.1,15.6,0,0,0,NA,1020.4,METAR KGED 120454Z AUTO 00000KT 10SM CLR 16/16 A3013 RMK AO2 SLP202 T01610156 402560156,2025-09-12T05:00:37Z,2025-09-12T01:00:37Z,Delaware Coastal Airport,38.689201,-75.358902,US,US-DE
KGEG,"Spokane Intl, WA, US",2025-09-12T04:53:00Z,2025-09-11 21:53:00,VFR,20.6,10,250,11,0,NA,1013.6,METAR KGEG 120453Z 25011KT 10SM FEW150 SCT220 21/10 A2993 RMK AO2 SLP122 T02060100 $,2025-09-12T05:00:37Z,2025-09-12T01:00:37Z,Spokane International Airport,47.6199,-117.533997,US,US-WA
KGEV,"Jefferson/Ashe Cnty, NC, US",2025-09-12T04:50:00Z,2025-09-12 04:50:00,VFR,14.3,9,0,0,0,NA,1024.8,METAR KGEV 120450Z AUTO 00000KT 10SM CLR 14/09 A3026 RMK AO2 T01430090,2025-09-12T05:00:37Z,2025-09-12T01:00:37Z,Ashe County Airport,36.432418,-81.418519,US,US-NC
KGEV,"Jefferson/Ashe Cnty, NC, US",2025-09-12T05:10:00Z,2025-09-12 05:10:00,VFR,12.9,9.3,0,0,0,NA,1024.8,METAR KGEV 120510Z AUTO 00000KT 10SM CLR 13/09 A3026 RMK AO2 T01290093,2025-09-12T05:17:15Z,2025-09-12T01:17:15Z,Ashe County Airport,36.432418,-81.418519,US,US-NC
KGEY,"Greybull/South Big Horn Arpt, WY, US",2025-09-12T04:53:00Z,2025-09-11 22:53:00,VFR,19.4,5,300,6,0,NA,1015.3,METAR KGEY 120453Z AUTO 30006KT 10SM CLR 19/05 A2998 RMK AO2 SLP117 T01940050,2025-09-12T05:00:37Z,2025-09-12T01:00:37Z,South Big Horn County Airport,44.51679993,-108.0830002,US,US-WY
KGEZ,"Shelbyville Muni, IN, US",2025-09-12T04:53:00Z,2025-09-12 04:53:00,VFR,15.6,11.1,60,6,0,NA,1021.8,METAR KGEZ 120453Z AUTO 06006KT 10SM CLR 16/11 A3017 RMK AO2 SLP211 T01560111 402830122,2025-09-12T05:00:37Z,2025-09-12T01:00:37Z,Shelbyville Municipal Airport,39.586044,-85.804024,US,US-IN
KGFK,"Grand Forks Intl, ND, US",2025-09-12T04:53:00Z,2025-09-11 23:53:00,VFR,19.4,16.1,150,12,0,NA,1014.3,METAR KGFK 120453Z AUTO 15012KT 10SM CLR 19/16 A2995 RMK AO2 SLP141 T01940161,2025-09-12T05:00:37Z,2025-09-12T01:00:37Z,Grand Forks International Airport,47.949299,-97.176102,US,US-ND
KGFL,"Glens Falls/Warren Cnty, NY, US",2025-09-12T04:53:00Z,2025-09-12 00:53:00,MVFR,11.7,11.1,0,0,0,4,1022.1,METAR KGFL 120453Z AUTO 00000KT 4SM BR CLR 12/11 A3018 RMK AO2 SLP221 T01170111 402500044,2025-09-12T05:00:37Z,2025-09-12T01:00:37Z,Floyd Bennett Memorial Airport,43.3412017822,-73.6102981567,US,US-NY
KGGE,"Georgetown Cnty, SC, US",2025-09-12T04:55:00Z,2025-09-12 00:55:00,VFR,20,19,350,5,0,NA,1019,METAR KGGE 120455Z AUTO 35005KT 10SM CLR 20/19 A3009 RMK AO2,2025-09-12T05:00:37Z,2025-09-12T01:00:37Z,Georgetown County Airport,33.3116989136,-79.3196029663,US,US-SC
KGGF,"Grant Muni, NE, US",2025-09-12T04:55:00Z,2025-09-12 04:55:00,VFR,19,19,270,7,0,NA,1014.6,METAR KGGF 120455Z AUTO 27007KT 10SM CLR 19/19 A2996 RMK AO2,2025-09-12T05:00:37Z,2025-09-12T01:00:37Z,Grant Municipal Airport,40.869499,-101.733002,US,US-NE
KGGG,"Longview/Gregg Cnty, TX, US",2025-09-12T04:53:00Z,2025-09-11 23:53:00,VFR,23.3,21.7,160,4,0,NA,1019,METAR KGGG 120453Z AUTO 16004KT 10SM CLR 23/22 A3009 RMK AO2 SLP181 T02330217 PWINO,2025-09-12T05:00:37Z,2025-09-12T01:00:37Z,East Texas Regional Airport,32.38399887084961,-94.71150207519533,US,US-TX
KGGI,"Grinnell Rgnl, IA, US",2025-09-12T04:55:00Z,2025-09-12 04:55:00,VFR,18.5,14,0,0,0,NA,1021.1,METAR KGGI 120455Z AUTO 00000KT 10SM CLR 19/14 A3015 RMK AO2 T01850140,2025-09-12T05:00:37Z,2025-09-12T01:00:37Z,Grinnell Regional Airport,41.70991,-92.736052,US,US-IA
KGGP,"Logansport/Cass Cnty, IN, US",2025-09-12T04:36:00Z,2025-09-12 04:36:00,VFR,15,12,0,0,0,NA,1023.1,METAR KGGP 120436Z AUTO 00000KT 10SM CLR 15/12 A3021 RMK AO2,2025-09-12T05:00:37Z,2025-09-12T01:00:37Z,Logansport Cass County Airport,40.711201,-86.374901,US,US-IN
KGGP,"Logansport/Cass Cnty, IN, US",2025-09-12T04:56:00Z,2025-09-12 04:56:00,VFR,15,11,0,0,0,NA,1023.1,METAR KGGP 120456Z AUTO 00000KT 10SM CLR 15/11 A3021 RMK AO2,2025-09-12T05:17:15Z,2025-09-12T01:17:15Z,Logansport Cass County Airport,40.711201,-86.374901,US,US-IN
KGGW,"Glasgow Intl Arpt, MT, US",2025-09-12T04:53:00Z,2025-09-11 22:53:00,VFR,17.8,12.2,350,7,0,NA,1013,METAR KGGW 120453Z AUTO 35007KT 10SM CLR 18/12 A2991 RMK AO2 SLP118 T01780122 TSNO $,2025-09-12T05:00:37Z,2025-09-12T01:00:37Z,Glasgow Valley County Airport Wokal Field,48.212502,-106.614998,US,US-MT
KGHG,"Marshfield Muni, MA, US",2025-09-12T04:55:00Z,2025-09-12 04:55:00,VFR,16,13,0,0,0,NA,1019.7,METAR KGHG 120455Z AUTO 00000KT 10SM BKN065 OVC075 16/13 A3011 RMK AO2,2025-09-12T05:00:37Z,2025-09-12T01:00:37Z,Marshfield Municipal George Harlow Field,42.097665,-70.67283,US,US-MA
KGHG,"Marshfield Muni, MA, US",2025-09-12T05:15:00Z,2025-09-12 05:15:00,VFR,17,13,350,4,0,NA,1019.7,METAR KGHG 120515Z AUTO 35004KT 10SM BKN065 17/13 A3011 RMK AO2,2025-09-12T05:17:15Z,2025-09-12T01:17:15Z,Marshfield Municipal George Harlow Field,42.097665,-70.67283,US,US-MA
KGHW,"Glenwood Muni, MN, US",2025-09-12T04:55:00Z,2025-09-12 04:55:00,VFR,17,16,120,7,0,NA,1019,METAR KGHW 120455Z AUTO 12007KT 10SM CLR 17/16 A3009 RMK AO2,2025-09-12T05:00:37Z,2025-09-12T01:00:37Z,Glenwood Municipal Airport,45.64390182495117,-95.32039642333984,US,US-MN
KGHW,"Glenwood Muni, MN, US",2025-09-12T05:15:00Z,2025-09-12 05:15:00,VFR,17,16,110,6,0,NA,1018.7,METAR KGHW 120515Z AUTO 11006KT 10SM CLR 17/16 A3008 RMK AO2 LTG DSNT NW,2025-09-12T05:17:15Z,2025-09-12T01:17:15Z,Glenwood Municipal Airport,45.64390182495117,-95.32039642333984,US,US-MN
KGIC,"Grangeville/Idaho Cnty, ID, US",2025-09-12T04:35:00Z,2025-09-11 21:35:00,MVFR,13,12,80,11,0,4,1019.4,METAR KGIC 120435Z AUTO 08011KT 4SM SCT018 BKN045 OVC050 13/12 A3010 RMK AO1 P0036,2025-09-12T05:00:37Z,2025-09-12T01:00:37Z,Idaho County Airport,45.9426,-116.123001,US,US-ID
KGIC,"Grangeville/Idaho Cnty, ID, US",2025-09-12T04:55:00Z,2025-09-11 21:55:00,VFR,13,13,140,9,0,7,1019.4,METAR KGIC 120455Z AUTO 14009KT 7SM SCT021 BKN060 OVC075 13/13 A3010 RMK AO1 P0041,2025-09-12T05:17:15Z,2025-09-12T01:17:15Z,Idaho County Airport,45.9426,-116.123001,US,US-ID
KGIF,"Winter Haven Rgnl, FL, US",2025-09-12T04:53:00Z,2025-09-12 00:53:00,VFR,24.4,21.7,10,6,0,NA,1017,METAR KGIF 120453Z AUTO 01006KT 10SM BKN100 24/22 A3003 RMK AO1 SLP167 T02440217 403330233 $,2025-09-12T05:00:37Z,2025-09-12T01:00:37Z,Winter Haven Regional Airport - Gilbert Field,28.062901,-81.753304,US,US-FL
KGJT,"Grand Junction Rgnl, CO, US",2025-09-12T04:53:00Z,2025-09-11 22:53:00,VFR,21.7,10,130,12,0,NA,1018.4,METAR KGJT 120453Z AUTO 13012KT 10SM SCT110 22/10 A3007 RMK AO2 LTG DSNT NW SLP109 P0002 T02170100 $,2025-09-12T05:00:37Z,2025-09-12T01:00:37Z,Grand Junction Regional Airport,39.126663,-108.529387,US,US-CO
KGKJ,"Meadville Arpt, PA, US",2025-09-12T04:53:00Z,2025-09-12 00:53:00,VFR,13.9,10.6,50,3,0,NA,1023.8,METAR KGKJ 120453Z AUTO 05003KT 10SM CLR 14/11 A3023 RMK AO2 SLP231 T01390106 402500089,2025-09-12T05:00:37Z,2025-09-12T01:00:37Z,Port Meadville Airport,41.626499,-80.214699,US,US-PA
KGKT,"Gatlinburg-Pigeon Forge Arpt, TN, US",2025-09-12T04:36:00Z,2025-09-12 00:36:00,VFR,18,18,0,0,0,8,1021.4,METAR KGKT 120436Z AUTO 00000KT 8SM BKN050 18/18 A3016 RMK A01,2025-09-12T05:00:37Z,2025-09-12T01:00:37Z,Gatlinburg-Pigeon Forge Airport,35.85779953,-83.52870178219999,US,US-TN
KGKT,"Gatlinburg-Pigeon Forge Arpt, TN, US",2025-09-12T04:56:00Z,2025-09-12 00:56:00,VFR,18,17,0,0,0,9,1021.4,METAR KGKT 120456Z AUTO 00000KT 9SM SCT050 SCT055 18/17 A3016 RMK A01,2025-09-12T05:17:15Z,2025-09-12T01:17:15Z,Gatlinburg-Pigeon Forge Airport,35.85779953,-83.52870178219999,US,US-TN
KGKY,"Arlington Muni, TX, US",2025-09-12T04:53:00Z,2025-09-12 04:53:00,VFR,23.9,19.4,170,3,0,NA,1019,METAR KGKY 120453Z AUTO 17003KT 10SM CLR 24/19 A3009 RMK AO2 SLP179 T02390194,2025-09-12T05:00:37Z,2025-09-12T01:00:37Z,Arlington Municipal Airport,32.66389846801758,-97.09429931640624,US,US-TX
KGLD,"Goodland/Renner Fld, KS, US",2025-09-12T04:53:00Z,2025-09-11 22:53:00,VFR,23.9,11.7,240,13,0,NA,1017.4,METAR KGLD 120453Z AUTO 24013KT 10SM CLR 24/12 A3004 RMK AO2 SLP120 T02390117,2025-09-12T05:00:37Z,2025-09-12T01:00:37Z,Goodland Municipal Airport,39.370701,-101.699753,US,US-KS
KGLH,"Greenville/Mid Delta Arpt, MS, US",2025-09-12T04:53:00Z,2025-09-11 23:53:00,VFR,23.3,20,0,0,0,NA,1019,METAR KGLH 120453Z AUTO 00000KT 10SM CLR 23/20 A3009 RMK AO2 SLP192 T02330200,2025-09-12T05:00:37Z,2025-09-12T01:00:37Z,Mid Delta Regional Airport,33.482899,-90.985603,US,US-MS
KGLR,"Gaylord Rgnl, MI, US",2025-09-12T04:53:00Z,2025-09-12 00:53:00,VFR,13.3,12.2,0,0,0,NA,1025.1,METAR KGLR 120453Z AUTO 00000KT 10SM CLR 13/12 A3027 RMK AO2 SLP249 T01330122 402110072,2025-09-12T05:00:37Z,2025-09-12T01:00:37Z,Gaylord Regional Airport,45.0135002136,-84.7035980225,US,US-MI
KGLW,"Glasgow Muni, KY, US",2025-09-12T04:55:00Z,2025-09-11 23:55:00,VFR,16.5,16.5,0,0,0,NA,1021.4,METAR KGLW 120455Z AUTO 00000KT 10SM CLR 17/17 A3016 RMK AO2 T01650165,2025-09-12T05:00:37Z,2025-09-12T01:00:37Z,Glasgow Municipal Airport,37.03179932,-85.9536972,US,US-KY
KGLY,"Clinton Mem, MO, US",2025-09-12T04:55:00Z,2025-09-12 04:55:00,VFR,21,17,0,0,0,9,1019,METAR KGLY 120455Z AUTO 00000KT 9SM FEW100 21/17 A3009 RMK AO2,2025-09-12T05:00:37Z,2025-09-12T01:00:37Z,Clinton Memorial Airport,38.35660171508789,-93.68419647216795,US,US-MO
KGMJ,"Grove Muni, OK, US",2025-09-12T04:55:00Z,2025-09-12 04:55:00,VFR,19,19,0,0,0,NA,1019,METAR KGMJ 120455Z AUTO 00000KT 10SM CLR 19/19 A3009 RMK AO2 TSNO,2025-09-12T05:00:37Z,2025-09-12T01:00:37Z,Grove Municipal Airport,36.6068,-94.738602,US,US-OK
KGMU,"Greenville/Downtown Arpt, SC, US",2025-09-12T04:53:00Z,2025-09-12 00:53:00,VFR,21.1,13.9,360,5,0,NA,1021.4,METAR KGMU 120453Z AUTO 36005KT 10SM BKN055 BKN075 21/14 A3016 RMK AO2 SLP202 T02110139 402940133,2025-09-12T05:00:37Z,2025-09-12T01:00:37Z,Greenville Downtown Airport,34.847903,-82.350217,US,US-SC
KGNB,"Granby/Grand Cnty, CO, US",2025-09-12T04:35:00Z,2025-09-12 04:35:00,VFR,10.3,6.5,0,0,0,NA,1030.9,METAR KGNB 120435Z AUTO 00000KT 10SM SCT085 BKN110 10/07 A3044 RMK AO2 T01030065,2025-09-12T05:00:37Z,2025-09-12T01:00:37Z,Granby Grand County Airport,40.089698791503906,-105.91699981689452,US,US-CO
KGNB,"Granby/Grand Cnty, CO, US",2025-09-12T04:55:00Z,2025-09-12 04:55:00,VFR,10.2,6.8,0,0,0,NA,1030.9,METAR KGNB 120455Z AUTO 00000KT 10SM SCT090 SCT120 10/07 A3044 RMK AO2 T01020068,2025-09-12T05:17:15Z,2025-09-12T01:17:15Z,Granby Grand County Airport,40.089698791503906,-105.91699981689452,US,US-CO
KGNC,"Seminole/Gaines Cnty, TX, US",2025-09-12T04:35:00Z,2025-09-12 04:35:00,VFR,23.2,11.2,160,6,0,NA,1023.5,METAR KGNC 120435Z AUTO 16006KT 10SM CLR 23/11 A3022 RMK AO2 T02320112,2025-09-12T05:00:37Z,2025-09-12T01:00:37Z,Gaines County Airport,32.676807,-102.649927,US,US-TX
KGNC,"Seminole/Gaines Cnty, TX, US",2025-09-12T04:55:00Z,2025-09-12 04:55:00,VFR,22.6,11.5,150,6,0,NA,1023.5,METAR KGNC 120455Z AUTO 15006KT 10SM CLR 23/12 A3022 RMK AO2 T02260115,2025-09-12T05:17:16Z,2025-09-12T01:17:16Z,Gaines County Airport,32.676807,-102.649927,US,US-TX
KGNG,"Gooding Muni, ID, US",2025-09-12T04:30:00Z,2025-09-11 22:30:00,VFR,16,8,170,7,0,NA,1018,METAR KGNG 120430Z AUTO 17007KT 10SM FEW120 16/08 A3006 RMK AO2,2025-09-12T05:00:37Z,2025-09-12T01:00:37Z,Gooding Municipal Airport,42.91719818,-114.7649994,US,US-ID
KGNG,"Gooding Muni, ID, US",2025-09-12T04:50:00Z,2025-09-11 22:50:00,VFR,15,8,210,7,0,NA,1018,METAR KGNG 120450Z AUTO 21007KT 10SM CLR 15/08 A3006 RMK AO2,2025-09-12T05:17:16Z,2025-09-12T01:17:16Z,Gooding Municipal Airport,42.91719818,-114.7649994,US,US-ID
KGNT,"Grants-Milan Muni, NM, US",2025-09-12T04:55:00Z,2025-09-11 22:55:00,VFR,15.8,9.3,330,4,0,NA,1025.5,METAR KGNT 120455Z AUTO 33004KT 10SM CLR 16/09 A3028 RMK AO2 LTG DSNT N T01580093,2025-09-12T05:00:37Z,2025-09-12T01:00:37Z,Grants-Milan Municipal Airport,35.167301178,-107.902000427,US,US-NM
KGNT,"Grants-Milan Muni, NM, US",2025-09-12T05:15:00Z,2025-09-11 23:15:00,VFR,15.1,9.8,310,5,0,NA,1025.8,METAR KGNT 120515Z AUTO 31005KT 10SM CLR 15/10 A3029 RMK AO2 T01510098,2025-09-12T05:17:15Z,2025-09-12T01:17:15Z,Grants-Milan Municipal Airport,35.167301178,-107.902000427,US,US-NM
KGNV,"Gainesville Rgnl, FL, US",2025-09-12T04:53:00Z,2025-09-12 00:53:00,VFR,19.4,17.8,0,0,0,NA,1018.4,METAR KGNV 120453Z AUTO 00000KT 10SM CLR 19/18 A3007 RMK AO2 SLP180 T01940178 403060194,2025-09-12T05:00:37Z,2025-09-12T01:00:37Z,Gainesville Regional Airport,29.6900997162,-82.2717971802,US,US-FL
KGOK,"Guthrie-Edmond Rgnl, OK, US",2025-09-12T04:53:00Z,2025-09-11 23:53:00,VFR,25,15.6,140,10,0,NA,1018,METAR KGOK 120453Z AUTO 14010KT 10SM CLR 25/16 A3006 RMK AO2 SLP168 T02500156 $,2025-09-12T05:00:37Z,2025-09-12T01:00:37Z,Guthrie-Edmond Regional Airport,35.84980011,-97.41560364,US,US-OK
KGON,"Groton-New London Arpt, CT, US",2025-09-12T04:56:00Z,2025-09-12 00:56:00,VFR,13.3,13.3,0,0,0,NA,1020.1,METAR KGON 120456Z 00000KT 10SM CLR 13/13 A3012 RMK AO2 SLP200 T01330133 402440089 $,2025-09-12T05:00:37Z,2025-09-12T01:00:37Z,Groton New London Airport,41.330101,-72.045097,US,US-CT
KGOO,"Grass Valley/Nevada Cnty, CA, US",2025-09-12T04:35:00Z,2025-09-12 04:35:00,VFR,16,11,0,0,0,NA,1017,METAR KGOO 120435Z AUTO 00000KT 10SM CLR 16/11 A3003 RMK A01,2025-09-12T05:00:37Z,2025-09-12T01:00:37Z,Nevada County Airport,39.223998,-121.002997,US,US-CA
KGOO,"Grass Valley/Nevada Cnty, CA, US",2025-09-12T04:55:00Z,2025-09-12 04:55:00,VFR,16,11,0,0,0,NA,1017,METAR KGOO 120455Z AUTO 00000KT 10SM FEW055 FEW065 16/11 A3003 RMK A01,2025-09-12T05:17:15Z,2025-09-12T01:17:15Z,Nevada County Airport,39.223998,-121.002997,US,US-CA
KGOP,"Gatesville Muni, TX, US",2025-09-12T04:55:00Z,2025-09-12 04:55:00,VFR,24,21,0,0,0,NA,1019.7,METAR KGOP 120455Z AUTO 00000KT 10SM CLR 24/21 A3011 RMK AO2,2025-09-12T05:00:37Z,2025-09-12T01:00:37Z,Gatesville Municipal Airport,31.421301,-97.796996,US,US-TX
KGPH,"Mosby/Midwest Air Center, MO, US",2025-09-12T04:55:00Z,2025-09-12 04:55:00,VFR,21,18,0,0,0,NA,1019,METAR KGPH 120455Z AUTO 00000KT 10SM SCT110 21/18 A3009 RMK AO2,2025-09-12T05:00:37Z,2025-09-12T01:00:37Z,Midwest National Air Center Airport,39.3325,-94.309601,US,US-MO
KGPH,"Mosby/Midwest Air Center, MO, US",2025-09-12T05:15:00Z,2025-09-12 05:15:00,VFR,20,18,0,0,0,NA,1019.4,METAR KGPH 120515Z AUTO 00000KT 10SM BKN120 20/18 A3010 RMK AO2,2025-09-12T05:17:15Z,2025-09-12T01:17:15Z,Midwest National Air Center Airport,39.3325,-94.309601,US,US-MO
KGPI,"Kalispell/Glacier Park Intl, MT, US",2025-09-12T04:55:00Z,2025-09-11 22:55:00,VFR,16.7,8.9,200,3,0,NA,1014.6,METAR KGPI 120455Z 20003KT 10SM CLR 17/09 A2996 RMK AO2 SLP131 T01670089,2025-09-12T05:00:37Z,2025-09-12T01:00:37Z,Glacier Park International Airport,48.31050109863281,-114.25599670410156,US,US-MT
KGPM,"Grand Prairie Muni, TX, US",2025-09-12T04:55:00Z,2025-09-12 04:55:00,VFR,27,19,170,3,0,NA,1019.4,METAR KGPM 120455Z AUTO 17003KT 10SM CLR 27/19 A3010 RMK AO2 T02700190,2025-09-12T05:00:37Z,2025-09-12T01:00:37Z,Grand Prairie Municipal Airport,32.698799,-97.046898,US,US-TX
KGPT,"Gulfport-Biloxi Intl, MS, US",2025-09-12T04:53:00Z,2025-09-11 23:53:00,VFR,22.2,20,0,0,0,NA,1018.4,METAR KGPT 120453Z 00000KT 10SM CLR 22/20 A3007 RMK AO2 SLP182 T02220200,2025-09-12T05:00:37Z,2025-09-12T01:00:37Z,Gulfport Biloxi International Airport,30.407301,-89.070099,US,US-MS
KGPZ,"Grand Rapids/Itasca Cnty, MN, US",2025-09-12T04:56:00Z,2025-09-11 23:56:00,LIFR,13.9,13.3,150,7,0,9,1021.8,METAR KGPZ 120456Z AUTO 15007KT 9SM OVC004 14/13 A3017 RMK AO2 SLP220 T01390133 401940100,2025-09-12T05:00:37Z,2025-09-12T01:00:37Z,Grand Rapids Itasca Co-Gordon Newstrom field,47.21110153,-93.50980377,US,US-MN
KGRB,"Green Bay/Straubel Intl, WI, US",2025-09-12T04:53:00Z,2025-09-11 23:53:00,VFR,10.6,10.6,0,0,0,8,1023.8,METAR KGRB 120453Z 00000KT 8SM CLR 11/11 A3023 RMK AO2 SLP241 T01060106,2025-09-12T05:00:37Z,2025-09-12T01:00:37Z,Austin Straubel International Airport,44.483459,-88.130805,US,US-WI
KGRD,"Greenwood Cnty, GA, US",2025-09-12T04:56:00Z,2025-09-12 00:56:00,VFR,17.2,15,0,0,0,NA,1020.7,METAR KGRD 120456Z AUTO 00000KT 10SM BKN085 17/15 A3014 RMK AO2 SLP200 T01720150 402940128,2025-09-12T05:00:37Z,2025-09-12T01:00:37Z,Greenwood County Airport,34.248699,-82.159103,US,US-SC
KGRI,"Grand Island Rgnl, NE, US",2025-09-12T04:53:00Z,2025-09-11 23:53:00,VFR,23.3,19.4,160,13,0,NA,1015.3,METAR KGRI 120453Z AUTO 16013KT 10SM CLR 23/19 A2998 RMK AO2 SLP139 T02330194,2025-09-12T05:00:37Z,2025-09-12T01:00:37Z,Central Nebraska Regional Airport,40.967498779296875,-98.309600830078125,US,US-NE
KGRN,"Gordon Muni, NE, US",2025-09-12T04:55:00Z,2025-09-11 22:55:00,VFR,18.2,15.1,0,0,0,NA,1016,METAR KGRN 120455Z AUTO 00000KT 10SM CLR 18/15 A3000 RMK AO2 T01820151,2025-09-12T05:00:37Z,2025-09-12T01:00:37Z,Gordon Municipal Airport,42.8059997559,-102.175003052,US,US-NE
KGRR,"Grand Rapids Intl, MI, US",2025-09-12T04:53:00Z,2025-09-12 00:53:00,VFR,14.4,12.2,0,0,0,NA,1023.5,METAR KGRR 120453Z AUTO 00000KT 10SM CLR 14/12 A3022 RMK AO2 SLP230 T01440122 402670117,2025-09-12T05:00:37Z,2025-09-12T01:00:37Z,Gerald R. Ford International Airport,42.88079834,-85.52279663,US,US-MI
KGSH,"Goshen Muni, IN, US",2025-09-12T04:53:00Z,2025-09-12 00:53:00,NA,12.2,10,0,0,0,NA,1023.1,METAR KGSH 120453Z AUTO 00000KT 10SM 12/10 A3021 RMK AO2 SLP227 T01220100 402780083 $,2025-09-12T05:00:37Z,2025-09-12T01:00:37Z,Goshen Municipal Airport,41.5264015198,-85.79290008539999,US,US-IN
KGSO,"Greensboro Intl, NC, US",2025-09-12T04:54:00Z,2025-09-12 00:54:00,VFR,18.9,16.1,160,3,0,NA,1021.1,METAR KGSO 120454Z 16003KT 10SM BKN060 19/16 A3015 RMK AO2 SLP200 T01890161 402720156,2025-09-12T05:00:37Z,2025-09-12T01:00:37Z,Piedmont Triad International Airport,36.097801,-79.937302,US,US-NC
KGSP,"Greenville-Spartanburg Intl, SC, US",2025-09-12T04:53:00Z,2025-09-12 00:53:00,VFR,17.2,15,10,3,0,NA,1021.1,METAR KGSP 120453Z AUTO 01003KT 10SM CLR 17/15 A3015 RMK AO2 SLP200 T01720150 402830122,2025-09-12T05:00:37Z,2025-09-12T01:00:37Z,Greenville Spartanburg International Airport,34.895699,-82.218903,US,US-SC
KGTF,"Great Falls Intl, MT, US",2025-09-12T04:53:00Z,2025-09-11 22:53:00,VFR,16.7,10.6,210,8,0,NA,1016.3,METAR KGTF 120453Z 21008KT 10SM SCT110 17/11 A3001 RMK AO2 SLP145 T01670106 $,2025-09-12T05:00:37Z,2025-09-12T01:00:37Z,Great Falls International Airport,47.48199844,-111.3710022,US,US-MT
KGTR,"Golden Triangle Arpt, MS, US",2025-09-12T04:56:00Z,2025-09-11 23:56:00,VFR,21.7,20,0,0,0,NA,1019.7,METAR KGTR 120456Z AUTO 00000KT 10SM CLR 22/20 A3011 RMK AO2 SLP194 T02170200,2025-09-12T05:00:37Z,2025-09-12T01:00:37Z,Golden Triangle Regional Airport,33.450298,-88.5914,US,US-MS
KGTU,"Georgetown Muni, TX, US",2025-09-12T04:56:00Z,2025-09-12 04:56:00,VFR,26.7,20,0,0,0,NA,1019.7,METAR KGTU 120456Z AUTO 00000KT 10SM CLR 27/20 A3011 RMK AO2 SLP189 T02670200,2025-09-12T05:00:37Z,2025-09-12T01:00:37Z,Georgetown Executive Airport at Johnny Gantt Field,30.677543,-97.678524,US,US-TX
KGUC,"Gunnison Arpt, CO, US",2025-09-12T04:56:00Z,2025-09-11 22:56:00,VFR,11.7,8.3,350,7,0,NA,1027.9,METAR KGUC 120456Z AUTO 35007KT 10SM CLR 12/08 A3035 RMK AO2 SLP209 T01170083 $,2025-09-12T05:00:37Z,2025-09-12T01:00:37Z,Gunnison Crested Butte Regional Airport,38.534672,-106.934566,US,US-CO
KGUP,"Gallup Muni, NM, US",2025-09-12T04:53:00Z,2025-09-11 22:53:00,VFR,14.4,13.3,80,5,0,NA,1024.5,METAR KGUP 120453Z AUTO 08005KT 10SM FEW070 BKN100 BKN120 14/13 A3025 RMK AO2 RAB17E28 SLP099 P0000 T01440133,2025-09-12T05:00:37Z,2025-09-12T01:00:37Z,Gallup Municipal Airport,35.511653,-108.788166,US,US-NM
KGUY,"Guymon Muni, OK, US",2025-09-12T04:53:00Z,2025-09-11 23:53:00,VFR,21.7,11.1,190,9,0,NA,1018.7,METAR KGUY 120453Z AUTO 19009KT 10SM CLR 22/11 A3008 RMK AO2 SLP137 T02170111,2025-09-12T05:00:37Z,2025-09-12T01:00:37Z,Guymon Municipal Airport,36.6851005554,-101.508003235,US,US-OK
KGVE,"Gordonsville Muni, VA, US",2025-09-12T04:55:00Z,2025-09-12 00:55:00,VFR,15,14.8,0,0,0,NA,NA,METAR KGVE 120455Z AUTO 00000KT 10SM CLR 15/15 RMK AO1 T01500148 402810135,2025-09-12T05:00:37Z,2025-09-12T01:00:37Z,Gordonsville Municipal Airport,38.155998,-78.165802,US,US-VA
KGVE,"Gordonsville Muni, VA, US",2025-09-12T05:15:00Z,2025-09-12 01:15:00,VFR,15,15,220,3,0,NA,NA,METAR KGVE 120515Z AUTO 22003KT 10SM CLR 15/15 RMK AO1 T01500150,2025-09-12T05:17:15Z,2025-09-12T01:17:15Z,Gordonsville Municipal Airport,38.155998,-78.165802,US,US-VA
KGVL,"Gainesville/Gilmer Mem, GA, US",2025-09-12T04:53:00Z,2025-09-12 00:53:00,VFR,20,15.6,0,0,0,NA,1021.8,METAR KGVL 120453Z AUTO 00000KT 10SM CLR 20/16 A3017 RMK AO2 SLP200 T02000156 402940156 $,2025-09-12T05:00:37Z,2025-09-12T01:00:37Z,Lee Gilmer Memorial Airport,34.27259827,-83.8302002,US,US-GA
KGVT,"Greenville/Majors Arpt, TX, US",2025-09-12T04:35:00Z,2025-09-11 23:35:00,VFR,22,21,0,0,0,NA,1019.4,METAR KGVT 120435Z AUTO 00000KT 10SM CLR 22/21 A3010 RMK AO2,2025-09-12T05:00:37Z,2025-09-12T01:00:37Z,Majors Airport,33.0677986145,-96.0652999878,US,US-TX
KGVT,"Greenville/Majors Arpt, TX, US",2025-09-12T04:55:00Z,2025-09-11 23:55:00,VFR,21,NA,0,0,0,NA,1019.4,METAR KGVT 120455Z AUTO 00000KT 10SM CLR 21/ A3010 RMK AO2,2025-09-12T05:17:16Z,2025-09-12T01:17:16Z,Majors Airport,33.0677986145,-96.0652999878,US,US-TX
KGWB,"Auburn/De Kalb Cnty, IN, US",2025-09-12T04:35:00Z,2025-09-12 04:35:00,VFR,13,11,VAR,1,0,NA,1022.8,METAR KGWB 120435Z AUTO VRB01KT 10SM CLR 13/11 A3020 RMK AO2,2025-09-12T05:00:37Z,2025-09-12T01:00:37Z,De Kalb County Airport,41.307201,-85.0644,US,US-IN
KGWB,"Auburn/De Kalb Cnty, IN, US",2025-09-12T04:55:00Z,2025-09-12 04:55:00,VFR,14,12,60,2,0,NA,1023.1,METAR KGWB 120455Z AUTO 06002KT 10SM CLR 14/12 A3021 RMK AO2,2025-09-12T05:17:15Z,2025-09-12T01:17:15Z,De Kalb County Airport,41.307201,-85.0644,US,US-IN
KGWO,"Greenwood/Leflore Arpt, MS, US",2025-09-12T04:53:00Z,2025-09-11 23:53:00,VFR,22.8,21.1,0,0,0,NA,1019,METAR KGWO 120453Z AUTO 00000KT 10SM CLR 23/21 A3009 RMK AO2 SLP189 T02280211,2025-09-12T05:00:40Z,2025-09-12T01:00:40Z,Greenwood–Leflore Airport,33.495025,-90.088204,US,US-MS
KGWR,"Gwinner Muni, ND, US",2025-09-12T04:55:00Z,2025-09-12 04:55:00,VFR,20,20,140,8,13,NA,1015.3,METAR KGWR 120455Z AUTO 14008G13KT 10SM FEW046 20/20 A2998 RMK A01,2025-09-12T05:00:39Z,2025-09-12T01:00:39Z,Gwinner Roger Melroe Field,46.2187,-97.643204,US,US-ND
KGWR,"Gwinner Muni, ND, US",2025-09-12T05:15:00Z,2025-09-12 05:15:00,VFR,20,20,150,10,0,NA,1015.3,METAR KGWR 120515Z AUTO 15010KT 10SM FEW047 20/20 A2998 RMK A01,2025-09-12T05:17:17Z,2025-09-12T01:17:17Z,Gwinner Roger Melroe Field,46.2187,-97.643204,US,US-ND
KGWW,"Goldsboro/Wayne Muni, NC, US",2025-09-12T04:55:00Z,2025-09-12 04:55:00,VFR,18.7,18.7,0,0,0,NA,1020.1,METAR KGWW 120455Z AUTO 00000KT 10SM OVC090 19/19 A3012 RMK AO2 T01870187,2025-09-12T05:00:39Z,2025-09-12T01:00:39Z,Wayne Executive Jetport,35.460602,-77.964897,US,US-NC
KGWW,"Goldsboro/Wayne Muni, NC, US",2025-09-12T05:15:00Z,2025-09-12 05:15:00,VFR,18.5,18.5,0,0,0,NA,1020.1,METAR KGWW 120515Z AUTO 00000KT 10SM BKN090 19/19 A3012 RMK AO2 T01850185,2025-09-12T05:17:17Z,2025-09-12T01:17:17Z,Wayne Executive Jetport,35.460602,-77.964897,US,US-NC
KGXY,"Greeley/Weld Cnty Arpt, CO, US",2025-09-12T04:56:00Z,2025-09-11 22:56:00,VFR,20.6,8.3,330,8,0,NA,1019.7,METAR KGXY 120456Z AUTO 33008KT 10SM CLR 21/08 A3011 RMK AO2 SLP153 T02060083 $,2025-09-12T05:00:39Z,2025-09-12T01:00:39Z,Greeley–Weld County Airport,40.4374008179,-104.633003235,US,US-CO
KGYB,"Giddings/Lee Cnty, TX, US",2025-09-12T04:55:00Z,2025-09-12 04:55:00,VFR,24.2,20.5,0,0,0,NA,1020.4,METAR KGYB 120455Z AUTO 00000KT 10SM CLR 24/21 A3013 RMK AO2 T02420205,2025-09-12T05:00:39Z,2025-09-12T01:00:39Z,Giddings-Lee County Airport,30.1693,-96.980003,US,US-TX
KGYH,"Greenville/Donaldson Fld, SC, US",2025-09-12T04:55:00Z,2025-09-12 00:55:00,VFR,20,15,360,4,0,NA,1021.1,METAR KGYH 120455Z AUTO 36004KT 10SM SCT060 BKN070 20/15 A3015 RMK AO2,2025-09-12T05:00:39Z,2025-09-12T01:00:39Z,Donaldson Field Airport,34.758301,-82.376404,US,US-SC
KGYI,"Dennison/N Texas Rgnl, TX, US",2025-09-12T04:55:00Z,2025-09-11 23:55:00,VFR,25.7,19.2,140,7,0,NA,1019.7,METAR KGYI 120455Z AUTO 14007KT 10SM CLR 26/19 A3011 RMK AO2 T02570192 $,2025-09-12T05:00:39Z,2025-09-12T01:00:39Z,North Texas Regional Airport Perrin Field,33.7141,-96.673698,US,US-TX
KGYL,"Glencoe Muni, MN, US",2025-09-12T04:55:00Z,2025-09-12 04:55:00,VFR,16.5,14.5,120,6,0,NA,1019.4,METAR KGYL 120455Z AUTO 12006KT 10SM CLR 17/15 A3010 RMK AO2 T01650145,2025-09-12T05:00:39Z,2025-09-12T01:00:39Z,Glencoe Municipal Airport,44.756001,-94.0812,US,US-MN
KGYL,"Glencoe Muni, MN, US",2025-09-12T05:15:00Z,2025-09-12 05:15:00,VFR,17,14.7,110,6,0,NA,1019.4,METAR KGYL 120515Z AUTO 11006KT 10SM CLR 17/15 A3010 RMK AO2 T01700147,2025-09-12T05:17:17Z,2025-09-12T01:17:17Z,Glencoe Municipal Airport,44.756001,-94.0812,US,US-MN
KGYR,"Phoenix/Goodyear Muni, AZ, US",2025-09-12T03:47:00Z,2025-09-11 20:47:00,VFR,33,12,220,10,0,NA,1009.2,METAR KGYR 120347Z 22010KT 10SM SCT090 33/12 A2980 RMK LAST,2025-09-12T05:00:40Z,2025-09-12T01:00:40Z,Phoenix Goodyear Airport,33.4225006104,-112.375999451,US,US-AZ
KGYY,"Gary Intl, IN, US",2025-09-12T04:55:00Z,2025-09-11 23:55:00,VFR,19,19,60,5,0,NA,1022.8,METAR KGYY 120455Z AUTO 06005KT 10SM CLR 19/19 A3020 RMK AO2,2025-09-12T05:00:39Z,2025-09-12T01:00:39Z,Gary Chicago International Airport,41.61629867553711,-87.41280364990234,US,US-IN
KGZH,"Evergreen/Middleton Fld, AL, US",2025-09-12T04:53:00Z,2025-09-12 04:53:00,VFR,19.4,17.2,0,0,0,NA,1019,METAR KGZH 120453Z AUTO 00000KT 10SM CLR 19/17 A3009 RMK AO2 SLP187 T01940172,2025-09-12T05:00:40Z,2025-09-12T01:00:40Z,Evergreen Regional Airport/Middleton Field,31.4158,-87.043999,US,US-AL
KGZN,"Cisco/Simmons Mem, TX, US",2025-09-12T04:25:00Z,2025-09-12 04:25:00,VFR,23,15,140,6,0,NA,1020.1,METAR KGZN 120425Z AUTO 14006KT 10SM OVC070 23/15 A3012 RMK AO2,2025-09-12T05:00:40Z,2025-09-12T01:00:40Z,Gregory M. Simmons Memorial Airport,32.367348,-99.023642,US,US-TX
KGZN,"Cisco/Simmons Mem, TX, US",2025-09-12T04:45:00Z,2025-09-12 04:45:00,VFR,23,16,140,6,0,NA,1019.7,METAR KGZN 120445Z AUTO 14006KT 10SM OVC070 23/16 A3011 RMK AO2,2025-09-12T05:17:18Z,2025-09-12T01:17:18Z,Gregory M. Simmons Memorial Airport,32.367348,-99.023642,US,US-TX
KGZS,"Pulaski/Abernathy Fld, TN, US",2025-09-12T04:35:00Z,2025-09-12 04:35:00,LIFR,17,17,0,0,0,0.5,1020.7,METAR KGZS 120435Z AUTO 00000KT 1/2SM FG SCT003 BKN046 BKN055 17/17 A3014 RMK A01,2025-09-12T05:00:40Z,2025-09-12T01:00:40Z,Abernathy Field,35.153702,-87.056801,US,US-TN
KGZS,"Pulaski/Abernathy Fld, TN, US",2025-09-12T04:55:00Z,2025-09-12 04:55:00,LIFR,17,17,0,0,0,7,1020.7,METAR KGZS 120455Z AUTO 00000KT 7SM BKN002 BKN046 BKN055 17/17 A3014 RMK A01,2025-09-12T05:17:18Z,2025-09-12T01:17:18Z,Abernathy Field,35.153702,-87.056801,US,US-TN
KHAE,"Hannibal Rgnl, MO, US",2025-09-12T04:55:00Z,2025-09-12 04:55:00,VFR,22,13,110,3,0,NA,1020.7,METAR KHAE 120455Z AUTO 11003KT 10SM CLR 22/13 A3014 RMK AO2,2025-09-12T05:00:39Z,2025-09-12T01:00:39Z,Hannibal Regional Airport,39.724499,-91.443703,US,US-MO
KHAF,"Half Moon Bay Arpt, CA, US",2025-09-12T04:55:00Z,2025-09-11 21:55:00,MVFR,17,16,320,6,0,8,1016,METAR KHAF 120455Z AUTO 32006KT 8SM OVC010 17/16 A3000 RMK AO2,2025-09-12T05:00:39Z,2025-09-12T01:00:39Z,Half Moon Bay Airport,37.513401031499995,-122.500999451,US,US-CA
KHAF,"Half Moon Bay Arpt, CA, US",2025-09-12T05:15:00Z,2025-09-11 22:15:00,MVFR,17,16,320,6,0,8,1016,METAR KHAF 120515Z AUTO 32006KT 8SM OVC010 17/16 A3000 RMK AO2,2025-09-12T05:17:17Z,2025-09-12T01:17:17Z,Half Moon Bay Airport,37.513401031499995,-122.500999451,US,US-CA
KHAI,"Three Rivers Muni, MI, US",2025-09-12T04:55:00Z,2025-09-12 00:55:00,VFR,13,11,350,1,0,NA,1023.1,METAR KHAI 120455Z AUTO 35001KT 10SM CLR 13/11 A3021 RMK AO2,2025-09-12T05:00:39Z,2025-09-12T01:00:39Z,Three Rivers Municipal Dr Haines Airport,41.959801,-85.593399,US,US-MI
KHAO,"Hamilton/Butler Cnty, OH, US",2025-09-12T04:53:00Z,2025-09-12 00:53:00,VFR,13.9,11.7,VAR,3,0,NA,1022.8,METAR KHAO 120453Z AUTO VRB03KT 10SM CLR 14/12 A3020 RMK AO2 SLP222 T01390117 403000094,2025-09-12T05:00:39Z,2025-09-12T01:00:39Z,Butler Co Regional Airport - Hogan Field,39.363800048799995,-84.5220031738,US,US-OH
KHBG,"Hattiesburg/Chain Muni, MS, US",2025-09-12T04:53:00Z,2025-09-11 23:53:00,VFR,21.7,18.9,0,0,0,NA,1019.4,METAR KHBG 120453Z AUTO 00000KT 10SM CLR 22/19 A3010 RMK AO2 SLP190 T02170189,2025-09-12T05:00:40Z,2025-09-12T01:00:40Z,Hattiesburg Bobby L Chain Municipal Airport,31.26479912,-89.25279999,US,US-MS
KHBR,"Hobart Muni, OK, US",2025-09-12T04:53:00Z,2025-09-11 23:53:00,VFR,26.1,13.9,170,12,0,NA,1019,METAR KHBR 120453Z AUTO 17012KT 10SM CLR 26/14 A3009 RMK AO2 SLP167 T02610139 $,2025-09-12T05:00:40Z,2025-09-12T01:00:40Z,Hobart Regional Airport,34.991317,-99.051313,US,US-OK
KHBV,"Hebbronville/Hogg Cnty, TX, US",2025-09-12T04:55:00Z,2025-09-12 04:55:00,VFR,26,25.5,120,3,0,NA,1017.7,METAR KHBV 120455Z AUTO 12003KT 10SM CLR 26/25 A3005 RMK AO2 T02600255,2025-09-12T05:00:39Z,2025-09-12T01:00:39Z,Jim Hogg County Airport,27.349599838256836,-98.73699951171876,US,US-TX
KHCD,"Hutchinson/Butler Fld, MN, US",2025-09-12T04:55:00Z,2025-09-12 04:55:00,VFR,16.5,14.5,130,6,0,NA,1019.7,METAR KHCD 120455Z AUTO 13006KT 10SM CLR 17/15 A3011 RMK AO2 T01650145,2025-09-12T05:00:39Z,2025-09-12T01:00:39Z,Hutchinson Municipal Butler Field,44.859901,-94.3825,US,US-MN
KHCD,"Hutchinson/Butler Fld, MN, US",2025-09-12T05:15:00Z,2025-09-12 05:15:00,VFR,16.1,14.7,130,5,0,NA,1019.7,METAR KHCD 120515Z AUTO 13005KT 10SM CLR 16/15 A3011 RMK AO2 T01610147,2025-09-12T05:17:17Z,2025-09-12T01:17:17Z,Hutchinson Municipal Butler Field,44.859901,-94.3825,US,US-MN
KHCO,"Hallock Muni, MN, US",2025-09-12T04:55:00Z,2025-09-12 04:55:00,VFR,18,17,140,11,0,NA,1015,METAR KHCO 120455Z AUTO 14011KT 10SM SCT065 OVC080 18/17 A2997 RMK AO2 LTG DSNT N AND NE,2025-09-12T05:00:39Z,2025-09-12T01:00:39Z,Hallock Municipal Airport,48.752701,-96.943001,US,US-MN
KHCO,"Hallock Muni, MN, US",2025-09-12T05:15:00Z,2025-09-12 05:15:00,VFR,19,17,160,13,19,NA,1015,METAR KHCO 120515Z AUTO 16013G19KT 10SM SCT065 BKN080 BKN090 19/17 A2997 RMK AO2 LTG DSNT NE AND W,2025-09-12T05:17:17Z,2025-09-12T01:17:17Z,Hallock Municipal Airport,48.752701,-96.943001,US,US-MN
KHCR,"Heber City Muni, UT, US",2025-09-12T04:55:00Z,2025-09-12 04:55:00,VFR,13.7,2.4,0,0,0,NA,1017.4,METAR KHCR 120455Z AUTO 00000KT 10SM BKN150 14/02 A3004 RMK AO2 T01370024 $,2025-09-12T05:00:39Z,2025-09-12T01:00:39Z,Heber Valley Airport,40.4818,-111.429001,US,US-UT
KHDC,"Hammond/Northshore Rgnl, LA, US",2025-09-12T04:55:00Z,2025-09-12 04:55:00,VFR,21.7,20.3,0,0,0,NA,1019,METAR KHDC 120455Z AUTO 00000KT 10SM CLR 22/20 A3009 RMK AO2 T02170203,2025-09-12T05:00:39Z,2025-09-12T01:00:39Z,Hammond Northshore Regional Airport,30.521601,-90.418404,US,US-LA
KHDE,"Holdrege/Brewster Fld, NE, US",2025-09-12T04:55:00Z,2025-09-11 23:55:00,VFR,23.1,17.3,160,9,0,NA,1015,METAR KHDE 120455Z AUTO 16009KT 10SM CLR 23/17 A2997 RMK AO2 T02310173,2025-09-12T05:00:39Z,2025-09-12T01:00:39Z,Brewster Field,40.452099,-99.336502,US,US-NE
KHDN,"Hayden/Yampa Valley Arpt, CO, US",2025-09-12T04:56:00Z,2025-09-11 22:56:00,VFR,15.6,7.8,80,15,0,NA,1022.8,METAR KHDN 120456Z AUTO 08015KT 10SM SCT110 16/08 A3020 RMK AO2 SLPNO T01560078 $,2025-09-12T05:00:39Z,2025-09-12T01:00:39Z,Yampa Valley Airport,40.481201,-107.218002,US,US-CO
KHDO,"Hondo Muni, TX, US",2025-09-12T04:51:00Z,2025-09-12 04:51:00,VFR,26.7,20,120,6,0,NA,1019.4,METAR KHDO 120451Z AUTO 12006KT 10SM CLR 27/20 A3010 RMK AO2 SLP175 T02670200,2025-09-12T05:00:40Z,2025-09-12T01:00:40Z,South Texas Regional Airport at Hondo,29.35950088501,-99.176696777344,US,US-TX
KHEF,"Manassas Rgnl, VA, US",2025-09-12T04:56:00Z,2025-09-12 00:56:00,VFR,15.6,15.6,170,3,0,NA,1021.4,METAR KHEF 120456Z 17003KT 10SM CLR 16/16 A3016 RMK AO2 SLP218 T01560156,2025-09-12T05:00:39Z,2025-09-12T01:00:39Z,Manassas Regional Airport/Harry P. Davis Field,38.721401,-77.515404,US,US-VA
KHEG,"Jacksonville/Herlong Arpt, FL, US",2025-09-12T04:55:00Z,2025-09-12 04:55:00,VFR,20,20,330,4,0,NA,1018.4,METAR KHEG 120455Z AUTO 33004KT 10SM CLR 20/20 A3007 RMK AO2 TSNO,2025-09-12T05:00:39Z,2025-09-12T01:00:39Z,Herlong Airport,30.2778,-81.805901,US,US-FL
KHEI,"Hettinger Muni, ND, US",2025-09-12T04:53:00Z,2025-09-12 04:53:00,VFR,20.6,17.2,160,4,0,NA,1013,METAR KHEI 120453Z AUTO 16004KT 10SM CLR 21/17 A2991 RMK AO2 LTG DSNT SW SLP113 T02060172,2025-09-12T05:00:39Z,2025-09-12T01:00:39Z,Hettinger Municipal Airport,46.0149,-102.655998,US,US-ND
KHEQ,"Holyoke Arpt, CO, US",2025-09-12T04:55:00Z,2025-09-12 04:55:00,VFR,19,17,240,6,0,NA,1017,METAR KHEQ 120455Z AUTO 24006KT 10SM CLR 19/17 A3003 RMK AO2,2025-09-12T05:00:39Z,2025-09-12T01:00:39Z,Holyoke Airport,40.56940078735352,-102.27300262451172,US,US-CO
KHEZ,"Natchez/Adams Cnty, MS, US",2025-09-12T04:56:00Z,2025-09-11 23:56:00,VFR,22.2,21.1,0,0,0,NA,1019.7,METAR KHEZ 120456Z AUTO 00000KT 10SM CLR 22/21 A3011 RMK AO2 SLP194 T02220211 403220200 $,2025-09-12T05:00:39Z,2025-09-12T01:00:39Z,Natchez–Adams County Airport / Hardy-Anders Field,31.614817,-91.297331,US,US-MS
KHFD,"Hartford/Brainard Arpt, CT, US",2025-09-12T04:53:00Z,2025-09-12 00:53:00,VFR,15.6,13.9,0,0,0,NA,1020.7,METAR KHFD 120453Z AUTO 00000KT 10SM CLR 16/14 A3014 RMK AO2 SLP206 T01560139 402560100,2025-09-12T05:00:40Z,2025-09-12T01:00:40Z,Hartford Brainard Airport,41.736698150635,-72.649398803711,US,US-CT
KHFJ,"Monett Muni, MO, US",2025-09-12T04:55:00Z,2025-09-12 04:55:00,VFR,21,14,0,0,0,NA,1020.7,METAR KHFJ 120455Z AUTO 00000KT 10SM CLR 21/14 A3014 RMK AO2,2025-09-12T05:00:39Z,2025-09-12T01:00:39Z,Monett Regional Airport,36.9062,-94.012802,US,US-MO
KHFY,"Greenwood Muni, IN, US",2025-09-12T04:55:00Z,2025-09-12 04:55:00,VFR,19.1,10.3,70,4,0,NA,1022.4,METAR KHFY 120455Z AUTO 07004KT 10SM CLR 19/10 A3019 RMK AO2 T01910103,2025-09-12T05:00:39Z,2025-09-12T01:00:39Z,Indy South Greenwood Airport,39.628399,-86.087898,US,US-IN
KHFY,"Greenwood Muni, IN, US",2025-09-12T05:15:00Z,2025-09-12 05:15:00,VFR,19,10.3,60,6,0,NA,1022.4,METAR KHFY 120515Z AUTO 06006KT 10SM CLR 19/10 A3019 RMK AO2 T01900103,2025-09-12T05:17:17Z,2025-09-12T01:17:17Z,Indy South Greenwood Airport,39.628399,-86.087898,US,US-IN
KHGR,"Hagerstown Rgnl, MD, US",2025-09-12T04:53:00Z,2025-09-12 00:53:00,VFR,18.9,10,0,0,0,NA,1021.4,METAR KHGR 120453Z AUTO 00000KT 10SM CLR 19/10 A3016 RMK AO2 SLP219 T01890100 402890139,2025-09-12T05:00:40Z,2025-09-12T01:00:40Z,Hagerstown Regional Richard A Henson Field,39.708771,-77.728014,US,US-MD
KHHF,"Canadian/Hemphill Cnty, TX, US",2025-09-12T04:55:00Z,2025-09-12 04:55:00,VFR,25.1,11.3,180,15,18,NA,1019,METAR KHHF 120455Z AUTO 18015G18KT 10SM CLR 25/11 A3009 RMK AO2 T02510113,2025-09-12T05:00:39Z,2025-09-12T01:00:39Z,Hemphill County Airport,35.89530182,-100.4039993,US,US-TX
KHHR,"Hawthorne Muni, CA, US",2025-09-12T04:53:00Z,2025-09-11 21:53:00,VFR,20.6,16.7,240,5,0,NA,1013.3,METAR KHHR 120453Z 24005KT 10SM CLR 21/17 A2992 RMK AO2 SLP131 T02060167,2025-09-12T05:00:39Z,2025-09-12T01:00:39Z,Jack Northrop Field Hawthorne Municipal Airport,33.922798,-118.334999,US,US-CA
KHHW,"Hugo/Stamper Muni, OK, US",2025-09-12T04:35:00Z,2025-09-11 23:35:00,VFR,23,19,180,3,0,NA,1019.4,METAR KHHW 120435Z AUTO 18003KT 10SM CLR 23/19 A3010 RMK AO2,2025-09-12T05:00:40Z,2025-09-12T01:00:40Z,Stan Stamper Municipal Airport,34.03480148,-95.54190063,US,US-OK
KHHW,"Hugo/Stamper Muni, OK, US",2025-09-12T04:55:00Z,2025-09-11 23:55:00,VFR,23,19,180,4,0,NA,1019.4,METAR KHHW 120455Z AUTO 18004KT 10SM CLR 23/19 A3010 RMK AO2,2025-09-12T05:17:18Z,2025-09-12T01:17:18Z,Stan Stamper Municipal Airport,34.03480148,-95.54190063,US,US-OK
KHIB,"Hibbing/Chisholm Arpt, MN, US",2025-09-12T04:53:00Z,2025-09-11 23:53:00,LIFR,12.8,12.2,150,7,0,NA,1021.8,METAR KHIB 120453Z AUTO 15007KT 10SM OVC004 13/12 A3017 RMK AO2 SLP221 T01280122,2025-09-12T05:00:40Z,2025-09-12T01:00:40Z,Range Regional Airport,47.384831,-92.836905,US,US-MN
KHIB,"Hibbing/Chisholm Arpt, MN, US",2025-09-12T05:11:00Z,2025-09-12 00:11:00,LIFR,12.8,12.2,140,6,0,9,1021.8,SPECI KHIB 120511Z AUTO 14006KT 9SM OVC003 13/12 A3017 RMK AO2 T01280122,2025-09-12T05:17:17Z,2025-09-12T01:17:17Z,Range Regional Airport,47.384831,-92.836905,US,US-MN
KHIE,"Mt Washington Rgnl, NH, US",2025-09-12T04:52:00Z,2025-09-12 00:52:00,VFR,4.4,3.3,0,0,0,NA,1023.1,METAR KHIE 120452Z AUTO 00000KT 10SM CLR 04/03 A3021 RMK AO2 SLP233 T00440033 402390011,2025-09-12T05:00:40Z,2025-09-12T01:00:40Z,Mount Washington Regional Airport,44.36752,-71.545765,US,US-NH
KHII,"Lake Havasu City Arpt, AZ, US",2025-09-12T04:55:00Z,2025-09-11 21:55:00,VFR,30,0,140,4,0,NA,1008.2,METAR KHII 120455Z AUTO 14004KT 10SM CLR 30/00 A2977 RMK AO2,2025-09-12T05:00:39Z,2025-09-12T01:00:39Z,Lake Havasu City International Airport,34.571098,-114.358002,US,US-AZ
KHIO,"Portland/Hillsboro Arpt, OR, US",2025-09-12T04:53:00Z,2025-09-11 21:53:00,MVFR,16.7,12.8,0,0,0,NA,1018,METAR KHIO 120453Z AUTO 00000KT 10SM BKN024 OVC033 17/13 A3006 RMK AO2 SLP179 T01670128,2025-09-12T05:00:40Z,2025-09-12T01:00:40Z,Portland Hillsboro Airport,45.540401,-122.949997,US,US-OR
KHJH,"Hebron Muni, NE, US",2025-09-12T04:55:00Z,2025-09-12 04:55:00,VFR,22.9,19.2,160,5,0,NA,1016.3,METAR KHJH 120455Z AUTO 16005KT 10SM CLR 23/19 A3001 RMK AO2 T02290192,2025-09-12T05:00:39Z,2025-09-12T01:00:39Z,Hebron Municipal Airport,40.151884,-97.583953,US,US-NE
KHJO,"Hanford Muni, CA, US",2025-09-12T04:53:00Z,2025-09-12 04:53:00,VFR,23.3,12.8,320,12,0,NA,1013.3,METAR KHJO 120453Z AUTO 32012KT 10SM CLR 23/13 A2992 RMK AO2 SLP130 T02330128,2025-09-12T05:00:40Z,2025-09-12T01:00:40Z,Hanford Municipal Airport,36.31669998,-119.6279984,US,US-CA
KHKA,"Blytheville Muni, AR, US",2025-09-12T04:53:00Z,2025-09-11 23:53:00,VFR,21.7,17.2,100,4,0,NA,1018.7,METAR KHKA 120453Z AUTO 10004KT 10SM CLR 22/17 A3008 RMK AO2 SLP184 T02170172 $,2025-09-12T05:00:40Z,2025-09-12T01:00:40Z,Blytheville Municipal Airport,35.940399169900004,-89.83080291750001,US,US-AR
KHKY,"Hickory Rgnl, NC, US",2025-09-12T04:53:00Z,2025-09-12 00:53:00,VFR,16.1,14.4,270,3,0,NA,1021.4,METAR KHKY 120453Z AUTO 27003KT 10SM CLR 16/14 A3016 RMK AO2 SLP194 T01610144 402830133,2025-09-12T05:00:40Z,2025-09-12T01:00:40Z,Hickory Regional Airport,35.74110031,-81.38950348,US,US-NC
KHLB,"Batesville Arpt, IN, US",2025-09-12T04:25:00Z,2025-09-12 00:25:00,VFR,16,13,30,3,0,NA,1022.4,METAR KHLB 120425Z AUTO 03003KT 10SM CLR 16/13 A3019 RMK A01,2025-09-12T05:00:40Z,2025-09-12T01:00:40Z,Batesville Airport,39.342861,-85.258441,US,US-IN
KHLB,"Batesville Arpt, IN, US",2025-09-12T04:45:00Z,2025-09-12 00:45:00,VFR,16,13,0,0,0,NA,1022.4,METAR KHLB 120445Z AUTO 00000KT 10SM CLR 16/13 A3019 RMK A01,2025-09-12T05:17:18Z,2025-09-12T01:17:18Z,Batesville Airport,39.342861,-85.258441,US,US-IN
KHLC,"Hill City Muni, KS, US",2025-09-12T04:53:00Z,2025-09-11 23:53:00,VFR,25,16.1,190,8,0,NA,1015,METAR KHLC 120453Z AUTO 19008KT 10SM CLR 25/16 A2997 RMK AO2 SLP126 T02500161,2025-09-12T05:00:40Z,2025-09-12T01:00:40Z,Hill City Municipal Airport,39.37879944,-99.83149719,US,US-KS
KHLG,"Wheeling/Ohio Cnty, WV, US",2025-09-12T04:53:00Z,2025-09-12 00:53:00,VFR,16.7,10.6,0,0,0,NA,1022.8,METAR KHLG 120453Z AUTO 00000KT 10SM CLR 17/11 A3020 RMK AO2 SLP223 T01670106 402610089,2025-09-12T05:00:40Z,2025-09-12T01:00:40Z,Wheeling Ohio County Airport,40.1749992371,-80.6463012695,US,US-WV
KHLN,"Helena Rgnl, MT, US",2025-09-12T04:53:00Z,2025-09-11 22:53:00,VFR,17.2,7.2,260,5,0,NA,1016.3,METAR KHLN 120453Z AUTO 26005KT 10SM FEW110 17/07 A3001 RMK AO2 SLP157 T01720072,2025-09-12T05:00:40Z,2025-09-12T01:00:40Z,Helena Regional Airport,46.6068,-111.983002,US,US-MT
KHLX,"Hillsville/Twin Cnty, VA, US",2025-09-12T04:55:00Z,2025-09-12 04:55:00,VFR,15,11,220,4,0,NA,1023.5,METAR KHLX 120455Z AUTO 22004KT 10SM SCT060 BKN120 15/11 A3022 RMK AO2,2025-09-12T05:00:39Z,2025-09-12T01:00:39Z,Twin County Airport,36.766102,-80.823601,US,US-VA
KHLX,"Hillsville/Twin Cnty, VA, US",2025-09-12T05:15:00Z,2025-09-12 05:15:00,VFR,13,11,220,3,0,NA,1023.5,METAR KHLX 120515Z AUTO 22003KT 10SM SCT120 13/11 A3022 RMK AO2,2025-09-12T05:17:17Z,2025-09-12T01:17:17Z,Twin County Airport,36.766102,-80.823601,US,US-VA
KHMZ,"Bedford Arpt, PA, US",2025-09-12T04:35:00Z,2025-09-12 04:35:00,VFR,10.2,8.9,0,0,0,NA,1022.8,METAR KHMZ 120435Z AUTO 00000KT 10SM CLR 10/09 A3020 RMK AO2 T01020089,2025-09-12T05:00:40Z,2025-09-12T01:00:40Z,Bedford County Airport,40.085952,-78.513359,US,US-PA
KHMZ,"Bedford Arpt, PA, US",2025-09-12T04:55:00Z,2025-09-12 04:55:00,VFR,10,8.8,0,0,0,NA,1022.8,METAR KHMZ 120455Z AUTO 00000KT 10SM CLR 10/09 A3020 RMK AO2 T01000088 402700055,2025-09-12T05:17:18Z,2025-09-12T01:17:18Z,Bedford County Airport,40.085952,-78.513359,US,US-PA
KHNB,"Huntingburg Arpt, IN, US",2025-09-12T04:56:00Z,2025-09-12 00:56:00,VFR,17.2,17.2,0,0,0,NA,1021.1,METAR KHNB 120456Z AUTO 00000KT 10SM CLR 17/17 A3015 RMK AO2 SLP207 T01720172 403110144,2025-09-12T05:00:39Z,2025-09-12T01:00:39Z,Huntingburg Airport,38.2490005493,-86.95369720459999,US,US-IN
KHND,"Henderson Exec, NV, US",2025-09-12T04:56:00Z,2025-09-11 21:56:00,VFR,25,-1.1,160,7,0,NA,1012.3,METAR KHND 120456Z AUTO 16007KT 10SM CLR 25/M01 A2989 RMK AO2 SLP113 T02501011 $,2025-09-12T05:00:39Z,2025-09-12T01:00:39Z,Henderson Executive Airport,35.9728012085,-115.134002686,US,US-NV
KHNR,"Harlan Muni, IA, US",2025-09-12T04:55:00Z,2025-09-12 04:55:00,VFR,21,19,0,0,0,NA,1018,METAR KHNR 120455Z AUTO 00000KT 10SM CLR 21/19 A3006 RMK A01,2025-09-12T05:00:39Z,2025-09-12T01:00:39Z,Harlan Municipal Airport,41.58440017700195,-95.339599609375,US,US-IA
KHNZ,"Oxford-Henderson Arpt, NC, US",2025-09-12T04:40:00Z,2025-09-12 04:40:00,LIFR,15,15,0,0,0,0.75,1021.1,METAR KHNZ 120440Z AUTO 00000KT 3/4SM BR VV005 15/15 A3015 RMK AO2 T01500150,2025-09-12T05:00:40Z,2025-09-12T01:00:40Z,Henderson Oxford Airport,36.361599,-78.529198,US,US-NC
KHNZ,"Oxford-Henderson Arpt, NC, US",2025-09-12T05:00:00Z,2025-09-12 05:00:00,LIFR,15.1,15,0,0,0,0.5,1021.1,METAR KHNZ 120500Z AUTO 00000KT 1/2SM FG VV005 15/15 A3015 RMK AO2 T01510150,2025-09-12T05:17:17Z,2025-09-12T01:17:17Z,Henderson Oxford Airport,36.361599,-78.529198,US,US-NC
KHOB,"Hobbs Arpt, NM, US",2025-09-12T04:55:00Z,2025-09-11 22:55:00,VFR,23,11,160,10,0,NA,1022.1,METAR KHOB 120455Z AUTO 16010KT 10SM CLR 23/11 A3018 RMK AO2,2025-09-12T05:00:39Z,2025-09-12T01:00:39Z,Lea County Regional Airport,32.6875,-103.217003,US,US-NM
KHOB,"Hobbs Arpt, NM, US",2025-09-12T05:15:00Z,2025-09-11 23:15:00,VFR,23,11,160,8,0,NA,1022.1,METAR KHOB 120515Z AUTO 16008KT 10SM CLR 23/11 A3018 RMK AO2,2025-09-12T05:17:17Z,2025-09-12T01:17:17Z,Lea County Regional Airport,32.6875,-103.217003,US,US-NM
KHOE,"Homerville Arpt, GA, US",2025-09-12T04:55:00Z,2025-09-12 04:55:00,VFR,19.3,18.1,0,0,0,NA,1019,METAR KHOE 120455Z AUTO 00000KT 10SM CLR 19/18 A3009 RMK AO2 T01930181,2025-09-12T05:00:39Z,2025-09-12T01:00:39Z,Homerville Airport,31.055901,-82.774101,US,US-GA
KHON,"Huron Rgnl, SD, US",2025-09-12T04:55:00Z,2025-09-11 23:55:00,VFR,22.2,18.3,140,9,0,NA,1014,METAR KHON 120455Z AUTO 14009KT 10SM CLR 22/18 A2994 RMK AO2 SLP128 T02220183,2025-09-12T05:00:39Z,2025-09-12T01:00:39Z,Huron Regional Airport,44.385201,-98.2285,US,US-SD
KHOT,"Hot Springs Mem, AR, US",2025-09-12T04:53:00Z,2025-09-11 23:53:00,VFR,22.2,18.9,VAR,NA,0,NA,1019.7,METAR KHOT 120453Z AUTO 10SM CLR 22/19 A3011 RMK AO2 SLP191 T02220189 $,2025-09-12T05:00:39Z,2025-09-12T01:00:39Z,Memorial Field Airport,34.4788,-93.096262,US,US-AR
KHOU,"Houston/Hobby Arpt, TX, US",2025-09-12T04:53:00Z,2025-09-11 23:53:00,VFR,26.1,22.2,210,4,0,NA,1018.4,METAR KHOU 120453Z 21004KT 10SM CLR 26/22 A3007 RMK AO2 SLP186 T02610222,2025-09-12T05:00:39Z,2025-09-12T01:00:39Z,William P Hobby Airport,29.645399,-95.2789,US,US-TX
KHPN,"White Plains/Westchester Cnty, NY, US",2025-09-12T04:56:00Z,2025-09-12 00:56:00,VFR,16.1,12.8,310,5,0,NA,1020.4,METAR KHPN 120456Z 31005KT 10SM CLR 16/13 A3013 RMK AO2 SLP199 T01610128 402560122,2025-09-12T05:00:39Z,2025-09-12T01:00:39Z,Westchester County Airport,41.06700134277344,-73.70760345458984,US,US-NY
KHPT,"Hampton Muni, IA, US",2025-09-12T04:55:00Z,2025-09-11 23:55:00,VFR,15,13,110,4,0,NA,1020.7,METAR KHPT 120455Z AUTO 11004KT 10SM CLR 15/13 A3014 RMK AO2,2025-09-12T05:00:39Z,2025-09-12T01:00:39Z,Hampton Municipal Airport,42.7237014771,-93.2263031006,US,US-IA
KHQG,"Hugoton Muni, KS, US",2025-09-12T04:55:00Z,2025-09-12 04:55:00,VFR,20,12,200,12,0,NA,1018.7,METAR KHQG 120455Z AUTO 20012KT 10SM CLR 20/12 A3008 RMK AO2 TSNO 403520176,2025-09-12T05:00:39Z,2025-09-12T01:00:39Z,Hugoton Municipal Airport,37.163101,-101.371002,US,US-KS
KHQM,"Hoquiam/Bowerman Arpt, WA, US",2025-09-12T04:53:00Z,2025-09-11 21:53:00,MVFR,14.4,12.8,270,3,0,NA,1019,METAR KHQM 120453Z AUTO 27003KT 10SM OVC015 14/13 A3009 RMK AO2 SLP193 T01440128,2025-09-12T05:00:40Z,2025-09-12T01:00:40Z,Bowerman Airport,46.971199035599994,-123.93699646,US,US-WA
KHQU,"Thomson/McDuffie Cnty, GA, US",2025-09-12T04:35:00Z,2025-09-12 04:35:00,VFR,17,15,0,0,0,NA,1021.4,METAR KHQU 120435Z AUTO 00000KT 10SM CLR 17/15 A3016 RMK AO2,2025-09-12T05:00:40Z,2025-09-12T01:00:40Z,Thomson-McDuffie County Airport,33.52970123,-82.51650238,US,US-GA
KHQU,"Thomson/McDuffie Cnty, GA, US",2025-09-12T04:55:00Z,2025-09-12 04:55:00,VFR,16,15,0,0,0,NA,1021.4,METAR KHQU 120455Z AUTO 00000KT 10SM CLR 16/15 A3016 RMK AO2,2025-09-12T05:17:18Z,2025-09-12T01:17:18Z,Thomson-McDuffie County Airport,33.52970123,-82.51650238,US,US-GA
KHQZ,"Mesquite Metro, TX, US",2025-09-12T04:55:00Z,2025-09-12 04:55:00,VFR,22.6,18.9,0,0,0,NA,1019,METAR KHQZ 120455Z AUTO 00000KT 10SM CLR 23/19 A3009 RMK AO1 T02260189,2025-09-12T05:00:39Z,2025-09-12T01:00:39Z,Mesquite Metro Airport,32.747002,-96.530403,US,US-TX
KHRI,"Hermiston Muni, OR, US",2025-09-12T04:53:00Z,2025-09-11 21:53:00,VFR,19.4,13.3,220,9,0,NA,1014,METAR KHRI 120453Z AUTO 22009KT 10SM CLR 19/13 A2994 RMK AO2 SLP133 T01940133,2025-09-12T05:00:40Z,2025-09-12T01:00:40Z,Hermiston Municipal Airport,45.828223,-119.259024,US,US-OR
KHRJ,"Erwin/Harnett Rgnl, NC, US",2025-09-12T04:50:00Z,2025-09-12 04:50:00,VFR,17.9,17.7,0,0,0,NA,1020.7,METAR KHRJ 120450Z AUTO 00000KT 10SM CLR 18/18 A3014 RMK AO2 T01790177,2025-09-12T05:00:40Z,2025-09-12T01:00:40Z,Harnett Regional Jetport Airport,35.379398,-78.733002,US,US-NC
KHRJ,"Erwin/Harnett Rgnl, NC, US",2025-09-12T05:10:00Z,2025-09-12 05:10:00,VFR,18.2,18.1,0,0,0,NA,1020.7,METAR KHRJ 120510Z AUTO 00000KT 10SM CLR 18/18 A3014 RMK AO2 T01820181,2025-09-12T05:17:17Z,2025-09-12T01:17:17Z,Harnett Regional Jetport Airport,35.379398,-78.733002,US,US-NC
KHRL,"Harlingen/Valley Intl, TX, US",2025-09-12T04:52:00Z,2025-09-11 23:52:00,VFR,25,22.8,0,0,0,NA,1016.3,METAR KHRL 120452Z 00000KT 10SM CLR 25/23 A3001 RMK AO2 SLP162 T02500228,2025-09-12T05:00:40Z,2025-09-12T01:00:40Z,Valley International Airport,26.228500366210938,-97.65440368652344,US,US-TX
KHRO,"Harrison/Boone Cnty, AR, US",2025-09-12T04:53:00Z,2025-09-11 23:53:00,VFR,21.7,16.1,0,0,0,NA,1021.1,METAR KHRO 120453Z AUTO 00000KT 10SM CLR 22/16 A3015 RMK AO2 SLP193 T02170161,2025-09-12T05:00:39Z,2025-09-12T01:00:39Z,Boone County Airport,36.26150131225586,-93.15470123291016,US,US-AR
KHRX,"Hereford Muni, TX, US",2025-09-12T04:55:00Z,2025-09-12 04:55:00,VFR,21.2,11.5,190,7,0,NA,1022.4,METAR KHRX 120455Z AUTO 19007KT 10SM CLR 21/12 A3019 RMK AO2 T02120115 TSNO,2025-09-12T05:00:39Z,2025-09-12T01:00:39Z,Hereford Municipal Airport,34.85779953,-102.3259964,US,US-TX
KHSB,"Harrisburg/Raleigh Arpt, IL, US",2025-09-12T04:55:00Z,2025-09-11 23:55:00,VFR,18.4,15.6,VAR,NA,0,NA,1020.4,METAR KHSB 120455Z 10SM CLR 18/16 A3013 RMK AO2 T01840156,2025-09-12T05:00:39Z,2025-09-12T01:00:39Z,Harrisburg-Raleigh Airport,37.811298,-88.550301,US,US-IL
KHSD,"Oklahoma City/Sundance Arpt, OK, US",2025-09-12T04:35:00Z,2025-09-12 04:35:00,VFR,25,16,170,10,0,NA,1018.4,METAR KHSD 120435Z AUTO 17010KT 10SM CLR 25/16 A3007 RMK A01,2025-09-12T05:00:40Z,2025-09-12T01:00:40Z,Sundance Airpark,35.601799,-97.7062,US,US-OK
KHSD,"Oklahoma City/Sundance Arpt, OK, US",2025-09-12T04:55:00Z,2025-09-12 04:55:00,VFR,25,16,170,9,14,NA,1018.4,METAR KHSD 120455Z AUTO 17009G14KT 10SM CLR 25/16 A3007 RMK A01,2025-09-12T05:17:17Z,2025-09-12T01:17:17Z,Sundance Airpark,35.601799,-97.7062,US,US-OK
KHSE,"Hatteras/Mitchell Fld, NC, US",2025-09-12T04:51:00Z,2025-09-12 00:51:00,VFR,22.2,18.3,50,9,19,NA,1018,METAR KHSE 120451Z AUTO 05009G19KT 10SM BKN110 22/18 A3006 RMK AO2 SLP178 T02220183 402560217 $,2025-09-12T05:00:40Z,2025-09-12T01:00:40Z,Billy Mitchell Airport,35.232799530029,-75.617797851562,US,US-NC
KHSG,"Thermopolis/Hot Springs Cnty, WY, US",2025-09-12T04:55:00Z,2025-09-11 22:55:00,VFR,13.5,4.2,240,7,0,NA,1018.7,METAR KHSG 120455Z AUTO 24007KT 10SM CLR 14/04 A3008 RMK AO2 T01350042,2025-09-12T05:00:39Z,2025-09-12T01:00:39Z,Hot Springs County Airport,43.713602,-108.389687,US,US-WY
KHSI,"Hastings Muni, NE, US",2025-09-12T04:53:00Z,2025-09-11 23:53:00,VFR,22.8,18.9,160,9,0,NA,1015.7,METAR KHSI 120453Z AUTO 16009KT 10SM CLR 23/19 A2999 RMK AO2 SLP139 T02280189,2025-09-12T05:00:39Z,2025-09-12T01:00:39Z,Hastings Municipal Airport,40.6053009033,-98.4279022217,US,US-NE
KHSP,"Hot Springs/Ingalls Fld, VA, US",2025-09-12T04:55:00Z,2025-09-12 00:55:00,VFR,15.6,7.5,70,4,0,NA,1025.1,METAR KHSP 120455Z AUTO 07004KT 10SM CLR 16/08 A3027 RMK AO2 T01560075 402170119,2025-09-12T05:00:39Z,2025-09-12T01:00:39Z,Ingalls Field,37.95140076,-79.83390045,US,US-VA
KHSP,"Hot Springs/Ingalls Fld, VA, US",2025-09-12T05:15:00Z,2025-09-12 01:15:00,VFR,15.2,7.5,80,4,0,NA,1025.1,METAR KHSP 120515Z AUTO 08004KT 10SM CLR 15/08 A3027 RMK AO2 T01520075,2025-09-12T05:17:17Z,2025-09-12T01:17:17Z,Ingalls Field,37.95140076,-79.83390045,US,US-VA
KHSV,"Huntsville Intl, AL, US",2025-09-12T04:53:00Z,2025-09-11 23:53:00,VFR,20,18.9,0,0,0,8,1020.4,METAR KHSV 120453Z 00000KT 8SM CLR 20/19 A3013 RMK AO2 SLP197 T02000189 $,2025-09-12T05:00:40Z,2025-09-12T01:00:40Z,Huntsville International Carl T Jones Field,34.637199,-86.775101,US,US-AL
KHTH,"Hawthorne Muni, NV, US",2025-09-12T04:35:00Z,2025-09-11 21:35:00,VFR,19,6,290,7,0,NA,1017.7,METAR KHTH 120435Z AUTO 29007KT 10SM FEW049 BKN075 OVC090 19/06 A3005 RMK A01,2025-09-12T05:00:40Z,2025-09-12T01:00:40Z,Hawthorne Industrial Airport,38.544399,-118.634002,US,US-NV
KHTH,"Hawthorne Muni, NV, US",2025-09-12T04:55:00Z,2025-09-11 21:55:00,VFR,18,7,320,5,0,NA,1017.7,METAR KHTH 120455Z AUTO 32005KT 10SM FEW047 FEW060 OVC075 18/07 A3005 RMK A01,2025-09-12T05:17:18Z,2025-09-12T01:17:18Z,Hawthorne Industrial Airport,38.544399,-118.634002,US,US-NV
KHTL,"Houghton Lake/Blodgett Mem, MI, US",2025-09-12T04:53:00Z,2025-09-12 00:53:00,VFR,10.6,10.6,0,0,0,9,1024.8,METAR KHTL 120453Z AUTO 00000KT 9SM CLR 11/11 A3026 RMK AO2 SLP249 T01060106 402440050,2025-09-12T05:00:40Z,2025-09-12T01:00:40Z,Roscommon County - Blodgett Memorial Airport,44.359798,-84.671095,US,US-MI
KHTL,"Houghton Lake/Blodgett Mem, MI, US",2025-09-12T05:12:00Z,2025-09-12 01:12:00,IFR,10.6,10,0,0,0,1.75,1025.1,SPECI KHTL 120512Z AUTO 00000KT 1 3/4SM BR CLR 11/10 A3027 RMK AO2 T01060100,2025-09-12T05:17:17Z,2025-09-12T01:17:17Z,Roscommon County - Blodgett Memorial Airport,44.359798,-84.671095,US,US-MI
KHTS,"Huntington/Ferguson Fld, WV, US",2025-09-12T04:51:00Z,2025-09-12 00:51:00,VFR,16.1,13.3,0,0,0,NA,1021.8,METAR KHTS 120451Z 00000KT 10SM CLR 16/13 A3017 RMK AO2 SLP210 T01610133 402940117 $,2025-09-12T05:00:40Z,2025-09-12T01:00:40Z,Tri-State Airport / Milton J. Ferguson Field,38.366699,-82.557999,US,US-WV
KHUF,"Terre Haute/Hulman Fld, IN, US",2025-09-12T04:53:00Z,2025-09-12 00:53:00,VFR,16.1,13.9,0,0,0,NA,1021.8,METAR KHUF 120453Z 00000KT 10SM CLR 16/14 A3017 RMK AO2 SLP211 T01610139 403110128,2025-09-12T05:00:40Z,2025-09-12T01:00:40Z,"Terre Haute Regional Airport, Hulman Field",39.4515,-87.307602,US,US-IN
KHUL,"Houlton Intl, ME, US",2025-09-12T04:53:00Z,2025-09-12 01:53:00,VFR,5.6,5,0,0,0,NA,1020.4,METAR KHUL 120453Z AUTO 00000KT 10SM CLR 06/05 A3013 RMK AO2 SLP206 T00560050 402110033,2025-09-12T05:00:40Z,2025-09-12T01:00:40Z,Houlton International Airport,46.1231002808,-67.792098999,US,US-ME
KHUM,"Houma/Terrebonne Arpt, LA, US",2025-09-12T04:55:00Z,2025-09-11 23:55:00,VFR,23,19.5,0,0,0,NA,1019,METAR KHUM 120455Z AUTO 00000KT 10SM CLR 23/20 A3009 RMK AO2 T02300195 PWINO,2025-09-12T05:00:39Z,2025-09-12T01:00:39Z,Houma Terrebonne Airport,29.5664997101,-90.6604003906,US,US-LA
KHUT,"Hutchinson Muni, KS, US",2025-09-12T04:52:00Z,2025-09-11 23:52:00,VFR,22.8,17.2,150,8,0,NA,1017.4,METAR KHUT 120452Z AUTO 15008KT 10SM CLR 23/17 A3004 RMK AO2 SLP149 T02280172,2025-09-12T05:00:40Z,2025-09-12T01:00:40Z,Hutchinson Municipal Airport,38.0654983521,-97.86060333250002,US,US-KS
KHVC,"Hopkinsville/Christian Cnty, KY, US",2025-09-12T04:35:00Z,2025-09-12 04:35:00,VFR,19,16,0,0,0,NA,1020.4,METAR KHVC 120435Z AUTO 00000KT 10SM CLR 19/16 A3013 RMK AO2,2025-09-12T05:00:40Z,2025-09-12T01:00:40Z,Hopkinsville Christian County Airport,36.856998,-87.455101,US,US-KY
KHVC,"Hopkinsville/Christian Cnty, KY, US",2025-09-12T04:55:00Z,2025-09-12 04:55:00,VFR,19,16,0,0,0,8,1020.7,METAR KHVC 120455Z AUTO 00000KT 8SM SCT075 SCT100 19/16 A3014 RMK AO2,2025-09-12T05:17:18Z,2025-09-12T01:17:18Z,Hopkinsville Christian County Airport,36.856998,-87.455101,US,US-KY
KHVE,"Hanksville Arpt, UT, US",2025-09-12T04:30:00Z,2025-09-11 22:30:00,VFR,24,-5,70,4,0,NA,1014.6,METAR KHVE 120430Z AUTO 07004KT 10SM CLR 24/M05 A2996 RMK AO2,2025-09-12T05:00:40Z,2025-09-12T01:00:40Z,Hanksville Airport,38.4179992676,-110.70400238,US,US-UT
KHVE,"Hanksville Arpt, UT, US",2025-09-12T04:50:00Z,2025-09-11 22:50:00,VFR,22,-5,90,3,0,NA,1014.6,METAR KHVE 120450Z AUTO 09003KT 10SM CLR 22/M05 A2996 RMK AO2,2025-09-12T05:17:18Z,2025-09-12T01:17:18Z,Hanksville Airport,38.4179992676,-110.70400238,US,US-UT
KHVN,"New Haven/Tweed Arpt, CT, US",2025-09-12T04:53:00Z,2025-09-12 00:53:00,VFR,15.6,14.4,360,5,0,NA,1020.4,METAR KHVN 120453Z AUTO 36005KT 10SM CLR 16/14 A3013 RMK AO2 SLP203 T01560144 402780117,2025-09-12T05:00:39Z,2025-09-12T01:00:39Z,Tweed New Haven Airport,41.26369858,-72.88680267,US,US-CT
KHVR,"Havre/City Arpt, MT, US",2025-09-12T04:53:00Z,2025-09-11 22:53:00,VFR,20,11.1,140,14,0,NA,1014.3,METAR KHVR 120453Z AUTO 14014KT 10SM CLR 20/11 A2995 RMK AO2 PK WND 13026/0441 LTG DSNT SE SLP130 T02000111,2025-09-12T05:00:40Z,2025-09-12T01:00:40Z,Havre City County Airport,48.541387,-109.762859,US,US-MT
KHVS,"Hartsville Rgnl, SC, US",2025-09-12T04:55:00Z,2025-09-12 00:55:00,VFR,17,17,0,0,0,NA,1019.7,METAR KHVS 120455Z AUTO 00000KT 10SM CLR 17/17 A3011 RMK AO2,2025-09-12T05:00:39Z,2025-09-12T01:00:39Z,Hartsville Regional Airport,34.4030990601,-80.11920166019999,US,US-SC
KHWD,"Hayward Exec, CA, US",2025-09-12T04:54:00Z,2025-09-11 21:54:00,VFR,17.8,15,250,6,0,NA,1015.3,METAR KHWD 120454Z 25006KT 10SM SCT014 18/15 A2998 RMK AO2 SLP162 T01780150,2025-09-12T05:00:39Z,2025-09-12T01:00:39Z,Hayward Executive Airport,37.659198761,-122.122001648,US,US-CA
KHWO,"Hollywood/North Perry Aprt, FL, US",2025-09-12T04:53:00Z,2025-09-12 00:53:00,VFR,25.6,24.4,310,5,0,NA,1014.3,METAR KHWO 120453Z AUTO 31005KT 10SM SCT043 BKN055 26/24 A2995 RMK AO2 SLP142 T02560244 403500239 PWINO,2025-09-12T05:00:39Z,2025-09-12T01:00:39Z,North Perry Airport,26.0012,-80.2407,US,US-FL
KHWV,"Brookhaven Arpt, NY, US",2025-09-12T04:56:00Z,2025-09-12 00:56:00,VFR,15,13.9,0,0,0,NA,1020.4,METAR KHWV 120456Z AUTO 00000KT 10SM CLR 15/14 A3013 RMK AO2 SLP201 T01500139 402500122,2025-09-12T05:00:39Z,2025-09-12T01:00:39Z,Brookhaven Calabro Airport,40.821899,-72.8694,US,US-NY
KHWY,"Warrenton/Fauquier Arpt, VA, US",2025-09-12T04:55:00Z,2025-09-12 04:55:00,VFR,13.8,12.4,0,0,0,7,1021.4,METAR KHWY 120455Z AUTO 00000KT 7SM CLR 14/12 A3016 RMK AO2 T01380124,2025-09-12T05:00:39Z,2025-09-12T01:00:39Z,Warrenton Fauquier Airport,38.5863,-77.710602,US,US-VA
KHWY,"Warrenton/Fauquier Arpt, VA, US",2025-09-12T05:15:00Z,2025-09-12 05:15:00,IFR,14.8,13.3,0,0,0,1.25,1021.4,METAR KHWY 120515Z AUTO 00000KT 1 1/4SM BR VV007 15/13 A3016 RMK AO2 VIS 1/4V5 T01480133,2025-09-12T05:17:17Z,2025-09-12T01:17:17Z,Warrenton Fauquier Airport,38.5863,-77.710602,US,US-VA
KHXD,"Hilton Head Arpt, SC, US",2025-09-12T04:55:00Z,2025-09-12 00:55:00,VFR,21,20,0,0,0,NA,1019,METAR KHXD 120455Z AUTO 00000KT 10SM CLR 21/20 A3009 RMK AO2,2025-09-12T05:00:39Z,2025-09-12T01:00:39Z,Hilton Head Airport,32.2244,-80.697502,US,US-SC
KHYA,"Hyannis/Barnstable Muni, MA, US",2025-09-12T04:56:00Z,2025-09-12 00:56:00,VFR,14.4,12.8,0,0,0,NA,1019.4,METAR KHYA 120456Z AUTO 00000KT 10SM OVC065 14/13 A3010 RMK AO2 SLP192 T01440128 402110122 $,2025-09-12T05:00:39Z,2025-09-12T01:00:39Z,Cape Cod Gateway Airport,41.6693,-70.280403,US,US-MA
KHYI,"San Marcos Muni, TX, US",2025-09-12T04:56:00Z,2025-09-12 04:56:00,VFR,25,19.4,70,3,0,NA,1019.7,METAR KHYI 120456Z 07003KT 10SM CLR 25/19 A3011 RMK AO2 SLP188 T02500194,2025-09-12T05:00:39Z,2025-09-12T01:00:39Z,San Marcos Regional Airport,29.8927,-97.862999,US,US-TX
KHYR,"Hayward Muni, WI, US",2025-09-12T04:53:00Z,2025-09-11 23:53:00,VFR,14.4,13.3,0,0,0,NA,1022.8,METAR KHYR 120453Z AUTO 00000KT 10SM CLR 14/13 A3020 RMK AO2 SLP227 T01440133,2025-09-12T05:00:40Z,2025-09-12T01:00:40Z,Sawyer County Airport,46.025199890100005,-91.44429779050002,US,US-WI
KHYS,"Hays Rgnl, KS, US",2025-09-12T04:56:00Z,2025-09-11 23:56:00,VFR,23.9,15,180,9,0,NA,1016,METAR KHYS 120456Z AUTO 18009KT 10SM CLR 24/15 A3000 RMK AO2 SLP141 T02390150 403500167 $,2025-09-12T05:00:39Z,2025-09-12T01:00:39Z,Hays Regional Airport,38.844521,-99.273148,US,US-KS
KHYW,"Conway/Horry Cnty, SC, US",2025-09-12T04:55:00Z,2025-09-12 04:55:00,VFR,19,19,0,0,0,NA,1019.4,METAR KHYW 120455Z AUTO 00000KT 10SM CLR 19/19 A3010 RMK AO2,2025-09-12T05:00:39Z,2025-09-12T01:00:39Z,Conway Horry County Airport,33.828499,-79.1222,US,US-SC
KHYX,"Saginaw Cnty Arpt, MI, US",2025-09-12T04:55:00Z,2025-09-12 04:55:00,VFR,12,10,40,3,0,NA,1023.8,METAR KHYX 120455Z AUTO 04003KT 10SM CLR 12/10 A3023 RMK AO2,2025-09-12T05:00:39Z,2025-09-12T01:00:39Z,Saginaw County H.W. Browne Airport,43.433399,-83.862297,US,US-MI
KHYX,"Saginaw Cnty Arpt, MI, US",2025-09-12T05:15:00Z,2025-09-12 05:15:00,VFR,12,10,20,1,0,NA,1023.8,METAR KHYX 120515Z AUTO 02001KT 10SM CLR 12/10 A3023 RMK AO2,2025-09-12T05:17:17Z,2025-09-12T01:17:17Z,Saginaw County H.W. Browne Airport,43.433399,-83.862297,US,US-MI
KHZD,"Huntingdon/Carroll Cnty, TN, US",2025-09-12T04:35:00Z,2025-09-12 04:35:00,VFR,21,19,0,0,0,NA,1019.4,METAR KHZD 120435Z AUTO 00000KT 10SM SCT060 BKN070 21/19 A3010 RMK A01,2025-09-12T05:00:40Z,2025-09-12T01:00:40Z,Carroll County Airport,36.089298,-88.463303,US,US-TN
KHZD,"Huntingdon/Carroll Cnty, TN, US",2025-09-12T04:55:00Z,2025-09-12 04:55:00,VFR,20,19,0,0,0,NA,1019.4,METAR KHZD 120455Z AUTO 00000KT 10SM SCT060 20/19 A3010 RMK A01,2025-09-12T05:17:18Z,2025-09-12T01:17:18Z,Carroll County Airport,36.089298,-88.463303,US,US-TN
KHZE,"Hazen/Mercer Cnty, ND, US",2025-09-12T04:55:00Z,2025-09-12 04:55:00,VFR,20,16,0,0,0,NA,1011.9,METAR KHZE 120455Z AUTO 00000KT 10SM BKN060 20/16 A2988 RMK AO2 LTG DSNT N AND NE,2025-09-12T05:00:41Z,2025-09-12T01:00:41Z,Mercer County Regional Airport,47.28990173,-101.5810013,US,US-ND
KHZE,"Hazen/Mercer Cnty, ND, US",2025-09-12T05:15:00Z,2025-09-12 05:15:00,VFR,20,16,0,0,0,NA,1011.9,METAR KHZE 120515Z AUTO 00000KT 10SM BKN055 OVC065 20/16 A2988 RMK AO2 LTG DSNT NE,2025-09-12T05:17:20Z,2025-09-12T01:17:20Z,Mercer County Regional Airport,47.28990173,-101.5810013,US,US-ND
KHZL,"Hazleton Muni, PA, US",2025-09-12T04:55:00Z,2025-09-12 00:55:00,VFR,NA,NA,350,3,0,NA,1024.1,METAR KHZL 120455Z AUTO 35003KT 10SM CLR A3024 RMK AO2,2025-09-12T05:00:41Z,2025-09-12T01:00:41Z,Hazleton Municipal Airport,40.9868011475,-75.9949035645,US,US-PA
KHZL,"Hazleton Muni, PA, US",2025-09-12T05:15:00Z,2025-09-12 01:15:00,VFR,NA,NA,0,0,0,NA,1024.1,METAR KHZL 120515Z AUTO 00000KT 10SM CLR A3024 RMK AO2,2025-09-12T05:17:19Z,2025-09-12T01:17:19Z,Hazleton Municipal Airport,40.9868011475,-75.9949035645,US,US-PA
KHZR,"New Roads/False River Rgnl, LA, US",2025-09-12T04:55:00Z,2025-09-12 04:55:00,VFR,22.6,21.5,0,0,0,NA,1019.4,METAR KHZR 120455Z AUTO 00000KT 10SM CLR 23/22 A3010 RMK AO2 T02260215,2025-09-12T05:00:41Z,2025-09-12T01:00:41Z,False River Regional Airport,30.7183,-91.478699,US,US-LA
KHZX,"McGregor/Iverson Arpt, MN, US",2025-09-12T04:55:00Z,2025-09-12 04:55:00,LIFR,13,13,110,10,0,7,1021.1,METAR KHZX 120455Z AUTO 11010KT 7SM OVC002 13/13 A3015 RMK AO2,2025-09-12T05:00:41Z,2025-09-12T01:00:41Z,Isedor Iverson Airport,46.61880111694336,-93.30979919433594,US,US-MN
KHZY,"Ashtabula/NE Ohio Rgnl, OH, US",2025-09-12T04:53:00Z,2025-09-12 00:53:00,IFR,10,10,0,0,0,1.25,1023.5,METAR KHZY 120453Z AUTO 00000KT 1 1/4SM BR CLR 10/10 A3022 RMK AO2 SLP231 T01000100 402390072 $,2025-09-12T05:00:42Z,2025-09-12T01:00:42Z,Northeast Ohio Regional Airport,41.778,-80.695503,US,US-OH
KHZY,"Ashtabula/NE Ohio Rgnl, OH, US",2025-09-12T05:01:00Z,2025-09-12 01:01:00,IFR,10,10,0,0,0,1.25,1023.5,SPECI KHZY 120501Z AUTO 00000KT 1 1/4SM BR FEW003 10/10 A3022 RMK AO2 T01000100 $,2025-09-12T05:17:20Z,2025-09-12T01:17:20Z,Northeast Ohio Regional Airport,41.778,-80.695503,US,US-OH
KI16,"Pineville/Kee Fld, WV, US",2025-09-12T04:35:00Z,2025-09-12 04:35:00,VFR,12.8,12.8,VAR,NA,0,NA,1025.1,METAR KI16 120435Z AUTO 10SM CLR 13/13 A3027 RMK AO2 T01280128,2025-09-12T05:00:42Z,2025-09-12T01:00:42Z,Kee Field,37.600399,-81.559303,US,US-WV
KI16,"Pineville/Kee Fld, WV, US",2025-09-12T04:50:00Z,2025-09-12 04:50:00,VFR,12.6,12.6,VAR,NA,0,NA,1025.1,METAR KI16 120450Z AUTO 10SM CLR 13/13 A3027 RMK AO2 T01260126,2025-09-12T05:17:20Z,2025-09-12T01:17:20Z,Kee Field,37.600399,-81.559303,US,US-WV
KI23,"Washington Court House/Fayette Cnty, OH, US",2025-09-12T04:55:00Z,2025-09-12 04:55:00,VFR,13,10,10,3,0,NA,1022.8,METAR KI23 120455Z AUTO 01003KT 10SM CLR 13/10 A3020 RMK AO1,2025-09-12T05:00:41Z,2025-09-12T01:00:41Z,Fayette County Airport,39.5704,-83.420502,US,US-OH
KI23,"Washington Court House/Fayette Cnty, OH, US",2025-09-12T05:15:00Z,2025-09-12 05:15:00,VFR,12,10,10,4,0,NA,1022.8,METAR KI23 120515Z AUTO 01004KT 10SM CLR 12/10 A3020 RMK AO1,2025-09-12T05:17:20Z,2025-09-12T01:17:20Z,Fayette County Airport,39.5704,-83.420502,US,US-OH
KI35,"Harlan/Guthrie Mem, KY, US",2025-09-12T04:55:00Z,2025-09-12 04:55:00,LIFR,16.3,16.3,0,0,0,4,1023.5,METAR KI35 120455Z AUTO 00000KT 4SM OVC001 16/16 A3022 RMK AO2 T01630163 402830145,2025-09-12T05:00:41Z,2025-09-12T01:00:41Z,Tucker Guthrie Memorial Airport,36.859352,-83.358523,US,US-KY
KI40,"Coshocton/Downing Arpt, OH, US",2025-09-12T04:55:00Z,2025-09-12 04:55:00,VFR,13,8,0,0,0,NA,1023.8,METAR KI40 120455Z AUTO 00000KT 10SM CLR 13/08 A3023 RMK AO2,2025-09-12T05:00:41Z,2025-09-12T01:00:41Z,Richard Downing Airport,40.3092,-81.853401,US,US-OH
KI63,"Mt Sterling Muni, IL, US",2025-09-12T04:55:00Z,2025-09-12 04:55:00,VFR,18.6,12.5,80,3,0,NA,1021.1,METAR KI63 120455Z AUTO 08003KT 10SM CLR 19/13 A3015 RMK AO2 T01860125,2025-09-12T05:00:41Z,2025-09-12T01:00:41Z,Mount Sterling Municipal Airport,39.987499,-90.804199,US,US-IL
KI67,"Harrison/West Arpt, OH, US",2025-09-12T04:55:00Z,2025-09-12 04:55:00,VFR,15,13,0,0,0,NA,1022.4,METAR KI67 120455Z AUTO 00000KT 10SM CLR 15/13 A3019 RMK AO1,2025-09-12T05:00:42Z,2025-09-12T01:00:42Z,Cincinnati West Airport,39.2589,-84.7743,US,US-OH
KI68,"Lebanon/Warren Cnty, OH, US",2025-09-12T04:55:00Z,2025-09-12 04:55:00,VFR,19,13,60,8,0,NA,1022.1,METAR KI68 120455Z AUTO 06008KT 10SM CLR 19/13 A3018 RMK AO2,2025-09-12T05:00:42Z,2025-09-12T01:00:42Z,Warren County Airport/John Lane Field,39.4622,-84.251801,US,US-OH
KI68,"Lebanon/Warren Cnty, OH, US",2025-09-12T05:15:00Z,2025-09-12 05:15:00,VFR,18,13,70,8,13,NA,1022.1,METAR KI68 120515Z AUTO 07008G13KT 10SM CLR 18/13 A3018 RMK AO2,2025-09-12T05:17:19Z,2025-09-12T01:17:19Z,Warren County Airport/John Lane Field,39.4622,-84.251801,US,US-OH
KI69,"Batavia/Clermont Cnty, OH, US",2025-09-12T04:56:00Z,2025-09-12 04:56:00,VFR,18.5,10.1,0,0,0,NA,1022.8,METAR KI69 120456Z AUTO 00000KT 10SM CLR 19/10 A3020 RMK AO1 T01850101 402940130,2025-09-12T05:00:41Z,2025-09-12T01:00:41Z,Clermont County Airport,39.0784,-84.210197,US,US-OH
KI74,"Urbana/Grimes Fld, OH, US",2025-09-12T04:55:00Z,2025-09-12 04:55:00,VFR,12,10,50,3,0,NA,1023.5,METAR KI74 120455Z AUTO 05003KT 10SM CLR 12/10 A3022 RMK AO2,2025-09-12T05:00:41Z,2025-09-12T01:00:41Z,Grimes Field,40.132599,-83.753403,US,US-OH
KI75,"Osceola Muni, IA, US",2025-09-12T04:55:00Z,2025-09-12 04:55:00,VFR,21.4,15.2,120,5,0,NA,1019.4,METAR KI75 120455Z AUTO 12005KT 10SM CLR 21/15 A3010 RMK AO2 T02140152,2025-09-12T05:00:41Z,2025-09-12T01:00:41Z,Osceola Municipal Airport,41.0522,-93.689697,US,US-IA
KI95,"Kenton/Hardin Cnty, OH, US",2025-09-12T04:55:00Z,2025-09-12 04:55:00,VFR,13,10,0,0,0,NA,1022.8,METAR KI95 120455Z AUTO 00000KT 10SM CLR 13/10 A3020 RMK A01,2025-09-12T05:00:42Z,2025-09-12T01:00:42Z,Hardin County Airport,40.610699,-83.6436,US,US-OH
KIAD,"Washington/Dulles Intl, VA, US",2025-09-12T04:52:00Z,2025-09-12 00:52:00,VFR,16.1,16.1,0,0,0,NA,1021.1,METAR KIAD 120452Z 00000KT 10SM CLR 16/16 A3015 RMK AO2 SLP209 T01610161 402890144,2025-09-12T05:00:42Z,2025-09-12T01:00:42Z,Washington Dulles International Airport,38.9445,-77.455803,US,US-VA
KIAG,"Niagara Falls Intl, NY, US",2025-09-12T04:53:00Z,2025-09-12 00:53:00,VFR,13.3,11.1,130,3,0,NA,1023.1,METAR KIAG 120453Z AUTO 13003KT 10SM CLR 13/11 A3021 RMK AO2 SLP228 T01330111 402500106,2025-09-12T05:00:42Z,2025-09-12T01:00:42Z,Niagara Falls International Airport,43.1073,-78.946198,US,US-NY
KIAH,"Houston/Bush Intl, TX, US",2025-09-12T04:53:00Z,2025-09-11 23:53:00,VFR,24.4,22.8,0,0,0,NA,1018.7,METAR KIAH 120453Z 00000KT 10SM CLR 24/23 A3008 RMK AO2 SLP183 T02440228 $,2025-09-12T05:00:42Z,2025-09-12T01:00:42Z,George Bush Intercontinental Houston Airport,29.984399795532227,-95.341400146484375,US,US-TX
KIBM,"Kimball Muni, NE, US",2025-09-12T04:55:00Z,2025-09-12 04:55:00,VFR,16,10.7,240,7,0,NA,1019,METAR KIBM 120455Z AUTO 24007KT 10SM CLR 16/11 A3009 RMK AO2 T01600107,2025-09-12T05:00:42Z,2025-09-12T01:00:42Z,Kimball Municipal Robert E Arraj Field,41.1880989074707,-103.677001953125,US,US-NE
KICL,"Clarinda/Schenck Fld, IA, US",2025-09-12T04:55:00Z,2025-09-11 23:55:00,VFR,19,19,0,0,0,NA,1018.7,METAR KICL 120455Z AUTO 00000KT 10SM CLR 19/19 A3008 RMK AO2,2025-09-12T05:00:41Z,2025-09-12T01:00:41Z,Schenck Field,40.72180176,-95.02639771,US,US-IA
KICR,"Winner/Wiley Fld, SD, US",2025-09-12T04:53:00Z,2025-09-12 04:53:00,VFR,23.3,17.8,150,10,0,NA,1013,METAR KICR 120453Z AUTO 15010KT 10SM CLR 23/18 A2991 RMK AO2 SLP112 T02330178,2025-09-12T05:00:42Z,2025-09-12T01:00:42Z,Winner Regional Airport,43.390202,-99.842102,US,US-SD
KICT,"Wichita/Eisenhower Arpt, KS, US",2025-09-12T04:53:00Z,2025-09-11 23:53:00,VFR,22.2,17.8,160,8,0,NA,1017.7,METAR KICT 120453Z 16008KT 10SM FEW180 SCT250 22/18 A3005 RMK AO2 SLP161 T02220178,2025-09-12T05:00:42Z,2025-09-12T01:00:42Z,Wichita Eisenhower National Airport,37.649899,-97.433098,US,US-KS
KIDA,"Idaho Falls Rgnl, ID, US",2025-09-12T04:53:00Z,2025-09-11 22:53:00,VFR,16.1,3.9,210,8,0,NA,1018.4,METAR KIDA 120453Z AUTO 21008KT 10SM CLR 16/04 A3007 RMK AO2 SLP152 T01610039,2025-09-12T05:00:42Z,2025-09-12T01:00:42Z,Idaho Falls Regional Airport,43.514599,-112.070999,US,US-ID
KIDI,"Indiana/Stewart Arpt, PA, US",2025-09-12T04:55:00Z,2025-09-12 00:55:00,VFR,12,10,0,0,0,NA,1023.1,METAR KIDI 120455Z AUTO 00000KT 10SM CLR 12/10 A3021 RMK A01,2025-09-12T05:00:42Z,2025-09-12T01:00:42Z,Indiana County–Jimmy Stewart Airport,40.631119,-79.101884,US,US-PA
KIDI,"Indiana/Stewart Arpt, PA, US",2025-09-12T05:15:00Z,2025-09-12 01:15:00,VFR,12,10,0,0,0,NA,1023.1,METAR KIDI 120515Z AUTO 00000KT 10SM CLR 12/10 A3021 RMK A01,2025-09-12T05:17:20Z,2025-09-12T01:17:20Z,Indiana County–Jimmy Stewart Airport,40.631119,-79.101884,US,US-PA
KIDP,"Independence Muni, KS, US",2025-09-12T04:35:00Z,2025-09-11 23:35:00,VFR,21,19,170,5,0,NA,1018.7,METAR KIDP 120435Z AUTO 17005KT 10SM CLR 21/19 A3008 RMK AO2,2025-09-12T05:00:42Z,2025-09-12T01:00:42Z,Independence Municipal Airport,37.1584014893,-95.7783966064,US,US-KS
KIDP,"Independence Muni, KS, US",2025-09-12T04:55:00Z,2025-09-11 23:55:00,VFR,21,18,160,6,0,NA,1018.7,METAR KIDP 120455Z AUTO 16006KT 10SM CLR 21/18 A3008 RMK AO2,2025-09-12T05:17:20Z,2025-09-12T01:17:20Z,Independence Municipal Airport,37.1584014893,-95.7783966064,US,US-KS
KIEN,"Pine Ridge Strip, SD, US",2025-09-12T04:52:00Z,2025-09-11 22:52:00,VFR,22.8,15.6,170,10,0,NA,1014,METAR KIEN 120452Z AUTO 17010KT 10SM CLR 23/16 A2994 RMK AO2 SLP106 T02280156 $,2025-09-12T05:00:42Z,2025-09-12T01:00:42Z,Pine Ridge Airport,43.020902,-102.506089,US,US-SD
KIER,"Natchitoches Rgnl, LA, US",2025-09-12T04:55:00Z,2025-09-12 04:55:00,VFR,22.5,22.5,0,0,0,NA,1019.4,METAR KIER 120455Z AUTO 00000KT 10SM SCT070 23/23 A3010 RMK AO2 T02250225,2025-09-12T05:00:41Z,2025-09-12T01:00:41Z,Natchitoches Regional Airport,31.735701,-93.099098,US,US-LA
KIFA,"Iowa Falls Muni, IA, US",2025-09-12T04:55:00Z,2025-09-11 23:55:00,VFR,16.1,13.6,120,5,0,NA,1021.1,METAR KIFA 120455Z AUTO 12005KT 10SM CLR 16/14 A3015 RMK AO2 T01610136,2025-09-12T05:00:41Z,2025-09-12T01:00:41Z,Iowa Falls Municipal Airport,42.4707984924,-93.2699966431,US,US-IA
KIFP,"Bullhead City Intl, AZ, US",2025-09-12T04:35:00Z,2025-09-11 21:35:00,VFR,30,-1,120,7,0,NA,1007.5,METAR KIFP 120435Z AUTO 12007KT 10SM CLR 30/M01 A2975 RMK AO2,2025-09-12T05:00:42Z,2025-09-12T01:00:42Z,Laughlin Bullhead International Airport,35.157398,-114.559998,US,US-AZ
KIFP,"Bullhead City Intl, AZ, US",2025-09-12T04:55:00Z,2025-09-11 21:55:00,VFR,29,-1,110,5,0,NA,1007.5,METAR KIFP 120455Z AUTO 11005KT 10SM CLR 29/M01 A2975 RMK AO2,2025-09-12T05:17:20Z,2025-09-12T01:17:20Z,Laughlin Bullhead International Airport,35.157398,-114.559998,US,US-AZ
KIGM,"Kingman Arpt, AZ, US",2025-09-12T04:51:00Z,2025-09-11 21:51:00,VFR,23.3,0,200,12,0,NA,1014.3,METAR KIGM 120451Z AUTO 20012KT 10SM CLR 23/00 A2995 RMK AO2 SLP073 T02330000,2025-09-12T05:00:42Z,2025-09-12T01:00:42Z,Kingman Airport,35.259499,-113.938004,US,US-AZ
KIGQ,"Chicago/Lansing Muni, IL, US",2025-09-12T04:55:00Z,2025-09-12 04:55:00,NA,17.8,16.6,0,0,0,NA,1023.1,METAR KIGQ 120455Z AUTO 00000KT 10SM 18/17 A3021 RMK AO2 T01780166 TSNO,2025-09-12T05:00:42Z,2025-09-12T01:00:42Z,Lansing Municipal Airport,41.534901,-87.529503,US,US-IL
KIIB,"Independence Muni, IA, US",2025-09-12T04:55:00Z,2025-09-12 04:55:00,VFR,16.9,13.8,110,6,0,NA,1022.1,METAR KIIB 120455Z AUTO 11006KT 10SM CLR 17/14 A3018 RMK AO2 T01690138,2025-09-12T05:00:41Z,2025-09-12T01:00:41Z,Independence Municipal Airport,42.456836,-91.94767,US,US-IA
KIIY,"Washington/Wilkes Cnty, GA, US",2025-09-12T04:55:00Z,2025-09-12 04:55:00,VFR,18,15.3,0,0,0,NA,1020.4,METAR KIIY 120455Z AUTO 00000KT 10SM CLR 18/15 A3013 RMK AO2 T01800153,2025-09-12T05:00:42Z,2025-09-12T01:00:42Z,Washington Wilkes County Airport,33.77939987,-82.81580353,US,US-GA
KIIY,"Washington/Wilkes Cnty, GA, US",2025-09-12T05:15:00Z,2025-09-12 05:15:00,VFR,17.6,15.7,0,0,0,NA,1020.4,METAR KIIY 120515Z AUTO 00000KT 10SM CLR 18/16 A3013 RMK AO2 T01760157,2025-09-12T05:17:20Z,2025-09-12T01:17:20Z,Washington Wilkes County Airport,33.77939987,-82.81580353,US,US-GA
KIJD,"Willimantic/Windham Arpt, CT, US",2025-09-12T04:52:00Z,2025-09-12 04:52:00,VFR,13.9,12.8,0,0,0,NA,1021.1,METAR KIJD 120452Z AUTO 00000KT 10SM CLR 14/13 A3015 RMK AO2 SLP209 T01390128 402500089,2025-09-12T05:00:42Z,2025-09-12T01:00:42Z,Windham Airport,41.743999,-72.180298,US,US-CT
KIJX,"Jacksonville Muni, IL, US",2025-09-12T04:55:00Z,2025-09-12 04:55:00,VFR,15.5,12,90,5,0,NA,1020.7,METAR KIJX 120455Z AUTO 09005KT 10SM CLR 16/12 A3014 RMK AO2 T01550120,2025-09-12T05:00:41Z,2025-09-12T01:00:41Z,Jacksonville Municipal Airport,39.774601,-90.238297,US,US-IL
KIKG,"Kingsville/Kleberg Cnty, TX, US",2025-09-12T04:55:00Z,2025-09-12 04:55:00,VFR,25.5,23.5,40,4,0,NA,1017.4,METAR KIKG 120455Z AUTO 04004KT 10SM CLR 26/24 A3004 RMK AO2 T02550235,2025-09-12T05:00:42Z,2025-09-12T01:00:42Z,Kleberg County Airport,27.5509,-98.030899,US,US-TX
KIKK,"Kankakee Arpt, IL, US",2025-09-12T04:55:00Z,2025-09-11 23:55:00,VFR,15,14,50,3,0,NA,1023.1,METAR KIKK 120455Z AUTO 05003KT 10SM CLR 15/14 A3021 RMK AO2,2025-09-12T05:00:41Z,2025-09-12T01:00:41Z,Greater Kankakee Airport,41.07139968869999,-87.8462982178,US,US-IL
KIKV,"Ankeny Rgnl, IA, US",2025-09-12T04:55:00Z,2025-09-12 04:55:00,VFR,21,15,110,5,0,NA,1019.7,METAR KIKV 120455Z AUTO 11005KT 10SM CLR 21/15 A3011 RMK AO2,2025-09-12T05:00:41Z,2025-09-12T01:00:41Z,Ankeny Regional Airport,41.691399,-93.566399,US,US-IA
KILG,"Wilmington/New Castle Arpt, DE, US",2025-09-12T04:51:00Z,2025-09-12 00:51:00,VFR,15.6,12.8,310,5,0,NA,1020.7,METAR KILG 120451Z AUTO 31005KT 10SM CLR 16/13 A3014 RMK AO2 SLP205 T01560128 402890150 $,2025-09-12T05:00:42Z,2025-09-12T01:00:42Z,Wilmington Airport,39.678699,-75.606499,US,US-DE
KILM,"Wilmington Intl, NC, US",2025-09-12T04:53:00Z,2025-09-12 00:53:00,IFR,20,19.4,10,6,0,NA,1019,METAR KILM 120453Z AUTO 01006KT 10SM BKN009 OVC055 20/19 A3009 RMK AO2 CIG 006V011 SLP190 T02000194 402500194,2025-09-12T05:00:42Z,2025-09-12T01:00:42Z,Wilmington International Airport,34.270599365234375,-77.90260314941406,US,US-NC
KILN,"Wilmington Arpt, OH, US",2025-09-12T04:54:00Z,2025-09-12 00:54:00,VFR,16.1,11.1,70,5,0,NA,1022.8,METAR KILN 120454Z AUTO 07005KT 10SM CLR 16/11 A3020 RMK AO2 SLP220 T01610111 402780100,2025-09-12T05:00:42Z,2025-09-12T01:00:42Z,Wilmington Airpark,39.427898407,-83.792098999,US,US-OH
KIML,"Imperial Muni, NE, US",2025-09-12T04:53:00Z,2025-09-11 22:53:00,VFR,19.4,15.6,160,4,0,NA,1014.6,METAR KIML 120453Z AUTO 16004KT 10SM CLR 19/16 A2996 RMK AO2 SLP124 T01940156,2025-09-12T05:00:42Z,2025-09-12T01:00:42Z,Imperial Municipal Airport,40.50930023,-101.6210022,US,US-NE
KIMM,"Immokalee Rgnl, FL, US",2025-09-12T04:25:00Z,2025-09-12 00:25:00,VFR,24,24,0,0,0,9,1015.3,METAR KIMM 120425Z AUTO 00000KT 9SM CLR 24/24 A2998 RMK AO2,2025-09-12T05:00:42Z,2025-09-12T01:00:42Z,Immokalee Regional Airport,26.427933,-81.403531,US,US-FL
KIMM,"Immokalee Rgnl, FL, US",2025-09-12T04:45:00Z,2025-09-12 00:45:00,VFR,24,24,310,4,0,NA,1015,METAR KIMM 120445Z AUTO 31004KT 10SM FEW050 BKN060 24/24 A2997 RMK AO2 LTG DSNT E AND W,2025-09-12T05:17:20Z,2025-09-12T01:17:20Z,Immokalee Regional Airport,26.427933,-81.403531,US,US-FL
KIMS,"Madison Muni, IN, US",2025-09-12T04:55:00Z,2025-09-12 00:55:00,VFR,15,15,0,0,0,NA,1022.4,METAR KIMS 120455Z AUTO 00000KT 10SM CLR 15/15 A3019 RMK AO2,2025-09-12T05:00:42Z,2025-09-12T01:00:42Z,Madison Municipal Airport,38.75889969,-85.46549988,US,US-IN
KIMT,"Iron Mountain/Ford Aprt, MI, US",2025-09-12T04:54:00Z,2025-09-11 23:54:00,LIFR,8.3,8.3,0,0,0,1.5,1023.8,METAR KIMT 120454Z AUTO 00000KT 1 1/2SM BR BKN001 08/08 A3023 RMK AO2 VIS 3/4V5 SLP242 T00830083,2025-09-12T05:00:42Z,2025-09-12T01:00:42Z,Ford Airport,45.81911,-88.114557,US,US-MI
KIMT,"Iron Mountain/Ford Aprt, MI, US",2025-09-12T05:05:00Z,2025-09-12 00:05:00,LIFR,7.8,7.8,0,0,0,0.25,1023.8,SPECI KIMT 120505Z AUTO 00000KT 1/4SM FG VV001 08/08 A3023 RMK AO2 T00780078,2025-09-12T05:17:20Z,2025-09-12T01:17:20Z,Ford Airport,45.81911,-88.114557,US,US-MI
KIND,"Indianapolis Intl, IN, US",2025-09-12T04:54:00Z,2025-09-12 00:54:00,VFR,18.9,10,50,5,0,NA,1022.1,METAR KIND 120454Z 05005KT 10SM CLR 19/10 A3018 RMK AO2 SLP213 T01890100 402940156,2025-09-12T05:00:42Z,2025-09-12T01:00:42Z,Indianapolis International Airport,39.7173,-86.294403,US,US-IN
KINJ,"Hillsboro Muni, TX, US",2025-09-12T04:55:00Z,2025-09-12 04:55:00,VFR,26.5,19.1,120,6,0,NA,1019.4,METAR KINJ 120455Z AUTO 12006KT 10SM CLR 27/19 A3010 RMK AO2 T02650191,2025-09-12T05:00:42Z,2025-09-12T01:00:42Z,Hillsboro Municipal Airport,32.0835,-97.097198,US,US-TX
KINL,"International Falls/Einarson Fld, MN, US",2025-09-12T04:54:00Z,2025-09-11 23:54:00,VFR,14.4,13.9,150,4,0,NA,1020.4,METAR KINL 120454Z AUTO 15004KT 10SM -RA OVC100 14/14 A3013 RMK AO2 RAE02B35 SLP204 P0000 T01440139,2025-09-12T05:00:42Z,2025-09-12T01:00:42Z,Falls International Airport,48.566200256347656,-93.4030990600586,US,US-MN
KINT,"Winston-Salem/Reynolds Arpt, NC, US",2025-09-12T04:54:00Z,2025-09-12 00:54:00,VFR,16.1,14.4,0,0,0,NA,1021.8,METAR KINT 120454Z AUTO 00000KT 10SM CLR 16/14 A3017 RMK AO2 SLP206 T01610144 402670161,2025-09-12T05:00:42Z,2025-09-12T01:00:42Z,Smith Reynolds Airport,36.13370132446289,-80.22200012207031,US,US-NC
KINW,"Winslow/Lindberg Rgnl, AZ, US",2025-09-12T04:56:00Z,2025-09-11 21:56:00,VFR,22.8,11.7,180,12,0,NA,1019.4,METAR KINW 120456Z AUTO 18012KT 10SM CLR 23/12 A3010 RMK AO2 SLP113 T02280117,2025-09-12T05:00:41Z,2025-09-12T01:00:41Z,Winslow Lindbergh Regional Airport,35.021900177,-110.722999573,US,US-AZ
KIOB,"Mount Sterling/Montgomery Cnty, KY, US",2025-09-12T04:55:00Z,2025-09-12 04:55:00,VFR,14,13,0,0,0,NA,1022.8,METAR KIOB 120455Z AUTO 00000KT 10SM CLR 14/13 A3020 RMK AO2 PWINO,2025-09-12T05:00:41Z,2025-09-12T01:00:41Z,Mount Sterling Montgomery County Airport,38.058102,-83.979599,US,US-KY
KIOW,"Iowa City Muni, IA, US",2025-09-12T04:52:00Z,2025-09-11 23:52:00,VFR,19.4,13.9,130,4,0,NA,1021.4,METAR KIOW 120452Z AUTO 13004KT 10SM CLR 19/14 A3016 RMK AO2 SLP208 T01940139,2025-09-12T05:00:42Z,2025-09-12T01:00:42Z,Iowa City Municipal Airport,41.6391983032,-91.5465011597,US,US-IA
KIPJ,"Lincolnton/Lincoln Cnty, NC, US",2025-09-12T04:45:00Z,2025-09-12 04:45:00,VFR,14.1,13.6,0,0,0,NA,1021.1,METAR KIPJ 120445Z AUTO 00000KT 10SM CLR 14/14 A3015 RMK AO2 T01410136,2025-09-12T05:00:42Z,2025-09-12T01:00:42Z,Lincolnton Lincoln County Regional Airport,35.483299,-81.161301,US,US-NC
KIPJ,"Lincolnton/Lincoln Cnty, NC, US",2025-09-12T05:05:00Z,2025-09-12 05:05:00,VFR,14.1,13.7,0,0,0,NA,1021.4,METAR KIPJ 120505Z AUTO 00000KT 10SM CLR 14/14 A3016 RMK AO2 T01410137,2025-09-12T05:17:20Z,2025-09-12T01:17:20Z,Lincolnton Lincoln County Regional Airport,35.483299,-81.161301,US,US-NC
KIPL,"Imperial Cnty Arpt, CA, US",2025-09-12T04:53:00Z,2025-09-11 21:53:00,VFR,27.2,7.8,300,8,0,NA,1007.9,METAR KIPL 120453Z AUTO 30008KT 10SM CLR 27/08 A2976 RMK AO2 SLP079 T02720078,2025-09-12T05:00:42Z,2025-09-12T01:00:42Z,Imperial County Airport,32.83539,-115.574026,US,US-CA
KIPT,"Williamsport Rgnl, PA, US",2025-09-12T04:54:00Z,2025-09-12 00:54:00,VFR,13.3,11.7,0,0,0,NA,1022.4,METAR KIPT 120454Z AUTO 00000KT 10SM CLR 13/12 A3019 RMK AO2 SLP220 T01330117 402780094,2025-09-12T05:00:42Z,2025-09-12T01:00:42Z,Williamsport Regional Airport,41.242126,-76.92245,US,US-PA
KIRK,"Kirksville Rgnl, MO, US",2025-09-12T04:55:00Z,2025-09-11 23:55:00,VFR,20,15,110,4,0,NA,1020.7,METAR KIRK 120455Z AUTO 11004KT 10SM CLR 20/15 A3014 RMK AO2 SLP201 T02000150 $,2025-09-12T05:00:41Z,2025-09-12T01:00:41Z,Kirksville Regional Airport,40.09349822998047,-92.5448989868164,US,US-MO
KIRS,"Sturgis/Kirsh Muni, MI, US",2025-09-12T04:55:00Z,2025-09-12 00:55:00,VFR,16,11,100,3,0,NA,1023.1,METAR KIRS 120455Z AUTO 10003KT 10SM CLR 16/11 A3021 RMK AO2,2025-09-12T05:00:41Z,2025-09-12T01:00:41Z,Kirsch Municipal Airport,41.813301,-85.439003,US,US-MI
KIRS,"Sturgis/Kirsh Muni, MI, US",2025-09-12T05:15:00Z,2025-09-12 01:15:00,VFR,16,11,VAR,3,0,NA,1023.5,METAR KIRS 120515Z AUTO VRB03KT 10SM CLR 16/11 A3022 RMK AO2,2025-09-12T05:17:20Z,2025-09-12T01:17:20Z,Kirsch Municipal Airport,41.813301,-85.439003,US,US-MI
KISM,"Kissimmee Muni, FL, US",2025-09-12T04:56:00Z,2025-09-12 00:56:00,VFR,25.6,21.7,360,9,0,NA,1017,METAR KISM 120456Z AUTO 36009KT 10SM BKN120 26/22 A3003 RMK AO2 SLP168 T02560217 $,2025-09-12T05:00:41Z,2025-09-12T01:00:41Z,Kissimmee Gateway Airport,28.2898006439,-81.4371032715,US,US-FL
KISO,"Kinston Rgnl, NC, US",2025-09-12T04:45:00Z,2025-09-12 00:45:00,VFR,19.6,19.3,0,0,0,NA,1020.1,METAR KISO 120445Z AUTO 00000KT 10SM OVC080 20/19 A3012 RMK AO2 T01960193,2025-09-12T05:00:42Z,2025-09-12T01:00:42Z,Kinston Regional Jetport At Stallings Field,35.331401825,-77.60880279540001,US,US-NC
KISO,"Kinston Rgnl, NC, US",2025-09-12T05:05:00Z,2025-09-12 01:05:00,VFR,19.6,19.3,350,3,0,NA,1020.1,METAR KISO 120505Z AUTO 35003KT 10SM OVC080 20/19 A3012 RMK AO2 T01960193,2025-09-12T05:17:20Z,2025-09-12T01:17:20Z,Kinston Regional Jetport At Stallings Field,35.331401825,-77.60880279540001,US,US-NC
KISP,"Islip/Macarthur Arpt, NY, US",2025-09-12T03:56:00Z,2025-09-11 23:56:00,VFR,18.9,15.6,250,3,0,NA,1020.4,METAR KISP 120356Z 25003KT 10SM CLR 19/16 A3013 RMK SLP201 LAST T01890156,2025-09-12T05:00:42Z,2025-09-12T01:00:42Z,Long Island Mac Arthur Airport,40.79520035,-73.10019684,US,US-NY
KISQ,"Manistique/Schoolcraft Cnty, MI, US",2025-09-12T04:55:00Z,2025-09-12 00:55:00,NA,12.5,11.3,VAR,NA,0,NA,1024.1,METAR KISQ 120455Z AUTO 13/11 A3024 RMK AO2 T01250113 PWINO,2025-09-12T05:00:41Z,2025-09-12T01:00:41Z,Schoolcraft County Airport,45.974602,-86.171799,US,US-MI
KISW,"Wisconsin Rapids/S Wood Cnty, WI, US",2025-09-12T04:54:00Z,2025-09-11 23:54:00,VFR,13.9,13.3,100,4,0,NA,1023.8,METAR KISW 120454Z AUTO 10004KT 10SM CLR 14/13 A3023 RMK AO2 SLP238 T01390133,2025-09-12T05:00:42Z,2025-09-12T01:00:42Z,Alexander Field South Wood County Airport,44.3602981567,-89.83899688720001,US,US-WI
KITH,"Ithaca/Tompkins Rgnl, NY, US",2025-09-12T04:56:00Z,2025-09-12 00:56:00,VFR,10,9.4,0,0,0,NA,1023.5,METAR KITH 120456Z AUTO 00000KT 10SM CLR 10/09 A3022 RMK AO2 SLP232 T01000094 402390078,2025-09-12T05:00:41Z,2025-09-12T01:00:41Z,Ithaca Tompkins Regional Airport,42.49100112915039,-76.4583969116211,US,US-NY
KITR,"Burlington/Kit Carson Cnty, CO, US",2025-09-12T04:53:00Z,2025-09-12 04:53:00,VFR,22.2,11.1,220,16,0,NA,1019.4,METAR KITR 120453Z AUTO 22016KT 10SM CLR 22/11 A3010 RMK AO2 SLP129 T02220111,2025-09-12T05:00:42Z,2025-09-12T01:00:42Z,Kit Carson County Airport,39.2425,-102.285004,US,US-CO
KIWA,"Phoenix/Mesa Gateway Arpt, AZ, US",2025-09-12T04:50:00Z,2025-09-11 21:50:00,VFR,31,15,140,9,15,NA,1011.3,METAR KIWA 120450Z 14009G15KT 10SM FEW095 31/15 A2986 RMK LTG DSNT N-S TCU DSNT N-S,2025-09-12T05:00:42Z,2025-09-12T01:00:42Z,Mesa Gateway Airport,33.3078,-111.654999,US,US-AZ
KIWD,"Ironwood/Iron Cnty, MI, US",2025-09-12T04:56:00Z,2025-09-11 23:56:00,VFR,12.8,12.8,210,4,0,NA,1023.5,METAR KIWD 120456Z AUTO 21004KT 10SM CLR 13/13 A3022 RMK AO2 SLP234 T01280128,2025-09-12T05:00:41Z,2025-09-12T01:00:41Z,Gogebic Iron County Airport,46.525298,-90.131578,US,US-MI
KIWI,"Wiscasset Arpt, ME, US",2025-09-12T04:53:00Z,2025-09-12 00:53:00,VFR,12.8,9.4,0,0,0,NA,1021.4,METAR KIWI 120453Z AUTO 00000KT 10SM CLR 13/09 A3016 RMK AO2 SLP214 T01280094 402720067,2025-09-12T05:00:42Z,2025-09-12T01:00:42Z,Wiscasset Airport,43.9613990784,-69.712600708,US,US-ME
KIXA,"Halifax/Northampton Rgnl, NC, US",2025-09-12T04:45:00Z,2025-09-12 04:45:00,VFR,15,15,0,0,0,NA,1020.4,METAR KIXA 120445Z AUTO 00000KT 10SM OVC110 15/15 A3013 RMK AO2,2025-09-12T05:00:42Z,2025-09-12T01:00:42Z,Halifax-Northampton Regional Airport,36.3298,-77.635231,US,US-NC
KIXA,"Halifax/Northampton Rgnl, NC, US",2025-09-12T05:05:00Z,2025-09-12 05:05:00,MVFR,15,15,0,0,0,4,1020.4,METAR KIXA 120505Z AUTO 00000KT 4SM BR SCT110 15/15 A3013 RMK AO2,2025-09-12T05:17:20Z,2025-09-12T01:17:20Z,Halifax-Northampton Regional Airport,36.3298,-77.635231,US,US-NC
KIXD,"Olathe/New Century Arpt, KS, US",2025-09-12T04:53:00Z,2025-09-11 23:53:00,VFR,21.7,17.2,160,5,0,NA,1019.4,METAR KIXD 120453Z AUTO 16005KT 10SM SCT120 22/17 A3010 RMK AO2 SLP180 T02170172,2025-09-12T05:00:42Z,2025-09-12T01:00:42Z,New Century AirCenter Airport,38.830898,-94.890297,US,US-KS
KIZA,"Santa Ynez Arpt, CA, US",2025-09-12T04:55:00Z,2025-09-11 21:55:00,MVFR,16,14,0,0,0,NA,1015,METAR KIZA 120455Z AUTO 00000KT 10SM BKN013 BKN034 BKN045 16/14 A2997 RMK AO2,2025-09-12T05:00:41Z,2025-09-12T01:00:41Z,Santa Ynez Airport,34.60680008,-120.0759964,US,US-CA
KIZG,"Fryeburg/Eastern Slopes Rgnl, ME, US",2025-09-12T04:54:00Z,2025-09-12 00:54:00,VFR,12.8,7.2,0,0,0,NA,1022.1,METAR KIZG 120454Z AUTO 00000KT 10SM CLR 13/07 A3018 RMK AO2 SLP220 T01280072 402610033,2025-09-12T05:00:42Z,2025-09-12T01:00:42Z,Eastern Slopes Regional Airport,43.991100311299995,-70.9478988647,US,US-ME
KJAC,"Jackson Hole Arpt, WY, US",2025-09-12T04:56:00Z,2025-09-11 22:56:00,VFR,12.2,5.6,70,8,0,NA,1020.7,METAR KJAC 120456Z AUTO 07008KT 10SM BKN110 12/06 A3014 RMK AO2 SLP166 T01220056,2025-09-12T05:00:41Z,2025-09-12T01:00:41Z,Jackson Hole Airport,43.6072998046875,-110.73799896240234,US,US-WY
KJAN,"Jackson/Evers Intl, MS, US",2025-09-12T04:54:00Z,2025-09-11 23:54:00,VFR,22.2,20,0,0,0,NA,1019.4,METAR KJAN 120454Z AUTO 00000KT 10SM CLR 22/20 A3010 RMK AO2 SLP189 T02220200,2025-09-12T05:00:42Z,2025-09-12T01:00:42Z,Jackson-Medgar Wiley Evers International Airport,32.311199,-90.075897,US,US-MS
KJAS,"Jasper/Bell Fld, TX, US",2025-09-12T04:55:00Z,2025-09-11 23:55:00,NA,23,23,0,0,0,7,1019,METAR KJAS 120455Z AUTO 00000KT 7SM 23/23 A3009 RMK AO2,2025-09-12T05:00:41Z,2025-09-12T01:00:41Z,Jasper County Airport Bell Field,30.8857,-94.034897,US,US-TX
KJAX,"Jacksonville Intl, FL, US",2025-09-12T04:56:00Z,2025-09-12 00:56:00,VFR,21.1,20,330,7,0,NA,1017.4,METAR KJAX 120456Z 33007KT 10SM BKN250 21/20 A3004 RMK AO2 SLP173 T02110200 402940183 $,2025-09-12T05:00:41Z,2025-09-12T01:00:41Z,Jacksonville International Airport,30.492469,-81.687813,US,US-FL
KJBR,"Jonesboro Muni, AR, US",2025-09-12T04:53:00Z,2025-09-11 23:53:00,VFR,22.2,17.8,0,0,0,NA,1019.4,METAR KJBR 120453Z AUTO 00000KT 10SM CLR 22/18 A3010 RMK AO2 SLP189 T02220178 $,2025-09-12T05:00:42Z,2025-09-12T01:00:42Z,Jonesboro Municipal Airport,35.83169937133789,-90.64640045166016,US,US-AR
KJCT,"Junction/Kimble Cnty, TX, US",2025-09-12T04:51:00Z,2025-09-11 23:51:00,VFR,20,16.1,290,3,0,NA,1020.4,METAR KJCT 120451Z AUTO 29003KT 10SM CLR 20/16 A3013 RMK AO2 SLP169 T02000161,2025-09-12T05:00:42Z,2025-09-12T01:00:42Z,Kimble County Airport,30.5112991333,-99.7634963989,US,US-TX
KJDD,"Mineola/Wood Cnty, TX, US",2025-09-12T04:55:00Z,2025-09-12 04:55:00,VFR,22.3,21.1,0,0,0,NA,1018.7,METAR KJDD 120455Z AUTO 00000KT 10SM CLR 22/21 A3008 RMK AO2 T02230211 $,2025-09-12T05:00:42Z,2025-09-12T01:00:42Z,Wood County Airport - Collins Field,32.742199,-95.496498,US,US-TX
KJDN,"Jordan Arpt, MT, US",2025-09-12T04:48:00Z,2025-09-11 22:48:00,NA,14.4,8.3,300,5,0,NA,1014.3,METAR KJDN 120448Z AUTO 30005KT 14/08 A2995 RMK AO1 SLP134 T01440083,2025-09-12T05:00:42Z,2025-09-12T01:00:42Z,Jordan Airport,47.3288,-106.953003,US,US-MT
KJEF,"Jefferson City Mem, MO, US",2025-09-12T04:53:00Z,2025-09-11 23:53:00,VFR,21.7,17.2,140,4,0,NA,1019.4,METAR KJEF 120453Z AUTO 14004KT 10SM CLR 22/17 A3010 RMK AO2 SLP178 T02170172,2025-09-12T05:00:42Z,2025-09-12T01:00:42Z,Jefferson City Memorial Airport,38.5912017822,-92.1560974121,US,US-MO
KJER,"Jerome Cnty Arpt, ID, US",2025-09-12T04:53:00Z,2025-09-12 04:53:00,VFR,15,6.7,300,5,0,NA,1017.7,METAR KJER 120453Z AUTO 30005KT 10SM CLR 15/07 A3005 RMK AO2 SLP150 T01500067,2025-09-12T05:00:42Z,2025-09-12T01:00:42Z,Jerome County Airport,42.72669982910156,-114.45700073242188,US,US-ID
KJES,"Jesup/Wayne Cnty, GA, US",2025-09-12T04:55:00Z,2025-09-12 04:55:00,VFR,20,19,0,0,0,NA,1019.4,METAR KJES 120455Z AUTO 00000KT 10SM CLR 20/19 A3010 RMK AO2,2025-09-12T05:00:42Z,2025-09-12T01:00:42Z,Jesup Wayne County Airport,31.554001,-81.8825,US,US-GA
KJFK,"New York/JF Kennedy Intl, NY, US",2025-09-12T04:51:00Z,2025-09-12 00:51:00,VFR,18.9,15,240,5,0,NA,1020.4,METAR KJFK 120451Z 24005KT 10SM FEW250 19/15 A3013 RMK AO2 SLP203 T01890150 402670150 $,2025-09-12T05:00:42Z,2025-09-12T01:00:42Z,John F Kennedy International Airport,40.639447,-73.779317,US,US-NY
KJFX,"Jasper/Walker Cnty, AL, US",2025-09-12T04:55:00Z,2025-09-12 04:55:00,VFR,19,19,0,0,0,9,1020.1,METAR KJFX 120455Z AUTO 00000KT 9SM CLR 19/19 A3012 RMK AO2,2025-09-12T05:00:42Z,2025-09-12T01:00:42Z,Walker County Airport Bevill Field,33.902,-87.314201,US,US-AL
KJFX,"Jasper/Walker Cnty, AL, US",2025-09-12T05:15:00Z,2025-09-12 05:15:00,MVFR,19,19,0,0,0,5,1020.4,METAR KJFX 120515Z AUTO 00000KT 5SM BR CLR 19/19 A3013 RMK AO2,2025-09-12T05:17:19Z,2025-09-12T01:17:19Z,Walker County Airport Bevill Field,33.902,-87.314201,US,US-AL
KJFZ,"Tazewell Cnty, VA, US",2025-09-12T04:55:00Z,2025-09-12 04:55:00,VFR,14.5,10.2,0,0,0,NA,1024.1,METAR KJFZ 120455Z AUTO 00000KT 10SM CLR 15/10 A3024 RMK AO2 T01450102,2025-09-12T05:00:42Z,2025-09-12T01:00:42Z,Tazewell County Airport,37.063702,-81.798302,US,US-VA
KJFZ,"Tazewell Cnty, VA, US",2025-09-12T05:15:00Z,2025-09-12 05:15:00,VFR,14.6,10,0,0,0,NA,1024.1,METAR KJFZ 120515Z AUTO 00000KT 10SM CLR 15/10 A3024 RMK AO2 T01460100,2025-09-12T05:17:19Z,2025-09-12T01:17:19Z,Tazewell County Airport,37.063702,-81.798302,US,US-VA
KJGG,"Williamsburg-Jamestown Arpt, VA, US",2025-09-12T04:55:00Z,2025-09-12 04:55:00,MVFR,NA,NA,0,0,0,4,1020.1,METAR KJGG 120455Z AUTO 00000KT 4SM HZ CLR A3012 RMK AO2 4//////// $,2025-09-12T05:00:42Z,2025-09-12T01:00:42Z,Williamsburg Jamestown Airport,37.239201,-76.716103,US,US-VA
KJHW,"Jamestown/Chautauqua Cnty, NY, US",2025-09-12T04:56:00Z,2025-09-12 00:56:00,VFR,14.4,10.6,0,0,0,NA,1024.5,METAR KJHW 120456Z AUTO 00000KT 10SM CLR 14/11 A3025 RMK AO2 SLP242 T01440106 402330089,2025-09-12T05:00:41Z,2025-09-12T01:00:41Z,Chautauqua County-Jamestown Airport,42.15425,-79.254008,US,US-NY
KJKA,"Gulf Shores/Edwards Arpt, AL, US",2025-09-12T04:55:00Z,2025-09-11 23:55:00,VFR,21,19,0,0,0,NA,1018.4,METAR KJKA 120455Z AUTO 00000KT 10SM CLR 21/19 A3007 RMK AO2,2025-09-12T05:00:42Z,2025-09-12T01:00:42Z,Jack Edwards National Airport,30.290501,-87.671799,US,US-AL
KJKJ,"Moorhead Muni, MN, US",2025-09-12T04:55:00Z,2025-09-12 04:55:00,VFR,19,16,140,5,0,NA,1016.3,METAR KJKJ 120455Z AUTO 14005KT 10SM CLR 19/16 A3001 RMK AO2,2025-09-12T05:00:42Z,2025-09-12T01:00:42Z,Moorhead Municipal Airport,46.83917,-96.663703,US,US-MN
KJKJ,"Moorhead Muni, MN, US",2025-09-12T05:15:00Z,2025-09-12 05:15:00,VFR,19,16,140,6,0,NA,1016.3,METAR KJKJ 120515Z AUTO 14006KT 10SM CLR 19/16 A3001 RMK AO2 LTG DSNT NW,2025-09-12T05:17:19Z,2025-09-12T01:17:19Z,Moorhead Municipal Airport,46.83917,-96.663703,US,US-MN
KJKL,"Jackson/Carroll Arpt, KY, US",2025-09-12T04:53:00Z,2025-09-12 04:53:00,VFR,18.9,11.1,0,0,0,NA,1022.4,METAR KJKL 120453Z AUTO 00000KT 10SM CLR 19/11 A3019 RMK AO2 SLP209 T01890111 402670156,2025-09-12T05:00:42Z,2025-09-12T01:00:42Z,Julian Carroll Airport,37.59389877319336,-83.31729888916016,US,US-KY
KJLN,"Joplin Rgnl, MO, US",2025-09-12T04:53:00Z,2025-09-11 23:53:00,VFR,22.8,16.1,150,5,0,NA,1019.7,METAR KJLN 120453Z AUTO 15005KT 10SM CLR 23/16 A3011 RMK AO2 SLP186 T02280161,2025-09-12T05:00:42Z,2025-09-12T01:00:42Z,Joplin Regional Airport,37.151798,-94.498299,US,US-MO
KJMR,"Mora Muni, MN, US",2025-09-12T04:55:00Z,2025-09-12 04:55:00,VFR,15,15,0,0,0,NA,1021.8,METAR KJMR 120455Z AUTO 00000KT 10SM CLR 15/15 A3017 RMK AO2,2025-09-12T05:00:42Z,2025-09-12T01:00:42Z,Mora Municipal Airport,45.886101,-93.271796,US,US-MN
KJMR,"Mora Muni, MN, US",2025-09-12T05:15:00Z,2025-09-12 05:15:00,VFR,15,15,100,4,0,NA,1021.8,METAR KJMR 120515Z AUTO 10004KT 10SM CLR 15/15 A3017 RMK AO2,2025-09-12T05:17:19Z,2025-09-12T01:17:19Z,Mora Municipal Airport,45.886101,-93.271796,US,US-MN
KJMS,"Jamestown Rgnl, ND, US",2025-09-12T04:56:00Z,2025-09-11 23:56:00,VFR,20,17.8,140,11,0,NA,1014.3,METAR KJMS 120456Z AUTO 14011KT 10SM CLR 20/18 A2995 RMK AO2 SLP136 T02000178,2025-09-12T05:00:41Z,2025-09-12T01:00:41Z,Jamestown Regional Airport,46.92969894,-98.67819977,US,US-ND
KJNX,"Smithfield/Johnston Rgnl, NC, US",2025-09-12T04:50:00Z,2025-09-12 04:50:00,VFR,18,18,0,0,0,NA,1020.1,METAR KJNX 120450Z AUTO 00000KT 10SM SCT090 SCT110 18/18 A3012 RMK AO2,2025-09-12T05:00:42Z,2025-09-12T01:00:42Z,Johnston Regional Airport,35.540901,-78.390297,US,US-NC
KJNX,"Smithfield/Johnston Rgnl, NC, US",2025-09-12T05:10:00Z,2025-09-12 05:10:00,VFR,17,17,0,0,0,NA,1020.1,METAR KJNX 120510Z AUTO 00000KT 10SM CLR 17/17 A3012 RMK AO2,2025-09-12T05:17:20Z,2025-09-12T01:17:20Z,Johnston Regional Airport,35.540901,-78.390297,US,US-NC
KJOT,"Joliet Rgnl, IL, US",2025-09-12T04:55:00Z,2025-09-11 23:55:00,VFR,17.5,15.9,0,0,0,NA,1023.1,METAR KJOT 120455Z AUTO 00000KT 10SM CLR 18/16 A3021 RMK AO2 T01750159,2025-09-12T05:00:42Z,2025-09-12T01:00:42Z,Joliet Regional Airport,41.51779938,-88.17549896,US,US-IL
KJQF,"Concord Rgnl, NC, US",2025-09-12T04:45:00Z,2025-09-12 00:45:00,VFR,16,15,0,0,0,NA,1021.8,METAR KJQF 120445Z AUTO 00000KT 10SM CLR 16/15 A3017 RMK AO2,2025-09-12T05:00:42Z,2025-09-12T01:00:42Z,Concord-Padgett Regional Airport,35.387798,-80.709099,US,US-NC
KJQF,"Concord Rgnl, NC, US",2025-09-12T05:05:00Z,2025-09-12 01:05:00,VFR,15,15,0,0,0,NA,1021.8,METAR KJQF 120505Z AUTO 00000KT 10SM CLR 15/15 A3017 RMK AO2,2025-09-12T05:17:20Z,2025-09-12T01:17:20Z,Concord-Padgett Regional Airport,35.387798,-80.709099,US,US-NC
KJSO,"Jacksonvil0e/Cherokee Cnty, TX, US",2025-09-12T04:55:00Z,2025-09-11 23:55:00,VFR,26.4,20,160,4,0,NA,1018.7,METAR KJSO 120455Z AUTO 16004KT 10SM CLR 26/20 A3008 RMK AO2 T02640200,2025-09-12T05:00:41Z,2025-09-12T01:00:41Z,Cherokee County Airport,31.8693008423,-95.2173995972,US,US-TX
KJST,"Johnstown/Murtha Arpt, PA, US",2025-09-12T04:54:00Z,2025-09-12 00:54:00,VFR,15,7.8,0,0,0,NA,1023.5,METAR KJST 120454Z AUTO 00000KT 10SM CLR 15/08 A3022 RMK AO2 SLP224 T01500078 402330094,2025-09-12T05:00:42Z,2025-09-12T01:00:42Z,John Murtha Johnstown Cambria County Airport,40.31610107421875,-78.83390045166016,US,US-PA
KJSV,"Sallisaw Muni, OK, US",2025-09-12T04:55:00Z,2025-09-12 04:55:00,VFR,21,21,0,0,0,9,1019,METAR KJSV 120455Z AUTO 00000KT 9SM CLR 21/21 A3009 RMK AO2,2025-09-12T05:00:42Z,2025-09-12T01:00:42Z,Sallisaw Municipal Airport,35.438202,-94.802803,US,US-OK
KJVL,"Janesville/S Wisconsin Rgnl, WI, US",2025-09-12T04:35:00Z,2025-09-11 23:35:00,VFR,14,13,70,3,0,NA,1023.5,METAR KJVL 120435Z AUTO 07003KT 10SM CLR 14/13 A3022 RMK AO2,2025-09-12T05:00:42Z,2025-09-12T01:00:42Z,Southern Wisconsin Regional Airport,42.620300293,-89.0416030884,US,US-WI
KJVL,"Janesville/S Wisconsin Rgnl, WI, US",2025-09-12T04:55:00Z,2025-09-11 23:55:00,VFR,13,13,70,3,0,NA,1023.1,METAR KJVL 120455Z AUTO 07003KT 10SM CLR 13/13 A3021 RMK AO2,2025-09-12T05:17:20Z,2025-09-12T01:17:20Z,Southern Wisconsin Regional Airport,42.620300293,-89.0416030884,US,US-WI
KJVY,"Jeffersonville/Clark Rgnl, IN, US",2025-09-12T04:35:00Z,2025-09-12 04:35:00,VFR,16,16,0,0,0,8,1020.4,METAR KJVY 120435Z AUTO 00000KT 8SM CLR 16/16 A3013 RMK AO2,2025-09-12T05:00:42Z,2025-09-12T01:00:42Z,Clark Regional Airport,38.365398,-85.738197,US,US-IN
KJVY,"Jeffersonville/Clark Rgnl, IN, US",2025-09-12T04:55:00Z,2025-09-12 04:55:00,VFR,16,16,0,0,0,7,1020.7,METAR KJVY 120455Z AUTO 00000KT 7SM SCT002 16/16 A3014 RMK AO2,2025-09-12T05:17:20Z,2025-09-12T01:17:20Z,Clark Regional Airport,38.365398,-85.738197,US,US-IN
KJWG,"Watonga Rgnl, OK, US",2025-09-12T04:55:00Z,2025-09-12 04:55:00,VFR,23.1,14.8,170,8,0,NA,1019.4,METAR KJWG 120455Z AUTO 17008KT 10SM CLR 23/15 A3010 RMK AO2 T02310148,2025-09-12T05:00:41Z,2025-09-12T01:00:41Z,Watonga Regional Airport,35.8647,-98.420799,US,US-OK
KJWY,"Midlothian/Mid-Way Rgnl, TX, US",2025-09-12T04:55:00Z,2025-09-12 04:55:00,VFR,22.8,20.3,0,0,0,NA,1019.4,METAR KJWY 120455Z AUTO 00000KT 10SM CLR 23/20 A3010 RMK AO2 T02280203 $,2025-09-12T05:00:41Z,2025-09-12T01:00:41Z,Mid-Way Regional Airport,32.4587,-96.912399,US,US-TX
KJXI,"Gilmer/Stephens Fld, TX, US",2025-09-12T04:55:00Z,2025-09-12 04:55:00,VFR,22.1,19.9,0,0,0,NA,1019.4,METAR KJXI 120455Z AUTO 00000KT 10SM SCT095 22/20 A3010 RMK AO2 T02210199,2025-09-12T05:00:41Z,2025-09-12T01:00:41Z,Fox Stephens Field Gilmer Municipal Airport,32.699001,-94.948898,US,US-TX
KJXI,"Gilmer/Stephens Fld, TX, US",2025-09-12T05:15:00Z,2025-09-12 05:15:00,VFR,22.5,20,0,0,0,NA,1019.4,METAR KJXI 120515Z AUTO 00000KT 10SM SCT075 SCT085 SCT110 23/20 A3010 RMK AO2 T02250200,2025-09-12T05:17:19Z,2025-09-12T01:17:19Z,Fox Stephens Field Gilmer Municipal Airport,32.699001,-94.948898,US,US-TX
KJXN,"Jackson Cnty, MI, US",2025-09-12T04:56:00Z,2025-09-12 00:56:00,VFR,12.2,11.1,0,0,0,NA,1024.1,METAR KJXN 120456Z AUTO 00000KT 10SM CLR 12/11 A3024 RMK AO2 SLP238 T01220111 402720078,2025-09-12T05:00:41Z,2025-09-12T01:00:41Z,Jackson County Airport/Reynolds Field,42.260509,-84.463019,US,US-MI
KJYG,"St James Muni, MN, US",2025-09-12T04:55:00Z,2025-09-12 04:55:00,VFR,18,16,140,7,0,NA,1018.7,METAR KJYG 120455Z AUTO 14007KT 10SM CLR 18/16 A3008 RMK AO2,2025-09-12T05:00:42Z,2025-09-12T01:00:42Z,St James Municipal Airport,43.986301,-94.557899,US,US-MN
KJYG,"St James Muni, MN, US",2025-09-12T05:15:00Z,2025-09-12 05:15:00,VFR,17,16,130,6,0,NA,1018.7,METAR KJYG 120515Z AUTO 13006KT 10SM CLR 17/16 A3008 RMK AO2,2025-09-12T05:17:19Z,2025-09-12T01:17:19Z,St James Municipal Airport,43.986301,-94.557899,US,US-MN
KJYL,"Sylvania/Plantation Arpk, GA, US",2025-09-12T04:55:00Z,2025-09-12 04:55:00,VFR,18.7,18.5,0,0,0,NA,1019.7,METAR KJYL 120455Z AUTO 00000KT 10SM CLR 19/19 A3011 RMK AO2 T01870185,2025-09-12T05:00:41Z,2025-09-12T01:00:41Z,Plantation Airpark,32.645302,-81.597099,US,US-GA
KJYO,"Leesburg Exec, VA, US",2025-09-12T04:55:00Z,2025-09-12 04:55:00,VFR,17,17,0,0,0,NA,1021.8,METAR KJYO 120455Z AUTO 00000KT 10SM CLR 17/17 A3017 RMK AO2,2025-09-12T05:00:41Z,2025-09-12T01:00:41Z,Leesburg Executive Airport,39.077999,-77.557503,US,US-VA
KJYO,"Leesburg Exec, VA, US",2025-09-12T05:15:00Z,2025-09-12 05:15:00,VFR,17,17,270,3,0,NA,1021.8,METAR KJYO 120515Z AUTO 27003KT 10SM CLR 17/17 A3017 RMK AO2,2025-09-12T05:17:19Z,2025-09-12T01:17:19Z,Leesburg Executive Airport,39.077999,-77.557503,US,US-VA
KJYR,"York Muni, NE, US",2025-09-12T04:55:00Z,2025-09-12 04:55:00,VFR,23,19,160,12,0,NA,1015.7,METAR KJYR 120455Z AUTO 16012KT 10SM CLR 23/19 A2999 RMK AO2,2025-09-12T05:00:42Z,2025-09-12T01:00:42Z,York Municipal Airport,40.896801,-97.622803,US,US-NE
KJZI,"Charleston Exec, SC, US",2025-09-12T04:55:00Z,2025-09-12 04:55:00,VFR,20,20,350,3,0,NA,1018.7,METAR KJZI 120455Z AUTO 35003KT 10SM CLR 20/20 A3008 RMK AO2,2025-09-12T05:00:42Z,2025-09-12T01:00:42Z,Charleston Executive Airport,32.698238,-80.005675,US,US-SC
KK62,"Falmouth/Snyder Arpt, KY, US",2025-09-12T04:35:00Z,2025-09-12 04:35:00,VFR,15,12,0,0,0,NA,1022.1,METAR KK62 120435Z AUTO 00000KT 10SM CLR 15/12 A3018 RMK AO2,2025-09-12T05:00:44Z,2025-09-12T01:00:44Z,Gene Snyder Airport,38.704201,-84.391602,US,US-KY
KK62,"Falmouth/Snyder Arpt, KY, US",2025-09-12T04:55:00Z,2025-09-12 04:55:00,VFR,16,12,60,3,0,NA,1021.8,METAR KK62 120455Z AUTO 06003KT 10SM CLR 16/12 A3017 RMK AO2,2025-09-12T05:17:22Z,2025-09-12T01:17:22Z,Gene Snyder Airport,38.704201,-84.391602,US,US-KY
KK82,"Smith Center Arpt, KS, US",2025-09-12T04:55:00Z,2025-09-12 04:55:00,VFR,21.8,18.1,130,11,0,NA,1015.7,METAR KK82 120455Z AUTO 13011KT 10SM CLR 22/18 A2999 RMK AO2 T02180181,2025-09-12T05:00:44Z,2025-09-12T01:00:44Z,Smith Center Municipal Airport,39.76236,-98.794493,US,US-KS
KK83,"Sabetha Muni, KS, US",2025-09-12T04:55:00Z,2025-09-12 04:55:00,VFR,22.5,17.8,170,9,0,NA,1018.7,METAR KK83 120455Z AUTO 17009KT 10SM CLR 23/18 A3008 RMK AO2 T02250178,2025-09-12T05:00:44Z,2025-09-12T01:00:44Z,Sabetha Municipal Airport,39.905962,-95.776263,US,US-KS
KK88,"Iola/Allen Cnty, KS, US",2025-09-12T04:55:00Z,2025-09-12 04:55:00,VFR,21,19,170,4,0,NA,1018.7,METAR KK88 120455Z AUTO 17004KT 10SM CLR 21/19 A3008 RMK AO2,2025-09-12T05:00:44Z,2025-09-12T01:00:44Z,Allen County Airport,37.870098,-95.386398,US,US-KS
KKLS,"Kelso/Longview Arpt, WA, US",2025-09-12T03:56:00Z,2025-09-11 20:56:00,MVFR,16.7,12.8,300,4,0,NA,1019,METAR KKLS 120356Z AUTO 30004KT 10SM OVC019 17/13 A3009 RMK AO2 SLP192 T01670128,2025-09-12T05:00:44Z,2025-09-12T01:00:44Z,Southwest Washington Regional Airport,46.11800003049999,-122.898002625,US,US-WA
KL08,"Borrego Springs Arpt, CA, US",2025-09-12T04:55:00Z,2025-09-11 21:55:00,VFR,26,12,340,14,21,NA,1009.2,METAR KL08 120455Z AUTO 34014G21KT 10SM CLR 26/12 A2980 RMK AO2,2025-09-12T05:00:44Z,2025-09-12T01:00:44Z,Borrego Valley Airport,33.2589988708,-116.320999146,US,US-CA
KL08,"Borrego Springs Arpt, CA, US",2025-09-12T05:15:00Z,2025-09-11 22:15:00,VFR,26,13,330,17,0,NA,1009.6,METAR KL08 120515Z AUTO 33017KT 10SM CLR 26/13 A2981 RMK AO2,2025-09-12T05:17:22Z,2025-09-12T01:17:22Z,Borrego Valley Airport,33.2589988708,-116.320999146,US,US-CA
KL35,"Big Bear City Arpt, CA, US",2025-09-12T04:55:00Z,2025-09-11 21:55:00,VFR,6,0,0,0,0,NA,1021.1,METAR KL35 120455Z AUTO 00000KT 10SM CLR 06/00 A3015 RMK AO2,2025-09-12T05:00:44Z,2025-09-12T01:00:44Z,Big Bear City Airport,34.263802,-116.856003,US,US-CA
KLAA,"Lamar Muni, CO, US",2025-09-12T04:53:00Z,2025-09-11 22:53:00,VFR,20,15,0,0,0,NA,1018.7,METAR KLAA 120453Z AUTO 00000KT 10SM CLR 20/15 A3008 RMK AO2 SLP132 T02000150,2025-09-12T05:00:44Z,2025-09-12T01:00:44Z,Southeast Colorado Regional Airport,38.066407,-102.691373,US,US-CO
KLAF,"Lafayette/Purdue Univ Arpt, IN, US",2025-09-12T04:54:00Z,2025-09-12 00:54:00,VFR,16.7,12.2,0,0,0,NA,1022.1,METAR KLAF 120454Z AUTO 00000KT 10SM CLR 17/12 A3018 RMK AO2 SLP216 T01670122 402940144,2025-09-12T05:00:44Z,2025-09-12T01:00:44Z,Purdue University Airport,40.412875,-86.939363,US,US-IN
KLAL,"Lakeland/Linder Intl, FL, US",2025-09-12T04:50:00Z,2025-09-12 00:50:00,VFR,25,22,360,5,0,NA,1017,METAR KLAL 120450Z 36005KT 10SM SCT100 25/22 A3003,2025-09-12T05:00:44Z,2025-09-12T01:00:44Z,Lakeland Linder International Airport,27.987656,-82.018776,US,US-FL
KLAM,"Los Alamos Arpt, NM, US",2025-09-12T04:55:00Z,2025-09-11 22:55:00,VFR,19.9,1.8,180,7,0,NA,1026.8,METAR KLAM 120455Z AUTO 18007KT 10SM SCT100 BKN130 20/02 A3032 RMK AO2 T01990018 $,2025-09-12T05:00:44Z,2025-09-12T01:00:44Z,Los Alamos Airport,35.8797988892,-106.268997192,US,US-NM
KLAN,"Lansing/Capital City Arpt, MI, US",2025-09-12T04:53:00Z,2025-09-12 00:53:00,VFR,17.2,12.2,130,7,0,NA,1023.8,METAR KLAN 120453Z 13007KT 10SM CLR 17/12 A3023 RMK AO2 SLP232 T01720122 402610094,2025-09-12T05:00:44Z,2025-09-12T01:00:44Z,Capital City Airport,42.77870178222656,-84.58740234375,US,US-MI
KLAR,"Laramie Rgnl, WY, US",2025-09-12T04:53:00Z,2025-09-11 22:53:00,VFR,16.1,3.3,220,8,0,NA,1023.8,METAR KLAR 120453Z AUTO 22008KT 10SM FEW120 16/03 A3023 RMK AO2 SLP119 T01610033,2025-09-12T05:00:44Z,2025-09-12T01:00:44Z,Laramie Regional Airport,41.31209945678711,-105.6750030517578,US,US-WY
KLAS,"Las Vegas/Reid Intl, NV, US",2025-09-12T04:56:00Z,2025-09-11 21:56:00,VFR,26.7,-1.1,220,8,0,NA,1011.3,METAR KLAS 120456Z 22008KT 10SM CLR 27/M01 A2986 RMK AO2 SLP087 T02671011,2025-09-12T05:00:43Z,2025-09-12T01:00:43Z,Harry Reid International Airport,36.083361,-115.151817,US,US-NV
KLAW,"Lawton-Fort Sill Rgnl, OK, US",2025-09-12T04:53:00Z,2025-09-11 23:53:00,VFR,25,15.6,140,6,0,NA,1018.7,METAR KLAW 120453Z AUTO 14006KT 10SM CLR 25/16 A3008 RMK AO2 SLP173 T02500156,2025-09-12T05:00:44Z,2025-09-12T01:00:44Z,Lawton Fort Sill Regional Airport,34.567699,-98.416603,US,US-OK
KLAX,"Los Angeles Intl, CA, US",2025-09-12T04:53:00Z,2025-09-11 21:53:00,VFR,19.4,16.7,200,4,0,NA,1013.3,METAR KLAX 120453Z 20004KT 10SM FEW011 FEW014 19/17 A2992 RMK AO2 SLP129 T01940167 $,2025-09-12T05:00:44Z,2025-09-12T01:00:44Z,Los Angeles International Airport,33.942501,-118.407997,US,US-CA
KLBB,"Lubbock Intl Arpt, TX, US",2025-09-12T04:53:00Z,2025-09-11 23:53:00,VFR,25,12.2,160,9,0,NA,1021.8,METAR KLBB 120453Z 16009KT 10SM CLR 25/12 A3017 RMK AO2 SLP160 T02500122,2025-09-12T05:00:44Z,2025-09-12T01:00:44Z,Lubbock Preston Smith International Airport,33.663601,-101.822998,US,US-TX
KLBE,"Latrobe/Palmer Rgnl, PA, US",2025-09-12T04:55:00Z,2025-09-12 00:55:00,VFR,11,10,0,0,0,NA,1023.1,METAR KLBE 120455Z AUTO 00000KT 10SM CLR 11/10 A3021 RMK AO2,2025-09-12T05:00:44Z,2025-09-12T01:00:44Z,Arnold Palmer Regional Airport,40.275902,-79.4048,US,US-PA
KLBE,"Latrobe/Palmer Rgnl, PA, US",2025-09-12T05:15:00Z,2025-09-12 01:15:00,VFR,12,11,0,0,0,NA,1023.1,METAR KLBE 120515Z AUTO 00000KT 10SM CLR 12/11 A3021 RMK AO2,2025-09-12T05:17:22Z,2025-09-12T01:17:22Z,Arnold Palmer Regional Airport,40.275902,-79.4048,US,US-PA
KLBF,"N Platte/Lee Bird Fld, NE, US",2025-09-12T04:53:00Z,2025-09-11 23:53:00,VFR,20.6,18.9,120,5,0,NA,1013.3,METAR KLBF 120453Z AUTO 12005KT 10SM CLR 21/19 A2992 RMK AO2 SLP108 T02060189,2025-09-12T05:00:44Z,2025-09-12T01:00:44Z,North Platte Regional Airport Lee Bird Field,41.12620163,-100.6839981,US,US-NE
KLBL,"Liberal/Mid America Rgnl, KS, US",2025-09-12T04:56:00Z,2025-09-11 23:56:00,VFR,19.4,13.3,190,8,0,NA,1018.7,METAR KLBL 120456Z AUTO 19008KT 10SM CLR 19/13 A3008 RMK AO2 SLP155 T01940133 403500167 PNO $,2025-09-12T05:00:43Z,2025-09-12T01:00:43Z,Liberal Mid-America Regional Airport,37.0442009,-100.9599991,US,US-KS
KLBO,"Lebanon/Jones Arpt, MO, US",2025-09-12T04:55:00Z,2025-09-12 04:55:00,VFR,22,17,0,0,0,NA,1020.7,METAR KLBO 120455Z AUTO 00000KT 10SM CLR 22/17 A3014 RMK AO2,2025-09-12T05:00:44Z,2025-09-12T01:00:44Z,Floyd W. Jones Lebanon Airport,37.6483,-92.652397,US,US-MO
KLBO,"Lebanon/Jones Arpt, MO, US",2025-09-12T05:15:00Z,2025-09-12 05:15:00,VFR,23,17,200,3,0,NA,1020.7,METAR KLBO 120515Z AUTO 20003KT 10SM CLR 23/17 A3014 RMK AO2,2025-09-12T05:17:22Z,2025-09-12T01:17:22Z,Floyd W. Jones Lebanon Airport,37.6483,-92.652397,US,US-MO
KLBT,"Lumberton Muni, NC, US",2025-09-12T04:56:00Z,2025-09-12 00:56:00,VFR,18.9,17.8,0,0,0,NA,1019.4,METAR KLBT 120456Z AUTO 00000KT 10SM OVC090 19/18 A3010 RMK AO2 SLP192 T01890178 402560189,2025-09-12T05:00:43Z,2025-09-12T01:00:43Z,Lumberton Regional Airport,34.610773,-79.05943,US,US-NC
KLBX,"Angleton/Texas Gulf Coast Rgnl, TX, US",2025-09-12T04:53:00Z,2025-09-11 23:53:00,VFR,22.2,21.7,0,0,0,NA,1018.4,METAR KLBX 120453Z AUTO 00000KT 10SM CLR 22/22 A3007 RMK AO2 SLP182 T02220217,2025-09-12T05:00:44Z,2025-09-12T01:00:44Z,Texas Gulf Coast Regional Airport,29.108601,-95.462097,US,US-TX
KLCG,"Wayne Muni, NE, US",2025-09-12T04:55:00Z,2025-09-12 04:55:00,VFR,21.9,19,150,8,0,NA,1016.3,METAR KLCG 120455Z AUTO 15008KT 10SM CLR 22/19 A3001 RMK AO2 T02190190,2025-09-12T05:00:44Z,2025-09-12T01:00:44Z,Wayne Municipal Airport / Stan Morris Field,42.241901,-96.9814,US,US-NE
KLCH,"Lake Charles Rgnl, LA, US",2025-09-12T04:53:00Z,2025-09-11 23:53:00,VFR,23.9,22.2,0,0,0,NA,1018.7,METAR KLCH 120453Z 00000KT 10SM CLR 24/22 A3008 RMK AO2 SLP194 T02390222,2025-09-12T05:00:44Z,2025-09-12T01:00:44Z,Lake Charles Regional Airport,30.126100540161133,-93.223297119140625,US,US-LA
KLCI,"Laconia Muni, NH, US",2025-09-12T04:56:00Z,2025-09-12 00:56:00,VFR,11.7,10,0,0,0,NA,1022.1,METAR KLCI 120456Z AUTO 00000KT 10SM CLR 12/10 A3018 RMK AO2 SLP218 T01170100 402610078,2025-09-12T05:00:43Z,2025-09-12T01:00:43Z,Laconia Municipal Airport,43.572701,-71.4189,US,US-NH
KLCK,"Columbus/Rickenbacker Intl, OH, US",2025-09-12T04:55:00Z,2025-09-12 00:55:00,VFR,17.1,10.8,0,0,0,NA,1022.8,METAR KLCK 120455Z AUTO 00000KT 10SM CLR 17/11 A3020 RMK AO2 T01710108,2025-09-12T05:00:44Z,2025-09-12T01:00:44Z,Rickenbacker International Airport,39.813801,-82.927803,US,US-OH
KLCQ,"Lake City/Gateway Arpt, FL, US",2025-09-12T04:55:00Z,2025-09-12 00:55:00,VFR,18,18,0,0,0,NA,1018.4,METAR KLCQ 120455Z AUTO 00000KT 10SM CLR 18/18 A3007 RMK AO2 LTG DSNT S,2025-09-12T05:00:44Z,2025-09-12T01:00:44Z,Lake City Gateway Airport,30.181999,-82.576897,US,US-FL
KLDJ,"Linden Arpt, NJ, US",2025-09-12T04:55:00Z,2025-09-12 00:55:00,VFR,18.6,10.3,290,3,0,NA,1020.7,METAR KLDJ 120455Z AUTO 29003KT 10SM CLR 19/10 A3014 RMK AO2 T01860103,2025-09-12T05:00:44Z,2025-09-12T01:00:44Z,Linden Airport,40.617401123,-74.2445983887,US,US-NJ
KLDJ,"Linden Arpt, NJ, US",2025-09-12T05:15:00Z,2025-09-12 01:15:00,VFR,18.2,10.5,0,0,0,NA,1020.7,METAR KLDJ 120515Z AUTO 00000KT 10SM CLR 18/11 A3014 RMK AO2 T01820105,2025-09-12T05:17:22Z,2025-09-12T01:17:22Z,Linden Airport,40.617401123,-74.2445983887,US,US-NJ
KLDM,"Ludington/Mason Cnty, MI, US",2025-09-12T04:55:00Z,2025-09-12 00:55:00,IFR,13,13,100,2,0,1.25,1023.5,METAR KLDM 120455Z AUTO 10002KT 1 1/4SM BR CLR 13/13 A3022 RMK AO2 VIS 1/2V5,2025-09-12T05:00:44Z,2025-09-12T01:00:44Z,Mason County Airport,43.96250153,-86.40789795,US,US-MI
KLDM,"Ludington/Mason Cnty, MI, US",2025-09-12T05:15:00Z,2025-09-12 01:15:00,LIFR,13,13,40,1,0,0.25,1023.5,METAR KLDM 120515Z AUTO 04001KT M1/4SM FG VV000 13/13 A3022 RMK AO2,2025-09-12T05:17:22Z,2025-09-12T01:17:22Z,Mason County Airport,43.96250153,-86.40789795,US,US-MI
KLEB,"Lebanon Muni, NH, US",2025-09-12T04:53:00Z,2025-09-12 00:53:00,VFR,10,8.9,0,0,0,NA,1022.4,METAR KLEB 120453Z AUTO 00000KT 10SM CLR 10/09 A3019 RMK AO2 SLP217 T01000089 402720056,2025-09-12T05:00:44Z,2025-09-12T01:00:44Z,Lebanon Municipal Airport,43.626098632799994,-72.30419921880001,US,US-NH
KLEE,"Leesburg Muni, FL, US",2025-09-12T04:53:00Z,2025-09-12 00:53:00,VFR,22.8,20.6,10,4,0,NA,1017.4,METAR KLEE 120453Z AUTO 01004KT 10SM CLR 23/21 A3004 RMK AO2 SLP172 T02280206 403170211,2025-09-12T05:00:44Z,2025-09-12T01:00:44Z,Leesburg International Airport,28.82309914,-81.80870056,US,US-FL
KLEW,"Auburn-Lewiston Muni, ME, US",2025-09-12T04:56:00Z,2025-09-12 00:56:00,VFR,11.1,9.4,0,0,0,NA,1021.8,METAR KLEW 120456Z AUTO 00000KT 10SM CLR 11/09 A3017 RMK AO2 SLP222 T01110094 402500056 PNO $,2025-09-12T05:00:43Z,2025-09-12T01:00:43Z,Auburn Lewiston Municipal Airport,44.048500061,-70.2835006714,US,US-ME
KLEX,"Lexington/Blue Grass Aprt, KY, US",2025-09-12T04:54:00Z,2025-09-12 00:54:00,VFR,16.1,11.7,0,0,0,NA,1021.8,METAR KLEX 120454Z 00000KT 10SM CLR 16/12 A3017 RMK AO2 SLP210 T01610117 402940139 $,2025-09-12T05:00:44Z,2025-09-12T01:00:44Z,Blue Grass Airport,38.036499,-84.605904,US,US-KY
KLFK,"Lufkin/Angelina Cnty, TX, US",2025-09-12T04:53:00Z,2025-09-11 23:53:00,VFR,22.8,20.6,0,0,0,NA,1019,METAR KLFK 120453Z AUTO 00000KT 10SM CLR 23/21 A3009 RMK AO2 SLP185 T02280206,2025-09-12T05:00:44Z,2025-09-12T01:00:44Z,Angelina County Airport,31.2339992523,-94.75,US,US-TX
KLFT,"Lafayette Rgnl, LA, US",2025-09-12T04:53:00Z,2025-09-11 23:53:00,VFR,23.9,21.7,20,3,0,NA,1018.7,METAR KLFT 120453Z AUTO 02003KT 10SM CLR 24/22 A3008 RMK AO2 SLP187 T02390217,2025-09-12T05:00:44Z,2025-09-12T01:00:44Z,Lafayette Regional Airport,30.205299,-91.987602,US,US-LA
KLGA,"New York/La Guardia Arpt, NY, US",2025-09-12T04:51:00Z,2025-09-12 00:51:00,VFR,21.7,11.1,0,0,0,NA,1020.1,METAR KLGA 120451Z 00000KT 10SM FEW250 22/11 A3012 RMK AO2 SLP200 T02170111 402560178 $,2025-09-12T05:00:44Z,2025-09-12T01:00:44Z,LaGuardia Airport,40.777199,-73.872597,US,US-NY
KLGB,"Long Beach Arpt, CA, US",2025-09-12T04:53:00Z,2025-09-11 21:53:00,VFR,20,16.1,310,3,0,NA,1013.3,METAR KLGB 120453Z 31003KT 10SM CLR 20/16 A2992 RMK AO2 SLP130 T02000161 $,2025-09-12T05:00:44Z,2025-09-12T01:00:44Z,Long Beach Airport (Daugherty Field),33.816523,-118.149891,US,US-CA
KLGD,"La Grande/Union Cnty, OR, US",2025-09-12T04:56:00Z,2025-09-11 21:56:00,VFR,17.8,10.6,270,7,0,NA,1016,METAR KLGD 120456Z AUTO 27007KT 10SM CLR 18/11 A3000 RMK AO2 RAE06 SLP148 P0000 T01780106 $,2025-09-12T05:00:43Z,2025-09-12T01:00:43Z,La Grande/Union County Airport,45.2901992798,-118.007003784,US,US-OR
KLGU,"Logan/Cache Arpt, UT, US",2025-09-12T04:51:00Z,2025-09-11 22:51:00,VFR,14.4,2.2,340,5,0,NA,1016.3,METAR KLGU 120451Z AUTO 34005KT 10SM CLR 14/02 A3001 RMK AO2 SLP115 T01440022,2025-09-12T05:00:44Z,2025-09-12T01:00:44Z,Logan-Cache Airport,41.7911987305,-111.851997375,US,US-UT
KLHB,"Hearne Muni, TX, US",2025-09-12T04:55:00Z,2025-09-12 04:55:00,VFR,25,22,150,3,0,NA,1018.7,METAR KLHB 120455Z AUTO 15003KT 10SM CLR 25/22 A3008 RMK AO2 403560185,2025-09-12T05:00:44Z,2025-09-12T01:00:44Z,Hearne Municipal Airport,30.871799,-96.6222,US,US-TX
KLHM,"Lincoln Rgnl, CA, US",2025-09-12T04:55:00Z,2025-09-12 04:55:00,VFR,16,11,60,5,0,NA,1013.3,METAR KLHM 120455Z AUTO 06005KT 10SM CLR 16/11 A2992 RMK AO1,2025-09-12T05:00:43Z,2025-09-12T01:00:43Z,Lincoln Regional Karl Harder Field,38.909199,-121.350998,US,US-CA
KLHQ,"Lancaster/Fairfield Cnty, OH, US",2025-09-12T04:53:00Z,2025-09-12 04:53:00,VFR,10.6,10,0,0,0,NA,1023.1,METAR KLHQ 120453Z AUTO 00000KT 10SM CLR 11/10 A3021 RMK AO2 SLP225 T01060100 402830089,2025-09-12T05:00:44Z,2025-09-12T01:00:44Z,Fairfield County Airport,39.7556,-82.657097,US,US-OH
KLHZ,"Louisburg/Franklin Cnty, NC, US",2025-09-12T04:45:00Z,2025-09-12 00:45:00,LIFR,15,15,0,0,0,0.25,1021.1,METAR KLHZ 120445Z AUTO 00000KT 1/4SM FG BKN001 15/15 A3015 RMK AO2,2025-09-12T05:00:44Z,2025-09-12T01:00:44Z,Triangle North Executive Airport,36.0233,-78.330299,US,US-NC
KLHZ,"Louisburg/Franklin Cnty, NC, US",2025-09-12T05:05:00Z,2025-09-12 01:05:00,LIFR,14,14,0,0,0,0.5,1021.4,METAR KLHZ 120505Z AUTO 00000KT 1/2SM FG BKN001 14/14 A3016 RMK AO2,2025-09-12T05:17:22Z,2025-09-12T01:17:22Z,Triangle North Executive Airport,36.0233,-78.330299,US,US-NC
KLIC,"Limon Muni, CO, US",2025-09-12T04:55:00Z,2025-09-11 22:55:00,VFR,16.7,13.3,120,6,0,NA,1021.1,METAR KLIC 120455Z AUTO 12006KT 10SM CLR 17/13 A3015 RMK AO2 SLP130 T01670133,2025-09-12T05:00:44Z,2025-09-12T01:00:44Z,Limon Municipal Airport,39.2747993469,-103.666000366,US,US-CO
KLIT,"Little Rock/Clinton Natl, AR, US",2025-09-12T04:53:00Z,2025-09-11 23:53:00,VFR,23.9,20,0,0,0,NA,1019.4,METAR KLIT 120453Z 00000KT 10SM CLR 24/20 A3010 RMK AO2 SLP192 T02390200,2025-09-12T05:00:44Z,2025-09-12T01:00:44Z,Bill & Hillary Clinton National Airport/Adams Field,34.729582,-92.223728,US,US-AR
KLJF,"Litchfield Muni, MN, US",2025-09-12T04:55:00Z,2025-09-12 04:55:00,VFR,17,14,140,7,0,NA,1018.7,METAR KLJF 120455Z AUTO 14007KT 10SM CLR 17/14 A3008 RMK AO2,2025-09-12T05:00:44Z,2025-09-12T01:00:44Z,Litchfield Municipal Airport,45.097099,-94.507301,US,US-MN
KLJF,"Litchfield Muni, MN, US",2025-09-12T05:15:00Z,2025-09-12 05:15:00,VFR,17,14,140,6,0,NA,1019,METAR KLJF 120515Z AUTO 14006KT 10SM CLR 17/14 A3009 RMK AO2,2025-09-12T05:17:22Z,2025-09-12T01:17:22Z,Litchfield Municipal Airport,45.097099,-94.507301,US,US-MN
KLKP,"Lake Placid Arpt, NY, US",2025-09-12T04:55:00Z,2025-09-12 00:55:00,VFR,7,7,0,0,0,NA,1024.1,METAR KLKP 120455Z AUTO 00000KT 10SM SCT037 BKN044 07/07 A3024 RMK AO2,2025-09-12T05:00:44Z,2025-09-12T01:00:44Z,Lake Placid Airport,44.2644996643,-73.96189880370001,US,US-NY
KLKR,"Lancaster Cnty, SC, US",2025-09-12T04:55:00Z,2025-09-12 04:55:00,VFR,17,15,0,0,0,NA,1020.7,METAR KLKR 120455Z AUTO 00000KT 10SM CLR 17/15 A3014 RMK AO2,2025-09-12T05:00:44Z,2025-09-12T01:00:44Z,Lancaster County-Mc Whirter Field,34.7229,-80.854599,US,US-SC
KLKU,"Louisa/Freeman Fld, VA, US",2025-09-12T04:55:00Z,2025-09-12 00:55:00,IFR,14.2,14.1,270,3,0,1.25,1021.4,METAR KLKU 120455Z AUTO 27003KT 1 1/4SM BR VV007 14/14 A3016 RMK AO2 T01420141,2025-09-12T05:00:44Z,2025-09-12T01:00:44Z,Louisa County Airport / Freeman Field,38.0098,-77.9701,US,US-VA
KLKU,"Louisa/Freeman Fld, VA, US",2025-09-12T05:15:00Z,2025-09-12 01:15:00,MVFR,14.2,14.1,270,3,0,3.5,1021.4,METAR KLKU 120515Z AUTO 27003KT 3 1/2SM BR CLR 14/14 A3016 RMK AO2 T01420141,2025-09-12T05:17:22Z,2025-09-12T01:17:22Z,Louisa County Airport / Freeman Field,38.0098,-77.9701,US,US-VA
KLKV,"Lakeview/Lake Cnty, OR, US",2025-09-12T04:58:00Z,2025-09-11 21:58:00,IFR,11,10,0,0,0,NA,1020.1,SPECI KLKV 120458Z AUTO 00000KT 10SM BKN008 BKN030 OVC070 11/10 A3012 RMK AO2,2025-09-12T05:00:43Z,2025-09-12T01:00:43Z,Lake County Airport,42.1610984802,-120.399002075,US,US-OR
KLKV,"Lakeview/Lake Cnty, OR, US",2025-09-12T05:04:00Z,2025-09-11 22:04:00,VFR,11,10,0,0,0,NA,1020.1,SPECI KLKV 120504Z AUTO 00000KT 10SM SCT008 BKN031 OVC075 11/10 A3012 RMK AO2,2025-09-12T05:17:22Z,2025-09-12T01:17:22Z,Lake County Airport,42.1610984802,-120.399002075,US,US-OR
KLLJ,"Challis Arpt, ID, US",2025-09-12T04:55:00Z,2025-09-11 22:55:00,VFR,9.4,6.7,0,0,0,NA,1019.7,METAR KLLJ 120455Z AUTO 00000KT 10SM CLR 09/07 A3011 RMK AO2 SLP160 T00940067,2025-09-12T05:00:43Z,2025-09-12T01:00:43Z,Challis Airport,44.522999,-114.218002,US,US-ID
KLLN,"Levelland Muni, TX, US",2025-09-12T04:55:00Z,2025-09-12 04:55:00,VFR,22,10,170,9,0,NA,1022.4,METAR KLLN 120455Z AUTO 17009KT 10SM FEW041 FEW050 SCT060 22/10 A3019 RMK AO2,2025-09-12T05:00:44Z,2025-09-12T01:00:44Z,Levelland Municipal Airport,33.5525016784668,-102.37200164794922,US,US-TX
KLLQ,"Monticello/Ellis Fld, AR, US",2025-09-12T04:53:00Z,2025-09-12 04:53:00,VFR,23.3,17.8,0,0,0,NA,1019.4,METAR KLLQ 120453Z AUTO 00000KT 10SM CLR 23/18 A3010 RMK AO2 SLP189 T02330178,2025-09-12T05:00:44Z,2025-09-12T01:00:44Z,Monticello Municipal Ellis Field,33.638599,-91.750999,US,US-AR
KLMO,"Longmont/Brand Arpt, CO, US",2025-09-12T04:55:00Z,2025-09-12 04:55:00,VFR,19.7,8.5,350,7,0,7,1020.7,METAR KLMO 120455Z AUTO 35007KT 7SM CLR 20/09 A3014 RMK AO2 T01970085,2025-09-12T05:00:44Z,2025-09-12T01:00:44Z,Vance Brand Airport,40.1637,-105.163002,US,US-CO
KLMS,"Louisville/Winston Cnty, MS, US",2025-09-12T04:35:00Z,2025-09-11 23:35:00,VFR,22,20,0,0,0,NA,1020.4,METAR KLMS 120435Z AUTO 00000KT 10SM CLR 22/20 A3013 RMK AO2,2025-09-12T05:00:44Z,2025-09-12T01:00:44Z,Louisville Winston County Airport,33.1461982727,-89.0625,US,US-MS
KLMS,"Louisville/Winston Cnty, MS, US",2025-09-12T04:55:00Z,2025-09-11 23:55:00,VFR,22,20,0,0,0,NA,1020.4,METAR KLMS 120455Z AUTO 00000KT 10SM CLR 22/20 A3013 RMK AO2,2025-09-12T05:17:22Z,2025-09-12T01:17:22Z,Louisville Winston County Airport,33.1461982727,-89.0625,US,US-MS
KLMT,"Klamath Falls Intl, OR, US",2025-09-12T04:53:00Z,2025-09-11 21:53:00,VFR,12.2,11.1,80,3,0,NA,1019.4,METAR KLMT 120453Z AUTO 08003KT 10SM BKN055 OVC070 12/11 A3010 RMK AO2 RAE07 SLP171 P0000 T01220111,2025-09-12T05:00:44Z,2025-09-12T01:00:44Z,Crater Lake-Klamath Regional Airport,42.156101,-121.733002,US,US-OR
KLNA,"Lantana/Palm Beach Cnty, FL, US",2025-09-12T04:55:00Z,2025-09-12 00:55:00,VFR,25.9,22.9,20,4,0,NA,1014.6,METAR KLNA 120455Z AUTO 02004KT 10SM SCT018 26/23 A2996 RMK AO2 LTG DSNT NE THRU SE T02590229,2025-09-12T05:00:43Z,2025-09-12T01:00:43Z,Palm Beach County Park Airport,26.59300041,-80.08509827,US,US-FL
KLNC,"Lancaster Arpt, TX, US",2025-09-12T04:55:00Z,2025-09-12 04:55:00,NA,22.8,19.1,0,0,0,NA,1019.4,METAR KLNC 120455Z AUTO 00000KT CLR 23/19 A3010 RMK AO2 T02280191 PWINO,2025-09-12T05:00:44Z,2025-09-12T01:00:44Z,Lancaster Airport,32.577564,-96.717494,US,US-TX
KLNC,"Lancaster Arpt, TX, US",2025-09-12T05:15:00Z,2025-09-12 05:15:00,NA,22.7,18.8,0,0,0,NA,1019,METAR KLNC 120515Z AUTO 00000KT CLR 23/19 A3009 RMK AO2 T02270188 PWINO,2025-09-12T05:17:22Z,2025-09-12T01:17:22Z,Lancaster Airport,32.577564,-96.717494,US,US-TX
KLND,"Lander/Hunt Fld, WY, US",2025-09-12T04:53:00Z,2025-09-11 22:53:00,VFR,17.8,3.9,290,7,0,NA,1018.4,METAR KLND 120453Z AUTO 29007KT 10SM CLR 18/04 A3007 RMK AO2 SLP117 T01780039,2025-09-12T05:00:44Z,2025-09-12T01:00:44Z,Hunt Field,42.815201,-108.730003,US,US-WY
KLNK,"Lincoln Arpt, NE, US",2025-09-12T04:54:00Z,2025-09-11 23:54:00,VFR,24.4,17.8,160,13,0,NA,1016.3,METAR KLNK 120454Z AUTO 16013KT 10SM CLR 24/18 A3001 RMK AO2 SLP150 T02440178,2025-09-12T05:00:44Z,2025-09-12T01:00:44Z,Lincoln Airport,40.85100173950195,-96.75920104980467,US,US-NE
KLNL,"Land OLakes Arpt, WI, US",2025-09-12T04:55:00Z,2025-09-12 04:55:00,LIFR,6.7,6.7,0,0,0,0.25,1024.8,METAR KLNL 120455Z AUTO 00000KT 1/4SM FG VV002 07/07 A3026 RMK AO2 T00670067,2025-09-12T05:00:43Z,2025-09-12T01:00:43Z,Kings Land O' Lakes Airport,46.153999,-89.212097,US,US-WI
KLNN,"Willoughby/Lake Cnty Exec, OH, US",2025-09-12T04:55:00Z,2025-09-12 00:55:00,VFR,12.1,10.8,0,0,0,NA,1023.1,METAR KLNN 120455Z AUTO 00000KT 10SM CLR 12/11 A3021 RMK AO1 T01210108 402300089,2025-09-12T05:00:44Z,2025-09-12T01:00:44Z,Lake County Executive Airport,41.683998,-81.389702,US,US-OH
KLNP,"Wise/Lonesome Pine Arpt, VA, US",2025-09-12T04:55:00Z,2025-09-12 00:55:00,VFR,13,10,0,0,0,NA,1024.5,METAR KLNP 120455Z AUTO 00000KT 10SM CLR 13/10 A3025 RMK AO2,2025-09-12T05:00:44Z,2025-09-12T01:00:44Z,Lonesome Pine Airport,36.9874992371,-82.5299987793,US,US-VA
KLNP,"Wise/Lonesome Pine Arpt, VA, US",2025-09-12T05:15:00Z,2025-09-12 01:15:00,VFR,14,10,0,0,0,NA,1024.5,METAR KLNP 120515Z AUTO 00000KT 10SM CLR 14/10 A3025 RMK AO2,2025-09-12T05:17:22Z,2025-09-12T01:17:22Z,Lonesome Pine Airport,36.9874992371,-82.5299987793,US,US-VA
KLNR,"Lone Rock/Tri Cnty Rgnl, WI, US",2025-09-12T04:56:00Z,2025-09-11 23:56:00,VFR,15,13.3,130,4,0,NA,1022.8,METAR KLNR 120456Z AUTO 13004KT 10SM CLR 15/13 A3020 RMK AO2 SLP221 T01500133,2025-09-12T05:00:43Z,2025-09-12T01:00:43Z,Tri-County Regional Airport,43.2099,-90.181332,US,US-WI
KLNS,"Lancaster Arpt, PA, US",2025-09-12T04:53:00Z,2025-09-12 00:53:00,VFR,15.6,12.2,260,4,0,NA,1021.1,METAR KLNS 120453Z AUTO 26004KT 10SM CLR 16/12 A3015 RMK AO2 SLP208 T01560122 402610139 $,2025-09-12T05:00:44Z,2025-09-12T01:00:44Z,Lancaster Airport,40.121700286865234,-76.29609680175781,US,US-PA
KLOL,"Lovelock/Derby Fld, NV, US",2025-09-12T04:53:00Z,2025-09-11 21:53:00,VFR,18.3,3.9,50,6,0,NA,1016.7,METAR KLOL 120453Z AUTO 05006KT 10SM SCT095 BKN120 18/04 A3002 RMK AO2 SLP141 T01830039,2025-09-12T05:00:44Z,2025-09-12T01:00:44Z,Derby Field,40.0663986206,-118.565002441,US,US-NV
KLOM,"Philadelphia/Wings Field Arpt, PA, US",2025-09-12T04:55:00Z,2025-09-12 00:55:00,VFR,11.8,11.6,0,0,0,NA,1021.1,METAR KLOM 120455Z AUTO 00000KT 10SM SCT070 12/12 A3015 RMK AO2 T01180116,2025-09-12T05:00:44Z,2025-09-12T01:00:44Z,Wings Field,40.1375007629,-75.2650985718,US,US-PA
KLOT,"Romeoville/Lewis Univ Arpt, IL, US",2025-09-12T04:30:00Z,2025-09-11 23:30:00,VFR,17,17,50,6,0,NA,1023.5,METAR KLOT 120430Z AUTO 05006KT 10SM CLR 17/17 A3022 RMK AO2,2025-09-12T05:00:44Z,2025-09-12T01:00:44Z,Lewis University Airport,41.6073,-88.096199,US,US-IL
KLOT,"Romeoville/Lewis Univ Arpt, IL, US",2025-09-12T04:50:00Z,2025-09-11 23:50:00,VFR,17,17,50,6,0,NA,1023.5,METAR KLOT 120450Z AUTO 05006KT 10SM CLR 17/17 A3022 RMK AO2,2025-09-12T05:17:22Z,2025-09-12T01:17:22Z,Lewis University Airport,41.6073,-88.096199,US,US-IL
KLOU,"Louisville/Bowman Fld, KY, US",2025-09-12T04:53:00Z,2025-09-12 00:53:00,VFR,18.3,15,0,0,0,NA,1021.1,METAR KLOU 120453Z AUTO 00000KT 10SM CLR 18/15 A3015 RMK AO2 SLP205 T01830150 403060144,2025-09-12T05:00:44Z,2025-09-12T01:00:44Z,Bowman Field,38.2280006409,-85.6636962891,US,US-KY
KLOZ,"London-Corbin Arpt, KY, US",2025-09-12T04:53:00Z,2025-09-12 00:53:00,VFR,15.6,15,0,0,0,7,1022.1,METAR KLOZ 120453Z AUTO 00000KT 7SM CLR 16/15 A3018 RMK AO2 SLP209 T01560150 402720139,2025-09-12T05:00:44Z,2025-09-12T01:00:44Z,London-Corbin Airport/Magee Field,37.0821990967,-84.08489990230001,US,US-KY
KLPC,"Lompoc Arpt, CA, US",2025-09-12T04:51:00Z,2025-09-11 21:51:00,MVFR,17.8,16.7,300,8,14,NA,1015.3,METAR KLPC 120451Z AUTO 30008G14KT 10SM OVC013 18/17 A2998 RMK AO2 SLP152 T01780167 $,2025-09-12T05:00:44Z,2025-09-12T01:00:44Z,Lompoc Airport,34.665599823,-120.46800231900001,US,US-CA
KLPR,"Elyria/Lorain Cnty, OH, US",2025-09-12T04:53:00Z,2025-09-12 04:53:00,VFR,11.7,10.6,0,0,0,NA,1023.5,METAR KLPR 120453Z AUTO 00000KT 10SM CLR 12/11 A3022 RMK AO2 SLP230 T01170106 402500078,2025-09-12T05:00:44Z,2025-09-12T01:00:44Z,Lorain County Regional Airport,41.344299,-82.177597,US,US-OH
KLQK,"Pickens Cnty, SC, US",2025-09-12T04:55:00Z,2025-09-12 00:55:00,VFR,17.5,16.3,0,0,0,NA,1020.7,METAR KLQK 120455Z AUTO 00000KT 10SM OVC070 18/16 A3014 RMK AO2 T01750163,2025-09-12T05:00:44Z,2025-09-12T01:00:44Z,Pickens County Airport,34.8100013733,-82.70290374759999,US,US-SC
KLRD,"Laredo Intl, TX, US",2025-09-12T04:56:00Z,2025-09-11 23:56:00,VFR,27.8,23.3,130,9,0,9,1017.7,METAR KLRD 120456Z AUTO 13009KT 9SM CLR 28/23 A3005 RMK AO2 SLP171 T02780233 403780244 $,2025-09-12T05:00:43Z,2025-09-12T01:00:43Z,Laredo International Airport,27.543800354003903,-99.46160125732422,US,US-TX
KLRJ,"Le Mars Muni, IA, US",2025-09-12T04:55:00Z,2025-09-11 23:55:00,VFR,21,18,130,9,0,NA,1016.3,METAR KLRJ 120455Z AUTO 13009KT 10SM CLR 21/18 A3001 RMK AO2,2025-09-12T05:00:44Z,2025-09-12T01:00:44Z,Le Mars Municipal Airport,42.77799988,-96.1937027,US,US-IA
KLRJ,"Le Mars Muni, IA, US",2025-09-12T05:15:00Z,2025-09-12 00:15:00,VFR,21,18,130,8,0,NA,1016.3,METAR KLRJ 120515Z AUTO 13008KT 10SM CLR 21/18 A3001 RMK AO2,2025-09-12T05:17:22Z,2025-09-12T01:17:22Z,Le Mars Municipal Airport,42.77799988,-96.1937027,US,US-IA
KLRO,"Mt Pleasant Rgnl, SC, US",2025-09-12T04:55:00Z,2025-09-12 04:55:00,VFR,21,21,0,0,0,NA,1019,METAR KLRO 120455Z AUTO 00000KT 10SM CLR 21/21 A3009 RMK AO2,2025-09-12T05:00:44Z,2025-09-12T01:00:44Z,Mount Pleasant Regional Airport Faison Field,32.8978,-79.782898,US,US-SC
KLRU,"Las Cruces Intl, NM, US",2025-09-12T04:55:00Z,2025-09-11 22:55:00,VFR,24.4,5.5,130,3,0,NA,1020.1,METAR KLRU 120455Z AUTO 13003KT 10SM CLR 24/06 A3012 RMK AO2 T02440055,2025-09-12T05:00:44Z,2025-09-12T01:00:44Z,Las Cruces International Airport,32.289398,-106.921997,US,US-NM
KLRU,"Las Cruces Intl, NM, US",2025-09-12T05:15:00Z,2025-09-11 23:15:00,VFR,22.4,5.2,0,0,0,NA,1020.1,METAR KLRU 120515Z AUTO 00000KT 10SM CLR 22/05 A3012 RMK AO2 T02240052,2025-09-12T05:17:22Z,2025-09-12T01:17:22Z,Las Cruces International Airport,32.289398,-106.921997,US,US-NM
KLRY,"Harrisonville/Smith, MO, US",2025-09-12T04:55:00Z,2025-09-12 04:55:00,VFR,22,18,0,0,0,NA,1020.4,METAR KLRY 120455Z AUTO 00000KT 10SM BKN110 22/18 A3013 RMK AO2,2025-09-12T05:00:44Z,2025-09-12T01:00:44Z,Lawrence Smith Memorial Airport,38.609863,-94.343548,US,US-MO
KLRY,"Harrisonville/Smith, MO, US",2025-09-12T05:15:00Z,2025-09-12 05:15:00,VFR,21,18,0,0,0,NA,1020.4,METAR KLRY 120515Z AUTO 00000KT 10SM SCT120 21/18 A3013 RMK AO2,2025-09-12T05:17:22Z,2025-09-12T01:17:22Z,Lawrence Smith Memorial Airport,38.609863,-94.343548,US,US-MO
KLSB,"Lordsburg Muni, NM, US",2025-09-12T04:55:00Z,2025-09-11 22:55:00,VFR,23,10,0,0,0,NA,1019.4,METAR KLSB 120455Z AUTO 00000KT 10SM CLR 23/10 A3010 RMK AO2,2025-09-12T05:00:44Z,2025-09-12T01:00:44Z,Lordsburg Municipal Airport,32.3334999084,-108.692001343,US,US-NM
KLSE,"La Crosse Muni, WI, US",2025-09-12T04:53:00Z,2025-09-11 23:53:00,VFR,17.2,15,160,6,0,NA,1022.1,METAR KLSE 120453Z AUTO 16006KT 10SM CLR 17/15 A3018 RMK AO2 SLP215 T01720150,2025-09-12T05:00:46Z,2025-09-12T01:00:46Z,La Crosse Regional Airport,43.879002,-91.256699,US,US-WI
KLUD,"Decatur Muni, TX, US",2025-09-12T04:55:00Z,2025-09-12 04:55:00,VFR,26.5,17.5,180,4,0,7,1019.7,METAR KLUD 120455Z AUTO 18004KT 7SM CLR 27/18 A3011 RMK AO2 T02650175,2025-09-12T05:00:45Z,2025-09-12T01:00:45Z,Decatur Municipal Airport,33.254601,-97.580597,US,US-TX
KLUD,"Decatur Muni, TX, US",2025-09-12T05:15:00Z,2025-09-12 05:15:00,VFR,25.6,17.5,160,4,0,NA,1019.7,METAR KLUD 120515Z AUTO 16004KT 10SM CLR 26/18 A3011 RMK AO2 T02560175,2025-09-12T05:17:24Z,2025-09-12T01:17:24Z,Decatur Municipal Airport,33.254601,-97.580597,US,US-TX
KLUG,"Lewisburg/Ellington Arpt, TN, US",2025-09-12T04:35:00Z,2025-09-12 04:35:00,VFR,18,18,0,0,0,7,1020.4,METAR KLUG 120435Z AUTO 00000KT 7SM FEW075 18/18 A3013 RMK A01,2025-09-12T05:00:46Z,2025-09-12T01:00:46Z,Ellington Airport,35.507,-86.803902,US,US-TN
KLUG,"Lewisburg/Ellington Arpt, TN, US",2025-09-12T04:55:00Z,2025-09-12 04:55:00,VFR,18,18,0,0,0,NA,1020.4,METAR KLUG 120455Z AUTO 00000KT 10SM CLR 18/18 A3013 RMK A01,2025-09-12T05:17:24Z,2025-09-12T01:17:24Z,Ellington Airport,35.507,-86.803902,US,US-TN
KLUK,"Cincinnati/Lunken Fld, OH, US",2025-09-12T04:53:00Z,2025-09-12 00:53:00,VFR,15,13.3,0,0,0,NA,1022.1,METAR KLUK 120453Z AUTO 00000KT 10SM CLR 15/13 A3018 RMK AO2 SLP217 T01500133 403000122,2025-09-12T05:00:46Z,2025-09-12T01:00:46Z,Cincinnati Municipal Airport Lunken Field,39.102357,-84.418945,US,US-OH
KLUL,"Laurel/Hesler-Noble Fld, MS, US",2025-09-12T04:55:00Z,2025-09-11 23:55:00,VFR,21.3,20.1,0,0,0,NA,1019.7,METAR KLUL 120455Z AUTO 00000KT 10SM CLR 21/20 A3011 RMK A02 T02130201,2025-09-12T05:00:45Z,2025-09-12T01:00:45Z,Hesler Noble Field,31.6725997925,-89.172203064,US,US-MS
KLUM,"Menomenie Muni, WI, US",2025-09-12T04:35:00Z,2025-09-12 04:35:00,VFR,16.2,16.2,120,5,0,NA,1022.1,METAR KLUM 120435Z AUTO 12005KT 10SM CLR 16/16 A3018 RMK AO2 T01620162 PWINO,2025-09-12T05:00:46Z,2025-09-12T01:00:46Z,Menomonie Municipal Score Field,44.8923,-91.867897,US,US-WI
KLUM,"Menomenie Muni, WI, US",2025-09-12T05:15:00Z,2025-09-12 05:15:00,VFR,16,16,100,4,0,NA,1022.4,METAR KLUM 120515Z AUTO 10004KT 10SM CLR 16/16 A3019 RMK AO2 T01600160 PWINO,2025-09-12T05:17:24Z,2025-09-12T01:17:24Z,Menomonie Municipal Score Field,44.8923,-91.867897,US,US-WI
KLUX,"Laurens Cnty, SC, US",2025-09-12T04:55:00Z,2025-09-12 04:55:00,VFR,15,15,0,0,0,NA,1020.7,METAR KLUX 120455Z AUTO 00000KT 10SM CLR 15/15 A3014 RMK AO2,2025-09-12T05:00:45Z,2025-09-12T01:00:45Z,Laurens County Airport,34.507099,-81.947197,US,US-SC
KLVJ,"Houston/Pearland Rgnl, TX, US",2025-09-12T04:53:00Z,2025-09-12 04:53:00,VFR,24.4,22.2,0,0,0,NA,1019,METAR KLVJ 120453Z AUTO 00000KT 10SM CLR 24/22 A3009 RMK AO2 SLP187 T02440222,2025-09-12T05:00:46Z,2025-09-12T01:00:46Z,Pearland Regional Airport,29.521299,-95.242104,US,US-TX
KLVK,"Livermore Muni, CA, US",2025-09-12T04:53:00Z,2025-09-11 21:53:00,VFR,17.2,14.4,0,0,0,NA,1015.3,METAR KLVK 120453Z 00000KT 10SM CLR 17/14 A2998 RMK AO2 SLP148 T01720144,2025-09-12T05:00:46Z,2025-09-12T01:00:46Z,Livermore Municipal Airport,37.6934013367,-121.819999695,US,US-CA
KLVL,"Lawrenceville Muni, VA, US",2025-09-12T04:55:00Z,2025-09-12 00:55:00,LIFR,17.5,16.6,0,0,0,0.75,1021.4,METAR KLVL 120455Z AUTO 00000KT 3/4SM BKN002 18/17 A3016 RMK AO1 T01750166 402750171,2025-09-12T05:00:45Z,2025-09-12T01:00:45Z,Brunswick Municipal Airport,36.774229,-77.793846,US,US-VA
KLVL,"Lawrenceville Muni, VA, US",2025-09-12T05:15:00Z,2025-09-12 01:15:00,MVFR,17.1,16.3,0,0,0,3,1021.4,METAR KLVL 120515Z AUTO 00000KT 3SM SCT002 17/16 A3016 RMK AO1 T01710163,2025-09-12T05:17:24Z,2025-09-12T01:17:24Z,Brunswick Municipal Airport,36.774229,-77.793846,US,US-VA
KLVM,"Livingston/Mission Fld, MT, US",2025-09-12T04:53:00Z,2025-09-11 22:53:00,VFR,11.1,4.4,0,0,0,NA,1017.7,METAR KLVM 120453Z AUTO 00000KT 10SM FEW110 11/04 A3005 RMK AO2 SLP154 T01110044,2025-09-12T05:00:46Z,2025-09-12T01:00:46Z,Mission Field,45.6994018555,-110.447998047,US,US-MT
KLVN,"Lakeville/Airlake Arpt, MN, US",2025-09-12T04:55:00Z,2025-09-12 04:55:00,VFR,14,14,100,3,0,NA,1020.7,METAR KLVN 120455Z AUTO 10003KT 10SM CLR 14/14 A3014 RMK AO2,2025-09-12T05:00:45Z,2025-09-12T01:00:45Z,Airlake Airport,44.627899,-93.228104,US,US-MN
KLVS,"Las Vegas Muni, NM, US",2025-09-12T04:53:00Z,2025-09-11 22:53:00,VFR,15,3.9,200,10,0,NA,1027.2,METAR KLVS 120453Z AUTO 20010KT 10SM CLR 15/04 A3033 RMK AO2 SLP168 T01500039,2025-09-12T05:00:46Z,2025-09-12T01:00:46Z,Las Vegas Municipal Airport,35.654202,-105.141998,US,US-NM
KLWA,"South Haven Rgnl, MI, US",2025-09-12T04:55:00Z,2025-09-12 04:55:00,VFR,13,12,0,0,0,NA,1023.1,METAR KLWA 120455Z AUTO 00000KT 10SM CLR 13/12 A3021 RMK AO2,2025-09-12T05:00:45Z,2025-09-12T01:00:45Z,South Haven Area Regional Airport,42.3512,-86.255699,US,US-MI
KLWA,"South Haven Rgnl, MI, US",2025-09-12T05:15:00Z,2025-09-12 05:15:00,VFR,13,12,0,0,0,NA,1023.1,METAR KLWA 120515Z AUTO 00000KT 10SM CLR 13/12 A3021 RMK AO2,2025-09-12T05:17:24Z,2025-09-12T01:17:24Z,South Haven Area Regional Airport,42.3512,-86.255699,US,US-MI
KLWC,"Lawrence Muni, KS, US",2025-09-12T04:52:00Z,2025-09-11 23:52:00,VFR,21.1,18.3,130,5,0,NA,1018.4,METAR KLWC 120452Z AUTO 13005KT 10SM CLR 21/18 A3007 RMK AO1 SLP175 T02110183,2025-09-12T05:00:46Z,2025-09-12T01:00:46Z,Lawrence Municipal Airport,39.01119995,-95.21659851,US,US-KS
KLWM,"Lawrence Muni, MA, US",2025-09-12T04:54:00Z,2025-09-12 00:54:00,VFR,15.6,10.6,360,3,0,NA,1021.4,METAR KLWM 120454Z AUTO 36003KT 10SM CLR 16/11 A3016 RMK AO2 SLP214 T01560106 402560083,2025-09-12T05:00:45Z,2025-09-12T01:00:45Z,Lawrence Municipal Airport,42.717201232899995,-71.1233978271,US,US-MA
KLWS,"Lewiston/Nez Perce Cnty, ID, US",2025-09-12T04:56:00Z,2025-09-11 21:56:00,VFR,21.1,12.8,170,11,0,NA,1014,METAR KLWS 120456Z 17011KT 10SM -TSRA BKN070 OVC090 21/13 A2994 RMK AO2 LTG DSNT E-SW RAB40 TSB40 SLP130 P0003 T02110128 $,2025-09-12T05:00:45Z,2025-09-12T01:00:45Z,Lewiston Nez Perce County Airport,46.3745002746582,-117.01499938964844,US,US-ID
KLWT,"Lewistown Muni, MT, US",2025-09-12T04:54:00Z,2025-09-11 22:54:00,VFR,11.1,8.9,110,6,0,NA,1017.4,METAR KLWT 120454Z AUTO 11006KT 10SM CLR 11/09 A3004 RMK AO2 SLP154 T01110089,2025-09-12T05:00:46Z,2025-09-12T01:00:46Z,Lewistown Municipal Airport,47.048429,-109.466143,US,US-MT
KLWV,"Lawrenceville-Vincennes Intl, IL, US",2025-09-12T04:53:00Z,2025-09-11 23:53:00,VFR,19.4,16.1,30,3,0,NA,1021.1,METAR KLWV 120453Z AUTO 03003KT 10SM BKN065 19/16 A3015 RMK AO2 SLP206 T01940161,2025-09-12T05:00:46Z,2025-09-12T01:00:46Z,Lawrenceville Vincennes International Airport,38.7643013,-87.6054992676,US,US-IL
KLXL,"Little Falls/Morrison Cnty, MN, US",2025-09-12T04:55:00Z,2025-09-12 04:55:00,VFR,16,15,130,4,0,NA,1019,METAR KLXL 120455Z AUTO 13004KT 10SM CLR 16/15 A3009 RMK AO2,2025-09-12T05:00:45Z,2025-09-12T01:00:45Z,Little Falls-Morrison County-Lindbergh field,45.949699,-94.347397,US,US-MN
KLXL,"Little Falls/Morrison Cnty, MN, US",2025-09-12T05:15:00Z,2025-09-12 05:15:00,VFR,16,15,120,3,0,NA,1019,METAR KLXL 120515Z AUTO 12003KT 10SM CLR 16/15 A3009 RMK AO2,2025-09-12T05:17:24Z,2025-09-12T01:17:24Z,Little Falls-Morrison County-Lindbergh field,45.949699,-94.347397,US,US-MN
KLXN,"Lexington/Kelly Fld, NE, US",2025-09-12T04:55:00Z,2025-09-11 23:55:00,VFR,24,17.5,170,8,0,NA,1014.6,METAR KLXN 120455Z AUTO 17008KT 10SM CLR 24/18 A2996 RMK AO2 T02400175,2025-09-12T05:00:45Z,2025-09-12T01:00:45Z,Jim Kelly Field,40.791,-99.777298,US,US-NE
KLXT,"Lee's Summit Muni, MO, US",2025-09-12T04:53:00Z,2025-09-12 04:53:00,VFR,24.4,16.1,200,5,0,NA,1019.4,METAR KLXT 120453Z AUTO 20005KT 10SM FEW110 24/16 A3010 RMK AO2 SLP183 T02440161 $,2025-09-12T05:00:46Z,2025-09-12T01:00:46Z,Lee's Summit Municipal Airport,38.959702,-94.371399,US,US-MO
KLXV,"Leadville/Lake Cnty, CO, US",2025-09-12T04:53:00Z,2025-09-11 22:53:00,VFR,6.7,6.1,0,0,0,NA,1033.3,METAR KLXV 120453Z AUTO 00000KT 10SM FEW001 BKN090 OVC110 07/06 A3051 RMK AO2 RAE06 SLP177 P0000 T00670061,2025-09-12T05:00:46Z,2025-09-12T01:00:46Z,Lake County Airport,39.220298767100005,-106.317001343,US,US-CO
KLXY,"Mexia/Limestone Cnty, TX, US",2025-09-12T04:55:00Z,2025-09-12 04:55:00,VFR,22.5,19,0,0,0,NA,1019.4,METAR KLXY 120455Z AUTO 00000KT 10SM CLR 23/19 A3010 RMK AO2 T02250190 TSNO,2025-09-12T05:00:45Z,2025-09-12T01:00:45Z,Mexia Limestone County Airport,31.639799118041992,-96.51470184326172,US,US-TX
KLYH,"Lynchburg/Glenn Fld, VA, US",2025-09-12T04:54:00Z,2025-09-12 00:54:00,VFR,16.1,15.6,0,0,0,NA,1021.8,METAR KLYH 120454Z AUTO 00000KT 10SM FEW080 16/16 A3017 RMK AO2 SLP210 T01610156 402720150,2025-09-12T05:00:46Z,2025-09-12T01:00:46Z,Lynchburg Regional Airport - Preston Glenn Field,37.326698,-79.200401,US,US-VA
KLYO,"Lyons/Rice Cnty, KS, US",2025-09-12T04:55:00Z,2025-09-11 23:55:00,VFR,21.3,17.1,150,9,0,NA,1017,METAR KLYO 120455Z AUTO 15009KT 10SM CLR 21/17 A3003 RMK AO2 T02130171,2025-09-12T05:00:45Z,2025-09-12T01:00:45Z,Lyons-Rice County Municipal Airport,38.339481,-98.228702,US,US-KS
KLYV,"Luverne Muni, MN, US",2025-09-12T04:55:00Z,2025-09-12 04:55:00,VFR,20,16,140,5,0,NA,1017.7,METAR KLYV 120455Z AUTO 14005KT 10SM CLR 20/16 A3005 RMK AO2,2025-09-12T05:00:45Z,2025-09-12T01:00:45Z,Quentin Aanenson Airfield - Luverne Municipal Airport,43.616217,-96.217946,US,US-MN
KLYV,"Luverne Muni, MN, US",2025-09-12T05:15:00Z,2025-09-12 05:15:00,VFR,21,16,140,6,0,NA,1017.4,METAR KLYV 120515Z AUTO 14006KT 10SM CLR 21/16 A3004 RMK AO2,2025-09-12T05:17:24Z,2025-09-12T01:17:24Z,Quentin Aanenson Airfield - Luverne Municipal Airport,43.616217,-96.217946,US,US-MN
KLZU,"Lawrenceville/Gwinnett Cnty, GA, US",2025-09-12T04:56:00Z,2025-09-12 00:56:00,VFR,NA,NA,0,0,0,NA,1020.7,METAR KLZU 120456Z AUTO 00000KT 10SM CLR A3014 RMK AO2 SLPNO FZRANO $,2025-09-12T05:00:45Z,2025-09-12T01:00:45Z,Gwinnett County Briscoe Field,33.97809982,-83.96240234,US,US-GA
KM02,"Dickson Muni, TN, US",2025-09-12T04:35:00Z,2025-09-12 04:35:00,VFR,21,17,0,0,0,NA,1020.4,METAR KM02 120435Z AUTO 00000KT 10SM BKN075 OVC090 21/17 A3013 RMK A01,2025-09-12T05:00:46Z,2025-09-12T01:00:46Z,Dickson County Municipal Airport,36.127998,-87.429802,US,US-TN
KM02,"Dickson Muni, TN, US",2025-09-12T04:55:00Z,2025-09-12 04:55:00,VFR,21,17,0,0,0,NA,1020.4,METAR KM02 120455Z AUTO 00000KT 10SM BKN075 BKN090 21/17 A3013 RMK A01,2025-09-12T05:17:24Z,2025-09-12T01:17:24Z,Dickson County Municipal Airport,36.127998,-87.429802,US,US-TN
KM04,"Covington Muni, TN, US",2025-09-12T04:35:00Z,2025-09-12 04:35:00,VFR,19,19,0,0,0,NA,1019,METAR KM04 120435Z AUTO 00000KT 10SM SCT038 SCT044 BKN050 19/19 A3009 RMK A01,2025-09-12T05:00:46Z,2025-09-12T01:00:46Z,Covington Municipal Airport,35.583401,-89.587196,US,US-TN
KM04,"Covington Muni, TN, US",2025-09-12T04:50:00Z,2025-09-12 04:50:00,VFR,19,19,0,0,0,NA,1019,METAR KM04 120450Z AUTO 00000KT 10SM BKN038 BKN045 OVC050 19/19 A3009 RMK A01,2025-09-12T05:17:24Z,2025-09-12T01:17:24Z,Covington Municipal Airport,35.583401,-89.587196,US,US-TN
KM08,"Bolivar/Whitehurst Fld, TN, US",2025-09-12T04:40:00Z,2025-09-12 04:40:00,NA,19,18,0,0,0,NA,1019,METAR KM08 120440Z AUTO 00000KT 10SM 19/18 A3009 RMK A01,2025-09-12T05:00:46Z,2025-09-12T01:00:46Z,William L. Whitehurst Field,35.2145,-89.043404,US,US-TN
KM08,"Bolivar/Whitehurst Fld, TN, US",2025-09-12T05:00:00Z,2025-09-12 05:00:00,NA,20,19,0,0,0,NA,1019,METAR KM08 120500Z AUTO 00000KT 10SM 20/19 A3009 RMK A01,2025-09-12T05:17:24Z,2025-09-12T01:17:24Z,William L. Whitehurst Field,35.2145,-89.043404,US,US-TN
KM19,"Newport Muni, AR, US",2025-09-12T04:56:00Z,2025-09-12 04:56:00,VFR,23.3,17.8,0,0,0,NA,1019.4,METAR KM19 120456Z AUTO 00000KT 10SM CLR 23/18 A3010 RMK AO2 SLP203 T02330178 $,2025-09-12T05:00:45Z,2025-09-12T01:00:45Z,Newport Regional Airport,35.637699,-91.176397,US,US-AR
KM21,"Greenville/Muhlenberg Cnty, KY, US",2025-09-12T04:55:00Z,2025-09-12 04:55:00,VFR,17,16.8,0,0,0,NA,1020.7,METAR KM21 120455Z AUTO 00000KT 10SM CLR 17/17 A3014 RMK AO2 T01700168,2025-09-12T05:00:45Z,2025-09-12T01:00:45Z,Muhlenberg County Airport,37.225966,-87.156987,US,US-KY
KM21,"Greenville/Muhlenberg Cnty, KY, US",2025-09-12T05:15:00Z,2025-09-12 05:15:00,VFR,16.7,16.6,0,0,0,NA,1020.7,METAR KM21 120515Z AUTO 00000KT 10SM CLR 17/17 A3014 RMK AO2 T01670166,2025-09-12T05:17:24Z,2025-09-12T01:17:24Z,Muhlenberg County Airport,37.225966,-87.156987,US,US-KY
KM25,"Mayfield/Grave Cnty, KY, US",2025-09-12T04:55:00Z,2025-09-12 04:55:00,VFR,23.2,17,90,4,0,NA,1019.7,METAR KM25 120455Z AUTO 09004KT 10SM CLR 23/17 A3011 RMK AO2 T02320170,2025-09-12T05:00:45Z,2025-09-12T01:00:45Z,Mayfield Graves County Airport,36.7691,-88.584702,US,US-KY
KM30,"Metropolis Muni, IL, US",2025-09-12T04:55:00Z,2025-09-12 04:55:00,VFR,19.4,16.6,0,0,0,NA,1020.4,METAR KM30 120455Z AUTO 00000KT 10SM CLR 19/17 A3013 RMK AO2 T01940166,2025-09-12T05:00:45Z,2025-09-12T01:00:45Z,Metropolis Municipal Airport,37.182382,-88.750688,US,US-IL
KM30,"Metropolis Muni, IL, US",2025-09-12T05:15:00Z,2025-09-12 05:15:00,VFR,19.1,16.5,0,0,0,NA,1020.4,METAR KM30 120515Z AUTO 00000KT 10SM CLR 19/17 A3013 RMK AO2 T01910165,2025-09-12T05:17:24Z,2025-09-12T01:17:24Z,Metropolis Municipal Airport,37.182382,-88.750688,US,US-IL
KM40,"Aberdeen/Monroe Cnty, MS, US",2025-09-12T04:55:00Z,2025-09-12 04:55:00,VFR,21,21,0,0,0,9,1019.7,METAR KM40 120455Z AUTO 00000KT 9SM CLR 21/21 A3011 RMK AO2,2025-09-12T05:00:45Z,2025-09-12T01:00:45Z,Monroe County Airport,33.873699,-88.4897,US,US-MS
KM40,"Aberdeen/Monroe Cnty, MS, US",2025-09-12T05:15:00Z,2025-09-12 05:15:00,MVFR,20,20,0,0,0,5,1019.7,METAR KM40 120515Z AUTO 00000KT 5SM BR CLR 20/20 A3011 RMK AO2,2025-09-12T05:17:24Z,2025-09-12T01:17:24Z,Monroe County Airport,33.873699,-88.4897,US,US-MS
KM54,"Lebanon Muni, TN, US",2025-09-12T04:25:00Z,2025-09-12 04:25:00,VFR,19,17,0,0,0,NA,1020.1,METAR KM54 120425Z AUTO 00000KT 10SM FEW070 19/17 A3012 RMK A01,2025-09-12T05:00:46Z,2025-09-12T01:00:46Z,Lebanon Municipal Airport,36.190399,-86.315697,US,US-TN
KM54,"Lebanon Muni, TN, US",2025-09-12T04:50:00Z,2025-09-12 04:50:00,VFR,19,17,0,0,0,NA,1020.1,METAR KM54 120450Z AUTO 00000KT 10SM CLR 19/17 A3012 RMK A01,2025-09-12T05:17:24Z,2025-09-12T01:17:24Z,Lebanon Municipal Airport,36.190399,-86.315697,US,US-TN
KM75,"Malta Arpt, MT, US",2025-09-12T04:35:00Z,2025-09-11 22:35:00,VFR,21,13,330,5,0,NA,1013.3,METAR KM75 120435Z AUTO 33005KT 10SM FEW050 SCT065 BKN110 21/13 A2992 RMK A01,2025-09-12T05:00:46Z,2025-09-12T01:00:46Z,Malta Airport,48.366901,-107.918999,US,US-MT
KM75,"Malta Arpt, MT, US",2025-09-12T04:55:00Z,2025-09-11 22:55:00,VFR,20,13,0,0,0,NA,1013.3,METAR KM75 120455Z AUTO 00000KT 10SM FEW055 FEW065 SCT120 20/13 A2992 RMK A01,2025-09-12T05:17:24Z,2025-09-12T01:17:24Z,Malta Airport,48.366901,-107.918999,US,US-MT
KM91,"Springfield/Robertson Cnty, TN, US",2025-09-12T04:35:00Z,2025-09-12 04:35:00,VFR,19,17,0,0,0,NA,1020.4,METAR KM91 120435Z AUTO 00000KT 10SM SCT060 BKN080 19/17 A3013 RMK A01,2025-09-12T05:00:46Z,2025-09-12T01:00:46Z,Springfield Robertson County Airport,36.536801,-86.921182,US,US-TN
KM91,"Springfield/Robertson Cnty, TN, US",2025-09-12T04:55:00Z,2025-09-12 04:55:00,VFR,19,16,0,0,0,8,1020.4,METAR KM91 120455Z AUTO 00000KT 8SM BKN060 BKN070 BKN110 19/16 A3013 RMK A01,2025-09-12T05:17:24Z,2025-09-12T01:17:24Z,Springfield Robertson County Airport,36.536801,-86.921182,US,US-TN
KMAE,"Madera Muni, CA, US",2025-09-12T04:53:00Z,2025-09-11 21:53:00,VFR,20.6,13.3,280,8,0,NA,1013.6,METAR KMAE 120453Z AUTO 28008KT 10SM CLR 21/13 A2993 RMK AO2 SLP133 T02060133,2025-09-12T05:00:46Z,2025-09-12T01:00:46Z,Madera Municipal Airport,36.9886016846,-120.111999512,US,US-CA
KMAF,"Midland Intl, TX, US",2025-09-12T04:53:00Z,2025-09-11 23:53:00,VFR,25.6,12.8,160,9,0,NA,1021.1,METAR KMAF 120453Z AUTO 16009KT 10SM CLR 26/13 A3015 RMK AO2 SLP160 T02560128 TSNO $,2025-09-12T05:00:46Z,2025-09-12T01:00:46Z,Midland International Air and Space Port,31.942499,-102.202003,US,US-TX
KMAI,"Marianna Muni, FL, US",2025-09-12T04:53:00Z,2025-09-12 04:53:00,VFR,20.6,16.7,0,0,0,NA,1018.4,METAR KMAI 120453Z AUTO 00000KT 10SM CLR 21/17 A3007 RMK AO2 SLP181 T02060167,2025-09-12T05:00:46Z,2025-09-12T01:00:46Z,Marianna Municipal Airport,30.837799,-85.1819,US,US-FL
KMAO,"Marion Cnty Arpt, SC, US",2025-09-12T04:35:00Z,2025-09-12 04:35:00,VFR,20,20,20,3,0,NA,1019.7,METAR KMAO 120435Z AUTO 02003KT 10SM BKN070 OVC090 20/20 A3011 RMK AO2,2025-09-12T05:00:46Z,2025-09-12T01:00:46Z,Marion County Airport,34.181198,-79.334702,US,US-SC
KMAO,"Marion Cnty Arpt, SC, US",2025-09-12T04:55:00Z,2025-09-12 04:55:00,VFR,19,19,40,3,0,NA,1019.7,METAR KMAO 120455Z AUTO 04003KT 10SM BKN070 19/19 A3011 RMK AO2,2025-09-12T05:17:24Z,2025-09-12T01:17:24Z,Marion County Airport,34.181198,-79.334702,US,US-SC
KMAW,"Malden Rgnl, MO, US",2025-09-12T04:55:00Z,2025-09-11 23:55:00,VFR,22,17,0,0,0,NA,1019.7,METAR KMAW 120455Z AUTO 00000KT 10SM CLR 22/17 A3011 RMK AO1,2025-09-12T05:00:45Z,2025-09-12T01:00:45Z,Malden Regional Airport,36.6006012,-89.99220276,US,US-MO
KMAW,"Malden Rgnl, MO, US",2025-09-12T05:15:00Z,2025-09-12 00:15:00,VFR,22,17,0,0,0,NA,1019.7,METAR KMAW 120515Z AUTO 00000KT 10SM CLR 22/17 A3011 RMK AO1,2025-09-12T05:17:24Z,2025-09-12T01:17:24Z,Malden Regional Airport,36.6006012,-89.99220276,US,US-MO
KMBG,"Mobridge Muni, SD, US",2025-09-12T04:52:00Z,2025-09-11 23:52:00,VFR,23.3,18.3,150,13,0,NA,1011.9,METAR KMBG 120452Z AUTO 15013KT 10SM CLR 23/18 A2988 RMK AO2 SLP105 T02330183,2025-09-12T05:00:46Z,2025-09-12T01:00:46Z,Mobridge Municipal Airport,45.54650116,-100.4079971,US,US-SD
KMBL,"Manistee/Blacker Arpt, MI, US",2025-09-12T04:56:00Z,2025-09-12 00:56:00,LIFR,11.1,11.1,0,0,0,0.25,1023.8,METAR KMBL 120456Z AUTO 00000KT 1/4SM FG OVC001 11/11 A3023 RMK AO2 RAE06 SLP237 P0000 T01110111,2025-09-12T05:00:45Z,2025-09-12T01:00:45Z,Manistee County Blacker Airport,44.272707,-86.246495,US,US-MI
KMBL,"Manistee/Blacker Arpt, MI, US",2025-09-12T05:11:00Z,2025-09-12 01:11:00,LIFR,12,11,110,3,0,0.25,1023.8,SPECI KMBL 120511Z AUTO 11003KT 1/4SM FG OVC001 12/11 A3023 RMK AO2,2025-09-12T05:17:24Z,2025-09-12T01:17:24Z,Manistee County Blacker Airport,44.272707,-86.246495,US,US-MI
KMBS,"Saginaw Intl, MI, US",2025-09-12T04:53:00Z,2025-09-12 00:53:00,VFR,13.3,11.1,80,3,0,NA,1024.1,METAR KMBS 120453Z AUTO 08003KT 10SM CLR 13/11 A3024 RMK AO2 SLP241 T01330111 402440117,2025-09-12T05:00:46Z,2025-09-12T01:00:46Z,MBS International Airport,43.531913,-84.082275,US,US-MI
KMBT,"Murfreesboro Muni, TN, US",2025-09-12T04:35:00Z,2025-09-12 04:35:00,VFR,21,19,0,0,0,NA,1020.1,METAR KMBT 120435Z AUTO 00000KT 10SM CLR 21/19 A3012 RMK A01,2025-09-12T05:00:46Z,2025-09-12T01:00:46Z,City of Murfreesboro Airport,35.877499,-86.377502,US,US-TN
KMBT,"Murfreesboro Muni, TN, US",2025-09-12T04:55:00Z,2025-09-12 04:55:00,VFR,20,19,0,0,0,NA,1020.1,METAR KMBT 120455Z AUTO 00000KT 10SM FEW070 20/19 A3012 RMK A01,2025-09-12T05:17:24Z,2025-09-12T01:17:24Z,City of Murfreesboro Airport,35.877499,-86.377502,US,US-TN
KMBY,"Moberly/Bradley Arpt, MO, US",2025-09-12T04:55:00Z,2025-09-11 23:55:00,VFR,19,15,110,5,0,NA,1020.4,METAR KMBY 120455Z AUTO 11005KT 10SM CLR 19/15 A3013 RMK AO2,2025-09-12T05:00:45Z,2025-09-12T01:00:45Z,Omar N Bradley Airport,39.464393,-92.428365,US,US-MO
KMBY,"Moberly/Bradley Arpt, MO, US",2025-09-12T05:15:00Z,2025-09-12 00:15:00,VFR,19,15,110,4,0,NA,1020.4,METAR KMBY 120515Z AUTO 11004KT 10SM CLR 19/15 A3013 RMK AO2,2025-09-12T05:17:24Z,2025-09-12T01:17:24Z,Omar N Bradley Airport,39.464393,-92.428365,US,US-MO
KMCB,"McComb/Lewis Fld, MS, US",2025-09-12T04:53:00Z,2025-09-11 23:53:00,VFR,22.2,18.3,0,0,0,NA,1019.4,METAR KMCB 120453Z AUTO 00000KT 10SM CLR 22/18 A3010 RMK AO2 SLP187 T02220183,2025-09-12T05:00:46Z,2025-09-12T01:00:46Z,McComb-Pike County Airport / John E Lewis Field,31.178499,-90.471901,US,US-MS
KMCC,"McClellan AFB, CA, US",2025-09-12T04:35:00Z,2025-09-11 21:35:00,VFR,23,15,200,5,0,NA,1013.3,METAR KMCC 120435Z AUTO 20005KT 10SM CLR 23/15 A2992 RMK AO2,2025-09-12T05:00:46Z,2025-09-12T01:00:46Z,McClellan Airfield,38.667599,-121.401001,US,US-CA
KMCC,"McClellan AFB, CA, US",2025-09-12T04:55:00Z,2025-09-11 21:55:00,VFR,22,15,210,5,0,NA,1013,METAR KMCC 120455Z AUTO 21005KT 10SM CLR 22/15 A2991 RMK AO2,2025-09-12T05:17:24Z,2025-09-12T01:17:24Z,McClellan Airfield,38.667599,-121.401001,US,US-CA
KMCD,"Mackinac Isl Arpt, MI, US",2025-09-12T04:55:00Z,2025-09-12 00:55:00,LIFR,13,13,130,4,0,0.25,1024.5,METAR KMCD 120455Z AUTO 13004KT 1/4SM FG OVC055 13/13 A3025 RMK AO2,2025-09-12T05:00:45Z,2025-09-12T01:00:45Z,Mackinac Island Airport,45.86489868,-84.63729858,US,US-MI
KMCD,"Mackinac Isl Arpt, MI, US",2025-09-12T05:15:00Z,2025-09-12 01:15:00,VFR,14,13,130,5,0,NA,1024.5,METAR KMCD 120515Z AUTO 13005KT 10SM OVC055 14/13 A3025 RMK AO2,2025-09-12T05:17:24Z,2025-09-12T01:17:24Z,Mackinac Island Airport,45.86489868,-84.63729858,US,US-MI
KMCE,"Merced/Macready Fld, CA, US",2025-09-12T04:53:00Z,2025-09-11 21:53:00,VFR,22.2,13.9,290,4,0,NA,1013.3,METAR KMCE 120453Z AUTO 29004KT 10SM CLR 22/14 A2992 RMK AO2 SLP132 T02220139,2025-09-12T05:00:46Z,2025-09-12T01:00:46Z,Merced Regional Macready Field,37.284698,-120.514,US,US-CA
KMCI,"Kansas City Intl, MO, US",2025-09-12T04:53:00Z,2025-09-11 23:53:00,VFR,20.6,16.7,160,7,0,NA,1018.7,METAR KMCI 120453Z 16007KT 10SM SCT120 BKN250 21/17 A3008 RMK AO2 SLP176 T02060167,2025-09-12T05:00:46Z,2025-09-12T01:00:46Z,Kansas City International Airport,39.2976,-94.713898,US,US-MO
KMCK,"McCook Muni, NE, US",2025-09-12T04:53:00Z,2025-09-11 23:53:00,VFR,23.9,12.2,320,4,0,NA,1014.6,METAR KMCK 120453Z AUTO 32004KT 10SM CLR 24/12 A2996 RMK AO2 SLP122 T02390122,2025-09-12T05:00:46Z,2025-09-12T01:00:46Z,McCook Ben Nelson Regional Airport,40.207787,-100.592794,US,US-NE
KMCN,"Macon/Middle Georgia Rgnl, GA, US",2025-09-12T04:53:00Z,2025-09-12 00:53:00,VFR,16.7,16.1,0,0,0,NA,1019.4,METAR KMCN 120453Z AUTO 00000KT 10SM CLR 17/16 A3010 RMK AO2 SLP189 T01670161 403060133 $,2025-09-12T05:00:46Z,2025-09-12T01:00:46Z,Middle Georgia Regional Airport,32.69279861450195,-83.649200439453125,US,US-GA
KMCO,"Orlando Intl, FL, US",2025-09-12T04:53:00Z,2025-09-12 00:53:00,VFR,24.4,21.7,350,7,0,NA,1016.7,METAR KMCO 120453Z 35007KT 10SM FEW029 BKN140 BKN170 24/22 A3002 RMK AO2 SLP164 T02440217 403170228,2025-09-12T05:00:46Z,2025-09-12T01:00:46Z,Orlando International Airport,28.429399490356445,-81.30899810791016,US,US-FL
KMCW,"Mason City Muni, IA, US",2025-09-12T04:53:00Z,2025-09-11 23:53:00,VFR,17.8,15,130,7,0,NA,1020.4,METAR KMCW 120453Z AUTO 13007KT 10SM CLR 18/15 A3013 RMK AO2 SLP193 T01780150,2025-09-12T05:00:46Z,2025-09-12T01:00:46Z,Mason City Municipal Airport,43.159801,-93.329716,US,US-IA
KMCX,"Monticello/White Cnty, IN, US",2025-09-12T04:55:00Z,2025-09-12 04:55:00,VFR,16.7,11.1,0,0,0,NA,1022.8,METAR KMCX 120455Z AUTO 00000KT 10SM CLR 17/11 A3020 RMK AO2 T01670111 402940161,2025-09-12T05:00:45Z,2025-09-12T01:00:45Z,White County Airport,40.708801,-86.7668,US,US-IN
KMCX,"Monticello/White Cnty, IN, US",2025-09-12T05:15:00Z,2025-09-12 05:15:00,VFR,16.7,11.3,40,4,0,NA,1022.8,METAR KMCX 120515Z AUTO 04004KT 10SM CLR 17/11 A3020 RMK AO2 T01670113,2025-09-12T05:17:24Z,2025-09-12T01:17:24Z,White County Airport,40.708801,-86.7668,US,US-IN
KMCZ,"Williamston/Martin Cnty, NC, US",2025-09-12T04:45:00Z,2025-09-12 04:45:00,VFR,17.9,16.9,0,0,0,NA,1020.1,METAR KMCZ 120445Z AUTO 00000KT 10SM OVC070 18/17 A3012 RMK AO2 T01790169,2025-09-12T05:00:46Z,2025-09-12T01:00:46Z,Martin County Airport,35.86220169067383,-77.1781997680664,US,US-NC
KMCZ,"Williamston/Martin Cnty, NC, US",2025-09-12T05:05:00Z,2025-09-12 05:05:00,VFR,17.9,16.8,0,0,0,NA,1020.1,METAR KMCZ 120505Z AUTO 00000KT 10SM OVC070 18/17 A3012 RMK AO2 T01790168,2025-09-12T05:17:24Z,2025-09-12T01:17:24Z,Martin County Airport,35.86220169067383,-77.1781997680664,US,US-NC
KMDD,"Midland Airpark, TX, US",2025-09-12T04:55:00Z,2025-09-11 23:55:00,VFR,26.2,11.6,150,10,0,NA,1021.4,METAR KMDD 120455Z AUTO 15010KT 10SM CLR 26/12 A3016 RMK AO2 T02620116,2025-09-12T05:00:45Z,2025-09-12T01:00:45Z,Midland Airpark,32.0364990234,-102.100997925,US,US-TX
KMDH,"Murphysboro/S Illinois Arpt, IL, US",2025-09-12T04:52:00Z,2025-09-11 23:52:00,VFR,17.2,15,0,0,0,NA,1020.1,METAR KMDH 120452Z AUTO 00000KT 10SM FEW080 17/15 A3012 RMK AO2 SLP196 T01720150,2025-09-12T05:00:46Z,2025-09-12T01:00:46Z,Southern Illinois Airport,37.778099,-89.251999,US,US-IL
KMDQ,"Huntsville/Sharp Fld, AL, US",2025-09-12T04:55:00Z,2025-09-12 04:55:00,MVFR,18.1,18,0,0,0,4,1021.1,METAR KMDQ 120455Z AUTO 00000KT 4SM BR CLR 18/18 A3015 RMK A02 T0181////,2025-09-12T05:00:45Z,2025-09-12T01:00:45Z,Madison County Executive Airport-Tom Sharp Jr Field,34.8614006,-86.55750275,US,US-AL
KMDS,"Madison Muni, SD, US",2025-09-12T04:55:00Z,2025-09-11 23:55:00,VFR,20,20,140,9,15,NA,1016.3,METAR KMDS 120455Z AUTO 14009G15KT 10SM CLR 20/20 A3001 RMK AO2 TSNO,2025-09-12T05:00:45Z,2025-09-12T01:00:45Z,Madison Municipal Airport,44.01599884,-97.08589935,US,US-SD
KMDS,"Madison Muni, SD, US",2025-09-12T05:15:00Z,2025-09-12 00:15:00,VFR,20,20,140,10,0,NA,1016,METAR KMDS 120515Z AUTO 14010KT 10SM CLR 20/20 A3000 RMK AO2 TSNO,2025-09-12T05:17:24Z,2025-09-12T01:17:24Z,Madison Municipal Airport,44.01599884,-97.08589935,US,US-SD
KMDT,"Harrisburg Intl, PA, US",2025-09-12T04:56:00Z,2025-09-12 00:56:00,VFR,17.2,12.8,360,5,0,NA,1021.1,METAR KMDT 120456Z 36005KT 10SM FEW080 17/13 A3015 RMK AO2 SLP208 T01720128 402780167,2025-09-12T05:00:45Z,2025-09-12T01:00:45Z,Harrisburg International Airport,40.193501,-76.763397,US,US-PA
KMDW,"Chicago/Midway Intl, IL, US",2025-09-12T04:53:00Z,2025-09-11 23:53:00,VFR,20,15.6,60,5,0,NA,1023.1,METAR KMDW 120453Z 06005KT 10SM CLR 20/16 A3021 RMK AO2 SLP221 T02000156 $,2025-09-12T05:00:46Z,2025-09-12T01:00:46Z,Chicago Midway International Airport,41.785999,-87.752403,US,US-IL
KMDZ,"Medford/Taylor Cnty, WI, US",2025-09-12T04:55:00Z,2025-09-11 23:55:00,VFR,13.2,12.7,120,3,0,NA,1023.5,METAR KMDZ 120455Z AUTO 12003KT 10SM SCT003 13/13 A3022 RMK AO2 T01320127 PWINO,2025-09-12T05:00:45Z,2025-09-12T01:00:45Z,Taylor County Airport,45.10100174,-90.30329895,US,US-WI
KMDZ,"Medford/Taylor Cnty, WI, US",2025-09-12T05:15:00Z,2025-09-12 00:15:00,VFR,13.1,12.6,130,3,0,NA,1023.8,METAR KMDZ 120515Z AUTO 13003KT 10SM CLR 13/13 A3023 RMK AO2 T01310126 PWINO,2025-09-12T05:17:24Z,2025-09-12T01:17:24Z,Taylor County Airport,45.10100174,-90.30329895,US,US-WI
KMEB,"Laurinberg/Maxton Arpt, NC, US",2025-09-12T04:52:00Z,2025-09-12 00:52:00,VFR,17.8,17.2,0,0,0,NA,1020.1,METAR KMEB 120452Z AUTO 00000KT 10SM CLR 18/17 A3012 RMK AO2 SLP198 T01780172 402670172,2025-09-12T05:00:46Z,2025-09-12T01:00:46Z,Laurinburg Maxton Airport,34.791901,-79.365799,US,US-NC
KMEI,"Meridian/Key Fld, MS, US",2025-09-12T04:58:00Z,2025-09-11 23:58:00,VFR,20.6,18.9,0,0,0,NA,1019.4,METAR KMEI 120458Z AUTO 00000KT 10SM CLR 21/19 A3010 RMK AO2 SLP190 T02060189 $,2025-09-12T05:00:45Z,2025-09-12T01:00:45Z,Key Field / Meridian Regional Airport,32.3326,-88.7519,US,US-MS
KMEM,"Memphis Intl, TN, US",2025-09-12T04:54:00Z,2025-09-11 23:54:00,VFR,23.9,18.3,0,0,0,NA,1019.4,METAR KMEM 120454Z 00000KT 10SM CLR 24/18 A3010 RMK AO2 SLP187 T02390183 $,2025-09-12T05:00:46Z,2025-09-12T01:00:46Z,Memphis International Airport,35.0424,-89.9767,US,US-TN
KMEV,"Minden-Tahoe Arpt, NV, US",2025-09-12T04:25:00Z,2025-09-11 21:25:00,VFR,17,6,10,7,0,NA,1018.4,METAR KMEV 120425Z AUTO 01007KT 10SM BKN070 OVC085 17/06 A3007 RMK AO2,2025-09-12T05:00:46Z,2025-09-12T01:00:46Z,Minden-Tahoe Airport,39.00030136,-119.7509995,US,US-NV
KMEV,"Minden-Tahoe Arpt, NV, US",2025-09-12T04:45:00Z,2025-09-11 21:45:00,VFR,17,6,10,8,0,NA,1018.7,METAR KMEV 120445Z AUTO 01008KT 10SM OVC075 17/06 A3008 RMK AO2,2025-09-12T05:17:24Z,2025-09-12T01:17:24Z,Minden-Tahoe Airport,39.00030136,-119.7509995,US,US-NV
KMEZ,"Mena Intermountain Muni, AR, US",2025-09-12T04:55:00Z,2025-09-12 04:55:00,VFR,18.4,18.3,0,0,0,8,1020.4,METAR KMEZ 120455Z AUTO 00000KT 8SM CLR 18/18 A3013 RMK AO2 T01840183,2025-09-12T05:00:45Z,2025-09-12T01:00:45Z,Mena Intermountain Municipal Airport,34.545399,-94.202698,US,US-AR
KMEZ,"Mena Intermountain Muni, AR, US",2025-09-12T05:15:00Z,2025-09-12 05:15:00,VFR,18.2,18.2,0,0,0,8,1020.4,METAR KMEZ 120515Z AUTO 00000KT 8SM CLR 18/18 A3013 RMK AO2 T01820182,2025-09-12T05:17:24Z,2025-09-12T01:17:24Z,Mena Intermountain Municipal Airport,34.545399,-94.202698,US,US-AR
KMFD,"Mansfield/Lahm Rgnl, OH, US",2025-09-12T04:52:00Z,2025-09-12 00:52:00,VFR,13.9,8.9,30,4,0,NA,1023.8,METAR KMFD 120452Z AUTO 03004KT 10SM CLR 14/09 A3023 RMK AO2 SLP230 T01390089 402500117,2025-09-12T05:00:46Z,2025-09-12T01:00:46Z,Mansfield Lahm Regional Airport,40.82139968869999,-82.5166015625,US,US-OH
KMFE,"McAllen/Miller Intl, TX, US",2025-09-12T04:53:00Z,2025-09-11 23:53:00,VFR,27.2,24.4,140,3,0,NA,1017,METAR KMFE 120453Z AUTO 14003KT 10SM CLR 27/24 A3003 RMK AO2 SLP167 T02720244 PWINO $,2025-09-12T05:00:46Z,2025-09-12T01:00:46Z,McAllen Miller International Airport,26.176141,-98.237965,US,US-TX
KMFI,"Marshfield Muni, WI, US",2025-09-12T04:54:00Z,2025-09-11 23:54:00,VFR,13.3,13.3,110,6,0,9,1023.5,METAR KMFI 120454Z AUTO 11006KT 9SM CLR 13/13 A3022 RMK AO2 SLP234 T01330133,2025-09-12T05:00:46Z,2025-09-12T01:00:46Z,Marshfield Municipal Airport,44.6369018555,-90.1893005371,US,US-WI
KMFR,"Medford/Rogue Valley Intl, OR, US",2025-09-12T04:53:00Z,2025-09-11 21:53:00,VFR,20,12.8,330,4,0,NA,1016.7,METAR KMFR 120453Z AUTO 33004KT 10SM BKN110 20/13 A3002 RMK AO2 SLP159 T02000128 $,2025-09-12T05:00:46Z,2025-09-12T01:00:46Z,Rogue Valley International Medford Airport,42.37419891357422,-122.8730010986328,US,US-OR
KMGC,"Michigan City Muni, IN, US",2025-09-12T04:55:00Z,2025-09-11 23:55:00,LIFR,12,12,0,0,0,0.25,1023.5,METAR KMGC 120455Z AUTO 00000KT 1/4SM FG OVC002 12/12 A3022 RMK AO2,2025-09-12T05:00:45Z,2025-09-12T01:00:45Z,Michigan City Municipal Airport,41.7033004761,-86.8211975098,US,US-IN
KMGG,"Maple Lake Muni, MN, US",2025-09-12T04:55:00Z,2025-09-12 04:55:00,VFR,18.5,15.1,140,3,0,NA,1019.7,METAR KMGG 120455Z AUTO 14003KT 10SM CLR 19/15 A3011 RMK AO2 T01850151,2025-09-12T05:00:48Z,2025-09-12T01:00:48Z,Maple Lake Municipal Airport,45.236,-93.985603,US,US-MN
KMGG,"Maple Lake Muni, MN, US",2025-09-12T05:15:00Z,2025-09-12 05:15:00,VFR,18.3,15.1,120,4,0,NA,1019.7,METAR KMGG 120515Z AUTO 12004KT 10SM CLR 18/15 A3011 RMK AO2 T01830151,2025-09-12T05:17:26Z,2025-09-12T01:17:26Z,Maple Lake Municipal Airport,45.236,-93.985603,US,US-MN
KMGJ,"Montgomery/Orange Cnty, NY, US",2025-09-12T04:54:00Z,2025-09-12 00:54:00,VFR,11.7,11.1,0,0,0,8,1021.4,METAR KMGJ 120454Z AUTO 00000KT 8SM CLR 12/11 A3016 RMK AO2 SLP211 T01170111 402440072,2025-09-12T05:00:48Z,2025-09-12T01:00:48Z,Orange County Airport,41.50999832,-74.26460266,US,US-NY
KMGM,"Montgomery Rgnl, AL, US",2025-09-12T04:53:00Z,2025-09-11 23:53:00,VFR,21.1,18.3,0,0,0,NA,1019.4,METAR KMGM 120453Z AUTO 00000KT 10SM CLR 21/18 A3010 RMK AO2 SLP189 T02110183,2025-09-12T05:00:48Z,2025-09-12T01:00:48Z,Montgomery Regional (Dannelly Field) Airport,32.300598,-86.393997,US,US-AL
KMGN,"Harbor Springs Arpt, MI, US",2025-09-12T04:55:00Z,2025-09-12 04:55:00,VFR,15.3,14.5,70,4,0,NA,1024.1,METAR KMGN 120455Z AUTO 07004KT 10SM BKN037 OVC060 15/14 A3024 RMK AO2 T01530145,2025-09-12T05:00:47Z,2025-09-12T01:00:47Z,Harbor Springs Airport,45.42559814453125,-84.91339874267578,US,US-MI
KMGN,"Harbor Springs Arpt, MI, US",2025-09-12T05:15:00Z,2025-09-12 05:15:00,VFR,15.5,14.6,60,4,0,NA,1024.1,METAR KMGN 120515Z AUTO 06004KT 10SM OVC035 15/14 A3024 RMK AO2 T01550146,2025-09-12T05:17:26Z,2025-09-12T01:17:26Z,Harbor Springs Airport,45.42559814453125,-84.91339874267578,US,US-MI
KMGR,"Moultrie Muni, GA, US",2025-09-12T04:55:00Z,2025-09-12 00:55:00,VFR,19.2,17.5,0,0,0,NA,1019,METAR KMGR 120455Z AUTO 00000KT 10SM CLR 19/17 A3009 RMK AO2 T01920175 $,2025-09-12T05:00:48Z,2025-09-12T01:00:48Z,Moultrie Municipal Airport,31.0848999023,-83.8032989502,US,US-GA
KMGR,"Moultrie Muni, GA, US",2025-09-12T05:15:00Z,2025-09-12 01:15:00,VFR,18.8,16.6,0,0,0,NA,1019,METAR KMGR 120515Z AUTO 00000KT 10SM CLR 19/17 A3009 RMK AO2 T01880166 $,2025-09-12T05:17:26Z,2025-09-12T01:17:26Z,Moultrie Municipal Airport,31.0848999023,-83.8032989502,US,US-GA
KMGY,"Dayton/Wright Brothers Arpt, OH, US",2025-09-12T04:53:00Z,2025-09-12 00:53:00,VFR,17.2,10,70,7,0,NA,1022.4,METAR KMGY 120453Z AUTO 07007KT 10SM CLR 17/10 A3019 RMK AO2 SLP217 T01720100 402830117,2025-09-12T05:00:48Z,2025-09-12T01:00:48Z,Dayton-Wright Brothers Airport,39.5890007019,-84.224899292,US,US-OH
KMHE,"Mitchell Muni, SD, US",2025-09-12T04:53:00Z,2025-09-11 23:53:00,VFR,21.7,18.9,140,11,0,NA,1014,METAR KMHE 120453Z AUTO 14011KT 10SM CLR 22/19 A2994 RMK AO2 SLP130 T02170189,2025-09-12T05:00:48Z,2025-09-12T01:00:48Z,Mitchell Municipal Airport,43.7747993469,-98.0385971069,US,US-SD
KMHK,"Manhattan Rgnl, KS, US",2025-09-12T04:52:00Z,2025-09-11 23:52:00,VFR,24.4,17.8,190,7,0,NA,1017,METAR KMHK 120452Z AUTO 19007KT 10SM CLR 24/18 A3003 RMK AO2 SLP159 T02440178,2025-09-12T05:00:48Z,2025-09-12T01:00:48Z,Manhattan Regional Airport,39.14099884033203,-96.6707992553711,US,US-KS
KMHL,"Marshall Muni, MO, US",2025-09-12T04:55:00Z,2025-09-11 23:55:00,VFR,22,17,90,3,0,NA,1020.1,METAR KMHL 120455Z AUTO 09003KT 10SM CLR 22/17 A3012 RMK AO2,2025-09-12T05:00:48Z,2025-09-12T01:00:48Z,Marshall Memorial Municipal Airport,39.0957984924,-93.2029037476,US,US-MO
KMHL,"Marshall Muni, MO, US",2025-09-12T05:15:00Z,2025-09-12 00:15:00,VFR,22,17,90,4,0,NA,1019.7,METAR KMHL 120515Z AUTO 09004KT 10SM CLR 22/17 A3011 RMK AO2,2025-09-12T05:17:26Z,2025-09-12T01:17:26Z,Marshall Memorial Municipal Airport,39.0957984924,-93.2029037476,US,US-MO
KMHP,"Metter Muni, GA, US",2025-09-12T04:55:00Z,2025-09-12 04:55:00,VFR,20.8,19.1,0,0,0,NA,1019.4,METAR KMHP 120455Z AUTO 00000KT 10SM BKN065 BKN075 21/19 A3010 RMK AO2 T02080191,2025-09-12T05:00:48Z,2025-09-12T01:00:48Z,Metter Municipal Airport,32.373885,-82.081775,US,US-GA
KMHR,"Sacramento/Mather Fld, CA, US",2025-09-12T04:35:00Z,2025-09-11 21:35:00,NA,20,15,200,5,0,NA,1013,METAR KMHR 120435Z AUTO 20005KT 10SM 20/15 A2991 RMK AO2,2025-09-12T05:00:48Z,2025-09-12T01:00:48Z,Sacramento Mather Airport,38.554744,-121.297989,US,US-CA
KMHR,"Sacramento/Mather Fld, CA, US",2025-09-12T04:55:00Z,2025-09-11 21:55:00,NA,19,15,200,5,0,NA,1013,METAR KMHR 120455Z AUTO 20005KT 10SM 19/15 A2991 RMK AO2,2025-09-12T05:17:26Z,2025-09-12T01:17:26Z,Sacramento Mather Airport,38.554744,-121.297989,US,US-CA
KMHT,"Manchester Rgnl, NH, US",2025-09-12T04:53:00Z,2025-09-12 00:53:00,VFR,16.1,10,360,4,0,NA,1020.7,METAR KMHT 120453Z 36004KT 10SM CLR 16/10 A3014 RMK AO2 SLP218 T01610100 402670078,2025-09-12T05:00:48Z,2025-09-12T01:00:48Z,Manchester-Boston Regional Airport,42.932598,-71.435699,US,US-NH
KMHV,"Mojave Arpt, CA, US",2025-09-12T04:20:00Z,2025-09-11 21:20:00,VFR,19,9,300,19,30,NA,1014,METAR KMHV 120420Z AUTO 30019G30KT 10SM CLR 19/09 A2994 RMK AO2,2025-09-12T05:00:48Z,2025-09-12T01:00:48Z,Mojave Airport,35.05939865,-118.1520004,US,US-CA
KMHV,"Mojave Arpt, CA, US",2025-09-12T04:40:00Z,2025-09-11 21:40:00,VFR,19,9,310,24,0,NA,1014,METAR KMHV 120440Z AUTO 31024KT 10SM CLR 19/09 A2994 RMK AO2,2025-09-12T05:17:26Z,2025-09-12T01:17:26Z,Mojave Airport,35.05939865,-118.1520004,US,US-CA
KMIA,"Miami Intl, FL, US",2025-09-12T04:53:00Z,2025-09-12 00:53:00,VFR,25.6,24.4,340,3,0,NA,1014.3,METAR KMIA 120453Z 34003KT 10SM FEW050 FEW080 BKN250 26/24 A2995 RMK AO2 SLP142 FRQ LTGIC DSNT NE CB DSNT NE T02560244 403440244 $,2025-09-12T05:00:48Z,2025-09-12T01:00:48Z,Miami International Airport,25.79319953918457,-80.29060363769531,US,US-FL
KMIC,"Minneapolis/Crystal Arpt, MN, US",2025-09-12T04:53:00Z,2025-09-12 04:53:00,VFR,18.9,15,140,8,0,NA,1019.7,METAR KMIC 120453Z AUTO 14008KT 10SM CLR 19/15 A3011 RMK AO2 SLP192 T01890150,2025-09-12T05:00:48Z,2025-09-12T01:00:48Z,Crystal Airport,45.062,-93.353897,US,US-MN
KMIE,"Muncie/Johnson Fld, IN, US",2025-09-12T04:53:00Z,2025-09-12 00:53:00,VFR,15.6,10,110,5,0,NA,1022.8,METAR KMIE 120453Z AUTO 11005KT 10SM CLR 16/10 A3020 RMK AO2 SLP218 T01560100 402940083,2025-09-12T05:00:48Z,2025-09-12T01:00:48Z,Delaware County Johnson Field,40.242298,-85.395897,US,US-IN
KMIO,"Miami Muni, OK, US",2025-09-12T04:35:00Z,2025-09-12 04:35:00,VFR,NA,NA,0,0,0,NA,1019,METAR KMIO 120435Z AUTO 00000KT 10SM SCT110 A3009 RMK A01,2025-09-12T05:00:48Z,2025-09-12T01:00:48Z,Miami Municipal Airport,36.909199,-94.887497,US,US-OK
KMIO,"Miami Muni, OK, US",2025-09-12T04:55:00Z,2025-09-12 04:55:00,VFR,NA,NA,130,3,0,NA,1019,METAR KMIO 120455Z AUTO 13003KT 10SM CLR A3009 RMK A01,2025-09-12T05:17:26Z,2025-09-12T01:17:26Z,Miami Municipal Airport,36.909199,-94.887497,US,US-OK
KMIV,"Millville Muni, NJ, US",2025-09-12T04:54:00Z,2025-09-12 00:54:00,VFR,15.6,15,0,0,0,NA,1020.4,METAR KMIV 120454Z AUTO 00000KT 10SM CLR 16/15 A3013 RMK AO2 SLP201 T01560150 402670139 $,2025-09-12T05:00:48Z,2025-09-12T01:00:48Z,Millville Municipal Airport,39.367802,-75.072197,US,US-NJ
KMIW,"Marshalltown Muni, IA, US",2025-09-12T04:53:00Z,2025-09-12 04:53:00,VFR,16.7,13.3,100,6,0,NA,1020.4,METAR KMIW 120453Z AUTO 10006KT 10SM CLR 17/13 A3013 RMK AO2 SLP198 T01670133,2025-09-12T05:00:48Z,2025-09-12T01:00:48Z,Marshalltown Municipal Airport,42.112701,-92.917801,US,US-IA
KMJD,"Picayune Muni, MS, US",2025-09-12T04:55:00Z,2025-09-12 04:55:00,VFR,21,21,0,0,0,8,1018.7,METAR KMJD 120455Z AUTO 00000KT 8SM CLR 21/21 A3008 RMK AO2,2025-09-12T05:00:47Z,2025-09-12T01:00:47Z,Picayune Municipal Airport,30.487499239999998,-89.65119934,US,US-MS
KMJQ,"Jackson Muni, MN, US",2025-09-12T04:55:00Z,2025-09-12 04:55:00,VFR,18,14,150,8,0,NA,1019,METAR KMJQ 120455Z AUTO 15008KT 10SM CLR 18/14 A3009 RMK AO2,2025-09-12T05:00:48Z,2025-09-12T01:00:48Z,Jackson Municipal Airport,43.650002,-94.986504,US,US-MN
KMJQ,"Jackson Muni, MN, US",2025-09-12T05:15:00Z,2025-09-12 05:15:00,VFR,19,14,150,7,0,NA,1019,METAR KMJQ 120515Z AUTO 15007KT 10SM CLR 19/14 A3009 RMK AO2,2025-09-12T05:17:26Z,2025-09-12T01:17:26Z,Jackson Municipal Airport,43.650002,-94.986504,US,US-MN
KMJX,"Toms River/Miller Arpt, NJ, US",2025-09-12T04:56:00Z,2025-09-12 00:56:00,VFR,11.1,10,0,0,0,NA,1020.7,METAR KMJX 120456Z AUTO 00000KT 10SM CLR 11/10 A3014 RMK AO2 SLP211 T01110100 402720111 $,2025-09-12T05:00:47Z,2025-09-12T01:00:47Z,Ocean County Airport,39.92750168,-74.29239655,US,US-NJ
KMKC,"Kansas City/Wheeler Downtown Arpt, MO, US",2025-09-12T04:54:00Z,2025-09-11 23:54:00,VFR,25,16.7,230,4,0,NA,1018.7,METAR KMKC 120454Z 23004KT 10SM CLR 25/17 A3008 RMK AO2 SLP176 T02500167,2025-09-12T05:00:48Z,2025-09-12T01:00:48Z,Charles B. Wheeler Downtown Airport,39.123199,-94.592796,US,US-MO
KMKE,"Milwaukee/Mitchell Intl, WI, US",2025-09-12T04:52:00Z,2025-09-11 23:52:00,IFR,16.7,15.6,40,6,0,NA,1023.5,METAR KMKE 120452Z 04006KT 10SM OVC008 17/16 A3022 RMK AO2 SLP232 T01670156,2025-09-12T05:00:48Z,2025-09-12T01:00:48Z,General Mitchell International Airport,42.947201,-87.896599,US,US-WI
KMKG,"Muskegon Cnty Arpt, MI, US",2025-09-12T04:55:00Z,2025-09-12 00:55:00,VFR,15,12.2,0,0,0,NA,1023.5,METAR KMKG 120455Z AUTO 00000KT 10SM CLR 15/12 A3022 RMK AO2 SLP231 T01500122 402560117,2025-09-12T05:00:47Z,2025-09-12T01:00:47Z,Muskegon County Airport,43.169498,-86.238197,US,US-MI
KMKJ,"Marion/Mountain Empire Arpt, VA, US",2025-09-12T04:55:00Z,2025-09-12 04:55:00,VFR,10.3,9,0,0,0,NA,1024.8,METAR KMKJ 120455Z AUTO 00000KT 10SM CLR 10/09 A3026 RMK AO2 T01030090 402400062,2025-09-12T05:00:47Z,2025-09-12T01:00:47Z,Mountain Empire Airport,36.894901,-81.349899,US,US-VA
KMKJ,"Marion/Mountain Empire Arpt, VA, US",2025-09-12T05:15:00Z,2025-09-12 05:15:00,VFR,10,8.7,0,0,0,NA,1024.8,METAR KMKJ 120515Z AUTO 00000KT 10SM CLR 10/09 A3026 RMK AO2 T01000087,2025-09-12T05:17:26Z,2025-09-12T01:17:26Z,Mountain Empire Airport,36.894901,-81.349899,US,US-VA
KMKL,"Jackson/McKellar Rgnl, TN, US",2025-09-12T04:53:00Z,2025-09-11 23:53:00,VFR,20,18.3,0,0,0,NA,1019.7,METAR KMKL 120453Z AUTO 00000KT 10SM CLR 20/18 A3011 RMK AO1 SLP190 T02000183,2025-09-12T05:00:48Z,2025-09-12T01:00:48Z,McKellar-Sipes Regional Airport,35.599899,-88.915604,US,US-TN
KMKN,"Comanche Cnty, TX, US",2025-09-12T04:55:00Z,2025-09-12 04:55:00,VFR,23,15.5,160,3,0,NA,1020.7,METAR KMKN 120455Z AUTO 16003KT 10SM CLR 23/16 A3014 RMK AO2 T02300155,2025-09-12T05:00:48Z,2025-09-12T01:00:48Z,Comanche County City Airport,31.9168,-98.600304,US,US-TX
KMKN,"Comanche Cnty, TX, US",2025-09-12T05:15:00Z,2025-09-12 05:15:00,VFR,22.7,15.9,160,4,0,NA,1020.7,METAR KMKN 120515Z AUTO 16004KT 10SM CLR 23/16 A3014 RMK AO2 T02270159,2025-09-12T05:17:26Z,2025-09-12T01:17:26Z,Comanche County City Airport,31.9168,-98.600304,US,US-TX
KMKO,"Muskogee/Davis Fld, OK, US",2025-09-12T04:53:00Z,2025-09-12 04:53:00,VFR,21.7,18.3,150,6,0,NA,1019.7,METAR KMKO 120453Z AUTO 15006KT 10SM CLR 22/18 A3011 RMK AO2 SLP188 T02170183,2025-09-12T05:00:48Z,2025-09-12T01:00:48Z,Muskogee-Davis Regional Airport,35.656502,-95.366699,US,US-OK
KMKS,"Moncks Corner/Berkeley Cnty, SC, US",2025-09-12T04:55:00Z,2025-09-12 04:55:00,VFR,20,20,0,0,0,NA,1019,METAR KMKS 120455Z AUTO 00000KT 10SM SCT020 20/20 A3009 RMK AO2,2025-09-12T05:00:47Z,2025-09-12T01:00:47Z,Berkeley County Airport,33.185501,-80.036301,US,US-SC
KMKT,"Mankato Rgnl, MN, US",2025-09-12T04:56:00Z,2025-09-12 04:56:00,VFR,18.3,15.6,130,10,0,NA,1019.7,METAR KMKT 120456Z AUTO 13010KT 10SM CLR 18/16 A3011 RMK AO2 SLP194 T01830156 PNO $,2025-09-12T05:00:47Z,2025-09-12T01:00:47Z,Mankato Regional Airport,44.224781,-93.919128,US,US-MN
KMKY,"Marco Island Arpt, FL, US",2025-09-12T04:56:00Z,2025-09-12 00:56:00,VFR,25.6,25,30,5,0,NA,NA,METAR KMKY 120456Z AUTO 03005KT 10SM SCT007 26/25 RMK AO2 SLPNO T02560250 PNO $,2025-09-12T05:00:47Z,2025-09-12T01:00:47Z,Marco Island Executive Airport,25.995001,-81.672501,US,US-FL
KMLB,"Melbourne Intl, FL, US",2025-09-12T04:53:00Z,2025-09-12 00:53:00,VFR,25.6,23.3,330,5,0,NA,1015.7,METAR KMLB 120453Z AUTO 33005KT 10SM SCT043 BKN055 BKN120 26/23 A2999 RMK AO2 SLP154 T02560233 403060239,2025-09-12T05:00:48Z,2025-09-12T01:00:48Z,Melbourne Orlando International Airport,28.1028,-80.645302,US,US-FL
KMLC,"McAlester Rgnl, OK, US",2025-09-12T04:53:00Z,2025-09-11 23:53:00,VFR,20,18.3,0,0,0,NA,1019.4,METAR KMLC 120453Z AUTO 00000KT 10SM FEW070 20/18 A3010 RMK AO2 SLP184 T02000183 $,2025-09-12T05:00:48Z,2025-09-12T01:00:48Z,Mc Alester Regional Airport,34.882401,-95.783501,US,US-OK
KMLE,"Omaha/Millard Arpt, NE, US",2025-09-12T04:55:00Z,2025-09-12 04:55:00,VFR,23.3,18.1,130,5,0,NA,1017,METAR KMLE 120455Z AUTO 13005KT 10SM CLR 23/18 A3003 RMK AO2 T02330181,2025-09-12T05:00:47Z,2025-09-12T01:00:47Z,Millard Airport,41.195877,-96.112107,US,US-NE
KMLF,"Milford Muni, UT, US",2025-09-12T04:52:00Z,2025-09-12 04:52:00,VFR,16.1,-1.7,230,9,0,NA,1016.7,METAR KMLF 120452Z AUTO 23009KT 10SM CLR 16/M02 A3002 RMK AO2 SLP106 T01611017,2025-09-12T05:00:48Z,2025-09-12T01:00:48Z,Milford Municipal-Ben and Judy Briscoe Field,38.426601,-113.012001,US,US-UT
KMLI,"Moline/Quad City Intl, IL, US",2025-09-12T04:52:00Z,2025-09-11 23:52:00,VFR,16.7,13.9,80,8,0,NA,1021.4,METAR KMLI 120452Z AUTO 08008KT 10SM CLR 17/14 A3016 RMK AO2 SLP210 T01670139,2025-09-12T05:00:48Z,2025-09-12T01:00:48Z,Quad City International Airport,41.448502,-90.5075,US,US-IL
KMLJ,"Milledgeville/Baldwin Cnty, GA, US",2025-09-12T04:55:00Z,2025-09-12 04:55:00,VFR,19,18,0,0,0,NA,1019.4,METAR KMLJ 120455Z AUTO 00000KT 10SM FEW075 19/18 A3010 RMK AO2,2025-09-12T05:00:48Z,2025-09-12T01:00:48Z,Baldwin County Regional Airport,33.154202,-83.240701,US,US-GA
KMLS,"Miles City/Wiley Fld, MT, US",2025-09-12T04:53:00Z,2025-09-11 22:53:00,VFR,18.9,11.1,320,8,0,NA,1013,METAR KMLS 120453Z AUTO 32008KT 10SM CLR 19/11 A2991 RMK AO2 SLP112 T01890111,2025-09-12T05:00:48Z,2025-09-12T01:00:48Z,Miles City Airport - Frank Wiley Field,46.427268,-105.885372,US,US-MT
KMLT,"Millinocket Muni, ME, US",2025-09-12T04:53:00Z,2025-09-12 04:53:00,VFR,10.6,5.6,320,5,0,NA,1021.8,METAR KMLT 120453Z AUTO 32005KT 10SM CLR 11/06 A3017 RMK AO2 SLP223 T01060056 402280056,2025-09-12T05:00:48Z,2025-09-12T01:00:48Z,Millinocket Municipal Airport,45.6478,-68.6856,US,US-ME
KMLU,"Monroe Rgnl, LA, US",2025-09-12T04:53:00Z,2025-09-11 23:53:00,VFR,22.8,20.6,VAR,NA,0,NA,1019.7,METAR KMLU 120453Z AUTO 10SM CLR 23/21 A3011 RMK AO2 SLP193 T02280206,2025-09-12T05:00:48Z,2025-09-12T01:00:48Z,Monroe Regional Airport,32.510899,-92.037697,US,US-LA
KMMH,"Mammoth/Yosemite Arpt, CA, US",2025-09-12T04:55:00Z,2025-09-11 21:55:00,VFR,12,3,280,7,0,NA,1021.1,METAR KMMH 120455Z AUTO 28007KT 10SM FEW070 SCT085 12/03 A3015 RMK AO2,2025-09-12T05:00:47Z,2025-09-12T01:00:47Z,Mammoth Yosemite Airport,37.625381,-118.84306,US,US-CA
KMMH,"Mammoth/Yosemite Arpt, CA, US",2025-09-12T05:15:00Z,2025-09-11 22:15:00,VFR,12,3,290,9,0,NA,1021.4,METAR KMMH 120515Z AUTO 29009KT 10SM SCT080 12/03 A3016 RMK AO2,2025-09-12T05:17:26Z,2025-09-12T01:17:26Z,Mammoth Yosemite Airport,37.625381,-118.84306,US,US-CA
KMMI,"Athens/McMinn Cnty, TN, US",2025-09-12T04:35:00Z,2025-09-12 00:35:00,VFR,16,16,0,0,0,9,1021.4,METAR KMMI 120435Z AUTO 00000KT 9SM CLR 16/16 A3016 RMK A01,2025-09-12T05:00:48Z,2025-09-12T01:00:48Z,McMinn County Airport,35.39730072,-84.56259918,US,US-TN
KMMI,"Athens/McMinn Cnty, TN, US",2025-09-12T04:55:00Z,2025-09-12 00:55:00,VFR,16,16,0,0,0,NA,1021.4,METAR KMMI 120455Z AUTO 00000KT 10SM CLR 16/16 A3016 RMK A01,2025-09-12T05:17:26Z,2025-09-12T01:17:26Z,McMinn County Airport,35.39730072,-84.56259918,US,US-TN
KMMK,"Meriden/Markham Muni, CT, US",2025-09-12T04:53:00Z,2025-09-12 04:53:00,VFR,14.4,13.3,0,0,0,NA,1020.7,METAR KMMK 120453Z AUTO 00000KT 10SM CLR 14/13 A3014 RMK AO2 SLP206 T01440133 402670094,2025-09-12T05:00:48Z,2025-09-12T01:00:48Z,Meriden Markham Municipal Airport,41.50870132446289,-72.829498291015625,US,US-CT
KMML,"Marshall Muni, MN, US",2025-09-12T04:56:00Z,2025-09-11 23:56:00,VFR,18.3,16.7,130,7,0,NA,1017.4,METAR KMML 120456Z AUTO 13007KT 10SM CLR 18/17 A3004 RMK AO2 SLP171 T01830167,2025-09-12T05:00:47Z,2025-09-12T01:00:47Z,Southwest Minnesota Regional Airport - Marshall/Ryan Field,44.45050049,-95.82189941,US,US-MN
KMMU,"Morristown Muni, NJ, US",2025-09-12T04:55:00Z,2025-09-12 00:55:00,VFR,11,11,0,0,0,NA,1021.1,METAR KMMU 120455Z AUTO 00000KT 10SM CLR 11/11 A3015 RMK AO2,2025-09-12T05:00:47Z,2025-09-12T01:00:47Z,Morristown Municipal Airport,40.799062,-74.414949,US,US-NJ
KMMU,"Morristown Muni, NJ, US",2025-09-12T05:15:00Z,2025-09-12 01:15:00,VFR,11,11,0,0,0,NA,1021.1,METAR KMMU 120515Z AUTO 00000KT 10SM CLR 11/11 A3015 RMK AO2,2025-09-12T05:17:26Z,2025-09-12T01:17:26Z,Morristown Municipal Airport,40.799062,-74.414949,US,US-NJ
KMMV,"McMinnville Muni, OR, US",2025-09-12T04:53:00Z,2025-09-12 04:53:00,VFR,15.6,11.1,230,4,0,NA,1018,METAR KMMV 120453Z AUTO 23004KT 10SM BKN033 BKN041 16/11 A3006 RMK AO2 SLP179 T01560111,2025-09-12T05:00:48Z,2025-09-12T01:00:48Z,Mc Minnville Municipal Airport,45.19440079,-123.1360016,US,US-OR
KMNI,"Manning/Cooper Rgnl, SC, US",2025-09-12T04:55:00Z,2025-09-12 04:55:00,VFR,18,17,0,0,0,NA,1019.4,METAR KMNI 120455Z AUTO 00000KT 10SM CLR 18/17 A3010 RMK AO2,2025-09-12T05:00:48Z,2025-09-12T01:00:48Z,Santee Cooper Regional Airport,33.587101,-80.208702,US,US-SC
KMNM,"Menominee/Twin Cnty, MI, US",2025-09-12T04:57:00Z,2025-09-11 23:57:00,MVFR,11.7,11.7,0,0,0,4,1024.5,METAR KMNM 120457Z AUTO 00000KT 4SM BR CLR 12/12 A3025 RMK AO2 SLP243 T01170117 401940111 $,2025-09-12T05:00:47Z,2025-09-12T01:00:47Z,Menominee–Marinette Twin County Airport,45.126701,-87.638397,US,US-MI
KMNM,"Menominee/Twin Cnty, MI, US",2025-09-12T05:12:00Z,2025-09-12 00:12:00,IFR,12,12,0,0,0,1.75,1024.5,SPECI KMNM 120512Z AUTO 00000KT 1 3/4SM BR CLR 12/12 A3025 RMK AO2 $,2025-09-12T05:17:26Z,2025-09-12T01:17:26Z,Menominee–Marinette Twin County Airport,45.126701,-87.638397,US,US-MI
KMNN,"Marion Muni, OH, US",2025-09-12T04:53:00Z,2025-09-12 00:53:00,VFR,11.1,8.9,20,3,0,NA,1023.1,METAR KMNN 120453Z AUTO 02003KT 10SM CLR 11/09 A3021 RMK AO2 SLP229 T01110089 402720106,2025-09-12T05:00:48Z,2025-09-12T01:00:48Z,Marion Municipal Airport,40.6161994934,-83.06349945070001,US,US-OH
KMNV,"Madisonville/Monroe Cnty, TN, US",2025-09-12T04:35:00Z,2025-09-12 04:35:00,VFR,17,17,0,0,0,7,1021.1,METAR KMNV 120435Z AUTO 00000KT 7SM CLR 17/17 A3015 RMK A01,2025-09-12T05:00:48Z,2025-09-12T01:00:48Z,Monroe County Airport,35.545399,-84.380203,US,US-TN
KMNV,"Madisonville/Monroe Cnty, TN, US",2025-09-12T04:55:00Z,2025-09-12 04:55:00,VFR,17,17,0,0,0,9,1021.1,METAR KMNV 120455Z AUTO 00000KT 9SM CLR 17/17 A3015 RMK A01,2025-09-12T05:17:26Z,2025-09-12T01:17:26Z,Monroe County Airport,35.545399,-84.380203,US,US-TN
KMNZ,"Hamilton Muni, TX, US",2025-09-12T04:55:00Z,2025-09-12 04:55:00,VFR,22,19,150,6,0,NA,1020.1,METAR KMNZ 120455Z AUTO 15006KT 10SM CLR 22/19 A3012 RMK AO2 403280167,2025-09-12T05:00:47Z,2025-09-12T01:00:47Z,Hamilton Municipal Airport,31.665899,-98.148598,US,US-TX
KMOB,"Mobile Rgnl, AL, US",2025-09-12T04:56:00Z,2025-09-11 23:56:00,VFR,22.2,17.2,0,0,0,NA,1019.4,METAR KMOB 120456Z AUTO 00000KT 10SM CLR 22/17 A3010 RMK AO2 SLP187 T02220172,2025-09-12T05:00:47Z,2025-09-12T01:00:47Z,Mobile Regional Airport,30.6912,-88.242798,US,US-AL
KMOD,"Modesto/Sham Fld, CA, US",2025-09-12T04:53:00Z,2025-09-11 21:53:00,VFR,21.1,13.3,310,8,0,NA,1013.3,METAR KMOD 120453Z AUTO 31008KT 10SM CLR 21/13 A2992 RMK AO2 SLP131 T02110133,2025-09-12T05:00:48Z,2025-09-12T01:00:48Z,Modesto City Co-Harry Sham Field,37.625801,-120.954002,US,US-CA
KMOP,"Mount Pleasant Muni, MI, US",2025-09-12T04:55:00Z,2025-09-12 04:55:00,VFR,13,13,0,0,0,NA,1024.1,METAR KMOP 120455Z AUTO 00000KT 10SM CLR 13/13 A3024 RMK AO2 T01300130,2025-09-12T05:00:48Z,2025-09-12T01:00:48Z,Mount Pleasant Municipal Airport,43.6217,-84.737503,US,US-MI
KMOP,"Mount Pleasant Muni, MI, US",2025-09-12T05:15:00Z,2025-09-12 05:15:00,VFR,12.9,12.9,0,0,0,NA,1024.1,METAR KMOP 120515Z AUTO 00000KT 10SM CLR 13/13 A3024 RMK AO2 T01290129,2025-09-12T05:17:26Z,2025-09-12T01:17:26Z,Mount Pleasant Municipal Airport,43.6217,-84.737503,US,US-MI
KMOR,"Morristown/Moore Arpt, TN, US",2025-09-12T04:35:00Z,2025-09-12 04:35:00,VFR,18,18,0,0,0,NA,1021.4,METAR KMOR 120435Z AUTO 00000KT 10SM SCT050 BKN060 18/18 A3016 RMK A01,2025-09-12T05:00:48Z,2025-09-12T01:00:48Z,Morristown Regional Airport,36.179401,-83.375504,US,US-TN
KMOR,"Morristown/Moore Arpt, TN, US",2025-09-12T04:55:00Z,2025-09-12 04:55:00,VFR,18,18,0,0,0,NA,1021.8,METAR KMOR 120455Z AUTO 00000KT 10SM BKN055 BKN065 18/18 A3017 RMK A01,2025-09-12T05:17:26Z,2025-09-12T01:17:26Z,Morristown Regional Airport,36.179401,-83.375504,US,US-TN
KMOT,"Minot Intl, ND, US",2025-09-12T04:54:00Z,2025-09-11 23:54:00,VFR,20,18.3,330,4,0,NA,1012.3,METAR KMOT 120454Z AUTO 33004KT 10SM TS OVC055 20/18 A2989 RMK AO2 LTG DSNT NE AND E TSB48 SLP114 T02000183,2025-09-12T05:00:48Z,2025-09-12T01:00:48Z,Minot International Airport,48.2593994140625,-101.27999877929688,US,US-ND
KMOX,"Morris Muni, MN, US",2025-09-12T04:55:00Z,2025-09-12 04:55:00,VFR,19,17,130,11,0,NA,1016.7,METAR KMOX 120455Z AUTO 13011KT 10SM CLR 19/17 A3002 RMK AO2,2025-09-12T05:00:47Z,2025-09-12T01:00:47Z,Morris Municipal Airport Charlie Schmidt Field,45.566002,-95.967201,US,US-MN
KMOX,"Morris Muni, MN, US",2025-09-12T05:15:00Z,2025-09-12 05:15:00,VFR,19,17,120,11,0,NA,1016.3,METAR KMOX 120515Z AUTO 12011KT 10SM CLR 19/17 A3001 RMK AO2,2025-09-12T05:17:26Z,2025-09-12T01:17:26Z,Morris Municipal Airport Charlie Schmidt Field,45.566002,-95.967201,US,US-MN
KMPE,"Philadelphia Muni, MS, US",2025-09-12T04:55:00Z,2025-09-12 04:55:00,VFR,NA,NA,0,0,0,9,1018.7,METAR KMPE 120455Z AUTO 00000KT 9SM FEW048 FEW060 A3008 RMK AO2,2025-09-12T05:00:47Z,2025-09-12T01:00:47Z,Philadelphia Municipal Airport,32.7994,-89.125999,US,US-MS
KMPE,"Philadelphia Muni, MS, US",2025-09-12T05:15:00Z,2025-09-12 05:15:00,VFR,NA,NA,0,0,0,NA,1018.7,METAR KMPE 120515Z AUTO 00000KT 10SM BKN049 BKN055 A3008 RMK AO2,2025-09-12T05:17:26Z,2025-09-12T01:17:26Z,Philadelphia Municipal Airport,32.7994,-89.125999,US,US-MS
KMPO,"Mount Pocono Muni, PA, US",2025-09-12T04:53:00Z,2025-09-12 00:53:00,VFR,14.4,9.4,360,7,0,NA,1022.8,METAR KMPO 120453Z AUTO 36007KT 10SM CLR 14/09 A3020 RMK AO2 SLP221 T01440094 402330067,2025-09-12T05:00:48Z,2025-09-12T01:00:48Z,Pocono Mountains Municipal Airport,41.136025,-75.379572,US,US-PA
KMPR,"McPherson Arpt, KS, US",2025-09-12T04:55:00Z,2025-09-12 04:55:00,VFR,22.7,17.7,150,7,0,NA,1017.4,METAR KMPR 120455Z AUTO 15007KT 10SM CLR 23/18 A3004 RMK AO2 T02270177,2025-09-12T05:00:47Z,2025-09-12T01:00:47Z,Mc Pherson Airport,38.352402,-97.691299,US,US-KS
KMPV,"Montpelier/Knapp Arpt, VT, US",2025-09-12T04:51:00Z,2025-09-12 00:51:00,VFR,8.3,6.1,0,0,0,6,1024.5,METAR KMPV 120451Z AUTO 00000KT 6SM BR CLR 08/06 A3025 RMK AO2 SLP244 T00830061 402330044,2025-09-12T05:00:48Z,2025-09-12T01:00:48Z,Edward F Knapp State Airport,44.20349884,-72.56230164,US,US-VT
KMPZ,"Mount Pleasant Muni, IA, US",2025-09-12T04:35:00Z,2025-09-11 23:35:00,VFR,17,13,100,5,0,NA,1021.1,METAR KMPZ 120435Z AUTO 10005KT 10SM CLR 17/13 A3015 RMK AO2,2025-09-12T05:00:48Z,2025-09-12T01:00:48Z,Mount Pleasant Municipal Airport,40.94660187,-91.51110077,US,US-IA
KMPZ,"Mount Pleasant Muni, IA, US",2025-09-12T04:55:00Z,2025-09-11 23:55:00,VFR,17,13,100,5,0,NA,1021.1,METAR KMPZ 120455Z AUTO 10005KT 10SM CLR 17/13 A3015 RMK AO2,2025-09-12T05:17:26Z,2025-09-12T01:17:26Z,Mount Pleasant Municipal Airport,40.94660187,-91.51110077,US,US-IA
KMQB,"Macomb Muni, IL, US",2025-09-12T04:55:00Z,2025-09-11 23:55:00,VFR,14.6,12.3,70,3,0,NA,1021.8,METAR KMQB 120455Z AUTO 07003KT 10SM CLR 15/12 A3017 RMK AO2 T01460123,2025-09-12T05:00:47Z,2025-09-12T01:00:47Z,Macomb Municipal Airport,40.5200996399,-90.6523971558,US,US-IL
KMQI,"Manteo/Dare Cnty, NC, US",2025-09-12T04:45:00Z,2025-09-12 00:45:00,VFR,21,17,60,9,0,NA,1019.4,METAR KMQI 120445Z AUTO 06009KT 10SM SCT080 21/17 A3010 RMK AO2 T02100170,2025-09-12T05:00:48Z,2025-09-12T01:00:48Z,Dare County Regional Airport,35.91879,-75.695662,US,US-NC
KMQI,"Manteo/Dare Cnty, NC, US",2025-09-12T05:05:00Z,2025-09-12 01:05:00,VFR,21,16.7,50,7,0,NA,1019.4,METAR KMQI 120505Z AUTO 05007KT 10SM BKN080 21/17 A3010 RMK AO2 T02100167,2025-09-12T05:17:26Z,2025-09-12T01:17:26Z,Dare County Regional Airport,35.91879,-75.695662,US,US-NC
KMQJ,"Indianapolis Rgnl, IN, US",2025-09-12T04:55:00Z,2025-09-12 04:55:00,VFR,14.4,12.6,80,5,0,NA,1022.1,METAR KMQJ 120455Z AUTO 08005KT 10SM CLR 14/13 A3018 RMK AO2 T01440126 $,2025-09-12T05:00:48Z,2025-09-12T01:00:48Z,Indianapolis Regional Airport,39.843498,-85.8971,US,US-IN
KMQJ,"Indianapolis Rgnl, IN, US",2025-09-12T05:15:00Z,2025-09-12 05:15:00,VFR,15.7,12.7,80,6,0,NA,1022.4,METAR KMQJ 120515Z AUTO 08006KT 10SM CLR 16/13 A3019 RMK AO2 T01570127 $,2025-09-12T05:17:26Z,2025-09-12T01:17:26Z,Indianapolis Regional Airport,39.843498,-85.8971,US,US-IN
KMQS,"Coatesville/Chester Cnty, PA, US",2025-09-12T04:55:00Z,2025-09-12 00:55:00,VFR,15,14,0,0,0,NA,1021.4,METAR KMQS 120455Z AUTO 00000KT 10SM CLR 15/14 A3016 RMK AO2,2025-09-12T05:00:48Z,2025-09-12T01:00:48Z,Chester County G O Carlson Airport,39.97900009,-75.8655014,US,US-PA
KMQS,"Coatesville/Chester Cnty, PA, US",2025-09-12T05:15:00Z,2025-09-12 01:15:00,VFR,15,13,0,0,0,NA,1021.4,METAR KMQS 120515Z AUTO 00000KT 10SM CLR 15/13 A3016 RMK AO2,2025-09-12T05:17:26Z,2025-09-12T01:17:26Z,Chester County G O Carlson Airport,39.97900009,-75.8655014,US,US-PA
KMQY,"Smyrna Arpt, TN, US",2025-09-12T04:56:00Z,2025-09-11 23:56:00,MVFR,18.9,18.9,0,0,0,3,1021.1,METAR KMQY 120456Z AUTO 00000KT 3SM BR CLR 19/19 A3015 RMK AO2 SLP213 T01890189 403170167,2025-09-12T05:00:47Z,2025-09-12T01:00:47Z,Smyrna Airport,36.0089988708,-86.5201034546,US,US-TN
KMRB,"Martinsburg/E West Virginia Rgnl, WV, US",2025-09-12T04:53:00Z,2025-09-12 00:53:00,VFR,13.9,11.7,0,0,0,NA,1021.1,METAR KMRB 120453Z AUTO 00000KT 10SM CLR 14/12 A3015 RMK AO2 SLP207 T01390117 402890100 PWINO,2025-09-12T05:00:48Z,2025-09-12T01:00:48Z,Eastern WV Regional Airport/Shepherd Field,39.40190125,-77.98459625,US,US-WV
KMRC,"Columbia/Maury Cnty, TN, US",2025-09-12T04:35:00Z,2025-09-11 23:35:00,VFR,19,19,0,0,0,6,1019.7,METAR KMRC 120435Z AUTO 00000KT 6SM BR FEW090 19/19 A3011 RMK A01,2025-09-12T05:00:48Z,2025-09-12T01:00:48Z,Maury County Airport,35.5541000366,-87.17890167239999,US,US-TN
KMRC,"Columbia/Maury Cnty, TN, US",2025-09-12T04:50:00Z,2025-09-11 23:50:00,VFR,19,19,0,0,0,6,1020.1,METAR KMRC 120450Z AUTO 00000KT 6SM BR CLR 19/19 A3012 RMK A01,2025-09-12T05:17:26Z,2025-09-12T01:17:26Z,Maury County Airport,35.5541000366,-87.17890167239999,US,US-TN
KMRF,"Marfa Muni, TX, US",2025-09-12T04:01:00Z,2025-09-11 23:01:00,VFR,21.7,12.2,30,5,0,NA,1024.1,METAR KMRF 120401Z AUTO 03005KT 10SM CLR 22/12 A3024 RMK AO2 SLP172 T02170122 $,2025-09-12T05:00:48Z,2025-09-12T01:00:48Z,Marfa Municipal Airport,30.369593,-104.015893,US,US-TX
KMRF,"Marfa Muni, TX, US",2025-09-12T05:01:00Z,2025-09-12 00:01:00,VFR,21.1,12.2,VAR,3,0,NA,1024.5,METAR KMRF 120501Z AUTO VRB03KT 10SM CLR 21/12 A3025 RMK AO2 SLP176 T02110122 $,2025-09-12T05:17:26Z,2025-09-12T01:17:26Z,Marfa Municipal Airport,30.369593,-104.015893,US,US-TX
KMRH,"Beaufort/Smith Fld, NC, US",2025-09-12T04:58:00Z,2025-09-12 04:58:00,VFR,18.9,17.8,10,5,0,NA,1018.4,METAR KMRH 120458Z AUTO 01005KT 10SM CLR 19/18 A3007 RMK AO2 SLP183 T01890178 402500189,2025-09-12T05:00:47Z,2025-09-12T01:00:47Z,Michael J. Smith Field,34.73360062,-76.66059875,US,US-NC
KMRN,"Morganton/Foothills Rgnl, NC, US",2025-09-12T04:55:00Z,2025-09-12 00:55:00,VFR,17.5,16.7,0,0,0,NA,1023.1,METAR KMRN 120455Z AUTO 00000KT 10SM CLR 18/17 A3021 RMK AO2 T01750167,2025-09-12T05:00:47Z,2025-09-12T01:00:47Z,Foothills Regional Airport,35.820202,-81.611397,US,US-NC
KMRN,"Morganton/Foothills Rgnl, NC, US",2025-09-12T05:15:00Z,2025-09-12 01:15:00,VFR,16.8,16.3,0,0,0,NA,1023.1,METAR KMRN 120515Z AUTO 00000KT 10SM CLR 17/16 A3021 RMK AO2 T01680163,2025-09-12T05:17:26Z,2025-09-12T01:17:26Z,Foothills Regional Airport,35.820202,-81.611397,US,US-NC
KMRT,"Marysville/Union Cnty, OH, US",2025-09-12T04:38:00Z,2025-09-12 04:38:00,VFR,11,10,0,0,0,NA,1023.5,METAR KMRT 120438Z 00000KT 10SM CLR 11/10 A3022 RMK AO2,2025-09-12T05:00:48Z,2025-09-12T01:00:48Z,Union County Airport,40.224701,-83.351601,US,US-OH
KMRT,"Marysville/Union Cnty, OH, US",2025-09-12T04:58:00Z,2025-09-12 04:58:00,VFR,11,10,0,0,0,NA,1023.5,METAR KMRT 120458Z 00000KT 10SM CLR 11/10 A3022 RMK AO2,2025-09-12T05:17:26Z,2025-09-12T01:17:26Z,Union County Airport,40.224701,-83.351601,US,US-OH
KMRY,"Monterey Rgnl, CA, US",2025-09-12T04:54:00Z,2025-09-11 21:54:00,MVFR,17.2,13.9,190,4,0,NA,1016,METAR KMRY 120454Z AUTO 19004KT 10SM OVC014 17/14 A3000 RMK AO2 SLP169 T01720139,2025-09-12T05:00:48Z,2025-09-12T01:00:48Z,Monterey Peninsula Airport,36.58700180053711,-121.84300231933594,US,US-CA
KMSL,"Muscle Shoals/NW Alabama Rgnl, AL, US",2025-09-12T04:53:00Z,2025-09-11 23:53:00,VFR,21.1,18.3,80,4,0,NA,1020.1,METAR KMSL 120453Z AUTO 08004KT 10SM BKN110 21/18 A3012 RMK AO2 LTG DSNT W SLP192 T02110183 $,2025-09-12T05:00:48Z,2025-09-12T01:00:48Z,Northwest Alabama Regional Airport,34.745123,-87.612981,US,US-AL
KMSN,"Madison/Dane Cnty Rgnl, WI, US",2025-09-12T04:53:00Z,2025-09-11 23:53:00,VFR,15,12.8,90,3,0,NA,1023.5,METAR KMSN 120453Z AUTO 09003KT 10SM CLR 15/13 A3022 RMK AO2 SLP230 T01500128,2025-09-12T05:00:48Z,2025-09-12T01:00:48Z,Dane County Regional Truax Field,43.1399,-89.337502,US,US-WI
KMSO,"Missoula Intl, MT, US",2025-09-12T04:53:00Z,2025-09-11 22:53:00,VFR,16.7,8.9,90,6,0,NA,1017,METAR KMSO 120453Z AUTO 09006KT 10SM SCT095 17/09 A3003 RMK AO2 RAB04E18 TSE00 SLP159 P0000 T01670089,2025-09-12T05:00:48Z,2025-09-12T01:00:48Z,Missoula International Airport,46.91630173,-114.0910034,US,US-MT
KMSP,"Minneapolis-St Paul Intl, MN, US",2025-09-12T04:53:00Z,2025-09-11 23:53:00,VFR,18.9,15,130,8,0,NA,1020.4,METAR KMSP 120453Z 13008KT 10SM FEW200 19/15 A3013 RMK AO2 SLP200 T01890150,2025-09-12T05:00:48Z,2025-09-12T01:00:48Z,Minneapolis–Saint Paul International Airport / Wold–Chamberlain Field,44.880081,-93.221741,US,US-MN
KMSS,"Massena Intl, NY, US",2025-09-12T04:53:00Z,2025-09-12 00:53:00,VFR,7.2,6.1,0,0,0,NA,1024.1,METAR KMSS 120453Z AUTO 00000KT 10SM CLR 07/06 A3024 RMK AO2 SLP242 T00720061 402390072,2025-09-12T05:00:48Z,2025-09-12T01:00:48Z,Massena International Airport Richards Field,44.936157,-74.844304,US,US-NY
KMSY,"New Orleans/Armstrong Intl, LA, US",2025-09-12T04:53:00Z,2025-09-11 23:53:00,VFR,25.6,19.4,0,0,0,NA,1019,METAR KMSY 120453Z 00000KT 10SM CLR 26/19 A3009 RMK AO2 SLP192 T02560194 $,2025-09-12T05:00:48Z,2025-09-12T01:00:48Z,Louis Armstrong New Orleans International Airport,29.993401,-90.258003,US,US-LA
KMTH,"Marathon Arpt, FL, US",2025-09-12T04:53:00Z,2025-09-12 00:53:00,VFR,26.1,25,0,0,0,NA,1014,METAR KMTH 120453Z AUTO 00000KT 10SM CLR 26/25 A2994 RMK AO2 SLP139 T02610250 $,2025-09-12T05:00:48Z,2025-09-12T01:00:48Z,The Florida Keys Marathon Airport,24.726101,-81.051399,US,US-FL
KMTJ,"Montrose Rgnl, CO, US",2025-09-12T04:53:00Z,2025-09-11 22:53:00,VFR,17.2,8.9,0,0,0,NA,1021.4,METAR KMTJ 120453Z AUTO 00000KT 10SM CLR 17/09 A3016 RMK AO2 SLP132 T01720089,2025-09-12T05:00:48Z,2025-09-12T01:00:48Z,Montrose Regional Airport,38.5098,-107.893997,US,US-CO
KMTN,"Baltimore/Martin State Arpt, MD, US",2025-09-12T04:50:00Z,2025-09-12 00:50:00,VFR,16.9,15.8,330,3,0,NA,1021.4,METAR KMTN 120450Z AUTO 33003KT 10SM CLR 17/16 A3016 RMK AO2 T01690158,2025-09-12T05:00:48Z,2025-09-12T01:00:48Z,Martin State Airport,39.325699,-76.413803,US,US-MD
KMTN,"Baltimore/Martin State Arpt, MD, US",2025-09-12T05:10:00Z,2025-09-12 01:10:00,VFR,17.1,15.6,330,3,0,NA,1021.4,METAR KMTN 120510Z AUTO 33003KT 10SM CLR 17/16 A3016 RMK AO2 T01710156,2025-09-12T05:17:26Z,2025-09-12T01:17:26Z,Martin State Airport,39.325699,-76.413803,US,US-MD
KMTO,"Mattoon/Coles Cnty, IL, US",2025-09-12T04:53:00Z,2025-09-11 23:53:00,VFR,20,16.1,0,0,0,NA,1021.4,METAR KMTO 120453Z AUTO 00000KT 10SM CLR 20/16 A3016 RMK AO2 SLP206 T02000161,2025-09-12T05:00:48Z,2025-09-12T01:00:48Z,Coles County Memorial Airport,39.477901,-88.279198,US,US-IL
KMTP,"Montauk Arpt, NY, US",2025-09-12T04:54:00Z,2025-09-12 00:54:00,NA,16.7,13.3,0,0,0,NA,1020.4,METAR KMTP 120454Z AUTO 00000KT 17/13 A3013 RMK AO1 SLP202 T01670133 402670167,2025-09-12T05:00:48Z,2025-09-12T01:00:48Z,Montauk Airport,41.0765,-71.920797,US,US-NY
KMTV,"Martinsville/Blue Ridge Arpt, VA, US",2025-09-12T04:55:00Z,2025-09-12 04:55:00,VFR,13.7,12.5,0,0,0,NA,1022.4,METAR KMTV 120455Z AUTO 00000KT 10SM SCT060 SCT080 14/13 A3019 RMK AO2 T01370125 402750112,2025-09-12T05:00:47Z,2025-09-12T01:00:47Z,Blue Ridge Airport,36.630699,-80.018303,US,US-VA
KMTV,"Martinsville/Blue Ridge Arpt, VA, US",2025-09-12T05:15:00Z,2025-09-12 05:15:00,VFR,14,12.6,0,0,0,NA,1022.8,METAR KMTV 120515Z AUTO 00000KT 10SM BKN060 BKN080 14/13 A3020 RMK AO2 T01400126,2025-09-12T05:17:26Z,2025-09-12T01:17:26Z,Blue Ridge Airport,36.630699,-80.018303,US,US-VA
KMTW,"Manitowoc Muni, WI, US",2025-09-12T04:56:00Z,2025-09-11 23:56:00,VFR,11.1,11.1,VAR,NA,0,7,1024.1,METAR KMTW 120456Z AUTO 7SM SCT001 11/11 A3024 RMK AO2 SLP241 T01110111 402000111 $,2025-09-12T05:00:47Z,2025-09-12T01:00:47Z,Manitowoc County Airport,44.127116,-87.681983,US,US-WI
KMTW,"Manitowoc Muni, WI, US",2025-09-12T05:14:00Z,2025-09-12 00:14:00,LIFR,11,11,VAR,NA,0,6,1024.1,SPECI KMTW 120514Z AUTO 6SM BR BKN001 11/11 A3024 RMK AO2 $,2025-09-12T05:17:26Z,2025-09-12T01:17:26Z,Manitowoc County Airport,44.127116,-87.681983,US,US-WI
KMUT,"Muscatine Muni, IA, US",2025-09-12T04:55:00Z,2025-09-11 23:55:00,VFR,16,15,0,0,0,NA,1021.1,METAR KMUT 120455Z AUTO 00000KT 10SM CLR 16/15 A3015 RMK AO2,2025-09-12T05:00:48Z,2025-09-12T01:00:48Z,Muscatine Municipal Airport,41.367803,-91.148201,US,US-IA
KMVE,"Montevideo/Chippewa Cnty, MN, US",2025-09-12T04:55:00Z,2025-09-11 23:55:00,VFR,19,16,140,9,0,NA,1017.7,METAR KMVE 120455Z AUTO 14009KT 10SM CLR 19/16 A3005 RMK AO2,2025-09-12T05:00:48Z,2025-09-12T01:00:48Z,Montevideo Chippewa County Airport,44.969101,-95.710297,US,US-MN
KMVE,"Montevideo/Chippewa Cnty, MN, US",2025-09-12T05:15:00Z,2025-09-12 00:15:00,VFR,19,16,140,8,0,NA,1017.4,METAR KMVE 120515Z AUTO 14008KT 10SM CLR 19/16 A3004 RMK AO2,2025-09-12T05:17:26Z,2025-09-12T01:17:26Z,Montevideo Chippewa County Airport,44.969101,-95.710297,US,US-MN
KMVL,"Morrisville-Stowe State Arpt, VT, US",2025-09-12T04:54:00Z,2025-09-12 00:54:00,LIFR,8.3,6.1,0,0,0,9,1023.5,METAR KMVL 120454Z AUTO 00000KT 9SM BKN002 08/06 A3022 RMK AO2 SLP236 T00830061 402330050,2025-09-12T05:00:48Z,2025-09-12T01:00:48Z,Morrisville-Stowe State Airport,44.534599,-72.613998,US,US-VT
KMVN,"Mount Vernon Arpt, IL, US",2025-09-12T04:56:00Z,2025-09-12 04:56:00,VFR,16.7,15.6,0,0,0,NA,1020.7,METAR KMVN 120456Z AUTO 00000KT 10SM CLR 17/16 A3014 RMK AO2 SLP206 T01670156 403330133 PNO $,2025-09-12T05:00:47Z,2025-09-12T01:00:47Z,Mount Vernon Outland Airport,38.322774,-88.859257,US,US-IL
KMVY,"Marthas Vineyard Arpt, MA, US",2025-09-12T04:53:00Z,2025-09-12 00:53:00,VFR,11.1,11.1,290,5,0,NA,1019.7,METAR KMVY 120453Z AUTO 29005KT 10SM BKN065 11/11 A3011 RMK AO2 SLP195 T01110111 402390100,2025-09-12T05:00:48Z,2025-09-12T01:00:48Z,Martha's Vineyard Airport,41.3931007385,-70.6143035889,US,US-MA
KMWA,"Marion Rgnl, IL, US",2025-09-12T04:55:00Z,2025-09-11 23:55:00,VFR,22,14.8,150,3,0,NA,1020.4,METAR KMWA 120455Z AUTO 15003KT 10SM CLR 22/15 A3013 RMK AO2 T02200148,2025-09-12T05:00:47Z,2025-09-12T01:00:47Z,Veterans Airport of Southern Illinois,37.751208,-89.016568,US,US-IL
KMWC,"Milwaukee/Timmerman Arpt, WI, US",2025-09-12T04:55:00Z,2025-09-11 23:55:00,IFR,16,15,0,0,0,NA,1024.5,METAR KMWC 120455Z AUTO 00000KT 10SM OVC007 16/15 A3025 RMK AO2,2025-09-12T05:00:48Z,2025-09-12T01:00:48Z,Lawrence J Timmerman Airport,43.110401,-88.034401,US,US-WI
KMWH,"Moses Lake/Grant Cnty, WA, US",2025-09-12T04:52:00Z,2025-09-11 21:52:00,VFR,20,13.3,160,4,0,NA,1012.6,METAR KMWH 120452Z AUTO 16004KT 10SM CLR 20/13 A2990 RMK AO2 SLP122 T02000133,2025-09-12T05:00:48Z,2025-09-12T01:00:48Z,Grant County International Airport,47.20769882,-119.3199997,US,US-WA
KMWK,"Mt Airy/Surry Cnty, NC, US",2025-09-12T04:45:00Z,2025-09-12 04:45:00,VFR,15.1,14.5,0,0,0,NA,1022.4,METAR KMWK 120445Z AUTO 00000KT 10SM SCT075 15/15 A3019 RMK AO2 T01510145,2025-09-12T05:00:48Z,2025-09-12T01:00:48Z,Mount Airy Surry County Airport,36.45970154,-80.5530014,US,US-NC
KMWK,"Mt Airy/Surry Cnty, NC, US",2025-09-12T05:05:00Z,2025-09-12 05:05:00,VFR,15.1,14.5,0,0,0,NA,1022.4,METAR KMWK 120505Z AUTO 00000KT 10SM SCT075 15/15 A3019 RMK AO2 T01510145,2025-09-12T05:17:26Z,2025-09-12T01:17:26Z,Mount Airy Surry County Airport,36.45970154,-80.5530014,US,US-NC
KMWL,"Mineral Wells Arpt, TX, US",2025-09-12T04:53:00Z,2025-09-11 23:53:00,VFR,23.9,17.2,140,7,0,NA,1019,METAR KMWL 120453Z AUTO 14007KT 10SM CLR 24/17 A3009 RMK AO2 SLP173 T02390172,2025-09-12T05:00:48Z,2025-09-12T01:00:48Z,Mineral Wells Regional Airport,32.781601,-98.060204,US,US-TX
KMWM,"Windom Muni, MN, US",2025-09-12T04:55:00Z,2025-09-12 04:55:00,VFR,21,16,140,8,0,NA,1018.7,METAR KMWM 120455Z AUTO 14008KT 10SM CLR 21/16 A3008 RMK AO2,2025-09-12T05:00:47Z,2025-09-12T01:00:47Z,Windom Municipal Airport,43.913399,-95.109398,US,US-MN
KMWM,"Windom Muni, MN, US",2025-09-12T05:15:00Z,2025-09-12 05:15:00,VFR,20,16,140,7,0,NA,1018.7,METAR KMWM 120515Z AUTO 14007KT 10SM CLR 20/16 A3008 RMK AO2,2025-09-12T05:17:26Z,2025-09-12T01:17:26Z,Windom Municipal Airport,43.913399,-95.109398,US,US-MN
KMWN,"Mount Washington(OBS), NH, US",2025-09-12T03:52:00Z,2025-09-12 03:52:00,LIFR,3,3,310,26,35,0.06,NA,METAR KMWN 120352Z 31026G35KT 1/16SM FG VV000 03/03 RMK FG INTMT,2025-09-12T05:00:48Z,2025-09-12T01:00:48Z,Mount Washington Observatory,44.270278,-71.303333,US,US-NH
KMWN,"Mount Washington(OBS), NH, US",2025-09-12T04:59:00Z,2025-09-12 04:59:00,VFR,4,1,340,11,0,65,NA,METAR KMWN 120459Z 34011KT 65SM BCFG FEW/// FEW000 FEW005 04/01 RMK BCFG FEW000 TPS LWR FEW055 BCFG INTMT 400730033,2025-09-12T05:17:26Z,2025-09-12T01:17:26Z,Mount Washington Observatory,44.270278,-71.303333,US,US-NH
KMWO,"Middletown/Hook Fld, OH, US",2025-09-12T04:55:00Z,2025-09-12 00:55:00,VFR,15,11,350,3,0,NA,1022.8,METAR KMWO 120455Z AUTO 35003KT 10SM CLR 15/11 A3020 RMK AO2,2025-09-12T05:00:47Z,2025-09-12T01:00:47Z,Middletown Regional Airport,39.530998,-84.395302,US,US-OH
KMXO,"Monticello Rgnl, IA, US",2025-09-12T04:55:00Z,2025-09-12 04:55:00,VFR,18,15,120,6,0,NA,1021.1,METAR KMXO 120455Z AUTO 12006KT 10SM CLR 18/15 A3015 RMK AO2,2025-09-12T05:00:48Z,2025-09-12T01:00:48Z,Monticello Regional Airport,42.220402,-91.1633,US,US-IA
KMYF,"San Diego/Montgomery Arpt, CA, US",2025-09-12T04:53:00Z,2025-09-11 21:53:00,VFR,19.4,15.6,280,4,0,NA,1014,METAR KMYF 120453Z 28004KT 10SM CLR 19/16 A2994 RMK AO2 SLP135 T01940156,2025-09-12T05:00:48Z,2025-09-12T01:00:48Z,Montgomery-Gibbs Executive Airport,32.8157,-117.139999,US,US-CA
KMYJ,"Mexico Mem, MO, US",2025-09-12T04:55:00Z,2025-09-12 04:55:00,VFR,16,15,0,0,0,NA,1020.4,METAR KMYJ 120455Z AUTO 00000KT 10SM CLR 16/15 A3013 RMK AO2,2025-09-12T05:00:48Z,2025-09-12T01:00:48Z,Mexico Memorial Airport,39.157501,-91.818298,US,US-MO
KMYJ,"Mexico Mem, MO, US",2025-09-12T05:15:00Z,2025-09-12 05:15:00,VFR,16,15,0,0,0,NA,1020.4,METAR KMYJ 120515Z AUTO 00000KT 10SM CLR 16/15 A3013 RMK AO2,2025-09-12T05:17:26Z,2025-09-12T01:17:26Z,Mexico Memorial Airport,39.157501,-91.818298,US,US-MO
KMYL,"McCall Muni, ID, US",2025-09-12T04:51:00Z,2025-09-11 22:51:00,VFR,8.9,7.8,50,3,0,NA,1019.4,METAR KMYL 120451Z AUTO 05003KT 10SM CLR 09/08 A3010 RMK AO2 SLP177 T00890078,2025-09-12T05:00:48Z,2025-09-12T01:00:48Z,McCall Municipal Airport,44.888837,-116.101112,US,US-ID
KMYR,"Myrtle Beach Intl, SC, US",2025-09-12T04:53:00Z,2025-09-12 00:53:00,VFR,21.1,19.4,30,4,0,NA,1019.4,METAR KMYR 120453Z AUTO 03004KT 10SM CLR 21/19 A3010 RMK AO2 SLP192 T02110194 $,2025-09-12T05:00:48Z,2025-09-12T01:00:48Z,Myrtle Beach International Airport,33.679699,-78.928299,US,US-SC
KMYV,"Marysville/Yuba Cnty, CA, US",2025-09-12T04:53:00Z,2025-09-11 21:53:00,VFR,20.6,13.9,150,3,0,NA,1013,METAR KMYV 120453Z AUTO 15003KT 10SM CLR 21/14 A2991 RMK AO2 SLP133 T02060139,2025-09-12T05:00:48Z,2025-09-12T01:00:48Z,Yuba County Airport,39.09780121,-121.5699997,US,US-CA
KMYZ,"Marysville Muni, KS, US",2025-09-12T04:55:00Z,2025-09-12 04:55:00,VFR,25,15,150,10,15,NA,1017,METAR KMYZ 120455Z AUTO 15010G15KT 10SM CLR 25/15 A3003 RMK AO2,2025-09-12T05:00:47Z,2025-09-12T01:00:47Z,Marysville Municipal Airport,39.856417,-96.630688,US,US-KS
KMZH,"Moose Lake/Carlton C, MN, US",2025-09-12T04:55:00Z,2025-09-12 04:55:00,LIFR,13,12,0,0,0,5,1021.8,METAR KMZH 120455Z AUTO 00000KT 5SM BR OVC002 13/12 A3017 RMK AO2,2025-09-12T05:00:47Z,2025-09-12T01:00:47Z,Moose Lake Carlton County Airport,46.418800354003906,-92.80470275878906,US,US-MN
KMZH,"Moose Lake/Carlton C, MN, US",2025-09-12T05:15:00Z,2025-09-12 05:15:00,LIFR,14,13,0,0,0,7,1021.8,METAR KMZH 120515Z AUTO 00000KT 7SM OVC002 14/13 A3017 RMK AO2,2025-09-12T05:17:26Z,2025-09-12T01:17:26Z,Moose Lake Carlton County Airport,46.418800354003906,-92.80470275878906,US,US-MN
KMZJ,"Marana/Pinal Aprk, AZ, US",2025-09-12T04:35:00Z,2025-09-11 21:35:00,VFR,31,15,130,9,0,NA,1013.3,METAR KMZJ 120435Z AUTO 13009KT 10SM BKN055 BKN065 31/15 A2992 RMK AO2,2025-09-12T05:00:48Z,2025-09-12T01:00:48Z,Pinal Airpark,32.5106010437,-111.32800293,US,US-AZ
KMZJ,"Marana/Pinal Aprk, AZ, US",2025-09-12T04:55:00Z,2025-09-11 21:55:00,VFR,30,16,130,7,0,NA,1013,METAR KMZJ 120455Z AUTO 13007KT 10SM SCT050 SCT060 30/16 A2991 RMK AO2,2025-09-12T05:17:26Z,2025-09-12T01:17:26Z,Pinal Airpark,32.5106010437,-111.32800293,US,US-AZ
KMZZ,"Marion Muni, IN, US",2025-09-12T04:55:00Z,2025-09-12 00:55:00,VFR,16.6,9.5,120,4,0,7,1022.8,METAR KMZZ 120455Z AUTO 12004KT 7SM CLR 17/10 A3020 RMK AO2 T01660095,2025-09-12T05:00:48Z,2025-09-12T01:00:48Z,Marion Municipal Airport,40.4898986816,-85.6797027588,US,US-IN
KN03,"Cortland/Cortland Cnty, NY, US",2025-09-12T04:55:00Z,2025-09-12 00:55:00,VFR,11,10,0,0,0,NA,1023.5,METAR KN03 120455Z AUTO 00000KT 10SM CLR 11/10 A3022 RMK AO2,2025-09-12T05:00:47Z,2025-09-12T01:00:47Z,Cortland County Chase Field,42.59260178,-76.21489716,US,US-NY
KN79,"Shamokin/Northumberland Cnty, PA, US",2025-09-12T04:55:00Z,2025-09-12 04:55:00,VFR,11.6,11.3,0,0,0,NA,1021.8,METAR KN79 120455Z AUTO 00000KT 10SM CLR 12/11 A3017 RMK AO2 T01160113,2025-09-12T05:00:50Z,2025-09-12T01:00:50Z,Northumberland County Airport,40.836899,-76.552498,US,US-PA
KN79,"Shamokin/Northumberland Cnty, PA, US",2025-09-12T05:15:00Z,2025-09-12 05:15:00,VFR,11.8,11.3,70,3,0,NA,1021.8,METAR KN79 120515Z AUTO 07003KT 10SM CLR 12/11 A3017 RMK AO2 T01180113,2025-09-12T05:17:28Z,2025-09-12T01:17:28Z,Northumberland County Airport,40.836899,-76.552498,US,US-PA
KNBC,"Beaufort(MCAS), SC, US",2025-09-12T04:56:00Z,2025-09-12 04:56:00,VFR,21.1,20,0,0,0,NA,1018.7,METAR KNBC 120456Z AUTO 00000KT 10SM CLR 21/20 A3008 RMK AO2 SLP187 T02110200 402780178,2025-09-12T05:00:49Z,2025-09-12T01:00:49Z,Beaufort MCAS - Merritt Field,32.4774017334,-80.723197937,US,US-SC
KNBG,"New Orleans (NAS), LA, US",2025-09-12T04:55:00Z,2025-09-11 23:55:00,VFR,20.6,20,VAR,NA,0,NA,1019,METAR KNBG 120455Z AUTO 10SM CLR 21/20 A3009 RMK AO2 SLP187 T02060200 $,2025-09-12T05:00:50Z,2025-09-12T01:00:50Z,New Orleans NAS JRB/Alvin Callender Field,29.82530022,-90.03500366,US,US-LA
KNCA,"New River MCAS, NC, US",2025-09-12T04:56:00Z,2025-09-12 04:56:00,VFR,20,18.9,20,5,0,NA,1018.7,METAR KNCA 120456Z 02005KT 10SM SCT055 20/19 A3008 RMK AO2 SLP189 T02000189 402390194,2025-09-12T05:00:49Z,2025-09-12T01:00:49Z,MCAS New River / McCutcheon Field,34.708401,-77.439697,US,US-NC
KNDZ,"Milton/Whiting-S(NAS, FL, US",2025-09-12T04:56:00Z,2025-09-12 04:56:00,VFR,19.4,17.2,0,0,0,NA,1018.7,METAR KNDZ 120456Z 00000KT 10SM CLR 19/17 A3008 RMK AO2 SLP171 T01940172 $,2025-09-12T05:00:49Z,2025-09-12T01:00:49Z,Whiting Field Naval Air Station South Airport,30.704399,-87.023003,US,US-FL
KNEL,"Lakehurst(NAS), NJ, US",2025-09-12T04:00:00Z,2025-09-12 00:00:00,NA,12.8,11.7,0,0,0,NA,1020.1,METAR KNEL 120400Z AUTO 00000KT CLR 13/12 A3012 RMK AO2 SLP199 T01280117 PNO $,2025-09-12T05:00:50Z,2025-09-12T01:00:50Z,Lakehurst Maxfield Field Airport,40.03329849,-74.353302,US,US-NJ
KNEL,"Lakehurst(NAS), NJ, US",2025-09-12T05:00:00Z,2025-09-12 01:00:00,NA,12.2,11.7,0,0,0,NA,1020.1,METAR KNEL 120500Z AUTO 00000KT CLR 12/12 A3012 RMK AO2 SLP198 T01220117 401220122 PNO $,2025-09-12T05:17:28Z,2025-09-12T01:17:28Z,Lakehurst Maxfield Field Airport,40.03329849,-74.353302,US,US-NJ
KNEW,"New Orleans/Lakefront Arpt, LA, US",2025-09-12T04:53:00Z,2025-09-11 23:53:00,VFR,25.6,20,190,6,0,NA,1019,METAR KNEW 120453Z 19006KT 10SM CLR 26/20 A3009 RMK AO1 SLP184 T02560200,2025-09-12T05:00:50Z,2025-09-12T01:00:50Z,Lakefront Airport,30.042400360107,-90.028297424316,US,US-LA
KNFE,"Fentress(NALF), VA, US",2025-09-12T04:58:00Z,2025-09-12 04:58:00,VFR,20,16.1,10,3,0,NA,1019.7,METAR KNFE 120458Z AUTO 01003KT 10SM OVC060 20/16 A3011 RMK AO2 SLP198 T02000161 402560183,2025-09-12T05:00:49Z,2025-09-12T01:00:49Z,Fentress Naval Auxiliary Landing Field,36.691641,-76.134996,US,US-VA
KNFE,"Fentress(NALF), VA, US",2025-09-12T05:06:09Z,2025-09-12 05:06:09,NA,NA,NA,VAR,NA,0,NA,NA,METAR KNFE 0912 DH0500/PPH 0.00,2025-09-12T05:17:28Z,2025-09-12T01:17:28Z,Fentress Naval Auxiliary Landing Field,36.691641,-76.134996,US,US-VA
KNFG,"Camp Pendleton(MCB), CA, US",2025-09-12T04:52:00Z,2025-09-12 04:52:00,VFR,17.2,15,50,3,0,NA,1014,METAR KNFG 120452Z 05003KT 10SM CLR 17/15 A2994 RMK AO2 SLP136 T01720150,2025-09-12T05:00:50Z,2025-09-12T01:00:50Z,Camp Pendleton MCAS (Munn Field) Airport,33.30130005,-117.3550034,US,US-CA
KNFL,"Fallon (NAS), NV, US",2025-09-12T04:57:00Z,2025-09-11 21:57:00,VFR,17.2,5.6,10,6,0,NA,1016.7,METAR KNFL 120457Z 01006KT 10SM SCT100 SCT200 17/06 A3002 RMK AO2 SLP136 T01720056,2025-09-12T05:00:49Z,2025-09-12T01:00:49Z,Fallon Naval Air Station,39.41659927,-118.7009964,US,US-NV
KNFW,"Fort Worth/Carswell NAS, TX, US",2025-09-12T04:52:00Z,2025-09-11 23:52:00,VFR,26.7,17.8,0,0,0,NA,1019,METAR KNFW 120452Z AUTO 00000KT 10SM CLR 27/18 A3009 RMK AO2 SLP172 T02670178 $,2025-09-12T05:00:50Z,2025-09-12T01:00:50Z,NAS Fort Worth JRB / Carswell Field,32.769199,-97.441498,US,US-TX
KNGP,"Corpus Christi/Truax Fld NAS, TX, US",2025-09-12T03:56:00Z,2025-09-12 03:56:00,VFR,28.9,24.4,100,11,0,NA,1017.4,METAR KNGP 120356Z 10011KT 10SM FEW020 FEW027 SCT250 29/24 A3004 RMK AO2 SLP171 T02890244 $,2025-09-12T05:00:50Z,2025-09-12T01:00:50Z,Naval Air Station Corpus Christi Truax Field,27.6926,-97.2911,US,US-TX
KNGP,"Corpus Christi/Truax Fld NAS, TX, US",2025-09-12T04:56:00Z,2025-09-12 04:56:00,VFR,28.9,24.4,110,11,0,NA,1017,METAR KNGP 120456Z AUTO 11011KT 10SM FEW027 FEW036 29/24 A3003 RMK AO2 SLP168 T02890244 $,2025-09-12T05:17:28Z,2025-09-12T01:17:28Z,Naval Air Station Corpus Christi Truax Field,27.6926,-97.2911,US,US-TX
KNGU,"Norfolk NAS, VA, US",2025-09-12T03:59:00Z,2025-09-11 23:59:00,VFR,18.3,17.2,0,0,0,NA,1020.4,METAR KNGU 120359Z 00000KT 10SM SCT060 BKN120 18/17 A3013 RMK AO2 RAE01 SLP202 P0000 T01830172,2025-09-12T05:00:50Z,2025-09-12T01:00:50Z,Norfolk Naval Station (Chambers Field),36.937599,-76.289299,US,US-VA
KNGU,"Norfolk NAS, VA, US",2025-09-12T04:59:00Z,2025-09-12 00:59:00,VFR,18.9,17.8,0,0,0,NA,1020.1,METAR KNGU 120459Z 00000KT 10SM SCT070 BKN085 19/18 A3012 RMK AO2 SLP201 T01890178 402220183,2025-09-12T05:17:28Z,2025-09-12T01:17:28Z,Norfolk Naval Station (Chambers Field),36.937599,-76.289299,US,US-VA
KNHK,"Patuxent River NAS, MD, US",2025-09-12T04:52:00Z,2025-09-12 00:52:00,VFR,15.6,15.6,260,4,0,9,1020.4,METAR KNHK 120452Z AUTO 26004KT 9SM CLR 16/16 A3013 RMK AO2 SLP202 T01560156 402440156 $,2025-09-12T05:00:50Z,2025-09-12T01:00:50Z,Patuxent River Naval Air Station (Trapnell Field),38.285999,-76.411797000000007,US,US-MD
KNID,"China Lake (NAF), CA, US",2025-09-12T04:56:00Z,2025-09-12 04:56:00,VFR,23.3,8.3,190,7,0,NA,1013,METAR KNID 120456Z 19007KT 10SM CLR 23/08 A2991 RMK AO2 SLP114 T02330083 $,2025-09-12T05:00:49Z,2025-09-12T01:00:49Z,China Lake Naws (Armitage Field) Airport,35.6853981,-117.6920013,US,US-CA
KNIP,"Jacksonville (NAS), FL, US",2025-09-12T04:53:00Z,2025-09-12 00:53:00,VFR,23.9,20.6,340,8,0,NA,1017.7,METAR KNIP 120453Z AUTO 34008KT 10SM CLR 24/21 A3005 RMK AO2 SLP170 T02390206 402890217,2025-09-12T05:00:50Z,2025-09-12T01:00:50Z,Jacksonville Naval Air Station (Towers Field),30.2358,-81.680603,US,US-FL
KNJK,"El Centro(NAF), CA, US",2025-09-12T04:56:00Z,2025-09-11 21:56:00,VFR,28.3,8.3,270,15,0,NA,1008.5,METAR KNJK 120456Z 27015KT 10SM CLR 28/08 A2978 RMK AO2 SLP099 T02830083 $,2025-09-12T05:00:49Z,2025-09-12T01:00:49Z,El Centro NAF Airport (Vraciu Field),32.829201,-115.671996,US,US-CA
KNJM,"Swansboro/Bogue Fld, NC, US",2025-09-12T04:51:00Z,2025-09-12 04:51:00,VFR,19.4,18.3,350,4,0,7,1019,METAR KNJM 120451Z AUTO 35004KT 7SM CLR 19/18 A3009 RMK AO2 SLP192 T01940183 402440194 $,2025-09-12T05:00:50Z,2025-09-12T01:00:50Z,Marine Corps Auxiliary Landing Field Bogue,34.690399,-77.029701,US,US-NC
KNJW,"Meridian Range B, MS, US",2025-09-12T04:57:00Z,2025-09-12 04:57:00,VFR,20.6,18.3,0,0,0,NA,1020.7,METAR KNJW 120457Z AUTO 00000KT 10SM CLR 21/18 A3014 RMK AO2 SLP118 T02060183,2025-09-12T05:00:49Z,2025-09-12T01:00:49Z,Joe Williams Naval Outlying Field,32.798529,-88.834333,US,US-MS
KNKT,"Cherry Point MCAS, NC, US",2025-09-12T04:55:00Z,2025-09-12 04:55:00,VFR,20,18.3,10,8,0,NA,1019,METAR KNKT 120455Z 01008KT 10SM CLR 20/18 A3009 RMK AO2 SLP186 T02000183 402500200,2025-09-12T05:00:50Z,2025-09-12T01:00:50Z,Cherry Point MCAS / Cunningham Field/,34.900902,-76.880699,US,US-NC
KNKX,"Miramar (MCAS), CA, US",2025-09-12T04:55:00Z,2025-09-11 21:55:00,VFR,17.2,15,240,4,0,NA,1014,METAR KNKX 120455Z 24004KT 10SM SCT015 17/15 A2994 RMK AO2 SLP133 T01720150,2025-09-12T05:00:50Z,2025-09-12T01:00:50Z,Miramar Marine Corps Air Station - Mitscher Field,32.86840057,-117.1429977,US,US-CA
KNKX,"Miramar (MCAS), CA, US",2025-09-12T05:11:00Z,2025-09-11 22:11:00,MVFR,17.2,15,240,4,0,NA,1014,SPECI KNKX 120511Z AUTO 24004KT 10SM BKN016 17/15 A2994 RMK AO2 T01720150,2025-09-12T05:17:28Z,2025-09-12T01:17:28Z,Miramar Marine Corps Air Station - Mitscher Field,32.86840057,-117.1429977,US,US-CA
KNLC,"Lemoore (NAS), CA, US",2025-09-12T04:56:00Z,2025-09-11 21:56:00,VFR,22.8,12.2,320,10,0,NA,1013.3,METAR KNLC 120456Z 32010KT 10SM CLR 23/12 A2992 RMK AO2 SLP130 RH/51 T02280122,2025-09-12T05:00:49Z,2025-09-12T01:00:49Z,Lemoore Naval Air Station (Reeves Field) Airport,36.33300018,-119.9520035,US,US-CA
KNMM,"Meridian/MCCain(NAS), MS, US",2025-09-12T04:56:00Z,2025-09-12 04:56:00,VFR,21.1,19.4,0,0,0,NA,1019.7,METAR KNMM 120456Z AUTO 00000KT 10SM CLR 21/19 A3011 RMK AO2 VIS 1 1/2 SOUTH SLP201 T02110194,2025-09-12T05:00:49Z,2025-09-12T01:00:49Z,Naval Air Station Meridian / McCain Field,32.5531,-88.55406,US,US-MS
KNOG,"Orange Grove(NAS), TX, US",2025-09-12T04:56:00Z,2025-09-12 04:56:00,VFR,25.6,23.3,30,4,0,NA,1018,METAR KNOG 120456Z AUTO 03004KT 10SM -RA CLR 26/23 A3006 RMK AO2 SLP156 P0000 T02560233 $,2025-09-12T05:00:49Z,2025-09-12T01:00:49Z,Orange Grove Naval Auxiliary Landing Field,27.9011,-98.051697,US,US-TX
KNOW,"Port Angeles(CGAS), WA, US",2025-09-12T04:35:00Z,2025-09-12 04:35:00,IFR,NA,NA,260,8,0,NA,1018,METAR KNOW 120435Z AUTO 26008KT 10SM OVC007 A3006 RMK AO2,2025-09-12T05:00:50Z,2025-09-12T01:00:50Z,Port Angeles Cgas Airport,48.141499,-123.414001,US,US-WA
KNOW,"Port Angeles(CGAS), WA, US",2025-09-12T04:55:00Z,2025-09-12 04:55:00,IFR,NA,NA,270,7,0,NA,1018,METAR KNOW 120455Z AUTO 27007KT 10SM OVC007 A3006 RMK AO2,2025-09-12T05:17:28Z,2025-09-12T01:17:28Z,Port Angeles Cgas Airport,48.141499,-123.414001,US,US-WA
KNPA,"Pensacola (NAS), FL, US",2025-09-12T04:56:00Z,2025-09-11 23:56:00,VFR,23.9,18.3,50,4,0,NA,1018,METAR KNPA 120456Z AUTO 05004KT 10SM CLR 24/18 A3006 RMK AO2 SLP182 T02390183 403280178,2025-09-12T05:00:49Z,2025-09-12T01:00:49Z,Naval Air Station Pensacola Forrest Sherman Field,30.352699,-87.318604,US,US-FL
KNQA,"Millington Rgnl, TN, US",2025-09-12T04:50:00Z,2025-09-11 23:50:00,VFR,20,19,0,0,0,NA,1018.7,METAR KNQA 120450Z 00000KT 10SM CLR 20/19 A3008,2025-09-12T05:00:50Z,2025-09-12T01:00:50Z,Millington-Memphis Airport,35.356701,-89.8703,US,US-TN
KNQI,"Kingsville(NAS), TX, US",2025-09-12T04:56:00Z,2025-09-11 23:56:00,VFR,25.6,24.4,80,5,0,NA,1017,METAR KNQI 120456Z AUTO 08005KT 10SM FEW025 26/24 A3003 RMK AO2 SLP166 T02560244 $,2025-09-12T05:00:49Z,2025-09-12T01:00:49Z,Kingsville Naval Air Station,27.5072002411,-97.8097000122,US,US-TX
KNQX,"Key West (NAS), FL, US",2025-09-12T04:53:00Z,2025-09-12 00:53:00,VFR,26.7,23.3,160,3,0,NA,1014.3,METAR KNQX 120453Z AUTO 16003KT 10SM CLR 27/23 A2995 RMK AO2 SLP142 T02670233 403170261 $,2025-09-12T05:00:50Z,2025-09-12T01:00:50Z,Naval Air Station Key West/Boca Chica Field,24.57579994,-81.68890381,US,US-FL
KNRA,"Coupeville, Out, WA, US",2025-09-12T04:46:00Z,2025-09-12 04:46:00,VFR,11.7,11.1,0,0,0,NA,1017.7,METAR KNRA 120446Z AUTO 00000KT 10SM CLR 12/11 A3005 RMK AO2 SLP119 T01170111 TSNO $,2025-09-12T05:00:50Z,2025-09-12T01:00:50Z,Coupeville Nolf Airport,48.18830108642578,-122.63200378417967,US,US-WA
KNRA,"Coupeville, Out, WA, US",2025-09-12T05:09:00Z,2025-09-12 05:09:00,VFR,10,10,270,3,0,NA,1017.7,SPECI KNRA 120509Z AUTO 27003KT 10SM FEW002 10/10 A3005 RMK AO2 T01000100 TSNO $,2025-09-12T05:17:28Z,2025-09-12T01:17:28Z,Coupeville Nolf Airport,48.18830108642578,-122.63200378417967,US,US-WA
KNRB,"Mayport (NS), FL, US",2025-09-12T04:52:00Z,2025-09-12 00:52:00,VFR,23.9,21.1,340,3,0,NA,1017.4,METAR KNRB 120452Z AUTO 34003KT 10SM FEW022 24/21 A3004 RMK AO2 SLP172 T02390211 402720222,2025-09-12T05:00:50Z,2025-09-12T01:00:50Z,Naval Station Mayport / Admiral David L McDonald Field,30.3911,-81.424698,US,US-FL
KNRN,"Norton Muni, KS, US",2025-09-12T04:55:00Z,2025-09-12 04:55:00,VFR,24,16,170,9,0,NA,1014.6,METAR KNRN 120455Z AUTO 17009KT 10SM CLR 24/16 A2996 RMK AO2 403390168,2025-09-12T05:00:50Z,2025-09-12T01:00:50Z,Norton Municipal Airport,39.850399017333984,-99.89469909667967,US,US-KS
KNRN,"Norton Muni, KS, US",2025-09-12T05:15:00Z,2025-09-12 05:15:00,VFR,24,16,180,6,0,NA,1014.6,METAR KNRN 120515Z AUTO 18006KT 10SM CLR 24/16 A2996 RMK AO2,2025-09-12T05:17:28Z,2025-09-12T01:17:28Z,Norton Municipal Airport,39.850399017333984,-99.89469909667967,US,US-KS
KNRS,"Imperial Beach(NAS), CA, US",2025-09-12T04:53:00Z,2025-09-11 21:53:00,MVFR,20,16.1,280,5,0,NA,1014.3,METAR KNRS 120453Z 28005KT 10SM BKN020 20/16 A2995 RMK AO2 SLP141 T02000161 $,2025-09-12T05:00:50Z,2025-09-12T01:00:50Z,Naval Outlying Field Imperial Beach (Ream Field),32.5667,-117.116997,US,US-CA
KNSE,"Milton/Whiting N(NAS, FL, US",2025-09-12T04:56:00Z,2025-09-11 23:56:00,VFR,20,16.7,0,0,0,NA,1018.7,METAR KNSE 120456Z AUTO 00000KT 10SM CLR 20/17 A3008 RMK AO2 SLP171 T02000167 $,2025-09-12T05:00:49Z,2025-09-12T01:00:49Z,Whiting Field Naval Air Station - North,30.7241993,-87.02189636,US,US-FL
KNSI,"San Nicholas Island Arpt, CA, US",2025-09-12T04:53:00Z,2025-09-12 04:53:00,VFR,16.7,14.4,320,19,28,NA,1014.3,METAR KNSI 120453Z AUTO 32019G28KT 10SM CLR 17/14 A2995 RMK AO2 PK WND 31029/0428 SLP134 T01670144 $,2025-09-12T05:00:50Z,2025-09-12T01:00:50Z,San Nicolas Island Nolf Airport,33.23979949951172,-119.45800018310548,US,US-CA
KNTD,"Pt Mugu (NAS), CA, US",2025-09-12T04:55:00Z,2025-09-11 21:55:00,VFR,18.3,16.1,260,5,0,8,1013.3,METAR KNTD 120455Z 26005KT 8SM CLR 18/16 A2992 RMK AO2 SLP133 T01830161 $,2025-09-12T05:00:50Z,2025-09-12T01:00:50Z,Point Mugu Naval Air Station (Naval Base Ventura Co),34.120300293,-119.121002197,US,US-CA
KNTU,"Oceana(NAS), VA, US",2025-09-12T04:56:00Z,2025-09-12 00:56:00,VFR,19.4,17.2,340,3,0,NA,1019.4,METAR KNTU 120456Z 34003KT 10SM BKN065 OVC080 19/17 A3010 RMK AO2 SLP196 T01940172 402390194,2025-09-12T05:00:49Z,2025-09-12T01:00:49Z,Oceana Naval Air Station,36.820702,-76.033501,US,US-VA
KNUC,"San Clemente(NALF), CA, US",2025-09-12T04:56:00Z,2025-09-12 04:56:00,VFR,18.3,16.1,280,11,0,NA,1014.6,METAR KNUC 120456Z 28011KT 10SM CLR 18/16 A2996 RMK AO2 SLP143 T01830161 PNO $,2025-09-12T05:00:49Z,2025-09-12T01:00:49Z,San Clemente Island Naval Auxiliary Landing Field,33.02270126,-118.5879974,US,US-CA
KNUI,"St Inigoes/Webster Fld, MD, US",2025-09-12T04:53:00Z,2025-09-12 04:53:00,VFR,16.1,16.1,0,0,0,6,1020.1,METAR KNUI 120453Z AUTO 00000KT 6SM BR BKN085 16/16 A3012 RMK AO2 SLP199 T01610161 402390150 $,2025-09-12T05:00:50Z,2025-09-12T01:00:50Z,Naval Outlying Landing Field Webster,38.144222,-76.426892,US,US-MD
KNUQ,"Moffett Fed Airfld, CA, US",2025-09-12T04:35:00Z,2025-09-11 21:35:00,VFR,18,14,80,3,0,NA,1015.7,METAR KNUQ 120435Z AUTO 08003KT 10SM CLR 18/14 A2999 RMK AO2,2025-09-12T05:00:50Z,2025-09-12T01:00:50Z,Moffett Federal Airfield,37.4161,-122.049004,US,US-CA
KNUQ,"Moffett Fed Airfld, CA, US",2025-09-12T04:55:00Z,2025-09-11 21:55:00,VFR,18,14,40,3,0,NA,1015.7,METAR KNUQ 120455Z AUTO 04003KT 10SM CLR 18/14 A2999 RMK AO2,2025-09-12T05:17:28Z,2025-09-12T01:17:28Z,Moffett Federal Airfield,37.4161,-122.049004,US,US-CA
KNUW,"Whidbey Island(NAS), WA, US",2025-09-12T04:53:00Z,2025-09-11 21:53:00,VFR,12.2,11.1,270,3,0,NA,1017.7,METAR KNUW 120453Z 27003KT 10SM FEW040 FEW250 12/11 A3005 RMK AO2 SLP180 T01220111 $,2025-09-12T05:00:50Z,2025-09-12T01:00:50Z,Whidbey Island Naval Air Station (Ault Field),48.351799,-122.655998,US,US-WA
KNXP,"Twentynine Palms/Self Arpt, CA, US",2025-09-12T04:54:00Z,2025-09-12 04:54:00,VFR,25.6,3.9,270,7,0,NA,1013.6,METAR KNXP 120454Z AUTO 27007KT 10SM CLR 26/04 A2993 RMK AO2 SLP100 T02560039 PWINO $,2025-09-12T05:00:50Z,2025-09-12T01:00:50Z,Twentynine Palms Strategic Expeditionary Landing Field,34.2962,-116.162003,US,US-CA
KNY0,"Johnstown/Fulton Cnty, NY, US",2025-09-12T04:55:00Z,2025-09-12 04:55:00,VFR,16,11.2,0,0,0,NA,1022.8,METAR KNY0 120455Z AUTO 00000KT 10SM BKN075 16/11 A3020 RMK AO2 T01600112,2025-09-12T05:00:50Z,2025-09-12T01:00:50Z,Fulton County Airport,42.998199,-74.329597,US,US-NY
KNY0,"Johnstown/Fulton Cnty, NY, US",2025-09-12T05:15:00Z,2025-09-12 05:15:00,VFR,15,11.3,0,0,0,NA,1023.1,METAR KNY0 120515Z AUTO 00000KT 10SM BKN075 15/11 A3021 RMK AO2 T01500113,2025-09-12T05:17:28Z,2025-09-12T01:17:28Z,Fulton County Airport,42.998199,-74.329597,US,US-NY
KNYG,"Quantico (MCAF), VA, US",2025-09-12T04:56:00Z,2025-09-12 04:56:00,MVFR,18.3,17.8,280,7,0,3,1021.4,METAR KNYG 120456Z AUTO 28007KT 3SM CLR 18/18 A3016 RMK AO2 SLP212 T01830178 402560183,2025-09-12T05:00:49Z,2025-09-12T01:00:49Z,Quantico Marine Corps Airfield / Turner Field,38.501701,-77.305298,US,US-VA
KNYL,"Yuma (MCAS), AZ, US",2025-09-12T03:57:00Z,2025-09-11 20:57:00,VFR,31.7,1.7,300,5,0,NA,1007.2,METAR KNYL 120357Z 30005KT 10SM CLR 32/02 A2974 RMK AO2 SLP068 T03170017,2025-09-12T05:00:50Z,2025-09-12T01:00:50Z,Yuma International Airport / Marine Corps Air Station Yuma,32.650938,-114.609375,US,US-AZ
KNYL,"Yuma (MCAS), AZ, US",2025-09-12T04:57:00Z,2025-09-11 21:57:00,VFR,28.9,11.7,210,10,0,NA,1008.5,METAR KNYL 120457Z 21010KT 10SM CLR 29/12 A2978 RMK AO2 SLP080 T02890117,2025-09-12T05:17:28Z,2025-09-12T01:17:28Z,Yuma International Airport / Marine Corps Air Station Yuma,32.650938,-114.609375,US,US-AZ
KNZY,"San Diego/North Island NAS, CA, US",2025-09-12T04:52:00Z,2025-09-11 21:52:00,VFR,20,16.1,0,0,0,NA,1013.6,METAR KNZY 120452Z 00000KT 10SM SCT019 20/16 A2993 RMK AO2 SLP135 T02000161,2025-09-12T05:00:50Z,2025-09-12T01:00:50Z,North Island Naval Air Station-Halsey Field,32.69919968,-117.2149963,US,US-CA
KO05,"Chester/Rogers Fld, CA, US",2025-09-12T04:30:00Z,2025-09-12 04:30:00,VFR,15,9,0,0,0,NA,1019.7,METAR KO05 120430Z AUTO 00000KT 10SM FEW049 BKN055 OVC070 15/09 A3011 RMK A01,2025-09-12T05:00:50Z,2025-09-12T01:00:50Z,Rogers Field,40.28239822387695,-121.24099731445312,US,US-CA
KO05,"Chester/Rogers Fld, CA, US",2025-09-12T04:55:00Z,2025-09-12 04:55:00,VFR,14,9,VAR,3,0,NA,1019.7,METAR KO05 120455Z AUTO VRB03KT 10SM SCT055 BKN065 OVC100 14/09 A3011 RMK A01,2025-09-12T05:17:28Z,2025-09-12T01:17:28Z,Rogers Field,40.28239822387695,-121.24099731445312,US,US-CA
KO22,"Columbia Arpt, CA, US",2025-09-12T04:55:00Z,2025-09-11 21:55:00,VFR,19,12,VAR,5,0,NA,1015.7,METAR KO22 120455Z AUTO VRB05KT 10SM CLR 19/12 A2999 RMK A01,2025-09-12T05:00:50Z,2025-09-12T01:00:50Z,Columbia Airport,38.0303993225,-120.415000916,US,US-CA
KO22,"Columbia Arpt, CA, US",2025-09-12T05:15:00Z,2025-09-11 22:15:00,VFR,19,12,290,5,0,NA,1015.7,METAR KO22 120515Z AUTO 29005KT 10SM CLR 19/12 A2999 RMK A01,2025-09-12T05:17:28Z,2025-09-12T01:17:28Z,Columbia Airport,38.0303993225,-120.415000916,US,US-CA
KO32,"Reedley Muni, CA, US",2025-09-12T04:55:00Z,2025-09-12 04:55:00,VFR,21.6,12.9,0,0,0,9,1012.3,METAR KO32 120455Z AUTO 00000KT 9SM SCT090 22/13 A2989 RMK AO2 T02160129 $,2025-09-12T05:00:50Z,2025-09-12T01:00:50Z,Reedley Municipal Airport,36.66630172729492,-119.4499969482422,US,US-CA
KO32,"Reedley Muni, CA, US",2025-09-12T05:15:00Z,2025-09-12 05:15:00,VFR,21.9,12.5,330,5,0,9,1012.3,METAR KO32 120515Z AUTO 33005KT 9SM CLR 22/12 A2989 RMK AO2 T02190125 $,2025-09-12T05:17:28Z,2025-09-12T01:17:28Z,Reedley Municipal Airport,36.66630172729492,-119.4499969482422,US,US-CA
KO54,"Weaverville Arpt, CA, US",2025-09-12T04:35:00Z,2025-09-12 04:35:00,VFR,16,14,360,3,0,NA,1017,METAR KO54 120435Z AUTO 36003KT 10SM CLR 16/14 A3003 RMK A01,2025-09-12T05:00:50Z,2025-09-12T01:00:50Z,Lonnie Pool Field Weaverville Airport,40.74570083618164,-122.9219970703125,US,US-CA
KO54,"Weaverville Arpt, CA, US",2025-09-12T04:55:00Z,2025-09-12 04:55:00,VFR,16,13,0,0,0,NA,1017,METAR KO54 120455Z AUTO 00000KT 10SM CLR 16/13 A3003 RMK A01,2025-09-12T05:17:28Z,2025-09-12T01:17:28Z,Lonnie Pool Field Weaverville Airport,40.74570083618164,-122.9219970703125,US,US-CA
KO69,"Petaluma Muni, CA, US",2025-09-12T04:35:00Z,2025-09-12 04:35:00,VFR,15,14,0,0,0,NA,1015,METAR KO69 120435Z AUTO 00000KT 10SM FEW020 15/14 A2997 RMK A01,2025-09-12T05:00:50Z,2025-09-12T01:00:50Z,Petaluma Municipal Airport,38.25780106,-122.6060028,US,US-CA
KO69,"Petaluma Muni, CA, US",2025-09-12T04:55:00Z,2025-09-12 04:55:00,VFR,15,14,0,0,0,NA,1015,METAR KO69 120455Z AUTO 00000KT 10SM CLR 15/14 A2997 RMK A01,2025-09-12T05:17:28Z,2025-09-12T01:17:28Z,Petaluma Municipal Airport,38.25780106,-122.6060028,US,US-CA
KO86,"Trinity Center Arpt, CA, US",2025-09-12T04:35:00Z,2025-09-12 04:35:00,VFR,16,13,280,5,0,NA,1016.7,METAR KO86 120435Z AUTO 28005KT 10SM CLR 16/13 A3002 RMK A01,2025-09-12T05:00:50Z,2025-09-12T01:00:50Z,Trinity Center Airport,40.98320007324219,-122.69400024414062,US,US-CA
KO86,"Trinity Center Arpt, CA, US",2025-09-12T04:55:00Z,2025-09-12 04:55:00,VFR,16,13,280,5,0,NA,1017,METAR KO86 120455Z AUTO 28005KT 10SM CLR 16/13 A3003 RMK A01,2025-09-12T05:17:28Z,2025-09-12T01:17:28Z,Trinity Center Airport,40.98320007324219,-122.69400024414062,US,US-CA
KOAJ,"Jacksonville/Ellis Arpt, NC, US",2025-09-12T04:56:00Z,2025-09-12 00:56:00,VFR,19.4,18.9,20,3,0,NA,1019.7,METAR KOAJ 120456Z AUTO 02003KT 10SM OVC060 19/19 A3011 RMK AO2 SLP196 T01940189 402440189 $,2025-09-12T05:00:49Z,2025-09-12T01:00:49Z,Albert J Ellis Airport,34.829201,-77.612099,US,US-NC
KOAK,"Oakland Intl, CA, US",2025-09-12T04:53:00Z,2025-09-11 21:53:00,VFR,17.8,15,250,5,0,NA,1015.3,METAR KOAK 120453Z 25005KT 10SM FEW010 SCT014 18/15 A2998 RMK AO2 SLP152 T01780150,2025-09-12T05:00:50Z,2025-09-12T01:00:50Z,San Francisco Bay Oakland International Airport,37.720085,-122.221184,US,US-CA
KOAR,"Marina Muni, CA, US",2025-09-12T04:55:00Z,2025-09-11 21:55:00,VFR,16,13,220,7,0,NA,1015.7,METAR KOAR 120455Z AUTO 22007KT 10SM CLR 16/13 A2999 RMK AO2,2025-09-12T05:00:50Z,2025-09-12T01:00:50Z,Marina Municipal Airport,36.68190002,-121.762001,US,US-CA
KOBE,"Okeechobee Cnty Arpt, FL, US",2025-09-12T04:55:00Z,2025-09-12 00:55:00,NA,24,24,360,6,0,NA,1015,METAR KOBE 120455Z AUTO 36006KT 10SM 24/24 A2997 RMK AO2,2025-09-12T05:00:50Z,2025-09-12T01:00:50Z,Okeechobee County Airport,27.262800216699997,-80.8498001099,US,US-FL
KOCF,"Ocala Rgnl, FL, US",2025-09-12T04:51:00Z,2025-09-12 00:51:00,VFR,22.2,19.4,0,0,0,NA,1017.7,METAR KOCF 120451Z AUTO 00000KT 10SM CLR 22/19 A3005 RMK AO2 SLP176 T02220194,2025-09-12T05:00:50Z,2025-09-12T01:00:50Z,Ocala International Airport - Jim Taylor Field,29.17259979,-82.22419739,US,US-FL
KOCH,"Nacogdoches Rgnl, TX, US",2025-09-12T04:56:00Z,2025-09-11 23:56:00,VFR,22.2,21.1,0,0,0,NA,1019.4,METAR KOCH 120456Z AUTO 00000KT 10SM CLR 22/21 A3010 RMK AO2 SLP193 T02220211 403390183,2025-09-12T05:00:49Z,2025-09-12T01:00:49Z,A L Mangham Jr. Regional Airport,31.57799911,-94.70950317,US,US-TX
KOCQ,"Oconto/Blake Mem, WI, US",2025-09-12T04:55:00Z,2025-09-12 04:55:00,LIFR,9.9,9.7,0,0,0,0.5,1024.1,METAR KOCQ 120455Z AUTO 00000KT 1/2SM OVC002 10/10 A3024 RMK AO1 T00990097,2025-09-12T05:00:50Z,2025-09-12T01:00:50Z,J. Douglas Bake Memorial Airport,44.874286,-87.91171,US,US-WI
KOCW,"Washington/Warren Arpt, NC, US",2025-09-12T04:45:00Z,2025-09-12 00:45:00,VFR,18.5,16.5,320,3,0,NA,1020.1,METAR KOCW 120445Z AUTO 32003KT 10SM OVC080 19/17 A3012 RMK AO2 T01850165,2025-09-12T05:00:50Z,2025-09-12T01:00:50Z,Warren Field,35.570499420166,-77.049797058105,US,US-NC
KOCW,"Washington/Warren Arpt, NC, US",2025-09-12T05:05:00Z,2025-09-12 01:05:00,VFR,18.3,16.6,340,3,0,NA,1020.1,METAR KOCW 120505Z AUTO 34003KT 10SM OVC080 18/17 A3012 RMK AO2 T01830166,2025-09-12T05:17:28Z,2025-09-12T01:17:28Z,Warren Field,35.570499420166,-77.049797058105,US,US-NC
KODO,"Odessa/Schlemeyer Fld, TX, US",2025-09-12T04:53:00Z,2025-09-12 04:53:00,VFR,25,12.8,150,10,0,NA,1021.4,METAR KODO 120453Z AUTO 15010KT 10SM CLR 25/13 A3016 RMK AO2 SLP165 T02500128,2025-09-12T05:00:50Z,2025-09-12T01:00:50Z,Odessa Schlemeyer Field,31.920601,-102.387001,US,US-TX
KODX,"Ord/Sharp Fld, NE, US",2025-09-12T04:53:00Z,2025-09-12 04:53:00,VFR,22.2,18.9,120,5,0,NA,1014,METAR KODX 120453Z AUTO 12005KT 10SM CLR 22/19 A2994 RMK AO2 SLP129 T02220189,2025-09-12T05:00:50Z,2025-09-12T01:00:50Z,Evelyn Sharp Field,41.62419891357422,-98.95240020751952,US,US-NE
KOEB,"Coldwater/Branch Cnty, MI, US",2025-09-12T04:56:00Z,2025-09-12 04:56:00,VFR,12,11,90,4,0,NA,1023.5,METAR KOEB 120456Z AUTO 09004KT 10SM CLR 12/11 A3022 RMK AO2,2025-09-12T05:00:49Z,2025-09-12T01:00:49Z,Branch County Memorial Airport,41.933399,-85.052597,US,US-MI
KOEB,"Coldwater/Branch Cnty, MI, US",2025-09-12T05:15:00Z,2025-09-12 05:15:00,VFR,12,11,100,4,0,NA,1023.5,METAR KOEB 120515Z AUTO 10004KT 10SM CLR 12/11 A3022 RMK AO2,2025-09-12T05:17:28Z,2025-09-12T01:17:28Z,Branch County Memorial Airport,41.933399,-85.052597,US,US-MI
KOEL,"Oakley Muni, KS, US",2025-09-12T04:55:00Z,2025-09-12 04:55:00,VFR,22.6,10.7,200,6,0,NA,1015.7,METAR KOEL 120455Z AUTO 20006KT 10SM CLR 23/11 A2999 RMK AO1 T02260107,2025-09-12T05:00:50Z,2025-09-12T01:00:50Z,Oakley Municipal Airport,39.109901428222656,-100.81600189208984,US,US-KS
KOEL,"Oakley Muni, KS, US",2025-09-12T05:15:00Z,2025-09-12 05:15:00,VFR,23.1,10.5,340,4,0,NA,1016.3,METAR KOEL 120515Z AUTO 34004KT 10SM SCT120 23/11 A3001 RMK AO1 T02310105,2025-09-12T05:17:28Z,2025-09-12T01:17:28Z,Oakley Municipal Airport,39.109901428222656,-100.81600189208984,US,US-KS
KOEO,"Osceola/Simenstad Muni, WI, US",2025-09-12T04:55:00Z,2025-09-11 23:55:00,VFR,17,15,110,8,0,NA,1021.8,METAR KOEO 120455Z AUTO 11008KT 10SM CLR 17/15 A3017 RMK AO2 T01700150 PWINO,2025-09-12T05:00:50Z,2025-09-12T01:00:50Z,L O Simenstad Municipal Airport,45.310001373291,-92.691902160645,US,US-WI
KOFK,"Norfolk/Stefan Mem, NE, US",2025-09-12T04:56:00Z,2025-09-11 23:56:00,VFR,22.8,18.3,140,10,0,NA,1015.7,METAR KOFK 120456Z AUTO 14010KT 10SM CLR 23/18 A2999 RMK AO2 SLP143 T02280183,2025-09-12T05:00:49Z,2025-09-12T01:00:49Z,Karl Stefan Memorial Airport,41.985500335693,-97.435096740723,US,US-NE
KOFP,"Richmond/Hanover Cnty, VA, US",2025-09-12T04:54:00Z,2025-09-12 04:54:00,IFR,16.7,16.7,0,0,0,1.25,1021.1,METAR KOFP 120454Z AUTO 00000KT 1 1/4SM BR CLR 17/17 A3015 RMK AO2 SLP209 T01670167 402560167,2025-09-12T05:00:50Z,2025-09-12T01:00:50Z,Hanover County Municipal Airport,37.709,-77.436699,US,US-VA
KOFP,"Richmond/Hanover Cnty, VA, US",2025-09-12T05:07:00Z,2025-09-12 05:07:00,VFR,16.7,16.1,0,0,0,7,1021.1,SPECI KOFP 120507Z AUTO 00000KT 7SM CLR 17/16 A3015 RMK AO2 T01670161,2025-09-12T05:17:28Z,2025-09-12T01:17:28Z,Hanover County Municipal Airport,37.709,-77.436699,US,US-VA
KOGA,"Ogalla/Searle Fld, NE, US",2025-09-12T04:55:00Z,2025-09-11 22:55:00,VFR,19.4,17.7,350,4,0,NA,1014.6,METAR KOGA 120455Z AUTO 35004KT 10SM CLR 19/18 A2996 RMK AO2 T01940177,2025-09-12T05:00:50Z,2025-09-12T01:00:50Z,Ogallala Municipal Airport Searle Field,41.119499,-101.769997,US,US-NE
KOGB,"Orangeburg Muni, SC, US",2025-09-12T04:53:00Z,2025-09-12 00:53:00,VFR,21.1,18.9,0,0,0,NA,1019.7,METAR KOGB 120453Z AUTO 00000KT 10SM BKN065 21/19 A3011 RMK AO2 SLP193 T02110189 402940161,2025-09-12T05:00:50Z,2025-09-12T01:00:50Z,Orangeburg Municipal Airport,33.456798553467,-80.859497070312,US,US-SC
KOGD,"Ogden/Hinckley Arpt, UT, US",2025-09-12T04:53:00Z,2025-09-11 22:53:00,VFR,20,0.6,340,8,0,NA,1015,METAR KOGD 120453Z AUTO 34008KT 10SM CLR 20/01 A2997 RMK AO2 SLP089 T02000006,2025-09-12T05:00:50Z,2025-09-12T01:00:50Z,Ogden Hinckley Airport,41.195899963379,-112.0120010376,US,US-UT
KOGS,"Ogdensburg Intl, NY, US",2025-09-12T04:55:00Z,2025-09-12 00:55:00,VFR,7,6,0,0,0,NA,1023.5,METAR KOGS 120455Z AUTO 00000KT 10SM CLR 07/06 A3022 RMK AO2,2025-09-12T05:00:50Z,2025-09-12T01:00:50Z,Ogdensburg International Airport,44.6819,-75.4655,US,US-NY
KOIC,"Norwich/Eaton Arpt, NY, US",2025-09-12T04:55:00Z,2025-09-12 00:55:00,VFR,11,11,0,0,0,NA,1023.1,METAR KOIC 120455Z AUTO 00000KT 10SM OVC075 11/11 A3021 RMK AO2,2025-09-12T05:00:50Z,2025-09-12T01:00:50Z,Lt Warren Eaton Airport,42.566600799561,-75.524101257324,US,US-NY
KOIC,"Norwich/Eaton Arpt, NY, US",2025-09-12T05:15:00Z,2025-09-12 01:15:00,VFR,11,11,30,1,0,NA,1023.1,METAR KOIC 120515Z AUTO 03001KT 10SM BKN075 11/11 A3021 RMK AO2,2025-09-12T05:17:28Z,2025-09-12T01:17:28Z,Lt Warren Eaton Airport,42.566600799561,-75.524101257324,US,US-NY
KOIN,"Oberlin Muni, KS, US",2025-09-12T04:55:00Z,2025-09-12 04:55:00,VFR,24,15,190,7,0,NA,1014.6,METAR KOIN 120455Z AUTO 19007KT 10SM CLR 24/15 A2996 RMK AO2 403500164,2025-09-12T05:00:50Z,2025-09-12T01:00:50Z,Oberlin Municipal Airport,39.83390045166016,-100.53900146484376,US,US-KS
KOJA,"Weatherford/Stafford Arpt, OK, US",2025-09-12T04:30:00Z,2025-09-12 04:30:00,VFR,23.7,14.7,170,9,0,NA,1019,METAR KOJA 120430Z AUTO 17009KT 10SM CLR 24/15 A3009 RMK AO2 T02370147,2025-09-12T05:00:50Z,2025-09-12T01:00:50Z,Thomas P Stafford Airport,35.5448,-98.668503,US,US-OK
KOJA,"Weatherford/Stafford Arpt, OK, US",2025-09-12T04:50:00Z,2025-09-12 04:50:00,VFR,24.1,14.8,180,11,15,NA,1019,METAR KOJA 120450Z AUTO 18011G15KT 10SM CLR 24/15 A3009 RMK AO2 T02410148,2025-09-12T05:17:28Z,2025-09-12T01:17:28Z,Thomas P Stafford Airport,35.5448,-98.668503,US,US-OK
KOJC,"Olathe/Johnson Cnty, KS, US",2025-09-12T04:53:00Z,2025-09-11 23:53:00,VFR,23.3,16.1,0,0,0,NA,1019.4,METAR KOJC 120453Z AUTO 00000KT 10SM BKN110 23/16 A3010 RMK AO2 SLP181 T02330161,2025-09-12T05:00:50Z,2025-09-12T01:00:50Z,Johnson County Executive Airport,38.84759903,-94.73760223,US,US-KS
KOKB,"Oceanside Muni, CA, US",2025-09-12T04:52:00Z,2025-09-11 21:52:00,VFR,17.8,16.1,50,3,0,9,1013.3,METAR KOKB 120452Z AUTO 05003KT 9SM FEW015 18/16 A2992 RMK AO2 SLP132 T01780161,2025-09-12T05:00:50Z,2025-09-12T01:00:50Z,Oceanside Municipal Airport,33.217947,-117.351683,US,US-CA
KOKC,"Oklahoma City/Will Rogers Intl, OK, US",2025-09-12T04:52:00Z,2025-09-11 23:52:00,VFR,21.1,16.7,160,5,0,NA,1019,METAR KOKC 120452Z 16005KT 10SM CLR 21/17 A3009 RMK AO2 SLP174 T02110167,2025-09-12T05:00:50Z,2025-09-12T01:00:50Z,Will Rogers World Airport,35.393388,-97.598248,US,US-OK
KOKK,"Kokomo Muni, IN, US",2025-09-12T04:56:00Z,2025-09-12 00:56:00,VFR,13.9,10.6,0,0,0,NA,1023.1,METAR KOKK 120456Z AUTO 00000KT 10SM CLR 14/11 A3021 RMK AO2 SLP227 T01390106 $,2025-09-12T05:00:51Z,2025-09-12T01:00:51Z,Kokomo Municipal Airport,40.528198242188,-86.05899810791,US,US-IN
KOKM,"Okmulgee Rgnl, OK, US",2025-09-12T04:55:00Z,2025-09-11 23:55:00,VFR,20,20,0,0,0,NA,1019,METAR KOKM 120455Z AUTO 00000KT 10SM CLR 20/20 A3009 RMK AO2 T02000200,2025-09-12T05:00:52Z,2025-09-12T01:00:52Z,Okmulgee Regional Airport,35.668098449707,-95.948699951172,US,US-OK
KOKV,"Winchester Rgnl, VA, US",2025-09-12T04:55:00Z,2025-09-12 00:55:00,VFR,13,11,0,0,0,NA,1021.4,METAR KOKV 120455Z AUTO 00000KT 10SM CLR 13/11 A3016 RMK AO2,2025-09-12T05:00:51Z,2025-09-12T01:00:51Z,Winchester Regional Airport,39.14350128,-78.14440155,US,US-VA
KOKV,"Winchester Rgnl, VA, US",2025-09-12T05:15:00Z,2025-09-12 01:15:00,VFR,13,11,0,0,0,NA,1021.4,METAR KOKV 120515Z AUTO 00000KT 10SM CLR 13/11 A3016 RMK AO2,2025-09-12T05:17:30Z,2025-09-12T01:17:30Z,Winchester Regional Airport,39.14350128,-78.14440155,US,US-VA
KOLE,"Olean/Cattaraugus Cnty, NY, US",2025-09-12T04:55:00Z,2025-09-12 04:55:00,VFR,13,9,0,0,0,NA,1024.5,METAR KOLE 120455Z AUTO 00000KT 10SM CLR 13/09 A3025 RMK AO2,2025-09-12T05:00:52Z,2025-09-12T01:00:52Z,Cattaraugus County-Olean Airport,42.241199,-78.371399,US,US-NY
KOLF,"Wolf Point/Clayton Arpt, MT, US",2025-09-12T04:53:00Z,2025-09-11 22:53:00,VFR,16.1,11.7,0,0,0,NA,1012.6,METAR KOLF 120453Z AUTO 00000KT 10SM CLR 16/12 A2990 RMK AO2 SLP117 T01610117,2025-09-12T05:00:52Z,2025-09-12T01:00:52Z,L M Clayton Airport,48.094501,-105.574997,US,US-MT
KOLG,"Solon Springs Muni, WI, US",2025-09-12T04:55:00Z,2025-09-12 04:55:00,IFR,12,11,0,0,0,1.25,1022.1,METAR KOLG 120455Z AUTO 00000KT 1 1/4SM VV007 12/11 A3018 RMK AO1,2025-09-12T05:00:51Z,2025-09-12T01:00:51Z,Solon Springs Municipal Airport,46.3148,-91.816399,US,US-WI
KOLG,"Solon Springs Muni, WI, US",2025-09-12T05:15:00Z,2025-09-12 05:15:00,LIFR,11,11,0,0,0,0.75,1022.1,METAR KOLG 120515Z AUTO 00000KT 3/4SM VV005 11/11 A3018 RMK AO1,2025-09-12T05:17:30Z,2025-09-12T01:17:30Z,Solon Springs Municipal Airport,46.3148,-91.816399,US,US-WI
KOLM,"Olympia Rgnl, WA, US",2025-09-12T04:54:00Z,2025-09-11 21:54:00,MVFR,15,11.7,220,3,0,NA,1018.4,METAR KOLM 120454Z AUTO 22003KT 10SM OVC018 15/12 A3007 RMK AO2 SLP183 T01500117,2025-09-12T05:00:52Z,2025-09-12T01:00:52Z,Olympia Regional Airport,46.969399,-122.903,US,US-WA
KOLS,"Nogales Intl, AZ, US",2025-09-12T04:54:00Z,2025-09-11 21:54:00,VFR,25,16.7,0,0,0,NA,1018.4,METAR KOLS 120454Z AUTO 00000KT 10SM CLR 25/17 A3007 RMK AO2 SLP107 T02500167,2025-09-12T05:00:52Z,2025-09-12T01:00:52Z,Nogales International Airport,31.4177,-110.848,US,US-AZ
KOLU,"Columbus Muni, NE, US",2025-09-12T04:56:00Z,2025-09-12 04:56:00,VFR,23.3,18.9,130,10,0,NA,1016,METAR KOLU 120456Z AUTO 13010KT 10SM CLR 23/19 A3000 RMK AO2 SLP149 T02330189,2025-09-12T05:00:51Z,2025-09-12T01:00:51Z,Columbus Municipal Airport,41.448145,-97.340174,US,US-NE
KOLV,"Olive Branch Arpt, MS, US",2025-09-12T04:55:00Z,2025-09-11 23:55:00,VFR,23,18,0,0,0,NA,1019,METAR KOLV 120455Z AUTO 00000KT 10SM CLR 23/18 A3009 RMK A01,2025-09-12T05:00:52Z,2025-09-12T01:00:52Z,Olive Branch Airport,34.9786987305,-89.78690338130001,US,US-MS
KOLV,"Olive Branch Arpt, MS, US",2025-09-12T05:15:00Z,2025-09-12 00:15:00,VFR,24,18,0,0,0,NA,1019,METAR KOLV 120515Z AUTO 00000KT 10SM CLR 24/18 A3009 RMK A01,2025-09-12T05:17:30Z,2025-09-12T01:17:30Z,Olive Branch Airport,34.9786987305,-89.78690338130001,US,US-MS
KOLY,"Olney/Noble Arpt, IL, US",2025-09-12T04:35:00Z,2025-09-12 04:35:00,VFR,19.4,16.8,0,0,0,NA,1021.1,METAR KOLY 120435Z AUTO 00000KT 10SM CLR 19/17 A3015 RMK AO2 T01940168,2025-09-12T05:00:52Z,2025-09-12T01:00:52Z,Olney Noble Airport,38.721802,-88.176399,US,US-IL
KOLY,"Olney/Noble Arpt, IL, US",2025-09-12T04:55:00Z,2025-09-12 04:55:00,VFR,19.1,16.7,0,0,0,NA,1021.1,METAR KOLY 120455Z AUTO 00000KT 10SM CLR 19/17 A3015 RMK AO2 T01910167,2025-09-12T05:17:30Z,2025-09-12T01:17:30Z,Olney Noble Airport,38.721802,-88.176399,US,US-IL
KOLZ,"Oelwein Muni, IA, US",2025-09-12T04:55:00Z,2025-09-12 04:55:00,VFR,17,15,110,6,0,NA,1021.8,METAR KOLZ 120455Z AUTO 11006KT 10SM CLR 17/15 A3017 RMK A01,2025-09-12T05:00:52Z,2025-09-12T01:00:52Z,Oelwein Municipal Airport,42.680889,-91.97372,US,US-IA
KOMA,"Omaha/Eppley Fld, NE, US",2025-09-12T04:52:00Z,2025-09-11 23:52:00,VFR,24.4,18.3,150,9,0,NA,1017,METAR KOMA 120452Z 15009KT 10SM SCT250 24/18 A3003 RMK AO2 SLP161 T02440183,2025-09-12T05:00:52Z,2025-09-12T01:00:52Z,Eppley Airfield,41.3032,-95.894096,US,US-NE
KOMH,"Orange Cnty Arpt, VA, US",2025-09-12T04:55:00Z,2025-09-12 04:55:00,VFR,14,14,0,0,0,NA,1021.4,METAR KOMH 120455Z AUTO 00000KT 10SM CLR 14/14 A3016 RMK AO2,2025-09-12T05:00:52Z,2025-09-12T01:00:52Z,Orange County Airport,38.2472,-78.045601,US,US-VA
KOMH,"Orange Cnty Arpt, VA, US",2025-09-12T05:15:00Z,2025-09-12 05:15:00,VFR,13,13,0,0,0,NA,1021.4,METAR KOMH 120515Z AUTO 00000KT 10SM CLR 13/13 A3016 RMK AO2,2025-09-12T05:17:29Z,2025-09-12T01:17:29Z,Orange County Airport,38.2472,-78.045601,US,US-VA
KOMK,"Omak Arpt, WA, US",2025-09-12T04:53:00Z,2025-09-11 21:53:00,VFR,23.9,10.6,170,7,0,NA,1011.6,METAR KOMK 120453Z AUTO 17007KT 10SM FEW110 24/11 A2987 RMK AO2 SLP107 T02390106,2025-09-12T05:00:52Z,2025-09-12T01:00:52Z,Omak Airport,48.4644012451,-119.517997742,US,US-WA
KONA,"Winona Muni, MN, US",2025-09-12T04:55:00Z,2025-09-12 04:55:00,VFR,17,15,150,3,0,NA,1021.8,METAR KONA 120455Z AUTO 15003KT 10SM CLR 17/15 A3017 RMK AO2 TSNO,2025-09-12T05:00:52Z,2025-09-12T01:00:52Z,Winona Municipal Airport Max Conrad Field,44.077202,-91.708298,US,US-MN
KONA,"Winona Muni, MN, US",2025-09-12T05:15:00Z,2025-09-12 05:15:00,VFR,16,15,0,0,0,NA,1021.8,METAR KONA 120515Z AUTO 00000KT 10SM CLR 16/15 A3017 RMK AO2 TSNO,2025-09-12T05:17:30Z,2025-09-12T01:17:30Z,Winona Municipal Airport Max Conrad Field,44.077202,-91.708298,US,US-MN
KONL,"O'Neill Muni, NE, US",2025-09-12T04:55:00Z,2025-09-11 23:55:00,VFR,21.7,18.1,150,7,0,NA,1015,METAR KONL 120455Z AUTO 15007KT 10SM CLR 22/18 A2997 RMK AO2 T02170181,2025-09-12T05:00:52Z,2025-09-12T01:00:52Z,O'Neill Municipal Airport–John L Baker Field,42.468916,-98.686989,US,US-NE
KONM,"Socorro Muni, NM, US",2025-09-12T04:55:00Z,2025-09-12 04:55:00,VFR,23,5.1,190,5,0,NA,1020.7,METAR KONM 120455Z AUTO 19005KT 10SM CLR 23/05 A3014 RMK AO2 T02300051,2025-09-12T05:00:52Z,2025-09-12T01:00:52Z,Socorro Municipal Airport,34.022499,-106.903,US,US-NM
KONM,"Socorro Muni, NM, US",2025-09-12T05:15:00Z,2025-09-12 05:15:00,VFR,24.4,4.9,200,6,0,NA,1020.7,METAR KONM 120515Z AUTO 20006KT 10SM CLR 24/05 A3014 RMK AO2 T02440049,2025-09-12T05:17:30Z,2025-09-12T01:17:30Z,Socorro Municipal Airport,34.022499,-106.903,US,US-NM
KONO,"Ontario Muni, OR, US",2025-09-12T04:53:00Z,2025-09-11 22:53:00,VFR,16.7,10,0,0,0,NA,1015.3,METAR KONO 120453Z AUTO 00000KT 10SM CLR 17/10 A2998 RMK AO2 SLP145 T01670100,2025-09-12T05:00:52Z,2025-09-12T01:00:52Z,Ontario Municipal Airport,44.0198,-117.013289,US,US-OR
KONP,"Newport Muni, OR, US",2025-09-12T04:55:00Z,2025-09-11 21:55:00,MVFR,12,12,0,0,0,NA,1020.1,METAR KONP 120455Z AUTO 00000KT 10SM OVC022 12/12 A3012 RMK AO2,2025-09-12T05:00:51Z,2025-09-12T01:00:51Z,Newport Municipal Airport,44.580399,-124.057999,US,US-OR
KONP,"Newport Muni, OR, US",2025-09-12T05:15:00Z,2025-09-11 22:15:00,MVFR,13,12,0,0,0,NA,1020.1,METAR KONP 120515Z AUTO 00000KT 10SM OVC020 13/12 A3012 RMK AO2,2025-09-12T05:17:30Z,2025-09-12T01:17:30Z,Newport Municipal Airport,44.580399,-124.057999,US,US-OR
KONT,"Ontario Intl, CA, US",2025-09-12T04:53:00Z,2025-09-11 21:53:00,VFR,20,15,250,8,0,NA,1013.6,METAR KONT 120453Z 25008KT 10SM CLR 20/15 A2993 RMK AO2 SLP124 T02000150 $,2025-09-12T05:00:52Z,2025-09-12T01:00:52Z,Ontario International Airport,34.056,-117.600998,US,US-CA
KONX,"Currituck Cnty, NC, US",2025-09-12T04:45:00Z,2025-09-12 04:45:00,VFR,17.6,16.7,0,0,0,NA,1019.7,METAR KONX 120445Z AUTO 00000KT 10SM SCT090 18/17 A3011 RMK AO2 T01760167,2025-09-12T05:00:52Z,2025-09-12T01:00:52Z,Currituck County Regional Airport,36.398899,-76.016296,US,US-NC
KONX,"Currituck Cnty, NC, US",2025-09-12T05:05:00Z,2025-09-12 05:05:00,VFR,18,16.7,0,0,0,NA,1019.4,METAR KONX 120505Z AUTO 00000KT 10SM BKN090 18/17 A3010 RMK AO2 T01800167,2025-09-12T05:17:30Z,2025-09-12T01:17:30Z,Currituck County Regional Airport,36.398899,-76.016296,US,US-NC
KONZ,"Grosse Isle Muni, MI, US",2025-09-12T04:55:00Z,2025-09-12 04:55:00,VFR,16,12,40,5,0,NA,1023.5,METAR KONZ 120455Z AUTO 04005KT 10SM CLR 16/12 A3022 RMK AO2,2025-09-12T05:00:51Z,2025-09-12T01:00:51Z,Grosse Ile Municipal Airport,42.099098,-83.161499,US,US-MI
KONZ,"Grosse Isle Muni, MI, US",2025-09-12T05:15:00Z,2025-09-12 05:15:00,VFR,16,12,40,4,0,NA,1023.5,METAR KONZ 120515Z AUTO 04004KT 10SM CLR 16/12 A3022 RMK AO2,2025-09-12T05:17:30Z,2025-09-12T01:17:30Z,Grosse Ile Municipal Airport,42.099098,-83.161499,US,US-MI
KOOA,"Oskaloosa Muni, IA, US",2025-09-12T04:55:00Z,2025-09-12 04:55:00,VFR,20.7,13.6,120,6,0,NA,1020.7,METAR KOOA 120455Z AUTO 12006KT 10SM CLR 21/14 A3014 RMK AO2 T02070136,2025-09-12T05:00:51Z,2025-09-12T01:00:51Z,Oskaloosa Municipal Airport,41.2262,-92.493896,US,US-IA
KOPF,"Miami/Opa Locka Arpt, FL, US",2025-09-12T04:53:00Z,2025-09-12 00:53:00,VFR,25,23.3,360,3,0,NA,1014.6,METAR KOPF 120453Z AUTO 36003KT 10SM CLR 25/23 A2996 RMK AO2 SLP145 T02500233 403440244 $,2025-09-12T05:00:52Z,2025-09-12T01:00:52Z,Miami-Opa Locka Executive Airport,25.907,-80.278397,US,US-FL
KOPL,"Opelousas/St Landry, LA, US",2025-09-12T04:55:00Z,2025-09-12 04:55:00,VFR,21.5,20.6,140,4,0,NA,1019,METAR KOPL 120455Z AUTO 14004KT 10SM CLR 22/21 A3009 RMK AO2 T02150206,2025-09-12T05:00:52Z,2025-09-12T01:00:52Z,St Landry Parish Ahart Field,30.558399,-92.099403,US,US-LA
KOPN,"Thomaston/Upson Cnty, GA, US",2025-09-12T04:55:00Z,2025-09-12 04:55:00,VFR,18,17,0,0,0,NA,1020.7,METAR KOPN 120455Z AUTO 00000KT 10SM CLR 18/17 A3014 RMK AO2,2025-09-12T05:00:52Z,2025-09-12T01:00:52Z,Thomaston Upson County Airport,32.95460129,-84.26319885,US,US-GA
KOPN,"Thomaston/Upson Cnty, GA, US",2025-09-12T05:15:00Z,2025-09-12 05:15:00,VFR,18,17,0,0,0,NA,1020.7,METAR KOPN 120515Z AUTO 00000KT 10SM CLR 18/17 A3014 RMK AO2,2025-09-12T05:17:30Z,2025-09-12T01:17:30Z,Thomaston Upson County Airport,32.95460129,-84.26319885,US,US-GA
KOQN,"West Chester/Brandywine Rgnl, PA, US",2025-09-12T04:55:00Z,2025-09-12 04:55:00,VFR,16,11,0,0,0,NA,1021.1,METAR KOQN 120455Z AUTO 00000KT 10SM CLR 16/11 A3015 RMK AO2,2025-09-12T05:00:51Z,2025-09-12T01:00:51Z,Brandywine Regional Airport,39.990101,-75.581902,US,US-PA
KOQU,"N Kingston/Quonset Arpt, RI, US",2025-09-12T04:55:00Z,2025-09-12 00:55:00,VFR,18,14,350,4,0,NA,1019.7,METAR KOQU 120455Z AUTO 35004KT 10SM CLR 18/14 A3011 RMK AO2,2025-09-12T05:00:52Z,2025-09-12T01:00:52Z,Quonset State Airport,41.597099304199,-71.412101745605,US,US-RI
KORB,"Orr Rgnl, MN, US",2025-09-12T04:53:00Z,2025-09-12 04:53:00,VFR,NA,NA,120,3,0,NA,1020.7,METAR KORB 120453Z 12003KT 10SM CLR A3014 RMK AO2,2025-09-12T05:00:52Z,2025-09-12T01:00:52Z,Orr Regional Airport,48.0159,-92.856102,US,US-MN
KORB,"Orr Rgnl, MN, US",2025-09-12T05:13:00Z,2025-09-12 05:13:00,VFR,NA,NA,150,5,0,NA,1020.4,METAR KORB 120513Z 15005KT 10SM CLR A3013 RMK AO2,2025-09-12T05:17:30Z,2025-09-12T01:17:30Z,Orr Regional Airport,48.0159,-92.856102,US,US-MN
KORD,"Chicago/O'Hare Intl, IL, US",2025-09-12T04:51:00Z,2025-09-11 23:51:00,VFR,18.3,16.7,60,5,0,NA,1023.1,METAR KORD 120451Z 06005KT 10SM FEW008 18/17 A3021 RMK AO2 SLP226 T01830167,2025-09-12T05:00:52Z,2025-09-12T01:00:52Z,Chicago O'Hare International Airport,41.9786,-87.9048,US,US-IL
KORE,"Orange Muni, MA, US",2025-09-12T04:52:00Z,2025-09-12 04:52:00,VFR,13.3,11.7,360,3,0,NA,1022.1,METAR KORE 120452Z AUTO 36003KT 10SM CLR 13/12 A3018 RMK AO2 SLP218 T01330117 402560061,2025-09-12T05:00:52Z,2025-09-12T01:00:52Z,Orange Municipal Airport,42.570098877,-72.2885971069,US,US-MA
KORF,"Norfolk Intl, VA, US",2025-09-12T04:51:00Z,2025-09-12 00:51:00,VFR,20.6,17.2,360,3,0,NA,1019.7,METAR KORF 120451Z 36003KT 10SM BKN070 OVC090 21/17 A3011 RMK AO2 SLP196 T02060172 402220183 $,2025-09-12T05:00:52Z,2025-09-12T01:00:52Z,Norfolk International Airport,36.895341,-76.201,US,US-VA
KORG,"Orange/Orange Cnty, TX, US",2025-09-12T04:55:00Z,2025-09-12 04:55:00,VFR,23,20.4,0,0,0,NA,1019.4,METAR KORG 120455Z AUTO 00000KT 10SM CLR 23/20 A3010 RMK AO2 T02300204 PWINO,2025-09-12T05:00:52Z,2025-09-12T01:00:52Z,Orange County Airport,30.069201,-93.800903,US,US-TX
KORH,"Worcester Muni, MA, US",2025-09-12T04:54:00Z,2025-09-12 00:54:00,VFR,16.7,9.4,360,7,0,NA,1021.8,METAR KORH 120454Z AUTO 36007KT 10SM CLR 17/09 A3017 RMK AO2 SLP213 T01670094 402330117,2025-09-12T05:00:52Z,2025-09-12T01:00:52Z,Worcester Regional Airport,42.2673,-71.875702,US,US-MA
KORL,"Orlando/Executive, FL, US",2025-09-12T04:53:00Z,2025-09-12 00:53:00,VFR,25,21.1,360,7,0,NA,1016.7,METAR KORL 120453Z AUTO 36007KT 10SM CLR 25/21 A3002 RMK AO2 SLP168 T02500211 403110228,2025-09-12T05:00:52Z,2025-09-12T01:00:52Z,Orlando Executive Airport,28.5455,-81.332901,US,US-FL
KORS,"Eastsound/Orcas Island Arpt, WA, US",2025-09-12T04:55:00Z,2025-09-11 21:55:00,VFR,15,14,170,12,0,NA,1016.7,METAR KORS 120455Z AUTO 17012KT 10SM CLR 15/14 A3002 RMK AO2,2025-09-12T05:00:51Z,2025-09-12T01:00:51Z,Orcas Island Airport,48.708199,-122.910004,US,US-WA
KORS,"Eastsound/Orcas Island Arpt, WA, US",2025-09-12T05:15:00Z,2025-09-11 22:15:00,VFR,14,14,160,11,17,NA,1016.3,METAR KORS 120515Z AUTO 16011G17KT 10SM CLR 14/14 A3001 RMK AO2,2025-09-12T05:17:30Z,2025-09-12T01:17:30Z,Orcas Island Airport,48.708199,-122.910004,US,US-WA
KOSA,"Mount Pleasant Rgnl, TX, US",2025-09-12T04:55:00Z,2025-09-12 04:55:00,VFR,21.7,21.2,0,0,0,7,1019,METAR KOSA 120455Z AUTO 00000KT 7SM BR CLR 22/21 A3009 RMK AO2 T02170212,2025-09-12T05:00:52Z,2025-09-12T01:00:52Z,Mount Pleasant Regional Airport,33.095501,-94.961502,US,US-TX
KOSC,"Wurtsmith(AFB), MI, US",2025-09-12T04:55:00Z,2025-09-12 00:55:00,VFR,13,12,290,3,0,NA,1024.5,METAR KOSC 120455Z AUTO 29003KT 10SM FEW001 OVC070 13/12 A3025 RMK AO2,2025-09-12T05:00:52Z,2025-09-12T01:00:52Z,Oscoda Wurtsmith Airport,44.451599,-83.394096,US,US-MI
KOSC,"Wurtsmith(AFB), MI, US",2025-09-12T05:15:00Z,2025-09-12 01:15:00,VFR,13,12,300,2,0,NA,1024.5,METAR KOSC 120515Z AUTO 30002KT 10SM SCT001 OVC070 13/12 A3025 RMK AO2,2025-09-12T05:17:30Z,2025-09-12T01:17:30Z,Oscoda Wurtsmith Airport,44.451599,-83.394096,US,US-MI
KOSH,"Oshkosh/Wittman Rgnl, WI, US",2025-09-12T04:53:00Z,2025-09-11 23:53:00,VFR,14.4,13.9,100,3,0,9,1023.8,METAR KOSH 120453Z AUTO 10003KT 9SM CLR 14/14 A3023 RMK AO2 SLP233 T01440139,2025-09-12T05:00:52Z,2025-09-12T01:00:52Z,Wittman Regional Airport,43.98440170288086,-88.55699920654297,US,US-WI
KOSU,"Columbus/Ohio State Univ Arpt, OH, US",2025-09-12T04:53:00Z,2025-09-12 00:53:00,VFR,15.6,9.4,10,4,0,NA,1022.8,METAR KOSU 120453Z AUTO 01004KT 10SM CLR 16/09 A3020 RMK AO2 SLP222 T01560094 402830111,2025-09-12T05:00:52Z,2025-09-12T01:00:52Z,The Ohio State University Airport - Don Scott Field,40.0798,-83.072998,US,US-OH
KOTG,"Worthington Muni, MN, US",2025-09-12T04:56:00Z,2025-09-12 04:56:00,VFR,18.3,15.6,140,7,0,NA,1018.7,METAR KOTG 120456Z AUTO 14007KT 10SM CLR 18/16 A3008 RMK AO2 SLP182 T01830156,2025-09-12T05:00:51Z,2025-09-12T01:00:51Z,Worthington Municipal Airport,43.65477,-95.577364,US,US-MN
KOTH,"North Bend/SW Oregon Rgnl, OR, US",2025-09-12T04:56:00Z,2025-09-11 21:56:00,MVFR,15,14.4,10,3,0,8,1019.7,METAR KOTH 120456Z AUTO 01003KT 8SM OVC024 15/14 A3011 RMK AO2 SLP195 T01500144,2025-09-12T05:00:51Z,2025-09-12T01:00:51Z,Southwest Oregon Regional Airport,43.41709899902344,-124.24600219726562,US,US-OR
KOTM,"Ottumwa Rgnl, IA, US",2025-09-12T04:53:00Z,2025-09-11 23:53:00,VFR,17.2,13.9,110,6,0,NA,1020.4,METAR KOTM 120453Z AUTO 11006KT 10SM CLR 17/14 A3013 RMK AO2 SLP196 T01720139,2025-09-12T05:00:52Z,2025-09-12T01:00:52Z,Ottumwa Regional Airport,41.106368,-92.449837,US,US-IA
KOUN,"Norman/Univ Oklahoma Arpt, OK, US",2025-09-12T04:55:00Z,2025-09-11 23:55:00,VFR,23.8,15.8,160,8,0,NA,1018.4,METAR KOUN 120455Z AUTO 16008KT 10SM CLR 24/16 A3007 RMK AO2 T02380158,2025-09-12T05:00:52Z,2025-09-12T01:00:52Z,University of Oklahoma Westheimer Airport,35.2456,-97.472099,US,US-OK
KOVE,"Oroville Muni, CA, US",2025-09-12T04:53:00Z,2025-09-11 21:53:00,VFR,22.8,12.8,0,0,0,NA,1013.6,METAR KOVE 120453Z AUTO 00000KT 10SM CLR 23/13 A2993 RMK AO2 SLP137 T02280128,2025-09-12T05:00:52Z,2025-09-12T01:00:52Z,Oroville Municipal Airport,39.487800598145,-121.62200164795,US,US-CA
KOVL,"Olivia Rgnl, MN, US",2025-09-12T04:55:00Z,2025-09-12 04:55:00,VFR,18,14,130,7,0,NA,1018.4,METAR KOVL 120455Z AUTO 13007KT 10SM CLR 18/14 A3007 RMK AO2,2025-09-12T05:00:52Z,2025-09-12T01:00:52Z,Olivia Regional Airport,44.778599,-95.032799,US,US-MN
KOVL,"Olivia Rgnl, MN, US",2025-09-12T05:15:00Z,2025-09-12 05:15:00,VFR,17,14,130,7,0,NA,1018.4,METAR KOVL 120515Z AUTO 13007KT 10SM CLR 17/14 A3007 RMK AO2,2025-09-12T05:17:30Z,2025-09-12T01:17:30Z,Olivia Regional Airport,44.778599,-95.032799,US,US-MN
KOVS,"Boscobel Arpt, WI, US",2025-09-12T04:53:00Z,2025-09-12 04:53:00,VFR,14.4,14.4,50,3,0,7,1022.4,METAR KOVS 120453Z AUTO 05003KT 7SM CLR 14/14 A3019 RMK AO2 SLP225 T01440144,2025-09-12T05:00:52Z,2025-09-12T01:00:52Z,Boscobel Airport,43.160198,-90.675499,US,US-WI
KOWA,"Owatonna/Degner Rgnl, MN, US",2025-09-12T04:55:00Z,2025-09-11 23:55:00,VFR,17.2,15,140,8,0,NA,1020.1,METAR KOWA 120455Z AUTO 14008KT 10SM CLR 17/15 A3012 RMK AO2 T01720150,2025-09-12T05:00:52Z,2025-09-12T01:00:52Z,Owatonna Degner Regional Airport,44.123402,-93.260597,US,US-MN
KOWA,"Owatonna/Degner Rgnl, MN, US",2025-09-12T05:15:00Z,2025-09-12 00:15:00,VFR,17,15,140,7,0,NA,1020.1,METAR KOWA 120515Z AUTO 14007KT 10SM CLR 17/15 A3012 RMK AO2 T01700150,2025-09-12T05:17:30Z,2025-09-12T01:17:30Z,Owatonna Degner Regional Airport,44.123402,-93.260597,US,US-MN
KOWB,"Owensboro/Daviess Cnty, KY, US",2025-09-12T04:56:00Z,2025-09-11 23:56:00,VFR,20.6,16.7,0,0,0,NA,1020.7,METAR KOWB 120456Z AUTO 00000KT 10SM CLR 21/17 A3014 RMK AO2 SLP203 T02060167,2025-09-12T05:00:51Z,2025-09-12T01:00:51Z,Owensboro Daviess County Airport,37.74010086,-87.16680145,US,US-KY
KOWD,"Norwood Mem, MA, US",2025-09-12T04:53:00Z,2025-09-12 00:53:00,VFR,14.4,12.8,340,3,0,NA,1020.4,METAR KOWD 120453Z AUTO 34003KT 10SM OVC075 14/13 A3013 RMK AO2 SLP204 T01440128 402560044,2025-09-12T05:00:52Z,2025-09-12T01:00:52Z,Norwood Memorial Airport,42.1904983521,-71.1728973389,US,US-MA
KOWI,"Ottawa Muni, KS, US",2025-09-12T04:35:00Z,2025-09-12 04:35:00,IFR,22,19,0,0,0,2,1018.7,METAR KOWI 120435Z AUTO 00000KT 2SM HZ FEW050 SCT120 22/19 A3008 RMK AO2 PWINO,2025-09-12T05:00:52Z,2025-09-12T01:00:52Z,Ottawa Municipal Airport,38.5387,-95.252998,US,US-KS
KOWI,"Ottawa Muni, KS, US",2025-09-12T04:50:00Z,2025-09-12 04:50:00,IFR,21,19,0,0,0,1.75,1018.7,METAR KOWI 120450Z AUTO 00000KT 1 3/4SM BR BKN120 21/19 A3008 RMK AO2 PWINO,2025-09-12T05:17:30Z,2025-09-12T01:17:30Z,Ottawa Municipal Airport,38.5387,-95.252998,US,US-KS
KOWP,"Sand Springs/Pogue Mem, OK, US",2025-09-12T04:55:00Z,2025-09-12 04:55:00,VFR,23.9,15.8,130,3,0,NA,1019.7,METAR KOWP 120455Z AUTO 13003KT 10SM CLR 24/16 A3011 RMK AO2 T02390158,2025-09-12T05:00:52Z,2025-09-12T01:00:52Z,William R. Pogue Municipal Airport,36.175301,-96.151802,US,US-OK
KOWP,"Sand Springs/Pogue Mem, OK, US",2025-09-12T05:15:00Z,2025-09-12 05:15:00,VFR,23.8,15.7,130,3,0,NA,1019.7,METAR KOWP 120515Z AUTO 13003KT 10SM CLR 24/16 A3011 RMK AO2 T02380157,2025-09-12T05:17:30Z,2025-09-12T01:17:30Z,William R. Pogue Municipal Airport,36.175301,-96.151802,US,US-OK
KOWX,"Ottawa/Putnam Cnty, OH, US",2025-09-12T04:55:00Z,2025-09-12 04:55:00,VFR,12,12,80,2,0,NA,1023.8,METAR KOWX 120455Z AUTO 08002KT 10SM CLR 12/12 A3023 RMK AO2,2025-09-12T05:00:51Z,2025-09-12T01:00:51Z,Putnam County Airport,41.035599,-83.982002,US,US-OH
KOWX,"Ottawa/Putnam Cnty, OH, US",2025-09-12T05:15:00Z,2025-09-12 05:15:00,VFR,11,11,80,3,0,NA,1023.5,METAR KOWX 120515Z AUTO 08003KT 10SM CLR 11/11 A3022 RMK AO2,2025-09-12T05:17:29Z,2025-09-12T01:17:29Z,Putnam County Airport,41.035599,-83.982002,US,US-OH
KOXB,"Ocean City Muni, MD, US",2025-09-12T04:53:00Z,2025-09-12 00:53:00,VFR,13.9,13.9,0,0,0,9,1020.4,METAR KOXB 120453Z AUTO 00000KT 9SM CLR 14/14 A3013 RMK AO2 SLP202 T01390139 402500133,2025-09-12T05:00:52Z,2025-09-12T01:00:52Z,Ocean City Municipal Airport,38.310398101807,-75.124000549316,US,US-MD
KOXC,"Oxford Arpt, CT, US",2025-09-12T04:56:00Z,2025-09-12 00:56:00,VFR,15,14.4,30,7,0,NA,1021.4,METAR KOXC 120456Z AUTO 03007KT 10SM CLR 15/14 A3016 RMK AO2 SLP221 T01500144 402390083 $,2025-09-12T05:00:51Z,2025-09-12T01:00:51Z,Waterbury Oxford Airport,41.47859954834,-73.135200500488,US,US-CT
KOXD,"Oxford/Miami Univ Arpt, OH, US",2025-09-12T04:55:00Z,2025-09-12 00:55:00,VFR,17,10.5,80,6,0,NA,1022.8,METAR KOXD 120455Z AUTO 08006KT 10SM CLR 17/11 A3020 RMK AO2 T01700105 402910120,2025-09-12T05:00:51Z,2025-09-12T01:00:51Z,Miami University Airport,39.50230026,-84.78440094,US,US-OH
KOXD,"Oxford/Miami Univ Arpt, OH, US",2025-09-12T05:15:00Z,2025-09-12 01:15:00,VFR,16.5,10.6,90,5,0,NA,1022.8,METAR KOXD 120515Z AUTO 09005KT 10SM CLR 17/11 A3020 RMK AO2 T01650106,2025-09-12T05:17:30Z,2025-09-12T01:17:30Z,Miami University Airport,39.50230026,-84.78440094,US,US-OH
KOXI,"Knox/Starke Cnty, IN, US",2025-09-12T04:55:00Z,2025-09-12 04:55:00,VFR,12,12,350,4,0,NA,1022.8,METAR KOXI 120455Z AUTO 35004KT 10SM CLR 12/12 A3020 RMK AO2 402780089,2025-09-12T05:00:51Z,2025-09-12T01:00:51Z,Starke County Airport,41.330098,-86.662302,US,US-IN
KOXR,"Oxnard Arpt, CA, US",2025-09-12T04:51:00Z,2025-09-11 21:51:00,VFR,19.4,16.7,0,0,0,NA,1013,METAR KOXR 120451Z AUTO 00000KT 10SM CLR 19/17 A2991 RMK AO2 SLP128 T01940167 $,2025-09-12T05:00:52Z,2025-09-12T01:00:52Z,Oxnard Airport,34.200801849365,-119.20700073242,US,US-CA
KOXV,"Knoxville Muni, IA, US",2025-09-12T04:55:00Z,2025-09-12 04:55:00,VFR,20,14,110,7,0,NA,1019.7,METAR KOXV 120455Z AUTO 11007KT 10SM CLR 20/14 A3011 RMK AO2,2025-09-12T05:00:52Z,2025-09-12T01:00:52Z,Knoxville Municipal Airport,41.298901,-93.1138,US,US-IA
KOYM,"St Marys Muni, PA, US",2025-09-12T04:55:00Z,2025-09-12 00:55:00,VFR,15,10,0,0,0,NA,1025.1,METAR KOYM 120455Z AUTO 00000KT 10SM SCT100 SCT120 15/10 A3027 RMK AO2 PWINO,2025-09-12T05:00:51Z,2025-09-12T01:00:51Z,St Marys Municipal Airport,41.412498474121,-78.502601623535,US,US-PA
KOYM,"St Marys Muni, PA, US",2025-09-12T05:15:00Z,2025-09-12 01:15:00,VFR,13,10,0,0,0,NA,1025.1,METAR KOYM 120515Z AUTO 00000KT 10SM SCT100 13/10 A3027 RMK AO2 PWINO,2025-09-12T05:17:30Z,2025-09-12T01:17:30Z,St Marys Municipal Airport,41.412498474121,-78.502601623535,US,US-PA
KOZA,"Ozona Muni, TX, US",2025-09-12T04:55:00Z,2025-09-11 23:55:00,VFR,22,11,130,5,0,NA,1021.8,METAR KOZA 120455Z AUTO 13005KT 10SM CLR 22/11 A3017 RMK AO2,2025-09-12T05:00:51Z,2025-09-12T01:00:51Z,Ozona Municipal Airport,30.735300064087,-101.20300292969,US,US-TX
KOZW,"Howell/Hardy Arpt, MI, US",2025-09-12T04:55:00Z,2025-09-12 04:55:00,VFR,16,12,130,3,0,NA,1023.8,METAR KOZW 120455Z AUTO 13003KT 10SM CLR 16/12 A3023 RMK AO2,2025-09-12T05:00:51Z,2025-09-12T01:00:51Z,Livingston County Spencer J. Hardy Airport,42.62919998,-83.98210144,US,US-MI
KOZW,"Howell/Hardy Arpt, MI, US",2025-09-12T05:15:00Z,2025-09-12 05:15:00,VFR,15,12,120,3,0,NA,1023.5,METAR KOZW 120515Z AUTO 12003KT 10SM CLR 15/12 A3022 RMK AO2,2025-09-12T05:17:30Z,2025-09-12T01:17:30Z,Livingston County Spencer J. Hardy Airport,42.62919998,-83.98210144,US,US-MI
KP08,"Coolidge Muni, AZ, US",2025-09-12T04:35:00Z,2025-09-12 04:35:00,VFR,32,15,VAR,5,0,NA,1011.6,METAR KP08 120435Z AUTO VRB05KT 10SM BKN075 BKN085 32/15 A2987 RMK AO2,2025-09-12T05:00:52Z,2025-09-12T01:00:52Z,Coolidge Municipal Airport,32.935902,-111.427002,US,US-AZ
KP08,"Coolidge Muni, AZ, US",2025-09-12T04:55:00Z,2025-09-12 04:55:00,VFR,33,15,210,9,0,NA,1011.6,METAR KP08 120455Z AUTO 21009KT 10SM FEW080 33/15 A2987 RMK AO2 LTG DSNT E,2025-09-12T05:17:30Z,2025-09-12T01:17:30Z,Coolidge Municipal Airport,32.935902,-111.427002,US,US-AZ
KP33,"Wilcox/Chocise Cnty, AZ, US",2025-09-12T04:36:00Z,2025-09-11 21:36:00,VFR,19,17,250,5,0,NA,1019,METAR KP33 120436Z AUTO 25005KT 10SM CLR 19/17 A3009 RMK AO2,2025-09-12T05:00:52Z,2025-09-12T01:00:52Z,Cochise County Airport,32.245399,-109.894997,US,US-AZ
KP33,"Wilcox/Chocise Cnty, AZ, US",2025-09-12T04:56:00Z,2025-09-11 21:56:00,VFR,19,17,0,0,0,NA,1019,METAR KP33 120456Z AUTO 00000KT 10SM CLR 19/17 A3009 RMK AO2,2025-09-12T05:17:30Z,2025-09-12T01:17:30Z,Cochise County Airport,32.245399,-109.894997,US,US-AZ
KP52,"Cottonwood Arpt, AZ, US",2025-09-12T04:35:00Z,2025-09-12 04:35:00,VFR,25,12,210,4,0,NA,1015.3,METAR KP52 120435Z AUTO 21004KT 10SM SCT070 25/12 A2998 RMK AO2,2025-09-12T05:00:52Z,2025-09-12T01:00:52Z,Cottonwood Airport,34.73,-112.035004,US,US-AZ
KP52,"Cottonwood Arpt, AZ, US",2025-09-12T04:55:00Z,2025-09-12 04:55:00,VFR,24,12,210,5,0,NA,1015.3,METAR KP52 120455Z AUTO 21005KT 10SM SCT070 24/12 A2998 RMK AO2,2025-09-12T05:17:30Z,2025-09-12T01:17:30Z,Cottonwood Airport,34.73,-112.035004,US,US-AZ
KPAE,"Everett/Paine Fld, WA, US",2025-09-12T04:53:00Z,2025-09-11 21:53:00,VFR,15.6,13.3,200,4,0,NA,1017.7,METAR KPAE 120453Z AUTO 20004KT 10SM CLR 16/13 A3005 RMK AO2 SLP177 T01560133,2025-09-12T05:00:52Z,2025-09-12T01:00:52Z,Seattle Paine Field International Airport,47.9063,-122.281998,US,US-WA
KPAH,"Paducah/Barkley Rgnl, KY, US",2025-09-12T04:53:00Z,2025-09-11 23:53:00,VFR,18.3,17.8,0,0,0,8,1019.7,METAR KPAH 120453Z AUTO 00000KT 8SM CLR 18/18 A3011 RMK AO2 SLP191 T01830178,2025-09-12T05:00:52Z,2025-09-12T01:00:52Z,Barkley Regional Airport,37.06079864501953,-88.7738037109375,US,US-KY
KPAN,"Payson Arpt, AZ, US",2025-09-12T04:55:00Z,2025-09-11 21:55:00,VFR,22,12,VAR,2,0,NA,1020.4,METAR KPAN 120455Z AUTO VRB02KT 10SM CLR 22/12 A3013 RMK AO2,2025-09-12T05:00:52Z,2025-09-12T01:00:52Z,Payson Airport,34.256801605225,-111.33899688721,US,US-AZ
KPAO,"Palo Alto Arpt, CA, US",2025-09-12T03:47:00Z,2025-09-11 20:47:00,VFR,17,14,0,0,0,NA,1015.7,METAR KPAO 120347Z 00000KT 10SM FEW030 17/14 A2999 RMK LAST,2025-09-12T05:00:52Z,2025-09-12T01:00:52Z,Palo Alto Airport,37.461102,-122.114998,US,US-CA
KPBF,"Pine Bluff/Grider Fld, AR, US",2025-09-12T04:53:00Z,2025-09-11 23:53:00,VFR,22.8,18.9,0,0,0,NA,1019.4,METAR KPBF 120453Z AUTO 00000KT 10SM CLR 23/19 A3010 RMK AO2 SLP191 T02280189 $,2025-09-12T05:00:52Z,2025-09-12T01:00:52Z,"Pine Bluff Regional Airport, Grider Field",34.174121,-91.935643,US,US-AR
KPBG,"Plattsburgh Intl, NY, US",2025-09-12T04:53:00Z,2025-09-12 00:53:00,VFR,13.3,7.8,310,6,0,NA,1023.1,METAR KPBG 120453Z AUTO 31006KT 10SM CLR 13/08 A3021 RMK AO2 SLP230 T01330078 402330078,2025-09-12T05:00:52Z,2025-09-12T01:00:52Z,Plattsburgh International Airport,44.650901794433594,-73.46810150146484,US,US-NY
KPBH,"Phillips/Price Cnty, WI, US",2025-09-12T04:55:00Z,2025-09-12 04:55:00,VFR,11.7,11.7,0,0,0,NA,1023.5,METAR KPBH 120455Z AUTO 00000KT 10SM CLR 12/12 A3022 RMK AO2 T01170117,2025-09-12T05:00:52Z,2025-09-12T01:00:52Z,Price County Airport,45.709,-90.402496,US,US-WI
KPBH,"Phillips/Price Cnty, WI, US",2025-09-12T05:15:00Z,2025-09-12 05:15:00,VFR,11.3,11.3,0,0,0,NA,1023.8,METAR KPBH 120515Z AUTO 00000KT 10SM CLR 11/11 A3023 RMK AO2 T01130113,2025-09-12T05:17:30Z,2025-09-12T01:17:30Z,Price County Airport,45.709,-90.402496,US,US-WI
KPBI,"Palm Beach Intl, FL, US",2025-09-12T04:53:00Z,2025-09-12 00:53:00,VFR,25,24.4,0,0,0,NA,1014.6,METAR KPBI 120453Z 00000KT 10SM SCT018 BKN045 BKN110 25/24 A2996 RMK AO2 RAE51 TSE08 SLP143 P0004 T02500244 403170244 $,2025-09-12T05:00:52Z,2025-09-12T01:00:52Z,Palm Beach International Airport,26.683201,-80.095596,US,US-FL
KPBX,"Pikeville/Pike Cnty, KY, US",2025-09-12T04:55:00Z,2025-09-12 00:55:00,VFR,15.8,11,0,0,0,NA,1022.8,METAR KPBX 120455Z AUTO 00000KT 10SM CLR 16/11 A3020 RMK AO2 T01580110 402650130,2025-09-12T05:00:51Z,2025-09-12T01:00:51Z,Pike County Airport Hatcher Field,37.560795,-82.570051,US,US-KY
KPCM,"Plant City Arpt, FL, US",2025-09-12T04:55:00Z,2025-09-12 04:55:00,VFR,25,22,VAR,NA,0,NA,1017.4,METAR KPCM 120455Z AUTO 10SM SCT100 25/22 A3004 RMK AO2,2025-09-12T05:00:52Z,2025-09-12T01:00:52Z,Plant City Municipal Airport,28.0002,-82.1642,US,US-FL
KPCM,"Plant City Arpt, FL, US",2025-09-12T05:15:00Z,2025-09-12 05:15:00,VFR,25,22,VAR,NA,0,NA,1017.4,METAR KPCM 120515Z AUTO 10SM SCT100 25/22 A3004 RMK AO2,2025-09-12T05:17:30Z,2025-09-12T01:17:30Z,Plant City Municipal Airport,28.0002,-82.1642,US,US-FL
KPCW,"Port Clinton/Erie-Ottawa Arpt, OH, US",2025-09-12T04:25:00Z,2025-09-12 04:25:00,VFR,14,13,0,0,0,NA,1022.8,METAR KPCW 120425Z AUTO 00000KT 10SM CLR 14/13 A3020 RMK AO2,2025-09-12T05:00:52Z,2025-09-12T01:00:52Z,Carl R Keller Field,41.515647,-82.868328,US,US-OH
KPCW,"Port Clinton/Erie-Ottawa Arpt, OH, US",2025-09-12T04:45:00Z,2025-09-12 04:45:00,VFR,14,13,0,0,0,NA,1022.8,METAR KPCW 120445Z AUTO 00000KT 10SM CLR 14/13 A3020 RMK AO2,2025-09-12T05:17:30Z,2025-09-12T01:17:30Z,Carl R Keller Field,41.515647,-82.868328,US,US-OH
KPCZ,"Waupaca Muni, WI, US",2025-09-12T04:55:00Z,2025-09-12 04:55:00,IFR,13,12.2,0,0,0,1.5,1025.1,METAR KPCZ 120455Z AUTO 00000KT 1 1/2SM BR VV007 13/12 A3027 RMK AO2 T01300122 402070126,2025-09-12T05:00:51Z,2025-09-12T01:00:51Z,Waupaca Municipal Airport,44.333302,-89.019798,US,US-WI
KPDC,"Prairie Du Chien Muni, WI, US",2025-09-12T04:55:00Z,2025-09-11 23:55:00,VFR,16.3,14.7,0,0,0,NA,1022.1,METAR KPDC 120455Z AUTO 00000KT 10SM CLR 16/15 A3018 RMK AO2 T01630147,2025-09-12T05:00:52Z,2025-09-12T01:00:52Z,Prairie Du Chien Municipal Airport,43.019298553467,-91.12370300293,US,US-WI
KPDC,"Prairie Du Chien Muni, WI, US",2025-09-12T05:15:00Z,2025-09-12 00:15:00,VFR,16.1,15.1,0,0,0,NA,1022.1,METAR KPDC 120515Z AUTO 00000KT 10SM CLR 16/15 A3018 RMK AO2 T01610151,2025-09-12T05:17:30Z,2025-09-12T01:17:30Z,Prairie Du Chien Municipal Airport,43.019298553467,-91.12370300293,US,US-WI
KPDK,"Atlanta/Dekalb-Peachtree Arpt, GA, US",2025-09-12T04:53:00Z,2025-09-12 00:53:00,VFR,18.9,15.6,0,0,0,NA,1020.4,METAR KPDK 120453Z 00000KT 10SM CLR 19/16 A3013 RMK AO2 SLP189 T01890156 403110139,2025-09-12T05:00:52Z,2025-09-12T01:00:52Z,DeKalb Peachtree Airport,33.87633,-84.30213,US,US-GA
KPDT,"Pendleton/E Oregon Rgnl, OR, US",2025-09-12T04:53:00Z,2025-09-11 21:53:00,VFR,18.9,12.8,260,9,0,NA,1014.6,METAR KPDT 120453Z AUTO 26009KT 10SM CLR 19/13 A2996 RMK AO2 SLP132 T01890128,2025-09-12T05:00:52Z,2025-09-12T01:00:52Z,Eastern Oregon Regional Airport at Pendleton,45.695099,-118.841003,US,US-OR
KPDX,"Portland Intl, OR, US",2025-09-12T04:53:00Z,2025-09-11 21:53:00,MVFR,17.2,12.8,VAR,3,0,NA,1018.4,METAR KPDX 120453Z VRB03KT 10SM BKN030 OVC049 17/13 A3007 RMK AO2 SLP182 T01720128 $,2025-09-12T05:00:52Z,2025-09-12T01:00:52Z,Portland International Airport,45.588699,-122.598,US,US-OR
KPEA,"Pella Muni, IA, US",2025-09-12T04:55:00Z,2025-09-12 04:55:00,VFR,18.9,14.2,120,6,0,NA,1020.4,METAR KPEA 120455Z AUTO 12006KT 10SM CLR 19/14 A3013 RMK AO2 T01890142,2025-09-12T05:00:51Z,2025-09-12T01:00:51Z,Pella Municipal Airport,41.40010070800781,-92.9458999633789,US,US-IA
KPEO,"Penn Yan Arpt, NY, US",2025-09-12T04:53:00Z,2025-09-12 04:53:00,VFR,12.2,11.1,0,0,0,NA,1023.5,METAR KPEO 120453Z AUTO 00000KT 10SM CLR 12/11 A3022 RMK AO2 SLP232 T01220111 402500111,2025-09-12T05:00:52Z,2025-09-12T01:00:52Z,Penn Yan Airport,42.6371,-77.052902,US,US-NY
KPEQ,"Pecos Muni, TX, US",2025-09-12T04:35:00Z,2025-09-11 23:35:00,VFR,25.8,10.5,120,11,0,NA,1019.7,METAR KPEQ 120435Z AUTO 12011KT 10SM CLR 26/11 A3011 RMK AO2 T02580105 PWINO,2025-09-12T05:00:52Z,2025-09-12T01:00:52Z,Pecos Municipal Airport,31.382400512695,-103.51100158691,US,US-TX
KPEQ,"Pecos Muni, TX, US",2025-09-12T04:55:00Z,2025-09-11 23:55:00,VFR,25.5,10.5,120,11,0,NA,1019.7,METAR KPEQ 120455Z AUTO 12011KT 10SM CLR 26/11 A3011 RMK AO2 T02550105 PWINO,2025-09-12T05:17:30Z,2025-09-12T01:17:30Z,Pecos Municipal Airport,31.382400512695,-103.51100158691,US,US-TX
KPEX,"Paynesville Muni, MN, US",2025-09-12T04:55:00Z,2025-09-12 04:55:00,VFR,18,15,130,6,0,NA,1019,METAR KPEX 120455Z AUTO 13006KT 10SM CLR 18/15 A3009 RMK AO2,2025-09-12T05:00:52Z,2025-09-12T01:00:52Z,Paynesville Municipal Airport,45.372061,-94.744742,US,US-MN
KPEX,"Paynesville Muni, MN, US",2025-09-12T05:15:00Z,2025-09-12 05:15:00,VFR,18,15,130,7,0,NA,1019,METAR KPEX 120515Z AUTO 13007KT 10SM CLR 18/15 A3009 RMK AO2,2025-09-12T05:17:30Z,2025-09-12T01:17:30Z,Paynesville Municipal Airport,45.372061,-94.744742,US,US-MN
KPEZ,"Pleasanton Muni, TX, US",2025-09-12T04:55:00Z,2025-09-12 04:55:00,VFR,26.9,21.5,170,8,0,NA,1019.4,METAR KPEZ 120455Z AUTO 17008KT 10SM CLR 27/22 A3010 RMK AO2 T02690215,2025-09-12T05:00:51Z,2025-09-12T01:00:51Z,Pleasanton Municipal Airport,28.954200744628903,-98.5199966430664,US,US-TX
KPGA,"Page Muni, AZ, US",2025-09-12T04:53:00Z,2025-09-11 21:53:00,VFR,26.1,2.8,230,4,0,NA,1015.3,METAR KPGA 120453Z AUTO 23004KT 10SM CLR 26/03 A2998 RMK AO2 SLP082 T02610028,2025-09-12T05:00:52Z,2025-09-12T01:00:52Z,Page Municipal Airport,36.924234,-111.447716,US,US-AZ
KPGD,"Punta Gorda Arpt, FL, US",2025-09-12T04:53:00Z,2025-09-12 00:53:00,VFR,24.4,23.9,350,5,0,NA,1016.3,METAR KPGD 120453Z AUTO 35005KT 10SM CLR 24/24 A3001 RMK AO2 SLP160 T02440239 403110233 $,2025-09-12T05:00:52Z,2025-09-12T01:00:52Z,Punta Gorda Airport,26.9202,-81.990501,US,US-FL
KPGV,"Greenville/Pitt Arpt, NC, US",2025-09-12T04:45:00Z,2025-09-12 00:45:00,VFR,18,18,20,4,0,NA,1020.1,METAR KPGV 120445Z AUTO 02004KT 10SM OVC080 18/18 A3012 RMK AO2,2025-09-12T05:00:52Z,2025-09-12T01:00:52Z,Pitt-Greenville Airport,35.635535,-77.384262,US,US-NC
KPGV,"Greenville/Pitt Arpt, NC, US",2025-09-12T05:05:00Z,2025-09-12 01:05:00,VFR,18,18,360,3,0,NA,1019.7,METAR KPGV 120505Z AUTO 36003KT 10SM OVC080 18/18 A3011 RMK AO2,2025-09-12T05:17:30Z,2025-09-12T01:17:30Z,Pitt-Greenville Airport,35.635535,-77.384262,US,US-NC
KPHD,"New Philadelphia/Clever Fld, OH, US",2025-09-12T04:53:00Z,2025-09-12 00:53:00,VFR,12.8,11.7,0,0,0,NA,1023.5,METAR KPHD 120453Z AUTO 00000KT 10SM CLR 13/12 A3022 RMK AO2 SLP230 T01280117 402780078,2025-09-12T05:00:52Z,2025-09-12T01:00:52Z,Harry Clever Field,40.470901489258,-81.419700622559,US,US-OH
KPHF,"Newport News/Williamsburg Intl, VA, US",2025-09-12T04:54:00Z,2025-09-12 00:54:00,LIFR,16.1,16.1,0,0,0,0.5,1020.1,METAR KPHF 120454Z 00000KT 1/2SM FG BKN080 16/16 A3012 RMK AO2 SLP199 T01610161 402280156 RVRNO,2025-09-12T05:00:52Z,2025-09-12T01:00:52Z,Newport News Williamsburg International Airport,37.131901,-76.492996,US,US-VA
KPHF,"Newport News/Williamsburg Intl, VA, US",2025-09-12T05:14:00Z,2025-09-12 01:14:00,MVFR,16.7,16.7,0,0,0,3,1020.1,SPECI KPHF 120514Z 00000KT 3SM BR OVC080 17/17 A3012 RMK AO2 T01670167,2025-09-12T05:17:30Z,2025-09-12T01:17:30Z,Newport News Williamsburg International Airport,37.131901,-76.492996,US,US-VA
KPHG,"Phillipsburg Muni, KS, US",2025-09-12T04:55:00Z,2025-09-12 04:55:00,VFR,23,16,140,7,0,NA,1015,METAR KPHG 120455Z AUTO 14007KT 10SM CLR 23/16 A2997 RMK AO2 403510164,2025-09-12T05:00:51Z,2025-09-12T01:00:51Z,Phillipsburg Municipal Airport,39.735802,-99.317101,US,US-KS
KPHL,"Philadelphia Intl, PA, US",2025-09-12T04:54:00Z,2025-09-12 00:54:00,VFR,18.3,16.7,100,3,0,NA,1020.4,METAR KPHL 120454Z 10003KT 10SM FEW070 SCT150 18/17 A3013 RMK AO2 SLP203 T01830167 402830178 $,2025-09-12T05:00:52Z,2025-09-12T01:00:52Z,Philadelphia International Airport,39.871899,-75.241096,US,US-PA
KPHN,"Port Huron/St Clair Cnty, MI, US",2025-09-12T04:55:00Z,2025-09-12 00:55:00,LIFR,11,10,0,0,0,0.5,1023.8,METAR KPHN 120455Z AUTO 00000KT 1/2SM FG BKN002 11/10 A3023 RMK AO2,2025-09-12T05:00:52Z,2025-09-12T01:00:52Z,St Clair County International Airport,42.9109993,-82.52890015,US,US-MI
KPHN,"Port Huron/St Clair Cnty, MI, US",2025-09-12T05:16:00Z,2025-09-12 01:16:00,LIFR,11,11,0,0,0,1,1023.8,METAR KPHN 120516Z AUTO 00000KT 1SM BR OVC002 11/11 A3023 RMK AO2,2025-09-12T05:17:29Z,2025-09-12T01:17:29Z,St Clair County International Airport,42.9109993,-82.52890015,US,US-MI
KPHP,"Philip Muni, SD, US",2025-09-12T04:55:00Z,2025-09-11 22:55:00,VFR,25.6,16.7,0,0,0,NA,1011.9,METAR KPHP 120455Z AUTO 00000KT 10SM CLR 26/17 A2988 RMK AO2 SLP093 T02560167,2025-09-12T05:00:52Z,2025-09-12T01:00:52Z,Philip Airport,44.048527,-101.600933,US,US-SD
KPHT,"Paris/Henry Cnty, TN, US",2025-09-12T04:35:00Z,2025-09-11 23:35:00,VFR,21,19,150,5,0,NA,1019.7,METAR KPHT 120435Z AUTO 15005KT 10SM CLR 21/19 A3011 RMK A01,2025-09-12T05:00:52Z,2025-09-12T01:00:52Z,Henry County Airport,36.338199615499995,-88.38289642330001,US,US-TN
KPHT,"Paris/Henry Cnty, TN, US",2025-09-12T04:50:00Z,2025-09-11 23:50:00,VFR,21,20,90,4,0,NA,1019.7,METAR KPHT 120450Z AUTO 09004KT 10SM CLR 21/20 A3011 RMK A01,2025-09-12T05:17:30Z,2025-09-12T01:17:30Z,Henry County Airport,36.338199615499995,-88.38289642330001,US,US-TN
KPHX,"Phoenix/Sky Harbor Intl, AZ, US",2025-09-12T04:51:00Z,2025-09-11 21:51:00,VFR,33.9,12.2,270,5,0,NA,1009.2,METAR KPHX 120451Z 27005KT 10SM FEW090 34/12 A2980 RMK AO2 SLP071 OCNL LTGIC DSNT SE CB DSNT SE T03390122,2025-09-12T05:00:52Z,2025-09-12T01:00:52Z,Phoenix Sky Harbor International Airport,33.435302,-112.005905,US,US-AZ
KPIA,"Peoria Intl, IL, US",2025-09-12T04:54:00Z,2025-09-11 23:54:00,VFR,20.6,13.3,80,9,0,NA,1021.8,METAR KPIA 120454Z 08009KT 10SM CLR 21/13 A3017 RMK AO2 SLP211 T02060133,2025-09-12T05:00:52Z,2025-09-12T01:00:52Z,General Wayne A. Downing Peoria International Airport,40.6642,-89.693298,US,US-IL
KPIB,"Hattiesburg/Laurel Rgnl, MS, US",2025-09-12T04:56:00Z,2025-09-11 23:56:00,VFR,21.1,18.9,0,0,0,NA,1019.7,METAR KPIB 120456Z AUTO 00000KT 10SM CLR 21/19 A3011 RMK AO2 SLP195 T02110189,2025-09-12T05:00:51Z,2025-09-12T01:00:51Z,Hattiesburg Laurel Regional Airport,31.4671,-89.337097,US,US-MS
KPIE,"St Petersburg-Clearwater Intl, FL, US",2025-09-12T04:53:00Z,2025-09-12 00:53:00,VFR,25.6,22.2,40,10,16,NA,1016.7,METAR KPIE 120453Z AUTO 04010G16KT 10SM CLR 26/22 A3002 RMK AO2 SLP163 T02560222 403110244,2025-09-12T05:00:52Z,2025-09-12T01:00:52Z,St. Petersburg Clearwater International Airport,27.9102,-82.687401,US,US-FL
KPIH,"Pocatello Rgnl, ID, US",2025-09-12T04:53:00Z,2025-09-11 22:53:00,VFR,13.9,3.9,200,5,0,NA,1017.7,METAR KPIH 120453Z AUTO 20005KT 10SM CLR 14/04 A3005 RMK AO2 SLP142 T01390039,2025-09-12T05:00:52Z,2025-09-12T01:00:52Z,Pocatello Regional Airport,42.9098014831543,-112.59600067138672,US,US-ID
KPIL,"Port Isabel/Cameron Cnty, TX, US",2025-09-12T04:53:00Z,2025-09-12 04:53:00,VFR,28.9,24.4,100,10,0,NA,1016.7,METAR KPIL 120453Z AUTO 10010KT 10SM SCT024 29/24 A3002 RMK AO2 SLP164 T02890244,2025-09-12T05:00:52Z,2025-09-12T01:00:52Z,Port Isabel Cameron County Airport,26.166201,-97.345901,US,US-TX
KPIM,"Pine Mountain/Harris Cnty, GA, US",2025-09-12T04:55:00Z,2025-09-12 00:55:00,VFR,19,18,160,1,0,NA,1020.4,METAR KPIM 120455Z AUTO 16001KT 10SM SCT060 19/18 A3013 RMK AO2,2025-09-12T05:00:51Z,2025-09-12T01:00:51Z,Harris County Airport,32.8406982422,-84.8824005127,US,US-GA
KPIR,"Pierre Muni, SD, US",2025-09-12T04:53:00Z,2025-09-11 23:53:00,VFR,23.3,18.3,150,10,0,NA,1012.3,METAR KPIR 120453Z AUTO 15010KT 10SM CLR 23/18 A2989 RMK AO2 SLP105 T02330183,2025-09-12T05:00:52Z,2025-09-12T01:00:52Z,Pierre Regional Airport,44.38270187,-100.2860031,US,US-SD
KPIT,"Pittsburgh Intl, PA, US",2025-09-12T04:51:00Z,2025-09-12 00:51:00,VFR,17.2,11.1,0,0,0,NA,1022.4,METAR KPIT 120451Z 00000KT 10SM FEW250 17/11 A3019 RMK AO2 SLP224 T01720111 402610094 $,2025-09-12T05:00:52Z,2025-09-12T01:00:52Z,Pittsburgh International Airport,40.491501,-80.232903,US,US-PA
KPJC,"Zelienople Muni, PA, US",2025-09-12T04:55:00Z,2025-09-12 04:55:00,IFR,7,7,0,0,0,1.75,1022.1,METAR KPJC 120455Z AUTO 00000KT 1 3/4SM VV007 07/07 A3018 RMK AO2 VIS 3/4V5,2025-09-12T05:00:51Z,2025-09-12T01:00:51Z,Zelienople Municipal Airport,40.801601,-80.160698,US,US-PA
KPJC,"Zelienople Muni, PA, US",2025-09-12T05:15:00Z,2025-09-12 05:15:00,LIFR,6,6,0,0,0,0.75,1022.1,METAR KPJC 120515Z AUTO 00000KT 3/4SM VV005 06/06 A3018 RMK AO2,2025-09-12T05:17:30Z,2025-09-12T01:17:30Z,Zelienople Municipal Airport,40.801601,-80.160698,US,US-PA
KPKB,"Parkersburg/Mid Ohio Valley Rgnl, WV, US",2025-09-12T04:53:00Z,2025-09-12 00:53:00,VFR,13.3,11.7,0,0,0,NA,1022.1,METAR KPKB 120453Z AUTO 00000KT 10SM CLR 13/12 A3018 RMK AO2 SLP215 T01330117 402830094,2025-09-12T05:00:52Z,2025-09-12T01:00:52Z,Mid Ohio Valley Regional Airport,39.3451,-81.439201,US,US-WV
KPKD,"Park Rapids/Konshok Fld, MN, US",2025-09-12T04:53:00Z,2025-09-11 23:53:00,VFR,16.1,15,120,6,0,NA,1019,METAR KPKD 120453Z AUTO 12006KT 10SM CLR 16/15 A3009 RMK AO2 SLP190 T01610150,2025-09-12T05:00:52Z,2025-09-12T01:00:52Z,Park Rapids Municipal Airport Konshok Field,46.9006,-95.073095,US,US-MN
KPKV,"Port Lavaca/Calhoun Cnty, TX, US",2025-09-12T04:55:00Z,2025-09-12 04:55:00,VFR,29.1,25.5,110,8,0,NA,1018,METAR KPKV 120455Z AUTO 11008KT 10SM CLR 29/26 A3006 RMK AO2 T02910255,2025-09-12T05:00:51Z,2025-09-12T01:00:51Z,Calhoun County Airport,28.653999,-96.681297,US,US-TX
KPKV,"Port Lavaca/Calhoun Cnty, TX, US",2025-09-12T05:15:00Z,2025-09-12 05:15:00,VFR,29.1,25.2,110,9,0,NA,1018,METAR KPKV 120515Z AUTO 11009KT 10SM CLR 29/25 A3006 RMK AO2 T02910252,2025-09-12T05:17:30Z,2025-09-12T01:17:30Z,Calhoun County Airport,28.653999,-96.681297,US,US-TX
KPLD,"Portland Muni, IN, US",2025-09-12T04:55:00Z,2025-09-12 04:55:00,VFR,16.8,6.6,110,5,0,NA,1022.8,METAR KPLD 120455Z AUTO 11005KT 10SM CLR 17/07 A3020 RMK AO2 T01680066,2025-09-12T05:00:52Z,2025-09-12T01:00:52Z,Portland Municipal Airport,40.450802,-84.990097,US,US-IN
KPLD,"Portland Muni, IN, US",2025-09-12T05:15:00Z,2025-09-12 05:15:00,VFR,17,6.5,90,3,0,NA,1023.1,METAR KPLD 120515Z AUTO 09003KT 10SM CLR 17/07 A3021 RMK AO2 T01700065,2025-09-12T05:17:30Z,2025-09-12T01:17:30Z,Portland Municipal Airport,40.450802,-84.990097,US,US-IN
KPLN,"Pellston Rgnl, MI, US",2025-09-12T04:54:00Z,2025-09-12 00:54:00,MVFR,9.4,9.4,0,0,0,3,1024.8,METAR KPLN 120454Z AUTO 00000KT 3SM BR CLR 09/09 A3026 RMK AO2 SLP248 T00940094 402110094,2025-09-12T05:00:52Z,2025-09-12T01:00:52Z,Pellston Regional Airport of Emmet County Airport,45.57089996,-84.79669952,US,US-MI
KPLR,"Pell City/St Clair Cnty, AL, US",2025-09-12T04:55:00Z,2025-09-11 23:55:00,VFR,19,19,0,0,0,NA,1020.4,METAR KPLR 120455Z AUTO 00000KT 10SM FEW026 FEW032 SCT060 19/19 A3013 RMK A01,2025-09-12T05:00:51Z,2025-09-12T01:00:51Z,St Clair County Airport,33.558799743652,-86.249099731445,US,US-AL
KPLR,"Pell City/St Clair Cnty, AL, US",2025-09-12T05:15:00Z,2025-09-12 00:15:00,VFR,19,19,0,0,0,NA,1020.4,METAR KPLR 120515Z AUTO 00000KT 10SM FEW048 SCT055 BKN065 19/19 A3013 RMK A01,2025-09-12T05:17:30Z,2025-09-12T01:17:30Z,St Clair County Airport,33.558799743652,-86.249099731445,US,US-AL
KPLU,"Tacoma/Pierce Cnty, WA, US",2025-09-12T04:55:00Z,2025-09-12 04:55:00,MVFR,16,14,0,0,0,NA,1018.4,METAR KPLU 120455Z AUTO 00000KT 10SM OVC020 16/14 A3007 RMK AO2,2025-09-12T05:00:52Z,2025-09-12T01:00:52Z,Pierce County-Thun Field,47.103901,-122.287003,US,US-WA
KPLU,"Tacoma/Pierce Cnty, WA, US",2025-09-12T05:15:00Z,2025-09-12 05:15:00,MVFR,16,14,0,0,0,NA,1018.4,METAR KPLU 120515Z AUTO 00000KT 10SM OVC020 16/14 A3007 RMK AO2,2025-09-12T05:17:30Z,2025-09-12T01:17:30Z,Pierce County-Thun Field,47.103901,-122.287003,US,US-WA
KPMD,"Palmdale Rgnl, CA, US",2025-09-12T04:53:00Z,2025-09-11 21:53:00,VFR,18.9,11.1,230,12,0,NA,1014.6,METAR KPMD 120453Z 23012KT 10SM CLR 19/11 A2996 RMK AO2 SLP125 T01890111 $,2025-09-12T05:00:52Z,2025-09-12T01:00:52Z,Palmdale Regional Airport / USAF Plant 42 Airport,34.629398,-118.084999,US,US-CA
KPMH,"Portsmouth Rgnl, OH, US",2025-09-12T04:44:00Z,2025-09-12 00:44:00,VFR,14,13,360,3,0,NA,1021.8,METAR KPMH 120444Z 36003KT 10SM CLR 14/13 A3017 RMK AO2,2025-09-12T05:00:52Z,2025-09-12T01:00:52Z,Greater Portsmouth Regional Airport,38.8404998779,-82.84729766850002,US,US-OH
KPMH,"Portsmouth Rgnl, OH, US",2025-09-12T05:05:00Z,2025-09-12 01:05:00,VFR,NA,NA,350,3,0,NA,1021.8,METAR KPMH 120505Z 35003KT 10SM CLR A3017 RMK AO2,2025-09-12T05:17:30Z,2025-09-12T01:17:30Z,Greater Portsmouth Regional Airport,38.8404998779,-82.84729766850002,US,US-OH
KPMP,"Pompano Beach Arpt, FL, US",2025-09-12T04:53:00Z,2025-09-12 00:53:00,VFR,26.7,26.7,330,5,0,NA,1014,METAR KPMP 120453Z AUTO 33005KT 10SM CLR 27/27 A2994 RMK AO2 RAE24 SLP138 P0001 T02670267 403330250 $,2025-09-12T05:00:52Z,2025-09-12T01:00:52Z,Pompano Beach Airpark,26.247100830078,-80.111099243164,US,US-FL
KPMU,"Panola Cnty, MS, US",2025-09-12T04:55:00Z,2025-09-12 04:55:00,VFR,21,19,0,0,0,NA,1019,METAR KPMU 120455Z AUTO 00000KT 10SM FEW050 FEW060 21/19 A3009 RMK AO2,2025-09-12T05:00:51Z,2025-09-12T01:00:51Z,Panola County Airport,34.36349869,-89.89260101,US,US-MS
KPMV,"Plattsmouth Muni, NE, US",2025-09-12T04:55:00Z,2025-09-12 04:55:00,VFR,23.2,18,150,8,0,NA,1017.7,METAR KPMV 120455Z AUTO 15008KT 10SM CLR 23/18 A3005 RMK AO2 T02320180,2025-09-12T05:00:55Z,2025-09-12T01:00:55Z,Plattsmouth Municipal Airport,40.947882,-95.917254,US,US-NE
KPNA,"Pinedale/Wentz Fld, WY, US",2025-09-12T04:35:00Z,2025-09-11 22:35:00,VFR,11,-1,250,4,0,NA,1021.8,METAR KPNA 120435Z AUTO 25004KT 10SM CLR 11/M01 A3017 RMK AO2,2025-09-12T05:00:55Z,2025-09-12T01:00:55Z,Ralph Wenz Field,42.79550171,-109.8069992,US,US-WY
KPNA,"Pinedale/Wentz Fld, WY, US",2025-09-12T04:55:00Z,2025-09-11 22:55:00,VFR,11,0,290,6,0,NA,1022.1,METAR KPNA 120455Z AUTO 29006KT 10SM SCT120 11/00 A3018 RMK AO2,2025-09-12T05:17:32Z,2025-09-12T01:17:32Z,Ralph Wenz Field,42.79550171,-109.8069992,US,US-WY
KPNC,"Ponca City Rgnl, OK, US",2025-09-12T04:53:00Z,2025-09-11 23:53:00,VFR,26.1,17.2,170,8,16,NA,1018,METAR KPNC 120453Z AUTO 17008G16KT 10SM CLR 26/17 A3006 RMK AO2 SLP163 T02610172,2025-09-12T05:00:55Z,2025-09-12T01:00:55Z,Ponca City Regional Airport,36.73199844,-97.09980011,US,US-OK
KPNE,"Philadelphia/NE Arpt, PA, US",2025-09-12T04:54:00Z,2025-09-12 00:54:00,VFR,16.1,13.3,0,0,0,NA,1021.1,METAR KPNE 120454Z AUTO 00000KT 10SM CLR 16/13 A3015 RMK AO2 SLP208 T01610133 402780156 TSNO $,2025-09-12T05:00:55Z,2025-09-12T01:00:55Z,Northeast Philadelphia Airport,40.082406,-75.010614,US,US-PA
KPNM,"Princeton Arpt, MN, US",2025-09-12T04:51:00Z,2025-09-12 04:51:00,VFR,16,14,130,4,0,NA,1020.4,METAR KPNM 120451Z 13004KT 10SM CLR 16/14 A3013 RMK AO2,2025-09-12T05:00:55Z,2025-09-12T01:00:55Z,Princeton Municipal Airport,45.559898,-93.6082,US,US-MN
KPNM,"Princeton Arpt, MN, US",2025-09-12T05:11:00Z,2025-09-12 05:11:00,VFR,16,14,130,3,0,NA,1020.4,METAR KPNM 120511Z 13003KT 10SM CLR 16/14 A3013 RMK AO2,2025-09-12T05:17:32Z,2025-09-12T01:17:32Z,Princeton Municipal Airport,45.559898,-93.6082,US,US-MN
KPNS,"Pensacola Intl, FL, US",2025-09-12T04:53:00Z,2025-09-11 23:53:00,VFR,25,17.8,70,3,0,NA,1018.4,METAR KPNS 120453Z 07003KT 10SM CLR 25/18 A3007 RMK AO2 SLP183 T02500178,2025-09-12T05:00:55Z,2025-09-12T01:00:55Z,Pensacola International Airport,30.4734,-87.1866,US,US-FL
KPNT,"Pontiac Muni, IL, US",2025-09-12T04:55:00Z,2025-09-12 04:55:00,VFR,14.6,12.6,100,4,0,NA,1022.8,METAR KPNT 120455Z AUTO 10004KT 10SM SCT075 15/13 A3020 RMK AO2 T01460126,2025-09-12T05:00:55Z,2025-09-12T01:00:55Z,Pontiac Municipal Airport,40.924255,-88.62447,US,US-IL
KPOF,"Poplar Bluff Muni, MO, US",2025-09-12T04:53:00Z,2025-09-11 23:53:00,VFR,20,18.3,0,0,0,NA,1019.4,METAR KPOF 120453Z AUTO 00000KT 10SM CLR 20/18 A3010 RMK AO2 SLP187 T02000183,2025-09-12T05:00:55Z,2025-09-12T01:00:55Z,Poplar Bluff Municipal Airport,36.773899,-90.324898,US,US-MO
KPOU,"Poughkeepsie/Hudson Valley Rgnl, NY, US",2025-09-12T04:53:00Z,2025-09-12 00:53:00,VFR,12.8,12.2,0,0,0,NA,1021.1,METAR KPOU 120453Z 00000KT 10SM CLR 13/12 A3015 RMK AO2 SLP206 T01280122 402560083,2025-09-12T05:00:55Z,2025-09-12T01:00:55Z,Dutchess County Airport,41.6265983581543,-73.88420104980469,US,US-NY
KPOV,"Ravenna/Portage Cnty, OH, US",2025-09-12T04:55:00Z,2025-09-12 04:55:00,VFR,11,10.2,0,0,0,NA,1023.8,METAR KPOV 120455Z AUTO 00000KT 10SM CLR 11/10 A3023 RMK AO2 T01100102 PWINO,2025-09-12T05:00:55Z,2025-09-12T01:00:55Z,Portage County Regional Airport,41.210201,-81.251602,US,US-OH
KPOV,"Ravenna/Portage Cnty, OH, US",2025-09-12T05:15:00Z,2025-09-12 05:15:00,VFR,11.2,10.3,0,0,0,NA,1023.5,METAR KPOV 120515Z AUTO 00000KT 10SM CLR 11/10 A3022 RMK AO2 T01120103 PWINO,2025-09-12T05:17:32Z,2025-09-12T01:17:32Z,Portage County Regional Airport,41.210201,-81.251602,US,US-OH
KPOY,"Powell Muni, WY, US",2025-09-12T04:35:00Z,2025-09-11 22:35:00,VFR,16,3,320,3,0,NA,1018,METAR KPOY 120435Z AUTO 32003KT 10SM BKN100 BKN120 16/03 A3006 RMK AO2,2025-09-12T05:00:55Z,2025-09-12T01:00:55Z,Powell Municipal Airport,44.867198944092,-108.79299926758,US,US-WY
KPOY,"Powell Muni, WY, US",2025-09-12T04:55:00Z,2025-09-11 22:55:00,VFR,15,3,300,6,0,NA,1017.7,METAR KPOY 120455Z AUTO 30006KT 10SM BKN100 15/03 A3005 RMK AO2,2025-09-12T05:17:32Z,2025-09-12T01:17:32Z,Powell Municipal Airport,44.867198944092,-108.79299926758,US,US-WY
KPPA,"Pampa/Lefors Fld, TX, US",2025-09-12T04:55:00Z,2025-09-11 23:55:00,VFR,22.1,12.1,170,8,0,NA,1021.4,METAR KPPA 120455Z AUTO 17008KT 10SM CLR 22/12 A3016 RMK AO2 T02210121,2025-09-12T05:00:55Z,2025-09-12T01:00:55Z,Perry Lefors Field,35.612998962402,-100.99600219727,US,US-TX
KPPF,"Parsons/Tri City Arpt, KS, US",2025-09-12T04:52:00Z,2025-09-11 23:52:00,VFR,18.9,17.2,0,0,0,NA,1019,METAR KPPF 120452Z AUTO 00000KT 10SM CLR 19/17 A3009 RMK AO2 SLP181 T01890172 PWINO,2025-09-12T05:00:55Z,2025-09-12T01:00:55Z,Tri-City Airport,37.32989883,-95.5062027,US,US-KS
KPPO,"La Porte Muni, IN, US",2025-09-12T04:55:00Z,2025-09-11 23:55:00,VFR,14,14,10,3,0,NA,1023.1,METAR KPPO 120455Z AUTO 01003KT 10SM FEW080 14/14 A3021 RMK AO2,2025-09-12T05:00:55Z,2025-09-12T01:00:55Z,La Porte Municipal Airport,41.5724983215,-86.73449707030001,US,US-IN
KPPQ,"Pittsfield/Penstone Muni, IL, US",2025-09-12T04:55:00Z,2025-09-12 04:55:00,VFR,17.7,14.9,0,0,0,NA,1021.1,METAR KPPQ 120455Z AUTO 00000KT 10SM CLR 18/15 A3015 RMK AO2 T01770149,2025-09-12T05:00:55Z,2025-09-12T01:00:55Z,Pittsfield Penstone Municipal Airport,39.638901,-90.778397,US,US-IL
KPQI,"Presque Isle Intl, ME, US",2025-09-12T04:56:00Z,2025-09-12 00:56:00,MVFR,5,5,0,0,0,4,1021.4,METAR KPQI 120456Z AUTO 00000KT 4SM BR CLR 05/05 A3016 RMK AO2 SLP238 T00500050 402110039,2025-09-12T05:00:55Z,2025-09-12T01:00:55Z,Presque Isle International Airport,46.688999,-68.0448,US,US-ME
KPQI,"Presque Isle Intl, ME, US",2025-09-12T05:07:00Z,2025-09-12 01:07:00,MVFR,4,4,0,0,0,3,1021.4,SPECI KPQI 120507Z AUTO 00000KT 3SM BR CLR 04/04 A3016 RMK AO2,2025-09-12T05:17:32Z,2025-09-12T01:17:32Z,Presque Isle International Airport,46.688999,-68.0448,US,US-ME
KPQL,"Pascagoula/Lott Intl, MS, US",2025-09-12T04:53:00Z,2025-09-11 23:53:00,VFR,19.4,18.9,0,0,0,NA,1018.7,METAR KPQL 120453Z AUTO 00000KT 10SM CLR 19/19 A3008 RMK AO2 SLP187 T01940189,2025-09-12T05:00:55Z,2025-09-12T01:00:55Z,Trent Lott International Airport,30.462799072266,-88.529197692871,US,US-MS
KPRB,"Paso Robles Muni, CA, US",2025-09-12T04:53:00Z,2025-09-11 21:53:00,VFR,17.8,12.2,320,14,0,NA,1015.7,METAR KPRB 120453Z AUTO 32014KT 10SM SCT065 18/12 A2999 RMK AO2 SLP151 T01780122,2025-09-12T05:00:55Z,2025-09-12T01:00:55Z,Paso Robles Municipal Airport,35.67290115,-120.6269989,US,US-CA
KPRC,"Prescott/Love Fld, AZ, US",2025-09-12T04:53:00Z,2025-09-11 21:53:00,VFR,20.6,7.8,200,3,0,NA,1018.7,METAR KPRC 120453Z 20003KT 10SM CLR 21/08 A3008 RMK AO2 SLP104 T02060078,2025-09-12T05:00:55Z,2025-09-12T01:00:55Z,Prescott International Airport - Ernest A. Love Field,34.654499,-112.419998,US,US-AZ
KPRN,"Greenville/Crenshaw Mem, AL, US",2025-09-12T04:00:00Z,2025-09-12 04:00:00,VFR,20,17.8,0,0,0,NA,1019.4,METAR KPRN 120400Z AUTO 00000KT 10SM CLR 20/18 A3010 RMK AO2 SLP137 T02000178,2025-09-12T05:00:55Z,2025-09-12T01:00:55Z,Mac Crenshaw Memorial Airport,31.845699,-86.610703,US,US-AL
KPRN,"Greenville/Crenshaw Mem, AL, US",2025-09-12T05:00:00Z,2025-09-12 05:00:00,VFR,20,17.8,0,0,0,NA,1019,METAR KPRN 120500Z AUTO 00000KT 10SM BKN070 20/18 A3009 RMK AO2 SLP136 T02000178 402000200,2025-09-12T05:17:32Z,2025-09-12T01:17:32Z,Mac Crenshaw Memorial Airport,31.845699,-86.610703,US,US-AL
KPRO,"Perry Muni, IA, US",2025-09-12T04:55:00Z,2025-09-11 23:55:00,VFR,19.9,17,120,4,0,8,1018.7,METAR KPRO 120455Z AUTO 12004KT 8SM CLR 20/17 A3008 RMK AO2 T01990170,2025-09-12T05:00:55Z,2025-09-12T01:00:55Z,Perry Municipal Airport,41.82799911,-94.15989685,US,US-IA
KPRS,"Presidio/Lely Intl, TX, US",2025-09-12T04:55:00Z,2025-09-12 04:55:00,VFR,27.6,13.5,50,15,25,NA,1019,METAR KPRS 120455Z AUTO 05015G25KT 10SM CLR 28/14 A3009 RMK AO2 T02760135,2025-09-12T05:00:55Z,2025-09-12T01:00:55Z,Presidio Lely International Airport,29.634212,-104.361493,US,US-TX
KPRX,"Paris/Cox Fld, TX, US",2025-09-12T04:56:00Z,2025-09-11 23:56:00,VFR,23.9,18.9,0,0,0,NA,1019.4,METAR KPRX 120456Z AUTO 00000KT 10SM CLR 24/19 A3010 RMK AO2 SLP189 T02390189,2025-09-12T05:00:55Z,2025-09-12T01:00:55Z,Cox Field,33.636600494385,-95.450798034668,US,US-TX
KPSC,"Pasco/Tri Cities Arpt, WA, US",2025-09-12T04:53:00Z,2025-09-11 21:53:00,VFR,23.3,12.8,190,7,0,NA,1012.6,METAR KPSC 120453Z 19007KT 10SM CLR 23/13 A2990 RMK AO2 SLP121 T02330128 $,2025-09-12T05:00:55Z,2025-09-12T01:00:55Z,Tri Cities Airport,46.264702,-119.119003,US,US-WA
KPSF,"Pittsfield Muni, MA, US",2025-09-12T04:54:00Z,2025-09-12 00:54:00,VFR,15.6,11.1,0,0,0,NA,1022.1,METAR KPSF 120454Z AUTO 00000KT 10SM BKN080 16/11 A3018 RMK AO2 SLP197 T01560111 402390061,2025-09-12T05:00:55Z,2025-09-12T01:00:55Z,Pittsfield Municipal Airport,42.4268,-73.2929,US,US-MA
KPSK,"Dublin/New River Valley Arpt, VA, US",2025-09-12T04:55:00Z,2025-09-12 00:55:00,VFR,14,10,0,0,0,NA,1022.8,METAR KPSK 120455Z AUTO 00000KT 10SM CLR 14/10 A3020 RMK AO2 T01400100,2025-09-12T05:00:55Z,2025-09-12T01:00:55Z,New River Valley Airport,37.137298583984,-80.678497314453,US,US-VA
KPSK,"Dublin/New River Valley Arpt, VA, US",2025-09-12T05:15:00Z,2025-09-12 01:15:00,VFR,14.1,10,0,0,0,NA,1022.8,METAR KPSK 120515Z AUTO 00000KT 10SM CLR 14/10 A3020 RMK AO2 T01410100,2025-09-12T05:17:32Z,2025-09-12T01:17:32Z,New River Valley Airport,37.137298583984,-80.678497314453,US,US-VA
KPSM,"Portsmouth Intl, NH, US",2025-09-12T03:55:00Z,2025-09-11 23:55:00,VFR,16.7,12.2,330,6,0,NA,1020.1,METAR KPSM 120355Z 33006KT 10SM BKN065 17/12 A3012 RMK AO2A SLP202 T01670122,2025-09-12T05:00:56Z,2025-09-12T01:00:56Z,Portsmouth International at Pease Airport,43.0778999329,-70.8233032227,US,US-NH
KPSM,"Portsmouth Intl, NH, US",2025-09-12T04:55:00Z,2025-09-12 00:55:00,VFR,17.5,11.1,330,5,0,NA,1020.4,METAR KPSM 120455Z 33005KT 10SM BKN070 18/11 A3013 RMK AO2A SLP205 T01750111 402780092,2025-09-12T05:17:32Z,2025-09-12T01:17:32Z,Portsmouth International at Pease Airport,43.0778999329,-70.8233032227,US,US-NH
KPSN,"Palestine Muni, TX, US",2025-09-12T04:55:00Z,2025-09-11 23:55:00,VFR,24,21,120,4,0,NA,1019,METAR KPSN 120455Z AUTO 12004KT 10SM CLR 24/21 A3009 RMK AO2,2025-09-12T05:00:55Z,2025-09-12T01:00:55Z,Palestine Municipal Airport,31.779699325562,-95.706298828125,US,US-TX
KPSO,"Pagosa Springs/Stevens Fld, CO, US",2025-09-12T04:55:00Z,2025-09-11 22:55:00,MVFR,11,11,30,8,0,3,1030.2,METAR KPSO 120455Z AUTO 03008KT 3SM -RA BR SCT046 BKN050 BKN065 11/11 A3042 RMK AO2 LTG DSNT NW P0013 VIS 2V4,2025-09-12T05:00:55Z,2025-09-12T01:00:55Z,Stevens Field,37.28630066,-107.0559998,US,US-CO
KPSP,"Palm Springs Intl, CA, US",2025-09-12T04:53:00Z,2025-09-11 21:53:00,VFR,28.3,11.7,310,11,19,NA,1009.2,METAR KPSP 120453Z 31011G19KT 10SM CLR 28/12 A2980 RMK AO2 SLP088 T02830117 $,2025-09-12T05:00:55Z,2025-09-12T01:00:55Z,Palm Springs International Airport,33.8297,-116.507004,US,US-CA
KPSX,"Palacios Muni, TX, US",2025-09-12T04:53:00Z,2025-09-11 23:53:00,VFR,26.1,23.3,90,5,0,NA,1017.7,METAR KPSX 120453Z AUTO 09005KT 10SM CLR 26/23 A3005 RMK AO2 SLP176 T02610233,2025-09-12T05:00:55Z,2025-09-12T01:00:55Z,Palacios Municipal Airport,28.727500915527,-96.250999450684,US,US-TX
KPTB,"Petersburg/Dinwiddie Cnty, VA, US",2025-09-12T04:55:00Z,2025-09-12 00:55:00,IFR,14.9,14.3,0,0,0,2,1021.1,METAR KPTB 120455Z AUTO 00000KT 2SM BR CLR 15/14 A3015 RMK AO2 T01490143 402550143,2025-09-12T05:00:55Z,2025-09-12T01:00:55Z,Dinwiddie County Airport,37.183799743652,-77.507400512695,US,US-VA
KPTB,"Petersburg/Dinwiddie Cnty, VA, US",2025-09-12T05:15:00Z,2025-09-12 01:15:00,MVFR,14.2,13.6,0,0,0,5,1021.1,METAR KPTB 120515Z AUTO 00000KT 5SM BR CLR 14/14 A3015 RMK AO2 T01420136,2025-09-12T05:17:32Z,2025-09-12T01:17:32Z,Dinwiddie County Airport,37.183799743652,-77.507400512695,US,US-VA
KPTD,"Potsdam Muni, NY, US",2025-09-12T04:55:00Z,2025-09-12 04:55:00,VFR,8,8,0,0,0,NA,1023.8,METAR KPTD 120455Z AUTO 00000KT 10SM OVC048 08/08 A3023 RMK AO2 PNO,2025-09-12T05:00:55Z,2025-09-12T01:00:55Z,Potsdam Municipal Airport Damon Field,44.67657,-74.948583,US,US-NY
KPTD,"Potsdam Muni, NY, US",2025-09-12T05:15:00Z,2025-09-12 05:15:00,VFR,8,7,0,0,0,NA,1023.8,METAR KPTD 120515Z AUTO 00000KT 10SM OVC048 08/07 A3023 RMK AO2 PNO,2025-09-12T05:17:32Z,2025-09-12T01:17:32Z,Potsdam Municipal Airport Damon Field,44.67657,-74.948583,US,US-NY
KPTK,"Pontiac/Oakland Intl, MI, US",2025-09-12T04:53:00Z,2025-09-12 00:53:00,VFR,13.9,10.6,0,0,0,NA,1024.1,METAR KPTK 120453Z AUTO 00000KT 10SM CLR 14/11 A3024 RMK AO2 SLP237 T01390106 402670106,2025-09-12T05:00:55Z,2025-09-12T01:00:55Z,Oakland County International Airport,42.665500640869,-83.420097351074,US,US-MI
KPTN,"Patterson/Williams Mem, LA, US",2025-09-12T04:56:00Z,2025-09-11 23:56:00,VFR,22.2,21.1,0,0,0,NA,1019.4,METAR KPTN 120456Z AUTO 00000KT 10SM CLR 22/21 A3010 RMK AO2 SLPNO T02220211 403280222 $,2025-09-12T05:00:55Z,2025-09-12T01:00:55Z,Harry P Williams Memorial Airport,29.709499359131,-91.338996887207,US,US-LA
KPTS,"Pittsburg/Atkinson Muni, KS, US",2025-09-12T04:55:00Z,2025-09-12 04:55:00,VFR,20,19,150,1,0,NA,1019.4,METAR KPTS 120455Z AUTO 15001KT 10SM SCT110 20/19 A3010 RMK AO2,2025-09-12T05:00:55Z,2025-09-12T01:00:55Z,Atkinson Municipal Airport,37.449501,-94.731102,US,US-KS
KPTT,"Pratt Rgnl, KS, US",2025-09-12T04:55:00Z,2025-09-11 23:55:00,VFR,23.6,15,180,11,0,NA,1017.7,METAR KPTT 120455Z AUTO 18011KT 10SM CLR 24/15 A3005 RMK AO2 T02360150,2025-09-12T05:00:55Z,2025-09-12T01:00:55Z,Pratt Regional Airport,37.70159912,-98.74690247,US,US-KS
KPTV,"Porterville Muni, CA, US",2025-09-12T04:56:00Z,2025-09-11 21:56:00,VFR,23.3,13.3,350,4,0,NA,1013.3,METAR KPTV 120456Z AUTO 35004KT 10SM SCT065 OVC080 23/13 A2992 RMK AO2 SLP130 T02330133 $,2025-09-12T05:00:55Z,2025-09-12T01:00:55Z,Porterville Municipal Airport,36.029598236084,-119.06300354004,US,US-CA
KPTW,"Pottstown/Heritage Fld, PA, US",2025-09-12T04:54:00Z,2025-09-12 00:54:00,VFR,13.9,11.7,0,0,0,NA,1021.4,METAR KPTW 120454Z AUTO 00000KT 10SM CLR 14/12 A3016 RMK AO2 SLP209 T01390117 402670133,2025-09-12T05:00:55Z,2025-09-12T01:00:55Z,Heritage Field,40.239601,-75.556702,US,US-PA
KPUB,"Pueblo Mem Arpt, CO, US",2025-09-12T04:53:00Z,2025-09-11 22:53:00,VFR,21.1,10,270,6,0,NA,1020.7,METAR KPUB 120453Z AUTO 27006KT 10SM SCT110 21/10 A3014 RMK AO2 SLP138 T02110100,2025-09-12T05:00:55Z,2025-09-12T01:00:55Z,Pueblo Memorial Airport,38.289101,-104.497002,US,US-CO
KPUC,"Price/Buck Fld, UT, US",2025-09-12T04:53:00Z,2025-09-11 22:53:00,VFR,16.1,-1.1,320,4,0,NA,1017.7,METAR KPUC 120453Z AUTO 32004KT 10SM CLR 16/M01 A3005 RMK AO2 SLP104 T01611011,2025-09-12T05:00:55Z,2025-09-12T01:00:55Z,Carbon County Regional Airport / Buck Davis Field,39.613899,-110.751,US,US-UT
KPUJ,"Dallas/Paulding Cnty, GA, US",2025-09-12T04:55:00Z,2025-09-12 04:55:00,VFR,19,16,0,0,0,NA,1021.1,METAR KPUJ 120455Z AUTO 00000KT 10SM CLR 19/16 A3015 RMK AO2,2025-09-12T05:00:55Z,2025-09-12T01:00:55Z,Silver Comet Field at Paulding Northwest Atlanta Airport,33.913306,-84.942083,US,US-GA
KPUW,"Pullman/Moscow Rgnl, WA, US",2025-09-12T04:53:00Z,2025-09-11 21:53:00,VFR,18.9,11.7,280,6,0,NA,1016,METAR KPUW 120453Z AUTO 28006KT 10SM CLR 19/12 A3000 RMK AO2 LTG DSNT S SLP146 T01890117,2025-09-12T05:00:55Z,2025-09-12T01:00:55Z,Pullman-Moscow Regional Airport,46.741601,-117.11163,US,US-WA
KPVB,"Platteville Muni, WI, US",2025-09-12T04:55:00Z,2025-09-12 04:55:00,VFR,16.5,15.5,100,7,0,NA,1022.8,METAR KPVB 120455Z AUTO 10007KT 10SM CLR 17/16 A3020 RMK AO1 T01650155,2025-09-12T05:00:55Z,2025-09-12T01:00:55Z,Platteville Municipal Airport,42.6894,-90.444397,US,US-WI
KPVC,"Provincetown Muni, MA, US",2025-09-12T04:56:00Z,2025-09-12 00:56:00,VFR,15,15,300,3,0,NA,1020.1,METAR KPVC 120456Z AUTO 30003KT 10SM FEW060 15/15 A3012 RMK AO2 SLP199 T01500150 402110133 PNO $,2025-09-12T05:00:55Z,2025-09-12T01:00:55Z,Provincetown Municipal Airport,42.0718994141,-70.2213973999,US,US-MA
KPVD,"Providence/Green Mem, RI, US",2025-09-12T04:51:00Z,2025-09-12 00:51:00,VFR,16.1,12.8,310,4,0,NA,1020.4,METAR KPVD 120451Z AUTO 31004KT 10SM CLR 16/13 A3013 RMK AO2 SLP202 T01610128 402560111,2025-09-12T05:00:55Z,2025-09-12T01:00:55Z,Theodore Francis Green State Airport,41.725038,-71.425668,US,US-RI
KPVF,"Placerville Arpt, CA, US",2025-09-12T04:55:00Z,2025-09-11 21:55:00,VFR,18,10,0,0,0,NA,1017.4,METAR KPVF 120455Z AUTO 00000KT 10SM CLR 18/10 A3004 RMK AO1,2025-09-12T05:00:55Z,2025-09-12T01:00:55Z,Placerville Airport,38.724201202393,-120.75299835205,US,US-CA
KPVG,"Portsmouth/Hampton Roads Exec, VA, US",2025-09-12T04:56:00Z,2025-09-12 04:56:00,VFR,17.2,NA,0,0,0,NA,1020.4,METAR KPVG 120456Z AUTO 00000KT 10SM OVC070 17/ A3013 RMK AO2 SLP203 T0172 402280167 $,2025-09-12T05:00:55Z,2025-09-12T01:00:55Z,Hampton Roads Executive Airport,36.780391,-76.44881,US,US-VA
KPVJ,"Pauls Valley Muni, OK, US",2025-09-12T04:35:00Z,2025-09-12 04:35:00,VFR,21,17.1,160,3,0,NA,1020.1,METAR KPVJ 120435Z AUTO 16003KT 10SM CLR 21/17 A3012 RMK AO2 T02100171,2025-09-12T05:00:55Z,2025-09-12T01:00:55Z,Pauls Valley Municipal Airport,34.71110153,-97.22319794,US,US-OK
KPVJ,"Pauls Valley Muni, OK, US",2025-09-12T04:55:00Z,2025-09-12 04:55:00,VFR,21.5,17,180,3,0,NA,1020.1,METAR KPVJ 120455Z AUTO 18003KT 10SM CLR 22/17 A3012 RMK AO2 T02150170,2025-09-12T05:17:32Z,2025-09-12T01:17:32Z,Pauls Valley Municipal Airport,34.71110153,-97.22319794,US,US-OK
KPVU,"Provo Muni, UT, US",2025-09-12T04:56:00Z,2025-09-11 22:56:00,NA,20.6,7.8,150,8,0,7,1015.3,METAR KPVU 120456Z AUTO 15008KT 7SM 21/08 A2998 RMK AO2 SLP100 T02060078 $,2025-09-12T05:00:55Z,2025-09-12T01:00:55Z,Provo-Utah Lake International Airport,40.2192,-111.723,US,US-UT
KPVW,"Plainview/Hale Cnty, TX, US",2025-09-12T04:55:00Z,2025-09-11 23:55:00,VFR,22,10.8,180,7,0,NA,1021.8,METAR KPVW 120455Z AUTO 18007KT 10SM CLR 22/11 A3017 RMK AO2 T02200108,2025-09-12T05:00:55Z,2025-09-12T01:00:55Z,Hale County Airport,34.168098,-101.717003,US,US-TX
KPWA,"Oklahoma City/Wiley Post Arpt, OK, US",2025-09-12T04:53:00Z,2025-09-11 23:53:00,VFR,23.9,16.1,170,11,0,NA,1018.7,METAR KPWA 120453Z AUTO 17011KT 10SM CLR 24/16 A3008 RMK AO2 SLP168 T02390161,2025-09-12T05:00:55Z,2025-09-12T01:00:55Z,Wiley Post Airport,35.53419876,-97.64710236,US,US-OK
KPWC,"Pine River Rgnl, MN, US",2025-09-12T04:55:00Z,2025-09-12 04:55:00,IFR,16,14,120,6,0,NA,1020.7,METAR KPWC 120455Z AUTO 12006KT 10SM BKN008 16/14 A3014 RMK AO2,2025-09-12T05:00:55Z,2025-09-12T01:00:55Z,Pine River Regional Airport,46.72480010986328,-94.38169860839844,US,US-MN
KPWC,"Pine River Rgnl, MN, US",2025-09-12T05:15:00Z,2025-09-12 05:15:00,IFR,16,14,120,7,0,NA,1020.7,METAR KPWC 120515Z AUTO 12007KT 10SM OVC008 16/14 A3014 RMK AO2,2025-09-12T05:17:32Z,2025-09-12T01:17:32Z,Pine River Regional Airport,46.72480010986328,-94.38169860839844,US,US-MN
KPWD,"Plentywood/Sher-Wood Arpt, MT, US",2025-09-12T04:35:00Z,2025-09-11 22:35:00,VFR,17,12,70,6,0,NA,1013.3,METAR KPWD 120435Z AUTO 07006KT 10SM CLR 17/12 A2992 RMK AO2,2025-09-12T05:00:55Z,2025-09-12T01:00:55Z,Sher-Wood Airport,48.790298461914,-104.53399658203,US,US-MT
KPWD,"Plentywood/Sher-Wood Arpt, MT, US",2025-09-12T04:55:00Z,2025-09-11 22:55:00,VFR,17,12,70,6,0,NA,1013,METAR KPWD 120455Z AUTO 07006KT 10SM CLR 17/12 A2991 RMK AO2,2025-09-12T05:17:32Z,2025-09-12T01:17:32Z,Sher-Wood Airport,48.790298461914,-104.53399658203,US,US-MT
KPWG,"Mc Gregor Exec, TX, US",2025-09-12T04:56:00Z,2025-09-12 04:56:00,VFR,23.9,20,0,0,0,NA,1019.4,METAR KPWG 120456Z AUTO 00000KT 10SM CLR 24/20 A3010 RMK AO2 SLP187 T02390200,2025-09-12T05:00:55Z,2025-09-12T01:00:55Z,McGregor Executive Airport,31.48489952,-97.3164978,US,US-TX
KPWK,"Chicago Exec, IL, US",2025-09-12T04:52:00Z,2025-09-11 23:52:00,VFR,16.7,16.1,0,0,0,NA,1023.8,METAR KPWK 120452Z 00000KT 10SM CLR 17/16 A3023 RMK AO2 SLP234 T01670161,2025-09-12T05:00:55Z,2025-09-12T01:00:55Z,Chicago Executive Airport,42.114222,-87.901494,US,US-IL
KPWM,"Portland Intl, ME, US",2025-09-12T04:51:00Z,2025-09-12 00:51:00,VFR,15,8.9,320,6,0,NA,1021.4,METAR KPWM 120451Z AUTO 32006KT 10SM CLR 15/09 A3016 RMK AO2 SLP211 T01500089 402720078 $,2025-09-12T05:00:55Z,2025-09-12T01:00:55Z,Portland International Jetport,43.646198,-70.309303,US,US-ME
KPWT,"Bremerton Arpt, WA, US",2025-09-12T04:56:00Z,2025-09-11 21:56:00,MVFR,15,13.9,230,7,0,NA,1018,METAR KPWT 120456Z AUTO 23007KT 10SM BKN018 15/14 A3006 RMK AO2 SLP183 T01500139,2025-09-12T05:00:55Z,2025-09-12T01:00:55Z,Bremerton National Airport,47.490200042725,-122.76499938965,US,US-WA
KPYM,"Plymouth Muni, MA, US",2025-09-12T04:52:00Z,2025-09-12 00:52:00,VFR,12.8,11.7,0,0,0,NA,1019.7,METAR KPYM 120452Z AUTO 00000KT 10SM FEW075 13/12 A3011 RMK AO2 SLP199 T01280117 402330106,2025-09-12T05:00:55Z,2025-09-12T01:00:55Z,Plymouth Municipal Airport,41.909,-70.728798,US,US-MA
KPYX,"Perryton/Ochiltree Cnty, TX, US",2025-09-12T04:55:00Z,2025-09-12 04:55:00,NA,22,13.3,170,9,0,NA,1019,METAR KPYX 120455Z AUTO 17009KT 10SM 22/13 A3009 RMK AO2 T02200133,2025-09-12T05:00:55Z,2025-09-12T01:00:55Z,Perryton Ochiltree County Airport,36.412899017333984,-100.7519989013672,US,US-TX
KPYX,"Perryton/Ochiltree Cnty, TX, US",2025-09-12T05:15:00Z,2025-09-12 05:15:00,NA,21.5,13.5,180,9,0,NA,1019,METAR KPYX 120515Z AUTO 18009KT 10SM 22/14 A3009 RMK AO2 T02150135,2025-09-12T05:17:32Z,2025-09-12T01:17:32Z,Perryton Ochiltree County Airport,36.412899017333984,-100.7519989013672,US,US-TX
KPZQ,"Rogers City/Presque Isle Arpt, MI, US",2025-09-12T04:55:00Z,2025-09-12 04:55:00,VFR,14,13,180,3,0,NA,1024.8,METAR KPZQ 120455Z AUTO 18003KT 10SM SCT041 OVC065 14/13 A3026 RMK AO2,2025-09-12T05:00:55Z,2025-09-12T01:00:55Z,Presque Isle County Airport,45.407101,-83.812897,US,US-MI
KPZQ,"Rogers City/Presque Isle Arpt, MI, US",2025-09-12T05:15:00Z,2025-09-12 05:15:00,VFR,14,13,190,4,0,NA,1024.8,METAR KPZQ 120515Z AUTO 19004KT 10SM BKN041 OVC065 14/13 A3026 RMK AO2,2025-09-12T05:17:32Z,2025-09-12T01:17:32Z,Presque Isle County Airport,45.407101,-83.812897,US,US-MI
KRAC,"Racine/Batten Intl, WI, US",2025-09-12T04:53:00Z,2025-09-11 23:53:00,VFR,15.6,14.4,20,5,0,NA,1024.5,METAR KRAC 120453Z AUTO 02005KT 10SM SCT006 16/14 A3025 RMK AO2 SLP241 T01560144,2025-09-12T05:00:55Z,2025-09-12T01:00:55Z,John H Batten Airport,42.7606010437,-87.8152008057,US,US-WI
KRAL,"Riverside Muni, CA, US",2025-09-12T04:53:00Z,2025-09-11 21:53:00,VFR,19.4,15,280,5,0,NA,1013.6,METAR KRAL 120453Z AUTO 28005KT 10SM CLR 19/15 A2993 RMK AO2 SLP122 T01940150 $,2025-09-12T05:00:55Z,2025-09-12T01:00:55Z,Riverside Municipal Airport,33.9519,-117.445,US,US-CA
KRAP,"Rapid City Rgnl, SD, US",2025-09-12T04:52:00Z,2025-09-11 22:52:00,VFR,23.3,11.1,300,8,0,NA,1013.3,METAR KRAP 120452Z AUTO 30008KT 10SM CLR 23/11 A2992 RMK AO2 SLP096 T02330111,2025-09-12T05:00:55Z,2025-09-12T01:00:55Z,Rapid City Regional Airport,44.0452995300293,-103.05699920654295,US,US-SD
KRAS,"Port Aransas/Mustang Beach Arpt, TX, US",2025-09-12T04:55:00Z,2025-09-12 04:55:00,VFR,NA,NA,90,12,16,NA,1018,METAR KRAS 120455Z AUTO 09012G16KT 10SM SCT024 SCT030 A3006 RMK AO2,2025-09-12T05:00:55Z,2025-09-12T01:00:55Z,Mustang Beach Airport,27.8118,-97.088799,US,US-TX
KRAW,"Warsaw Muni, MO, US",2025-09-12T04:55:00Z,2025-09-12 04:55:00,VFR,20.4,16.2,0,0,0,NA,1020.1,METAR KRAW 120455Z AUTO 00000KT 10SM CLR 20/16 A3012 RMK AO2 T02040162,2025-09-12T05:00:55Z,2025-09-12T01:00:55Z,Warsaw Municipal Airport,38.346901,-93.345398,US,US-MO
KRAW,"Warsaw Muni, MO, US",2025-09-12T05:15:00Z,2025-09-12 05:15:00,VFR,20.1,16.1,0,0,0,NA,1019.7,METAR KRAW 120515Z AUTO 00000KT 10SM SCT100 20/16 A3011 RMK AO2 T02010161,2025-09-12T05:17:32Z,2025-09-12T01:17:32Z,Warsaw Municipal Airport,38.346901,-93.345398,US,US-MO
KRBD,"Dallas/Executive Arpt, TX, US",2025-09-12T04:53:00Z,2025-09-11 23:53:00,VFR,25,18.9,170,4,0,NA,1019,METAR KRBD 120453Z AUTO 17004KT 10SM CLR 25/19 A3009 RMK AO2 SLP180 T02500189,2025-09-12T05:00:55Z,2025-09-12T01:00:55Z,Dallas Executive Airport,32.6809005737,-96.8682022095,US,US-TX
KRBG,"Roseburg Rgnl, OR, US",2025-09-12T04:53:00Z,2025-09-11 21:53:00,VFR,16.7,12.8,10,5,0,NA,1018.4,METAR KRBG 120453Z AUTO 01005KT 10SM CLR 17/13 A3007 RMK AO2 SLP183 T01670128,2025-09-12T05:00:55Z,2025-09-12T01:00:55Z,Roseburg Regional Airport,43.238800048799995,-123.356002808,US,US-OR
KRBL,"Red Bluff Muni, CA, US",2025-09-12T04:54:00Z,2025-09-11 21:54:00,VFR,21.1,13.3,300,5,0,NA,1013.6,METAR KRBL 120454Z AUTO 30005KT 10SM CLR 21/13 A2993 RMK AO2 SLP133 T02110133,2025-09-12T05:00:55Z,2025-09-12T01:00:55Z,Red Bluff Municipal Airport,40.1506996155,-122.251998901,US,US-CA
KRBO,"Robstown/Nueces Cnty, TX, US",2025-09-12T04:55:00Z,2025-09-12 04:55:00,NA,28.1,24.2,110,7,0,NA,1017.4,METAR KRBO 120455Z AUTO 11007KT 10SM 28/24 A3004 RMK AO2 T02810242,2025-09-12T05:00:55Z,2025-09-12T01:00:55Z,Nueces County Airport,27.778103,-97.690098,US,US-TX
KRBO,"Robstown/Nueces Cnty, TX, US",2025-09-12T05:15:00Z,2025-09-12 05:15:00,NA,28,24.3,110,7,0,NA,1017.7,METAR KRBO 120515Z AUTO 11007KT 10SM 28/24 A3005 RMK AO2 T02800243,2025-09-12T05:17:32Z,2025-09-12T01:17:32Z,Nueces County Airport,27.778103,-97.690098,US,US-TX
KRBW,"Walterboro/Lowcountry Rgnl, SC, US",2025-09-12T04:55:00Z,2025-09-12 00:55:00,VFR,18,18,0,0,0,NA,1019.4,METAR KRBW 120455Z AUTO 00000KT 10SM CLR 18/18 A3010 RMK AO2,2025-09-12T05:00:55Z,2025-09-12T01:00:55Z,Lowcountry Regional Airport,32.921001434299995,-80.6406021118,US,US-SC
KRCM,"Warrensburg Arpt, MO, US",2025-09-12T04:55:00Z,2025-09-12 04:55:00,VFR,21,18,0,0,0,NA,1019.4,METAR KRCM 120455Z AUTO 00000KT 10SM CLR 21/18 A3010 RMK AO2,2025-09-12T05:00:55Z,2025-09-12T01:00:55Z,Skyhaven Airport,38.784199,-93.802902,US,US-MO
KRCM,"Warrensburg Arpt, MO, US",2025-09-12T05:15:00Z,2025-09-12 05:15:00,VFR,21,17,0,0,0,NA,1019.4,METAR KRCM 120515Z AUTO 00000KT 10SM CLR 21/17 A3010 RMK AO2,2025-09-12T05:17:32Z,2025-09-12T01:17:32Z,Skyhaven Airport,38.784199,-93.802902,US,US-MO
KRCR,"Rochester/Fulton Cnty, IN, US",2025-09-12T04:55:00Z,2025-09-12 00:55:00,VFR,15,14,0,0,0,NA,1023.1,METAR KRCR 120455Z AUTO 00000KT 10SM CLR 15/14 A3021 RMK AO2,2025-09-12T05:00:55Z,2025-09-12T01:00:55Z,Fulton County Airport,41.0656013489,-86.18170166019999,US,US-IN
KRCX,"Ladysmith/Rusk Cnty, WI, US",2025-09-12T04:55:00Z,2025-09-12 04:55:00,VFR,13.1,12.7,110,5,0,7,1023.8,METAR KRCX 120455Z AUTO 11005KT 7SM CLR 13/13 A3023 RMK AO2 T01310127,2025-09-12T05:00:55Z,2025-09-12T01:00:55Z,Rusk County Airport,45.496799,-91.000504,US,US-WI
KRCZ,"Rockingham/Richmond Cnty, NC, US",2025-09-12T04:50:00Z,2025-09-12 04:50:00,VFR,19.5,16.9,0,0,0,NA,1020.4,METAR KRCZ 120450Z AUTO 00000KT 10SM CLR 20/17 A3013 RMK AO2 T01950169,2025-09-12T05:00:55Z,2025-09-12T01:00:55Z,Richmond County Airport,34.8913,-79.759598,US,US-NC
KRCZ,"Rockingham/Richmond Cnty, NC, US",2025-09-12T05:10:00Z,2025-09-12 05:10:00,VFR,19.1,16.8,0,0,0,NA,1020.4,METAR KRCZ 120510Z AUTO 00000KT 10SM CLR 19/17 A3013 RMK AO2 T01910168,2025-09-12T05:17:32Z,2025-09-12T01:17:32Z,Richmond County Airport,34.8913,-79.759598,US,US-NC
KRDD,"Redding Muni, CA, US",2025-09-12T04:53:00Z,2025-09-11 21:53:00,VFR,22.2,13.9,340,4,0,NA,1013.6,METAR KRDD 120453Z AUTO 34004KT 10SM CLR 22/14 A2993 RMK AO2 SLP130 T02220139,2025-09-12T05:00:55Z,2025-09-12T01:00:55Z,Redding Municipal Airport,40.50899887,-122.2929993,US,US-CA
KRDG,"Reading/Spaatz Fld, PA, US",2025-09-12T04:54:00Z,2025-09-12 00:54:00,VFR,16.1,11.7,0,0,0,NA,1021.1,METAR KRDG 120454Z AUTO 00000KT 10SM CLR 16/12 A3015 RMK AO2 SLP211 T01610117 402780156,2025-09-12T05:00:55Z,2025-09-12T01:00:55Z,Reading Regional Airport (Carl A Spaatz Field),40.378502,-75.965202,US,US-PA
KRDM,"Redmond Muni, OR, US",2025-09-12T04:56:00Z,2025-09-11 21:56:00,VFR,14.4,10.6,0,0,0,NA,1018,METAR KRDM 120456Z AUTO 00000KT 10SM CLR 14/11 A3006 RMK AO2 SLP166 T01440106,2025-09-12T05:00:55Z,2025-09-12T01:00:55Z,Roberts Field,44.254101,-121.150002,US,US-OR
KRDU,"Raleigh-Durham Intl, NC, US",2025-09-12T04:51:00Z,2025-09-12 00:51:00,VFR,17.8,17.8,0,0,0,NA,1020.7,METAR KRDU 120451Z 00000KT 10SM CLR 18/18 A3014 RMK AO2 SLP203 T01780178 402610172,2025-09-12T05:00:55Z,2025-09-12T01:00:55Z,Raleigh Durham International Airport,35.877602,-78.787498,US,US-NC
KREO,"Rome/State Arpt, OR, US",2025-09-12T04:52:00Z,2025-09-11 22:52:00,NA,10.6,7.2,180,7,0,NA,1017.7,METAR KREO 120452Z AUTO 18007KT 11/07 A3005 RMK AO1 SLP162 T01060072,2025-09-12T05:00:55Z,2025-09-12T01:00:55Z,Rome State Airport,42.5777015686,-117.885002136,US,US-OR
KRFD,"Rockford Intl, IL, US",2025-09-12T04:54:00Z,2025-09-11 23:54:00,VFR,16.1,14.4,80,3,0,NA,1023.5,METAR KRFD 120454Z 08003KT 10SM CLR 16/14 A3022 RMK AO2 SLP231 T01610144,2025-09-12T05:00:55Z,2025-09-12T01:00:55Z,Chicago Rockford International Airport,42.1954,-89.097198,US,US-IL
KRFI,"Henderson/Rusk Cnty, TX, US",2025-09-12T04:55:00Z,2025-09-12 04:55:00,VFR,23.5,17.8,0,0,0,NA,1019.7,METAR KRFI 120455Z AUTO 00000KT 10SM CLR 24/18 A3011 RMK AO2 T02350178,2025-09-12T05:00:55Z,2025-09-12T01:00:55Z,Rusk County Airport,32.141701,-94.8517,US,US-TX
KRFI,"Henderson/Rusk Cnty, TX, US",2025-09-12T05:15:00Z,2025-09-12 05:15:00,VFR,23.3,17.7,0,0,0,NA,1019.7,METAR KRFI 120515Z AUTO 00000KT 10SM CLR 23/18 A3011 RMK AO2 T02330177,2025-09-12T05:17:32Z,2025-09-12T01:17:32Z,Rusk County Airport,32.141701,-94.8517,US,US-TX
KRGK,"Red Wing Rgnl, WI, US",2025-09-12T04:55:00Z,2025-09-12 04:55:00,VFR,18,14,110,5,0,NA,1020.7,METAR KRGK 120455Z AUTO 11005KT 10SM CLR 18/14 A3014 RMK AO2,2025-09-12T05:00:55Z,2025-09-12T01:00:55Z,Red Wing Regional Airport,44.589401,-92.485001,US,US-MN
KRGK,"Red Wing Rgnl, WI, US",2025-09-12T05:15:00Z,2025-09-12 05:15:00,VFR,18,14,100,5,0,NA,1020.7,METAR KRGK 120515Z AUTO 10005KT 10SM CLR 18/14 A3014 RMK AO2,2025-09-12T05:17:32Z,2025-09-12T01:17:32Z,Red Wing Regional Airport,44.589401,-92.485001,US,US-MN
KRHI,"Rhinelander/Oneida Cnty, WI, US",2025-09-12T04:53:00Z,2025-09-11 23:53:00,VFR,11.1,11.1,0,0,0,6,1024.5,METAR KRHI 120453Z AUTO 00000KT 6SM BR CLR 11/11 A3025 RMK AO2 SLP247 T01110111,2025-09-12T05:00:55Z,2025-09-12T01:00:55Z,Rhinelander Oneida County Airport,45.63119888305664,-89.467498779296875,US,US-WI
KRHI,"Rhinelander/Oneida Cnty, WI, US",2025-09-12T05:13:00Z,2025-09-12 00:13:00,VFR,11.1,10.6,150,3,0,NA,1024.1,SPECI KRHI 120513Z AUTO 15003KT 10SM CLR 11/11 A3024 RMK AO2 T01110106,2025-09-12T05:17:32Z,2025-09-12T01:17:32Z,Rhinelander Oneida County Airport,45.63119888305664,-89.467498779296875,US,US-WI
KRHP,"Andrews/W Carolina Rgnl, NC, US",2025-09-12T04:41:00Z,2025-09-12 04:41:00,VFR,13.8,12.9,0,0,0,7,1022.8,METAR KRHP 120441Z AUTO 00000KT 7SM CLR 14/13 A3020 RMK AO2 T01380129,2025-09-12T05:00:55Z,2025-09-12T01:00:55Z,Western Carolina Regional Airport,35.195202,-83.862999,US,US-NC
KRHP,"Andrews/W Carolina Rgnl, NC, US",2025-09-12T05:01:00Z,2025-09-12 05:01:00,VFR,13.8,12.9,0,0,0,NA,1022.8,METAR KRHP 120501Z AUTO 00000KT 10SM CLR 14/13 A3020 RMK AO2 T01380129,2025-09-12T05:17:32Z,2025-09-12T01:17:32Z,Western Carolina Regional Airport,35.195202,-83.862999,US,US-NC
KRHV,"San Jose/Reid-Hillview Arpt, CA, US",2025-09-12T04:47:00Z,2025-09-11 21:47:00,VFR,18,14,0,0,0,NA,1016,METAR KRHV 120447Z 00000KT 10SM FEW030 18/14 A3000 RMK LAST,2025-09-12T05:00:55Z,2025-09-12T01:00:55Z,Reid-Hillview Airport of Santa Clara County,37.332901001,-121.819000244,US,US-CA
KRIC,"Richmond Intl, VA, US",2025-09-12T04:54:00Z,2025-09-12 00:54:00,VFR,17.2,16.7,360,4,0,NA,1020.4,METAR KRIC 120454Z 36004KT 10SM SCT080 17/17 A3013 RMK AO2 SLP208 T01720167 402610161,2025-09-12T05:00:55Z,2025-09-12T01:00:55Z,Richmond International Airport,37.505199,-77.319702,US,US-VA
KRID,"Richmond Muni, IN, US",2025-09-12T04:55:00Z,2025-09-12 04:55:00,VFR,13,10,60,6,0,NA,1023.1,METAR KRID 120455Z AUTO 06006KT 10SM CLR 13/10 A3021 RMK AO2,2025-09-12T05:00:55Z,2025-09-12T01:00:55Z,Richmond Municipal Airport,39.757198,-84.842796,US,US-IN
KRID,"Richmond Muni, IN, US",2025-09-12T05:15:00Z,2025-09-12 05:15:00,VFR,13,10,60,6,0,NA,1023.1,METAR KRID 120515Z AUTO 06006KT 10SM CLR 13/10 A3021 RMK AO2,2025-09-12T05:17:32Z,2025-09-12T01:17:32Z,Richmond Municipal Airport,39.757198,-84.842796,US,US-IN
KRIL,"Rifle/Garfield Cnty, CO, US",2025-09-12T04:53:00Z,2025-09-11 22:53:00,VFR,16.1,12.2,90,6,0,7,1021.4,METAR KRIL 120453Z AUTO 09006KT 7SM RA FEW070 BKN095 BKN110 16/12 A3016 RMK AO2 RAE26B50 TSB00E21 SLP146 P0002 T01610122,2025-09-12T05:00:55Z,2025-09-12T01:00:55Z,Garfield County Regional Airport,39.526299,-107.726997,US,US-CO
KRIL,"Rifle/Garfield Cnty, CO, US",2025-09-12T05:11:00Z,2025-09-11 23:11:00,VFR,15.6,12.8,200,4,0,NA,1022.1,SPECI KRIL 120511Z AUTO 20004KT 10SM TS FEW070 BKN100 OVC120 16/13 A3018 RMK AO2 LTG DSNT NW RAE06 TSB05 P0000 T01560128,2025-09-12T05:17:32Z,2025-09-12T01:17:32Z,Garfield County Regional Airport,39.526299,-107.726997,US,US-CO
KRIW,"Riverton Rgnl, WY, US",2025-09-12T04:53:00Z,2025-09-11 22:53:00,VFR,18.3,5,30,13,21,NA,1017.7,METAR KRIW 120453Z AUTO 03013G21KT 10SM CLR 18/05 A3005 RMK AO2 SLP104 T01830050,2025-09-12T05:00:55Z,2025-09-12T01:00:55Z,Central Wyoming Regional Airport,43.064201,-108.459999,US,US-WY
KRKD,"Rockland/Knox Cnty, ME, US",2025-09-12T04:56:00Z,2025-09-12 00:56:00,VFR,16.1,10,20,7,0,NA,1021.1,METAR KRKD 120456Z AUTO 02007KT 10SM CLR 16/10 A3015 RMK AO2 SLP208 T01610100 402390061 PNO $,2025-09-12T05:00:55Z,2025-09-12T01:00:55Z,Knox County Regional Airport,44.060101,-69.099197,US,US-ME
KRKP,"Rockport/Aransas Cnty, TX, US",2025-09-12T04:53:00Z,2025-09-11 23:53:00,VFR,28.9,23.9,120,12,0,NA,1017.4,METAR KRKP 120453Z AUTO 12012KT 10SM CLR 29/24 A3004 RMK AO2 SLP172 T02890239,2025-09-12T05:00:55Z,2025-09-12T01:00:55Z,Aransas County Airport,28.0867996216,-97.0446014404,US,US-TX
KRKR,"Poteau/Kerr Arpt, OK, US",2025-09-12T04:55:00Z,2025-09-12 04:55:00,VFR,21,20,0,0,0,NA,1019.4,METAR KRKR 120455Z AUTO 00000KT 10SM CLR 21/20 A3010 RMK AO2,2025-09-12T05:00:55Z,2025-09-12T01:00:55Z,Robert S Kerr Airport,35.021599,-94.6213,US,US-OK
KRKS,"Rock Springs/SW Wyoming Rgnl, WY, US",2025-09-12T04:54:00Z,2025-09-11 22:54:00,VFR,15,0.6,140,8,0,NA,1021.1,METAR KRKS 120454Z AUTO 14008KT 10SM FEW110 15/01 A3015 RMK AO2 SLP126 T01500006,2025-09-12T05:00:55Z,2025-09-12T01:00:55Z,Southwest Wyoming Regional Airport,41.5942,-109.065001,US,US-WY
KRKW,"Rockwood Muni, TN, US",2025-09-12T04:35:00Z,2025-09-11 23:35:00,VFR,16,17,0,0,0,NA,1022.1,METAR KRKW 120435Z AUTO 00000KT 10SM CLR 16/17 A3018 RMK A01,2025-09-12T05:00:55Z,2025-09-12T01:00:55Z,Rockwood Municipal Airport,35.9222984314,-84.6896972656,US,US-TN
KRKW,"Rockwood Muni, TN, US",2025-09-12T04:55:00Z,2025-09-11 23:55:00,VFR,16,16,0,0,0,NA,1022.1,METAR KRKW 120455Z AUTO 00000KT 10SM CLR 16/16 A3018 RMK A01,2025-09-12T05:17:32Z,2025-09-12T01:17:32Z,Rockwood Municipal Airport,35.9222984314,-84.6896972656,US,US-TN
KRLD,"Richland Arpt, WA, US",2025-09-12T04:55:00Z,2025-09-12 04:55:00,VFR,21.2,14.2,0,0,0,NA,1012.6,METAR KRLD 120455Z AUTO 00000KT 10SM CLR 21/14 A2990 RMK AO2 T02120142,2025-09-12T05:00:55Z,2025-09-12T01:00:55Z,Richland Airport,46.305599,-119.304001,US,US-WA
KRME,"Rome/Griffiss Intl, NY, US",2025-09-12T04:53:00Z,2025-09-12 00:53:00,VFR,13.3,12.2,0,0,0,NA,1023.5,METAR KRME 120453Z AUTO 00000KT 10SM CLR 13/12 A3022 RMK AO2 SLP230 T01330122 402560072,2025-09-12T05:00:55Z,2025-09-12T01:00:55Z,Griffiss International Airport,43.23379898,-75.40699768,US,US-NY
KRMG,"Rome/Russell Arpt, GA, US",2025-09-12T04:53:00Z,2025-09-12 00:53:00,VFR,20.6,16.7,30,5,0,NA,1020.1,METAR KRMG 120453Z AUTO 03005KT 10SM CLR 21/17 A3012 RMK AO2 SLP190 T02060167 403280167,2025-09-12T05:00:55Z,2025-09-12T01:00:55Z,Richard B Russell Airport,34.3506011963,-85.15799713130001,US,US-GA
KRMN,"Stafford Rgnl, VA, US",2025-09-12T04:55:00Z,2025-09-12 04:55:00,VFR,16,14.5,320,3,0,NA,1021.1,METAR KRMN 120455Z AUTO 32003KT 10SM CLR 16/15 A3015 RMK AO2 T01600145 TSNO,2025-09-12T05:00:55Z,2025-09-12T01:00:55Z,Stafford Regional Airport,38.398102,-77.455498,US,US-VA
KRMY,"Marshall/Brooks Fld, MI, US",2025-09-12T04:55:00Z,2025-09-12 04:55:00,VFR,12.6,11.2,100,3,0,NA,1023.8,METAR KRMY 120455Z AUTO 10003KT 10SM CLR 13/11 A3023 RMK AO2 T01260112,2025-09-12T05:00:55Z,2025-09-12T01:00:55Z,Brooks Field,42.251202,-84.955498,US,US-MI
KRNC,"McMinnville/Warren Cnty, TN, US",2025-09-12T04:35:00Z,2025-09-11 23:35:00,VFR,16,16,0,0,0,9,1021.1,METAR KRNC 120435Z AUTO 00000KT 9SM CLR 16/16 A3015 RMK A01,2025-09-12T05:00:55Z,2025-09-12T01:00:55Z,Warren County Memorial Airport,35.69869995,-85.84380341,US,US-TN
KRNC,"McMinnville/Warren Cnty, TN, US",2025-09-12T04:55:00Z,2025-09-11 23:55:00,IFR,17,17,0,0,0,1,1021.1,METAR KRNC 120455Z AUTO 00000KT 1SM BR CLR 17/17 A3015 RMK A01 VIS 1/4V3,2025-09-12T05:17:32Z,2025-09-12T01:17:32Z,Warren County Memorial Airport,35.69869995,-85.84380341,US,US-TN
KRNH,"New Richmond Muni, WI, US",2025-09-12T04:30:00Z,2025-09-12 04:30:00,VFR,16.3,15,120,4,0,NA,1021.4,METAR KRNH 120430Z AUTO 12004KT 10SM CLR 16/15 A3016 RMK AO2 T01630150,2025-09-12T05:00:55Z,2025-09-12T01:00:55Z,New Richmond Regional Airport,45.1483,-92.538101,US,US-WI
KRNH,"New Richmond Muni, WI, US",2025-09-12T04:50:00Z,2025-09-12 04:50:00,VFR,16.1,15.1,110,5,0,NA,1021.4,METAR KRNH 120450Z AUTO 11005KT 10SM CLR 16/15 A3016 RMK AO2 T01610151,2025-09-12T05:17:33Z,2025-09-12T01:17:33Z,New Richmond Regional Airport,45.1483,-92.538101,US,US-WI
KRNM,"Ramona Arpt, CA, US",2025-09-12T04:53:00Z,2025-09-12 04:53:00,VFR,14.4,13.9,0,0,0,NA,1014.6,METAR KRNM 120453Z AUTO 00000KT 10SM CLR 14/14 A2996 RMK AO2 SLP134 T01440139,2025-09-12T05:00:55Z,2025-09-12T01:00:55Z,Ramona Airport,33.0392,-116.915001,US,US-CA
KRNO,"Reno/Tahoe Intl, NV, US",2025-09-12T04:55:00Z,2025-09-11 21:55:00,VFR,17.2,7.2,10,6,0,NA,1018.7,METAR KRNO 120455Z 01006KT 10SM SCT070 BKN160 17/07 A3008 RMK AO2 SLP152 T01720072,2025-09-12T05:00:55Z,2025-09-12T01:00:55Z,Reno Tahoe International Airport,39.4991,-119.767998,US,US-NV
KRNP,"Owosso Community Arpt, MI, US",2025-09-12T04:55:00Z,2025-09-12 04:55:00,VFR,13.3,12.2,0,0,0,NA,1023.8,METAR KRNP 120455Z AUTO 00000KT 10SM CLR 13/12 A3023 RMK AO2 T01330122 402620093,2025-09-12T05:00:55Z,2025-09-12T01:00:55Z,Owosso Community Airport,42.993000030518,-84.138900756836,US,US-MI
KRNP,"Owosso Community Arpt, MI, US",2025-09-12T05:15:00Z,2025-09-12 05:15:00,VFR,12.9,11.5,0,0,0,NA,1023.8,METAR KRNP 120515Z AUTO 00000KT 10SM CLR 13/12 A3023 RMK AO2 T01290115,2025-09-12T05:17:32Z,2025-09-12T01:17:32Z,Owosso Community Airport,42.993000030518,-84.138900756836,US,US-MI
KRNT,"Renton Muni, WA, US",2025-09-12T04:53:00Z,2025-09-11 21:53:00,MVFR,17.8,13.9,200,6,0,NA,1017.4,METAR KRNT 120453Z AUTO 20006KT 10SM OVC027 18/14 A3004 RMK AO2 SLP178 T01780139,2025-09-12T05:00:55Z,2025-09-12T01:00:55Z,Renton Municipal Airport,47.4930992126,-122.216003418,US,US-WA
KRNV,"Cleveland Muni, MS, US",2025-09-12T04:55:00Z,2025-09-12 04:55:00,VFR,23.9,22,0,0,0,NA,1018.7,METAR KRNV 120455Z AUTO 00000KT 10SM CLR 24/22 A3008 RMK AO2 T02390220,2025-09-12T05:00:55Z,2025-09-12T01:00:55Z,Cleveland Municipal Airport,33.761101,-90.757896,US,US-MS
KRNV,"Cleveland Muni, MS, US",2025-09-12T05:15:00Z,2025-09-12 05:15:00,VFR,22.9,22.1,190,3,0,NA,1018.7,METAR KRNV 120515Z AUTO 19003KT 10SM CLR 23/22 A3008 RMK AO2 T02290221,2025-09-12T05:17:32Z,2025-09-12T01:17:32Z,Cleveland Municipal Airport,33.761101,-90.757896,US,US-MS
KROA,"Roanoke Rgnl, VA, US",2025-09-12T04:54:00Z,2025-09-12 00:54:00,VFR,15.6,12.8,0,0,0,NA,1022.8,METAR KROA 120454Z 00000KT 10SM FEW150 16/13 A3020 RMK AO2 SLP217 T01560128 402720111,2025-09-12T05:00:55Z,2025-09-12T01:00:55Z,Roanoke–Blacksburg Regional Airport,37.3255,-79.975403,US,US-VA
KROC,"Rochester Intl Arpt, NY, US",2025-09-12T04:54:00Z,2025-09-12 00:54:00,VFR,12.2,11.1,230,4,0,NA,1023.5,METAR KROC 120454Z 23004KT 10SM CLR 12/11 A3022 RMK AO2 SLP235 T01220111 402500094 $,2025-09-12T05:00:55Z,2025-09-12T01:00:55Z,Frederick Douglass Greater Rochester International Airport,43.1189,-77.672401,US,US-NY
KROG,"Rogers Muni/Carter Fld, AR, US",2025-09-12T04:58:00Z,2025-09-11 23:58:00,VFR,21.1,16.7,150,3,0,NA,1021.1,METAR KROG 120458Z AUTO 15003KT 10SM CLR 21/17 A3015 RMK AO2 SLP194 T02110167 403110189 TSNO,2025-09-12T05:00:55Z,2025-09-12T01:00:55Z,Rogers Municipal Airport-Carter Field,36.37229919,-94.10690308,US,US-AR
KROS,"Rush City Rgnl, MN, US",2025-09-12T04:49:00Z,2025-09-12 04:49:00,VFR,15,14,110,4,0,NA,1020.7,METAR KROS 120449Z 11004KT 10SM SCT120 15/14 A3014 RMK AO2,2025-09-12T05:00:55Z,2025-09-12T01:00:55Z,Rush City Regional Airport,45.698002,-92.953003,US,US-MN
KROS,"Rush City Rgnl, MN, US",2025-09-12T05:10:00Z,2025-09-12 05:10:00,VFR,15,14,110,3,0,NA,1020.7,METAR KROS 120510Z 11003KT 10SM SCT120 15/14 A3014 RMK AO2,2025-09-12T05:17:32Z,2025-09-12T01:17:32Z,Rush City Regional Airport,45.698002,-92.953003,US,US-MN
KROW,"Roswell/Ind Arpt, NM, US",2025-09-12T04:51:00Z,2025-09-11 22:51:00,VFR,25,10,160,11,0,NA,1020.7,METAR KROW 120451Z 16011KT 10SM CLR 25/10 A3014 RMK AO2 SLP138 T02500100 $,2025-09-12T05:00:55Z,2025-09-12T01:00:55Z,Roswell Air Center Airport,33.301601,-104.530998,US,US-NM
KRPD,"Rice Lake Rgnl, WI, US",2025-09-12T04:55:00Z,2025-09-11 23:55:00,VFR,15.2,13.8,120,5,0,NA,1022.8,METAR KRPD 120455Z AUTO 12005KT 10SM CLR 15/14 A3020 RMK AO2 T01520138,2025-09-12T05:00:55Z,2025-09-12T01:00:55Z,Rice Lake Regional Airport - Carl's Field,45.423024,-91.773127,US,US-WI
KRPH,"Graham Muni, TX, US",2025-09-12T04:55:00Z,2025-09-12 04:55:00,VFR,24.8,16.3,140,4,0,NA,1018.7,METAR KRPH 120455Z AUTO 14004KT 10SM CLR 25/16 A3008 RMK AO2 T02480163,2025-09-12T05:00:59Z,2025-09-12T01:00:59Z,Graham Municipal Airport,33.110198974609,-98.555297851562,US,US-TX
KRPH,"Graham Muni, TX, US",2025-09-12T05:15:00Z,2025-09-12 05:15:00,VFR,24.5,16.8,130,4,0,NA,1018.7,METAR KRPH 120515Z AUTO 13004KT 10SM CLR 25/17 A3008 RMK AO2 T02450168,2025-09-12T05:17:34Z,2025-09-12T01:17:34Z,Graham Municipal Airport,33.110198974609,-98.555297851562,US,US-TX
KRPJ,"Rochelle/Kontz Fld, IL, US",2025-09-12T04:55:00Z,2025-09-12 04:55:00,VFR,15,13.2,80,4,0,NA,1023.1,METAR KRPJ 120455Z AUTO 08004KT 10SM CLR 15/13 A3021 RMK AO2 T01500132,2025-09-12T05:00:59Z,2025-09-12T01:00:59Z,Rochelle Municipal Airport - Koritz Field,41.893002,-89.0783,US,US-IL
KRQB,"Big Rapids/Roben Hood Arpt, MI, US",2025-09-12T04:55:00Z,2025-09-12 00:55:00,VFR,14,12,60,2,0,NA,1023.8,METAR KRQB 120455Z AUTO 06002KT 10SM CLR 14/12 A3023 RMK AO2,2025-09-12T05:00:59Z,2025-09-12T01:00:59Z,Roben Hood Airport,43.7225990295,-85.50409698490002,US,US-MI
KRQB,"Big Rapids/Roben Hood Arpt, MI, US",2025-09-12T05:15:00Z,2025-09-12 01:15:00,VFR,13,12,0,0,0,NA,1023.8,METAR KRQB 120515Z AUTO 00000KT 10SM CLR 13/12 A3023 RMK AO2,2025-09-12T05:17:34Z,2025-09-12T01:17:34Z,Roben Hood Airport,43.7225990295,-85.50409698490002,US,US-MI
KRQE,"Window Rock Arpt, AZ, US",2025-09-12T04:53:00Z,2025-09-12 04:53:00,VFR,17.2,10.6,110,8,0,NA,1024.8,METAR KRQE 120453Z AUTO 11008KT 10SM BKN085 OVC110 17/11 A3026 RMK AO2 SLP127 T01720106,2025-09-12T05:00:59Z,2025-09-12T01:00:59Z,Window Rock Airport,35.652099609375,-109.06700134277344,US,US-AZ
KRQO,"El Reno Rgnl, OK, US",2025-09-12T04:55:00Z,2025-09-11 23:55:00,VFR,21,16,360,10,0,NA,1019,METAR KRQO 120455Z AUTO 36010KT 10SM CLR 21/16 A3009 RMK AO2,2025-09-12T05:00:59Z,2025-09-12T01:00:59Z,El Reno Regional Airport,35.472698,-98.005798,US,US-OK
KRRL,"Merrill Muni, WI, US",2025-09-12T04:55:00Z,2025-09-11 23:55:00,LIFR,8.7,8.7,0,0,0,0.5,1023.8,METAR KRRL 120455Z AUTO 00000KT 1/2SM FG OVC002 09/09 A3023 RMK AO2 T00870087 TSNO,2025-09-12T05:00:59Z,2025-09-12T01:00:59Z,Merrill Municipal Airport,45.1988983154,-89.7128982544,US,US-WI
KRRL,"Merrill Muni, WI, US",2025-09-12T05:15:00Z,2025-09-12 00:15:00,LIFR,9.2,9.2,0,0,0,0.5,1023.8,METAR KRRL 120515Z AUTO 00000KT 1/2SM FG OVC002 09/09 A3023 RMK AO2 T00920092 TSNO,2025-09-12T05:17:34Z,2025-09-12T01:17:34Z,Merrill Municipal Airport,45.1988983154,-89.7128982544,US,US-WI
KRRT,"Warroad Intl, MN, US",2025-09-12T04:55:00Z,2025-09-11 23:55:00,VFR,16,14,130,4,0,NA,1018,METAR KRRT 120455Z AUTO 13004KT 10SM -VCTSRA SCT010 BKN036 OVC055 16/14 A3006 RMK AO2 LTG DSNT NW THRU NE,2025-09-12T05:00:59Z,2025-09-12T01:00:59Z,Warroad International Memorial Airport,48.94139862,-95.3483963,US,US-MN
KRRT,"Warroad Intl, MN, US",2025-09-12T05:15:00Z,2025-09-12 00:15:00,VFR,16,15,90,6,0,NA,1017.7,METAR KRRT 120515Z AUTO 09006KT 10SM -VCTSRA OVC036 16/15 A3005 RMK AO2 LTG DSNT NE AND NW,2025-09-12T05:17:34Z,2025-09-12T01:17:34Z,Warroad International Memorial Airport,48.94139862,-95.3483963,US,US-MN
KRSL,"Russell Muni, KS, US",2025-09-12T04:53:00Z,2025-09-11 23:53:00,VFR,23.3,15.6,180,14,0,NA,1015.7,METAR KRSL 120453Z AUTO 18014KT 10SM CLR 23/16 A2999 RMK AO2 SLP135 T02330156 $,2025-09-12T05:00:59Z,2025-09-12T01:00:59Z,Russell Municipal Airport,38.872100830078,-98.811798095703,US,US-KS
KRSN,"Ruston Rgnl, LA, US",2025-09-12T04:55:00Z,2025-09-11 23:55:00,VFR,22.2,22.2,0,0,0,9,1019.4,METAR KRSN 120455Z AUTO 00000KT 9SM CLR 22/22 A3010 RMK AO2 T02220222 $,2025-09-12T05:00:59Z,2025-09-12T01:00:59Z,Ruston Regional Airport,32.514187,-92.588517,US,US-LA
KRSN,"Ruston Rgnl, LA, US",2025-09-12T05:15:00Z,2025-09-12 00:15:00,VFR,22.2,22.2,0,0,0,NA,1019.4,METAR KRSN 120515Z AUTO 00000KT 10SM CLR 22/22 A3010 RMK AO2 T02220222 $,2025-09-12T05:17:34Z,2025-09-12T01:17:34Z,Ruston Regional Airport,32.514187,-92.588517,US,US-LA
KRST,"Rochester Intl, MN, US",2025-09-12T04:54:00Z,2025-09-11 23:54:00,VFR,15.6,13.9,140,8,0,NA,1021.4,METAR KRST 120454Z AUTO 14008KT 10SM CLR 16/14 A3016 RMK AO2 SLP211 T01560139,2025-09-12T05:00:59Z,2025-09-12T01:00:59Z,Rochester International Airport,43.908298,-92.5,US,US-MN
KRSV,"Robinson Muni, IL, US",2025-09-12T04:55:00Z,2025-09-12 04:55:00,VFR,16,16,0,0,0,8,1021.1,METAR KRSV 120455Z AUTO 00000KT 8SM CLR 16/16 A3015 RMK AO2 403170131,2025-09-12T05:00:59Z,2025-09-12T01:00:59Z,Robinson Municipal Airport,39.015999,-87.649803,US,US-IL
KRSW,"Ft Myers/SW Florida Intl, FL, US",2025-09-12T04:53:00Z,2025-09-12 00:53:00,VFR,25,24.4,70,3,0,NA,1015.3,METAR KRSW 120453Z AUTO 07003KT 10SM BKN060 BKN110 25/24 A2998 RMK AO1 SLP149 T02500244 403330228 $,2025-09-12T05:00:59Z,2025-09-12T01:00:59Z,Southwest Florida International Airport,26.53619956970215,-81.75520324707031,US,US-FL
KRTN,"Raton/Crews Fld, NM, US",2025-09-12T04:53:00Z,2025-09-11 22:53:00,VFR,12.8,10,0,0,0,NA,1025.5,METAR KRTN 120453Z AUTO 00000KT 10SM FEW090 13/10 A3028 RMK AO2 SLP175 T01280100,2025-09-12T05:00:59Z,2025-09-12T01:00:59Z,Raton Municipal Airport / Crews Field,36.741501,-104.501999,US,US-NM
KRUG,"Rugby Muni, ND, US",2025-09-12T04:55:00Z,2025-09-12 04:55:00,IFR,21,21,220,13,0,2,1013.3,METAR KRUG 120455Z AUTO 22013KT 2SM +TSRA SCT002 BKN025 OVC060 21/21 A2992 RMK AO2,2025-09-12T05:00:59Z,2025-09-12T01:00:59Z,Rugby Municipal Airport,48.3904,-100.024002,US,US-ND
KRUG,"Rugby Muni, ND, US",2025-09-12T05:15:00Z,2025-09-12 05:15:00,NA,18,18,210,28,34,NA,1012.6,METAR KRUG 120515Z AUTO 21028G34KT VCTS RA BKN002 BKN022 OVC049 18/18 A2990 RMK AO2,2025-09-12T05:17:34Z,2025-09-12T01:17:34Z,Rugby Municipal Airport,48.3904,-100.024002,US,US-ND
KRUQ,"Salisbury/Rowan Cnty, NC, US",2025-09-12T04:45:00Z,2025-09-12 00:45:00,NA,14.1,13.5,0,0,0,NA,1021.1,METAR KRUQ 120445Z AUTO 00000KT 10SM 14/14 A3015 RMK AO2 T01410135,2025-09-12T05:00:59Z,2025-09-12T01:00:59Z,Mid-Carolina Regional Airport,35.645901,-80.520302,US,US-NC
KRUQ,"Salisbury/Rowan Cnty, NC, US",2025-09-12T05:05:00Z,2025-09-12 01:05:00,NA,14,13.3,0,0,0,NA,1021.1,METAR KRUQ 120505Z AUTO 00000KT 10SM 14/13 A3015 RMK AO2 T01400133,2025-09-12T05:17:34Z,2025-09-12T01:17:34Z,Mid-Carolina Regional Airport,35.645901,-80.520302,US,US-NC
KRUT,"Rutland/S Vermont Rgnl, VT, US",2025-09-12T04:56:00Z,2025-09-12 00:56:00,VFR,11.1,9.4,120,6,0,NA,1023.1,METAR KRUT 120456Z AUTO 12006KT 10SM CLR 11/09 A3021 RMK AO2 SLP222 T01110094 402390067 $,2025-09-12T05:00:59Z,2025-09-12T01:00:59Z,Rutland - Southern Vermont Regional Airport,43.5294,-72.9496,US,US-VT
KRVJ,"Reidsville/Smith Fld, GA, US",2025-09-12T04:55:00Z,2025-09-12 04:55:00,VFR,19.2,18.6,140,3,0,7,1019,METAR KRVJ 120455Z AUTO 14003KT 7SM CLR 19/19 A3009 RMK AO2 T01920186,2025-09-12T05:00:59Z,2025-09-12T01:00:59Z,Swinton Smith Field at Reidsville Municipal Airport,32.0595,-82.153777,US,US-GA
KRVL,"Reedsville/Mifflin Cnty, PA, US",2025-09-12T04:55:00Z,2025-09-12 00:55:00,VFR,13,11,0,0,0,NA,1022.4,METAR KRVL 120455Z AUTO 00000KT 10SM CLR 13/11 A3019 RMK AO2,2025-09-12T05:00:59Z,2025-09-12T01:00:59Z,Mifflin County Airport,40.6773986816,-77.6268005371,US,US-PA
KRVL,"Reedsville/Mifflin Cnty, PA, US",2025-09-12T05:15:00Z,2025-09-12 01:15:00,VFR,11,10,0,0,0,NA,1022.4,METAR KRVL 120515Z AUTO 00000KT 10SM CLR 11/10 A3019 RMK AO2,2025-09-12T05:17:34Z,2025-09-12T01:17:34Z,Mifflin County Airport,40.6773986816,-77.6268005371,US,US-PA
KRVS,"Tulsa/Jones Arpt, OK, US",2025-09-12T04:53:00Z,2025-09-11 23:53:00,VFR,20.6,18.9,0,0,0,NA,1018.7,METAR KRVS 120453Z 00000KT 10SM CLR 21/19 A3008 RMK AO2 SLP190 T02060189,2025-09-12T05:00:59Z,2025-09-12T01:00:59Z,Tulsa Riverside Airport,36.0396,-95.984596,US,US-OK
KRWF,"Redwood Falls Muni, MN, US",2025-09-12T04:53:00Z,2025-09-11 23:53:00,VFR,18.9,16.1,110,8,0,NA,1018.4,METAR KRWF 120453Z AUTO 11008KT 10SM CLR 19/16 A3007 RMK AO2 SLP177 T01890161 $,2025-09-12T05:00:59Z,2025-09-12T01:00:59Z,Redwood Falls Municipal Airport,44.547199,-95.082298,US,US-MN
KRWI,"Rocky Mount/Wilson Rgnl, NC, US",2025-09-12T04:53:00Z,2025-09-12 00:53:00,VFR,18.9,17.8,0,0,0,NA,1020.4,METAR KRWI 120453Z AUTO 00000KT 10SM OVC100 19/18 A3013 RMK AO2 SLP201 T01890178 402560183,2025-09-12T05:00:59Z,2025-09-12T01:00:59Z,Rocky Mount Wilson Regional Airport,35.8563,-77.891899,US,US-NC
KRWL,"Rawlins Muni, WY, US",2025-09-12T04:53:00Z,2025-09-11 22:53:00,VFR,11.7,8.9,0,0,0,NA,1022.1,METAR KRWL 120453Z AUTO 00000KT 10SM -RA BKN100 BKN120 12/09 A3018 RMK AO2 RAB49 SLP129 P0000 T01170089,2025-09-12T05:00:59Z,2025-09-12T01:00:59Z,Rawlins Municipal Airport/Harvey Field,41.80559921,-107.1999969,US,US-WY
KRWV,"Caldwell Muni, TX, US",2025-09-12T04:35:00Z,2025-09-12 04:35:00,VFR,NA,NA,170,3,0,NA,1019.7,METAR KRWV 120435Z AUTO 17003KT 10SM CLR A3011 RMK AO2 PWINO,2025-09-12T05:00:59Z,2025-09-12T01:00:59Z,Caldwell Municipal Airport,30.515499,-96.704102,US,US-TX
KRWV,"Caldwell Muni, TX, US",2025-09-12T04:55:00Z,2025-09-12 04:55:00,VFR,NA,NA,150,3,0,NA,1019.4,METAR KRWV 120455Z AUTO 15003KT 10SM CLR A3010 RMK AO2 PWINO,2025-09-12T05:17:34Z,2025-09-12T01:17:34Z,Caldwell Municipal Airport,30.515499,-96.704102,US,US-TX
KRXE,"Rexburg/Madison Cnty, ID, US",2025-09-12T04:53:00Z,2025-09-11 22:53:00,VFR,16.1,1.7,200,5,0,NA,1018,METAR KRXE 120453Z AUTO 20005KT 10SM CLR 16/02 A3006 RMK AO2 SLP144 T01610017,2025-09-12T05:00:59Z,2025-09-12T01:00:59Z,Rexburg Madison County Airport,43.8339,-111.805002,US,US-ID
KRYW,"Lago Vista/Allen Arpt, TX, US",2025-09-12T04:35:00Z,2025-09-12 04:35:00,VFR,26.4,19.7,120,4,0,NA,1021.1,METAR KRYW 120435Z AUTO 12004KT 10SM CLR 26/20 A3015 RMK AO2 T02640197,2025-09-12T05:00:59Z,2025-09-12T01:00:59Z,Lago Vista Texas Rusty Allen Airport,30.4986,-97.969498,US,US-TX
KRYW,"Lago Vista/Allen Arpt, TX, US",2025-09-12T04:55:00Z,2025-09-12 04:55:00,VFR,26.2,20.2,130,4,0,NA,1021.1,METAR KRYW 120455Z AUTO 13004KT 10SM CLR 26/20 A3015 RMK AO2 T02620202,2025-09-12T05:17:34Z,2025-09-12T01:17:34Z,Lago Vista Texas Rusty Allen Airport,30.4986,-97.969498,US,US-TX
KRYY,"Marietta/Cobb Cnty, GA, US",2025-09-12T04:50:00Z,2025-09-12 04:50:00,VFR,20,16.7,0,0,0,NA,1021.1,METAR KRYY 120450Z AUTO 00000KT 10SM CLR 20/17 A3015 RMK AO2 SLP940 T02000167 403000150 $,2025-09-12T05:00:59Z,2025-09-12T01:00:59Z,Cobb County International Airport-McCollum Field,34.01316,-84.59721,US,US-GA
KRZL,"Rensselaer/Jasper Cnty, IN, US",2025-09-12T04:55:00Z,2025-09-11 23:55:00,VFR,15,14,30,3,0,NA,1023.1,METAR KRZL 120455Z AUTO 03003KT 10SM CLR 15/14 A3021 RMK AO2,2025-09-12T05:00:59Z,2025-09-12T01:00:59Z,Jasper County Airport,40.9478988647,-87.1826019287,US,US-IN
KRZN,"Siren/Burnett Cnty, WI, US",2025-09-12T04:55:00Z,2025-09-12 04:55:00,VFR,15.9,14.9,140,6,0,NA,1021.4,METAR KRZN 120455Z AUTO 14006KT 10SM CLR 16/15 A3016 RMK AO2 T01590149,2025-09-12T05:00:59Z,2025-09-12T01:00:59Z,Burnett County Airport,45.822701,-92.372498,US,US-WI
KRZR,"Cleveland Rgnl, TN, US",2025-09-12T04:35:00Z,2025-09-12 04:35:00,MVFR,16,16,0,0,0,4,1020.1,METAR KRZR 120435Z AUTO 00000KT 4SM BR CLR 16/16 A3012 RMK A01,2025-09-12T05:00:59Z,2025-09-12T01:00:59Z,Cleveland Regional Jetport,35.211497,-84.799769,US,US-TN
KRZR,"Cleveland Rgnl, TN, US",2025-09-12T04:55:00Z,2025-09-12 04:55:00,MVFR,16,16,0,0,0,3,1020.1,METAR KRZR 120455Z AUTO 00000KT 3SM BR CLR 16/16 A3012 RMK A01,2025-09-12T05:17:34Z,2025-09-12T01:17:34Z,Cleveland Regional Jetport,35.211497,-84.799769,US,US-TN
KRZT,"Chillicothe/Ross Cnty, OH, US",2025-09-12T04:35:00Z,2025-09-12 04:35:00,VFR,12,10,0,0,0,NA,1023.1,METAR KRZT 120435Z AUTO 00000KT 10SM CLR 12/10 A3021 RMK AO2 PWINO,2025-09-12T05:00:59Z,2025-09-12T01:00:59Z,Ross County Airport,39.440399,-83.023102,US,US-OH
KRZT,"Chillicothe/Ross Cnty, OH, US",2025-09-12T04:55:00Z,2025-09-12 04:55:00,VFR,11,10,0,0,0,NA,1023.1,METAR KRZT 120455Z AUTO 00000KT 10SM CLR 11/10 A3021 RMK AO2 PWINO,2025-09-12T05:17:34Z,2025-09-12T01:17:34Z,Ross County Airport,39.440399,-83.023102,US,US-OH
KS12,"Albany Muni, OR, US",2025-09-12T04:35:00Z,2025-09-12 04:35:00,MVFR,15,13,0,0,0,NA,1018,METAR KS12 120435Z AUTO 00000KT 10SM BKN028 15/13 A3006 RMK AO2,2025-09-12T05:00:59Z,2025-09-12T01:00:59Z,Albany Municipal Airport,44.637798309326,-123.05899810791,US,US-OR
KS12,"Albany Muni, OR, US",2025-09-12T04:55:00Z,2025-09-12 04:55:00,VFR,15,13,0,0,0,NA,1018,METAR KS12 120455Z AUTO 00000KT 10SM FEW028 15/13 A3006 RMK AO2,2025-09-12T05:17:34Z,2025-09-12T01:17:34Z,Albany Municipal Airport,44.637798309326,-123.05899810791,US,US-OR
KS21,"Sunriver Arpt, OR, US",2025-09-12T04:30:00Z,2025-09-11 21:30:00,VFR,10,10,0,0,0,6,1020.7,METAR KS21 120430Z AUTO 00000KT 6SM BR FEW036 OVC055 10/10 A3014 RMK AO2,2025-09-12T05:00:59Z,2025-09-12T01:00:59Z,Sunriver Airport,43.876301,-121.453003,US,US-OR
KS21,"Sunriver Arpt, OR, US",2025-09-12T04:55:00Z,2025-09-11 21:55:00,MVFR,10,9,0,0,0,5,1020.7,METAR KS21 120455Z AUTO 00000KT 5SM BR FEW029 SCT036 OVC060 10/09 A3014 RMK AO2,2025-09-12T05:17:34Z,2025-09-12T01:17:34Z,Sunriver Airport,43.876301,-121.453003,US,US-OR
KS24,"Fremont/Sandusky Cnty, OH, US",2025-09-12T04:55:00Z,2025-09-12 04:55:00,VFR,11,11,0,0,0,NA,1023.1,METAR KS24 120455Z AUTO 00000KT 10SM CLR 11/11 A3021 RMK AO2,2025-09-12T05:00:59Z,2025-09-12T01:00:59Z,Sandusky County Regional Airport,41.2957,-83.037201,US,US-OH
KS24,"Fremont/Sandusky Cnty, OH, US",2025-09-12T05:15:00Z,2025-09-12 05:15:00,VFR,10,10,0,0,0,NA,1023.5,METAR KS24 120515Z AUTO 00000KT 10SM CLR 10/10 A3022 RMK AO2,2025-09-12T05:17:34Z,2025-09-12T01:17:34Z,Sandusky County Regional Airport,41.2957,-83.037201,US,US-OH
KS25,"Watford City Muni, ND, US",2025-09-12T04:55:00Z,2025-09-12 04:55:00,VFR,18,18,360,5,0,NA,1012.3,METAR KS25 120455Z AUTO 36005KT 10SM CLR 18/18 A2989 RMK AO2,2025-09-12T05:00:59Z,2025-09-12T01:00:59Z,Watford City Municipal Airport,47.79570007,-103.2539978,US,US-ND
KS25,"Watford City Muni, ND, US",2025-09-12T05:15:00Z,2025-09-12 05:15:00,VFR,18,18,0,0,0,NA,1012.3,METAR KS25 120515Z AUTO 00000KT 10SM CLR 18/18 A2989 RMK AO2,2025-09-12T05:17:34Z,2025-09-12T01:17:34Z,Watford City Municipal Airport,47.79570007,-103.2539978,US,US-ND
KS32,"Cooperstown Muni, ND, US",2025-09-12T04:55:00Z,2025-09-12 04:55:00,NA,20,20,150,13,19,NA,1015,METAR KS32 120455Z AUTO 15013G19KT 10SM 20/20 A2997 RMK AO2 TSNO,2025-09-12T05:00:59Z,2025-09-12T01:00:59Z,Cooperstown Municipal Airport,47.422798,-98.105904,US,US-ND
KS32,"Cooperstown Muni, ND, US",2025-09-12T05:15:00Z,2025-09-12 05:15:00,NA,20,20,150,11,17,NA,1014.6,METAR KS32 120515Z AUTO 15011G17KT 10SM 20/20 A2996 RMK AO2 TSNO,2025-09-12T05:17:34Z,2025-09-12T01:17:34Z,Cooperstown Municipal Airport,47.422798,-98.105904,US,US-ND
KS33,"Madras Muni, OR, US",2025-09-12T04:55:00Z,2025-09-11 21:55:00,VFR,15,10,VAR,NA,0,NA,1018,METAR KS33 120455Z AUTO 10SM CLR 15/10 A3006 RMK AO2,2025-09-12T05:00:59Z,2025-09-12T01:00:59Z,Madras Municipal Airport,44.67020035,-121.1549988,US,US-OR
KS34,"Plains Arpt, MT, US",2025-09-12T04:35:00Z,2025-09-12 04:35:00,VFR,16,16,220,4,0,7,1016.3,METAR KS34 120435Z AUTO 22004KT 7SM OVC085 16/16 A3001 RMK AO2 LTG DSNT SE,2025-09-12T05:00:59Z,2025-09-12T01:00:59Z,Plains Airport,47.473475,-114.907122,US,US-MT
KS34,"Plains Arpt, MT, US",2025-09-12T04:55:00Z,2025-09-12 04:55:00,VFR,17,17,0,0,0,NA,1016.3,METAR KS34 120455Z AUTO 00000KT 10SM OVC085 17/17 A3001 RMK AO2 LTG DSNT SW,2025-09-12T05:17:35Z,2025-09-12T01:17:35Z,Plains Airport,47.473475,-114.907122,US,US-MT
KS39,"Prineville Arpt, OR, US",2025-09-12T04:35:00Z,2025-09-11 21:35:00,VFR,15,10,0,0,0,NA,1018.4,METAR KS39 120435Z AUTO 00000KT 10SM FEW034 SCT043 BKN048 15/10 A3007 RMK AO2,2025-09-12T05:00:59Z,2025-09-12T01:00:59Z,Prineville Airport,44.286998748779,-120.90399932861,US,US-OR
KS39,"Prineville Arpt, OR, US",2025-09-12T04:55:00Z,2025-09-11 21:55:00,VFR,15,10,0,0,0,NA,1018.4,METAR KS39 120455Z AUTO 00000KT 10SM SCT035 BKN044 15/10 A3007 RMK AO2,2025-09-12T05:17:34Z,2025-09-12T01:17:34Z,Prineville Airport,44.286998748779,-120.90399932861,US,US-OR
KS52,"Methow Valley State Arpt, WA, US",2025-09-12T04:30:00Z,2025-09-12 04:30:00,NA,18.4,10.5,0,0,0,NA,1012.6,METAR KS52 120430Z AUTO 00000KT 10SM 18/10 A2990 RMK AO2 T01840105,2025-09-12T05:00:59Z,2025-09-12T01:00:59Z,Methow Valley State Airport,48.42490005493164,-120.14600372314452,US,US-WA
KS52,"Methow Valley State Arpt, WA, US",2025-09-12T04:50:00Z,2025-09-12 04:50:00,NA,17.5,10.2,0,0,0,NA,1013,METAR KS52 120450Z AUTO 00000KT 10SM 17/10 A2991 RMK AO2 T01750102,2025-09-12T05:17:35Z,2025-09-12T01:17:35Z,Methow Valley State Airport,48.42490005493164,-120.14600372314452,US,US-WA
KSAA,"Saratoga/Shively Fld, WY, US",2025-09-12T04:55:00Z,2025-09-11 22:55:00,VFR,15,5,130,11,17,NA,1023.5,METAR KSAA 120455Z AUTO 13011G17KT 10SM CLR 15/05 A3022 RMK AO2,2025-09-12T05:00:59Z,2025-09-12T01:00:59Z,Shively Field,41.444901,-106.823997,US,US-WY
KSAA,"Saratoga/Shively Fld, WY, US",2025-09-12T05:15:00Z,2025-09-11 23:15:00,VFR,15,5,130,10,0,NA,1023.5,METAR KSAA 120515Z AUTO 13010KT 10SM CLR 15/05 A3022 RMK AO2,2025-09-12T05:17:34Z,2025-09-12T01:17:34Z,Shively Field,41.444901,-106.823997,US,US-WY
KSAC,"Sacramento Exec, CA, US",2025-09-12T04:53:00Z,2025-09-11 21:53:00,VFR,20,12.8,0,0,0,NA,1013.3,METAR KSAC 120453Z AUTO 00000KT 10SM CLR 20/13 A2992 RMK AO2 SLP131 T02000128,2025-09-12T05:00:59Z,2025-09-12T01:00:59Z,Sacramento Executive Airport,38.5125007629,-121.492996216,US,US-CA
KSAD,"Safford Rgnl, AZ, US",2025-09-12T04:51:00Z,2025-09-11 21:51:00,VFR,23.9,13.3,200,3,0,NA,1015.7,METAR KSAD 120451Z AUTO 20003KT 10SM CLR 24/13 A2999 RMK AO2 SLP099 T02390133 $,2025-09-12T05:00:59Z,2025-09-12T01:00:59Z,Safford Regional Airport,32.85480118,-109.6350021,US,US-AZ
KSAF,"Santa Fe Cnty Muni, NM, US",2025-09-12T04:53:00Z,2025-09-11 22:53:00,VFR,21.1,2.2,120,14,0,NA,1024.8,METAR KSAF 120453Z AUTO 12014KT 10SM BKN120 21/02 A3026 RMK AO2 SLP139 T02110022,2025-09-12T05:00:59Z,2025-09-12T01:00:59Z,Santa Fe Municipal Airport,35.6171,-106.088997,US,US-NM
KSAN,"San Diego Intl Arpt, CA, US",2025-09-12T04:51:00Z,2025-09-11 21:51:00,VFR,20,16.1,300,3,0,NA,1014.3,METAR KSAN 120451Z 30003KT 10SM SCT018 20/16 A2995 RMK AO2 SLP142 SCT V BKN T02000161,2025-09-12T05:00:59Z,2025-09-12T01:00:59Z,San Diego International Airport,32.7336006165,-117.190002441,US,US-CA
KSAN,"San Diego Intl Arpt, CA, US",2025-09-12T04:59:00Z,2025-09-11 21:59:00,MVFR,19.4,16.1,300,3,0,NA,1014.3,SPECI KSAN 120459Z 30003KT 10SM BKN018 19/16 A2995 RMK AO2 T01940161,2025-09-12T05:17:34Z,2025-09-12T01:17:34Z,San Diego International Airport,32.7336006165,-117.190002441,US,US-CA
KSAR,"Sparta/Hunter Fld, IL, US",2025-09-12T04:55:00Z,2025-09-11 23:55:00,VFR,20.6,15.8,0,0,0,NA,1020.7,METAR KSAR 120455Z AUTO 00000KT 10SM BKN075 21/16 A3014 RMK AO2 T02060158,2025-09-12T05:00:59Z,2025-09-12T01:00:59Z,Sparta Community Airport - Hunter Field,38.148899,-89.6987,US,US-IL
KSAT,"San Antonio Intl, TX, US",2025-09-12T04:51:00Z,2025-09-11 23:51:00,VFR,26.7,21.1,120,8,0,NA,1019.4,METAR KSAT 120451Z 12008KT 10SM CLR 27/21 A3010 RMK AO2 SLP174 T02670211,2025-09-12T05:00:59Z,2025-09-12T01:00:59Z,San Antonio International Airport,29.533701,-98.469803,US,US-TX
KSAV,"Savannah Intl, GA, US",2025-09-12T04:53:00Z,2025-09-12 00:53:00,VFR,20,18.9,0,0,0,NA,1019,METAR KSAV 120453Z AUTO 00000KT 10SM CLR 20/19 A3009 RMK AO2 SLP187 T02000189 402890183 TSNO,2025-09-12T05:00:59Z,2025-09-12T01:00:59Z,Savannah Hilton Head International Airport,32.127602,-81.202103,US,US-GA
KSAW,"Marquette/Sawyer Intl, MI, US",2025-09-12T04:58:00Z,2025-09-12 00:58:00,LIFR,11,11,250,2,0,0.25,1024.5,METAR KSAW 120458Z AUTO 25002KT 1/4SM FG BKN018 11/11 A3025 RMK AO2,2025-09-12T05:00:58Z,2025-09-12T01:00:58Z,Marquette/Sawyer International Airport,46.3536,-87.395401,US,US-MI
KSAZ,"Staples Muni, MN, US",2025-09-12T04:55:00Z,2025-09-12 04:55:00,VFR,17,15,130,4,0,NA,1019,METAR KSAZ 120455Z AUTO 13004KT 10SM CLR 17/15 A3009 RMK AO2,2025-09-12T05:00:59Z,2025-09-12T01:00:59Z,Staples Municipal Airport,46.380901,-94.806602,US,US-MN
KSAZ,"Staples Muni, MN, US",2025-09-12T05:15:00Z,2025-09-12 05:15:00,VFR,17,15,100,3,0,NA,1019,METAR KSAZ 120515Z AUTO 10003KT 10SM CLR 17/15 A3009 RMK AO2,2025-09-12T05:17:34Z,2025-09-12T01:17:34Z,Staples Municipal Airport,46.380901,-94.806602,US,US-MN
KSBA,"Santa Barbara Muni, CA, US",2025-09-12T04:53:00Z,2025-09-11 21:53:00,VFR,20,13.3,50,5,0,NA,1012.6,METAR KSBA 120453Z 05005KT 10SM CLR 20/13 A2990 RMK AO2 SLP124 T02000133,2025-09-12T05:00:59Z,2025-09-12T01:00:59Z,Santa Barbara Municipal Airport,34.426201,-119.839996,US,US-CA
KSBD,"San Bernardino Intl, CA, US",2025-09-12T04:40:00Z,2025-09-11 21:40:00,VFR,20.5,12.5,250,6,0,NA,1014,METAR KSBD 120440Z AUTO 25006KT 10SM CLR 21/13 A2994 RMK AO2 T02050125,2025-09-12T05:00:59Z,2025-09-12T01:00:59Z,San Bernardino International Airport,34.095402,-117.235001,US,US-CA
KSBD,"San Bernardino Intl, CA, US",2025-09-12T05:00:00Z,2025-09-11 22:00:00,VFR,20.1,12.6,240,6,0,NA,1014,METAR KSBD 120500Z AUTO 24006KT 10SM CLR 20/13 A2994 RMK AO2 T02010126,2025-09-12T05:17:34Z,2025-09-12T01:17:34Z,San Bernardino International Airport,34.095402,-117.235001,US,US-CA
KSBM,"Sheboygan Cnty Mem, WI, US",2025-09-12T04:53:00Z,2025-09-11 23:53:00,LIFR,10,10,0,0,0,0.25,1024.1,METAR KSBM 120453Z AUTO 00000KT 1/4SM FG VV004 10/10 A3024 RMK AO2 SLP239 T01000100,2025-09-12T05:00:59Z,2025-09-12T01:00:59Z,Sheboygan County Memorial Airport,43.76959991,-87.85140228,US,US-WI
KSBM,"Sheboygan Cnty Mem, WI, US",2025-09-12T05:08:00Z,2025-09-12 00:08:00,LIFR,10,10,0,0,0,0.5,1024.1,SPECI KSBM 120508Z AUTO 00000KT 1/2SM FG VV004 10/10 A3024 RMK AO2 VIS 1/4V1 3/4 T01000100,2025-09-12T05:17:34Z,2025-09-12T01:17:34Z,Sheboygan County Memorial Airport,43.76959991,-87.85140228,US,US-WI
KSBN,"South Bend Rgnl, IN, US",2025-09-12T04:54:00Z,2025-09-12 00:54:00,VFR,15.6,12.2,0,0,0,NA,1023.5,METAR KSBN 120454Z AUTO 00000KT 10SM CLR 16/12 A3022 RMK AO2 SLP230 T01560122 402830106,2025-09-12T05:00:59Z,2025-09-12T01:00:59Z,South Bend Regional Airport,41.708698,-86.317299,US,US-IN
KSBO,"Swainsboro/E Georgia Rgnl, GA, US",2025-09-12T04:55:00Z,2025-09-12 04:55:00,VFR,18,16,0,0,0,NA,1019.7,METAR KSBO 120455Z AUTO 00000KT 10SM CLR 18/16 A3011 RMK AO2,2025-09-12T05:00:59Z,2025-09-12T01:00:59Z,Emanuel County Airport,32.6091,-82.369904,US,US-GA
KSBO,"Swainsboro/E Georgia Rgnl, GA, US",2025-09-12T05:15:00Z,2025-09-12 05:15:00,VFR,18,16,0,0,0,NA,1019.7,METAR KSBO 120515Z AUTO 00000KT 10SM CLR 18/16 A3011 RMK AO2,2025-09-12T05:17:34Z,2025-09-12T01:17:34Z,Emanuel County Airport,32.6091,-82.369904,US,US-GA
KSBP,"San Luis Obispo/San Luis Cnty, CA, US",2025-09-12T04:56:00Z,2025-09-11 21:56:00,MVFR,16.7,14.4,320,3,0,NA,1014.6,METAR KSBP 120456Z AUTO 32003KT 10SM BKN010 17/14 A2996 RMK AO2 SLP142 T01670144,2025-09-12T05:00:58Z,2025-09-12T01:00:58Z,San Luis County Regional Airport,35.236801147499996,-120.641998291,US,US-CA
KSBP,"San Luis Obispo/San Luis Cnty, CA, US",2025-09-12T05:05:00Z,2025-09-11 22:05:00,VFR,16.7,14.4,300,3,0,NA,1014.6,SPECI KSBP 120505Z AUTO 30003KT 10SM SCT010 17/14 A2996 RMK AO2 T01670144,2025-09-12T05:17:34Z,2025-09-12T01:17:34Z,San Luis County Regional Airport,35.236801147499996,-120.641998291,US,US-CA
KSBS,"Steamboat Springs/Adams Fld, CO, US",2025-09-12T04:55:00Z,2025-09-11 22:55:00,VFR,12.2,7.6,20,3,0,NA,1023.8,METAR KSBS 120455Z AUTO 02003KT 10SM SCT110 12/08 A3023 RMK AO1 T01220076 402460104,2025-09-12T05:00:59Z,2025-09-12T01:00:59Z,Steamboat Springs Bob Adams Field,40.5163002,-106.8659973,US,US-CO
KSBS,"Steamboat Springs/Adams Fld, CO, US",2025-09-12T05:15:00Z,2025-09-11 23:15:00,VFR,12.1,7.2,290,5,0,NA,1024.1,METAR KSBS 120515Z AUTO 29005KT 10SM SCT110 12/07 A3024 RMK AO1 T01210072,2025-09-12T05:17:34Z,2025-09-12T01:17:34Z,Steamboat Springs Bob Adams Field,40.5163002,-106.8659973,US,US-CO
KSBX,"Shelby/Toole Cnty Arpt, MT, US",2025-09-12T04:35:00Z,2025-09-11 22:35:00,VFR,17,8,90,6,0,NA,1016.7,METAR KSBX 120435Z AUTO 09006KT 10SM CLR 17/08 A3002 RMK AO2,2025-09-12T05:00:59Z,2025-09-12T01:00:59Z,Shelby Airport,48.5406990051,-111.871002197,US,US-MT
KSBX,"Shelby/Toole Cnty Arpt, MT, US",2025-09-12T04:55:00Z,2025-09-11 22:55:00,VFR,16,8,90,7,0,NA,1016.7,METAR KSBX 120455Z AUTO 09007KT 10SM CLR 16/08 A3002 RMK AO2,2025-09-12T05:17:34Z,2025-09-12T01:17:34Z,Shelby Airport,48.5406990051,-111.871002197,US,US-MT
KSBY,"Salisbury/Ocean City, MD, US",2025-09-12T04:54:00Z,2025-09-12 00:54:00,MVFR,14.4,14.4,0,0,0,4,1020.4,METAR KSBY 120454Z AUTO 00000KT 4SM BR CLR 14/14 A3013 RMK AO2 SLP206 T01440144 402500144,2025-09-12T05:00:59Z,2025-09-12T01:00:59Z,Salisbury Ocean City Wicomico Regional Airport,38.34049987792969,-75.51029968261719,US,US-MD
KSCD,"Sylacauga Muni, AL, US",2025-09-12T04:55:00Z,2025-09-12 04:55:00,NA,18.6,17.9,0,0,0,NA,1020.1,METAR KSCD 120455Z AUTO 00000KT BKN100 OVC120 19/18 A3012 RMK AO2 T01860179 PWINO,2025-09-12T05:00:59Z,2025-09-12T01:00:59Z,Merkel Field Sylacauga Municipal Airport,33.171799,-86.305496,US,US-AL
KSCD,"Sylacauga Muni, AL, US",2025-09-12T05:15:00Z,2025-09-12 05:15:00,NA,18.6,17.6,0,0,0,NA,1020.1,METAR KSCD 120515Z AUTO 00000KT BKN100 OVC110 19/18 A3012 RMK AO2 T01860176 PWINO,2025-09-12T05:17:34Z,2025-09-12T01:17:34Z,Merkel Field Sylacauga Municipal Airport,33.171799,-86.305496,US,US-AL
KSCK,"Stockton Metro, CA, US",2025-09-12T04:55:00Z,2025-09-11 21:55:00,VFR,18.9,13.9,260,7,0,NA,1013.6,METAR KSCK 120455Z 26007KT 10SM CLR 19/14 A2993 RMK AO2 SLP134 T01890139,2025-09-12T05:00:59Z,2025-09-12T01:00:59Z,Stockton Metropolitan Airport,37.893279,-121.238079,US,US-CA
KSDA,"Shenandoah Muni, IA, US",2025-09-12T04:55:00Z,2025-09-12 04:55:00,VFR,21,20,0,0,0,NA,1017.4,METAR KSDA 120455Z AUTO 00000KT 10SM CLR 21/20 A3004 RMK AO2,2025-09-12T05:00:59Z,2025-09-12T01:00:59Z,Shenandoah Municipal Airport,40.7515983581543,-95.4136962890625,US,US-IA
KSDC,"Williamson-Sodus Arpt, NY, US",2025-09-12T04:55:00Z,2025-09-12 04:55:00,VFR,13,11,0,0,0,NA,1023.5,METAR KSDC 120455Z AUTO 00000KT 10SM CLR 13/11 A3022 RMK AO2,2025-09-12T05:00:59Z,2025-09-12T01:00:59Z,Williamson Sodus Airport,43.234573,-77.119403,US,US-NY
KSDC,"Williamson-Sodus Arpt, NY, US",2025-09-12T05:15:00Z,2025-09-12 05:15:00,VFR,12,11,0,0,0,NA,1023.5,METAR KSDC 120515Z AUTO 00000KT 10SM CLR 12/11 A3022 RMK AO2,2025-09-12T05:17:34Z,2025-09-12T01:17:34Z,Williamson Sodus Airport,43.234573,-77.119403,US,US-NY
KSDF,"Louisville Intl, KY, US",2025-09-12T04:56:00Z,2025-09-12 00:56:00,VFR,21.7,15.6,0,0,0,NA,1021.1,METAR KSDF 120456Z 00000KT 10SM CLR 22/16 A3015 RMK AO2 SLP204 T02170156 403000167,2025-09-12T05:00:58Z,2025-09-12T01:00:58Z,Louisville Muhammad Ali International Airport,38.1744,-85.736,US,US-KY
KSDL,"Scottsdale Muni, AZ, US",2025-09-12T04:53:00Z,2025-09-11 21:53:00,VFR,32.8,11.1,VAR,4,0,NA,1011.3,METAR KSDL 120453Z AUTO VRB04KT 10SM FEW085 33/11 A2986 RMK AO2 SLP083 T03280111,2025-09-12T05:00:59Z,2025-09-12T01:00:59Z,Scottsdale Airport,33.622898101807,-111.91100311279,US,US-AZ
KSDM,"San Diego/Brown Fld, CA, US",2025-09-12T04:53:00Z,2025-09-11 21:53:00,MVFR,18.9,16.1,270,7,0,NA,1014.3,METAR KSDM 120453Z AUTO 27007KT 10SM OVC014 19/16 A2995 RMK AO2 SLP135 T01890161,2025-09-12T05:00:59Z,2025-09-12T01:00:59Z,Brown Field Municipal Airport,32.572639,-116.980019,US,US-CA
KSDM,"San Diego/Brown Fld, CA, US",2025-09-12T05:06:00Z,2025-09-11 22:06:00,MVFR,18.9,16.1,270,4,0,NA,1014.3,SPECI KSDM 120506Z AUTO 27004KT 10SM OVC015 19/16 A2995 RMK AO2 T01890161,2025-09-12T05:17:34Z,2025-09-12T01:17:34Z,Brown Field Municipal Airport,32.572639,-116.980019,US,US-CA
KSEA,"Seattle-Tacoma Intl, WA, US",2025-09-12T04:53:00Z,2025-09-11 21:53:00,MVFR,15.6,13.3,190,6,0,NA,1018,METAR KSEA 120453Z 19006KT 10SM OVC022 16/13 A3006 RMK AO2 SLP183 T01560133,2025-09-12T05:00:59Z,2025-09-12T01:00:59Z,Seattle–Tacoma International Airport,47.447943,-122.310276,US,US-WA
KSEE,"San Diego/Gillespie Fld, CA, US",2025-09-12T04:55:00Z,2025-09-11 21:55:00,VFR,19,16,0,0,0,NA,1014,METAR KSEE 120455Z AUTO 00000KT 10SM CLR 19/16 A2994 RMK AO2,2025-09-12T05:00:59Z,2025-09-12T01:00:59Z,Gillespie Field,32.826198577881,-116.97200012207,US,US-CA
KSEE,"San Diego/Gillespie Fld, CA, US",2025-09-12T05:15:00Z,2025-09-11 22:15:00,VFR,19,15,0,0,0,NA,1014,METAR KSEE 120515Z AUTO 00000KT 10SM SCT018 19/15 A2994 RMK AO2,2025-09-12T05:17:34Z,2025-09-12T01:17:34Z,Gillespie Field,32.826198577881,-116.97200012207,US,US-CA
KSEF,"Sebring Rgnl, FL, US",2025-09-12T04:55:00Z,2025-09-12 00:55:00,VFR,24.4,23.1,10,6,0,NA,1016.3,METAR KSEF 120455Z AUTO 01006KT 10SM CLR 24/23 A3001 RMK AO2 LTG DSNT SE AND SW T02440231,2025-09-12T05:00:59Z,2025-09-12T01:00:59Z,Sebring Regional Airport,27.45639992,-81.3423996,US,US-FL
KSEG,"Selinsgrove/Penn Valley Arpt, PA, US",2025-09-12T04:53:00Z,2025-09-12 00:53:00,VFR,10.6,10.6,0,0,0,NA,1022.4,METAR KSEG 120453Z AUTO 00000KT 10SM CLR 11/11 A3019 RMK AO2 SLP221 T01060106 402610100,2025-09-12T05:00:59Z,2025-09-12T01:00:59Z,Penn Valley Airport,40.820598602295,-76.863899230957,US,US-PA
KSEM,"Selma/Craig Fld, AL, US",2025-09-12T04:35:00Z,2025-09-11 23:35:00,VFR,22,21,0,0,0,NA,1019,METAR KSEM 120435Z AUTO 00000KT 10SM BKN065 BKN080 BKN110 22/21 A3009 RMK AO2,2025-09-12T05:00:59Z,2025-09-12T01:00:59Z,Craig Field,32.343898773193,-86.987800598145,US,US-AL
KSEM,"Selma/Craig Fld, AL, US",2025-09-12T04:55:00Z,2025-09-11 23:55:00,VFR,22,21,0,0,0,NA,1019,METAR KSEM 120455Z AUTO 00000KT 10SM BKN070 OVC080 22/21 A3009 RMK AO2,2025-09-12T05:17:35Z,2025-09-12T01:17:35Z,Craig Field,32.343898773193,-86.987800598145,US,US-AL
KSEP,"Stephenville/Clark Rgnl, TX, US",2025-09-12T04:55:00Z,2025-09-11 23:55:00,VFR,23.9,17.1,0,0,0,NA,1021.1,METAR KSEP 120455Z AUTO 00000KT 10SM CLR 24/17 A3015 RMK AO2 T02390171,2025-09-12T05:00:59Z,2025-09-12T01:00:59Z,Stephenville Clark Regional Airport,32.215302,-98.177696,US,US-TX
KSEP,"Stephenville/Clark Rgnl, TX, US",2025-09-12T05:15:00Z,2025-09-12 00:15:00,VFR,23.5,17.2,0,0,0,NA,1021.1,METAR KSEP 120515Z AUTO 00000KT 10SM CLR 24/17 A3015 RMK AO2 T02350172,2025-09-12T05:17:34Z,2025-09-12T01:17:34Z,Stephenville Clark Regional Airport,32.215302,-98.177696,US,US-TX
KSET,"St Charles/Smartt Arpt, MO, US",2025-09-12T04:54:00Z,2025-09-12 04:54:00,VFR,18.9,16.1,0,0,0,NA,1020.1,METAR KSET 120454Z AUTO 00000KT 10SM CLR 19/16 A3012 RMK AO2 SLP193 T01890161,2025-09-12T05:00:59Z,2025-09-12T01:00:59Z,St Charles County Regional Airport/Smartt Field,38.929699,-90.43,US,US-MO
KSFB,"Sanford Intl, FL, US",2025-09-12T04:53:00Z,2025-09-12 00:53:00,VFR,25,21.1,350,7,0,NA,1016.7,METAR KSFB 120453Z AUTO 35007KT 10SM FEW038 SCT047 OVC120 25/21 A3002 RMK AO1 SLP164 T02500211 403110228,2025-09-12T05:00:59Z,2025-09-12T01:00:59Z,Orlando Sanford International Airport,28.777599334716797,-81.23750305175781,US,US-FL
KSFF,"Spokane/Felts Fld, WA, US",2025-09-12T04:53:00Z,2025-09-11 21:53:00,VFR,23.3,11.7,250,6,0,NA,1013.3,METAR KSFF 120453Z AUTO 25006KT 10SM CLR 23/12 A2992 RMK AO2 SLP117 T02330117,2025-09-12T05:00:59Z,2025-09-12T01:00:59Z,Felts Field,47.682899,-117.321925,US,US-WA
KSFM,"Sanford Rgnl, ME, US",2025-09-12T04:56:00Z,2025-09-12 00:56:00,VFR,14.4,10,0,0,0,NA,1021.8,METAR KSFM 120456Z AUTO 00000KT 10SM BKN070 14/10 A3017 RMK AO2 SLP217 T01440100 402560039,2025-09-12T05:00:58Z,2025-09-12T01:00:58Z,Sanford Seacoast Regional Airport,43.393901824951,-70.708000183105,US,US-ME
KSFO,"San Francisco Intl, CA, US",2025-09-12T04:56:00Z,2025-09-11 21:56:00,MVFR,17.2,14.4,270,9,0,NA,1015.3,METAR KSFO 120456Z 27009KT 10SM FEW005 BKN010 17/14 A2998 RMK AO2 SLP152 T01720144,2025-09-12T05:00:59Z,2025-09-12T01:00:59Z,San Francisco International Airport,37.619806,-122.374821,US,US-CA
KSFQ,"Suffolk Muni, VA, US",2025-09-12T04:55:00Z,2025-09-12 04:55:00,NA,17.8,17.5,VAR,NA,0,NA,1020.4,METAR KSFQ 120455Z AUTO 18/18 A3013 RMK AO2 T01780175 402260165 PWINO TSNO,2025-09-12T05:00:59Z,2025-09-12T01:00:59Z,Suffolk Executive Airport,36.6824,-76.601898,US,US-VA
KSFQ,"Suffolk Muni, VA, US",2025-09-12T05:15:00Z,2025-09-12 05:15:00,NA,18,17.5,VAR,NA,0,NA,1020.4,METAR KSFQ 120515Z AUTO OVC100 18/18 A3013 RMK AO2 T01800175 PWINO TSNO,2025-09-12T05:17:34Z,2025-09-12T01:17:34Z,Suffolk Executive Airport,36.6824,-76.601898,US,US-VA
KSFZ,"Pawtucket/N Central State Arpt, RI, US",2025-09-12T04:56:00Z,2025-09-12 00:56:00,VFR,16.1,13.3,360,6,0,NA,1020.7,METAR KSFZ 120456Z AUTO 36006KT 10SM CLR 16/13 A3014 RMK AO2 SLP205 T01610133 402500083 $,2025-09-12T05:00:58Z,2025-09-12T01:00:58Z,North Central State Airport,41.9207992554,-71.49140167239999,US,US-RI
KSGF,"Springfield Muni, MO, US",2025-09-12T04:52:00Z,2025-09-11 23:52:00,VFR,20.6,15,0,0,0,NA,1020.4,METAR KSGF 120452Z 00000KT 10SM CLR 21/15 A3013 RMK AO2 SLP188 T02060150,2025-09-12T05:00:59Z,2025-09-12T01:00:59Z,Springfield Branson National Airport,37.245701,-93.388603,US,US-MO
KSGH,"Springfield Muni, OH, US",2025-09-12T04:56:00Z,2025-09-12 00:56:00,VFR,14.4,10.6,60,5,0,NA,1023.1,METAR KSGH 120456Z AUTO 06005KT 10SM CLR 14/11 A3021 RMK AO2 SLP227 T01440106,2025-09-12T05:00:58Z,2025-09-12T01:00:58Z,Springfield-Beckley Municipal Airport,39.840301513672,-83.840202331543,US,US-OH
KSGJ,"St Augustine Arpt, FL, US",2025-09-12T04:56:00Z,2025-09-12 00:56:00,VFR,NA,NA,320,3,0,NA,1017.7,METAR KSGJ 120456Z AUTO 32003KT 10SM CLR A3005 RMK AO2 SLPNO FZRANO $,2025-09-12T05:00:58Z,2025-09-12T01:00:58Z,Northeast Florida Regional Airport,29.9592,-81.339798,US,US-FL
KSGR,"Houston/Sugar Land Rgnl, TX, US",2025-09-12T04:53:00Z,2025-09-11 23:53:00,VFR,24.4,22.2,0,0,0,NA,1018.4,METAR KSGR 120453Z AUTO 00000KT 10SM CLR 24/22 A3007 RMK AO2 SLP183 T02440222,2025-09-12T05:00:59Z,2025-09-12T01:00:59Z,Sugar Land Regional Airport,29.622299194336,-95.65650177002,US,US-TX
KSGS,"South St Paul Muni, MN, US",2025-09-12T04:55:00Z,2025-09-12 04:55:00,VFR,18.6,15.3,150,4,0,7,1020.4,METAR KSGS 120455Z AUTO 15004KT 7SM CLR 19/15 A3013 RMK AO2 T01860153,2025-09-12T05:00:59Z,2025-09-12T01:00:59Z,South St Paul Municipal Airport/Richard E Fleming Field,44.857101,-93.032898,US,US-MN
KSGS,"South St Paul Muni, MN, US",2025-09-12T05:15:00Z,2025-09-12 05:15:00,VFR,18.5,15.5,140,5,0,7,1020.4,METAR KSGS 120515Z AUTO 14005KT 7SM CLR 19/16 A3013 RMK AO2 T01850155,2025-09-12T05:17:34Z,2025-09-12T01:17:34Z,South St Paul Municipal Airport/Richard E Fleming Field,44.857101,-93.032898,US,US-MN
KSGT,"Stuttgart Muni, AR, US",2025-09-12T04:56:00Z,2025-09-11 23:56:00,VFR,22.2,21.1,270,3,0,NA,1019.7,METAR KSGT 120456Z AUTO 27003KT 10SM CLR 22/21 A3011 RMK AO2 SLP193 T02220211,2025-09-12T05:00:58Z,2025-09-12T01:00:58Z,Stuttgart Municipal Airport / Carl Humphrey Field,34.599499,-91.574997,US,US-AR
KSGU,"Saint George Muni, UT, US",2025-09-12T04:56:00Z,2025-09-11 22:56:00,VFR,26.1,0.6,0,0,0,NA,1012.6,METAR KSGU 120456Z AUTO 00000KT 10SM CLR 26/01 A2990 RMK AO2 SLP091 T02610006,2025-09-12T05:00:59Z,2025-09-12T01:00:59Z,St George Regional Airport,37.036389,-113.510306,US,US-UT
KSHD,"Staunton/Shenandoah Valley Rgnl, VA, US",2025-09-12T04:55:00Z,2025-09-12 00:55:00,VFR,11.1,9.6,0,0,0,NA,1023.1,METAR KSHD 120455Z AUTO 00000KT 10SM CLR 11/10 A3021 RMK AO2 T01110096,2025-09-12T05:00:59Z,2025-09-12T01:00:59Z,Shenandoah Valley Regional Airport,38.263802,-78.8964,US,US-VA
KSHD,"Staunton/Shenandoah Valley Rgnl, VA, US",2025-09-12T05:15:00Z,2025-09-12 01:15:00,VFR,10.4,9.3,0,0,0,NA,1023.1,METAR KSHD 120515Z AUTO 00000KT 10SM CLR 10/09 A3021 RMK AO2 T01040093,2025-09-12T05:17:34Z,2025-09-12T01:17:34Z,Shenandoah Valley Regional Airport,38.263802,-78.8964,US,US-VA
KSHL,"Sheldon Muni, IA, US",2025-09-12T04:55:00Z,2025-09-12 04:55:00,VFR,20,17,130,6,12,NA,1017.4,METAR KSHL 120455Z AUTO 13006G12KT 10SM CLR 20/17 A3004 RMK AO2,2025-09-12T05:00:59Z,2025-09-12T01:00:59Z,Sheldon Regional Airport,43.208401,-95.833396,US,US-IA
KSHN,"Shelton/Sanderson Fld, WA, US",2025-09-12T04:53:00Z,2025-09-11 21:53:00,MVFR,14.4,12.8,240,6,0,NA,1017.7,METAR KSHN 120453Z AUTO 24006KT 10SM OVC013 14/13 A3005 RMK AO2 SLP175 T01440128,2025-09-12T05:00:59Z,2025-09-12T01:00:59Z,Sanderson Field,47.233600616455,-123.14800262451,US,US-WA
KSHN,"Shelton/Sanderson Fld, WA, US",2025-09-12T05:04:00Z,2025-09-11 22:04:00,MVFR,14.4,12.8,250,5,0,NA,1017.7,SPECI KSHN 120504Z AUTO 25005KT 10SM OVC015 14/13 A3005 RMK AO2 T01440128,2025-09-12T05:17:34Z,2025-09-12T01:17:34Z,Sanderson Field,47.233600616455,-123.14800262451,US,US-WA
KSHR,"Sheridan Cnty Arpt, WY, US",2025-09-12T04:53:00Z,2025-09-11 22:53:00,VFR,13.3,10,280,5,0,NA,1016.7,METAR KSHR 120453Z AUTO 28005KT 10SM CLR 13/10 A3002 RMK AO2 SLP136 T01330100,2025-09-12T05:00:59Z,2025-09-12T01:00:59Z,Sheridan County Airport,44.76919937133789,-106.9800033569336,US,US-WY
KSHV,"Shreveport Rgnl, LA, US",2025-09-12T04:56:00Z,2025-09-11 23:56:00,VFR,24,20,0,0,0,NA,1019,METAR KSHV 120456Z 00000KT 10SM CLR 24/20 A3009 RMK SLPNO,2025-09-12T05:00:59Z,2025-09-12T01:00:59Z,Shreveport Regional Airport,32.446602,-93.8256,US,US-LA
KSIF,"Eden/Shiloh Arpt, NC, US",2025-09-12T04:45:00Z,2025-09-12 04:45:00,VFR,15.6,15.2,0,0,0,NA,1021.4,METAR KSIF 120445Z AUTO 00000KT 10SM SCT055 16/15 A3016 RMK AO2 T01560152,2025-09-12T05:00:59Z,2025-09-12T01:00:59Z,Rockingham County NC Shiloh Airport,36.437199,-79.850998,US,US-NC
KSIF,"Eden/Shiloh Arpt, NC, US",2025-09-12T05:05:00Z,2025-09-12 05:05:00,VFR,15.4,15,0,0,0,NA,1021.4,METAR KSIF 120505Z AUTO 00000KT 10SM CLR 15/15 A3016 RMK AO2 T01540150,2025-09-12T05:17:34Z,2025-09-12T01:17:34Z,Rockingham County NC Shiloh Airport,36.437199,-79.850998,US,US-NC
KSIK,"Sikeston Arpt, MO, US",2025-09-12T04:55:00Z,2025-09-11 23:55:00,NA,21.9,16.6,0,0,0,NA,1019.4,METAR KSIK 120455Z AUTO 00000KT BKN095 22/17 A3010 RMK AO2 T02190166 PWINO $,2025-09-12T05:00:59Z,2025-09-12T01:00:59Z,Sikeston Memorial Municipal Airport,36.898899078369,-89.561798095703,US,US-MO
KSIK,"Sikeston Arpt, MO, US",2025-09-12T05:15:00Z,2025-09-12 00:15:00,NA,21.2,16.7,0,0,0,NA,1019.4,METAR KSIK 120515Z AUTO 00000KT BKN095 21/17 A3010 RMK AO2 T02120167 PWINO $,2025-09-12T05:17:34Z,2025-09-12T01:17:34Z,Sikeston Memorial Municipal Airport,36.898899078369,-89.561798095703,US,US-MO
KSIY,"Montague/Siskiyou Cnty, CA, US",2025-09-12T04:53:00Z,2025-09-12 04:53:00,VFR,17.8,10.6,20,7,0,NA,1017.7,METAR KSIY 120453Z AUTO 02007KT 10SM SCT060 BKN110 18/11 A3005 RMK AO2 SLP172 T01780106,2025-09-12T05:00:59Z,2025-09-12T01:00:59Z,Siskiyou County Airport,41.781399,-122.468002,US,US-CA
KSJC,"San Jose Intl Arpt, CA, US",2025-09-12T04:53:00Z,2025-09-11 21:53:00,VFR,17.8,14.4,0,0,0,NA,1015.7,METAR KSJC 120453Z 00000KT 10SM FEW014 18/14 A2999 RMK AO2 SLP153 T01780144,2025-09-12T05:00:59Z,2025-09-12T01:00:59Z,Norman Y. Mineta San Jose International Airport,37.362452,-121.929188,US,US-CA
KSJN,"St Johns Ind Arpt, AZ, US",2025-09-12T04:54:00Z,2025-09-11 21:54:00,VFR,21.1,10.6,220,13,0,NA,1021.4,METAR KSJN 120454Z AUTO 22013KT 10SM CLR 21/11 A3016 RMK AO2 PK WND 24030/0415 RAB12E21 SLP113 P0000 T02110106,2025-09-12T05:00:59Z,2025-09-12T01:00:59Z,St Johns Industrial Air Park,34.51860046,-109.3789978,US,US-AZ
KSJT,"San Angelo/Mathis Fld, TX, US",2025-09-12T04:51:00Z,2025-09-11 23:51:00,VFR,22.8,11.7,150,6,0,NA,1020.1,METAR KSJT 120451Z AUTO 15006KT 10SM CLR 23/12 A3012 RMK AO2 SLP178 T02280117,2025-09-12T05:00:59Z,2025-09-12T01:00:59Z,San Angelo Regional Mathis Field,31.35770034790039,-100.49600219726562,US,US-TX
KSJX,"Beaver Island Arpt, MI, US",2025-09-12T04:55:00Z,2025-09-12 04:55:00,MVFR,11,11,100,3,0,3,1024.1,METAR KSJX 120455Z AUTO 10003KT 3SM BR CLR 11/11 A3024 RMK AO2,2025-09-12T05:00:59Z,2025-09-12T01:00:59Z,Beaver Island Airport,45.692299,-85.566597,US,US-MI
KSJX,"Beaver Island Arpt, MI, US",2025-09-12T05:15:00Z,2025-09-12 05:15:00,VFR,12,12,100,2,0,NA,1023.8,METAR KSJX 120515Z AUTO 10002KT 10SM BKN034 12/12 A3023 RMK AO2,2025-09-12T05:17:34Z,2025-09-12T01:17:34Z,Beaver Island Airport,45.692299,-85.566597,US,US-MI
KSLB,"Storm Lake Muni, IA, US",2025-09-12T04:55:00Z,2025-09-11 23:55:00,VFR,20,17,140,7,0,NA,1018.7,METAR KSLB 120455Z AUTO 14007KT 10SM CLR 20/17 A3008 RMK AO2,2025-09-12T05:01:02Z,2025-09-12T01:01:02Z,Storm Lake Municipal Airport,42.5973014832,-95.2406997681,US,US-IA
KSLC,"Salt Lake City Intl, UT, US",2025-09-12T04:54:00Z,2025-09-11 22:54:00,VFR,22.2,2.8,350,7,0,NA,1014.3,METAR KSLC 120454Z 35007KT 10SM FEW075 SCT110 BKN140 22/03 A2995 RMK AO2 SLP085 VCSH T02220028,2025-09-12T05:01:02Z,2025-09-12T01:01:02Z,Salt Lake City International Airport,40.78886,-111.979866,US,US-UT
KSLE,"Salem Muni, OR, US",2025-09-12T04:56:00Z,2025-09-11 21:56:00,VFR,15.6,11.1,290,3,0,NA,1018,METAR KSLE 120456Z AUTO 29003KT 10SM BKN047 16/11 A3006 RMK AO2 SLP179 T01560111,2025-09-12T05:01:02Z,2025-09-12T01:01:02Z,Salem-Willamette Valley Airport/McNary Field,44.9095,-123.002998,US,US-OR
KSLG,"Siloam Springs/Smith Fld, AR, US",2025-09-12T04:56:00Z,2025-09-11 23:56:00,VFR,20,20,0,0,0,NA,1020.7,METAR KSLG 120456Z AUTO 00000KT 10SM CLR 20/20 A3014 RMK AO2 SLP194 T02000200,2025-09-12T05:01:02Z,2025-09-12T01:01:02Z,Smith Field,36.191898,-94.489998,US,US-AR
KSLH,"Cheboygan Cnty Arpt, MI, US",2025-09-12T04:55:00Z,2025-09-12 04:55:00,VFR,12,11,VAR,1,0,NA,1024.5,METAR KSLH 120455Z AUTO VRB01KT 10SM SCT065 12/11 A3025 RMK AO2,2025-09-12T05:01:02Z,2025-09-12T01:01:02Z,Cheboygan County Airport,45.653702,-84.519302,US,US-MI
KSLK,"Saranac Lake/Adirondack Rgnl, NY, US",2025-09-12T04:58:00Z,2025-09-12 00:58:00,VFR,3.9,3.3,0,0,0,NA,1023.5,SPECI KSLK 120458Z AUTO 00000KT 10SM CLR 04/03 A3022 RMK AO2 T00390033,2025-09-12T05:01:02Z,2025-09-12T01:01:02Z,Adirondack Regional Airport,44.38691,-74.204629,US,US-NY
KSLN,"Salina Rgnl, KS, US",2025-09-12T04:53:00Z,2025-09-11 23:53:00,VFR,22.8,18.9,150,9,0,NA,1016.7,METAR KSLN 120453Z AUTO 15009KT 10SM CLR 23/19 A3002 RMK AO2 SLP152 T02280189,2025-09-12T05:01:02Z,2025-09-12T01:01:02Z,Salina Municipal Airport,38.79100036621094,-97.6521987915039,US,US-KS
KSLO,"Salem/Leckrone Arpt, IL, US",2025-09-12T04:55:00Z,2025-09-11 23:55:00,VFR,22.3,16.1,0,0,0,NA,1020.7,METAR KSLO 120455Z AUTO 00000KT 10SM CLR 22/16 A3014 RMK AO2 T02230161,2025-09-12T05:01:02Z,2025-09-12T01:01:02Z,Salem–Leckrone Airport,38.642899,-88.964203,US,US-IL
KSLR,"Sulphur Springs Muni, TX, US",2025-09-12T04:55:00Z,2025-09-11 23:55:00,VFR,23.4,20.8,0,0,0,NA,1020.1,METAR KSLR 120455Z AUTO 00000KT 10SM CLR 23/21 A3012 RMK AO2 T02340208 PWINO,2025-09-12T05:01:02Z,2025-09-12T01:01:02Z,Sulphur Springs Municipal Airport,33.159801483154,-95.621101379395,US,US-TX
KSMD,"Fort Wayne/Smith Fld, IN, US",2025-09-12T04:55:00Z,2025-09-12 00:55:00,VFR,16,11,0,0,0,NA,1023.5,METAR KSMD 120455Z AUTO 00000KT 10SM CLR 16/11 A3022 RMK A01,2025-09-12T05:01:02Z,2025-09-12T01:01:02Z,Smith Field,41.14339828,-85.15280151,US,US-IN
KSME,"Somerset/Lake Cumberland Rgnl, KY, US",2025-09-12T04:55:00Z,2025-09-12 00:55:00,VFR,17,17,0,0,0,NA,1021.1,METAR KSME 120455Z AUTO 00000KT 10SM CLR 17/17 A3015 RMK AO2,2025-09-12T05:01:02Z,2025-09-12T01:01:02Z,Lake Cumberland Regional Airport,37.0533981323,-84.6158981323,US,US-KY
KSMF,"Sacramento Intl, CA, US",2025-09-12T04:53:00Z,2025-09-11 21:53:00,VFR,21.7,15,200,7,0,NA,1013,METAR KSMF 120453Z 20007KT 10SM FEW250 22/15 A2991 RMK AO2 SLP128 T02170150,2025-09-12T05:01:02Z,2025-09-12T01:01:02Z,Sacramento International Airport,38.6954,-121.591003,US,US-CA
KSMN,"Salmon/Lemhi Cnty, ID, US",2025-09-12T04:56:00Z,2025-09-11 22:56:00,VFR,8.9,6.7,190,4,0,NA,1019,METAR KSMN 120456Z AUTO 19004KT 10SM CLR 09/07 A3009 RMK AO2 SLP179 T00890067,2025-09-12T05:01:02Z,2025-09-12T01:01:02Z,Lemhi County Airport,45.122233,-113.88196,US,US-ID
KSMO,"Santa Monica Muni, CA, US",2025-09-12T04:51:00Z,2025-09-11 21:51:00,VFR,19.4,17.2,0,0,0,NA,1013.3,METAR KSMO 120451Z 00000KT 10SM CLR 19/17 A2992 RMK AO2 SLP129 T01940172,2025-09-12T05:01:03Z,2025-09-12T01:01:03Z,Santa Monica Municipal Airport,34.0158,-118.450996,US,US-CA
KSMQ,"Somerville/Somerset Arpt, NJ, US",2025-09-12T04:53:00Z,2025-09-12 04:53:00,VFR,12.2,12.2,0,0,0,NA,1020.4,METAR KSMQ 120453Z AUTO 00000KT 10SM CLR 12/12 A3013 RMK AO2 SLP201 T01220122 402830111,2025-09-12T05:01:02Z,2025-09-12T01:01:02Z,Somerset Airport,40.625999450683594,-74.670196533203125,US,US-NJ
KSMS,"Sumter Muni, SC, US",2025-09-12T04:55:00Z,2025-09-12 00:55:00,VFR,17,17,0,0,0,NA,1020.1,METAR KSMS 120455Z AUTO 00000KT 10SM CLR 17/17 A3012 RMK AO2,2025-09-12T05:01:02Z,2025-09-12T01:01:02Z,Sumter Airport,33.994998931885,-80.361297607422,US,US-SC
KSMX,"Santa Maria/Hancock Fld, CA, US",2025-09-12T04:51:00Z,2025-09-11 21:51:00,VFR,15.6,14.4,260,3,0,8,1015,METAR KSMX 120451Z AUTO 26003KT 8SM CLR 16/14 A2997 RMK AO2 SLP151 T01560144 $,2025-09-12T05:01:03Z,2025-09-12T01:01:03Z,Santa Maria Public Airport Captain G Allan Hancock Field,34.898899,-120.457001,US,US-CA
KSNA,"Santa Ana/Wayne Arpt, CA, US",2025-09-12T04:53:00Z,2025-09-11 21:53:00,VFR,20.6,16.7,230,3,0,NA,1013.3,METAR KSNA 120453Z 23003KT 10SM CLR 21/17 A2992 RMK AO2 SLP131 T02060167,2025-09-12T05:01:02Z,2025-09-12T01:01:02Z,John Wayne Orange County International Airport,33.675701,-117.867996,US,US-CA
KSNC,"Chester Arpt, CT, US",2025-09-12T04:55:00Z,2025-09-12 04:55:00,VFR,15,14,320,5,0,NA,1021.1,METAR KSNC 120455Z AUTO 32005KT 10SM CLR 15/14 A3015 RMK AO2,2025-09-12T05:01:02Z,2025-09-12T01:01:02Z,Chester Airport,41.384177,-72.506011,US,US-CT
KSNC,"Chester Arpt, CT, US",2025-09-12T05:15:00Z,2025-09-12 05:15:00,VFR,15,14,0,0,0,NA,1020.7,METAR KSNC 120515Z AUTO 00000KT 10SM CLR 15/14 A3014 RMK AO2,2025-09-12T05:17:36Z,2025-09-12T01:17:36Z,Chester Airport,41.384177,-72.506011,US,US-CT
KSNH,"Savannah/Hardin Cnty, TN, US",2025-09-12T04:30:00Z,2025-09-12 04:30:00,VFR,22,22,VAR,3,0,NA,1019,METAR KSNH 120430Z AUTO VRB03KT 10SM FEW055 BKN070 OVC090 22/22 A3009 RMK A01,2025-09-12T05:01:03Z,2025-09-12T01:01:03Z,Savannah Hardin County Airport,35.1703987121582,-88.21589660644531,US,US-TN
KSNH,"Savannah/Hardin Cnty, TN, US",2025-09-12T04:50:00Z,2025-09-12 04:50:00,VFR,22,22,190,3,0,NA,1019,METAR KSNH 120450Z AUTO 19003KT 10SM FEW070 OVC095 22/22 A3009 RMK A01,2025-09-12T05:17:37Z,2025-09-12T01:17:37Z,Savannah Hardin County Airport,35.1703987121582,-88.21589660644531,US,US-TN
KSNK,"Snyder/Winston Fld, TX, US",2025-09-12T04:55:00Z,2025-09-11 23:55:00,VFR,26,8,160,9,0,NA,1021.4,METAR KSNK 120455Z AUTO 16009KT 10SM CLR 26/08 A3016 RMK AO2 T02600080,2025-09-12T05:01:02Z,2025-09-12T01:01:02Z,Winston Field,32.690212,-100.948918,US,US-TX
KSNK,"Snyder/Winston Fld, TX, US",2025-09-12T05:15:00Z,2025-09-12 00:15:00,VFR,25.5,8,160,8,0,NA,1021.1,METAR KSNK 120515Z AUTO 16008KT 10SM CLR 26/08 A3015 RMK AO2 T02550080,2025-09-12T05:17:36Z,2025-09-12T01:17:36Z,Winston Field,32.690212,-100.948918,US,US-TX
KSNL,"Shawnee Rgnl, OK, US",2025-09-12T04:55:00Z,2025-09-11 23:55:00,VFR,23.8,14.5,190,5,0,NA,1019,METAR KSNL 120455Z AUTO 19005KT 10SM CLR 24/15 A3009 RMK AO2 T02380145,2025-09-12T05:01:02Z,2025-09-12T01:01:02Z,Shawnee Regional Airport,35.357898712158,-96.942802429199,US,US-OK
KSNS,"Salinas Muni, CA, US",2025-09-12T04:53:00Z,2025-09-11 21:53:00,VFR,17.8,13.9,350,7,0,NA,1015.7,METAR KSNS 120453Z 35007KT 10SM CLR 18/14 A2999 RMK AO2 SLP163 T01780139,2025-09-12T05:01:03Z,2025-09-12T01:01:03Z,Salinas Municipal Airport,36.662799835205,-121.60600280762,US,US-CA
KSNY,"Sidney/Carr Fld, NE, US",2025-09-12T04:53:00Z,2025-09-11 22:53:00,VFR,16.7,10,260,5,0,NA,1017.4,METAR KSNY 120453Z AUTO 26005KT 10SM CLR 17/10 A3004 RMK AO2 SLP127 T01670100,2025-09-12T05:01:03Z,2025-09-12T01:01:03Z,Sidney Municipal Airport Lloyd W Carr Field,41.101299,-102.985001,US,US-NE
KSOA,"Sonora Muni, TX, US",2025-09-12T04:55:00Z,2025-09-12 04:55:00,VFR,20,16,0,0,0,NA,1022.4,METAR KSOA 120455Z AUTO 00000KT 10SM CLR 20/16 A3019 RMK AO2,2025-09-12T05:01:02Z,2025-09-12T01:01:02Z,Sonora Municipal Airport,30.585699081421,-100.6490020752,US,US-TX
KSOP,"Southern Pines/Moore Cnty, NC, US",2025-09-12T04:56:00Z,2025-09-12 00:56:00,VFR,17.2,17.2,0,0,0,NA,1021.1,METAR KSOP 120456Z AUTO 00000KT 10SM CLR 17/17 A3015 RMK AO2 SLP212 T01720172 $,2025-09-12T05:01:02Z,2025-09-12T01:01:02Z,Moore County Airport,35.237184,-79.389381,US,US-NC
KSOW,"Show Low Muni, AZ, US",2025-09-12T04:55:00Z,2025-09-11 21:55:00,VFR,15,13,180,6,0,NA,1024.1,METAR KSOW 120455Z AUTO 18006KT 10SM CLR 15/13 A3024 RMK AO2,2025-09-12T05:01:02Z,2025-09-12T01:01:02Z,Show Low Regional Airport,34.264062,-110.007091,US,US-AZ
KSOW,"Show Low Muni, AZ, US",2025-09-12T05:15:00Z,2025-09-11 22:15:00,VFR,15,13,210,7,0,NA,1024.1,METAR KSOW 120515Z AUTO 21007KT 10SM CLR 15/13 A3024 RMK AO2,2025-09-12T05:17:36Z,2025-09-12T01:17:36Z,Show Low Regional Airport,34.264062,-110.007091,US,US-AZ
KSPA,"Spartanburg/Downtown Arpt, SC, US",2025-09-12T04:35:00Z,2025-09-12 00:35:00,NA,17,13,0,0,0,NA,1021.1,METAR KSPA 120435Z AUTO 00000KT 10SM 17/13 A3015 RMK AO2,2025-09-12T05:01:03Z,2025-09-12T01:01:03Z,Spartanburg Downtown Memorial Airport,34.915699005127,-81.956497192383,US,US-SC
KSPA,"Spartanburg/Downtown Arpt, SC, US",2025-09-12T04:50:00Z,2025-09-12 00:50:00,VFR,17,13,10,4,0,NA,1021.1,METAR KSPA 120450Z AUTO 01004KT 10SM SCT060 17/13 A3015 RMK AO2,2025-09-12T05:17:37Z,2025-09-12T01:17:37Z,Spartanburg Downtown Memorial Airport,34.915699005127,-81.956497192383,US,US-SC
KSPB,"Scappoose Ind Arpk, OR, US",2025-09-12T04:53:00Z,2025-09-12 04:53:00,MVFR,16.7,12.2,360,4,0,NA,1018,METAR KSPB 120453Z AUTO 36004KT 10SM OVC029 17/12 A3006 RMK AO2 SLP178 T01670122,2025-09-12T05:01:02Z,2025-09-12T01:01:02Z,Scappoose Industrial Airpark,45.771,-122.862,US,US-OR
KSPF,"Spearfish/Clyde Fld, SD, US",2025-09-12T04:55:00Z,2025-09-11 22:55:00,VFR,17,16,220,3,0,NA,1016.3,METAR KSPF 120455Z AUTO 22003KT 10SM CLR 17/16 A3001 RMK AO2,2025-09-12T05:01:02Z,2025-09-12T01:01:02Z,Black Hills Airport-Clyde Ice Field,44.48030090332,-103.78299713135,US,US-SD
KSPF,"Spearfish/Clyde Fld, SD, US",2025-09-12T05:15:00Z,2025-09-11 23:15:00,VFR,17,16,210,9,0,NA,1015.7,METAR KSPF 120515Z AUTO 21009KT 10SM CLR 17/16 A2999 RMK AO2,2025-09-12T05:17:36Z,2025-09-12T01:17:36Z,Black Hills Airport-Clyde Ice Field,44.48030090332,-103.78299713135,US,US-SD
KSPG,"St Petersburg/Whitted Arpt, FL, US",2025-09-12T04:53:00Z,2025-09-12 00:53:00,NA,26.1,22.8,40,15,0,NA,1016,METAR KSPG 120453Z AUTO 04015KT 10SM 26/23 A3000 RMK AO2 SLP158 T02610228 403060250 $,2025-09-12T05:01:03Z,2025-09-12T01:01:03Z,Albert Whitted Airport,27.7651,-82.626999,US,US-FL
KSPI,"Springfield/Lincoln Capital Arpt, IL, US",2025-09-12T04:52:00Z,2025-09-11 23:52:00,VFR,17.8,14.4,70,3,0,NA,1021.1,METAR KSPI 120452Z AUTO 07003KT 10SM CLR 18/14 A3015 RMK AO2 SLP204 T01780144,2025-09-12T05:01:03Z,2025-09-12T01:01:03Z,Abraham Lincoln Capital Airport,39.844101,-89.677902,US,US-IL
KSPK,"Spanish Fork Muni, UT, US",2025-09-12T04:35:00Z,2025-09-12 04:35:00,VFR,18,2,0,0,0,NA,1015.7,METAR KSPK 120435Z AUTO 00000KT 10SM CLR 18/02 A2999 RMK AO2,2025-09-12T05:01:03Z,2025-09-12T01:01:03Z,Spanish Fork Municipal Airport/Woodhouse Field,40.145027,-111.667694,US,US-UT
KSPK,"Spanish Fork Muni, UT, US",2025-09-12T04:55:00Z,2025-09-12 04:55:00,VFR,19,1,130,4,0,NA,1015.7,METAR KSPK 120455Z AUTO 13004KT 10SM CLR 19/01 A2999 RMK AO2,2025-09-12T05:17:36Z,2025-09-12T01:17:36Z,Spanish Fork Municipal Airport/Woodhouse Field,40.145027,-111.667694,US,US-UT
KSPS,"Wichita Falls Rgnl, TX, US",2025-09-12T04:52:00Z,2025-09-11 23:52:00,VFR,24.4,16.1,170,8,0,NA,1018.4,METAR KSPS 120452Z 17008KT 10SM CLR 24/16 A3007 RMK AO2 SLP168 T02440161,2025-09-12T05:01:03Z,2025-09-12T01:01:03Z,Wichita Falls Municipal Airport / Sheppard Air Force Base,33.9888,-98.491898,US,US-TX
KSPW,"Spencer Muni, IA, US",2025-09-12T04:53:00Z,2025-09-11 23:53:00,VFR,19.4,14.4,130,8,0,NA,1018.7,METAR KSPW 120453Z AUTO 13008KT 10SM CLR 19/14 A3008 RMK AO2 SLP180 T01940144,2025-09-12T05:01:02Z,2025-09-12T01:01:02Z,Spencer Municipal Airport,43.165500640869,-95.202796936035,US,US-IA
KSQI,"Sterling-Rock Falls Arpt, IL, US",2025-09-12T04:56:00Z,2025-09-11 23:56:00,VFR,14.4,14.4,70,5,0,NA,1022.8,METAR KSQI 120456Z AUTO 07005KT 10SM CLR 14/14 A3020 RMK AO2 SLP225 T01440144,2025-09-12T05:01:02Z,2025-09-12T01:01:02Z,Whiteside County Airport - Joseph H Bittorf Field,41.742175,-89.673629,US,US-IL
KSQL,"San Carlos Arpt, CA, US",2025-09-12T04:55:00Z,2025-09-11 21:55:00,VFR,18,15,270,5,0,NA,1015.7,METAR KSQL 120455Z AUTO 27005KT 10SM CLR 18/15 A2999 RMK AO2,2025-09-12T05:01:02Z,2025-09-12T01:01:02Z,San Carlos Airport,37.51313,-122.250838,US,US-CA
KSQL,"San Carlos Arpt, CA, US",2025-09-12T05:15:00Z,2025-09-11 22:15:00,VFR,18,15,0,0,0,NA,1015.7,METAR KSQL 120515Z AUTO 00000KT 10SM CLR 18/15 A2999 RMK AO2,2025-09-12T05:17:36Z,2025-09-12T01:17:36Z,San Carlos Airport,37.51313,-122.250838,US,US-CA
KSRB,"Sparta/Upper Cumberland Rgnl, TN, US",2025-09-12T04:35:00Z,2025-09-12 04:35:00,MVFR,15,15,0,0,0,4,1021.4,METAR KSRB 120435Z AUTO 00000KT 4SM BR CLR 15/15 A3016 RMK A01,2025-09-12T05:01:03Z,2025-09-12T01:01:03Z,Upper Cumberland Regional Airport,36.055901,-85.530701,US,US-TN
KSRB,"Sparta/Upper Cumberland Rgnl, TN, US",2025-09-12T04:55:00Z,2025-09-12 04:55:00,MVFR,14,14,0,0,0,3,1021.4,METAR KSRB 120455Z AUTO 00000KT 3SM BR CLR 14/14 A3016 RMK A01,2025-09-12T05:17:36Z,2025-09-12T01:17:36Z,Upper Cumberland Regional Airport,36.055901,-85.530701,US,US-TN
KSRC,"Searcy Muni, AR, US",2025-09-12T04:56:00Z,2025-09-12 04:56:00,VFR,20.6,19.4,0,0,0,NA,1019.7,METAR KSRC 120456Z AUTO 00000KT 10SM CLR 21/19 A3011 RMK AO2 SLP191 T02060194 $,2025-09-12T05:01:02Z,2025-09-12T01:01:02Z,Searcy Municipal Airport,35.210602,-91.737503,US,US-AR
KSRE,"Seminole Muni, OK, US",2025-09-12T04:35:00Z,2025-09-12 04:35:00,VFR,22,17,140,4,0,NA,1019,METAR KSRE 120435Z AUTO 14004KT 10SM CLR 22/17 A3009 RMK AO2,2025-09-12T05:01:03Z,2025-09-12T01:01:03Z,Seminole Municipal Airport,35.2747,-96.675201,US,US-OK
KSRE,"Seminole Muni, OK, US",2025-09-12T04:55:00Z,2025-09-12 04:55:00,VFR,22,17,0,0,0,9,1018.7,METAR KSRE 120455Z AUTO 00000KT 9SM CLR 22/17 A3008 RMK AO2,2025-09-12T05:17:36Z,2025-09-12T01:17:36Z,Seminole Municipal Airport,35.2747,-96.675201,US,US-OK
KSRR,"Ruidoso Rgnl, NM, US",2025-09-12T04:55:00Z,2025-09-11 22:55:00,VFR,17,3,120,5,0,NA,1028.5,METAR KSRR 120455Z AUTO 12005KT 10SM CLR 17/03 A3037 RMK AO2,2025-09-12T05:01:02Z,2025-09-12T01:01:02Z,Sierra Blanca Regional Airport,33.462799,-105.535004,US,US-NM
KSSF,"San Antonio/Stinson Muni, TX, US",2025-09-12T04:53:00Z,2025-09-11 23:53:00,VFR,27.8,21.1,140,10,15,NA,1018.4,METAR KSSF 120453Z AUTO 14010G15KT 10SM CLR 28/21 A3007 RMK AO2 SLP170 T02780211 $,2025-09-12T05:01:02Z,2025-09-12T01:01:02Z,Stinson Municipal Airport,29.336999893188,-98.471099853516,US,US-TX
KSSI,"Brunswick/McKinnon St Simons Arpt, GA, US",2025-09-12T04:55:00Z,2025-09-12 00:55:00,VFR,22,22,350,4,0,NA,1017.7,METAR KSSI 120455Z AUTO 35004KT 10SM CLR 22/22 A3005 RMK AO2,2025-09-12T05:01:02Z,2025-09-12T01:01:02Z,St Simons Island Airport,31.1518,-81.391296,US,US-GA
KSTC,"St Cloud Rgnl, MN, US",2025-09-12T04:53:00Z,2025-09-11 23:53:00,VFR,17.2,15,110,5,0,NA,1019.4,METAR KSTC 120453Z AUTO 11005KT 10SM CLR 17/15 A3010 RMK AO2 SLP201 T01720150,2025-09-12T05:01:02Z,2025-09-12T01:01:02Z,Saint Cloud Regional Airport,45.5466,-94.059898,US,US-MN
KSTF,"Starkville/Bryan Arpt, MS, US",2025-09-12T04:55:00Z,2025-09-12 04:55:00,VFR,21,21,0,0,0,9,1018.7,METAR KSTF 120455Z AUTO 00000KT 9SM CLR 21/21 A3008 RMK AO2,2025-09-12T05:01:02Z,2025-09-12T01:01:02Z,George M Bryan Airport,33.43310165,-88.84860229,US,US-MS
KSTF,"Starkville/Bryan Arpt, MS, US",2025-09-12T05:15:00Z,2025-09-12 05:15:00,VFR,21,21,0,0,0,9,1018.7,METAR KSTF 120515Z AUTO 00000KT 9SM CLR 21/21 A3008 RMK AO2,2025-09-12T05:17:36Z,2025-09-12T01:17:36Z,George M Bryan Airport,33.43310165,-88.84860229,US,US-MS
KSTJ,"St Joseph/Rosecrans Mem, MO, US",2025-09-12T04:53:00Z,2025-09-11 23:53:00,VFR,22.2,17.8,150,5,0,NA,1018.4,METAR KSTJ 120453Z 15005KT 10SM BKN110 22/18 A3007 RMK AO2 SLP176 T02220178,2025-09-12T05:01:02Z,2025-09-12T01:01:02Z,Rosecrans Memorial Airport,39.771900177002,-94.909698486328,US,US-MO
KSTL,"St Louis/Lambert Intl, MO, US",2025-09-12T04:51:00Z,2025-09-11 23:51:00,VFR,22.8,14.4,0,0,0,NA,1020.4,METAR KSTL 120451Z 00000KT 10SM FEW070 23/14 A3013 RMK AO2 SLP190 T02280144 $,2025-09-12T05:01:03Z,2025-09-12T01:01:03Z,St. Louis Lambert International Airport,38.748697,-90.370003,US,US-MO
KSTP,"Saint Paul/Downtown Arpt, MN, US",2025-09-12T04:53:00Z,2025-09-11 23:53:00,VFR,18.3,15,140,7,0,NA,1020.4,METAR KSTP 120453Z AUTO 14007KT 10SM CLR 18/15 A3013 RMK AO2 SLP201 T01830150,2025-09-12T05:01:03Z,2025-09-12T01:01:03Z,Saint Paul Downtown Holman Field,44.93479,-93.060036,US,US-MN
KSTS,"Santa Rosa/Schulz Arpt, CA, US",2025-09-12T04:53:00Z,2025-09-11 21:53:00,VFR,17.8,13.9,180,4,0,NA,1014.6,METAR KSTS 120453Z AUTO 18004KT 10SM CLR 18/14 A2996 RMK AO2 SLP138 T01780139,2025-09-12T05:01:02Z,2025-09-12T01:01:02Z,Charles M. Schulz Sonoma County Airport,38.50899887,-122.8130035,US,US-CA
KSUA,"Stuart/Witham Fld, FL, US",2025-09-12T04:35:00Z,2025-09-12 00:35:00,VFR,28,26,0,0,0,NA,1014.3,METAR KSUA 120435Z AUTO 00000KT 10SM VCTS FEW023 FEW030 SCT065 28/26 A2995 RMK AO2 LTG DSNT ALQDS,2025-09-12T05:01:03Z,2025-09-12T01:01:03Z,Witham Field,27.18169975,-80.22109985,US,US-FL
KSUA,"Stuart/Witham Fld, FL, US",2025-09-12T04:50:00Z,2025-09-12 00:50:00,MVFR,28,26,220,6,0,NA,1014.3,METAR KSUA 120450Z AUTO 22006KT 10SM VCTS SCT024 BKN029 BKN043 28/26 A2995 RMK AO2 LTG DSNT NE AND E AND SW,2025-09-12T05:17:37Z,2025-09-12T01:17:37Z,Witham Field,27.18169975,-80.22109985,US,US-FL
KSUE,"Sturgeon Bay/Door Cnty, WI, US",2025-09-12T04:57:00Z,2025-09-11 23:57:00,IFR,12.2,11.7,0,0,0,2,1024.5,METAR KSUE 120457Z AUTO 00000KT 2SM BR CLR 12/12 A3025 RMK AO2 SLP242 T01220117,2025-09-12T05:01:02Z,2025-09-12T01:01:02Z,Door County Cherryland Airport,44.84370041,-87.42150116,US,US-WI
KSUE,"Sturgeon Bay/Door Cnty, WI, US",2025-09-12T05:08:00Z,2025-09-12 00:08:00,IFR,12,12,0,0,0,1,1024.1,SPECI KSUE 120508Z AUTO 00000KT 1SM BR CLR 12/12 A3024 RMK AO2 VIS 1/4V5 RVRNO,2025-09-12T05:17:36Z,2025-09-12T01:17:36Z,Door County Cherryland Airport,44.84370041,-87.42150116,US,US-WI
KSUN,"Hailey/Friedman Mem, ID, US",2025-09-12T04:47:00Z,2025-09-11 22:47:00,VFR,13,6,310,5,0,NA,1020.1,METAR KSUN 120447Z 31005KT 10SM CLR 13/06 A3012,2025-09-12T05:01:03Z,2025-09-12T01:01:03Z,Friedman Memorial Airport,43.50439835,-114.2959976,US,US-ID
KSUO,"Rosebud/Sioux Tribal Arpt, SD, US",2025-09-12T04:35:00Z,2025-09-12 04:35:00,MVFR,23,19,170,13,19,4,1012.6,METAR KSUO 120435Z AUTO 17013G19KT 4SM HZ CLR 23/19 A2990 RMK AO2,2025-09-12T05:01:03Z,2025-09-12T01:01:03Z,Rosebud Sioux Tribal Airport,43.2585,-100.85952,US,US-SD
KSUO,"Rosebud/Sioux Tribal Arpt, SD, US",2025-09-12T04:55:00Z,2025-09-12 04:55:00,NA,23,19,170,12,0,3,1012.6,METAR KSUO 120455Z AUTO 17012KT 3SM HZ 23/19 A2990 RMK AO2,2025-09-12T05:17:37Z,2025-09-12T01:17:37Z,Rosebud Sioux Tribal Airport,43.2585,-100.85952,US,US-SD
KSUS,"St Louis/Spirit of St Louis Arpt, MO, US",2025-09-12T04:54:00Z,2025-09-11 23:54:00,VFR,17.8,16.7,0,0,0,7,1019.7,METAR KSUS 120454Z 00000KT 7SM CLR 18/17 A3011 RMK AO2 SLP190 T01780167,2025-09-12T05:01:02Z,2025-09-12T01:01:02Z,Spirit of St Louis Airport,38.662102,-90.652,US,US-MO
KSUT,"Southport/Cape Fear Rgnl, NC, US",2025-09-12T04:45:00Z,2025-09-12 04:45:00,VFR,20,19,20,4,0,NA,1018.7,METAR KSUT 120445Z AUTO 02004KT 10SM OVC075 20/19 A3008 RMK AO2,2025-09-12T05:01:03Z,2025-09-12T01:01:03Z,Cape Fear Regional Jetport / Howie Franklin Field Airport,33.929298,-78.074997,US,US-NC
KSUT,"Southport/Cape Fear Rgnl, NC, US",2025-09-12T05:05:00Z,2025-09-12 05:05:00,VFR,20,19,10,5,0,NA,1018.7,METAR KSUT 120505Z AUTO 01005KT 10SM BKN075 20/19 A3008 RMK AO2,2025-09-12T05:17:36Z,2025-09-12T01:17:36Z,Cape Fear Regional Jetport / Howie Franklin Field Airport,33.929298,-78.074997,US,US-NC
KSUW,"Superior/Bong Arpt, WI, US",2025-09-12T04:55:00Z,2025-09-11 23:55:00,LIFR,13.6,13,50,4,0,NA,1022.4,METAR KSUW 120455Z AUTO 05004KT 10SM OVC004 14/13 A3019 RMK AO2 T01360130,2025-09-12T05:01:02Z,2025-09-12T01:01:02Z,Richard I Bong Memorial Airport,46.688612,-92.095041,US,US-WI
KSUW,"Superior/Bong Arpt, WI, US",2025-09-12T05:15:00Z,2025-09-12 00:15:00,LIFR,13.8,13.1,40,4,0,NA,1022.4,METAR KSUW 120515Z AUTO 04004KT 10SM OVC004 14/13 A3019 RMK AO2 T01380131,2025-09-12T05:17:36Z,2025-09-12T01:17:36Z,Richard I Bong Memorial Airport,46.688612,-92.095041,US,US-WI
KSUX,"Sioux City/Day Fld, IA, US",2025-09-12T04:52:00Z,2025-09-11 23:52:00,VFR,20,18.3,130,7,0,NA,1016.7,METAR KSUX 120452Z AUTO 13007KT 10SM CLR 20/18 A3002 RMK AO2 SLP157 T02000183,2025-09-12T05:01:03Z,2025-09-12T01:01:03Z,Sioux Gateway Airport / Brigadier General Bud Day Field,42.397605,-96.382237,US,US-IA
KSUZ,"Benton/Saline Cnty, AR, US",2025-09-12T04:55:00Z,2025-09-12 04:55:00,VFR,21,21,0,0,0,9,1019.4,METAR KSUZ 120455Z AUTO 00000KT 9SM CLR 21/21 A3010 RMK A01,2025-09-12T05:01:02Z,2025-09-12T01:01:02Z,Saline County Regional Airport,34.590599,-92.479401,US,US-AR
KSUZ,"Benton/Saline Cnty, AR, US",2025-09-12T05:15:00Z,2025-09-12 05:15:00,VFR,21,20,0,0,0,9,1019.4,METAR KSUZ 120515Z AUTO 00000KT 9SM CLR 21/20 A3010 RMK A01,2025-09-12T05:17:36Z,2025-09-12T01:17:36Z,Saline County Regional Airport,34.590599,-92.479401,US,US-AR
KSVC,"Silver City/Grant Cnty, NM, US",2025-09-12T04:55:00Z,2025-09-11 22:55:00,VFR,21.7,10,360,6,0,NA,1022.1,METAR KSVC 120455Z AUTO 36006KT 10SM CLR 22/10 A3018 RMK AO2 T02170100,2025-09-12T05:01:02Z,2025-09-12T01:01:02Z,Grant County Airport,32.636701,-108.154736,US,US-NM
KSVE,"Susanville Muni, CA, US",2025-09-12T04:35:00Z,2025-09-11 21:35:00,VFR,14,11,360,3,0,NA,1019.4,METAR KSVE 120435Z AUTO 36003KT 10SM SCT070 OVC110 14/11 A3010 RMK A01 P000,2025-09-12T05:01:03Z,2025-09-12T01:01:03Z,Susanville Municipal Airport,40.375702,-120.572998,US,US-CA
KSVE,"Susanville Muni, CA, US",2025-09-12T04:55:00Z,2025-09-11 21:55:00,VFR,13,11,VAR,NA,0,NA,1019.4,METAR KSVE 120455Z AUTO 10SM FEW080 BKN110 13/11 A3010 RMK A01 P000,2025-09-12T05:17:36Z,2025-09-12T01:17:36Z,Susanville Municipal Airport,40.375702,-120.572998,US,US-CA
KSVH,"Statesville Muni, NC, US",2025-09-12T04:45:00Z,2025-09-12 00:45:00,VFR,15.1,13.8,0,0,0,NA,1021.4,METAR KSVH 120445Z AUTO 00000KT 10SM CLR 15/14 A3016 RMK AO2 T01510138,2025-09-12T05:01:03Z,2025-09-12T01:01:03Z,Statesville Regional Airport,35.765301,-80.953903,US,US-NC
KSVH,"Statesville Muni, NC, US",2025-09-12T05:05:00Z,2025-09-12 01:05:00,VFR,15.1,14,0,0,0,NA,1021.8,METAR KSVH 120505Z AUTO 00000KT 10SM CLR 15/14 A3017 RMK AO2 T01510140,2025-09-12T05:17:36Z,2025-09-12T01:17:36Z,Statesville Regional Airport,35.765301,-80.953903,US,US-NC
KSWF,"Newburgh/Stewart Intl, NY, US",2025-09-12T04:45:00Z,2025-09-12 00:45:00,VFR,15,13,0,0,0,NA,1021.4,METAR KSWF 120445Z 00000KT 10SM SCT050 15/13 A3016,2025-09-12T05:01:03Z,2025-09-12T01:01:03Z,New York Stewart International Airport,41.504101,-74.104797,US,US-NY
KSWO,"Stillwater Muni, OK, US",2025-09-12T04:53:00Z,2025-09-11 23:53:00,VFR,23.9,16.7,170,7,0,NA,1018.4,METAR KSWO 120453Z AUTO 17007KT 10SM CLR 24/17 A3007 RMK AO2 SLPNO T02390167 PWINO $,2025-09-12T05:01:02Z,2025-09-12T01:01:02Z,Stillwater Regional Airport,36.162132,-97.085581,US,US-OK
KSWW,"Sweetwater/Avenger Fld, TX, US",2025-09-12T04:55:00Z,2025-09-11 23:55:00,NA,24.6,8,170,7,0,NA,1022.1,METAR KSWW 120455Z AUTO 17007KT 10SM 25/08 A3018 RMK AO2 T02460080,2025-09-12T05:01:02Z,2025-09-12T01:01:02Z,Avenger Field,32.467399597168,-100.46700286865,US,US-TX
KSXK,"Maurice/Sioux Cnty Rgnl, IA, US",2025-09-12T04:55:00Z,2025-09-12 04:55:00,VFR,21,18,130,11,0,NA,1016.3,METAR KSXK 120455Z AUTO 13011KT 10SM FEW055 SCT070 21/18 A3001 RMK AO2,2025-09-12T05:01:02Z,2025-09-12T01:01:02Z,Sioux County Regional Airport,42.9858275,-96.1614,US,US-IA
KSYF,"St Francis/Cheyenne Cnty, KS, US",2025-09-12T04:55:00Z,2025-09-12 04:55:00,VFR,23,13,210,10,0,NA,1016.3,METAR KSYF 120455Z AUTO 21010KT 10SM CLR 23/13 A3001 RMK AO2 403630162,2025-09-12T05:01:02Z,2025-09-12T01:01:02Z,Cheyenne County Municipal Airport,39.76110077,-101.7959976,US,US-KS
KSYI,"Shelbyville/Bomar Fld, TN, US",2025-09-12T04:35:00Z,2025-09-11 23:35:00,VFR,18,18,0,0,0,NA,1020.7,METAR KSYI 120435Z AUTO 00000KT 10SM CLR 18/18 A3014 RMK A01,2025-09-12T05:01:03Z,2025-09-12T01:01:03Z,Bomar Field / Shelbyville Municipal Airport,35.560101,-86.442497,US,US-TN
KSYI,"Shelbyville/Bomar Fld, TN, US",2025-09-12T04:50:00Z,2025-09-11 23:50:00,VFR,18,18,0,0,0,6,1020.7,METAR KSYI 120450Z AUTO 00000KT 6SM BR CLR 18/18 A3014 RMK A01,2025-09-12T05:17:37Z,2025-09-12T01:17:37Z,Bomar Field / Shelbyville Municipal Airport,35.560101,-86.442497,US,US-TN
KSYN,"Stanton Arpt, MN, US",2025-09-12T04:55:00Z,2025-09-11 23:55:00,VFR,18.9,15.1,140,8,0,NA,1020.4,METAR KSYN 120455Z AUTO 14008KT 10SM CLR 19/15 A3013 RMK AO2 T01890151,2025-09-12T05:01:02Z,2025-09-12T01:01:02Z,Stanton Airfield,44.475579,-93.016756,US,US-MN
KSYN,"Stanton Arpt, MN, US",2025-09-12T05:15:00Z,2025-09-12 00:15:00,VFR,19,15.1,140,8,0,NA,1020.4,METAR KSYN 120515Z AUTO 14008KT 10SM CLR 19/15 A3013 RMK AO2 T01900151,2025-09-12T05:17:36Z,2025-09-12T01:17:36Z,Stanton Airfield,44.475579,-93.016756,US,US-MN
KSYR,"Syracuse/Hancock Intl, NY, US",2025-09-12T04:54:00Z,2025-09-12 00:54:00,VFR,15,13.3,0,0,0,NA,1022.8,METAR KSYR 120454Z 00000KT 10SM FEW085 15/13 A3020 RMK AO2 SLP224 T01500133 402560100,2025-09-12T05:01:02Z,2025-09-12T01:01:02Z,Syracuse Hancock International Airport,43.11119842529297,-76.1063003540039,US,US-NY
KSZT,"Sandpoint Arpt, ID, US",2025-09-12T04:30:00Z,2025-09-12 04:30:00,VFR,16,9,0,0,0,NA,1013.3,METAR KSZT 120430Z AUTO 00000KT 10SM CLR 16/09 A2992 RMK AO2,2025-09-12T05:01:03Z,2025-09-12T01:01:03Z,Sandpoint Airport,48.299499511719,-116.55999755859,US,US-ID
KSZT,"Sandpoint Arpt, ID, US",2025-09-12T04:50:00Z,2025-09-12 04:50:00,VFR,18,8,10,4,0,NA,1013,METAR KSZT 120450Z AUTO 01004KT 10SM CLR 18/08 A2991 RMK AO2,2025-09-12T05:17:37Z,2025-09-12T01:17:37Z,Sandpoint Airport,48.299499511719,-116.55999755859,US,US-ID
KT20,"Gonzales Muni, TX, US",2025-09-12T04:55:00Z,2025-09-12 04:55:00,VFR,26.6,22.2,140,6,0,NA,1019,METAR KT20 120455Z AUTO 14006KT 10SM CLR 27/22 A3009 RMK AO2 T02660222,2025-09-12T05:01:02Z,2025-09-12T01:01:02Z,Roger M Dreyer Memorial Airport,29.52915,-97.464345,US,US-TX
KT35,"Cameron Muni, TX, US",2025-09-12T04:55:00Z,2025-09-12 04:55:00,VFR,25.5,20.8,180,6,0,NA,1019,METAR KT35 120455Z AUTO 18006KT 10SM CLR 26/21 A3009 RMK AO2 T02550208,2025-09-12T05:01:02Z,2025-09-12T01:01:02Z,Cameron Municipal Airpark,30.8794002532959,-96.971099853515625,US,US-TX
KT41,"La Porte Muni, TX, US",2025-09-12T04:30:00Z,2025-09-12 04:30:00,VFR,24.6,22.5,0,0,0,NA,1018.7,METAR KT41 120430Z AUTO 00000KT 10SM CLR 25/23 A3008 RMK AO2 TSNO T02460225,2025-09-12T05:01:03Z,2025-09-12T01:01:03Z,La Porte Municipal Airport,29.6693,-95.064201,US,US-TX
KT41,"La Porte Muni, TX, US",2025-09-12T04:50:00Z,2025-09-12 04:50:00,VFR,24.2,22.6,0,0,0,NA,1018.7,METAR KT41 120450Z AUTO 00000KT 10SM CLR 24/23 A3008 RMK AO2 TSNO T02420226,2025-09-12T05:17:37Z,2025-09-12T01:17:37Z,La Porte Municipal Airport,29.6693,-95.064201,US,US-TX
KT69,"Sinton/Thomas Arpt, TX, US",2025-09-12T04:55:00Z,2025-09-12 04:55:00,VFR,26,25,0,0,0,9,1017.7,METAR KT69 120455Z AUTO 00000KT 9SM CLR 26/25 A3005 RMK A01,2025-09-12T05:01:02Z,2025-09-12T01:01:02Z,Alfred C 'Bubba' Thomas Airport,28.0392,-97.542397,US,US-TX
KT69,"Sinton/Thomas Arpt, TX, US",2025-09-12T05:15:00Z,2025-09-12 05:15:00,VFR,26,25,0,0,0,9,1017.4,METAR KT69 120515Z AUTO 00000KT 9SM CLR 26/25 A3004 RMK A01,2025-09-12T05:17:36Z,2025-09-12T01:17:36Z,Alfred C 'Bubba' Thomas Airport,28.0392,-97.542397,US,US-TX
KT74,"Taylor Muni, TX, US",2025-09-12T04:55:00Z,2025-09-12 04:55:00,VFR,26,20,160,7,0,NA,1021.1,METAR KT74 120455Z AUTO 16007KT 10SM CLR 26/20 A3015 RMK AO2,2025-09-12T05:01:02Z,2025-09-12T01:01:02Z,Taylor Municipal Airport,30.572599,-97.443199,US,US-TX
KT78,"Liberty Muni, TX, US",2025-09-12T04:55:00Z,2025-09-12 04:55:00,VFR,22,22,0,0,0,7,1018.4,METAR KT78 120455Z AUTO 00000KT 7SM CLR 22/22 A3007 RMK AO2,2025-09-12T05:01:02Z,2025-09-12T01:01:02Z,Liberty Municipal Airport,30.077801,-94.698601,US,US-TX
KT78,"Liberty Muni, TX, US",2025-09-12T05:15:00Z,2025-09-12 05:15:00,MVFR,22,22,0,0,0,5,1018.4,METAR KT78 120515Z AUTO 00000KT 5SM BR CLR 22/22 A3007 RMK AO2,2025-09-12T05:17:36Z,2025-09-12T01:17:36Z,Liberty Municipal Airport,30.077801,-94.698601,US,US-TX
KT82,"Fredericksburg/Gillespie Cnty, TX, US",2025-09-12T04:55:00Z,2025-09-12 04:55:00,VFR,23,18.5,0,0,0,NA,1021.1,METAR KT82 120455Z AUTO 00000KT 10SM CLR 23/19 A3015 RMK AO2 T02300185,2025-09-12T05:01:02Z,2025-09-12T01:01:02Z,Gillespie County Airport,30.2432,-98.909203,US,US-TX
KT82,"Fredericksburg/Gillespie Cnty, TX, US",2025-09-12T05:15:00Z,2025-09-12 05:15:00,VFR,23,18.6,0,0,0,NA,1021.1,METAR KT82 120515Z AUTO 00000KT 10SM CLR 23/19 A3015 RMK AO2 T02300186,2025-09-12T05:17:36Z,2025-09-12T01:17:36Z,Gillespie County Airport,30.2432,-98.909203,US,US-TX
KTAD,"Trinidad/Stokes Arpt, CO, US",2025-09-12T04:54:00Z,2025-09-11 22:54:00,VFR,16.1,10,0,0,0,NA,1023.8,METAR KTAD 120454Z AUTO 00000KT 10SM CLR 16/10 A3023 RMK AO2 SLP152 T01610100,2025-09-12T05:01:02Z,2025-09-12T01:01:02Z,Perry Stokes Airport,37.2593994141,-104.341003418,US,US-CO
KTAN,"Taunton Muni, MA, US",2025-09-12T04:52:00Z,2025-09-12 04:52:00,VFR,11.1,11.1,0,0,0,NA,1020.1,METAR KTAN 120452Z AUTO 00000KT 10SM CLR 11/11 A3012 RMK AO2 SLP198 T01110111 402500078,2025-09-12T05:01:03Z,2025-09-12T01:01:03Z,Taunton Municipal King Field,41.874401,-71.016602,US,US-MA
KTAZ,"Taylorville Muni, IL, US",2025-09-12T04:38:00Z,2025-09-12 04:38:00,VFR,20,16,VAR,NA,0,NA,1021.1,METAR KTAZ 120438Z AUTO 10SM CLR 20/16 A3015 RMK AO2 PWINO,2025-09-12T05:01:03Z,2025-09-12T01:01:03Z,Taylorville Municipal Airport,39.534199,-89.327797,US,US-IL
KTAZ,"Taylorville Muni, IL, US",2025-09-12T04:58:00Z,2025-09-12 04:58:00,VFR,19,16,VAR,NA,0,NA,1021.1,METAR KTAZ 120458Z AUTO 10SM CLR 19/16 A3015 RMK AO2 PWINO,2025-09-12T05:17:36Z,2025-09-12T01:17:36Z,Taylorville Municipal Airport,39.534199,-89.327797,US,US-IL
KTBR,"Statesboro Muni, GA, US",2025-09-12T04:55:00Z,2025-09-12 00:55:00,VFR,20,20,30,1,0,NA,1018.4,METAR KTBR 120455Z AUTO 03001KT 10SM FEW050 20/20 A3007 RMK AO2,2025-09-12T05:01:02Z,2025-09-12T01:01:02Z,Statesboro Bulloch County Airport,32.4827003479,-81.73690032959999,US,US-GA
KTCC,"Tucumcari Muni, NM, US",2025-09-12T04:53:00Z,2025-09-11 22:53:00,VFR,18.9,NA,180,4,0,NA,1021.1,METAR KTCC 120453Z AUTO 18004KT 10SM CLR 19/ A3015 RMK AO2 SLP155 T0189 $,2025-09-12T05:01:02Z,2025-09-12T01:01:02Z,Tucumcari Municipal Airport,35.182800293,-103.602996826,US,US-NM
KTCL,"Tuscaloosa Rgnl, AL, US",2025-09-12T04:53:00Z,2025-09-11 23:53:00,VFR,21.1,19.4,0,0,0,7,1019.4,METAR KTCL 120453Z AUTO 00000KT 7SM CLR 21/19 A3010 RMK AO2 SLP189 T02110194,2025-09-12T05:01:03Z,2025-09-12T01:01:03Z,Tuscaloosa National Airport,33.2206,-87.611397,US,US-AL
KTCS,"Truth or Consequence Muni, NM, US",2025-09-12T04:53:00Z,2025-09-11 22:53:00,VFR,26.1,5.6,190,3,0,NA,1020.4,METAR KTCS 120453Z AUTO 19003KT 10SM CLR 26/06 A3013 RMK AO2 SLP108 T02610056,2025-09-12T05:01:02Z,2025-09-12T01:01:02Z,Truth or Consequences Municipal Airport,33.2369,-107.272003,US,US-NM
KTCY,"Tracy Muni, CA, US",2025-09-12T04:25:00Z,2025-09-12 04:25:00,VFR,22,13,250,10,0,NA,1013.6,METAR KTCY 120425Z AUTO 25010KT 10SM CLR 22/13 A2993 RMK A01,2025-09-12T05:01:03Z,2025-09-12T01:01:03Z,Tracy Municipal Airport,37.68899917602539,-121.44200134277344,US,US-CA
KTCY,"Tracy Muni, CA, US",2025-09-12T04:45:00Z,2025-09-12 04:45:00,VFR,21,13,VAR,3,0,NA,1014,METAR KTCY 120445Z AUTO VRB03KT 10SM CLR 21/13 A2994 RMK A01,2025-09-12T05:17:37Z,2025-09-12T01:17:37Z,Tracy Municipal Airport,37.68899917602539,-121.44200134277344,US,US-CA
KTDF,"Roxboro/Person Cnty, NC, US",2025-09-12T04:45:00Z,2025-09-12 04:45:00,IFR,16,16,0,0,0,2,1021.8,METAR KTDF 120445Z AUTO 00000KT 2SM BR CLR 16/16 A3017 RMK AO2,2025-09-12T05:01:03Z,2025-09-12T01:01:03Z,Raleigh Regional Airport at Person County,36.284901,-78.9842,US,US-NC
KTDF,"Roxboro/Person Cnty, NC, US",2025-09-12T05:05:00Z,2025-09-12 05:05:00,LIFR,16,16,0,0,0,0.5,1021.8,METAR KTDF 120505Z AUTO 00000KT 1/2SM FG BKN002 16/16 A3017 RMK AO2,2025-09-12T05:17:36Z,2025-09-12T01:17:36Z,Raleigh Regional Airport at Person County,36.284901,-78.9842,US,US-NC
KTEB,"Teterboro Arpt, NJ, US",2025-09-12T04:51:00Z,2025-09-12 00:51:00,VFR,17.8,12.2,0,0,0,NA,1020.4,METAR KTEB 120451Z 00000KT 10SM CLR 18/12 A3013 RMK AO2 SLP201 T01780122 402670139 $,2025-09-12T05:01:03Z,2025-09-12T01:01:03Z,Teterboro Airport,40.850101,-74.060799,US,US-NJ
KTEW,"Mason/Jewett Fld, MI, US",2025-09-12T04:48:00Z,2025-09-12 04:48:00,VFR,14,14,0,0,0,NA,1023.8,METAR KTEW 120448Z 00000KT 10SM CLR 14/14 A3023 RMK AO2,2025-09-12T05:01:03Z,2025-09-12T01:01:03Z,Mason Jewett Field,42.5658,-84.423203,US,US-MI
KTEW,"Mason/Jewett Fld, MI, US",2025-09-12T05:09:00Z,2025-09-12 05:09:00,VFR,14,14,170,3,0,NA,1023.5,METAR KTEW 120509Z 17003KT 10SM CLR 14/14 A3022 RMK AO2,2025-09-12T05:17:36Z,2025-09-12T01:17:36Z,Mason Jewett Field,42.5658,-84.423203,US,US-MI
KTEX,"Telluride Rgnl, CO, US",2025-09-12T04:55:00Z,2025-09-11 22:55:00,VFR,11,6,0,0,0,NA,1029.9,METAR KTEX 120455Z AUTO 00000KT 10SM CLR 11/06 A3041 RMK AO2,2025-09-12T05:01:02Z,2025-09-12T01:01:02Z,Telluride Regional Airport,37.9538,-107.907997,US,US-CO
KTFP,"Aransas Pass/McCampbell-Porter Arpt, TX, US",2025-09-12T04:35:00Z,2025-09-12 04:35:00,VFR,28.6,23.8,140,8,0,NA,1017,METAR KTFP 120435Z AUTO 14008KT 10SM CLR 29/24 A3003 RMK AO1 T02860238,2025-09-12T05:01:03Z,2025-09-12T01:01:03Z,Ingleside Regional Airport,27.913,-97.211502,US,US-TX
KTFP,"Aransas Pass/McCampbell-Porter Arpt, TX, US",2025-09-12T04:55:00Z,2025-09-12 04:55:00,VFR,28.6,24.1,140,8,0,NA,1017,METAR KTFP 120455Z AUTO 14008KT 10SM CLR 29/24 A3003 RMK AO1 T02860241,2025-09-12T05:17:36Z,2025-09-12T01:17:36Z,Ingleside Regional Airport,27.913,-97.211502,US,US-TX
KTGI,"Tangier Island Arpt, VA, US",2025-09-12T05:15:00Z,2025-09-12 05:15:00,VFR,20.2,19.7,VAR,NA,0,NA,1020.1,METAR KTGI 120515Z AUTO 10SM SCT085 20/20 A3012 RMK AO1 T02020197,2025-09-12T05:17:36Z,2025-09-12T01:17:36Z,Tangier Island Airport,37.8251,-75.997803,US,US-VA
KTHA,"Tullahoma Rgnl, TN, US",2025-09-12T04:35:00Z,2025-09-11 23:35:00,VFR,18,18,0,0,0,NA,1020.7,METAR KTHA 120435Z AUTO 00000KT 10SM CLR 18/18 A3014 RMK A01,2025-09-12T05:01:05Z,2025-09-12T01:01:05Z,Tullahoma Regional Airport William Northern Field,35.3801,-86.246399,US,US-TN
KTHA,"Tullahoma Rgnl, TN, US",2025-09-12T04:55:00Z,2025-09-11 23:55:00,VFR,17,17,0,0,0,9,1020.7,METAR KTHA 120455Z AUTO 00000KT 9SM CLR 17/17 A3014 RMK A01,2025-09-12T05:17:38Z,2025-09-12T01:17:38Z,Tullahoma Regional Airport William Northern Field,35.3801,-86.246399,US,US-TN
KTHV,"York Arpt, PA, US",2025-09-12T04:53:00Z,2025-09-12 00:53:00,VFR,11.1,10.6,0,0,0,NA,1021.4,METAR KTHV 120453Z AUTO 00000KT 10SM CLR 11/11 A3016 RMK AO2 SLP213 T01110106 402720111,2025-09-12T05:01:05Z,2025-09-12T01:01:05Z,York Airport,39.917,-76.873001,US,US-PA
KTIF,"Thedford/Thomas Cnty, NE, US",2025-09-12T04:55:00Z,2025-09-12 04:55:00,VFR,20,17.6,0,0,0,NA,1015,METAR KTIF 120455Z AUTO 00000KT 10SM CLR 20/18 A2997 RMK AO2 T02000176,2025-09-12T05:01:05Z,2025-09-12T01:01:05Z,Thomas County Airport,41.962682,-100.57038,US,US-NE
KTIP,"Rantoul/Chanute AFB, IL, US",2025-09-12T04:55:00Z,2025-09-12 04:55:00,VFR,17.1,12,60,5,0,NA,1022.4,METAR KTIP 120455Z AUTO 06005KT 10SM CLR 17/12 A3019 RMK AO2 T01710120,2025-09-12T05:01:05Z,2025-09-12T01:01:05Z,Rantoul National Aviation Center - Frank Elliot field,40.293598,-88.142403,US,US-IL
KTIW,"Tacoma Narrows Arpt, WA, US",2025-09-12T04:53:00Z,2025-09-11 21:53:00,MVFR,15.6,12.8,240,4,0,NA,1018,METAR KTIW 120453Z AUTO 24004KT 10SM OVC014 16/13 A3006 RMK AO2 SLP177 T01560128,2025-09-12T05:01:05Z,2025-09-12T01:01:05Z,Tacoma Narrows Airport,47.267407,-122.577295,US,US-WA
KTKC,"Tracy Muni, MN, US",2025-09-12T04:55:00Z,2025-09-12 04:55:00,VFR,18,17,150,8,0,NA,1017.7,METAR KTKC 120455Z AUTO 15008KT 10SM CLR 18/17 A3005 RMK AO2,2025-09-12T05:01:05Z,2025-09-12T01:01:05Z,Tracy Municipal Airport,44.2491,-95.6073,US,US-MN
KTKC,"Tracy Muni, MN, US",2025-09-12T05:15:00Z,2025-09-12 05:15:00,VFR,18,17,150,8,0,NA,1017.7,METAR KTKC 120515Z AUTO 15008KT 10SM CLR 18/17 A3005 RMK AO2,2025-09-12T05:17:38Z,2025-09-12T01:17:38Z,Tracy Municipal Airport,44.2491,-95.6073,US,US-MN
KTKI,"McKinney Muni, TX, US",2025-09-12T04:53:00Z,2025-09-12 04:53:00,VFR,23.3,20,0,0,0,NA,1019,METAR KTKI 120453Z AUTO 00000KT 10SM CLR 23/20 A3009 RMK AO2 SLP185 T02330200,2025-09-12T05:01:05Z,2025-09-12T01:01:05Z,McKinney National Airport,33.177898,-96.5905,US,US-TX
KTKV,"Tomahawk Rgnl, WI, US",2025-09-12T04:55:00Z,2025-09-12 04:55:00,LIFR,9.2,7.5,0,0,0,0.25,1024.5,METAR KTKV 120455Z AUTO 00000KT 1/4SM VV002 09/08 A3025 RMK AO2 T00920075 PWINO,2025-09-12T05:01:05Z,2025-09-12T01:01:05Z,Tomahawk Regional Airport,45.469101,-89.805702,US,US-WI
KTKX,"Kennett Arpt, MO, US",2025-09-12T04:55:00Z,2025-09-11 23:55:00,VFR,23,21,0,0,0,NA,1019,METAR KTKX 120455Z AUTO 00000KT 10SM CLR 23/21 A3009 RMK AO2,2025-09-12T05:01:05Z,2025-09-12T01:01:05Z,Kennett Memorial Airport,36.2258987427,-90.0365982056,US,US-MO
KTKX,"Kennett Arpt, MO, US",2025-09-12T05:15:00Z,2025-09-12 00:15:00,VFR,22,21,0,0,0,NA,1018.7,METAR KTKX 120515Z AUTO 00000KT 10SM CLR 22/21 A3008 RMK AO2,2025-09-12T05:17:38Z,2025-09-12T01:17:38Z,Kennett Memorial Airport,36.2258987427,-90.0365982056,US,US-MO
KTLH,"Tallahassee Intl, FL, US",2025-09-12T04:53:00Z,2025-09-12 00:53:00,VFR,19.4,15.6,0,0,0,NA,1018,METAR KTLH 120453Z AUTO 00000KT 10SM CLR 19/16 A3006 RMK AO2 SLP179 T01940156 403280161 $,2025-09-12T05:01:05Z,2025-09-12T01:01:05Z,Tallahassee Regional Airport,30.3965,-84.350304,US,US-FL
KTMA,"Tifton/Myers Arpt, GA, US",2025-09-12T04:55:00Z,2025-09-12 00:55:00,VFR,18.4,16.1,0,0,0,NA,1019.4,METAR KTMA 120455Z AUTO 00000KT 10SM CLR 18/16 A3010 RMK AO2 T01840161 403040156,2025-09-12T05:01:05Z,2025-09-12T01:01:05Z,Henry Tift Myers Airport,31.4290008545,-83.4885025024,US,US-GA
KTMA,"Tifton/Myers Arpt, GA, US",2025-09-12T05:15:00Z,2025-09-12 01:15:00,VFR,19.3,15.9,0,0,0,NA,1019.4,METAR KTMA 120515Z AUTO 00000KT 10SM CLR 19/16 A3010 RMK AO2 T01930159,2025-09-12T05:17:38Z,2025-09-12T01:17:38Z,Henry Tift Myers Airport,31.4290008545,-83.4885025024,US,US-GA
KTMB,"Miami Exec Arpt, FL, US",2025-09-12T04:53:00Z,2025-09-12 00:53:00,NA,NA,NA,VAR,NA,0,NA,1014.3,METAR KTMB 120453Z AUTO A2995 RMK AO2 SLP143 PWINO $,2025-09-12T05:01:05Z,2025-09-12T01:01:05Z,Miami Executive Airport,25.6479,-80.4328,US,US-FL
KTME,"Houston/Executive Arpt, TX, US",2025-09-12T04:55:00Z,2025-09-12 04:55:00,NA,NA,NA,0,0,0,NA,1019.4,METAR KTME 120455Z AUTO 00000KT 10SM A3010 RMK AO2,2025-09-12T05:01:05Z,2025-09-12T01:01:05Z,Houston Executive Airport,29.807199,-95.897903,US,US-TX
KTME,"Houston/Executive Arpt, TX, US",2025-09-12T05:15:00Z,2025-09-12 05:15:00,NA,NA,NA,VAR,NA,0,NA,NA,METAR KTME 120515Z AUTO 10SM RMK AO2,2025-09-12T05:17:38Z,2025-09-12T01:17:38Z,Houston Executive Airport,29.807199,-95.897903,US,US-TX
KTMK,"Tillamook Arpt, OR, US",2025-09-12T04:55:00Z,2025-09-11 21:55:00,MVFR,15,15,0,0,0,NA,1019.4,METAR KTMK 120455Z AUTO 00000KT 10SM OVC021 15/15 A3010 RMK AO2,2025-09-12T05:01:05Z,2025-09-12T01:01:05Z,Tillamook Airport,45.4182014465,-123.814002991,US,US-OR
KTNU,"Newton Muni, IA, US",2025-09-12T04:55:00Z,2025-09-11 23:55:00,VFR,20,15,120,10,0,NA,1020.1,METAR KTNU 120455Z AUTO 12010KT 10SM CLR 20/15 A3012 RMK A01,2025-09-12T05:01:05Z,2025-09-12T01:01:05Z,Newton Municipal Airport,41.6744,-93.021698,US,US-IA
KTOB,"Dodge Center Arpt, MN, US",2025-09-12T04:54:00Z,2025-09-12 04:54:00,NA,15,14,140,7,0,NA,1021.1,METAR KTOB 120454Z 14007KT 10SM 15/14 A3015 RMK AO2,2025-09-12T05:01:05Z,2025-09-12T01:01:05Z,Dodge Center Airport,44.018002,-92.831497,US,US-MN
KTOB,"Dodge Center Arpt, MN, US",2025-09-12T05:13:00Z,2025-09-12 05:13:00,NA,15,14,140,6,0,NA,1021.1,METAR KTOB 120513Z 14006KT 10SM 15/14 A3015 RMK AO2,2025-09-12T05:17:38Z,2025-09-12T01:17:38Z,Dodge Center Airport,44.018002,-92.831497,US,US-MN
KTOC,"Toccoa/Lefourneau Fld, GA, US",2025-09-12T04:55:00Z,2025-09-12 00:55:00,VFR,18.2,17.2,0,0,0,NA,1021.1,METAR KTOC 120455Z AUTO 00000KT 10SM CLR 18/17 A3015 RMK AO2 T01820172,2025-09-12T05:01:05Z,2025-09-12T01:01:05Z,Toccoa Airport - R.G. Letourneau Field,34.5938,-83.295799,US,US-GA
KTOI,"Troy Muni, AL, US",2025-09-12T04:53:00Z,2025-09-11 23:53:00,VFR,18.9,17.8,0,0,0,NA,1019.7,METAR KTOI 120453Z AUTO 00000KT 10SM CLR 19/18 A3011 RMK AO2 SLP189 T01890178,2025-09-12T05:01:05Z,2025-09-12T01:01:05Z,Troy Municipal Airport at N Kenneth Campbell Field,31.860399,-86.012101,US,US-AL
KTOL,"Toledo/Express Arpt, OH, US",2025-09-12T04:52:00Z,2025-09-12 00:52:00,VFR,13.9,11.7,0,0,0,NA,1023.5,METAR KTOL 120452Z 00000KT 10SM CLR 14/12 A3022 RMK AO2 SLP229 T01390117 402670111,2025-09-12T05:01:05Z,2025-09-12T01:01:05Z,Eugene F. Kranz Toledo Express Airport,41.5868,-83.8078,US,US-OH
KTOP,"Topeka/Billard Muni, KS, US",2025-09-12T04:53:00Z,2025-09-11 23:53:00,VFR,22.2,17.2,130,3,0,NA,1018,METAR KTOP 120453Z AUTO 13003KT 10SM CLR 22/17 A3006 RMK AO2 SLP170 T02220172,2025-09-12T05:01:05Z,2025-09-12T01:01:05Z,Philip Billard Municipal Airport,39.069899,-95.622606,US,US-KS
KTOR,"Torrington Muni, WY, US",2025-09-12T04:53:00Z,2025-09-11 22:53:00,VFR,21.1,8.3,VAR,NA,0,NA,1015.7,METAR KTOR 120453Z AUTO 10SM CLR 21/08 A2999 RMK AO2 SLP105 T02110083,2025-09-12T05:01:05Z,2025-09-12T01:01:05Z,Torrington Municipal Airport,42.0644989,-104.1529999,US,US-WY
KTPA,"Tampa Intl Arpt, FL, US",2025-09-12T04:53:00Z,2025-09-12 00:53:00,VFR,26.1,20.6,20,9,14,NA,1017,METAR KTPA 120453Z 02009G14KT 10SM SCT045 BKN110 BKN230 26/21 A3003 RMK AO2 SLP167 OCNL LTGIC DSNT S-SW CB DSNT S-SW T02610206 403330244 $,2025-09-12T05:01:05Z,2025-09-12T01:01:05Z,Tampa International Airport,27.9755,-82.533203,US,US-FL
KTPH,"Tonopah Arpt, NV, US",2025-09-12T04:56:00Z,2025-09-11 21:56:00,VFR,15,2.2,120,6,0,NA,1017.4,METAR KTPH 120456Z AUTO 12006KT 10SM CLR 15/02 A3004 RMK AO2 SLP123 T01500022,2025-09-12T05:01:05Z,2025-09-12T01:01:05Z,Tonopah Airport,38.06019974,-117.086998,US,US-NV
KTPL,"Temple/Miller Rgnl, TX, US",2025-09-12T04:51:00Z,2025-09-11 23:51:00,NA,24.4,20,170,7,0,NA,1019.4,METAR KTPL 120451Z AUTO 17007KT CLR 24/20 A3010 RMK AO2 SLP184 T02440200 PWINO RVRNO $,2025-09-12T05:01:05Z,2025-09-12T01:01:05Z,Draughon Miller Central Texas Regional Airport,31.1525,-97.407799,US,US-TX
KTQE,"Tekamah Muni, NE, US",2025-09-12T04:54:00Z,2025-09-12 04:54:00,VFR,20.6,18.9,150,5,0,NA,1016.7,METAR KTQE 120454Z AUTO 15005KT 10SM CLR 21/19 A3002 RMK AO2 SLP154 T02060189,2025-09-12T05:01:05Z,2025-09-12T01:01:05Z,Tekamah Municipal Airport,41.76350021362305,-96.17790222167967,US,US-NE
KTQH,"Tahlequah Muni, OK, US",2025-09-12T04:55:00Z,2025-09-12 04:55:00,NA,18,17,0,0,0,NA,NA,METAR KTQH 120455Z AUTO 00000KT 10SM 18/17 RMK AO2,2025-09-12T05:01:05Z,2025-09-12T01:01:05Z,Tahlequah Municipal Airport,35.928902,-95.004501,US,US-OK
KTQH,"Tahlequah Muni, OK, US",2025-09-12T05:15:00Z,2025-09-12 05:15:00,NA,18,17,0,0,0,NA,NA,METAR KTQH 120515Z AUTO 00000KT 10SM 18/17 RMK AO2,2025-09-12T05:17:38Z,2025-09-12T01:17:38Z,Tahlequah Municipal Airport,35.928902,-95.004501,US,US-OK
KTQK,"Scott City Muni, KS, US",2025-09-12T04:55:00Z,2025-09-12 04:55:00,VFR,24,14.6,180,12,0,NA,1017.4,METAR KTQK 120455Z AUTO 18012KT 10SM CLR 24/15 A3004 RMK AO2 T02400146,2025-09-12T05:01:05Z,2025-09-12T01:01:05Z,Scott City Municipal Airport,38.47430038452149,-100.88500213623048,US,US-KS
KTRI,"Bristol/Tri-Cities Arpt, TN, US",2025-09-12T04:53:00Z,2025-09-12 00:53:00,VFR,12.8,12.2,0,0,0,NA,1022.4,METAR KTRI 120453Z 00000KT 10SM CLR 13/12 A3019 RMK AO2 SLP205 T01280122 402670094,2025-09-12T05:01:05Z,2025-09-12T01:01:05Z,Tri-Cities Regional TN/VA Airport,36.475201,-82.407401,US,US-TN
KTRK,"Truckee/Tahoe Arpt, CA, US",2025-09-12T04:55:00Z,2025-09-11 21:55:00,VFR,8,8,0,0,0,NA,1021.4,METAR KTRK 120455Z AUTO 00000KT 10SM SCT040 SCT120 08/08 A3016 RMK AO2 P0001,2025-09-12T05:01:05Z,2025-09-12T01:01:05Z,Truckee Tahoe Airport,39.318628,-120.140562,US,US-CA
KTRK,"Truckee/Tahoe Arpt, CA, US",2025-09-12T05:15:00Z,2025-09-11 22:15:00,VFR,7,7,0,0,0,NA,1021.4,METAR KTRK 120515Z AUTO 00000KT 10SM SCT040 07/07 A3016 RMK AO2,2025-09-12T05:17:38Z,2025-09-12T01:17:38Z,Truckee Tahoe Airport,39.318628,-120.140562,US,US-CA
KTRL,"Terrell Muni, TX, US",2025-09-12T04:53:00Z,2025-09-11 23:53:00,VFR,23.9,20,0,0,0,NA,1019,METAR KTRL 120453Z AUTO 00000KT 10SM CLR 24/20 A3009 RMK AO2 SLP184 T02390200,2025-09-12T05:01:05Z,2025-09-12T01:01:05Z,Terrell Municipal Airport,32.709202,-96.267403,US,US-TX
KTRM,"Thermal Arpt, CA, US",2025-09-12T04:52:00Z,2025-09-11 21:52:00,VFR,28.3,13.3,330,14,0,NA,1007.2,METAR KTRM 120452Z AUTO 33014KT 10SM CLR 28/13 A2974 RMK AO2 SLP074 T02830133 TSNO,2025-09-12T05:01:05Z,2025-09-12T01:01:05Z,Jacqueline Cochran Regional Airport,33.62670135498,-116.16000366211,US,US-CA
KTSP,"Tehachapi Muni, CA, US",2025-09-12T04:55:00Z,2025-09-11 21:55:00,MVFR,14,10,290,7,0,NA,1018,METAR KTSP 120455Z AUTO 29007KT 10SM BKN026 14/10 A3006 RMK AO2,2025-09-12T05:01:05Z,2025-09-12T01:01:05Z,Tehachapi Municipal Airport,35.134998321533,-118.43900299072,US,US-CA
KTSP,"Tehachapi Muni, CA, US",2025-09-12T05:15:00Z,2025-09-11 22:15:00,VFR,14,10,290,8,0,NA,1018,METAR KTSP 120515Z AUTO 29008KT 10SM FEW027 14/10 A3006 RMK AO2,2025-09-12T05:17:38Z,2025-09-12T01:17:38Z,Tehachapi Municipal Airport,35.134998321533,-118.43900299072,US,US-CA
KTTA,"Sanford/Lee Cnty, NC, US",2025-09-12T04:45:00Z,2025-09-12 04:45:00,LIFR,15.3,15.3,0,0,0,0.75,1020.7,METAR KTTA 120445Z AUTO 00000KT 3/4SM BR VV005 15/15 A3014 RMK AO2 T01530153,2025-09-12T05:01:05Z,2025-09-12T01:01:05Z,Raleigh Executive Jetport,35.583698,-79.1008,US,US-NC
KTTA,"Sanford/Lee Cnty, NC, US",2025-09-12T05:05:00Z,2025-09-12 05:05:00,MVFR,16,16,0,0,0,3,1020.7,METAR KTTA 120505Z AUTO 00000KT 3SM BR CLR 16/16 A3014 RMK AO2 T01600160,2025-09-12T05:17:38Z,2025-09-12T01:17:38Z,Raleigh Executive Jetport,35.583698,-79.1008,US,US-NC
KTTD,"Portland/Troutdale Arpt, OR, US",2025-09-12T04:53:00Z,2025-09-11 21:53:00,MVFR,17.2,13.3,VAR,3,0,NA,1018,METAR KTTD 120453Z AUTO VRB03KT 10SM OVC026 17/13 A3006 RMK AO2 SLP180 T01720133,2025-09-12T05:01:05Z,2025-09-12T01:01:05Z,Portland Troutdale Airport,45.54940032959,-122.40100097656,US,US-OR
KTTF,"Monroe/Custer Arpt, MI, US",2025-09-12T04:55:00Z,2025-09-12 04:55:00,VFR,15,12,50,4,0,NA,1023.5,METAR KTTF 120455Z AUTO 05004KT 10SM CLR 15/12 A3022 RMK AO2,2025-09-12T05:01:05Z,2025-09-12T01:01:05Z,Custer Airport,41.939899,-83.4347,US,US-MI
KTTN,"Trenton/Mercer Arpt, NJ, US",2025-09-12T04:53:00Z,2025-09-12 00:53:00,VFR,15,12.8,0,0,0,NA,1020.4,METAR KTTN 120453Z AUTO 00000KT 10SM CLR 15/13 A3013 RMK AO2 SLP197 T01500128 402720133,2025-09-12T05:01:05Z,2025-09-12T01:01:05Z,Trenton Mercer Airport,40.276699,-74.813499,US,US-NJ
KTUL,"Tulsa Intl Arpt, OK, US",2025-09-12T04:53:00Z,2025-09-11 23:53:00,VFR,22.2,17.2,170,5,0,NA,1018.7,METAR KTUL 120453Z 17005KT 10SM FEW200 22/17 A3008 RMK AO2 SLP179 T02220172,2025-09-12T05:01:05Z,2025-09-12T01:01:05Z,Tulsa International Airport,36.19839859008789,-95.88809967041016,US,US-OK
KTUP,"Tupelo Rgnl, MS, US",2025-09-12T04:53:00Z,2025-09-11 23:53:00,VFR,23.3,20.6,0,0,0,NA,1019.4,METAR KTUP 120453Z AUTO 00000KT 10SM CLR 23/21 A3010 RMK AO2 SLP187 T02330206 $,2025-09-12T05:01:05Z,2025-09-12T01:01:05Z,Tupelo Regional Airport,34.26810073852539,-88.7698974609375,US,US-MS
KTUS,"Tucson Intl Arpt, AZ, US",2025-09-12T04:53:00Z,2025-09-11 21:53:00,VFR,26.7,17.2,110,10,0,NA,1014.6,METAR KTUS 120453Z 11010KT 10SM FEW110 27/17 A2996 RMK AO2 SLP097 T02670172,2025-09-12T05:01:05Z,2025-09-12T01:01:05Z,Tucson International Airport / Morris Air National Guard Base,32.115004,-110.938053,US,US-AZ
KTVC,"Traverse City/Cherry Capital Arpt, MI, US",2025-09-12T04:53:00Z,2025-09-12 00:53:00,VFR,13.3,12.8,260,3,0,8,1023.5,METAR KTVC 120453Z AUTO 26003KT 8SM CLR 13/13 A3022 RMK AO2 SLP234 T01330128 402220106,2025-09-12T05:01:05Z,2025-09-12T01:01:05Z,Cherry Capital Airport,44.74140167236328,-85.58219909667969,US,US-MI
KTVF,"Thief River Rgnl, MN, US",2025-09-12T04:56:00Z,2025-09-11 23:56:00,VFR,16.7,15,100,8,0,NA,1017,METAR KTVF 120456Z AUTO 10008KT 10SM CLR 17/15 A3003 RMK AO2 SLP171 T01670150,2025-09-12T05:01:05Z,2025-09-12T01:01:05Z,Thief River Falls Regional Airport,48.065701,-96.184998,US,US-MN
KTVI,"Thomasville Rgnl, GA, US",2025-09-12T04:55:00Z,2025-09-12 00:55:00,VFR,18,15,0,0,0,NA,1019,METAR KTVI 120455Z AUTO 00000KT 10SM CLR 18/15 A3009 RMK AO2 LTG DSNT S,2025-09-12T05:01:05Z,2025-09-12T01:01:05Z,Thomasville Regional Airport,30.901599884033,-83.881301879883,US,US-GA
KTVK,"Centerville Muni, IA, US",2025-09-12T04:55:00Z,2025-09-12 04:55:00,NA,19,13,100,6,0,NA,1020.4,METAR KTVK 120455Z AUTO 10006KT 10SM -DZ 19/13 A3013 RMK AO2,2025-09-12T05:01:05Z,2025-09-12T01:01:05Z,Centerville Municipal Airport,40.683899,-92.901001,US,US-IA
KTVL,"Lake Tahoe Arpt, CA, US",2025-09-12T04:53:00Z,2025-09-11 21:53:00,VFR,10.6,6.1,0,0,0,NA,1020.7,METAR KTVL 120453Z AUTO 00000KT 10SM SCT050 11/06 A3014 RMK AO2 SLP167 T01060061,2025-09-12T05:01:05Z,2025-09-12T01:01:05Z,Lake Tahoe Airport,38.89390182495117,-119.99500274658205,US,US-CA
KTVR,"Vicksburg/Tallulah Rgnl, LA, US",2025-09-12T04:53:00Z,2025-09-12 04:53:00,VFR,22.8,21.1,0,0,0,9,1019.4,METAR KTVR 120453Z AUTO 00000KT 9SM CLR 23/21 A3010 RMK AO2 SLP197 T02280211,2025-09-12T05:01:05Z,2025-09-12T01:01:05Z,Vicksburg Tallulah Regional Airport,32.351601,-91.027702,US,US-LA
KTVY,"Tooele Valley Arpt, UT, US",2025-09-12T04:55:00Z,2025-09-12 04:55:00,VFR,18,6,280,7,0,NA,1015.3,METAR KTVY 120455Z AUTO 28007KT 10SM CLR 18/06 A2998 RMK AO2,2025-09-12T05:01:05Z,2025-09-12T01:01:05Z,Bolinder Field Tooele Valley Airport,40.612301,-112.350998,US,US-UT
KTWF,"Twin Falls/Joslin Fld, ID, US",2025-09-12T03:53:00Z,2025-09-11 21:53:00,VFR,17.8,2.8,210,6,0,NA,1017,METAR KTWF 120353Z AUTO 21006KT 10SM CLR 18/03 A3003 RMK AO2 SLP125 T01780028,2025-09-12T05:01:05Z,2025-09-12T01:01:05Z,Joslin Field Magic Valley Regional Airport,42.4818,-114.487999,US,US-ID
KTWM,"Two Harbors/Helgeson Arpt, MN, US",2025-09-12T04:55:00Z,2025-09-12 04:55:00,LIFR,11,11,50,4,0,0.75,1022.8,METAR KTWM 120455Z AUTO 05004KT 3/4SM BR OVC001 11/11 A3020 RMK AO2,2025-09-12T05:01:05Z,2025-09-12T01:01:05Z,Richard B Helgeson Airport,47.04919815,-91.74510193,US,US-MN
KTWM,"Two Harbors/Helgeson Arpt, MN, US",2025-09-12T05:15:00Z,2025-09-12 05:15:00,LIFR,11,11,60,4,0,1,1022.1,METAR KTWM 120515Z AUTO 06004KT 1SM BR OVC001 11/11 A3018 RMK AO2,2025-09-12T05:17:38Z,2025-09-12T01:17:38Z,Richard B Helgeson Airport,47.04919815,-91.74510193,US,US-MN
KTWT,"Sturgis Muni, KY, US",2025-09-12T04:55:00Z,2025-09-12 04:55:00,NA,NA,NA,0,0,0,NA,1020.7,METAR KTWT 120455Z AUTO 00000KT 10SM A3014 RMK AO2,2025-09-12T05:01:05Z,2025-09-12T01:01:05Z,Sturgis Municipal Airport,37.540798,-87.951797,US,US-KY
KTWT,"Sturgis Muni, KY, US",2025-09-12T05:15:00Z,2025-09-12 05:15:00,NA,NA,NA,0,0,0,NA,1020.7,METAR KTWT 120515Z AUTO 00000KT 10SM A3014 RMK AO2,2025-09-12T05:17:38Z,2025-09-12T01:17:38Z,Sturgis Municipal Airport,37.540798,-87.951797,US,US-KY
KTXK,"Texarkana Rgnl, AR, US",2025-09-12T04:53:00Z,2025-09-11 23:53:00,VFR,26.7,20.6,0,0,0,NA,1019.4,METAR KTXK 120453Z AUTO 00000KT 10SM CLR 27/21 A3010 RMK AO2 SLP185 T02670206,2025-09-12T05:01:05Z,2025-09-12T01:01:05Z,Texarkana Regional Airport (Webb Field),33.453701,-93.990997,US,US-AR
KTYL,"Taylor Arpt, AZ, US",2025-09-12T04:55:00Z,2025-09-11 21:55:00,VFR,17,13,240,7,0,NA,1023.5,METAR KTYL 120455Z AUTO 24007KT 10SM FEW055 FEW090 17/13 A3022 RMK AO2,2025-09-12T05:01:05Z,2025-09-12T01:01:05Z,Taylor Airport,34.45280075,-110.1149979,US,US-AZ
KTYL,"Taylor Arpt, AZ, US",2025-09-12T05:15:00Z,2025-09-11 22:15:00,VFR,17,13,230,4,0,NA,1023.1,METAR KTYL 120515Z AUTO 23004KT 10SM CLR 17/13 A3021 RMK AO2,2025-09-12T05:17:38Z,2025-09-12T01:17:38Z,Taylor Airport,34.45280075,-110.1149979,US,US-AZ
KTYQ,"Indianapolis Exec, IN, US",2025-09-12T04:55:00Z,2025-09-12 04:55:00,VFR,11.3,9.9,0,0,0,NA,1022.8,METAR KTYQ 120455Z AUTO 00000KT 10SM CLR 11/10 A3020 RMK AO2 T01130099,2025-09-12T05:01:05Z,2025-09-12T01:01:05Z,Indianapolis Executive Airport,40.030701,-86.251404,US,US-IN
KTYR,"Tyler/Pounds Fld, TX, US",2025-09-12T04:53:00Z,2025-09-11 23:53:00,VFR,25.6,20.6,140,4,0,NA,1019.4,METAR KTYR 120453Z AUTO 14004KT 10SM CLR 26/21 A3010 RMK AO2 SLP185 T02560206,2025-09-12T05:01:05Z,2025-09-12T01:01:05Z,Tyler Pounds Regional Airport,32.35409927368164,-95.40239715576172,US,US-TX
KTYS,"Knoxville/Tyson Arpt, TN, US",2025-09-12T04:53:00Z,2025-09-12 00:53:00,VFR,19.4,16.1,340,5,0,NA,1020.7,METAR KTYS 120453Z 34005KT 10SM FEW065 19/16 A3014 RMK AO2 SLP198 T01940161 402830144 $,2025-09-12T05:01:05Z,2025-09-12T01:01:05Z,McGhee Tyson Airport,35.811001,-83.994003,US,US-TN
KTZR,"Columbus/Bolton Fld, OH, US",2025-09-12T04:55:00Z,2025-09-12 04:55:00,VFR,17,8.6,50,4,0,NA,1023.1,METAR KTZR 120455Z AUTO 05004KT 10SM CLR 17/09 A3021 RMK AO2 T01700086,2025-09-12T05:01:05Z,2025-09-12T01:01:05Z,Bolton Field,39.901199,-83.136902,US,US-OH
KU52,"Beaver Muni, UT, US",2025-09-12T04:35:00Z,2025-09-12 04:35:00,VFR,13,-1,130,6,0,NA,1018.7,METAR KU52 120435Z AUTO 13006KT 10SM -DZ CLR 13/M01 A3008 RMK AO2,2025-09-12T05:01:05Z,2025-09-12T01:01:05Z,Beaver Municipal Airport,38.230701,-112.675003,US,US-UT
KU52,"Beaver Muni, UT, US",2025-09-12T04:55:00Z,2025-09-12 04:55:00,VFR,12,0,150,8,0,NA,1018.7,METAR KU52 120455Z AUTO 15008KT 10SM -DZ CLR 12/M00 A3008 RMK AO2,2025-09-12T05:17:38Z,2025-09-12T01:17:38Z,Beaver Municipal Airport,38.230701,-112.675003,US,US-UT
KU55,"Panguitch Muni, UT, US",2025-09-12T04:35:00Z,2025-09-11 22:35:00,VFR,13,-4,170,7,0,NA,1021.4,METAR KU55 120435Z AUTO 17007KT 10SM FEW039 FEW049 13/M04 A3016 RMK A01,2025-09-12T05:01:05Z,2025-09-12T01:01:05Z,Panguitch Municipal Airport,37.84519958,-112.3919983,US,US-UT
KU55,"Panguitch Muni, UT, US",2025-09-12T04:55:00Z,2025-09-11 22:55:00,VFR,12,-3,170,7,0,NA,1021.4,METAR KU55 120455Z AUTO 17007KT 10SM CLR 12/M03 A3016 RMK A01,2025-09-12T05:17:38Z,2025-09-12T01:17:38Z,Panguitch Municipal Airport,37.84519958,-112.3919983,US,US-UT
KU69,"Duchesne Muni, UT, US",2025-09-12T04:35:00Z,2025-09-12 04:35:00,VFR,18,0,290,7,0,NA,1018.4,METAR KU69 120435Z AUTO 29007KT 10SM CLR 18/00 A3007 RMK A01,2025-09-12T05:01:05Z,2025-09-12T01:01:05Z,Duchesne Municipal Airport,40.191898,-110.380997,US,US-UT
KU69,"Duchesne Muni, UT, US",2025-09-12T04:55:00Z,2025-09-12 04:55:00,VFR,18,1,290,5,0,NA,1018.4,METAR KU69 120455Z AUTO 29005KT 10SM CLR 18/01 A3007 RMK A01,2025-09-12T05:17:39Z,2025-09-12T01:17:39Z,Duchesne Municipal Airport,40.191898,-110.380997,US,US-UT
KUAO,"Aurora State Arpt, OR, US",2025-09-12T04:53:00Z,2025-09-12 04:53:00,MVFR,17.8,13.9,360,5,0,NA,1018.4,METAR KUAO 120453Z AUTO 36005KT 10SM OVC019 18/14 A3007 RMK AO2 SLP182 T01780139,2025-09-12T05:01:05Z,2025-09-12T01:01:05Z,Aurora State Airport,45.247100830078125,-122.7699966430664,US,US-OR
KUBE,"Cumberland Muni, WI, US",2025-09-12T04:55:00Z,2025-09-12 04:55:00,VFR,16,15,140,6,0,NA,1022.4,METAR KUBE 120455Z AUTO 14006KT 10SM CLR 16/15 A3019 RMK AO2,2025-09-12T05:01:05Z,2025-09-12T01:01:05Z,Cumberland Municipal Airport,45.505969,-91.98012,US,US-WI
KUCP,"New Castle Muni, PA, US",2025-09-12T04:56:00Z,2025-09-12 04:56:00,VFR,12.2,11.1,0,0,0,NA,1023.5,METAR KUCP 120456Z AUTO 00000KT 10SM CLR 12/11 A3022 RMK AO2 SLP246 T01220111,2025-09-12T05:01:05Z,2025-09-12T01:01:05Z,New Castle Municipal Airport,41.02529907,-80.41339874,US,US-PA
KUDG,"Darlington Cnty, SC, US",2025-09-12T04:56:00Z,2025-09-12 04:56:00,VFR,17.2,17.2,60,4,0,NA,1020.1,METAR KUDG 120456Z AUTO 06004KT 10SM CLR 17/17 A3012 RMK AO2 SLP201 T01720172 PNO $,2025-09-12T05:01:05Z,2025-09-12T01:01:05Z,Darlington County Airport,34.449401,-79.890098,US,US-SC
KUES,"Waukesha Cnty, WI, US",2025-09-12T04:55:00Z,2025-09-11 23:55:00,LIFR,15,14,70,6,0,NA,1024.5,METAR KUES 120455Z AUTO 07006KT 10SM OVC004 15/14 A3025 RMK AO2,2025-09-12T05:01:05Z,2025-09-12T01:01:05Z,Waukesha County Airport,43.041000366211,-88.237098693848,US,US-WI
KUGN,"Waukegan Rgnl, IL, US",2025-09-12T04:51:00Z,2025-09-11 23:51:00,VFR,16.7,15,30,4,0,7,1023.5,METAR KUGN 120451Z AUTO 03004KT 7SM CLR 17/15 A3022 RMK AO2 SLP224 T01670150,2025-09-12T05:01:05Z,2025-09-12T01:01:05Z,Waukegan National Airport,42.422199249268,-87.867897033691,US,US-IL
KUIL,"Quillayute State Arpt, WA, US",2025-09-12T04:53:00Z,2025-09-11 21:53:00,LIFR,13.3,13.3,210,3,0,4,1018.7,METAR KUIL 120453Z AUTO 21003KT 4SM BR OVC002 13/13 A3008 RMK AO2 SLP187 T01330133,2025-09-12T05:01:05Z,2025-09-12T01:01:05Z,Quillayute Airport,47.936599731445,-124.56300354004,US,US-WA
KUIN,"Quincy/Baldwin Fld, IL, US",2025-09-12T04:54:00Z,2025-09-11 23:54:00,VFR,20.6,13.3,90,6,0,NA,1020.4,METAR KUIN 120454Z AUTO 09006KT 10SM CLR 21/13 A3013 RMK AO2 SLP197 T02060133,2025-09-12T05:01:05Z,2025-09-12T01:01:05Z,Quincy Regional Airport Baldwin Field,39.942699,-91.194603,US,US-IL
KUKF,"Wilkesboro/Wilkes Cnty, NC, US",2025-09-12T04:50:00Z,2025-09-12 00:50:00,VFR,13,13,0,0,0,NA,1023.8,METAR KUKF 120450Z AUTO 00000KT 10SM CLR 13/13 A3023 RMK AO2,2025-09-12T05:01:05Z,2025-09-12T01:01:05Z,Wilkes County Airport,36.2228012085,-81.09829711910001,US,US-NC
KUKF,"Wilkesboro/Wilkes Cnty, NC, US",2025-09-12T05:10:00Z,2025-09-12 01:10:00,VFR,13,13,0,0,0,NA,1023.8,METAR KUKF 120510Z AUTO 00000KT 10SM CLR 13/13 A3023 RMK AO2,2025-09-12T05:17:38Z,2025-09-12T01:17:38Z,Wilkes County Airport,36.2228012085,-81.09829711910001,US,US-NC
KUKI,"Ukiah Muni, CA, US",2025-09-12T04:56:00Z,2025-09-11 21:56:00,VFR,17.8,12.8,0,0,0,NA,1015.3,METAR KUKI 120456Z AUTO 00000KT 10SM CLR 18/13 A2998 RMK AO2 SLP147 T01780128,2025-09-12T05:01:05Z,2025-09-12T01:01:05Z,Ukiah Municipal Airport,39.125999,-123.200996,US,US-CA
KUKL,"Burlington/Coffey Cnty, KS, US",2025-09-12T04:55:00Z,2025-09-12 04:55:00,VFR,22.4,17.9,180,8,0,NA,1019,METAR KUKL 120455Z AUTO 18008KT 10SM CLR 22/18 A3009 RMK AO2 T02240179,2025-09-12T05:01:05Z,2025-09-12T01:01:05Z,Coffey County Airport,38.302502,-95.724998,US,US-KS
KUKT,"Quakertown Arpt, PA, US",2025-09-12T04:55:00Z,2025-09-12 00:55:00,VFR,13,13,0,0,0,NA,1021.4,METAR KUKT 120455Z AUTO 00000KT 10SM CLR 13/13 A3016 RMK AO2,2025-09-12T05:01:05Z,2025-09-12T01:01:05Z,Quakertown Airport,40.4352,-75.381897,US,US-PA
KUKT,"Quakertown Arpt, PA, US",2025-09-12T05:15:00Z,2025-09-12 01:15:00,VFR,13,13,0,0,0,NA,1021.4,METAR KUKT 120515Z AUTO 00000KT 10SM CLR 13/13 A3016 RMK AO2,2025-09-12T05:17:38Z,2025-09-12T01:17:38Z,Quakertown Airport,40.4352,-75.381897,US,US-PA
KULM,"New Ulm Muni, MN, US",2025-09-12T04:55:00Z,2025-09-11 23:55:00,VFR,19,15,130,8,0,NA,1019,METAR KULM 120455Z AUTO 13008KT 10SM CLR 19/15 A3009 RMK AO2,2025-09-12T05:01:05Z,2025-09-12T01:01:05Z,New Ulm Municipal Airport,44.319599151611,-94.502296447754,US,US-MN
KULM,"New Ulm Muni, MN, US",2025-09-12T05:15:00Z,2025-09-12 00:15:00,NA,19,15,140,9,0,NA,1019,METAR KULM 120515Z AUTO 14009KT 10SM 19/15 A3009 RMK AO2,2025-09-12T05:17:38Z,2025-09-12T01:17:38Z,New Ulm Municipal Airport,44.319599151611,-94.502296447754,US,US-MN
KULS,"Ulysses Arpt, KS, US",2025-09-12T04:35:00Z,2025-09-12 04:35:00,IFR,21,13,0,0,0,1,1017.7,METAR KULS 120435Z AUTO 00000KT 1SM HZ CLR 21/13 A3005 RMK AO2 VIS 1/4V5,2025-09-12T05:01:05Z,2025-09-12T01:01:05Z,Ulysses Airport,37.60400009,-101.3740005,US,US-KS
KULS,"Ulysses Arpt, KS, US",2025-09-12T04:55:00Z,2025-09-12 04:55:00,IFR,23,12,210,5,0,2.5,1017.7,METAR KULS 120455Z AUTO 21005KT 2 1/2SM HZ CLR 23/12 A3005 RMK AO2 VIS 1/2V5,2025-09-12T05:17:38Z,2025-09-12T01:17:38Z,Ulysses Airport,37.60400009,-101.3740005,US,US-KS
KUMP,"Indianapolis Metro, IN, US",2025-09-12T04:55:00Z,2025-09-12 04:55:00,VFR,14.3,14.2,0,0,0,NA,1022.4,METAR KUMP 120455Z AUTO 00000KT 10SM CLR 14/14 A3019 RMK AO2 T01430142 $,2025-09-12T05:01:05Z,2025-09-12T01:01:05Z,Indianapolis Metropolitan Airport,39.9352,-86.044998,US,US-IN
KUMP,"Indianapolis Metro, IN, US",2025-09-12T05:15:00Z,2025-09-12 05:15:00,VFR,14.2,14.2,0,0,0,NA,1022.8,METAR KUMP 120515Z AUTO 00000KT 10SM CLR 14/14 A3020 RMK AO2 T01420142 $,2025-09-12T05:17:38Z,2025-09-12T01:17:38Z,Indianapolis Metropolitan Airport,39.9352,-86.044998,US,US-IN
KUNI,"Albany/Ohio Univ Arpt, OH, US",2025-09-12T04:55:00Z,2025-09-12 00:55:00,VFR,12.3,10.7,0,0,0,NA,1022.1,METAR KUNI 120455Z AUTO 00000KT 10SM CLR 12/11 A3018 RMK AO2 T01230107 402840101,2025-09-12T05:01:05Z,2025-09-12T01:01:05Z,Ohio University Airport,39.211839,-82.22949,US,US-OH
KUNO,"West Plains Rgnl, MO, US",2025-09-12T04:53:00Z,2025-09-12 04:53:00,VFR,21.7,16.1,220,4,0,NA,1020.7,METAR KUNO 120453Z AUTO 22004KT 10SM CLR 22/16 A3014 RMK AO2 SLP190 T02170161,2025-09-12T05:01:05Z,2025-09-12T01:01:05Z,West Plains Regional Airport,36.878399,-91.902702,US,US-MO
KUNU,"Juneau/Dodge Cnty, WI, US",2025-09-12T04:33:00Z,2025-09-11 23:33:00,VFR,13.5,13.2,80,4,0,NA,1024.1,METAR KUNU 120433Z AUTO 08004KT 10SM CLR 14/13 A3024 RMK AO2 T01350132 TSNO,2025-09-12T05:01:05Z,2025-09-12T01:01:05Z,Dodge County Airport,43.42660141,-88.70320129,US,US-WI
KUNU,"Juneau/Dodge Cnty, WI, US",2025-09-12T05:15:00Z,2025-09-12 00:15:00,VFR,13,12.7,90,4,0,7,1024.1,METAR KUNU 120515Z AUTO 09004KT 7SM CLR 13/13 A3024 RMK AO2 T01300127 TSNO,2025-09-12T05:17:38Z,2025-09-12T01:17:38Z,Dodge County Airport,43.42660141,-88.70320129,US,US-WI
KUNV,"State College/Univ Park Arpt, PA, US",2025-09-12T04:55:00Z,2025-09-12 00:55:00,VFR,12.3,9.5,0,0,0,NA,1023.1,METAR KUNV 120455Z AUTO 00000KT 10SM CLR 12/10 A3021 RMK AO2 T01230095,2025-09-12T05:01:05Z,2025-09-12T01:01:05Z,State College Regional Airport,40.849374,-77.84852,US,US-PA
KUNV,"State College/Univ Park Arpt, PA, US",2025-09-12T05:15:00Z,2025-09-12 01:15:00,VFR,13,9.5,0,0,0,NA,1023.1,METAR KUNV 120515Z AUTO 00000KT 10SM CLR 13/10 A3021 RMK AO2 T01300095,2025-09-12T05:17:38Z,2025-09-12T01:17:38Z,State College Regional Airport,40.849374,-77.84852,US,US-PA
KUOX,"Oxford/University Arpt, MS, US",2025-09-12T04:55:00Z,2025-09-11 23:55:00,VFR,21,19,0,0,0,NA,1020.1,METAR KUOX 120455Z AUTO 00000KT 10SM CLR 21/19 A3012 RMK AO2 PWINO,2025-09-12T05:01:05Z,2025-09-12T01:01:05Z,University Oxford Airport,34.384300231934,-89.536796569824,US,US-MS
KUOX,"Oxford/University Arpt, MS, US",2025-09-12T05:15:00Z,2025-09-12 00:15:00,VFR,21,19,0,0,0,NA,1020.1,METAR KUOX 120515Z AUTO 00000KT 10SM CLR 21/19 A3012 RMK AO2 PWINO,2025-09-12T05:17:38Z,2025-09-12T01:17:38Z,University Oxford Airport,34.384300231934,-89.536796569824,US,US-MS
KUSE,"Wauseon/Fulton Cnty, OH, US",2025-09-12T04:25:00Z,2025-09-12 04:25:00,VFR,12,10,40,3,0,NA,1023.5,METAR KUSE 120425Z AUTO 04003KT 10SM CLR 12/10 A3022 RMK AO2,2025-09-12T05:01:05Z,2025-09-12T01:01:05Z,Fulton County Airport,41.6101,-84.127197,US,US-OH
KUSE,"Wauseon/Fulton Cnty, OH, US",2025-09-12T04:55:00Z,2025-09-12 04:55:00,VFR,11,10,40,3,0,NA,1023.5,METAR KUSE 120455Z AUTO 04003KT 10SM CLR 11/10 A3022 RMK AO2,2025-09-12T05:17:38Z,2025-09-12T01:17:38Z,Fulton County Airport,41.6101,-84.127197,US,US-OH
KUTA,"Tunica Muni, MS, US",2025-09-12T04:55:00Z,2025-09-11 23:55:00,VFR,21.7,20.9,0,0,0,NA,1019,METAR KUTA 120455Z AUTO 00000KT 10SM CLR 22/21 A3009 RMK AO2 T02170209 $,2025-09-12T05:01:05Z,2025-09-12T01:01:05Z,Tunica Municipal Airport,34.68505,-90.347757,US,US-MS
KUTA,"Tunica Muni, MS, US",2025-09-12T05:15:00Z,2025-09-12 00:15:00,VFR,20.8,20.6,0,0,0,NA,1019,METAR KUTA 120515Z AUTO 00000KT 10SM CLR 21/21 A3009 RMK AO2 T02080206 $,2025-09-12T05:17:38Z,2025-09-12T01:17:38Z,Tunica Municipal Airport,34.68505,-90.347757,US,US-MS
KUTS,"Huntsville Muni, TX, US",2025-09-12T04:53:00Z,2025-09-11 23:53:00,VFR,25.6,22.2,180,3,0,NA,1019.4,METAR KUTS 120453Z AUTO 18003KT 10SM CLR 26/22 A3010 RMK AO2 SLP186 T02560222,2025-09-12T05:01:05Z,2025-09-12T01:01:05Z,Huntsville Regional Airport,30.7469005585,-95.5871963501,US,US-TX
KUUU,"Newport State Arpt, RI, US",2025-09-12T04:53:00Z,2025-09-12 00:53:00,VFR,13.9,12.2,0,0,0,NA,1020.1,METAR KUUU 120453Z AUTO 00000KT 10SM CLR 14/12 A3012 RMK AO2 SLP197 T01390122 402440122,2025-09-12T05:01:05Z,2025-09-12T01:01:05Z,Newport State Airport,41.532398,-71.281502,US,US-RI
KUUV,"Sullivan Rgnl, MO, US",2025-09-12T04:55:00Z,2025-09-12 04:55:00,VFR,21,17,0,0,0,NA,1021.4,METAR KUUV 120455Z AUTO 00000KT 10SM CLR 21/17 A3016 RMK AO2,2025-09-12T05:01:05Z,2025-09-12T01:01:05Z,Sullivan Regional Airport,38.233501,-91.164299,US,US-MO
KUUV,"Sullivan Rgnl, MO, US",2025-09-12T05:15:00Z,2025-09-12 05:15:00,VFR,21,18,0,0,0,NA,1021.1,METAR KUUV 120515Z AUTO 00000KT 10SM CLR 21/18 A3015 RMK AO2,2025-09-12T05:17:38Z,2025-09-12T01:17:38Z,Sullivan Regional Airport,38.233501,-91.164299,US,US-MO
KUVA,"Uvalde/Garner Fld, TX, US",2025-09-12T04:55:00Z,2025-09-11 23:55:00,VFR,25.5,17.9,100,6,0,NA,1019.4,METAR KUVA 120455Z AUTO 10006KT 10SM SCT060 26/18 A3010 RMK AO2 T02550179,2025-09-12T05:01:05Z,2025-09-12T01:01:05Z,Garner Field,29.2112998962,-99.743598938,US,US-TX
KUVA,"Uvalde/Garner Fld, TX, US",2025-09-12T05:15:00Z,2025-09-12 00:15:00,VFR,25.8,18.2,110,6,0,NA,1019.4,METAR KUVA 120515Z AUTO 11006KT 10SM SCT060 26/18 A3010 RMK AO2 T02580182,2025-09-12T05:17:38Z,2025-09-12T01:17:38Z,Garner Field,29.2112998962,-99.743598938,US,US-TX
KUWL,"New Castle/Henry Cnty, IN, US",2025-09-12T04:35:00Z,2025-09-12 04:35:00,VFR,17,11,90,10,0,NA,1022.4,METAR KUWL 120435Z AUTO 09010KT 10SM CLR 17/11 A3019 RMK A01,2025-09-12T05:01:05Z,2025-09-12T01:01:05Z,New Castle-Henry County Municipal Airport,39.8759,-85.3265,US,US-IN
KUWL,"New Castle/Henry Cnty, IN, US",2025-09-12T04:55:00Z,2025-09-12 04:55:00,VFR,17,11,90,8,0,NA,1022.4,METAR KUWL 120455Z AUTO 09008KT 10SM CLR 17/11 A3019 RMK A01,2025-09-12T05:17:38Z,2025-09-12T01:17:38Z,New Castle-Henry County Municipal Airport,39.8759,-85.3265,US,US-IN
KUXL,"Sulphur/Southland Fld, LA, US",2025-09-12T04:55:00Z,2025-09-12 04:55:00,VFR,25.2,23,0,0,0,NA,1019,METAR KUXL 120455Z AUTO 00000KT 10SM CLR 25/23 A3009 RMK AO2 T02520230,2025-09-12T05:01:05Z,2025-09-12T01:01:05Z,Southland Field,30.131399,-93.376099,US,US-LA
KUXL,"Sulphur/Southland Fld, LA, US",2025-09-12T05:15:00Z,2025-09-12 05:15:00,VFR,24.7,22.7,0,0,0,NA,1019,METAR KUXL 120515Z AUTO 00000KT 10SM CLR 25/23 A3009 RMK AO2 T02470227,2025-09-12T05:17:38Z,2025-09-12T01:17:38Z,Southland Field,30.131399,-93.376099,US,US-LA
KUYF,"London/Madison Cnty, OH, US",2025-09-12T04:55:00Z,2025-09-12 04:55:00,VFR,15,7,10,4,0,NA,1023.8,METAR KUYF 120455Z AUTO 01004KT 10SM CLR 15/07 A3023 RMK AO2,2025-09-12T05:01:05Z,2025-09-12T01:01:05Z,Madison County Airport,39.932701,-83.461998,US,US-OH
KUYF,"London/Madison Cnty, OH, US",2025-09-12T05:15:00Z,2025-09-12 05:15:00,VFR,14,7,10,4,0,NA,1023.8,METAR KUYF 120515Z AUTO 01004KT 10SM CLR 14/07 A3023 RMK AO2,2025-09-12T05:17:38Z,2025-09-12T01:17:38Z,Madison County Airport,39.932701,-83.461998,US,US-OH
KUZA,"Rock Hill/Bryant Fld, SC, US",2025-09-12T04:54:00Z,2025-09-12 00:54:00,VFR,15.6,14.4,0,0,0,NA,1021.1,METAR KUZA 120454Z AUTO 00000KT 10SM CLR 16/14 A3015 RMK AO2 SLP199 T01560144 402830128,2025-09-12T05:01:05Z,2025-09-12T01:01:05Z,Rock Hill - York County Airport,34.9878006,-81.05719757,US,US-SC
KVAY,"Mount Holly/S Jersey Rgnl, NJ, US",2025-09-12T04:54:00Z,2025-09-12 00:54:00,VFR,13.9,12.8,0,0,0,NA,1020.4,METAR KVAY 120454Z AUTO 00000KT 10SM FEW070 14/13 A3013 RMK AO2 SLP202 T01390128 402670133,2025-09-12T05:01:05Z,2025-09-12T01:01:05Z,South Jersey Regional Airport,39.942902,-74.845703,US,US-NJ
KVBT,"Bentonville Muni, AR, US",2025-09-12T04:56:00Z,2025-09-12 04:56:00,VFR,22.2,17.2,160,3,0,NA,1021.1,METAR KVBT 120456Z AUTO 16003KT 10SM CLR 22/17 A3015 RMK AO2 SLP200 T02220172,2025-09-12T05:01:05Z,2025-09-12T01:01:05Z,Bentonville Municipal-Louise M Thaden Field,36.345699,-94.219299,US,US-AR
KVCB,"Vacaville/Nut Tree Arpt, CA, US",2025-09-12T04:53:00Z,2025-09-12 04:53:00,VFR,21.7,14.4,180,4,0,NA,1013.6,METAR KVCB 120453Z AUTO 18004KT 10SM CLR 22/14 A2993 RMK AO2 SLP132 T02170144 $,2025-09-12T05:01:05Z,2025-09-12T01:01:05Z,Nut Tree Airport,38.376801,-121.961998,US,US-CA
KVCT,"Victoria Rgnl, TX, US",2025-09-12T04:51:00Z,2025-09-11 23:51:00,VFR,24.4,23.3,50,4,0,NA,1018,METAR KVCT 120451Z AUTO 05004KT 10SM CLR 24/23 A3006 RMK AO2 SLP178 T02440233,2025-09-12T05:01:05Z,2025-09-12T01:01:05Z,Victoria Regional Airport,28.85260009765625,-96.9185028076172,US,US-TX
KVCV,"Victorville/S California Arpt, CA, US",2025-09-12T04:35:00Z,2025-09-11 21:35:00,VFR,19,12,240,9,0,NA,1016,METAR KVCV 120435Z AUTO 24009KT 10SM FEW025 FEW034 BKN046 19/12 A3000 RMK AO2,2025-09-12T05:01:05Z,2025-09-12T01:01:05Z,Southern California Logistics Airport,34.597499847399995,-117.383003235,US,US-CA
KVCV,"Victorville/S California Arpt, CA, US",2025-09-12T04:55:00Z,2025-09-11 21:55:00,MVFR,19,12,230,10,0,NA,1016,METAR KVCV 120455Z AUTO 23010KT 10SM BKN027 BKN032 OVC046 19/12 A3000 RMK AO2,2025-09-12T05:17:38Z,2025-09-12T01:17:38Z,Southern California Logistics Airport,34.597499847399995,-117.383003235,US,US-CA
KVDF,"Tampa/Executive Arpt, FL, US",2025-09-12T04:55:00Z,2025-09-12 04:55:00,VFR,25,22,20,3,0,NA,1017.4,METAR KVDF 120455Z AUTO 02003KT 10SM OVC049 25/22 A3004 RMK AO2,2025-09-12T05:01:05Z,2025-09-12T01:01:05Z,Tampa Executive Airport,28.013999939,-82.3452987671,US,US-FL
KVDF,"Tampa/Executive Arpt, FL, US",2025-09-12T05:15:00Z,2025-09-12 05:15:00,VFR,25,22,30,3,0,NA,1017,METAR KVDF 120515Z AUTO 03003KT 10SM SCT049 SCT100 25/22 A3003 RMK AO2,2025-09-12T05:17:38Z,2025-09-12T01:17:38Z,Tampa Executive Airport,28.013999939,-82.3452987671,US,US-FL
KVDI,"Vidalia Rgnl, GA, US",2025-09-12T04:55:00Z,2025-09-12 00:55:00,VFR,20,20,220,1,0,NA,1019,METAR KVDI 120455Z AUTO 22001KT 10SM CLR 20/20 A3009 RMK AO2,2025-09-12T05:01:05Z,2025-09-12T01:01:05Z,Vidalia Regional Airport,32.192699432373,-82.371200561523,US,US-GA
KVEL,"Vernal Rgnl, UT, US",2025-09-12T04:53:00Z,2025-09-11 22:53:00,VFR,15.6,3.3,110,3,0,NA,1016.7,METAR KVEL 120453Z AUTO 11003KT 10SM CLR 16/03 A3002 RMK AO2 SLP103 T01560033,2025-09-12T05:01:05Z,2025-09-12T01:01:05Z,Vernal Regional Airport,40.436214,-109.511661,US,US-UT
KVER,"Boonville/Vertel Mem, MO, US",2025-09-12T04:55:00Z,2025-09-12 04:55:00,VFR,23.9,16.8,110,4,0,NA,1019.7,METAR KVER 120455Z AUTO 11004KT 10SM CLR 24/17 A3011 RMK AO2 T02390168,2025-09-12T05:01:07Z,2025-09-12T01:01:07Z,Jesse Viertel Memorial Airport,38.946701,-92.682701,US,US-MO
KVER,"Boonville/Vertel Mem, MO, US",2025-09-12T05:15:00Z,2025-09-12 05:15:00,VFR,23.3,16.8,120,4,0,NA,1019.7,METAR KVER 120515Z AUTO 12004KT 10SM CLR 23/17 A3011 RMK AO2 T02330168,2025-09-12T05:17:40Z,2025-09-12T01:17:40Z,Jesse Viertel Memorial Airport,38.946701,-92.682701,US,US-MO
KVES,"Versailles/Darke Cnty, OH, US",2025-09-12T04:55:00Z,2025-09-12 04:55:00,VFR,16,11,90,4,0,NA,1022.8,METAR KVES 120455Z AUTO 09004KT 10SM CLR 16/11 A3020 RMK AO2,2025-09-12T05:01:07Z,2025-09-12T01:01:07Z,Darke County Airport,40.204399,-84.531898,US,US-OH
KVGC,"Hamilton Muni, NY, US",2025-09-12T04:55:00Z,2025-09-12 04:55:00,MVFR,11,11,0,0,0,5,1023.5,METAR KVGC 120455Z AUTO 00000KT 5SM BR CLR 11/11 A3022 RMK AO2,2025-09-12T05:01:07Z,2025-09-12T01:01:07Z,Hamilton Municipal Airport,42.8438,-75.561401,US,US-NY
KVGC,"Hamilton Muni, NY, US",2025-09-12T05:15:00Z,2025-09-12 05:15:00,VFR,11,11,0,0,0,7,1023.5,METAR KVGC 120515Z AUTO 00000KT 7SM CLR 11/11 A3022 RMK AO2,2025-09-12T05:17:40Z,2025-09-12T01:17:40Z,Hamilton Municipal Airport,42.8438,-75.561401,US,US-NY
KVGT,"Las Vegas/North Arpt, NV, US",2025-09-12T04:53:00Z,2025-09-11 21:53:00,VFR,27.2,-1.1,210,5,0,NA,1010.2,METAR KVGT 120453Z AUTO 21005KT 10SM CLR 27/M01 A2983 RMK AO2 SLP097 T02721011,2025-09-12T05:01:07Z,2025-09-12T01:01:07Z,North Las Vegas Metropolitan International Airport,36.210701,-115.194,US,US-NV
KVHN,"Van Horn/Culberson Cnty, TX, US",2025-09-12T04:55:00Z,2025-09-11 23:55:00,VFR,25.7,12,80,7,0,NA,1022.1,METAR KVHN 120455Z AUTO 08007KT 10SM CLR 26/12 A3018 RMK AO2 LTG DSNT NW T02570120,2025-09-12T05:01:07Z,2025-09-12T01:01:07Z,Culberson County Airport,31.057800292969,-104.78399658203,US,US-TX
KVIH,"Vichy/Rolla Arpt, MO, US",2025-09-12T04:53:00Z,2025-09-11 23:53:00,VFR,23.3,15.6,110,6,0,NA,1020.7,METAR KVIH 120453Z AUTO 11006KT 10SM SCT085 23/16 A3014 RMK AO2 SLP191 T02330156 $,2025-09-12T05:01:07Z,2025-09-12T01:01:07Z,Rolla National Airport,38.127399,-91.769501,US,US-MO
KVIS,"Visalia Muni, CA, US",2025-09-12T04:56:00Z,2025-09-11 21:56:00,VFR,23.9,13.3,310,9,0,NA,1013.3,METAR KVIS 120456Z AUTO 31009KT 10SM BKN075 24/13 A2992 RMK AO2 SLP129 T02390133 $,2025-09-12T05:01:07Z,2025-09-12T01:01:07Z,Visalia Municipal Airport,36.318699,-119.392998,US,US-CA
KVJI,"Abingdon/Virginia Highlands Arpt, VA, US",2025-09-12T04:55:00Z,2025-09-12 00:55:00,VFR,14,11,60,4,0,NA,1023.1,METAR KVJI 120455Z AUTO 06004KT 10SM CLR 14/11 A3021 RMK AO2,2025-09-12T05:01:07Z,2025-09-12T01:01:07Z,Virginia Highlands Airport,36.687099,-82.033302,US,US-VA
KVJI,"Abingdon/Virginia Highlands Arpt, VA, US",2025-09-12T05:15:00Z,2025-09-12 01:15:00,VFR,13,11,70,3,0,NA,1023.1,METAR KVJI 120515Z AUTO 07003KT 10SM CLR 13/11 A3021 RMK AO2,2025-09-12T05:17:40Z,2025-09-12T01:17:40Z,Virginia Highlands Airport,36.687099,-82.033302,US,US-VA
KVKS,"Vicksburg Arpt, MS, US",2025-09-12T04:35:00Z,2025-09-11 23:35:00,VFR,22,22,0,0,0,NA,1019,METAR KVKS 120435Z AUTO 00000KT 10SM CLR 22/22 A3009 RMK A01,2025-09-12T05:01:08Z,2025-09-12T01:01:08Z,Vicksburg Municipal Airport,32.23929977417,-90.928398132324,US,US-MS
KVKS,"Vicksburg Arpt, MS, US",2025-09-12T04:55:00Z,2025-09-11 23:55:00,VFR,22,22,0,0,0,NA,1019,METAR KVKS 120455Z AUTO 00000KT 10SM CLR 22/22 A3009 RMK A01,2025-09-12T05:17:40Z,2025-09-12T01:17:40Z,Vicksburg Municipal Airport,32.23929977417,-90.928398132324,US,US-MS
KVLD,"Valdosta Rgnl, GA, US",2025-09-12T04:53:00Z,2025-09-12 00:53:00,VFR,17.8,16.7,0,0,0,NA,1018.7,METAR KVLD 120453Z AUTO 00000KT 10SM CLR 18/17 A3008 RMK AO2 SLP193 T01780167 403060156,2025-09-12T05:01:07Z,2025-09-12T01:01:07Z,Valdosta Regional Airport,30.782499313354492,-83.276702880859375,US,US-GA
KVLL,"Oakland-Troy Arpt, MI, US",2025-09-12T04:55:00Z,2025-09-12 04:55:00,VFR,16,12,340,2,0,NA,1023.8,METAR KVLL 120455Z AUTO 34002KT 10SM CLR 16/12 A3023 RMK AO2,2025-09-12T05:01:07Z,2025-09-12T01:01:07Z,Oakland Troy Airport,42.5429,-83.177902,US,US-MI
KVLL,"Oakland-Troy Arpt, MI, US",2025-09-12T05:15:00Z,2025-09-12 05:15:00,VFR,16,12,350,2,0,NA,1023.8,METAR KVLL 120515Z AUTO 35002KT 10SM CLR 16/12 A3023 RMK AO2,2025-09-12T05:17:40Z,2025-09-12T01:17:40Z,Oakland Troy Airport,42.5429,-83.177902,US,US-MI
KVMR,"Vermillion/Davidson Fld, SD, US",2025-09-12T04:35:00Z,2025-09-12 04:35:00,VFR,21,20,120,8,0,NA,1015.7,METAR KVMR 120435Z AUTO 12008KT 10SM CLR 21/20 A2999 RMK AO2,2025-09-12T05:01:08Z,2025-09-12T01:01:08Z,Harold Davidson Field,42.76530075,-96.93430328,US,US-SD
KVMR,"Vermillion/Davidson Fld, SD, US",2025-09-12T04:55:00Z,2025-09-12 04:55:00,VFR,21,20,120,8,0,NA,1015.7,METAR KVMR 120455Z AUTO 12008KT 10SM CLR 21/20 A2999 RMK AO2,2025-09-12T05:17:40Z,2025-09-12T01:17:40Z,Harold Davidson Field,42.76530075,-96.93430328,US,US-SD
KVNW,"Van Wert Cnty Arpt, OH, US",2025-09-12T04:55:00Z,2025-09-12 04:55:00,VFR,13,9,0,0,0,NA,1023.5,METAR KVNW 120455Z AUTO 00000KT 10SM CLR 13/09 A3022 RMK AO2,2025-09-12T05:01:07Z,2025-09-12T01:01:07Z,Van Wert County Airport,40.8647,-84.609398,US,US-OH
KVNW,"Van Wert Cnty Arpt, OH, US",2025-09-12T05:15:00Z,2025-09-12 05:15:00,VFR,13,10,0,0,0,NA,1023.5,METAR KVNW 120515Z AUTO 00000KT 10SM CLR 13/10 A3022 RMK AO2,2025-09-12T05:17:40Z,2025-09-12T01:17:40Z,Van Wert County Airport,40.8647,-84.609398,US,US-OH
KVNY,"Van Nuys Arpt, CA, US",2025-09-12T04:51:00Z,2025-09-11 21:51:00,VFR,20.6,13.3,250,3,0,NA,1013.3,METAR KVNY 120451Z 25003KT 10SM CLR 21/13 A2992 RMK AO2 SLP125 T02060133,2025-09-12T05:01:08Z,2025-09-12T01:01:08Z,Van Nuys Airport,34.209800720215,-118.48999786377,US,US-CA
KVPC,"Cartersville Arpt, GA, US",2025-09-12T04:55:00Z,2025-09-12 04:55:00,VFR,20,18,0,0,0,NA,1020.4,METAR KVPC 120455Z AUTO 00000KT 10SM CLR 20/18 A3013 RMK AO2,2025-09-12T05:01:07Z,2025-09-12T01:01:07Z,Cartersville Airport,34.1231,-84.848701,US,US-GA
KVPZ,"Valparaiso/Port Cnty, IN, US",2025-09-12T04:56:00Z,2025-09-11 23:56:00,VFR,17.2,12.8,30,4,0,NA,1023.1,METAR KVPZ 120456Z AUTO 03004KT 10SM CLR 17/13 A3021 RMK AO2 SLP227 T01720128,2025-09-12T05:01:07Z,2025-09-12T01:01:07Z,Porter County Municipal Airport,41.45399857,-87.00710297,US,US-IN
KVQQ,"Jacksonville/Cecil Arpt, FL, US",2025-09-12T04:55:00Z,2025-09-12 00:55:00,VFR,19,18,0,0,0,NA,1017.7,METAR KVQQ 120455Z AUTO 00000KT 10SM CLR 19/18 A3005 RMK AO2,2025-09-12T05:01:07Z,2025-09-12T01:01:07Z,Cecil Airport,30.2187,-81.876701,US,US-FL
KVQQ,"Jacksonville/Cecil Arpt, FL, US",2025-09-12T05:15:00Z,2025-09-12 01:15:00,VFR,20,19,350,4,0,NA,1017.7,METAR KVQQ 120515Z AUTO 35004KT 10SM CLR 20/19 A3005 RMK AO2,2025-09-12T05:17:40Z,2025-09-12T01:17:40Z,Cecil Airport,30.2187,-81.876701,US,US-FL
KVRB,"Vero Beach Muni, FL, US",2025-09-12T04:53:00Z,2025-09-12 00:53:00,VFR,26.1,23.9,360,6,0,NA,1015,METAR KVRB 120453Z AUTO 36006KT 10SM FEW025 SCT055 BKN065 26/24 A2997 RMK AO2 SLP148 T02610239 403060244,2025-09-12T05:01:07Z,2025-09-12T01:01:07Z,Vero Beach Regional Airport,27.6556,-80.417901,US,US-FL
KVSF,"Springfield/Hartness State Arpt, VT, US",2025-09-12T04:54:00Z,2025-09-12 00:54:00,VFR,11.7,9.4,0,0,0,NA,1022.8,METAR KVSF 120454Z AUTO 00000KT 10SM CLR 12/09 A3020 RMK AO2 SLP225 T01170094 402720067 $,2025-09-12T05:01:07Z,2025-09-12T01:01:07Z,Hartness State Airport,43.343601,-72.517303,US,US-VT
KVTA,"Newark/Heath Arpt, OH, US",2025-09-12T04:54:00Z,2025-09-12 04:54:00,VFR,13.3,10,0,0,0,NA,1022.8,METAR KVTA 120454Z AUTO 00000KT 10SM CLR 13/10 A3020 RMK AO2 SLP223 T01330100 402830083,2025-09-12T05:01:07Z,2025-09-12T01:01:07Z,Newark Heath Airport,40.024700164799995,-82.46179962160001,US,US-OH
KVTI,"Vinton/Veterans Mem, IA, US",2025-09-12T04:55:00Z,2025-09-12 04:55:00,VFR,17.5,14.1,100,3,0,NA,1021.1,METAR KVTI 120455Z AUTO 10003KT 10SM CLR 18/14 A3015 RMK AO2 T01750141,2025-09-12T05:01:07Z,2025-09-12T01:01:07Z,Vinton Veterans Memorial Airpark,42.218221,-92.025905,US,US-IA
KVTI,"Vinton/Veterans Mem, IA, US",2025-09-12T05:15:00Z,2025-09-12 05:15:00,VFR,17.1,14.1,120,3,0,NA,1021.1,METAR KVTI 120515Z AUTO 12003KT 10SM CLR 17/14 A3015 RMK AO2 T01710141,2025-09-12T05:17:40Z,2025-09-12T01:17:40Z,Vinton Veterans Memorial Airpark,42.218221,-92.025905,US,US-IA
KVTN,"Valentine/Miller Fld, NE, US",2025-09-12T04:52:00Z,2025-09-11 23:52:00,VFR,21.7,17.8,170,9,0,NA,1014.3,METAR KVTN 120452Z AUTO 17009KT 10SM CLR 22/18 A2995 RMK AO2 SLP120 T02170178,2025-09-12T05:01:08Z,2025-09-12T01:01:08Z,Miller Field,42.856211,-100.549192,US,US-NE
KVUJ,"Albemarle/Stanly Cnty, NC, US",2025-09-12T04:45:00Z,2025-09-12 04:45:00,VFR,15.5,15.1,0,0,0,NA,1022.4,METAR KVUJ 120445Z AUTO 00000KT 10SM CLR 16/15 A3019 RMK AO2 T01550151,2025-09-12T05:01:08Z,2025-09-12T01:01:08Z,Stanly County Airport,35.416698455811,-80.150802612305,US,US-NC
KVUJ,"Albemarle/Stanly Cnty, NC, US",2025-09-12T05:05:00Z,2025-09-12 05:05:00,VFR,15.4,15,0,0,0,NA,1022.4,METAR KVUJ 120505Z AUTO 00000KT 10SM CLR 15/15 A3019 RMK AO2 T01540150,2025-09-12T05:17:40Z,2025-09-12T01:17:40Z,Stanly County Airport,35.416698455811,-80.150802612305,US,US-NC
KVUO,"Vancouver/Pearson Fld, WA, US",2025-09-12T04:53:00Z,2025-09-12 04:53:00,VFR,16.7,12.8,VAR,3,0,NA,1018.7,METAR KVUO 120453Z AUTO VRB03KT 10SM OVC033 17/13 A3008 RMK AO2 SLP187 T01670128,2025-09-12T05:01:07Z,2025-09-12T01:01:07Z,Pearson Field,45.620499,-122.655998,US,US-WA
KVVS,"Connellsville/Hardy Aprt, PA, US",2025-09-12T04:55:00Z,2025-09-12 04:55:00,VFR,12.8,9,0,0,0,NA,1022.8,METAR KVVS 120455Z AUTO 00000KT 10SM CLR 13/09 A3020 RMK AO2 T01280090,2025-09-12T05:01:07Z,2025-09-12T01:01:07Z,Joseph A. Hardy Connellsville Airport,39.960872,-79.657745,US,US-PA
KVVV,"Ortonville Muni, MN, US",2025-09-12T04:55:00Z,2025-09-12 04:55:00,VFR,19,18,130,5,0,NA,1017,METAR KVVV 120455Z AUTO 13005KT 10SM CLR 19/18 A3003 RMK AO2,2025-09-12T05:01:07Z,2025-09-12T01:01:07Z,Ortonville Municipal Airport/Martinson Field,45.305698,-96.4244,US,US-MN
KVVV,"Ortonville Muni, MN, US",2025-09-12T05:15:00Z,2025-09-12 05:15:00,VFR,18,18,0,0,0,NA,1017,METAR KVVV 120515Z AUTO 00000KT 10SM CLR 18/18 A3003 RMK AO2,2025-09-12T05:17:40Z,2025-09-12T01:17:40Z,Ortonville Municipal Airport/Martinson Field,45.305698,-96.4244,US,US-MN
KVWU,"Waskish Muni, MN, US",2025-09-12T04:55:00Z,2025-09-12 04:55:00,MVFR,17,17,120,4,0,NA,1019.4,METAR KVWU 120455Z AUTO 12004KT 10SM BKN010 17/17 A3010 RMK AO2,2025-09-12T05:01:07Z,2025-09-12T01:01:07Z,Waskish Municipal Airport,48.15409851074219,-94.51689910888672,US,US-MN
KVWU,"Waskish Muni, MN, US",2025-09-12T05:15:00Z,2025-09-12 05:15:00,VFR,16,16,140,3,0,NA,1019.4,METAR KVWU 120515Z AUTO 14003KT 10SM SCT010 16/16 A3010 RMK AO2,2025-09-12T05:17:40Z,2025-09-12T01:17:40Z,Waskish Municipal Airport,48.15409851074219,-94.51689910888672,US,US-MN
KVYS,"Peru/Illinois Valley Rgnl, IL, US",2025-09-12T04:55:00Z,2025-09-11 23:55:00,VFR,15.8,13.2,60,5,0,NA,1022.8,METAR KVYS 120455Z AUTO 06005KT 10SM CLR 16/13 A3020 RMK AO2 T01580132 TSNO,2025-09-12T05:01:07Z,2025-09-12T01:01:07Z,Illinois Valley Regional Airport Walter A Duncan Field,41.351898,-89.153099,US,US-IL
KW22,"Buckhannon/Upshur Cnty, WV, US",2025-09-12T04:55:00Z,2025-09-12 04:55:00,VFR,15,14,0,0,0,NA,1022.8,METAR KW22 120455Z AUTO 00000KT 10SM CLR 15/14 A3020 RMK AO2,2025-09-12T05:01:07Z,2025-09-12T01:01:07Z,Upshur County Regional Airport,39.00049973,-80.2736969,US,US-WV
KW31,"Kenbridge/Lunenburg Cnty, VA, US",2025-09-12T04:55:00Z,2025-09-12 04:55:00,VFR,16.4,16.4,0,0,0,NA,1021.1,METAR KW31 120455Z AUTO 00000KT 10SM SCT002 16/16 A3015 RMK AO1 T01640164 402720164,2025-09-12T05:01:07Z,2025-09-12T01:01:07Z,Lunenburg County Airport,36.960201263427734,-78.18499755859375,US,US-VA
KW31,"Kenbridge/Lunenburg Cnty, VA, US",2025-09-12T05:15:00Z,2025-09-12 05:15:00,VFR,16.5,16.5,0,0,0,7,1021.1,METAR KW31 120515Z AUTO 00000KT 7SM SCT002 17/17 A3015 RMK AO1 T01650165,2025-09-12T05:17:40Z,2025-09-12T01:17:40Z,Lunenburg County Airport,36.960201263427734,-78.18499755859375,US,US-VA
KW40,"Mt Olive Muni, NC, US",2025-09-12T04:45:00Z,2025-09-12 04:45:00,VFR,19.9,19.3,10,3,0,NA,1020.1,METAR KW40 120445Z AUTO 01003KT 10SM OVC075 20/19 A3012 RMK AO2 T01990193,2025-09-12T05:01:08Z,2025-09-12T01:01:08Z,Mount Olive Municipal Airport,35.221409,-78.038678,US,US-NC
KW40,"Mt Olive Muni, NC, US",2025-09-12T05:05:00Z,2025-09-12 05:05:00,VFR,19.7,19.1,10,3,0,NA,1020.1,METAR KW40 120505Z AUTO 01003KT 10SM BKN075 OVC085 20/19 A3012 RMK AO2 T01970191,2025-09-12T05:17:40Z,2025-09-12T01:17:40Z,Mount Olive Municipal Airport,35.221409,-78.038678,US,US-NC
KW63,"Clarksville/Lake Country Arpt, VA, US",2025-09-12T04:55:00Z,2025-09-12 04:55:00,VFR,17,17,0,0,0,7,1021.1,METAR KW63 120455Z AUTO 00000KT 7SM CLR 17/17 A3015 RMK AO1,2025-09-12T05:01:07Z,2025-09-12T01:01:07Z,Lake Country Regional Airport,36.595798,-78.560097,US,US-VA
KW63,"Clarksville/Lake Country Arpt, VA, US",2025-09-12T05:15:00Z,2025-09-12 05:15:00,VFR,17,17,0,0,0,NA,1021.1,METAR KW63 120515Z AUTO 00000KT 10SM CLR 17/17 A3015 RMK AO1,2025-09-12T05:17:40Z,2025-09-12T01:17:40Z,Lake Country Regional Airport,36.595798,-78.560097,US,US-VA
KW78,"South Boston/Tuck Arpr, VA, US",2025-09-12T04:55:00Z,2025-09-12 04:55:00,MVFR,15.5,14.8,0,0,0,3,1021.1,METAR KW78 120455Z AUTO 00000KT 3SM CLR 16/15 A3015 RMK AO1 T01550148 402760155,2025-09-12T05:01:07Z,2025-09-12T01:01:07Z,William M Tuck Airport,36.709999,-78.848,US,US-VA
KW78,"South Boston/Tuck Arpr, VA, US",2025-09-12T05:15:00Z,2025-09-12 05:15:00,IFR,15.8,15,0,0,0,1.25,1021.1,METAR KW78 120515Z AUTO 00000KT 1 1/4SM VV007 16/15 A3015 RMK AO1 VIS 1/2V4 T01580150,2025-09-12T05:17:40Z,2025-09-12T01:17:40Z,William M Tuck Airport,36.709999,-78.848,US,US-VA
KW81,"Crewe Muni, VA, US",2025-09-12T04:55:00Z,2025-09-12 04:55:00,VFR,15.1,13.7,0,0,0,NA,1021.1,METAR KW81 120455Z AUTO 00000KT 10SM CLR 15/14 A3015 RMK AO1 T01510137 402660149,2025-09-12T05:01:07Z,2025-09-12T01:01:07Z,Crewe Municipal Airport,37.181,-78.098297,US,US-VA
KW81,"Crewe Muni, VA, US",2025-09-12T05:15:00Z,2025-09-12 05:15:00,VFR,14.1,12.7,0,0,0,7,1021.1,METAR KW81 120515Z AUTO 00000KT 7SM CLR 14/13 A3015 RMK AO1 T01410127,2025-09-12T05:17:40Z,2025-09-12T01:17:40Z,Crewe Municipal Airport,37.181,-78.098297,US,US-VA
KW96,"Quinton/New Kent Cnty, VA, US",2025-09-12T04:55:00Z,2025-09-12 04:55:00,VFR,15.4,15.1,0,0,0,NA,1020.4,METAR KW96 120455Z AUTO 00000KT 10SM CLR 15/15 A3013 RMK AO1 T01540151 402500154,2025-09-12T05:01:07Z,2025-09-12T01:01:07Z,New Kent County Airport,37.5032,-77.125501,US,US-VA
KW96,"Quinton/New Kent Cnty, VA, US",2025-09-12T05:15:00Z,2025-09-12 05:15:00,VFR,15.1,14.8,0,0,0,NA,1020.4,METAR KW96 120515Z AUTO 00000KT 10SM CLR 15/15 A3013 RMK AO1 T01510148,2025-09-12T05:17:40Z,2025-09-12T01:17:40Z,New Kent County Airport,37.5032,-77.125501,US,US-VA
KWAL,"Wallops Island Facility Arpt, VA, US",2025-09-12T04:54:00Z,2025-09-12 00:54:00,VFR,16.1,15.6,320,3,0,9,1020.4,METAR KWAL 120454Z AUTO 32003KT 9SM FEW080 16/16 A3013 RMK AO2 SLP199 T01610156 402500156,2025-09-12T05:01:07Z,2025-09-12T01:01:07Z,Wallops Flight Facility Airport,37.940813,-75.462255,US,US-VA
KWDG,"Enid/Woodring Arpt, OK, US",2025-09-12T04:55:00Z,2025-09-11 23:55:00,VFR,20,17,140,5,0,NA,1018,METAR KWDG 120455Z AUTO 14005KT 10SM CLR 20/17 A3006 RMK AO2,2025-09-12T05:01:07Z,2025-09-12T01:01:07Z,Enid Woodring Regional Airport,36.3791999817,-97.7910995483,US,US-OK
KWDR,"Winder/Barrow Cnty, GA, US",2025-09-12T04:55:00Z,2025-09-12 00:55:00,VFR,18,16,VAR,NA,0,NA,1021.4,METAR KWDR 120455Z 10SM CLR 18/16 A3016 RMK AO2,2025-09-12T05:01:07Z,2025-09-12T01:01:07Z,Barrow County Airport,33.98289871,-83.66739655,US,US-GA
KWJF,"Lancaster/Fox Arfld, CA, US",2025-09-12T04:56:00Z,2025-09-11 21:56:00,VFR,18.9,12.2,230,11,0,NA,1014.6,METAR KWJF 120456Z AUTO 23011KT 10SM CLR 19/12 A2996 RMK AO2 SLP132 T01890122,2025-09-12T05:01:07Z,2025-09-12T01:01:07Z,General William J Fox Airfield,34.7411,-118.219002,US,US-CA
KWLD,"Winfield/Strother Fld, KS, US",2025-09-12T04:54:00Z,2025-09-11 23:54:00,VFR,22.8,18.3,160,7,0,NA,1018.4,METAR KWLD 120454Z AUTO 16007KT 10SM CLR 23/18 A3007 RMK AO2 SLP171 T02280183,2025-09-12T05:01:07Z,2025-09-12T01:01:07Z,Strother Field,37.168598,-97.037598,US,US-KS
KWMC,"Winnemucca Muni, NV, US",2025-09-12T04:56:00Z,2025-09-11 21:56:00,VFR,12.2,7.2,320,5,0,NA,1017.7,METAR KWMC 120456Z AUTO 32005KT 10SM CLR 12/07 A3005 RMK AO2 SLP148 T01220072,2025-09-12T05:01:07Z,2025-09-12T01:01:07Z,Winnemucca Municipal Airport,40.8965988159,-117.805999756,US,US-NV
KWRL,"Worland Muni, WY, US",2025-09-12T04:53:00Z,2025-09-11 22:53:00,VFR,15.6,5,190,7,0,NA,1017,METAR KWRL 120453Z AUTO 19007KT 10SM CLR 16/05 A3003 RMK AO2 SLP131 T01560050,2025-09-12T05:01:07Z,2025-09-12T01:01:07Z,Worland Municipal Airport,43.965698,-107.950996,US,US-WY
KWST,"Westerly State Arpt, RI, US",2025-09-12T04:53:00Z,2025-09-12 00:53:00,VFR,13.3,12.8,0,0,0,NA,1020.1,METAR KWST 120453Z AUTO 00000KT 10SM CLR 13/13 A3012 RMK AO2 SLP200 T01330128 402560106,2025-09-12T05:01:07Z,2025-09-12T01:01:07Z,Westerly State Airport,41.349602,-71.803398,US,US-RI
KWVI,"Watsonville Muni, CA, US",2025-09-12T04:53:00Z,2025-09-11 21:53:00,VFR,16.1,13.9,60,3,0,7,1016,METAR KWVI 120453Z AUTO 06003KT 7SM CLR 16/14 A3000 RMK AO2 SLP157 T01610139 $,2025-09-12T05:01:07Z,2025-09-12T01:01:07Z,Watsonville Municipal Airport,36.9356994629,-121.790000916,US,US-CA
KWVL,"Waterville/Lafleur Arpt, ME, US",2025-09-12T04:56:00Z,2025-09-12 00:56:00,VFR,12.8,8.3,10,5,0,NA,1020.7,METAR KWVL 120456Z AUTO 01005KT 10SM CLR 13/08 A3014 RMK AO2 SLP233 T01280083 402440067,2025-09-12T05:01:07Z,2025-09-12T01:01:07Z,Waterville Robert Lafleur Airport,44.5331993103,-69.6754989624,US,US-ME
KWWD,"Wildwood/Cape May Cnty, NJ, US",2025-09-12T04:56:00Z,2025-09-12 00:56:00,VFR,14.4,13.9,0,0,0,NA,1020.7,METAR KWWD 120456Z AUTO 00000KT 10SM CLR 14/14 A3014 RMK AO2 SLP208 T01440139 402500144 PNO $,2025-09-12T05:01:07Z,2025-09-12T01:01:07Z,Cape May County Airport,39.0084991455,-74.9083023071,US,US-NJ
KWWR,"Woodward Arpt, OK, US",2025-09-12T04:55:00Z,2025-09-11 23:55:00,VFR,24,12,180,14,18,NA,1019.4,METAR KWWR 120455Z AUTO 18014G18KT 10SM CLR 24/12 A3010 RMK AO2,2025-09-12T05:01:07Z,2025-09-12T01:01:07Z,West Woodward Airport,36.438,-99.5226667,US,US-OK
KWYS,"West Yellowstone Arpt, MT, US",2025-09-12T04:35:00Z,2025-09-11 22:35:00,VFR,7,2,0,0,0,NA,1021.4,METAR KWYS 120435Z AUTO 00000KT 10SM CLR 07/02 A3016 RMK AO2,2025-09-12T05:01:08Z,2025-09-12T01:01:08Z,Yellowstone Airport,44.6884,-111.117996,US,US-MT
KWYS,"West Yellowstone Arpt, MT, US",2025-09-12T04:55:00Z,2025-09-11 22:55:00,VFR,7,2,0,0,0,NA,1021.4,METAR KWYS 120455Z AUTO 00000KT 10SM FEW100 07/02 A3016 RMK AO2,2025-09-12T05:17:40Z,2025-09-12T01:17:40Z,Yellowstone Airport,44.6884,-111.117996,US,US-MT
KX26,"Sabastian Arpt, FL, US",2025-09-12T04:55:00Z,2025-09-12 04:55:00,VFR,26,24,40,10,18,NA,1015.3,METAR KX26 120455Z AUTO 04010G18KT 10SM FEW041 SCT050 SCT065 26/24 A2998 RMK AO2 LTG DSNT E AND NW,2025-09-12T05:01:07Z,2025-09-12T01:01:07Z,Sebastian Municipal Airport,27.812599,-80.495903,US,US-FL
KX60,"Williston Muni, FL, US",2025-09-12T04:35:00Z,2025-09-12 04:35:00,VFR,21.5,19,360,3,0,NA,1018,METAR KX60 120435Z AUTO 36003KT 10SM CLR 21/19 A3006 RMK AO2 T02150190,2025-09-12T05:01:08Z,2025-09-12T01:01:08Z,Williston Municipal Airport,29.35420036315918,-82.472900390625,US,US-FL
KXBP,"Bridgeport Muni, TX, US",2025-09-12T04:35:00Z,2025-09-12 04:35:00,VFR,26.7,16.7,190,6,0,NA,1019.7,METAR KXBP 120435Z AUTO 19006KT 10SM CLR 27/17 A3011 RMK AO2 T02670167,2025-09-12T05:01:08Z,2025-09-12T01:01:08Z,Bridgeport Municipal Airport,33.175301,-97.8284,US,US-TX
KXBP,"Bridgeport Muni, TX, US",2025-09-12T04:55:00Z,2025-09-12 04:55:00,VFR,27,16.7,170,5,0,NA,1019.7,METAR KXBP 120455Z AUTO 17005KT 10SM CLR 27/17 A3011 RMK AO2 T02700167,2025-09-12T05:17:40Z,2025-09-12T01:17:40Z,Bridgeport Municipal Airport,33.175301,-97.8284,US,US-TX
KXLL,"Allentown/Queen City, PA, US",2025-09-12T04:55:00Z,2025-09-12 04:55:00,VFR,15,12,0,0,0,NA,1021.8,METAR KXLL 120455Z AUTO 00000KT 10SM CLR 15/12 A3017 RMK AO2 TSNO,2025-09-12T05:01:07Z,2025-09-12T01:01:07Z,Allentown Queen City Municipal Airport,40.570105,-75.486763,US,US-PA
KXLL,"Allentown/Queen City, PA, US",2025-09-12T05:15:00Z,2025-09-12 05:15:00,VFR,15,13,0,0,0,NA,1021.8,METAR KXLL 120515Z AUTO 00000KT 10SM CLR 15/13 A3017 RMK AO2 TSNO,2025-09-12T05:17:40Z,2025-09-12T01:17:40Z,Allentown Queen City Municipal Airport,40.570105,-75.486763,US,US-PA
KXSA,"Tappahannock/Essex Cnty, VA, US",2025-09-12T04:55:00Z,2025-09-12 04:55:00,VFR,15.5,15.5,0,0,0,NA,1021.1,METAR KXSA 120455Z AUTO 00000KT 10SM BKN080 16/16 A3015 RMK AO2 T01550155,2025-09-12T05:01:07Z,2025-09-12T01:01:07Z,Tappahannock-Essex County Airport,37.8596,-76.894096,US,US-VA
KXSA,"Tappahannock/Essex Cnty, VA, US",2025-09-12T05:15:00Z,2025-09-12 05:15:00,VFR,14.8,14.8,0,0,0,7,1020.7,METAR KXSA 120515Z AUTO 00000KT 7SM CLR 15/15 A3014 RMK AO2 T01480148,2025-09-12T05:17:40Z,2025-09-12T01:17:40Z,Tappahannock-Essex County Airport,37.8596,-76.894096,US,US-VA
KXVG,"Longville Muni, MN, US",2025-09-12T04:53:00Z,2025-09-12 04:53:00,IFR,15,14,120,4,0,NA,1020.1,METAR KXVG 120453Z AUTO 12004KT 10SM OVC008 15/14 A3012 RMK AO2,2025-09-12T05:01:07Z,2025-09-12T01:01:07Z,Longville Municipal Airport,46.9902,-94.204002,US,US-MN
KXVG,"Longville Muni, MN, US",2025-09-12T05:13:00Z,2025-09-12 05:13:00,IFR,16,14,110,4,0,NA,1020.1,METAR KXVG 120513Z AUTO 11004KT 10SM OVC008 16/14 A3012 RMK AO2 LTG DSNT NW,2025-09-12T05:17:40Z,2025-09-12T01:17:40Z,Longville Municipal Airport,46.9902,-94.204002,US,US-MN
KXWA,"Williston/Basin Intl, ND, US",2025-09-12T04:51:00Z,2025-09-11 23:51:00,VFR,20,16.7,20,8,0,NA,1012.6,METAR KXWA 120451Z AUTO 02008KT 10SM CLR 20/17 A2990 RMK AO2 SLP120 T02000167,2025-09-12T05:01:08Z,2025-09-12T01:01:08Z,Williston Basin International Airport,48.258387,-103.748797,US,US-ND
KY19,"Mandan Muni, ND, US",2025-09-12T04:55:00Z,2025-09-12 04:55:00,NA,21,20,140,9,0,NA,1012.3,METAR KY19 120455Z AUTO 14009KT 10SM 21/20 A2989 RMK AO2 LTG DSNT N,2025-09-12T05:01:07Z,2025-09-12T01:01:07Z,Mandan Municipal Airport,46.7681999206543,-100.8939971923828,US,US-ND
KY19,"Mandan Muni, ND, US",2025-09-12T05:15:00Z,2025-09-12 05:15:00,NA,21,20,150,9,16,NA,1012.3,METAR KY19 120515Z AUTO 15009G16KT 10SM 21/20 A2989 RMK AO2 LTG DSNT N AND NE,2025-09-12T05:17:40Z,2025-09-12T01:17:40Z,Mandan Municipal Airport,46.7681999206543,-100.8939971923828,US,US-ND
KY23,"Chetek Muni, WI, US",2025-09-12T04:55:00Z,2025-09-12 04:55:00,VFR,16.2,15.7,120,4,0,NA,1022.8,METAR KY23 120455Z AUTO 12004KT 10SM CLR 16/16 A3020 RMK AO2 T01620157 402480117,2025-09-12T05:01:07Z,2025-09-12T01:01:07Z,Chetek Municipal Southworth Airport,45.306198,-91.6362,US,US-WI
KY31,"West Branch Arpt, MI, US",2025-09-12T04:55:00Z,2025-09-12 00:55:00,MVFR,9.7,9.6,0,0,0,3,1024.5,METAR KY31 120455Z AUTO 00000KT 3SM BR SCT005 10/10 A3025 RMK AO2 T00970096,2025-09-12T05:01:07Z,2025-09-12T01:01:07Z,West Branch Community Airport,44.244801,-84.179802,US,US-MI
KY31,"West Branch Arpt, MI, US",2025-09-12T05:15:00Z,2025-09-12 01:15:00,IFR,9.8,9.6,0,0,0,1.25,1024.5,METAR KY31 120515Z AUTO 00000KT 1 1/4SM BR OVC005 10/10 A3025 RMK AO2 T00980096,2025-09-12T05:17:40Z,2025-09-12T01:17:40Z,West Branch Community Airport,44.244801,-84.179802,US,US-MI
KY50,"Wautoma Muni, WI, US",2025-09-12T04:56:00Z,2025-09-12 04:56:00,IFR,11.1,10.6,0,0,0,2.5,1024.1,METAR KY50 120456Z AUTO 00000KT 2 1/2SM BR FEW011 11/11 A3024 RMK AO2 SLP238 T01110106 $,2025-09-12T05:01:07Z,2025-09-12T01:01:07Z,Wautoma Municipal Airport,44.041599,-89.304497,US,US-WI
KY50,"Wautoma Muni, WI, US",2025-09-12T05:10:00Z,2025-09-12 05:10:00,IFR,12,11,0,0,0,1.5,1024.1,SPECI KY50 120510Z AUTO 00000KT 1 1/2SM BR BKN007 BKN011 12/11 A3024 RMK AO2 CIG 007V010 $,2025-09-12T05:17:40Z,2025-09-12T01:17:40Z,Wautoma Municipal Airport,44.041599,-89.304497,US,US-WI
KY51,"Viroqua Muni, WI, US",2025-09-12T04:55:00Z,2025-09-12 04:55:00,VFR,15.1,15.1,100,7,0,NA,1023.1,METAR KY51 120455Z AUTO 10007KT 10SM CLR 15/15 A3021 RMK AO1 T01510151,2025-09-12T05:01:07Z,2025-09-12T01:01:07Z,Viroqua Municipal Airport,43.5801,-90.900196,US,US-WI
KY70,"Ionia Cnty Arpt, MI, US",2025-09-12T04:55:00Z,2025-09-12 04:55:00,VFR,13,11,90,2,0,NA,1023.5,METAR KY70 120455Z AUTO 09002KT 10SM CLR 13/11 A3022 RMK AO2,2025-09-12T05:01:07Z,2025-09-12T01:01:07Z,Ionia County Airport,42.938,-85.060501,US,US-MI
KY70,"Ionia Cnty Arpt, MI, US",2025-09-12T05:15:00Z,2025-09-12 05:15:00,VFR,13,12,70,2,0,NA,1023.5,METAR KY70 120515Z AUTO 07002KT 10SM CLR 13/12 A3022 RMK AO2,2025-09-12T05:17:40Z,2025-09-12T01:17:40Z,Ionia County Airport,42.938,-85.060501,US,US-MI
KYIP,"Detroit/Willow Run Arpt, MI, US",2025-09-12T04:53:00Z,2025-09-12 00:53:00,VFR,15,11.1,40,3,0,NA,1024.1,METAR KYIP 120453Z 04003KT 10SM CLR 15/11 A3024 RMK AO2 SLP235 T01500111 402670094,2025-09-12T05:01:07Z,2025-09-12T01:01:07Z,Willow Run Airport,42.2379,-83.530403,US,US-MI
KYKM,"Yakima/McAllister Fld, WA, US",2025-09-12T04:53:00Z,2025-09-11 21:53:00,VFR,21.7,11.1,310,11,17,NA,1013.6,METAR KYKM 120453Z 31011G17KT 10SM CLR 22/11 A2993 RMK AO2 SLP128 T02170111,2025-09-12T05:01:07Z,2025-09-12T01:01:07Z,Yakima Air Terminal McAllister Field,46.56819916,-120.5439987,US,US-WA
KYKN,"Yankton/Gurney Muni, SD, US",2025-09-12T04:56:00Z,2025-09-11 23:56:00,VFR,20.6,20,100,4,0,NA,1015.3,METAR KYKN 120456Z AUTO 10004KT 10SM CLR 21/20 A2998 RMK AO2 SLP157 T02060200,2025-09-12T05:01:07Z,2025-09-12T01:01:07Z,Chan Gurney Municipal Airport,42.916698455811,-97.385902404785,US,US-SD
KYNG,"Youngstown-Warren Rgnl, OH, US",2025-09-12T04:51:00Z,2025-09-12 00:51:00,VFR,12.8,11.1,40,3,0,NA,1023.5,METAR KYNG 120451Z 04003KT 10SM CLR 13/11 A3022 RMK AO2 SLP230 T01280111 402560078 $,2025-09-12T05:01:08Z,2025-09-12T01:01:08Z,Youngstown Warren Regional Airport,41.26070023,-80.67910004,US,US-OH
KZER,"Pottsville/Schuylkill Cnty, PA, US",2025-09-12T04:55:00Z,2025-09-12 04:55:00,VFR,17,10,40,10,0,NA,1023.1,METAR KZER 120455Z AUTO 04010KT 10SM CLR 17/10 A3021 RMK AO2,2025-09-12T05:01:07Z,2025-09-12T01:01:07Z,Schuylkill County Joe Zerbey Airport,40.706501,-76.3731,US,US-PA
KZPH,"Zephyrhills Muni, FL, US",2025-09-12T04:55:00Z,2025-09-12 00:55:00,VFR,23.1,20.7,10,6,0,NA,1017.4,METAR KZPH 120455Z AUTO 01006KT 10SM BKN120 23/21 A3004 RMK A02 LTG DSNT SW T02310207,2025-09-12T05:01:07Z,2025-09-12T01:01:07Z,Zephyrhills Municipal Airport,28.228201,-82.155899,US,US-FL
KZZV,"Zanesville Muni, OH, US",2025-09-12T04:53:00Z,2025-09-12 00:53:00,VFR,15,8.9,0,0,0,NA,1023.1,METAR KZZV 120453Z AUTO 00000KT 10SM CLR 15/09 A3021 RMK AO2 SLP223 T01500089 402720083,2025-09-12T05:01:07Z,2025-09-12T01:01:07Z,Zanesville Municipal Airport,39.9444007874,-81.89209747310001,US,US-OH
PAAD,"Point Thomson Arpt, AK, US",2025-09-12T04:55:00Z,2025-09-12 04:55:00,VFR,0.8,0,210,3,0,NA,1002.8,METAR PAAD 120455Z AUTO 21003KT 10SM SCT070 BKN080 OVC120 01/00 A2961 RMK AO2 T00080000 FZRANO,2025-09-12T05:01:09Z,2025-09-12T01:01:09Z,Point Thomson Airstrip,70.136,-146.290028,US,US-AK
PAAD,"Point Thomson Arpt, AK, US",2025-09-12T05:15:00Z,2025-09-12 05:15:00,VFR,0.5,-0.5,230,5,0,NA,1002.8,METAR PAAD 120515Z AUTO 23005KT 10SM SCT080 BKN120 01/00 A2961 RMK AO2 T00051005 FZRANO,2025-09-12T05:17:42Z,2025-09-12T01:17:42Z,Point Thomson Airstrip,70.136,-146.290028,US,US-AK
PAAK,"Atka Arpt, AK, US",2025-09-12T04:56:00Z,2025-09-11 19:56:00,IFR,8.9,8.9,110,3,0,NA,1014,METAR PAAK 120456Z AUTO 11003KT 10SM OVC008 09/09 A2994 RMK AO2 SLP139 T00890089 TSNO PNO $,2025-09-12T05:01:09Z,2025-09-12T01:01:09Z,Atka Airport,52.220299,-174.205994,US,US-AK
PAAQ,"Palmer Muni, AK, US",2025-09-12T04:53:00Z,2025-09-11 20:53:00,LIFR,11.1,10.6,240,3,0,NA,997.4,METAR PAAQ 120453Z AUTO 24003KT 10SM -RA OVC002 11/11 A2945 RMK AO2 RAE23B49 SLP975 P0000 T01110106 TSNO $,2025-09-12T05:01:09Z,2025-09-12T01:01:09Z,"Warren ""Bud"" Woods Palmer Municipal Airport",61.594898,-149.08901,US,US-AK
PABA,"Barter Island Arpt, AK, US",2025-09-12T04:56:00Z,2025-09-11 20:56:00,VFR,1.7,0,280,7,0,NA,1002.1,METAR PABA 120456Z AUTO 28007KT 10SM SCT080 BKN090 BKN120 02/00 A2959 RMK AO2 SLP037 T00170000 FZRANO TSNO,2025-09-12T05:01:09Z,2025-09-12T01:01:09Z,Barter Island Long Range Radar Station Airport,70.134003,-143.582001,US,US-AK
PABE,"Bethel Arpt, AK, US",2025-09-12T04:53:00Z,2025-09-11 20:53:00,VFR,7.8,1.7,290,6,0,NA,1008.2,METAR PABE 120453Z 29006KT 10SM BKN046 08/02 A2977 RMK AO2 SLP083 T00780017 $,2025-09-12T05:01:09Z,2025-09-12T01:01:09Z,Bethel Airport,60.77980042,-161.8379974,US,US-AK
PABI,"Ft Greely/Allen Fld, AK, US",2025-09-12T04:47:00Z,2025-09-11 20:47:00,MVFR,6,4,290,9,0,NA,1002.5,SPECI PABI 120447Z 29009KT 10SM BKN012 BKN022 OVC032 06/04 A2960 RMK AO2 $,2025-09-12T05:01:09Z,2025-09-12T01:01:09Z,Allen Army Airfield,63.9944992065,-145.722000122,US,US-AK
PABL,"Buckland Arpt, AK, US",2025-09-12T04:56:00Z,2025-09-11 20:56:00,VFR,4.4,0,280,5,0,NA,1003.5,METAR PABL 120456Z AUTO 28005KT 10SM SCT070 04/00 A2963 RMK AO2 SLP037 T00440000,2025-09-12T05:01:09Z,2025-09-12T01:01:09Z,Buckland Airport,65.981598,-161.149002,US,US-AK
PABR,"Utqiaġvik/Wiley Post-Will Rogers Mem, AK, US",2025-09-12T04:53:00Z,2025-09-11 20:53:00,IFR,0.6,-0.6,20,19,27,1.75,1006.9,METAR PABR 120453Z 02019G27KT 1 3/4SM -SN BR OVC007 01/M01 A2973 RMK AO2 PK WND 03029/0432 SLP067 P0002 T00061006 $,2025-09-12T05:01:09Z,2025-09-12T01:01:09Z,Wiley Post Will Rogers Memorial Airport,71.285402,-156.766008,US,US-AK
PABR,"Utqiaġvik/Wiley Post-Will Rogers Mem, AK, US",2025-09-12T05:00:00Z,2025-09-11 21:00:00,IFR,0.6,-0.6,30,21,29,2.5,1006.5,SPECI PABR 120500Z 03021G29KT 2 1/2SM -SN BR OVC008 01/M01 A2972 RMK AO2 PK WND 03029/0457 P0000 T00061006 $,2025-09-12T05:17:42Z,2025-09-12T01:17:42Z,Wiley Post Will Rogers Memorial Airport,71.285402,-156.766008,US,US-AK
PABT,"Bettles Arpt, AK, US",2025-09-12T04:53:00Z,2025-09-11 20:53:00,MVFR,3.9,2.2,310,3,0,8,1001.1,METAR PABT 120453Z 31003KT 8SM VCFG FEW010 BKN013 OVC040 04/02 A2956 RMK AO2 SLP021 FGBANK VC N AND VC S AND VC W T00390022 $,2025-09-12T05:01:09Z,2025-09-12T01:01:09Z,Bettles Airport,66.913902,-151.529007,US,US-AK
PABV,"Birchwood Arpt, AK, US",2025-09-12T04:56:00Z,2025-09-12 04:56:00,LIFR,10.6,10,220,4,0,NA,998.7,METAR PABV 120456Z AUTO 22004KT 10SM -RA OVC004 11/10 A2949 RMK AO2 SLP988 P0004 T01060100,2025-09-12T05:01:09Z,2025-09-12T01:01:09Z,Birchwood Airport,61.4165,-149.507004,US,US-AK
PACD,"Cold Bay Arpt, AK, US",2025-09-12T04:53:00Z,2025-09-11 20:53:00,VFR,8.9,6.7,300,10,0,NA,1012.6,METAR PACD 120453Z AUTO 30010KT 10SM -RA FEW018 BKN038 OVC055 09/07 A2990 RMK AO2 RAB53 SLP126 P0000 T00890067 TSNO $,2025-09-12T05:01:09Z,2025-09-12T01:01:09Z,Cold Bay Airport,55.207871,-162.725029,US,US-AK
PACD,"Cold Bay Arpt, AK, US",2025-09-12T05:12:00Z,2025-09-11 21:12:00,MVFR,8.9,6.7,310,6,0,NA,1013,SPECI PACD 120512Z AUTO 31006KT 10SM -RA SCT016 BKN021 OVC038 09/07 A2991 RMK AO2 P0000 T00890067 TSNO $,2025-09-12T05:17:42Z,2025-09-12T01:17:42Z,Cold Bay Airport,55.207871,-162.725029,US,US-AK
PACV,"Cordova/Smith Arpt, AK, US",2025-09-12T04:53:00Z,2025-09-11 20:53:00,MVFR,10.6,10.6,VAR,4,0,5,999.1,METAR PACV 120453Z VRB04KT 5SM RA BR SCT012 BKN026 OVC040 11/11 A2950 RMK AO2 SLP991 T01060106 PNO,2025-09-12T05:01:09Z,2025-09-12T01:01:09Z,Merle K (Mudhole) Smith Airport,60.491798,-145.477997,US,US-AK
PACX,"Coldfoot Arpt, AK, US",2025-09-12T04:55:00Z,2025-09-11 20:55:00,MVFR,3.3,2.8,200,4,0,9,1000.8,METAR PACX 120455Z AUTO 20004KT 9SM -RA SCT008 BKN022 OVC046 03/03 A2955 RMK AO2 SLP636 P0000 T00330028,2025-09-12T05:01:09Z,2025-09-12T01:01:09Z,Coldfoot Airport,67.25219726559999,-150.203994751,US,US-AK
PACX,"Coldfoot Arpt, AK, US",2025-09-12T05:02:00Z,2025-09-11 21:02:00,IFR,3,3,200,3,0,NA,1000.8,SPECI PACX 120502Z AUTO 20003KT 10SM -RA BKN006 BKN013 OVC035 03/03 A2955 RMK AO2 CIG 005V009 P0000,2025-09-12T05:17:42Z,2025-09-12T01:17:42Z,Coldfoot Airport,67.25219726559999,-150.203994751,US,US-AK
PADK,"Adak (NAS), AK, US",2025-09-12T04:56:00Z,2025-09-11 19:56:00,MVFR,8.9,8.3,260,5,0,NA,1013.3,METAR PADK 120456Z AUTO 26005KT 10SM SCT004 OVC013 09/08 A2992 RMK AO2 SLP130 T00890083,2025-09-12T05:01:09Z,2025-09-12T01:01:09Z,Adak Airport,51.883564,-176.642783,US,US-AK
PADL,"Dillingham Arpt, AK, US",2025-09-12T04:56:00Z,2025-09-11 20:56:00,VFR,8.9,-0.6,330,4,0,NA,1006.2,METAR PADL 120456Z 33004KT 10SM CLR 09/M01 A2971 RMK AO2 SLP065 T00891006,2025-09-12T05:01:09Z,2025-09-12T01:01:09Z,Dillingham Airport,59.04470062,-158.5050049,US,US-AK
PADQ,"Kodiak Arpt, AK, US",2025-09-12T04:53:00Z,2025-09-11 20:53:00,VFR,8.3,1.7,290,4,0,NA,1000.8,METAR PADQ 120453Z 29004KT 10SM CLR 08/02 A2955 RMK AO2 SLP007 T00830017,2025-09-12T05:01:09Z,2025-09-12T01:01:09Z,Kodiak Airport,57.75,-152.4940033,US,US-AK
PADU,"Dutch Harbor/Unalaska Arpt, AK, US",2025-09-12T04:56:00Z,2025-09-11 20:56:00,VFR,8.3,5,360,4,0,NA,1014.6,METAR PADU 120456Z 36004KT 10SM OVC036 08/05 A2996 RMK AO2 SLP145 T00830050,2025-09-12T05:01:09Z,2025-09-12T01:01:09Z,Tom Madsen (Dutch Harbor) Airport,53.89881,-166.544996,US,US-AK
PAEG,"Eagle Arpt, AK, US",2025-09-12T04:53:00Z,2025-09-11 20:53:00,VFR,10,9.4,0,0,0,NA,998.4,METAR PAEG 120453Z AUTO 00000KT 10SM BKN075 BKN100 OVC120 10/09 A2948 RMK AO2 RAE47 SLP985 P0008 T01000094 TSNO $,2025-09-12T05:01:09Z,2025-09-12T01:01:09Z,Eagle Airport,64.778003,-141.150455,US,US-AK
PAEM,"Emmonak Arpt, AK, US",2025-09-12T04:56:00Z,2025-09-11 20:56:00,VFR,7.2,3.3,320,9,0,NA,1007.5,METAR PAEM 120456Z AUTO 32009KT 10SM OVC036 07/03 A2975 RMK AO2 SLP073 T00720033 PNO $,2025-09-12T05:01:09Z,2025-09-12T01:01:09Z,Emmonak Airport,62.78609848,-164.4909973,US,US-AK
PAEN,"Kenai Muni, AK, US",2025-09-12T04:53:00Z,2025-09-11 20:53:00,MVFR,10,9.4,340,6,0,NA,998.4,METAR PAEN 120453Z 34006KT 10SM -RA BKN026 BKN047 OVC060 10/09 A2948 RMK AO2 SLP985 P0002 T01000094,2025-09-12T05:01:09Z,2025-09-12T01:01:09Z,Kenai Municipal Airport,60.570946,-151.245174,US,US-AK
PAFA,"Fairbanks Intl, AK, US",2025-09-12T04:53:00Z,2025-09-11 20:53:00,MVFR,6.1,4.4,240,8,0,7,1002.5,METAR PAFA 120453Z 24008KT 7SM -RA BKN017 BKN022 OVC037 06/04 A2960 RMK AO2 SLP029 P0000 T00610044 $,2025-09-12T05:01:09Z,2025-09-12T01:01:09Z,Fairbanks International Airport,64.815102,-147.856003,US,US-AK
PAFE,"Kake Arpt, AK, US",2025-09-12T04:56:00Z,2025-09-12 04:56:00,VFR,12.8,11.7,90,5,0,NA,1011.9,METAR PAFE 120456Z AUTO 09005KT 10SM CLR 13/12 A2988 RMK AO2 SLP124 T01280117 $,2025-09-12T05:01:09Z,2025-09-12T01:01:09Z,Kake Airport,56.961312,-133.910202,US,US-AK
PAFS,"Nikolai Arpt, AK, US",2025-09-12T04:01:00Z,2025-09-11 20:01:00,VFR,6.7,2.2,0,0,0,NA,1003.8,METAR PAFS 120401Z AUTO 00000KT 10SM -RA BKN038 07/02 A2964 RMK AO2 RAB0351 SLP046 P0000 T00670022,2025-09-12T05:01:09Z,2025-09-12T01:01:09Z,Nikolai Airport,63.017949,-154.360399,US,US-AK
PAFS,"Nikolai Arpt, AK, US",2025-09-12T05:01:00Z,2025-09-11 21:01:00,VFR,5.6,5,0,0,0,NA,1004.5,METAR PAFS 120501Z AUTO 00000KT 10SM FEW036 BKN044 OVC060 06/05 A2966 RMK AO2 RAE0413 SLP050 P0000 T00560050,2025-09-12T05:17:42Z,2025-09-12T01:17:42Z,Nikolai Airport,63.017949,-154.360399,US,US-AK
PAGA,"Galena Arpt, AK, US",2025-09-12T04:56:00Z,2025-09-11 20:56:00,VFR,6.7,0.6,240,8,0,NA,1003.1,METAR PAGA 120456Z AUTO 24008KT 10SM FEW044 OVC060 07/01 A2962 RMK AO2 SLP033 T00670006 TSNO $,2025-09-12T05:01:09Z,2025-09-12T01:01:09Z,Edward G. Pitka Sr Airport,64.736198,-156.936997,US,US-AK
PAGH,"Shungnak Arpt, AK, US",2025-09-12T04:56:00Z,2025-09-11 20:56:00,VFR,6.1,0.6,0,0,0,NA,1001.4,METAR PAGH 120456Z AUTO 00000KT 10SM BKN045 OVC060 06/01 A2957 RMK AO2 RAE0357 SLP017 T00610006,2025-09-12T05:01:09Z,2025-09-12T01:01:09Z,Shungnak Airport,66.88809967041,-157.16200256348,US,US-AK
PAGK,"Gulkana Arpt, AK, US",2025-09-12T04:53:00Z,2025-09-11 20:53:00,VFR,11.7,5.6,150,8,0,NA,998.4,METAR PAGK 120453Z AUTO 15008KT 10SM BKN110 12/06 A2948 RMK AO2 SLP986 T01170056 TSNO,2025-09-12T05:01:09Z,2025-09-12T01:01:09Z,Gulkana Airport,62.155859,-145.454662,US,US-AK
PAGL,"Golovin Arpt, AK, US",2025-09-12T04:56:00Z,2025-09-11 20:56:00,VFR,7.8,0,350,5,0,NA,1005.5,METAR PAGL 120456Z AUTO 35005KT 10SM OVC060 08/00 A2969 RMK AO2 SLP047 T00780000 $,2025-09-12T05:01:09Z,2025-09-12T01:01:09Z,Golovin Airport,64.550499,-163.007004,US,US-AK
PAGM,"Gambell Arpt, AK, US",2025-09-12T04:56:00Z,2025-09-11 20:56:00,VFR,6.1,0.6,VAR,3,0,NA,1010.2,METAR PAGM 120456Z AUTO VRB03KT 10SM SCT075 OVC090 06/01 A2983 RMK AO2 SLP106 T00610006,2025-09-12T05:01:09Z,2025-09-12T01:01:09Z,Gambell Airport,63.767694,-171.733303,US,US-AK
PAGN,"Angoon, AK, US",2025-09-12T04:56:00Z,2025-09-11 20:56:00,VFR,11.1,11.1,0,0,0,NA,1010.6,METAR PAGN 120456Z AUTO 00000KT 10SM BKN090 11/11 A2984 RMK AO2 SLP092 T01110111 $,2025-09-12T05:01:09Z,2025-09-12T01:01:09Z,Angoon Seaplane Base,57.497097,-134.56722,US,US-AK
PAGS,"Gustavus Arpt, AK, US",2025-09-12T04:56:00Z,2025-09-11 20:56:00,VFR,12.2,11.7,0,0,0,NA,1008.9,METAR PAGS 120456Z AUTO 00000KT 10SM -RA BKN060 OVC070 12/12 A2979 RMK AO2 RAB08 SLP087 P0000 T01220117,2025-09-12T05:01:09Z,2025-09-12T01:01:09Z,Gustavus Airport,58.4253006,-135.7070007,US,US-AK
PAGY,"Skagway Arpt, AK, US",2025-09-12T04:53:00Z,2025-09-11 20:53:00,VFR,14.4,11.1,210,12,20,NA,1006.5,METAR PAGY 120453Z AUTO 21012G20KT 10SM FEW050 BKN060 OVC110 14/11 A2972 RMK AO2 PK WND 21027/0406 SLP063 T01440111 TSNO,2025-09-12T05:01:09Z,2025-09-12T01:01:09Z,Skagway Airport,59.460343,-135.316651,US,US-AK
PAHC,"Holy Cross Arpt, AK, US",2025-09-12T04:56:00Z,2025-09-11 20:56:00,VFR,7.2,3.3,VAR,3,0,NA,1005.8,METAR PAHC 120456Z AUTO VRB03KT 10SM SCT041 BKN060 07/03 A2970 RMK AO2 SLP059 T00720033,2025-09-12T05:01:09Z,2025-09-12T01:01:09Z,Holy Cross Airport,62.18830108642578,-159.77499389648438,US,US-AK
PAHL,"Huslia Arpt, AK, US",2025-09-12T04:56:00Z,2025-09-11 20:56:00,VFR,5.6,-0.6,260,3,0,NA,1002.1,METAR PAHL 120456Z AUTO 26003KT 10SM OVC050 06/M01 A2959 RMK AO2 SLP023 T00561006 TSNO,2025-09-12T05:01:09Z,2025-09-12T01:01:09Z,Huslia Airport,65.697899,-156.350998,US,US-AK
PAHN,"Haines Arpt, AK, US",2025-09-12T04:54:00Z,2025-09-11 20:54:00,MVFR,13.9,11.7,90,9,19,NA,1007.2,METAR PAHN 120454Z AUTO 09009G19KT 030V120 10SM BKN012 BKN018 OVC070 14/12 A2974 RMK AO2 RAB0355E13 SLP075 P0000 T01390117 TSNO,2025-09-12T05:01:09Z,2025-09-12T01:01:09Z,Haines Airport,59.243921,-135.523925,US,US-AK
PAHO,"Homer Arpt, AK, US",2025-09-12T04:53:00Z,2025-09-11 20:53:00,MVFR,10.6,9.4,240,10,0,NA,998.4,METAR PAHO 120453Z 24010KT 10SM SCT015 BKN022 OVC029 11/09 A2948 RMK AO2 SLP984 T01060094 $,2025-09-12T05:01:09Z,2025-09-12T01:01:09Z,Homer Airport,59.644456,-151.479235,US,US-AK
PAHX,"Shageluk Arpt, AK, US",2025-09-12T04:02:00Z,2025-09-11 20:02:00,VFR,8.9,2.2,290,3,0,NA,1004.8,METAR PAHX 120402Z AUTO 29003KT 10SM BKN060 09/02 A2967 RMK AO2 RAE0304B0332E0344 SLP049 P0000 T00890022,2025-09-12T05:01:09Z,2025-09-12T01:01:09Z,Shageluk Airport,62.692144,-159.569035,US,US-AK
PAHX,"Shageluk Arpt, AK, US",2025-09-12T05:02:00Z,2025-09-11 21:02:00,VFR,7.8,3.3,350,3,0,NA,1005.5,METAR PAHX 120502Z AUTO 35003KT 10SM -RA FEW035 BKN045 OVC060 08/03 A2969 RMK AO2 RAB0438 SLP054 P0000 T00780033,2025-09-12T05:17:42Z,2025-09-12T01:17:42Z,Shageluk Airport,62.692144,-159.569035,US,US-AK
PAIG,"Igiugig Arpt, AK, US",2025-09-12T04:56:00Z,2025-09-11 20:56:00,VFR,NA,NA,290,4,0,NA,1005.5,METAR PAIG 120456Z AUTO 29004KT 10SM OVC048 A2969 RMK AO2 SLPNO FZRANO PNO $,2025-09-12T05:01:11Z,2025-09-12T01:01:11Z,Igiugig Airport,59.324001,-155.901993,US,US-AK
PAII,"Egegik Arpt, AK, US",2025-09-12T04:56:00Z,2025-09-11 20:56:00,VFR,5.6,2.2,0,0,0,NA,1006.5,METAR PAII 120456Z AUTO 00000KT 10SM CLR 06/02 A2972 RMK AO2 SLP063 T00560022,2025-09-12T05:01:11Z,2025-09-12T01:01:11Z,Egegik Airport,58.184386,-157.374873,US,US-AK
PAIL,"Iliamna Arpt, AK, US",2025-09-12T04:53:00Z,2025-09-11 20:53:00,VFR,8,0,320,9,16,NA,1004.5,METAR PAIL 120453Z 32009G16KT 10SM CLR 08/00 A2966,2025-09-12T05:01:11Z,2025-09-12T01:01:11Z,Iliamna Airport,59.754398,-154.910996,US,US-AK
PAIN,"McKinley Park Arpt, AK, US",2025-09-12T04:56:00Z,2025-09-11 20:56:00,MVFR,2.8,1.7,10,7,0,NA,1002.8,METAR PAIN 120456Z AUTO 01007KT 10SM -RA FEW013 OVC021 03/02 A2961 RMK AO2 SLP045 P0006 T00280017 TSNO,2025-09-12T05:01:11Z,2025-09-12T01:01:11Z,Denali National Park Airport,63.732465,-148.911266,US,US-AK
PAIW,"Wales Arpt, AK, US",2025-09-12T04:56:00Z,2025-09-11 20:56:00,VFR,6.1,2.2,20,11,0,NA,1007.9,METAR PAIW 120456Z AUTO 02011KT 10SM SCT028 OVC037 06/02 A2976 RMK AO2 SLP078 T00610022,2025-09-12T05:01:11Z,2025-09-12T01:01:11Z,Wales Airport,65.622593,-168.095,US,US-AK
PAJN,"Juneau Intl, AK, US",2025-09-12T04:53:00Z,2025-09-11 20:53:00,VFR,12.8,11.7,60,6,0,NA,1009.2,METAR PAJN 120453Z 06006KT 10SM -RA FEW004 BKN038 BKN080 13/12 A2980 RMK AO2 SLP091 P0008 T01280117 $,2025-09-12T05:01:11Z,2025-09-12T01:01:11Z,Juneau International Airport,58.355,-134.576004,US,US-AK
PAJZ,"Koliganek Arpt, AK, US",2025-09-12T04:56:00Z,2025-09-11 20:56:00,VFR,6.1,-0.6,10,7,0,6,1007.2,METAR PAJZ 120456Z AUTO 01007KT 6SM HZ CLR 06/M01 A2974 RMK AO2 SLP072 P0034 T00611006,2025-09-12T05:01:11Z,2025-09-12T01:01:11Z,Koliganek Airport,59.726600647,-157.259002686,US,US-AK
PAKF,"False Pass Arpt, AK, US",2025-09-12T04:56:00Z,2025-09-11 20:56:00,VFR,9.4,3.9,310,9,15,NA,1013,METAR PAKF 120456Z AUTO 31009G15KT 10SM OVC047 09/04 A2991 RMK AO2 SLP128 T00940039,2025-09-12T05:01:11Z,2025-09-12T01:01:11Z,False Pass Airport,54.84751,-163.407168,US,US-AK
PAKH,"Akhiok Arpt, AK, US",2025-09-12T04:56:00Z,2025-09-11 20:56:00,VFR,9.4,1.7,310,22,33,NA,1002.8,METAR PAKH 120456Z AUTO 31022G33KT 10SM CLR 09/02 A2961 RMK AO2 PK WND 32036/0424 SLP027 T00940017,2025-09-12T05:01:11Z,2025-09-12T01:01:11Z,Akhiok Airport,56.938702,-154.182999,US,US-AK
PAKI,"Kipnuk Arpt, AK, US",2025-09-12T04:56:00Z,2025-09-11 20:56:00,VFR,9.4,6.1,300,9,0,NA,1009.2,METAR PAKI 120456Z AUTO 30009KT 10SM OVC050 09/06 A2980 RMK AO2 SLP091 T00940061,2025-09-12T05:01:11Z,2025-09-12T01:01:11Z,Kipnuk Airport,59.931796,-164.028196,US,US-AK
PAKK,"Koyuk Arpt, AK, US",2025-09-12T04:56:00Z,2025-09-11 20:56:00,VFR,5,0.6,290,3,0,NA,1002.8,METAR PAKK 120456Z AUTO 29003KT 10SM OVC055 05/01 A2961 RMK AO2 SLPNO T00500006,2025-09-12T05:01:11Z,2025-09-12T01:01:11Z,Koyuk Alfred Adams Airport,64.939499,-161.154007,US,US-AK
PAKN,"King Salmon Arpt, AK, US",2025-09-12T04:54:00Z,2025-09-11 20:54:00,VFR,6.1,0.6,0,0,0,NA,1004.8,METAR PAKN 120454Z 00000KT 10SM SCT060 06/01 A2967 RMK AO2 SLP048 T00610006,2025-09-12T05:01:11Z,2025-09-12T01:01:11Z,King Salmon Airport,58.677845,-156.651965,US,US-AK
PAKP,"Anaktuvuk Pass Arpt, AK, US",2025-09-12T04:56:00Z,2025-09-11 20:56:00,VFR,-2.2,-3.9,50,5,0,9,993.3,METAR PAKP 120456Z AUTO 05005KT 9SM -SN FEW035 OVC055 M02/M04 A2933 RMK AO2 SLP976 T10221039 FZRANO PNO $,2025-09-12T05:01:11Z,2025-09-12T01:01:11Z,Anaktuvuk Pass Airport,68.133598,-151.742996,US,US-AK
PAKT,"Ketchikan Intl, AK, US",2025-09-12T04:53:00Z,2025-09-11 20:53:00,LIFR,12.8,12.8,140,5,0,NA,1012.3,METAR PAKT 120453Z 14005KT 10SM OVC004 13/13 A2989 RMK AO2 CIG 003V008 SLP123 HARBOR WIND 10005KT T01280128,2025-09-12T05:01:11Z,2025-09-12T01:01:11Z,Ketchikan International Airport,55.35559845,-131.7140045,US,US-AK
PAKV,"Kaltag Arpt, AK, US",2025-09-12T04:53:00Z,2025-09-11 20:53:00,VFR,6.1,1.1,260,4,0,NA,1004.1,METAR PAKV 120453Z AUTO 26004KT 10SM SCT049 OVC070 06/01 A2965 RMK AO2 SLP044 T00610011 TSNO $,2025-09-12T05:01:11Z,2025-09-12T01:01:11Z,Kaltag Airport,64.31864,-158.74197,US,US-AK
PAKW,"Klawock Arpt, AK, US",2025-09-12T04:53:00Z,2025-09-11 20:53:00,MVFR,13.3,10.6,0,0,0,3,1011.6,METAR PAKW 120453Z AUTO 00000KT 3SM HZ FEW014 13/11 A2987 RMK AO2 SLP113 T01330106 TSNO,2025-09-12T05:01:11Z,2025-09-12T01:01:11Z,Klawock Airport,55.579201,-133.076004,US,US-AK
PAKW,"Klawock Arpt, AK, US",2025-09-12T05:15:00Z,2025-09-11 21:15:00,IFR,12.8,9.4,0,0,0,2.5,1011.6,SPECI PAKW 120515Z AUTO 00000KT 2 1/2SM HZ SCT011 13/09 A2987 RMK AO2 T01280094 TSNO,2025-09-12T05:17:43Z,2025-09-12T01:17:43Z,Klawock Airport,55.579201,-133.076004,US,US-AK
PALG,"Kalskag Arpt, AK, US",2025-09-12T04:56:00Z,2025-09-11 20:56:00,VFR,6.7,3.3,0,0,0,NA,1007.2,METAR PALG 120456Z AUTO 00000KT 10SM BKN043 BKN050 OVC060 07/03 A2974 RMK AO2 SLP070 T00670033,2025-09-12T05:01:11Z,2025-09-12T01:01:11Z,Kalskag Airport,61.53630065917969,-160.34100341796875,US,US-AK
PALH,"Lake Hood, AK, US",2025-09-12T04:53:00Z,2025-09-12 04:53:00,MVFR,10,7.8,10,7,0,NA,998.4,METAR PALH 120453Z 01007KT 10SM -RA OVC019 10/08 A2948 RMK AO2 SLP984 P0001 T01000078,2025-09-12T05:01:11Z,2025-09-12T01:01:11Z,Lake Hood Seaplane Base,61.18,-149.972003,US,US-AK
PAMB,"Manokotak Arpt, AK, US",2025-09-12T04:56:00Z,2025-09-11 20:56:00,VFR,9.4,0,310,8,0,NA,1006.5,METAR PAMB 120456Z AUTO 31008KT 10SM CLR 09/00 A2972 RMK AO2 SLP068 T00940000,2025-09-12T05:01:11Z,2025-09-12T01:01:11Z,Manokotak Airport,58.932056,-158.901886,US,US-AK
PAMC,"McGrath Arpt, AK, US",2025-09-12T04:53:00Z,2025-09-11 20:53:00,VFR,6.7,2.2,280,4,0,NA,1004.1,METAR PAMC 120453Z AUTO 28004KT 10SM BKN045 BKN050 BKN070 07/02 A2965 RMK AO2 SLP047 T00670022 TSNO $,2025-09-12T05:01:11Z,2025-09-12T01:01:11Z,McGrath Airport,62.95289993,-155.6060028,US,US-AK
PAMD,"Middleton Isl Arpt, AK, US",2025-09-12T04:56:00Z,2025-09-11 20:56:00,VFR,13.3,11.7,140,11,0,NA,996.7,METAR PAMD 120456Z AUTO 14011KT 10SM FEW012 13/12 A2943 RMK AO2 RAE12 SLP965 P0000 T01330117 $,2025-09-12T05:01:11Z,2025-09-12T01:01:11Z,Middleton Island Airport,59.4499015808,-146.307006836,US,US-AK
PAMH,"Minchumina Arpt, AK, US",2025-09-12T04:56:00Z,2025-09-11 20:56:00,VFR,4.4,1.7,0,0,0,NA,1003.5,METAR PAMH 120456Z AUTO 00000KT 10SM BKN048 04/02 A2963 RMK AO2 SLP036 T00440017 TSNO,2025-09-12T05:01:11Z,2025-09-12T01:01:11Z,Minchumina Airport,63.886002,-152.302002,US,US-AK
PAMK,"St Michael Arpt, AK, US",2025-09-12T04:56:00Z,2025-09-11 20:56:00,VFR,NA,NA,290,6,0,NA,1006.2,METAR PAMK 120456Z AUTO 29006KT 10SM FEW037 A2971 RMK AO2 SLPNO FZRANO $,2025-09-12T05:01:11Z,2025-09-12T01:01:11Z,St Michael Airport,63.49010086,-162.1100006,US,US-AK
PAMM,"Metlakatla, AK, US",2025-09-12T04:56:00Z,2025-09-11 20:56:00,LIFR,12.8,12.2,0,0,0,NA,1012.6,METAR PAMM 120456Z AUTO 00000KT 10SM OVC004 13/12 A2990 RMK AO2 SLP117 T01280122 $,2025-09-12T05:01:11Z,2025-09-12T01:01:11Z,Metlakatla Seaplane Base,55.131001,-131.578003,US,US-AK
PAMO,"Mountain Village Arpt, AK, US",2025-09-12T04:56:00Z,2025-09-11 20:56:00,VFR,6.1,3.9,300,10,0,NA,1008.2,METAR PAMO 120456Z AUTO 30010KT 10SM FEW018 BKN035 06/04 A2977 RMK AO2 RAE14 SLP086 P0000 T00610039,2025-09-12T05:01:11Z,2025-09-12T01:01:11Z,Mountain Village Airport,62.095401763916016,-163.6820068359375,US,US-AK
PAMR,"Anchorage/Merrill Fld, AK, US",2025-09-12T04:53:00Z,2025-09-11 20:53:00,MVFR,10,7.8,360,6,0,NA,998.1,METAR PAMR 120453Z 36006KT 10SM -RA OVC018 10/08 A2947 RMK AO2 RAB01 SLP980 P0003 T01000078,2025-09-12T05:01:11Z,2025-09-12T01:01:11Z,Merrill Field,61.212792,-149.843988,US,US-AK
PAMY,"Mekoryuk Arpt, AK, US",2025-09-12T04:56:00Z,2025-09-11 20:56:00,VFR,8.9,5.6,0,0,0,NA,1009.2,METAR PAMY 120456Z AUTO 00000KT 10SM OVC048 09/06 A2980 RMK AO2 SLP091 T00890056,2025-09-12T05:01:11Z,2025-09-12T01:01:11Z,Mekoryuk Airport,60.372338,-166.269751,US,US-AK
PANA,"Napakiak Arpt, AK, US",2025-09-12T04:56:00Z,2025-09-11 20:56:00,MVFR,8.3,3.3,320,5,0,4,1008.2,METAR PANA 120456Z AUTO 32005KT 4SM HZ BKN042 OVC050 08/03 A2977 RMK AO2 SLP081 T00830033 TSNO,2025-09-12T05:01:11Z,2025-09-12T01:01:11Z,Napakiak Airport,60.6903,-161.979004,US,US-AK
PANC,"Anchorage Intl, AK, US",2025-09-12T04:53:00Z,2025-09-11 20:53:00,MVFR,9.4,6.7,350,6,0,NA,998.1,METAR PANC 120453Z 35006KT 10SM -RA FEW012 OVC020 09/07 A2947 RMK AO2 SLP980 P0002 T00940067,2025-09-12T05:01:11Z,2025-09-12T01:01:11Z,Ted Stevens Anchorage International Airport,61.179004,-149.992561,US,US-AK
PANI,"Aniak Arpt, AK, US",2025-09-12T04:56:00Z,2025-09-11 20:56:00,VFR,7.2,1.7,270,7,0,NA,1006.2,METAR PANI 120456Z AUTO 27007KT 10SM FEW040 BKN060 07/02 A2971 RMK AO2 SLP064 T00720017 $,2025-09-12T05:01:11Z,2025-09-12T01:01:11Z,Aniak Airport,61.581600189208984,-159.54299926757812,US,US-AK
PANN,"Nenana Muni, AK, US",2025-09-12T04:53:00Z,2025-09-11 20:53:00,VFR,5,3.9,240,4,0,NA,1002.5,METAR PANN 120453Z AUTO 24004KT 10SM SCT055 OVC070 05/04 A2960 RMK AO2 RAE37 SLP032 P0001 T00500039 TSNO,2025-09-12T05:01:11Z,2025-09-12T01:01:11Z,Nenana Municipal Airport,64.548772,-149.074516,US,US-AK
PANU,"Nulato Arpt, AK, US",2025-09-12T04:56:00Z,2025-09-11 20:56:00,VFR,3.9,1.7,300,7,0,NA,1004.1,METAR PANU 120456Z AUTO 30007KT 10SM FEW034 OVC060 04/02 A2965 RMK AO2 RAB15E39 SLP950 P0000 T00390017,2025-09-12T05:01:11Z,2025-09-12T01:01:11Z,Nulato Airport,64.729301,-158.074005,US,US-AK
PANV,"Anvik Arpt, AK, US",2025-09-12T04:56:00Z,2025-09-11 20:56:00,VFR,6.7,1.7,270,5,0,NA,1004.8,METAR PANV 120456Z AUTO 27005KT 10SM BKN050 07/02 A2967 RMK AO2 SLP124 T00670017 TSNO,2025-09-12T05:01:11Z,2025-09-12T01:01:11Z,Anvik Airport,62.646702,-160.190994,US,US-AK
PANW,"New Stuyahok Arpt, AK, US",2025-09-12T04:56:00Z,2025-09-11 20:56:00,VFR,6.1,-1.1,10,4,0,NA,1006.5,METAR PANW 120456Z AUTO 01004KT 10SM CLR 06/M01 A2972 RMK AO2 SLP069 T00611011,2025-09-12T05:01:11Z,2025-09-12T01:01:11Z,New Stuyahok Airport,59.451838,-157.373829,US,US-AK
PAOH,"Hoonah, AK, US",2025-09-12T04:56:00Z,2025-09-11 20:56:00,VFR,12.2,12.2,0,0,0,NA,1009.2,METAR PAOH 120456Z AUTO 00000KT 10SM -RA BKN047 OVC075 12/12 A2980 RMK AO2 RAB51 SLP092 P0000 T01220122,2025-09-12T05:01:11Z,2025-09-12T01:01:11Z,Hoonah Airport,58.0961,-135.410111,US,US-AK
PAOM,"Nome Arpt, AK, US",2025-09-12T04:53:00Z,2025-09-11 20:53:00,VFR,7.8,0,340,8,0,NA,1006.2,METAR PAOM 120453Z 34008KT 10SM CLR 08/00 A2971 RMK AO2 SLP059 T00780000,2025-09-12T05:01:11Z,2025-09-12T01:01:11Z,Nome Airport,64.51219940185547,-165.44500732421875,US,US-AK
PAOO,"Tooksok Bay Arpt, AK, US",2025-09-12T04:56:00Z,2025-09-11 20:56:00,VFR,6.7,4.4,280,5,0,NA,1009.9,METAR PAOO 120456Z AUTO 28005KT 10SM SCT050 07/04 A2982 RMK AO2 SLP102 T00670044 TSNO $,2025-09-12T05:01:11Z,2025-09-12T01:01:11Z,Toksook Bay Airport,60.541401,-165.087006,US,US-AK
PAOR,"Northway Arpt, AK, US",2025-09-12T04:53:00Z,2025-09-11 20:53:00,VFR,10,6.7,300,4,0,NA,997,METAR PAOR 120453Z AUTO 30004KT 10SM CLR 10/07 A2944 RMK AO2 SLP976 T01000067 TSNO PNO $,2025-09-12T05:01:11Z,2025-09-12T01:01:11Z,Northway Airport,62.9613,-141.929001,US,US-AK
PAOT,"Kotzebue/Wien Mem, AK, US",2025-09-12T04:53:00Z,2025-09-11 20:53:00,VFR,5,-2.2,350,12,0,NA,1003.5,METAR PAOT 120453Z 35012KT 10SM OVC100 05/M02 A2963 RMK AO2 SLP034 T00501022 $,2025-09-12T05:01:11Z,2025-09-12T01:01:11Z,Ralph Wien Memorial Airport,66.88469696,-162.598999,US,US-AK
PAOU,"Nelson Lagoon Arpt, AK, US",2025-09-12T04:56:00Z,2025-09-11 20:56:00,VFR,8.9,6.1,290,16,0,9,1011.6,METAR PAOU 120456Z AUTO 29016KT 9SM SCT017 SCT030 09/06 A2987 RMK AO2 SLP116 T00890061,2025-09-12T05:01:11Z,2025-09-12T01:01:11Z,Nelson Lagoon Airport,56.0075,-161.160004,US,US-AK
PAPB,"St George Arpt, AK, US",2025-09-12T04:53:00Z,2025-09-11 20:53:00,VFR,8.3,6.7,260,7,0,NA,1013,METAR PAPB 120453Z AUTO 26007KT 10SM BKN050 08/07 A2991 RMK AO2 SLP117 T00830067 TSNO,2025-09-12T05:01:11Z,2025-09-12T01:01:11Z,St George Airport,56.577345,-169.663823,US,US-AK
PAPE,"Perryville Arpt, AK, US",2025-09-12T04:56:00Z,2025-09-11 20:56:00,VFR,10,3.3,280,8,0,9,1000.4,METAR PAPE 120456Z AUTO 28008KT 9SM CLR 10/03 A2954 RMK AO2 SLP002 T01000033,2025-09-12T05:01:11Z,2025-09-12T01:01:11Z,Perryville Airport,55.9065,-159.16091,US,US-AK
PAPG,"Petersburg Arpt, AK, US",2025-09-12T04:56:00Z,2025-09-11 20:56:00,LIFR,12.8,12.8,0,0,0,0.25,1011.9,METAR PAPG 120456Z 00000KT 1/4SM FG BKN003 13/13 A2988 RMK AO2 SLP122 P0001 T01280128,2025-09-12T05:01:11Z,2025-09-12T01:01:11Z,Petersburg James A Johnson Airport,56.80170059,-132.9450073,US,US-AK
PAPH,"Port Heiden Arpt, AK, US",2025-09-12T04:56:00Z,2025-09-11 20:56:00,MVFR,9.4,7.8,300,14,0,NA,1009.2,METAR PAPH 120456Z AUTO 30014KT 10SM BKN018 BKN024 OVC043 09/08 A2980 RMK AO2 SLP090 T00940078 $,2025-09-12T05:01:11Z,2025-09-12T01:01:11Z,Port Heiden Airport,56.957893,-158.630219,US,US-AK
PAPM,"Platinum Arpt, AK, US",2025-09-12T04:56:00Z,2025-09-11 20:56:00,VFR,7.8,7.8,340,8,0,NA,1008.9,METAR PAPM 120456Z AUTO 34008KT 10SM FEW020 08/08 A2979 RMK AO2 SLP088 T00780078 TSNO PNO $,2025-09-12T05:01:11Z,2025-09-12T01:01:11Z,Platinum Airport,59.017675,-161.827927,US,US-AK
PAPN,"Pilot Point Arpt, AK, US",2025-09-12T04:56:00Z,2025-09-11 20:56:00,VFR,10,5,310,17,0,7,1006.9,METAR PAPN 120456Z AUTO 31017KT 7SM FEW031 10/05 A2973 RMK AO2 SLP067 T01000050 PNO $,2025-09-12T05:01:11Z,2025-09-12T01:01:11Z,Pilot Point Airport,57.580399,-157.572006,US,US-AK
PAQH,"Quinhagak Arpt, AK, US",2025-09-12T04:56:00Z,2025-09-11 20:56:00,VFR,7.8,6.7,0,0,0,NA,1009.2,METAR PAQH 120456Z AUTO 00000KT 10SM OVC040 08/07 A2980 RMK AO2 RAB12E31 SLP090 P0001 T00780067,2025-09-12T05:01:11Z,2025-09-12T01:01:11Z,Quinhagak Airport,59.7551,-161.845,US,US-AK
PAQT,"Nuiqsut Arpt, AK, US",2025-09-12T04:53:00Z,2025-09-11 20:53:00,MVFR,2.2,0.6,230,3,0,NA,1003.5,METAR PAQT 120453Z AUTO 23003KT 10SM -RA OVC014 02/01 A2963 RMK AO2 SLP034 P0000 T00220006 TSNO $,2025-09-12T05:01:11Z,2025-09-12T01:01:11Z,Nuiqsut Airport,70.209999,-151.005998,US,US-AK
PARC,"Arctic Village Arpt, AK, US",2025-09-12T04:56:00Z,2025-09-11 20:56:00,MVFR,8.9,7.2,0,0,0,NA,997.4,METAR PARC 120456Z AUTO 00000KT 10SM OVC015 09/07 A2945 RMK AO2 SLP004 T00890072 TSNO,2025-09-12T05:01:11Z,2025-09-12T01:01:11Z,Arctic Village Airport,68.1147,-145.578995,US,US-AK
PARS,"Russian Mission Arpt, AK, US",2025-09-12T04:56:00Z,2025-09-11 20:56:00,VFR,7.8,3.3,250,3,0,NA,1006.9,METAR PARS 120456Z AUTO 25003KT 10SM BKN035 OVC043 08/03 A2973 RMK AO2 RAB43E54 SLP071 T00780033 PNO $,2025-09-12T05:01:11Z,2025-09-12T01:01:11Z,Russian Mission Airport,61.775071,-161.319466,US,US-AK
PARY,"Ruby Arpt, AK, US",2025-09-12T04:56:00Z,2025-09-11 20:56:00,VFR,5,1.7,0,0,0,NA,1002.8,METAR PARY 120456Z AUTO 00000KT 10SM OVC050 05/02 A2961 RMK AO2 SLP034 T00500017 TSNO,2025-09-12T05:01:11Z,2025-09-12T01:01:11Z,Ruby Airport,64.727203,-155.470001,US,US-AK
PASA,"Savoonga Arpt, AK, US",2025-09-12T04:56:00Z,2025-09-11 20:56:00,VFR,6.1,1.1,60,4,0,NA,1010.2,METAR PASA 120456Z AUTO 06004KT 10SM OVC075 06/01 A2983 RMK AO2 SLP102 T00610011 $,2025-09-12T05:01:11Z,2025-09-12T01:01:11Z,Savoonga Airport,63.686401,-170.492996,US,US-AK
PASC,"Deadhorse Arpt, AK, US",2025-09-12T04:53:00Z,2025-09-11 20:53:00,MVFR,1.1,0,230,7,0,NA,1002.5,METAR PASC 120453Z 23007KT 10SM SCT008 BKN024 OVC100 01/00 A2960 RMK AO2 SLP025 CIG LWR NW-E T00110000 $,2025-09-12T05:01:11Z,2025-09-12T01:01:11Z,Deadhorse Airport,70.19470215,-148.4649963,US,US-AK
PASD,"Sand Point Arpt, AK, US",2025-09-12T04:56:00Z,2025-09-11 20:56:00,VFR,10,5.6,320,9,0,NA,1011.6,METAR PASD 120456Z AUTO 32009KT 10SM SCT030 BKN039 OVC055 10/06 A2987 RMK AO2 SLP116 T01000056 $,2025-09-12T05:01:11Z,2025-09-12T01:01:11Z,Sand Point Airport,55.313908,-160.522099,US,US-AK
PASH,"Shishmaref Arpt, AK, US",2025-09-12T04:56:00Z,2025-09-11 20:56:00,VFR,5.6,1.1,360,16,0,NA,1007.5,METAR PASH 120456Z AUTO 36016KT 10SM OVC031 06/01 A2975 RMK AO2 SLP074 T00560011,2025-09-12T05:01:11Z,2025-09-12T01:01:11Z,Shishmaref Airport,66.249604,-166.089112,US,US-AK
PASI,"Sitka/Gutierrez Arpt, AK, US",2025-09-12T03:53:00Z,2025-09-11 19:53:00,VFR,14,12,VAR,3,0,8,1009.9,METAR PASI 120353Z VRB03KT 8SM BKN090 14/12 A2982 RMK NO SPECI,2025-09-12T05:01:11Z,2025-09-12T01:01:11Z,Sitka Rocky Gutierrez Airport,57.04710006713867,-135.36199951171875,US,US-AK
PASL,"Sleetmute Arpt, AK, US",2025-09-12T04:56:00Z,2025-09-11 20:56:00,VFR,6.7,1.7,0,0,0,NA,1006.9,METAR PASL 120456Z AUTO 00000KT 10SM CLR 07/02 A2973 RMK AO2 SLP058 P0001 T00670017,2025-09-12T05:01:11Z,2025-09-12T01:01:11Z,Sleetmute Airport,61.7005,-157.166,US,US-AK
PASM,"St Marys Arpt, AK, US",2025-09-12T04:56:00Z,2025-09-11 20:56:00,VFR,6.7,2.8,280,7,0,NA,1008.2,METAR PASM 120456Z AUTO 28007KT 10SM BKN040 OVC047 07/03 A2977 RMK AO2 SLP089 T00670028,2025-09-12T05:01:11Z,2025-09-12T01:01:11Z,St Mary's Airport,62.060501,-163.302002,US,US-AK
PASN,"St Paul Island Arpt, AK, US",2025-09-12T04:53:00Z,2025-09-11 20:53:00,VFR,8.9,6.7,250,10,0,NA,1011.9,METAR PASN 120453Z AUTO 25010KT 10SM OVC049 09/07 A2988 RMK AO2 SLP118 T00890067 TSNO $,2025-09-12T05:01:11Z,2025-09-12T01:01:11Z,St Paul Island Airport,57.166311,-170.222555,US,US-AK
PASO,"Seldovia Arpt, AK, US",2025-09-12T04:53:00Z,2025-09-11 20:53:00,MVFR,8.9,7.8,VAR,NA,0,NA,999.1,METAR PASO 120453Z AUTO 10SM OVC027 09/08 A2950 RMK AO2 SLP991 T00890078 TSNO $,2025-09-12T05:01:11Z,2025-09-12T01:01:11Z,Seldovia Airport,59.442981,-151.705227,US,US-AK
PASX,"Soldotna Arpt, AK, US",2025-09-12T04:56:00Z,2025-09-11 20:56:00,IFR,10.6,10,0,0,0,NA,998.4,METAR PASX 120456Z AUTO 00000KT 10SM -RA BKN008 OVC013 11/10 A2948 RMK AO2 CIG 006V009 SLP989 P0001 T01060100 TSNO,2025-09-12T05:01:11Z,2025-09-12T01:01:11Z,Soldotna Airport,60.474935,-151.038471,US,US-AK
PASX,"Soldotna Arpt, AK, US",2025-09-12T05:10:00Z,2025-09-11 21:10:00,MVFR,11,10,0,0,0,NA,998.7,SPECI PASX 120510Z AUTO 00000KT 10SM -RA SCT008 OVC015 11/10 A2949 RMK AO2 P0000 TSNO,2025-09-12T05:17:43Z,2025-09-12T01:17:43Z,Soldotna Airport,60.474935,-151.038471,US,US-AK
PATA,"Tanana/Calhoun Mem, AK, US",2025-09-12T04:52:00Z,2025-09-11 20:52:00,VFR,9.4,2.2,220,5,0,NA,1002.5,METAR PATA 120452Z 22005KT 10SM SCT043 BKN055 09/02 A2960 RMK AO2 SLP025 T00940022 $,2025-09-12T05:01:11Z,2025-09-12T01:01:11Z,Ralph M Calhoun Memorial Airport,65.1744,-152.108994,US,US-AK
PATE,"Teller Arpt, AK, US",2025-09-12T04:56:00Z,2025-09-11 20:56:00,VFR,5,0,350,17,0,NA,1007.2,METAR PATE 120456Z AUTO 35017KT 10SM CLR 05/00 A2974 RMK AO2 SLP074 T00500000 TSNO,2025-09-12T05:01:11Z,2025-09-12T01:01:11Z,Teller Airport,65.2404022217,-166.339004517,US,US-AK
PATG,"Togiak Arpt, AK, US",2025-09-12T04:56:00Z,2025-09-11 20:56:00,VFR,7.2,3.9,310,8,0,NA,1007.9,METAR PATG 120456Z AUTO 31008KT 10SM CLR 07/04 A2976 RMK AO2 SLP079 T00720039,2025-09-12T05:01:11Z,2025-09-12T01:01:11Z,Togiak Airport,59.052799,-160.397003,US,US-AK
PATK,"Talkeetna Arpt, AK, US",2025-09-12T04:53:00Z,2025-09-11 20:53:00,IFR,9.4,8.9,0,0,0,NA,997.7,METAR PATK 120453Z AUTO 00000KT 10SM BKN009 OVC014 09/09 A2946 RMK AO2 RAB0356E13 SLP981 P0000 T00940089 TSNO $,2025-09-12T05:01:11Z,2025-09-12T01:01:11Z,Talkeetna Airport,62.320499420166,-150.09399414062,US,US-AK
PATK,"Talkeetna Arpt, AK, US",2025-09-12T05:13:00Z,2025-09-11 21:13:00,IFR,9.4,8.9,0,0,0,NA,998.1,SPECI PATK 120513Z AUTO 00000KT 10SM OVC009 09/09 A2947 RMK AO2 CIG 005V012 T00940089 TSNO $,2025-09-12T05:17:43Z,2025-09-12T01:17:43Z,Talkeetna Airport,62.320499420166,-150.09399414062,US,US-AK
PATQ,"Atqasuk/Burnell Mem, AK, US",2025-09-12T04:56:00Z,2025-09-11 20:56:00,IFR,0.6,0,10,16,0,2.5,1006.2,METAR PATQ 120456Z AUTO 01016KT 2 1/2SM -SN BR OVC006 01/00 A2971 RMK AO2 SLP065 P0000 T00060000 FZRANO TSNO,2025-09-12T05:01:11Z,2025-09-12T01:01:11Z,Atqasuk Edward Burnell Sr Memorial Airport,70.46704,-157.436013,US,US-AK
PATQ,"Atqasuk/Burnell Mem, AK, US",2025-09-12T05:14:00Z,2025-09-11 21:14:00,IFR,1,0,10,16,0,2.5,1006.2,SPECI PATQ 120514Z AUTO 01016KT 2 1/2SM -SN BR OVC006 01/00 A2971 RMK AO2 P0000 FZRANO TSNO,2025-09-12T05:17:43Z,2025-09-12T01:17:43Z,Atqasuk Edward Burnell Sr Memorial Airport,70.46704,-157.436013,US,US-AK
PAUN,"Unalakleet Arpt, AK, US",2025-09-12T04:56:00Z,2025-09-11 20:56:00,VFR,7.8,2.8,260,11,0,NA,1004.8,METAR PAUN 120456Z AUTO 26011KT 10SM -RA SCT028 BKN034 OVC050 08/03 A2967 RMK AO2 RAB56 SLP051 P0000 T00780028,2025-09-12T05:01:11Z,2025-09-12T01:01:11Z,Unalakleet Airport,63.888401,-160.798996,US,US-AK
PAVA,"Chevak Arpt, AK, US",2025-09-12T04:56:00Z,2025-09-11 20:56:00,VFR,6.1,1.7,340,8,0,NA,1009.9,METAR PAVA 120456Z AUTO 34008KT 10SM CLR 06/02 A2982 RMK AO2 SLP098 T00610017,2025-09-12T05:01:11Z,2025-09-12T01:01:11Z,Chevak Airport,61.5409,-165.6005,US,US-AK
PAVC,"King Cove Arpt, AK, US",2025-09-12T04:56:00Z,2025-09-11 20:56:00,MVFR,9.4,4.4,310,9,16,NA,1013,METAR PAVC 120456Z AUTO 31009G16KT 10SM -RA BKN027 OVC036 09/04 A2991 RMK AO2 SLPNO P0000 T00940044,2025-09-12T05:01:11Z,2025-09-12T01:01:11Z,King Cove Airport,55.116299,-162.266006,US,US-AK
PAVC,"King Cove Arpt, AK, US",2025-09-12T05:03:00Z,2025-09-11 21:03:00,VFR,9,4,310,8,0,NA,1013,SPECI PAVC 120503Z AUTO 31008KT 10SM SCT027 BKN037 OVC050 09/04 A2991 RMK AO2 RAE0457,2025-09-12T05:17:43Z,2025-09-12T01:17:43Z,King Cove Airport,55.116299,-162.266006,US,US-AK
PAVD,"Valdez Arpt, AK, US",2025-09-12T04:56:00Z,2025-09-11 20:56:00,VFR,9.4,9.4,0,0,0,NA,1001.8,METAR PAVD 120456Z 00000KT 10SM SCT003 SCT034 OVC060 09/09 A2958 RMK AO2 RAE50 SLP014 P0000 T00940094 $,2025-09-12T05:01:11Z,2025-09-12T01:01:11Z,Valdez Pioneer Field,61.132712,-146.246567,US,US-AK
PAWD,"Seward Arpt, AK, US",2025-09-12T04:53:00Z,2025-09-11 20:53:00,VFR,11.7,10.6,20,5,0,NA,996.7,METAR PAWD 120453Z AUTO 02005KT 10SM -RA FEW060 OVC075 12/11 A2943 RMK AO2 SLP966 P0001 T01170106 TSNO,2025-09-12T05:01:11Z,2025-09-12T01:01:11Z,Seward Airport,60.130478,-149.418612,US,US-AK
PAWG,"Wrangell Arpt, AK, US",2025-09-12T04:56:00Z,2025-09-11 20:56:00,VFR,13.3,12.2,140,5,0,NA,1011.9,METAR PAWG 120456Z 14005KT 10SM -RA FEW010 SCT035 OVC050 13/12 A2988 RMK AO2 RAB21 SLP120 T01330122 PNO $,2025-09-12T05:01:11Z,2025-09-12T01:01:11Z,Wrangell Airport,56.48429871,-132.3699951,US,US-AK
PAWM,"White Mouintain Arpt, AK, US",2025-09-12T04:56:00Z,2025-09-11 20:56:00,VFR,6.7,0,330,9,0,8,1004.8,METAR PAWM 120456Z AUTO 33009KT 8SM SCT055 07/00 A2967 RMK AO2 SLP052 T00670000 PNO $,2025-09-12T05:01:11Z,2025-09-12T01:01:11Z,White Mountain Airport,64.689201,-163.412994,US,US-AK
PAWN,"Noatak Arpt, AK, US",2025-09-12T04:56:00Z,2025-09-11 20:56:00,VFR,3.9,-3.9,30,9,0,NA,NA,METAR PAWN 120456Z AUTO 03009KT 10SM OVC110 04/M04 RMK AO2 SLPNO T00391039 $,2025-09-12T05:01:11Z,2025-09-12T01:01:11Z,Noatak Airport,67.561241,-162.980461,US,US-AK
PAWS,"Wasilla Arpt, AK, US",2025-09-12T04:56:00Z,2025-09-11 20:56:00,VFR,10.6,10.6,0,0,0,NA,998.4,METAR PAWS 120456Z AUTO 00000KT 10SM -RA SCT004 OVC065 11/11 A2948 RMK AO2 SLP986 P0003 T01060106,2025-09-12T05:01:11Z,2025-09-12T01:01:11Z,Wasilla Airport,61.571701,-149.539993,US,US-AK
PAYA,"Yakutat Arpt, AK, US",2025-09-12T04:53:00Z,2025-09-11 20:53:00,MVFR,13.3,12.2,110,7,0,9,1004.5,METAR PAYA 120453Z AUTO 11007KT 9SM FEW011 BKN022 OVC039 13/12 A2966 RMK AO2 RAB07E37 SLP044 P0003 T01330122 TSNO $,2025-09-12T05:01:11Z,2025-09-12T01:01:11Z,Yakutat Airport,59.508717,-139.660435,US,US-AK
PFCB,"Chenega Bay Arpt, AK, US",2025-09-12T04:30:00Z,2025-09-11 20:30:00,MVFR,14,13.5,20,6,0,NA,997.4,METAR PFCB 120430Z AUTO 02006KT 10SM RA SCT012 BKN019 OVC048 14/14 A2945 RMK AO2 P0003 T01400135,2025-09-12T05:01:11Z,2025-09-12T01:01:11Z,Chenega Bay Airport,60.077602,-147.99468,US,US-AK
PFCB,"Chenega Bay Arpt, AK, US",2025-09-12T04:50:00Z,2025-09-11 20:50:00,VFR,14,13.5,10,4,0,7,997.7,METAR PFCB 120450Z AUTO 01004KT 7SM RA SCT008 SCT014 OVC060 14/14 A2946 RMK AO2 P0010 T01400135,2025-09-12T05:17:44Z,2025-09-12T01:17:44Z,Chenega Bay Airport,60.077602,-147.99468,US,US-AK
PFCL,"Clarks Point Arpt, AK, US",2025-09-12T04:56:00Z,2025-09-11 20:56:00,VFR,9.4,2.8,VAR,NA,0,NA,1006.5,METAR PFCL 120456Z AUTO 10SM CLR 09/03 A2972 RMK AO2 SLP057 T00940028 $,2025-09-12T05:01:11Z,2025-09-12T01:01:11Z,Clarks Point Airport,58.833698,-158.529007,US,US-AK
PFEL,"Elim Arpt, AK, US",2025-09-12T04:56:00Z,2025-09-11 20:56:00,VFR,6.7,-1.1,320,5,0,NA,1004.5,METAR PFEL 120456Z AUTO 32005KT 10SM OVC050 07/M01 A2966 RMK AO2 SLP047 T00671011 TSNO,2025-09-12T05:01:11Z,2025-09-12T01:01:11Z,Elim Airport,64.6147,-162.272003,US,US-AK
PFKO,"Kotlik Arpt, AK, US",2025-09-12T04:56:00Z,2025-09-11 20:56:00,VFR,7.2,2.8,290,8,0,NA,NA,METAR PFKO 120456Z AUTO 29008KT 10SM OVC037 07/03 RMK AO2 SLPNO T00720028 $,2025-09-12T05:01:11Z,2025-09-12T01:01:11Z,Kotlik Airport,63.030602,-163.533005,US,US-AK
PFKT,"Brevig Mission Arpt, AK, US",2025-09-12T04:56:00Z,2025-09-11 20:56:00,VFR,5.6,0.6,350,13,0,NA,1007.5,METAR PFKT 120456Z AUTO 35013KT 10SM CLR 06/01 A2975 RMK AO2 SLP075 T00560006,2025-09-12T05:01:11Z,2025-09-12T01:01:11Z,Brevig Mission Airport,65.331826,-166.467848,US,US-AK
PFNO,"Noorvik/Curtis Mem, AK, US",2025-09-12T04:56:00Z,2025-09-11 20:56:00,VFR,4.4,-1.7,330,9,0,NA,1003.1,METAR PFNO 120456Z AUTO 33009KT 10SM SCT080 OVC110 04/M02 A2962 RMK AO2 SLP032 T00441017 $,2025-09-12T05:01:11Z,2025-09-12T01:01:11Z,Robert (Bob) Curtis Memorial Airport,66.817902,-161.018997,US,US-AK
PFSH,"Shaktoolik Arpt, AK, US",2025-09-12T04:56:00Z,2025-09-11 20:56:00,VFR,5.6,3.3,0,0,0,NA,1005.2,METAR PFSH 120456Z AUTO 00000KT 10SM OVC060 06/03 A2968 RMK AO2 SLP049 T00560033 TSNO PNO $,2025-09-12T05:01:11Z,2025-09-12T01:01:11Z,Shaktoolik Airport,64.371101,-161.223999,US,US-AK
PFTO,"Tok Junction Arpt, AK, US",2025-09-12T04:56:00Z,2025-09-11 20:56:00,VFR,8.9,7.2,290,7,0,NA,998.7,METAR PFTO 120456Z AUTO 29007KT 10SM -RA FEW043 BKN060 OVC085 09/07 A2949 RMK AO2 RAB23 SLP637 P0002 T00890072 $,2025-09-12T05:01:11Z,2025-09-12T01:01:11Z,Tok Junction Airport,63.32949829,-142.9539948,US,US-AK
PFWS,"South Naknek Arpt, AK, US",2025-09-12T04:56:00Z,2025-09-11 20:56:00,VFR,7.2,1.7,70,4,0,NA,NA,METAR PFWS 120456Z AUTO 07004KT 10SM CLR 07/02 RMK AO2 SLPNO T00720017 $,2025-09-12T05:01:11Z,2025-09-12T01:01:11Z,South Naknek Number 2 Airport,58.702362,-157.005444,US,US-AK
PFYU,"Fort Yukon Arpt, AK, US",2025-09-12T04:56:00Z,2025-09-11 20:56:00,MVFR,9.4,8.3,270,5,0,NA,999.1,METAR PFYU 120456Z AUTO 27005KT 10SM OVC010 09/08 A2950 RMK AO2 CIG 007V012 SLP000 T00940083 TSNO,2025-09-12T05:01:11Z,2025-09-12T01:01:11Z,Fort Yukon Airport,66.571651,-145.249987,US,US-AK
PFYU,"Fort Yukon Arpt, AK, US",2025-09-12T05:04:00Z,2025-09-11 21:04:00,IFR,9,8,250,6,0,NA,999.1,SPECI PFYU 120504Z AUTO 25006KT 10SM BKN008 OVC012 09/08 A2950 RMK AO2 TSNO,2025-09-12T05:17:43Z,2025-09-12T01:17:43Z,Fort Yukon Airport,66.571651,-145.249987,US,US-AK
PHBK,"Kekaha/Barking Sands Arpt, HI, US",2025-09-12T04:51:00Z,2025-09-11 18:51:00,VFR,28.3,21.7,270,3,0,NA,1016,METAR PHBK 120451Z AUTO 27003KT 10SM FEW026 SCT060 28/22 A3000 RMK AO2 SLP160 T02830217 $,2025-09-12T05:01:11Z,2025-09-12T01:01:11Z,Barking Sands Airport,22.0228,-159.785004,US,US-HI
PHBK,"Kekaha/Barking Sands Arpt, HI, US",2025-09-12T05:12:00Z,2025-09-11 19:12:00,VFR,28.3,22.2,260,5,0,NA,1016,METAR PHBK 120512Z AUTO 26005KT 10SM SCT026 28/22 A3000 RMK AO2 T02830222 $,2025-09-12T05:17:43Z,2025-09-12T01:17:43Z,Barking Sands Airport,22.0228,-159.785004,US,US-HI
PHJR,"Kalaeloa Arpt, HI, US",2025-09-12T04:53:00Z,2025-09-11 18:53:00,VFR,27.2,20,60,6,0,NA,1016.7,METAR PHJR 120453Z 06006KT 10SM CLR 27/20 A3002 RMK AO2 SLP172 T02720200,2025-09-12T05:01:11Z,2025-09-12T01:01:11Z,Kalaeloa Airport,21.3074,-158.070009,US,US-HI
PHKO,"Keahole Point/Kona Intl, HI, US",2025-09-12T04:53:00Z,2025-09-11 18:53:00,VFR,28.3,21.7,220,5,0,NA,1016,METAR PHKO 120453Z 22005KT 10SM OVC085 28/22 A3000 RMK AO2 SLP157 T02830217,2025-09-12T05:01:11Z,2025-09-12T01:01:11Z,Ellison Onizuka Kona International Airport at Keahole,19.738783,-156.045603,US,US-HI
PHLI,"Lihue Arpt, HI, US",2025-09-12T04:53:00Z,2025-09-11 18:53:00,VFR,26.7,22.2,70,11,0,NA,1017.4,METAR PHLI 120453Z 07011KT 10SM FEW021 SCT049 27/22 A3004 RMK AO2 SLP168 T02670222 $,2025-09-12T05:01:11Z,2025-09-12T01:01:11Z,Lihue Airport,21.976,-159.339005,US,US-HI
PHMK,"Molokai Arpt, HI, US",2025-09-12T04:54:00Z,2025-09-11 18:54:00,VFR,26.1,20.6,70,8,21,NA,1016.7,METAR PHMK 120454Z AUTO 07008G21KT 10SM FEW042 BKN050 26/21 A3002 RMK AO2 SLP168 T02610206 TSNO,2025-09-12T05:01:12Z,2025-09-12T01:01:12Z,Molokai Airport,21.152901,-157.095993,US,US-HI
PHNG,"Kaneohe Bay (MCAS), HI, US",2025-09-12T04:57:00Z,2025-09-11 18:57:00,VFR,26.7,22.2,80,7,0,7,1016,METAR PHNG 120457Z 08007KT 7SM SCT027 BKN050 27/22 A3000 RMK AO2 SLP154 T02670222 $,2025-09-12T05:01:12Z,2025-09-12T01:01:12Z,Kaneohe Bay MCAS (Marion E. Carl Field) Airport,21.4505,-157.768005,US,US-HI
PHNL,"Honolulu Intl, HI, US",2025-09-12T04:53:00Z,2025-09-11 18:53:00,VFR,27.8,21.1,70,10,0,NA,1016.7,METAR PHNL 120453Z 07010KT 10SM FEW022 FEW032 SCT043 SCT200 28/21 A3002 RMK AO2 SLP164 VCSH NE-E T02780211 $,2025-09-12T05:01:12Z,2025-09-12T01:01:12Z,Daniel K Inouye International Airport,21.32062,-157.924228,US,US-HI
PHNY,"Lanai Arpt, HI, US",2025-09-12T04:56:00Z,2025-09-11 18:56:00,MVFR,22.8,21.1,130,4,0,NA,1018.7,METAR PHNY 120456Z AUTO 13004KT 10SM FEW014 BKN027 OVC055 23/21 A3008 RMK AO2 SLP167 T02280211 $,2025-09-12T05:01:12Z,2025-09-12T01:01:12Z,Lanai Airport,20.785675,-156.951324,US,US-HI
PHNY,"Lanai Arpt, HI, US",2025-09-12T05:16:00Z,2025-09-11 19:16:00,VFR,22,21,110,5,0,NA,1019,SPECI PHNY 120516Z AUTO 11005KT 10SM SCT027 OVC034 22/21 A3009 RMK AO2 $,2025-09-12T05:17:45Z,2025-09-12T01:17:45Z,Lanai Airport,20.785675,-156.951324,US,US-HI
PHOG,"Kahului Arpt, HI, US",2025-09-12T04:54:00Z,2025-09-11 18:54:00,VFR,25.6,21.1,70,9,18,NA,1016,METAR PHOG 120454Z 07009G18KT 10SM -RA FEW055 BKN075 OVC100 26/21 A3000 RMK AO2 PK WND 05029/0355 RAB33 SLP163 P0000 T02560211,2025-09-12T05:01:12Z,2025-09-12T01:01:12Z,Kahului International Airport,20.896263,-156.431837,US,US-HI
PHTO,"Hilo Intl, HI, US",2025-09-12T04:53:00Z,2025-09-11 18:53:00,MVFR,23.9,22.8,230,5,0,NA,1017.4,METAR PHTO 120453Z 23005KT 10SM BKN012 BKN018 OVC034 24/23 A3004 RMK AO2 RAE05B25E39 SLP170 P0007 T02390228,2025-09-12T05:01:12Z,2025-09-12T01:01:12Z,Hilo International Airport,19.721399,-155.048004,US,US-HI
PHTO,"Hilo Intl, HI, US",2025-09-12T05:01:00Z,2025-09-11 19:01:00,MVFR,23.9,22.8,230,4,0,NA,1017.4,SPECI PHTO 120501Z 23004KT 10SM BKN015 BKN023 OVC038 24/23 A3004 RMK AO2 T02390228,2025-09-12T05:17:45Z,2025-09-12T01:17:45Z,Hilo International Airport,19.721399,-155.048004,US,US-HI
PPIZ,"Point Lay Arpt, AK, US",2025-09-12T04:56:00Z,2025-09-11 20:56:00,MVFR,0.6,-1.7,20,12,0,NA,1009.2,METAR PPIZ 120456Z AUTO 02012KT 10SM -RA BKN012 OVC100 01/M02 A2980 RMK AO2 UPB45E56RAB56 SLP094 P0000 T00061017 FZRANO,2025-09-12T05:01:12Z,2025-09-12T01:01:12Z,Point Lay LRRS Airport,69.732903,-163.005005,US,US-AK
